[
  {
    "postcode": "8523",
    "city": "Plauen Vogtland"
  },
  {
    "postcode": "8523",
    "city": "Plauen"
  },
  {
    "postcode": "8523",
    "city": "Vogtlandkreis"
  },
  {
    "postcode": "8523",
    "city": "Stadtmitte"
  },
  {
    "postcode": "8523",
    "city": "Westend"
  },
  {
    "postcode": "8523",
    "city": "Possig"
  },
  {
    "postcode": "8523",
    "city": "Hammervorstadt"
  },
  {
    "postcode": "8523",
    "city": "Chrieschwitz"
  },
  {
    "postcode": "8523",
    "city": "Thiergarten"
  },
  {
    "postcode": "8523",
    "city": "Südvorstadt"
  },
  {
    "postcode": "8525",
    "city": "Plauen Vogtland"
  },
  {
    "postcode": "8525",
    "city": "Plauen"
  },
  {
    "postcode": "8525",
    "city": "Vogtlandkreis"
  },
  {
    "postcode": "8525",
    "city": "Kauschwitz"
  },
  {
    "postcode": "8525",
    "city": "Reißig"
  },
  {
    "postcode": "8525",
    "city": "Haselbrunn"
  },
  {
    "postcode": "8525",
    "city": "Reusa"
  },
  {
    "postcode": "8525",
    "city": "Preißelpöhl"
  },
  {
    "postcode": "8525",
    "city": "Stadtmitte"
  },
  {
    "postcode": "8525",
    "city": "Hammervorstadt"
  },
  {
    "postcode": "8525",
    "city": "Oberer Bahnhof"
  },
  {
    "postcode": "8525",
    "city": "Oberjößnitz"
  },
  {
    "postcode": "8527",
    "city": "Plauen Vogtland"
  },
  {
    "postcode": "8527",
    "city": "Plauen"
  },
  {
    "postcode": "8527",
    "city": "Vogtlandkreis"
  },
  {
    "postcode": "8527",
    "city": "Neundorf"
  },
  {
    "postcode": "8527",
    "city": "Rößnitz"
  },
  {
    "postcode": "8527",
    "city": "Rosenbach/Vogtl."
  },
  {
    "postcode": "8527",
    "city": "Schneckengrün"
  },
  {
    "postcode": "8527",
    "city": "Straßberg"
  },
  {
    "postcode": "8527",
    "city": "Ostvorstadt"
  },
  {
    "postcode": "8527",
    "city": "Südvorstadt"
  },
  {
    "postcode": "8527",
    "city": "Oberlosa"
  },
  {
    "postcode": "8527",
    "city": "Unterlosa"
  },
  {
    "postcode": "8527",
    "city": "Stadtmitte"
  },
  {
    "postcode": "8527",
    "city": "Westend"
  },
  {
    "postcode": "8527",
    "city": "Stöckigt"
  },
  {
    "postcode": "8527",
    "city": "Hammervorstadt"
  },
  {
    "postcode": "8527",
    "city": "Meßbach"
  },
  {
    "postcode": "8527",
    "city": "Brand"
  },
  {
    "postcode": "8527",
    "city": "Thiergarten"
  },
  {
    "postcode": "8527",
    "city": "Reinsdorf"
  },
  {
    "postcode": "8527",
    "city": "Linde"
  },
  {
    "postcode": "8527",
    "city": "Reusa"
  },
  {
    "postcode": "8527",
    "city": "Waldesruh"
  },
  {
    "postcode": "8527",
    "city": "Rosenbach"
  },
  {
    "postcode": "8527",
    "city": "Fasendorf"
  },
  {
    "postcode": "8529",
    "city": "Plauen Vogtland"
  },
  {
    "postcode": "8529",
    "city": "Plauen"
  },
  {
    "postcode": "8529",
    "city": "Vogtlandkreis"
  },
  {
    "postcode": "8529",
    "city": "Reusa"
  },
  {
    "postcode": "8529",
    "city": "Chrieschwitz"
  },
  {
    "postcode": "8529",
    "city": "Sorga"
  },
  {
    "postcode": "8529",
    "city": "Kleinfriesen"
  },
  {
    "postcode": "8529",
    "city": "Hammervorstadt"
  },
  {
    "postcode": "8529",
    "city": "Alt-Chrieschwitz"
  },
  {
    "postcode": "8538",
    "city": "Burgstein bei Plauen"
  },
  {
    "postcode": "8538",
    "city": "Reuth bei Plauen"
  },
  {
    "postcode": "8538",
    "city": "Weischlitz"
  },
  {
    "postcode": "8538",
    "city": "Vogtlandkreis"
  },
  {
    "postcode": "8538",
    "city": "Tobertitz"
  },
  {
    "postcode": "8538",
    "city": "Kloschwitz"
  },
  {
    "postcode": "8538",
    "city": "Kürbitz"
  },
  {
    "postcode": "8538",
    "city": "Kemnitz"
  },
  {
    "postcode": "8538",
    "city": "Geilsdorf"
  },
  {
    "postcode": "8538",
    "city": "Thossen"
  },
  {
    "postcode": "8538",
    "city": "Krebes"
  },
  {
    "postcode": "8538",
    "city": "Rodersdorf"
  },
  {
    "postcode": "8538",
    "city": "Gutenfürst"
  },
  {
    "postcode": "8538",
    "city": "Grobau"
  },
  {
    "postcode": "8538",
    "city": "Kobitzschwalde"
  },
  {
    "postcode": "8538",
    "city": "Heinersgrün"
  },
  {
    "postcode": "8538",
    "city": "Reuth"
  },
  {
    "postcode": "8538",
    "city": "Kleinzöbern"
  },
  {
    "postcode": "8538",
    "city": "Kröstau"
  },
  {
    "postcode": "8538",
    "city": "Pirk"
  },
  {
    "postcode": "8538",
    "city": "Schönlind"
  },
  {
    "postcode": "8538",
    "city": "Dröda"
  },
  {
    "postcode": "8538",
    "city": "Schwand"
  },
  {
    "postcode": "8538",
    "city": "Ruderitz"
  },
  {
    "postcode": "8538",
    "city": "Großzöbern"
  },
  {
    "postcode": "8538",
    "city": "Mißlareuth"
  },
  {
    "postcode": "8538",
    "city": "Reinhardtswalde"
  },
  {
    "postcode": "8538",
    "city": "Dehles"
  },
  {
    "postcode": "8538",
    "city": "Berglas"
  },
  {
    "postcode": "8539",
    "city": "Leubnitz bei Plauen"
  },
  {
    "postcode": "8539",
    "city": "Mehltheuer Vogtland"
  },
  {
    "postcode": "8539",
    "city": "Mehltheuer"
  },
  {
    "postcode": "8539",
    "city": "Vogtlandkreis"
  },
  {
    "postcode": "8539",
    "city": "Kornbach"
  },
  {
    "postcode": "8539",
    "city": "Leubnitz"
  },
  {
    "postcode": "8539",
    "city": "Pausa-Mühltroff"
  },
  {
    "postcode": "8539",
    "city": "Rodau"
  },
  {
    "postcode": "8539",
    "city": "Rosenbach/Vogtl."
  },
  {
    "postcode": "8539",
    "city": "Schönberg"
  },
  {
    "postcode": "8539",
    "city": "Rosenbach"
  },
  {
    "postcode": "8541",
    "city": "Neuensalz"
  },
  {
    "postcode": "8541",
    "city": "Theuma"
  },
  {
    "postcode": "8541",
    "city": "Vogtlandkreis"
  },
  {
    "postcode": "8541",
    "city": "Großfriesen"
  },
  {
    "postcode": "8541",
    "city": "Mechelgrün"
  },
  {
    "postcode": "8541",
    "city": "Plauen"
  },
  {
    "postcode": "8541",
    "city": "Thoßfell"
  },
  {
    "postcode": "8541",
    "city": "Zobes"
  },
  {
    "postcode": "8543",
    "city": "Pöhl im Vogtland"
  },
  {
    "postcode": "8543",
    "city": "Vogtlandkreis"
  },
  {
    "postcode": "8543",
    "city": "Pöhl"
  },
  {
    "postcode": "8543",
    "city": "Herlasgrün"
  },
  {
    "postcode": "8543",
    "city": "Jocketa"
  },
  {
    "postcode": "8543",
    "city": "Ruppertsgrün"
  },
  {
    "postcode": "8543",
    "city": "Helmsgrün"
  },
  {
    "postcode": "8543",
    "city": "Möschwitz"
  },
  {
    "postcode": "8543",
    "city": "Rodlera"
  },
  {
    "postcode": "8547",
    "city": "Jößnitz"
  },
  {
    "postcode": "8547",
    "city": "Vogtlandkreis"
  },
  {
    "postcode": "8547",
    "city": "Plauen"
  },
  {
    "postcode": "8547",
    "city": "Oberjößnitz"
  },
  {
    "postcode": "8547",
    "city": "Steinsdorf"
  },
  {
    "postcode": "8548",
    "city": "Syrau"
  },
  {
    "postcode": "8548",
    "city": "Vogtlandkreis"
  },
  {
    "postcode": "8548",
    "city": "Rosenbach/Vogtl."
  },
  {
    "postcode": "8548",
    "city": "Fröbersgrün"
  },
  {
    "postcode": "8548",
    "city": "Rosenbach"
  },
  {
    "postcode": "85049",
    "city": "Dünzlau"
  },
  {
    "postcode": "85049",
    "city": "Friedrichshofen Kreis Ingolstadt Donau"
  },
  {
    "postcode": "85049",
    "city": "Friedrichshofen"
  },
  {
    "postcode": "85049",
    "city": "Gerolfing"
  },
  {
    "postcode": "85049",
    "city": "Ingolstadt Donau"
  },
  {
    "postcode": "85049",
    "city": "Ingolstadt"
  },
  {
    "postcode": "85049",
    "city": "Irgertsheim"
  },
  {
    "postcode": "85049",
    "city": "Mühlhausen"
  },
  {
    "postcode": "85049",
    "city": "Pettenhofen Oberbayern"
  },
  {
    "postcode": "85049",
    "city": "Pettenhofen"
  },
  {
    "postcode": "85049",
    "city": "Heindlmühle"
  },
  {
    "postcode": "85051",
    "city": "Hagau Kreis Ingolstadt Donau"
  },
  {
    "postcode": "85051",
    "city": "Hagau"
  },
  {
    "postcode": "85051",
    "city": "Haunwöhr Donau"
  },
  {
    "postcode": "85051",
    "city": "Haunwöhr"
  },
  {
    "postcode": "85051",
    "city": "Hundszell Donau"
  },
  {
    "postcode": "85051",
    "city": "Hundszell"
  },
  {
    "postcode": "85051",
    "city": "Ingolstadt Donau"
  },
  {
    "postcode": "85051",
    "city": "Ingolstadt"
  },
  {
    "postcode": "85051",
    "city": "Oberbrunnenreuth"
  },
  {
    "postcode": "85051",
    "city": "Seehof"
  },
  {
    "postcode": "85051",
    "city": "Spitalhof"
  },
  {
    "postcode": "85051",
    "city": "Unsernherrn"
  },
  {
    "postcode": "85051",
    "city": "Unterbrunnenreuth"
  },
  {
    "postcode": "85051",
    "city": "Winden"
  },
  {
    "postcode": "85051",
    "city": "Zuchering"
  },
  {
    "postcode": "85051",
    "city": "Knoglersfreude"
  },
  {
    "postcode": "85053",
    "city": "Ingolstadt Donau"
  },
  {
    "postcode": "85053",
    "city": "Ingolstadt"
  },
  {
    "postcode": "85053",
    "city": "Kothau Donau"
  },
  {
    "postcode": "85053",
    "city": "Kothau"
  },
  {
    "postcode": "85053",
    "city": "Niederfeld Donau"
  },
  {
    "postcode": "85053",
    "city": "Niederfeld"
  },
  {
    "postcode": "85053",
    "city": "Ringsee"
  },
  {
    "postcode": "85053",
    "city": "Rothenturm"
  },
  {
    "postcode": "85053",
    "city": "Gemeinde Großmehring"
  },
  {
    "postcode": "85055",
    "city": "Etting Kreis Ingolstadt Donau"
  },
  {
    "postcode": "85055",
    "city": "Etting"
  },
  {
    "postcode": "85055",
    "city": "Feldkirchen Kreis Ingolstadt Donau"
  },
  {
    "postcode": "85055",
    "city": "Feldkirchen"
  },
  {
    "postcode": "85055",
    "city": "Ingolstadt Donau"
  },
  {
    "postcode": "85055",
    "city": "Ingolstadt"
  },
  {
    "postcode": "85055",
    "city": "Mailing Kreis Ingolstadt Donau"
  },
  {
    "postcode": "85055",
    "city": "Mailing"
  },
  {
    "postcode": "85055",
    "city": "Unterhaunstadt"
  },
  {
    "postcode": "85055",
    "city": "Oberhaunstadt"
  },
  {
    "postcode": "85055",
    "city": "Moosmühle"
  },
  {
    "postcode": "85055",
    "city": "Schmidtmühle"
  },
  {
    "postcode": "85057",
    "city": "Ingolstadt Donau"
  },
  {
    "postcode": "85057",
    "city": "Ingolstadt"
  },
  {
    "postcode": "85072",
    "city": "Blumenberg Bayern"
  },
  {
    "postcode": "85072",
    "city": "Blumenberg"
  },
  {
    "postcode": "85072",
    "city": "Buchenhüll Bayern"
  },
  {
    "postcode": "85072",
    "city": "Buchenhüll"
  },
  {
    "postcode": "85072",
    "city": "Eichstätt"
  },
  {
    "postcode": "85072",
    "city": "Eichstätt Bayern"
  },
  {
    "postcode": "85072",
    "city": "Harthof bei Eichstätt Bayern"
  },
  {
    "postcode": "85072",
    "city": "Harthof bei Eichstätt"
  },
  {
    "postcode": "85072",
    "city": "Landershofen Bayern"
  },
  {
    "postcode": "85072",
    "city": "Landershofen"
  },
  {
    "postcode": "85072",
    "city": "Marienstein bei Eichstätt Bayern"
  },
  {
    "postcode": "85072",
    "city": "Marienstein bei Eichstätt"
  },
  {
    "postcode": "85072",
    "city": "Rebdorf bei Eichstätt Bayern"
  },
  {
    "postcode": "85072",
    "city": "Rebdorf bei Eichstätt"
  },
  {
    "postcode": "85072",
    "city": "Wasserzell Kreis Eichstätt Bayern"
  },
  {
    "postcode": "85072",
    "city": "Wasserzell"
  },
  {
    "postcode": "85072",
    "city": "Wintershof Bayern"
  },
  {
    "postcode": "85072",
    "city": "Wintershof"
  },
  {
    "postcode": "85072",
    "city": "Harthof"
  },
  {
    "postcode": "85072",
    "city": "Rebdorf"
  },
  {
    "postcode": "85072",
    "city": "Marienstein"
  },
  {
    "postcode": "85072",
    "city": "Häringhof"
  },
  {
    "postcode": "85072",
    "city": "Wegscheid"
  },
  {
    "postcode": "85072",
    "city": "Lüften"
  },
  {
    "postcode": "85072",
    "city": "Wimpasing"
  },
  {
    "postcode": "85072",
    "city": "Ziegelhof"
  },
  {
    "postcode": "85077",
    "city": "Manching"
  },
  {
    "postcode": "85077",
    "city": "Niederstimm"
  },
  {
    "postcode": "85077",
    "city": "Oberstimm"
  },
  {
    "postcode": "85077",
    "city": "Pichl Kreis Ingolstadt Donau"
  },
  {
    "postcode": "85077",
    "city": "Pichl"
  },
  {
    "postcode": "85077",
    "city": "Westenhausen"
  },
  {
    "postcode": "85077",
    "city": "Pfaffenhofen an der Ilm"
  },
  {
    "postcode": "85077",
    "city": "Markt Reichertshofen"
  },
  {
    "postcode": "85077",
    "city": "Forstwiesen"
  },
  {
    "postcode": "85077",
    "city": "Großmehring"
  },
  {
    "postcode": "85080",
    "city": "Gaimersheim"
  },
  {
    "postcode": "85080",
    "city": "Lippertshofen Oberbayern"
  },
  {
    "postcode": "85080",
    "city": "Lippertshofen"
  },
  {
    "postcode": "85080",
    "city": "Stadt Ingolstadt"
  },
  {
    "postcode": "85080",
    "city": "Eichstätt"
  },
  {
    "postcode": "85080",
    "city": "Mittlere Heide"
  },
  {
    "postcode": "85084",
    "city": "Agelsberg Kreis Pfaffenhofen an der Ilm"
  },
  {
    "postcode": "85084",
    "city": "Agelsberg"
  },
  {
    "postcode": "85084",
    "city": "Au am Aign"
  },
  {
    "postcode": "85084",
    "city": "Dörfl Kreis Pfaffenhofen an der Ilm"
  },
  {
    "postcode": "85084",
    "city": "Dörfl"
  },
  {
    "postcode": "85084",
    "city": "Gotteshofen Oberbayern"
  },
  {
    "postcode": "85084",
    "city": "Gotteshofen"
  },
  {
    "postcode": "85084",
    "city": "Hög Kreis Pfaffenhofen an der Ilm"
  },
  {
    "postcode": "85084",
    "city": "Hög"
  },
  {
    "postcode": "85084",
    "city": "Langenbruck Kreis Pfaffenhofen an der Ilm"
  },
  {
    "postcode": "85084",
    "city": "Langenbruck"
  },
  {
    "postcode": "85084",
    "city": "Reichertshofen"
  },
  {
    "postcode": "85084",
    "city": "Reichertshofen Oberbayern"
  },
  {
    "postcode": "85084",
    "city": "Ronnweg Kreis Pfaffenhofen an der Ilm"
  },
  {
    "postcode": "85084",
    "city": "Ronnweg"
  },
  {
    "postcode": "85084",
    "city": "Sankt Kastl"
  },
  {
    "postcode": "85084",
    "city": "Sankt Kastl"
  },
  {
    "postcode": "85084",
    "city": "Starkertshofen Oberbayern"
  },
  {
    "postcode": "85084",
    "city": "Starkertshofen"
  },
  {
    "postcode": "85084",
    "city": "Winden am Aign"
  },
  {
    "postcode": "85084",
    "city": "Wolnhofen Oberbayern"
  },
  {
    "postcode": "85084",
    "city": "Wolnhofen"
  },
  {
    "postcode": "85084",
    "city": "Pfaffenhofen an der Ilm"
  },
  {
    "postcode": "85084",
    "city": "Au a. Aign"
  },
  {
    "postcode": "85084",
    "city": "St. Kastl"
  },
  {
    "postcode": "85084",
    "city": "Stöffel"
  },
  {
    "postcode": "85088",
    "city": "Dünzing"
  },
  {
    "postcode": "85088",
    "city": "Hartacker an der Donau"
  },
  {
    "postcode": "85088",
    "city": "Irsching"
  },
  {
    "postcode": "85088",
    "city": "Knodorf"
  },
  {
    "postcode": "85088",
    "city": "Menning"
  },
  {
    "postcode": "85088",
    "city": "Oberdünzing an der Donau"
  },
  {
    "postcode": "85088",
    "city": "Oberhartheim an der Donau"
  },
  {
    "postcode": "85088",
    "city": "Pleiling an der Donau"
  },
  {
    "postcode": "85088",
    "city": "Rockolding an der Donau"
  },
  {
    "postcode": "85088",
    "city": "Vohburg"
  },
  {
    "postcode": "85088",
    "city": "Vohburg an der Donau"
  },
  {
    "postcode": "85088",
    "city": "Pfaffenhofen an der Ilm"
  },
  {
    "postcode": "85088",
    "city": "Vohburg a.d.Donau"
  },
  {
    "postcode": "85088",
    "city": "Hartacker"
  },
  {
    "postcode": "85088",
    "city": "Rockolding"
  },
  {
    "postcode": "85088",
    "city": "Pleiling"
  },
  {
    "postcode": "85088",
    "city": "Oberdünzing"
  },
  {
    "postcode": "85088",
    "city": "Unterhartheim"
  },
  {
    "postcode": "85088",
    "city": "Oberhartheim"
  },
  {
    "postcode": "85092",
    "city": "Bettbrunn"
  },
  {
    "postcode": "85092",
    "city": "Gemeinde Lenting"
  },
  {
    "postcode": "85092",
    "city": "Kasing"
  },
  {
    "postcode": "85092",
    "city": "Kösching"
  },
  {
    "postcode": "85092",
    "city": "Eichstätt"
  },
  {
    "postcode": "85092",
    "city": "Köschinger Waldhaus"
  },
  {
    "postcode": "85092",
    "city": "Stammham"
  },
  {
    "postcode": "85092",
    "city": "Interpark"
  },
  {
    "postcode": "85095",
    "city": "Altenberg"
  },
  {
    "postcode": "85095",
    "city": "Bitz Mittelfranken"
  },
  {
    "postcode": "85095",
    "city": "Bitz"
  },
  {
    "postcode": "85095",
    "city": "Denkendorf"
  },
  {
    "postcode": "85095",
    "city": "Denkendorf Oberbayern"
  },
  {
    "postcode": "85095",
    "city": "Dörndorf Mittelfranken"
  },
  {
    "postcode": "85095",
    "city": "Dörndorf"
  },
  {
    "postcode": "85095",
    "city": "Gelbelsee"
  },
  {
    "postcode": "85095",
    "city": "Schönbrunn Mittelfranken"
  },
  {
    "postcode": "85095",
    "city": "Schönbrunn"
  },
  {
    "postcode": "85095",
    "city": "Zandt Oberbayern"
  },
  {
    "postcode": "85095",
    "city": "Zandt"
  },
  {
    "postcode": "85095",
    "city": "Eichstätt"
  },
  {
    "postcode": "85098",
    "city": "Demling"
  },
  {
    "postcode": "85098",
    "city": "Erlachhof"
  },
  {
    "postcode": "85098",
    "city": "Großmehring"
  },
  {
    "postcode": "85098",
    "city": "Katharinenberg"
  },
  {
    "postcode": "85098",
    "city": "Pettling"
  },
  {
    "postcode": "85098",
    "city": "Straßhausen"
  },
  {
    "postcode": "85098",
    "city": "Theißing"
  },
  {
    "postcode": "85098",
    "city": "Tholbath"
  },
  {
    "postcode": "85098",
    "city": "Eichstätt"
  },
  {
    "postcode": "85098",
    "city": "Interpark"
  },
  {
    "postcode": "85101",
    "city": "Lenting"
  },
  {
    "postcode": "85101",
    "city": "Eichstätt"
  },
  {
    "postcode": "85104",
    "city": "Dötting"
  },
  {
    "postcode": "85104",
    "city": "Ettling Kreis Ingolstadt Donau"
  },
  {
    "postcode": "85104",
    "city": "Ettling"
  },
  {
    "postcode": "85104",
    "city": "Forchheim Kreis Riedenburg Oberpfalz"
  },
  {
    "postcode": "85104",
    "city": "Forchheim"
  },
  {
    "postcode": "85104",
    "city": "Gaden bei Pförring"
  },
  {
    "postcode": "85104",
    "city": "Lobsing"
  },
  {
    "postcode": "85104",
    "city": "Pförring"
  },
  {
    "postcode": "85104",
    "city": "Pirkenbrunn"
  },
  {
    "postcode": "85104",
    "city": "Wackerstein"
  },
  {
    "postcode": "85104",
    "city": "Eichstätt"
  },
  {
    "postcode": "85104",
    "city": "Gaden"
  },
  {
    "postcode": "85107",
    "city": "Baar"
  },
  {
    "postcode": "85107",
    "city": "Baar-Ebenhausen"
  },
  {
    "postcode": "85107",
    "city": "Ebenhausen"
  },
  {
    "postcode": "85107",
    "city": "Ebenhausen Werk"
  },
  {
    "postcode": "85107",
    "city": "Pfaffenhofen an der Ilm"
  },
  {
    "postcode": "85110",
    "city": "Arnsberg"
  },
  {
    "postcode": "85110",
    "city": "Attenzell"
  },
  {
    "postcode": "85110",
    "city": "Biberg"
  },
  {
    "postcode": "85110",
    "city": "Böhming"
  },
  {
    "postcode": "85110",
    "city": "Buch"
  },
  {
    "postcode": "85110",
    "city": "Dunsdorf"
  },
  {
    "postcode": "85110",
    "city": "Grösdorf"
  },
  {
    "postcode": "85110",
    "city": "Hirnstetten"
  },
  {
    "postcode": "85110",
    "city": "Irlahüll"
  },
  {
    "postcode": "85110",
    "city": "Kemathen"
  },
  {
    "postcode": "85110",
    "city": "Kipfenberg"
  },
  {
    "postcode": "85110",
    "city": "Kipfenberg Oberbayern"
  },
  {
    "postcode": "85110",
    "city": "Krut"
  },
  {
    "postcode": "85110",
    "city": "Oberemmendorf"
  },
  {
    "postcode": "85110",
    "city": "Pfahldorf"
  },
  {
    "postcode": "85110",
    "city": "Schambach"
  },
  {
    "postcode": "85110",
    "city": "Schelldorf"
  },
  {
    "postcode": "85110",
    "city": "Eichstätt"
  },
  {
    "postcode": "85111",
    "city": "Adelschlag"
  },
  {
    "postcode": "85111",
    "city": "Möckenlohe"
  },
  {
    "postcode": "85111",
    "city": "Moritzbrunn"
  },
  {
    "postcode": "85111",
    "city": "Ochsenfeld"
  },
  {
    "postcode": "85111",
    "city": "Pietenfeld"
  },
  {
    "postcode": "85111",
    "city": "Prielhof"
  },
  {
    "postcode": "85111",
    "city": "Wittenfeld"
  },
  {
    "postcode": "85111",
    "city": "Eichstätt"
  },
  {
    "postcode": "85113",
    "city": "Böhmfeld"
  },
  {
    "postcode": "85113",
    "city": "Eichstätt"
  },
  {
    "postcode": "85114",
    "city": "Buxheim"
  },
  {
    "postcode": "85114",
    "city": "Buxheim Oberbayern"
  },
  {
    "postcode": "85114",
    "city": "Tauberfeld"
  },
  {
    "postcode": "85114",
    "city": "Eichstätt"
  },
  {
    "postcode": "85114",
    "city": "Hessenhof"
  },
  {
    "postcode": "85114",
    "city": "Moosbauer"
  },
  {
    "postcode": "85114",
    "city": "Moosmühle"
  },
  {
    "postcode": "85114",
    "city": "Pfahlhof"
  },
  {
    "postcode": "85114",
    "city": "Reinboldsmühle"
  },
  {
    "postcode": "85116",
    "city": "Egweil"
  },
  {
    "postcode": "85116",
    "city": "Eichstätt"
  },
  {
    "postcode": "85117",
    "city": "Eitensheim"
  },
  {
    "postcode": "85117",
    "city": "Eichstätt"
  },
  {
    "postcode": "85119",
    "city": "Ernsgaden"
  },
  {
    "postcode": "85119",
    "city": "Pfaffenhofen an der Ilm"
  },
  {
    "postcode": "85120",
    "city": "Hepberg"
  },
  {
    "postcode": "85120",
    "city": "Eichstätt"
  },
  {
    "postcode": "85122",
    "city": "Baumfeld"
  },
  {
    "postcode": "85122",
    "city": "Hitzhofen"
  },
  {
    "postcode": "85122",
    "city": "Hofstetten bei Eichstätt Bayern"
  },
  {
    "postcode": "85122",
    "city": "Hofstetten bei Eichstätt"
  },
  {
    "postcode": "85122",
    "city": "Mühlthal"
  },
  {
    "postcode": "85122",
    "city": "Oberzell"
  },
  {
    "postcode": "85122",
    "city": "Eichstätt"
  },
  {
    "postcode": "85122",
    "city": "Hofstetten"
  },
  {
    "postcode": "85123",
    "city": "Adelshausen bei Ingolstadt Donau"
  },
  {
    "postcode": "85123",
    "city": "Adelshausen bei Ingolstadt"
  },
  {
    "postcode": "85123",
    "city": "Aschelsried bei Ingolstadt Donau"
  },
  {
    "postcode": "85123",
    "city": "Aschelsried bei Ingolstadt"
  },
  {
    "postcode": "85123",
    "city": "Bofzheim"
  },
  {
    "postcode": "85123",
    "city": "Brautlach"
  },
  {
    "postcode": "85123",
    "city": "Grillheim"
  },
  {
    "postcode": "85123",
    "city": "Josephenburg"
  },
  {
    "postcode": "85123",
    "city": "Karlskron"
  },
  {
    "postcode": "85123",
    "city": "Karlsruh"
  },
  {
    "postcode": "85123",
    "city": "Mändlfeld"
  },
  {
    "postcode": "85123",
    "city": "Pobenhausen"
  },
  {
    "postcode": "85123",
    "city": "Probfeld"
  },
  {
    "postcode": "85123",
    "city": "Walding bei Ingolstadt Donau"
  },
  {
    "postcode": "85123",
    "city": "Walding bei Ingolstadt"
  },
  {
    "postcode": "85123",
    "city": "Neuburg-Schrobenhausen"
  },
  {
    "postcode": "85123",
    "city": "Aschelsried"
  },
  {
    "postcode": "85123",
    "city": "Adelshausen"
  },
  {
    "postcode": "85123",
    "city": "Walding"
  },
  {
    "postcode": "85125",
    "city": "Badanhausen"
  },
  {
    "postcode": "85125",
    "city": "Berletzhausen"
  },
  {
    "postcode": "85125",
    "city": "Enkering"
  },
  {
    "postcode": "85125",
    "city": "Erlingshofen bei Titting Oberbayern"
  },
  {
    "postcode": "85125",
    "city": "Erlingshofen bei Titting"
  },
  {
    "postcode": "85125",
    "city": "Haunstetten"
  },
  {
    "postcode": "85125",
    "city": "Ilbling"
  },
  {
    "postcode": "85125",
    "city": "Kinding"
  },
  {
    "postcode": "85125",
    "city": "Kirchanhausen"
  },
  {
    "postcode": "85125",
    "city": "Pfraundorf"
  },
  {
    "postcode": "85125",
    "city": "Schafhausen bei Titting Oberbayern"
  },
  {
    "postcode": "85125",
    "city": "Schafhausen bei Titting"
  },
  {
    "postcode": "85125",
    "city": "Unteremmendorf"
  },
  {
    "postcode": "85125",
    "city": "Eichstätt"
  },
  {
    "postcode": "85125",
    "city": "Kratzmühle"
  },
  {
    "postcode": "85125",
    "city": "Erlingshofen"
  },
  {
    "postcode": "85125",
    "city": "Eibwang"
  },
  {
    "postcode": "85125",
    "city": "Niefang"
  },
  {
    "postcode": "85125",
    "city": "Schafhausen"
  },
  {
    "postcode": "85125",
    "city": "Schafhausermühle"
  },
  {
    "postcode": "85125",
    "city": "Schlößlmühle"
  },
  {
    "postcode": "85126",
    "city": "Auhausen"
  },
  {
    "postcode": "85126",
    "city": "Forstpriel"
  },
  {
    "postcode": "85126",
    "city": "Mitterwöhr"
  },
  {
    "postcode": "85126",
    "city": "Münchsmünster"
  },
  {
    "postcode": "85126",
    "city": "Niederwöhr"
  },
  {
    "postcode": "85126",
    "city": "Oberwöhr"
  },
  {
    "postcode": "85126",
    "city": "Wöhr"
  },
  {
    "postcode": "85126",
    "city": "Pfaffenhofen an der Ilm"
  },
  {
    "postcode": "85126",
    "city": "Au"
  },
  {
    "postcode": "85126",
    "city": "Dirnbergermühle"
  },
  {
    "postcode": "85126",
    "city": "Griesham"
  },
  {
    "postcode": "85126",
    "city": "Niedermühle"
  },
  {
    "postcode": "85128",
    "city": "Meilenhofen"
  },
  {
    "postcode": "85128",
    "city": "Nassenfels"
  },
  {
    "postcode": "85128",
    "city": "Wolkertshofen"
  },
  {
    "postcode": "85128",
    "city": "Zell an der Speck"
  },
  {
    "postcode": "85128",
    "city": "Eichstätt"
  },
  {
    "postcode": "85128",
    "city": "Zell a.d. Speck"
  },
  {
    "postcode": "85129",
    "city": "Hagenstetten"
  },
  {
    "postcode": "85129",
    "city": "Harlanden"
  },
  {
    "postcode": "85129",
    "city": "Oberdolling"
  },
  {
    "postcode": "85129",
    "city": "Unterdolling"
  },
  {
    "postcode": "85129",
    "city": "Weißendorf"
  },
  {
    "postcode": "85129",
    "city": "Eichstätt"
  },
  {
    "postcode": "85129",
    "city": "St. Lorenzi"
  },
  {
    "postcode": "85131",
    "city": "Pollenfeld"
  },
  {
    "postcode": "85131",
    "city": "Preith Bayern"
  },
  {
    "postcode": "85131",
    "city": "Preith"
  },
  {
    "postcode": "85131",
    "city": "Seuversholz"
  },
  {
    "postcode": "85131",
    "city": "Sornhüll Bayern"
  },
  {
    "postcode": "85131",
    "city": "Sornhüll"
  },
  {
    "postcode": "85131",
    "city": "Wachenzell"
  },
  {
    "postcode": "85131",
    "city": "Weigersdorf"
  },
  {
    "postcode": "85131",
    "city": "Eichstätt"
  },
  {
    "postcode": "85132",
    "city": "Birkhof"
  },
  {
    "postcode": "85132",
    "city": "Rupertsbuch"
  },
  {
    "postcode": "85132",
    "city": "Sappenfeld"
  },
  {
    "postcode": "85132",
    "city": "Schernfeld"
  },
  {
    "postcode": "85132",
    "city": "Schönau"
  },
  {
    "postcode": "85132",
    "city": "Schönfeld Mittelfranken"
  },
  {
    "postcode": "85132",
    "city": "Schönfeld"
  },
  {
    "postcode": "85132",
    "city": "Workerszell"
  },
  {
    "postcode": "85132",
    "city": "Eichstätt"
  },
  {
    "postcode": "85132",
    "city": "Wegscheid"
  },
  {
    "postcode": "85134",
    "city": "Appertshofen bei Ingolstadt Donau"
  },
  {
    "postcode": "85134",
    "city": "Appertshofen bei Ingolstadt"
  },
  {
    "postcode": "85134",
    "city": "Stammham"
  },
  {
    "postcode": "85134",
    "city": "Stammham bei Ingolstadt Donau"
  },
  {
    "postcode": "85134",
    "city": "Stammham bei Ingolstadt"
  },
  {
    "postcode": "85134",
    "city": "Westerhofen bei Ingolstadt Donau"
  },
  {
    "postcode": "85134",
    "city": "Westerhofen bei Ingolstadt"
  },
  {
    "postcode": "85134",
    "city": "Eichstätt"
  },
  {
    "postcode": "85134",
    "city": "Appertshofen"
  },
  {
    "postcode": "85134",
    "city": "Westerhofen"
  },
  {
    "postcode": "85134",
    "city": "Jurahof"
  },
  {
    "postcode": "85134",
    "city": "Neuhau"
  },
  {
    "postcode": "85135",
    "city": "Altdorf bei Titting Oberbayern"
  },
  {
    "postcode": "85135",
    "city": "Altdorf bei Titting"
  },
  {
    "postcode": "85135",
    "city": "Emsing bei Titting Oberbayern"
  },
  {
    "postcode": "85135",
    "city": "Emsing bei Titting"
  },
  {
    "postcode": "85135",
    "city": "Erkertshofen Oberbayern"
  },
  {
    "postcode": "85135",
    "city": "Erkertshofen"
  },
  {
    "postcode": "85135",
    "city": "Großnottersdorf Mittelfranken"
  },
  {
    "postcode": "85135",
    "city": "Großnottersdorf"
  },
  {
    "postcode": "85135",
    "city": "Hegelohe"
  },
  {
    "postcode": "85135",
    "city": "Heiligenkreuz"
  },
  {
    "postcode": "85135",
    "city": "Herlingshard Oberbayern"
  },
  {
    "postcode": "85135",
    "city": "Herlingshard"
  },
  {
    "postcode": "85135",
    "city": "Kaldorf Oberbayern"
  },
  {
    "postcode": "85135",
    "city": "Kaldorf"
  },
  {
    "postcode": "85135",
    "city": "Kesselberg Mittelfranken"
  },
  {
    "postcode": "85135",
    "city": "Kesselberg"
  },
  {
    "postcode": "85135",
    "city": "Mantlach Mittelfranken"
  },
  {
    "postcode": "85135",
    "city": "Mantlach"
  },
  {
    "postcode": "85135",
    "city": "Morsbach Mittelfranken"
  },
  {
    "postcode": "85135",
    "city": "Morsbach"
  },
  {
    "postcode": "85135",
    "city": "Oberkesselberg Mittelfranken"
  },
  {
    "postcode": "85135",
    "city": "Oberkesselberg"
  },
  {
    "postcode": "85135",
    "city": "Petersbuch"
  },
  {
    "postcode": "85135",
    "city": "Stadelhofen"
  },
  {
    "postcode": "85135",
    "city": "Titting"
  },
  {
    "postcode": "85135",
    "city": "Titting Oberbayern"
  },
  {
    "postcode": "85135",
    "city": "Unterkesselberg Mittelfranken"
  },
  {
    "postcode": "85135",
    "city": "Unterkesselberg"
  },
  {
    "postcode": "85135",
    "city": "Eichstätt"
  },
  {
    "postcode": "85135",
    "city": "Ablaßmühle"
  },
  {
    "postcode": "85135",
    "city": "Altdorf"
  },
  {
    "postcode": "85135",
    "city": "Emsing"
  },
  {
    "postcode": "85135",
    "city": "Bürg"
  },
  {
    "postcode": "85135",
    "city": "Erzwäsche"
  },
  {
    "postcode": "85135",
    "city": "Markt Kinding"
  },
  {
    "postcode": "85135",
    "city": "Hornmühle"
  },
  {
    "postcode": "85135",
    "city": "Maierfeld"
  },
  {
    "postcode": "85135",
    "city": "Tafelmuehle"
  },
  {
    "postcode": "85137",
    "city": "Gungolding"
  },
  {
    "postcode": "85137",
    "city": "Inching Kreis Eichstätt Bayern"
  },
  {
    "postcode": "85137",
    "city": "Inching"
  },
  {
    "postcode": "85137",
    "city": "Pfalzpaint Bayern"
  },
  {
    "postcode": "85137",
    "city": "Pfalzpaint"
  },
  {
    "postcode": "85137",
    "city": "Pfünz"
  },
  {
    "postcode": "85137",
    "city": "Rapperszell Bayern"
  },
  {
    "postcode": "85137",
    "city": "Rapperszell"
  },
  {
    "postcode": "85137",
    "city": "Rieshofen Bayern"
  },
  {
    "postcode": "85137",
    "city": "Rieshofen"
  },
  {
    "postcode": "85137",
    "city": "Walting"
  },
  {
    "postcode": "85137",
    "city": "Walting Kreis Eichstätt Bayern"
  },
  {
    "postcode": "85137",
    "city": "Eichstätt"
  },
  {
    "postcode": "85139",
    "city": "Echenzell"
  },
  {
    "postcode": "85139",
    "city": "Wettstetten"
  },
  {
    "postcode": "85139",
    "city": "Eichstätt"
  },
  {
    "postcode": "85221",
    "city": "Assenhausen"
  },
  {
    "postcode": "85221",
    "city": "Dachau"
  },
  {
    "postcode": "85221",
    "city": "Eisingertshofen"
  },
  {
    "postcode": "85221",
    "city": "Etzenhausen"
  },
  {
    "postcode": "85221",
    "city": "Gemeinde Karlsfeld"
  },
  {
    "postcode": "85221",
    "city": "Lohfeld"
  },
  {
    "postcode": "85221",
    "city": "Mitterndorf"
  },
  {
    "postcode": "85221",
    "city": "Oberaugustenfeld"
  },
  {
    "postcode": "85221",
    "city": "Pellheim"
  },
  {
    "postcode": "85221",
    "city": "Polln"
  },
  {
    "postcode": "85221",
    "city": "Pullhausen"
  },
  {
    "postcode": "85221",
    "city": "Steinkirchen"
  },
  {
    "postcode": "85221",
    "city": "Udlding"
  },
  {
    "postcode": "85221",
    "city": "Unteraugustenfeld"
  },
  {
    "postcode": "85221",
    "city": "Webling"
  },
  {
    "postcode": "85221",
    "city": "Viehhausen"
  },
  {
    "postcode": "85229",
    "city": "Ainhofen Kreis Dachau"
  },
  {
    "postcode": "85229",
    "city": "Ainhofen"
  },
  {
    "postcode": "85229",
    "city": "Albersbach"
  },
  {
    "postcode": "85229",
    "city": "Arnzell"
  },
  {
    "postcode": "85229",
    "city": "Eglersried"
  },
  {
    "postcode": "85229",
    "city": "Eichhofen"
  },
  {
    "postcode": "85229",
    "city": "Eichstock"
  },
  {
    "postcode": "85229",
    "city": "Engelbrechtsmühle"
  },
  {
    "postcode": "85229",
    "city": "Frauenhofen"
  },
  {
    "postcode": "85229",
    "city": "Gittersbach"
  },
  {
    "postcode": "85229",
    "city": "Glonn Kreis Dachau"
  },
  {
    "postcode": "85229",
    "city": "Glonn"
  },
  {
    "postcode": "85229",
    "city": "Gundackersdorf Kreis Dachau"
  },
  {
    "postcode": "85229",
    "city": "Gundackersdorf"
  },
  {
    "postcode": "85229",
    "city": "Harreszell"
  },
  {
    "postcode": "85229",
    "city": "Hartwigshausen"
  },
  {
    "postcode": "85229",
    "city": "Häusern"
  },
  {
    "postcode": "85229",
    "city": "Hirtlbach"
  },
  {
    "postcode": "85229",
    "city": "Hörgenbach"
  },
  {
    "postcode": "85229",
    "city": "Karpfhofen"
  },
  {
    "postcode": "85229",
    "city": "Kattalaich"
  },
  {
    "postcode": "85229",
    "city": "Langenpettenbach"
  },
  {
    "postcode": "85229",
    "city": "Lanzenried"
  },
  {
    "postcode": "85229",
    "city": "Lochhausen"
  },
  {
    "postcode": "85229",
    "city": "Markt Indersdorf"
  },
  {
    "postcode": "85229",
    "city": "Neuried"
  },
  {
    "postcode": "85229",
    "city": "Niederroth"
  },
  {
    "postcode": "85229",
    "city": "Ottmarshart"
  },
  {
    "postcode": "85229",
    "city": "Puch"
  },
  {
    "postcode": "85229",
    "city": "Riedhof"
  },
  {
    "postcode": "85229",
    "city": "Stachusried"
  },
  {
    "postcode": "85229",
    "city": "Straßbach"
  },
  {
    "postcode": "85229",
    "city": "Tiefenlachen"
  },
  {
    "postcode": "85229",
    "city": "Wagenried"
  },
  {
    "postcode": "85229",
    "city": "Weil"
  },
  {
    "postcode": "85229",
    "city": "Westerholzhausen"
  },
  {
    "postcode": "85229",
    "city": "Weyhern"
  },
  {
    "postcode": "85229",
    "city": "Wöhr"
  },
  {
    "postcode": "85229",
    "city": "Dachau"
  },
  {
    "postcode": "85229",
    "city": "Aberl"
  },
  {
    "postcode": "85229",
    "city": "Ainried"
  },
  {
    "postcode": "85229",
    "city": "Berg"
  },
  {
    "postcode": "85229",
    "city": "Brand"
  },
  {
    "postcode": "85229",
    "city": "Indersdorf Kloster"
  },
  {
    "postcode": "85229",
    "city": "Ried"
  },
  {
    "postcode": "85229",
    "city": "Erl"
  },
  {
    "postcode": "85229",
    "city": "Grainhof"
  },
  {
    "postcode": "85229",
    "city": "Hareszell"
  },
  {
    "postcode": "85229",
    "city": "Kleinschwabhausen"
  },
  {
    "postcode": "85229",
    "city": "Kreut"
  },
  {
    "postcode": "85229",
    "city": "Neusreuth"
  },
  {
    "postcode": "85229",
    "city": "Obergeiersberg"
  },
  {
    "postcode": "85229",
    "city": "Obermoosmühl"
  },
  {
    "postcode": "85229",
    "city": "Senkenschlag"
  },
  {
    "postcode": "85229",
    "city": "Stangenried"
  },
  {
    "postcode": "85229",
    "city": "Tafern"
  },
  {
    "postcode": "85229",
    "city": "Untergeiersberg"
  },
  {
    "postcode": "85229",
    "city": "Untermoosmühle"
  },
  {
    "postcode": "85229",
    "city": "Wengenhausen"
  },
  {
    "postcode": "85229",
    "city": "Wildmoos"
  },
  {
    "postcode": "85232",
    "city": "Bergkirchen"
  },
  {
    "postcode": "85232",
    "city": "Bergkirchen Kreis Dachau"
  },
  {
    "postcode": "85232",
    "city": "Bibereck Kreis Dachau"
  },
  {
    "postcode": "85232",
    "city": "Bibereck"
  },
  {
    "postcode": "85232",
    "city": "Breitenau Kreis Dachau"
  },
  {
    "postcode": "85232",
    "city": "Breitenau"
  },
  {
    "postcode": "85232",
    "city": "Deutenhausen"
  },
  {
    "postcode": "85232",
    "city": "Eisolzried"
  },
  {
    "postcode": "85232",
    "city": "Eschenried"
  },
  {
    "postcode": "85232",
    "city": "Feldgeding Kreis Dachau"
  },
  {
    "postcode": "85232",
    "city": "Feldgeding"
  },
  {
    "postcode": "85232",
    "city": "Günding"
  },
  {
    "postcode": "85232",
    "city": "Kreuzholzhausen Kreis Dachau"
  },
  {
    "postcode": "85232",
    "city": "Kreuzholzhausen"
  },
  {
    "postcode": "85232",
    "city": "Lauterbach Kreis Dachau"
  },
  {
    "postcode": "85232",
    "city": "Lauterbach"
  },
  {
    "postcode": "85232",
    "city": "Neuhimmelreich"
  },
  {
    "postcode": "85232",
    "city": "Oberbachern Kreis Dachau"
  },
  {
    "postcode": "85232",
    "city": "Oberbachern"
  },
  {
    "postcode": "85232",
    "city": "Palsweis Kreis Dachau"
  },
  {
    "postcode": "85232",
    "city": "Palsweis"
  },
  {
    "postcode": "85232",
    "city": "Priel Kreis Dachau"
  },
  {
    "postcode": "85232",
    "city": "Priel"
  },
  {
    "postcode": "85232",
    "city": "Unterbachern Kreis Dachau"
  },
  {
    "postcode": "85232",
    "city": "Unterbachern"
  },
  {
    "postcode": "85232",
    "city": "Dachau"
  },
  {
    "postcode": "85232",
    "city": "Gröbenried"
  },
  {
    "postcode": "85232",
    "city": "Palsweis-Moos"
  },
  {
    "postcode": "85232",
    "city": "Bergkirchen-Gada"
  },
  {
    "postcode": "85232",
    "city": "Heißhof"
  },
  {
    "postcode": "85232",
    "city": "Hopfenau"
  },
  {
    "postcode": "85232",
    "city": "Rennhof"
  },
  {
    "postcode": "85232",
    "city": "Ried"
  },
  {
    "postcode": "85232",
    "city": "Rodelzried"
  },
  {
    "postcode": "85232",
    "city": "Bergkirchen-Lus"
  },
  {
    "postcode": "85235",
    "city": "Bayerzell Kreis Fürstenfeldbruck"
  },
  {
    "postcode": "85235",
    "city": "Bayerzell"
  },
  {
    "postcode": "85235",
    "city": "Dietenhausen"
  },
  {
    "postcode": "85235",
    "city": "Ebersried Kreis Fürstenfeldbruck"
  },
  {
    "postcode": "85235",
    "city": "Ebersried"
  },
  {
    "postcode": "85235",
    "city": "Ebertshausen"
  },
  {
    "postcode": "85235",
    "city": "Egenburg"
  },
  {
    "postcode": "85235",
    "city": "Essenbach"
  },
  {
    "postcode": "85235",
    "city": "Gaggers"
  },
  {
    "postcode": "85235",
    "city": "Hadersried"
  },
  {
    "postcode": "85235",
    "city": "Höfa"
  },
  {
    "postcode": "85235",
    "city": "Lukka"
  },
  {
    "postcode": "85235",
    "city": "Miegersbach"
  },
  {
    "postcode": "85235",
    "city": "Miesberg"
  },
  {
    "postcode": "85235",
    "city": "Oberumbach"
  },
  {
    "postcode": "85235",
    "city": "Odelzhausen"
  },
  {
    "postcode": "85235",
    "city": "Pfaffenhofen an der Glonn"
  },
  {
    "postcode": "85235",
    "city": "Roßbach"
  },
  {
    "postcode": "85235",
    "city": "Sankt Johann"
  },
  {
    "postcode": "85235",
    "city": "Sittenbach"
  },
  {
    "postcode": "85235",
    "city": "Sixtnitgern"
  },
  {
    "postcode": "85235",
    "city": "Stockach"
  },
  {
    "postcode": "85235",
    "city": "Taxa"
  },
  {
    "postcode": "85235",
    "city": "Todtenried"
  },
  {
    "postcode": "85235",
    "city": "Unterumbach"
  },
  {
    "postcode": "85235",
    "city": "Wagenhofen"
  },
  {
    "postcode": "85235",
    "city": "Weitenried Kreis Fürstenfeldbruck"
  },
  {
    "postcode": "85235",
    "city": "Weitenried"
  },
  {
    "postcode": "85235",
    "city": "Dachau"
  },
  {
    "postcode": "85235",
    "city": "Pfaffenhofen a.d.Glonn"
  },
  {
    "postcode": "85235",
    "city": "Spindelhafner"
  },
  {
    "postcode": "85235",
    "city": "Pfaffenhofen a d Glonn"
  },
  {
    "postcode": "85235",
    "city": "Kaltenbach"
  },
  {
    "postcode": "85238",
    "city": "Asbach Kreis Dachau"
  },
  {
    "postcode": "85238",
    "city": "Asbach"
  },
  {
    "postcode": "85238",
    "city": "Freymann Oberbayern"
  },
  {
    "postcode": "85238",
    "city": "Freymann"
  },
  {
    "postcode": "85238",
    "city": "Glonnbercha Oberbayern"
  },
  {
    "postcode": "85238",
    "city": "Glonnbercha"
  },
  {
    "postcode": "85238",
    "city": "Göppertshausen Oberbayern"
  },
  {
    "postcode": "85238",
    "city": "Göppertshausen"
  },
  {
    "postcode": "85238",
    "city": "Kollbach Kreis Dachau"
  },
  {
    "postcode": "85238",
    "city": "Kollbach"
  },
  {
    "postcode": "85238",
    "city": "Mittermarbach Oberbayern"
  },
  {
    "postcode": "85238",
    "city": "Mittermarbach"
  },
  {
    "postcode": "85238",
    "city": "Obermarbach Oberbayern"
  },
  {
    "postcode": "85238",
    "city": "Obermarbach"
  },
  {
    "postcode": "85238",
    "city": "Petershausen"
  },
  {
    "postcode": "85238",
    "city": "Petershausen Oberbayern"
  },
  {
    "postcode": "85238",
    "city": "Piflitz Kreis Dachau"
  },
  {
    "postcode": "85238",
    "city": "Piflitz"
  },
  {
    "postcode": "85238",
    "city": "Sollern Oberbayern"
  },
  {
    "postcode": "85238",
    "city": "Sollern"
  },
  {
    "postcode": "85238",
    "city": "Weißling Oberbayern"
  },
  {
    "postcode": "85238",
    "city": "Weißling"
  },
  {
    "postcode": "85238",
    "city": "Ziegelberg Oberbayern"
  },
  {
    "postcode": "85238",
    "city": "Ziegelberg"
  },
  {
    "postcode": "85238",
    "city": "Dachau"
  },
  {
    "postcode": "85238",
    "city": "Mühldorf"
  },
  {
    "postcode": "85238",
    "city": "Oberhausen"
  },
  {
    "postcode": "85241",
    "city": "Ampermoching"
  },
  {
    "postcode": "85241",
    "city": "Deutenhofen"
  },
  {
    "postcode": "85241",
    "city": "Goppertshofen"
  },
  {
    "postcode": "85241",
    "city": "Hebertshausen"
  },
  {
    "postcode": "85241",
    "city": "Lotzbach"
  },
  {
    "postcode": "85241",
    "city": "Oberweilbach"
  },
  {
    "postcode": "85241",
    "city": "Prittlbach"
  },
  {
    "postcode": "85241",
    "city": "Reipertshofen"
  },
  {
    "postcode": "85241",
    "city": "Sulzrain"
  },
  {
    "postcode": "85241",
    "city": "Unterweilbach"
  },
  {
    "postcode": "85241",
    "city": "Walpertshofen"
  },
  {
    "postcode": "85241",
    "city": "Dachau"
  },
  {
    "postcode": "85241",
    "city": "Gänsstall"
  },
  {
    "postcode": "85241",
    "city": "Kaltmühle"
  },
  {
    "postcode": "85244",
    "city": "Arzbach"
  },
  {
    "postcode": "85244",
    "city": "Biberbach"
  },
  {
    "postcode": "85244",
    "city": "Großinzemoos"
  },
  {
    "postcode": "85244",
    "city": "Kleininzemoos"
  },
  {
    "postcode": "85244",
    "city": "Mariabrunn"
  },
  {
    "postcode": "85244",
    "city": "Riedenzhofen"
  },
  {
    "postcode": "85244",
    "city": "Röhrmoos Kreis Dachau"
  },
  {
    "postcode": "85244",
    "city": "Röhrmoos"
  },
  {
    "postcode": "85244",
    "city": "Rudelzhofen"
  },
  {
    "postcode": "85244",
    "city": "Schillhofen"
  },
  {
    "postcode": "85244",
    "city": "Schönbrunn Kreis Dachau"
  },
  {
    "postcode": "85244",
    "city": "Schönbrunn"
  },
  {
    "postcode": "85244",
    "city": "Sigmertshausen"
  },
  {
    "postcode": "85244",
    "city": "Dachau"
  },
  {
    "postcode": "85244",
    "city": "Zieglberg"
  },
  {
    "postcode": "85244",
    "city": "Durchsamsried"
  },
  {
    "postcode": "85244",
    "city": "Purtlhof"
  },
  {
    "postcode": "85247",
    "city": "Armetshofen bei Dachau"
  },
  {
    "postcode": "85247",
    "city": "Arnbach Kreis Dachau"
  },
  {
    "postcode": "85247",
    "city": "Arnbach"
  },
  {
    "postcode": "85247",
    "city": "Edenholzhausen"
  },
  {
    "postcode": "85247",
    "city": "Grub bei Dachau"
  },
  {
    "postcode": "85247",
    "city": "Kappelhof bei Dachau"
  },
  {
    "postcode": "85247",
    "city": "Lindach bei Dachau"
  },
  {
    "postcode": "85247",
    "city": "Machtenstein bei Dachau"
  },
  {
    "postcode": "85247",
    "city": "Oberroth bei Dachau"
  },
  {
    "postcode": "85247",
    "city": "Puchschlagen bei Dachau"
  },
  {
    "postcode": "85247",
    "city": "Rienshofen Kreis Dachau"
  },
  {
    "postcode": "85247",
    "city": "Rienshofen"
  },
  {
    "postcode": "85247",
    "city": "Rumeltshausen bei Dachau"
  },
  {
    "postcode": "85247",
    "city": "Schwabhausen"
  },
  {
    "postcode": "85247",
    "city": "Schwabhausen bei Dachau"
  },
  {
    "postcode": "85247",
    "city": "Sickertshofen bei Dachau"
  },
  {
    "postcode": "85247",
    "city": "Stetten bei Dachau"
  },
  {
    "postcode": "85247",
    "city": "Unterhandenzhofen"
  },
  {
    "postcode": "85247",
    "city": "Dachau"
  },
  {
    "postcode": "85247",
    "city": "Rumeltshausen"
  },
  {
    "postcode": "85247",
    "city": "Stetten"
  },
  {
    "postcode": "85247",
    "city": "Oberroth"
  },
  {
    "postcode": "85247",
    "city": "Machtenstein"
  },
  {
    "postcode": "85247",
    "city": "Puchschlagen"
  },
  {
    "postcode": "85247",
    "city": "Armetshofen"
  },
  {
    "postcode": "85247",
    "city": "Kappelhof"
  },
  {
    "postcode": "85247",
    "city": "Lindach"
  },
  {
    "postcode": "85247",
    "city": "Rothhof"
  },
  {
    "postcode": "85247",
    "city": "Sickertshofen"
  },
  {
    "postcode": "85250",
    "city": "Altomünster"
  },
  {
    "postcode": "85250",
    "city": "Arnberg bei Aichach"
  },
  {
    "postcode": "85250",
    "city": "Asbach"
  },
  {
    "postcode": "85250",
    "city": "Deutenhofen"
  },
  {
    "postcode": "85250",
    "city": "Freistetten bei Aichach"
  },
  {
    "postcode": "85250",
    "city": "Haag bei Aichach"
  },
  {
    "postcode": "85250",
    "city": "Halmsried"
  },
  {
    "postcode": "85250",
    "city": "Hohenried"
  },
  {
    "postcode": "85250",
    "city": "Hohenzell bei Aichach"
  },
  {
    "postcode": "85250",
    "city": "Humersberg"
  },
  {
    "postcode": "85250",
    "city": "Hutgraben"
  },
  {
    "postcode": "85250",
    "city": "Irchenbrunn bei Aichach"
  },
  {
    "postcode": "85250",
    "city": "Kiemertshofen bei Aichach"
  },
  {
    "postcode": "85250",
    "city": "Lauterbach"
  },
  {
    "postcode": "85250",
    "city": "Lichtenberg bei Aichach"
  },
  {
    "postcode": "85250",
    "city": "Maisbrunn"
  },
  {
    "postcode": "85250",
    "city": "Oberndorf"
  },
  {
    "postcode": "85250",
    "city": "Oberzeitlbach"
  },
  {
    "postcode": "85250",
    "city": "Ottmarshausen"
  },
  {
    "postcode": "85250",
    "city": "Pfaffenhofen bei Aichach"
  },
  {
    "postcode": "85250",
    "city": "Pipinsried"
  },
  {
    "postcode": "85250",
    "city": "Plixenried"
  },
  {
    "postcode": "85250",
    "city": "Radenzhofen"
  },
  {
    "postcode": "85250",
    "city": "Rametsried"
  },
  {
    "postcode": "85250",
    "city": "Randelsried"
  },
  {
    "postcode": "85250",
    "city": "Reichertshausen"
  },
  {
    "postcode": "85250",
    "city": "Röckersberg"
  },
  {
    "postcode": "85250",
    "city": "Rudersberg"
  },
  {
    "postcode": "85250",
    "city": "Ruppertskirchen"
  },
  {
    "postcode": "85250",
    "city": "Schauerschorn"
  },
  {
    "postcode": "85250",
    "city": "Schielach bei Aichach"
  },
  {
    "postcode": "85250",
    "city": "Schloßberg"
  },
  {
    "postcode": "85250",
    "city": "Schmarnzell"
  },
  {
    "postcode": "85250",
    "city": "Schmelchen bei Aichach"
  },
  {
    "postcode": "85250",
    "city": "Sengenried"
  },
  {
    "postcode": "85250",
    "city": "Stumpfenbach"
  },
  {
    "postcode": "85250",
    "city": "Teufelsberg bei Aichach"
  },
  {
    "postcode": "85250",
    "city": "Thalhausen bei Aichach"
  },
  {
    "postcode": "85250",
    "city": "Uebelmanna bei Aichach"
  },
  {
    "postcode": "85250",
    "city": "Unterzeitlbach"
  },
  {
    "postcode": "85250",
    "city": "Wollomoos"
  },
  {
    "postcode": "85250",
    "city": "Xyger"
  },
  {
    "postcode": "85250",
    "city": "Dachau"
  },
  {
    "postcode": "85250",
    "city": "Übelmanna"
  },
  {
    "postcode": "85250",
    "city": "Irchenbrunn"
  },
  {
    "postcode": "85250",
    "city": "Hohenzell"
  },
  {
    "postcode": "85250",
    "city": "Kiemertshofen"
  },
  {
    "postcode": "85250",
    "city": "Thalhausen"
  },
  {
    "postcode": "85250",
    "city": "Arnberg"
  },
  {
    "postcode": "85250",
    "city": "Breitenau"
  },
  {
    "postcode": "85250",
    "city": "Erlach"
  },
  {
    "postcode": "85250",
    "city": "Erlau"
  },
  {
    "postcode": "85250",
    "city": "Freistetten"
  },
  {
    "postcode": "85250",
    "city": "Pfaffenhofen"
  },
  {
    "postcode": "85250",
    "city": "Haag"
  },
  {
    "postcode": "85250",
    "city": "Lichtenberg"
  },
  {
    "postcode": "85250",
    "city": "Oberschröttenloh"
  },
  {
    "postcode": "85250",
    "city": "Ottelsburg"
  },
  {
    "postcode": "85250",
    "city": "Schielach"
  },
  {
    "postcode": "85250",
    "city": "Schmelchen"
  },
  {
    "postcode": "85250",
    "city": "Teufelsberg"
  },
  {
    "postcode": "85253",
    "city": "Altstetten"
  },
  {
    "postcode": "85253",
    "city": "Brand"
  },
  {
    "postcode": "85253",
    "city": "Eisenhofen"
  },
  {
    "postcode": "85253",
    "city": "Erdweg"
  },
  {
    "postcode": "85253",
    "city": "Großberghofen"
  },
  {
    "postcode": "85253",
    "city": "Guggenberg"
  },
  {
    "postcode": "85253",
    "city": "Happach"
  },
  {
    "postcode": "85253",
    "city": "Hof"
  },
  {
    "postcode": "85253",
    "city": "Kleinberghofen"
  },
  {
    "postcode": "85253",
    "city": "Langengern"
  },
  {
    "postcode": "85253",
    "city": "Oberhandenzhofen"
  },
  {
    "postcode": "85253",
    "city": "Petersberg"
  },
  {
    "postcode": "85253",
    "city": "Schluttenberg"
  },
  {
    "postcode": "85253",
    "city": "Unterweikertshofen"
  },
  {
    "postcode": "85253",
    "city": "Walkertshofen"
  },
  {
    "postcode": "85253",
    "city": "Welshofen"
  },
  {
    "postcode": "85253",
    "city": "Dachau"
  },
  {
    "postcode": "85253",
    "city": "Röckersberg"
  },
  {
    "postcode": "85254",
    "city": "Einsbach Kreis Dachau"
  },
  {
    "postcode": "85254",
    "city": "Einsbach"
  },
  {
    "postcode": "85254",
    "city": "Hilpertsried Kreis Dachau"
  },
  {
    "postcode": "85254",
    "city": "Hilpertsried"
  },
  {
    "postcode": "85254",
    "city": "Oberwinden Kreis Dachau"
  },
  {
    "postcode": "85254",
    "city": "Oberwinden"
  },
  {
    "postcode": "85254",
    "city": "Orthofen"
  },
  {
    "postcode": "85254",
    "city": "Sulzemoos"
  },
  {
    "postcode": "85254",
    "city": "Dachau"
  },
  {
    "postcode": "85254",
    "city": "Lindenhof"
  },
  {
    "postcode": "85254",
    "city": "Eichenhof"
  },
  {
    "postcode": "85254",
    "city": "Haidhof"
  },
  {
    "postcode": "85254",
    "city": "Lederhof"
  },
  {
    "postcode": "85254",
    "city": "Unterwinden"
  },
  {
    "postcode": "85254",
    "city": "Ziegelstadel"
  },
  {
    "postcode": "85256",
    "city": "Esterhofen"
  },
  {
    "postcode": "85256",
    "city": "Giebing"
  },
  {
    "postcode": "85256",
    "city": "Jedenhofen Kreis Dachau"
  },
  {
    "postcode": "85256",
    "city": "Jedenhofen"
  },
  {
    "postcode": "85256",
    "city": "Milbertshofen Kreis Dachau"
  },
  {
    "postcode": "85256",
    "city": "Milbertshofen"
  },
  {
    "postcode": "85256",
    "city": "Pasenbach"
  },
  {
    "postcode": "85256",
    "city": "Ramelsbach"
  },
  {
    "postcode": "85256",
    "city": "Rettenbach"
  },
  {
    "postcode": "85256",
    "city": "Vierkirchen"
  },
  {
    "postcode": "85256",
    "city": "Vierkirchen Oberbayern"
  },
  {
    "postcode": "85256",
    "city": "Dachau"
  },
  {
    "postcode": "85256",
    "city": "Gramling"
  },
  {
    "postcode": "85256",
    "city": "Mitterwiedenhof"
  },
  {
    "postcode": "85256",
    "city": "Oberwiedenhof"
  },
  {
    "postcode": "85256",
    "city": "Unterwiedenhof"
  },
  {
    "postcode": "85258",
    "city": "Aufhausen Kreis Dachau"
  },
  {
    "postcode": "85258",
    "city": "Aufhausen"
  },
  {
    "postcode": "85258",
    "city": "Breitenwiesen"
  },
  {
    "postcode": "85258",
    "city": "Ebersbach Kreis Dachau"
  },
  {
    "postcode": "85258",
    "city": "Ebersbach"
  },
  {
    "postcode": "85258",
    "city": "Edenholzhausen"
  },
  {
    "postcode": "85258",
    "city": "Edenpfaffenhofen Kreis Dachau"
  },
  {
    "postcode": "85258",
    "city": "Edenpfaffenhofen"
  },
  {
    "postcode": "85258",
    "city": "Erlbach Kreis Dachau"
  },
  {
    "postcode": "85258",
    "city": "Erlbach"
  },
  {
    "postcode": "85258",
    "city": "Erlhausen Kreis Dachau"
  },
  {
    "postcode": "85258",
    "city": "Erlhausen"
  },
  {
    "postcode": "85258",
    "city": "Fränking Kreis Dachau"
  },
  {
    "postcode": "85258",
    "city": "Fränking"
  },
  {
    "postcode": "85258",
    "city": "Weichs Kreis Dachau"
  },
  {
    "postcode": "85258",
    "city": "Weichs"
  },
  {
    "postcode": "85258",
    "city": "Dachau"
  },
  {
    "postcode": "85258",
    "city": "Albertshof"
  },
  {
    "postcode": "85258",
    "city": "Biechlhof"
  },
  {
    "postcode": "85258",
    "city": "Daxberg"
  },
  {
    "postcode": "85258",
    "city": "Holzböck"
  },
  {
    "postcode": "85258",
    "city": "Zillhofen"
  },
  {
    "postcode": "85259",
    "city": "Wiedenzhausen"
  },
  {
    "postcode": "85259",
    "city": "Dachau"
  },
  {
    "postcode": "85276",
    "city": "Affalterbach Kreis Pfaffenhofen an der Ilm"
  },
  {
    "postcode": "85276",
    "city": "Affalterbach"
  },
  {
    "postcode": "85276",
    "city": "Angkofen"
  },
  {
    "postcode": "85276",
    "city": "Bachappen"
  },
  {
    "postcode": "85276",
    "city": "Eberstetten an der Ilm"
  },
  {
    "postcode": "85276",
    "city": "Eckersberg"
  },
  {
    "postcode": "85276",
    "city": "Ehrenberg Kreis Pfaffenhofen an der Ilm"
  },
  {
    "postcode": "85276",
    "city": "Ehrenberg"
  },
  {
    "postcode": "85276",
    "city": "Eja Kreis Pfaffenhofen an der Ilm"
  },
  {
    "postcode": "85276",
    "city": "Eja"
  },
  {
    "postcode": "85276",
    "city": "Eutenhofen Kreis Pfaffenhofen an der Ilm"
  },
  {
    "postcode": "85276",
    "city": "Eutenhofen"
  },
  {
    "postcode": "85276",
    "city": "Förnbach"
  },
  {
    "postcode": "85276",
    "city": "Fürholzen an der Ilm"
  },
  {
    "postcode": "85276",
    "city": "Gittenbach Kreis Pfaffenhofen an der Ilm"
  },
  {
    "postcode": "85276",
    "city": "Gittenbach"
  },
  {
    "postcode": "85276",
    "city": "Göbelsbach Kreis Pfaffenhofen an der Ilm"
  },
  {
    "postcode": "85276",
    "city": "Göbelsbach"
  },
  {
    "postcode": "85276",
    "city": "Griesbach an der Ilm"
  },
  {
    "postcode": "85276",
    "city": "Gundamsried Kreis Pfaffenhofen an der Ilm"
  },
  {
    "postcode": "85276",
    "city": "Gundamsried"
  },
  {
    "postcode": "85276",
    "city": "Haimpertshofen"
  },
  {
    "postcode": "85276",
    "city": "Heißmanning"
  },
  {
    "postcode": "85276",
    "city": "Hettenshausen"
  },
  {
    "postcode": "85276",
    "city": "Holzried an der Ilm"
  },
  {
    "postcode": "85276",
    "city": "Kienhöfe an der Ilm"
  },
  {
    "postcode": "85276",
    "city": "Kleinreichertshofen Kreis Pfaffenhofen an der Ilm"
  },
  {
    "postcode": "85276",
    "city": "Kleinreichertshofen"
  },
  {
    "postcode": "85276",
    "city": "Kreuzmühle an der Ilm"
  },
  {
    "postcode": "85276",
    "city": "Langenwiesen Kreis Pfaffenhofen an der Ilm"
  },
  {
    "postcode": "85276",
    "city": "Langenwiesen"
  },
  {
    "postcode": "85276",
    "city": "Menzenbach Kreis Pfaffenhofen an der Ilm"
  },
  {
    "postcode": "85276",
    "city": "Menzenbach"
  },
  {
    "postcode": "85276",
    "city": "Niederscheyern an der Ilm"
  },
  {
    "postcode": "85276",
    "city": "Pfaffenhofen an der Ilm"
  },
  {
    "postcode": "85276",
    "city": "Posthof bei Pfaffenhofen an der Ilm"
  },
  {
    "postcode": "85276",
    "city": "Radlhöfe an der Ilm"
  },
  {
    "postcode": "85276",
    "city": "Schabenberg an der Ilm"
  },
  {
    "postcode": "85276",
    "city": "Seugen an der Ilm"
  },
  {
    "postcode": "85276",
    "city": "Siebenecken an der Ilm"
  },
  {
    "postcode": "85276",
    "city": "Streitdorf an der Ilm"
  },
  {
    "postcode": "85276",
    "city": "Sulzbach an der Ilm"
  },
  {
    "postcode": "85276",
    "city": "Tegernbach Kreis Pfaffenhofen an der Ilm"
  },
  {
    "postcode": "85276",
    "city": "Tegernbach"
  },
  {
    "postcode": "85276",
    "city": "Uttenhofen Kreis Pfaffenhofen an der Ilm"
  },
  {
    "postcode": "85276",
    "city": "Uttenhofen"
  },
  {
    "postcode": "85276",
    "city": "Walkersbach an der Ilm"
  },
  {
    "postcode": "85276",
    "city": "Webling bei Pfaffenhofen an der Ilm"
  },
  {
    "postcode": "85276",
    "city": "Weihern an der Ilm"
  },
  {
    "postcode": "85276",
    "city": "Weihern an der Ilm"
  },
  {
    "postcode": "85276",
    "city": "Wolfsberg an der Ilm"
  },
  {
    "postcode": "85276",
    "city": "Feldmühle"
  },
  {
    "postcode": "85276",
    "city": "Jahnhöhe"
  },
  {
    "postcode": "85276",
    "city": "Pfaffenhofen a.d.Ilm"
  },
  {
    "postcode": "85276",
    "city": "Posthof"
  },
  {
    "postcode": "85276",
    "city": "Reisgang"
  },
  {
    "postcode": "85276",
    "city": "Washof"
  },
  {
    "postcode": "85276",
    "city": "Webling"
  },
  {
    "postcode": "85276",
    "city": "Pfaffenhofen a d Ilm"
  },
  {
    "postcode": "85276",
    "city": "Niederscheyern"
  },
  {
    "postcode": "85276",
    "city": "Weihern"
  },
  {
    "postcode": "85276",
    "city": "Altkaslehen"
  },
  {
    "postcode": "85276",
    "city": "Streitdorf"
  },
  {
    "postcode": "85276",
    "city": "Walkersbach"
  },
  {
    "postcode": "85276",
    "city": "Sulzbach"
  },
  {
    "postcode": "85276",
    "city": "Brunnhof"
  },
  {
    "postcode": "85276",
    "city": "Buchhof"
  },
  {
    "postcode": "85276",
    "city": "Doderhof"
  },
  {
    "postcode": "85276",
    "city": "Ebenhof"
  },
  {
    "postcode": "85276",
    "city": "Einödshof"
  },
  {
    "postcode": "85276",
    "city": "Frechmühle"
  },
  {
    "postcode": "85276",
    "city": "Kuglhof"
  },
  {
    "postcode": "85276",
    "city": "Fürholzen"
  },
  {
    "postcode": "85276",
    "city": "Griesbach"
  },
  {
    "postcode": "85276",
    "city": "Grubhof"
  },
  {
    "postcode": "85276",
    "city": "Gumpersdorf"
  },
  {
    "postcode": "85276",
    "city": "Höflmaier"
  },
  {
    "postcode": "85276",
    "city": "Holzried"
  },
  {
    "postcode": "85276",
    "city": "Köglhaus"
  },
  {
    "postcode": "85276",
    "city": "Köhlhof"
  },
  {
    "postcode": "85276",
    "city": "Kienhöfe"
  },
  {
    "postcode": "85276",
    "city": "Kreuzmühle"
  },
  {
    "postcode": "85276",
    "city": "Menzenpriel"
  },
  {
    "postcode": "85276",
    "city": "Neuhäusler"
  },
  {
    "postcode": "85276",
    "city": "Pallertshausen"
  },
  {
    "postcode": "85276",
    "city": "Pfaffenhofen Gewerbegebiet Kuglhof"
  },
  {
    "postcode": "85276",
    "city": "Pernzhof"
  },
  {
    "postcode": "85276",
    "city": "Radlhöfe"
  },
  {
    "postcode": "85276",
    "city": "Riedhof"
  },
  {
    "postcode": "85276",
    "city": "Schabenberg"
  },
  {
    "postcode": "85276",
    "city": "Eberstetten"
  },
  {
    "postcode": "85276",
    "city": "Seugen"
  },
  {
    "postcode": "85276",
    "city": "Siebenecken"
  },
  {
    "postcode": "85276",
    "city": "Thalhof"
  },
  {
    "postcode": "85276",
    "city": "Wasenstatt"
  },
  {
    "postcode": "85276",
    "city": "Weingarten"
  },
  {
    "postcode": "85276",
    "city": "Weyern"
  },
  {
    "postcode": "85276",
    "city": "Wolfsberg"
  },
  {
    "postcode": "85276",
    "city": "Zierlmühle"
  },
  {
    "postcode": "85276",
    "city": "Zweckhof"
  },
  {
    "postcode": "85283",
    "city": "Attenhausen Oberbayern"
  },
  {
    "postcode": "85283",
    "city": "Attenhausen"
  },
  {
    "postcode": "85283",
    "city": "Auhöfe"
  },
  {
    "postcode": "85283",
    "city": "Beigelswinden an der Ilm"
  },
  {
    "postcode": "85283",
    "city": "Buch"
  },
  {
    "postcode": "85283",
    "city": "Burgstall"
  },
  {
    "postcode": "85283",
    "city": "Egg"
  },
  {
    "postcode": "85283",
    "city": "Eschelbach an der Ilm"
  },
  {
    "postcode": "85283",
    "city": "Gebrontshausen"
  },
  {
    "postcode": "85283",
    "city": "Geroldshausen in der Hallertau"
  },
  {
    "postcode": "85283",
    "city": "Gosseltshausen"
  },
  {
    "postcode": "85283",
    "city": "Hagertshausen"
  },
  {
    "postcode": "85283",
    "city": "Haushausen"
  },
  {
    "postcode": "85283",
    "city": "Hirnsberg"
  },
  {
    "postcode": "85283",
    "city": "Hüll"
  },
  {
    "postcode": "85283",
    "city": "Jebertshausen"
  },
  {
    "postcode": "85283",
    "city": "Kemnathen"
  },
  {
    "postcode": "85283",
    "city": "Königsfeld"
  },
  {
    "postcode": "85283",
    "city": "Larsbach"
  },
  {
    "postcode": "85283",
    "city": "Lehen"
  },
  {
    "postcode": "85283",
    "city": "Lohwinden an der Ilm"
  },
  {
    "postcode": "85283",
    "city": "Niederlauterbach Oberbayern"
  },
  {
    "postcode": "85283",
    "city": "Niederlauterbach"
  },
  {
    "postcode": "85283",
    "city": "Oberlauterbach Oberbayern"
  },
  {
    "postcode": "85283",
    "city": "Oberlauterbach"
  },
  {
    "postcode": "85283",
    "city": "Schwaig"
  },
  {
    "postcode": "85283",
    "city": "Stadelhof Oberbayern"
  },
  {
    "postcode": "85283",
    "city": "Stadelhof"
  },
  {
    "postcode": "85283",
    "city": "Starzhausen"
  },
  {
    "postcode": "85283",
    "city": "Stockberg"
  },
  {
    "postcode": "85283",
    "city": "Thongräben"
  },
  {
    "postcode": "85283",
    "city": "Wolnzach"
  },
  {
    "postcode": "85283",
    "city": "Pfaffenhofen an der Ilm"
  },
  {
    "postcode": "85283",
    "city": "Abeltshausen"
  },
  {
    "postcode": "85283",
    "city": "Lohwinden"
  },
  {
    "postcode": "85283",
    "city": "Eschelbach"
  },
  {
    "postcode": "85283",
    "city": "Geroldshausen"
  },
  {
    "postcode": "85283",
    "city": "Beigelswinden"
  },
  {
    "postcode": "85283",
    "city": "Bratzmühle"
  },
  {
    "postcode": "85283",
    "city": "Bruckbach"
  },
  {
    "postcode": "85283",
    "city": "Giglhof"
  },
  {
    "postcode": "85283",
    "city": "Grubwinn"
  },
  {
    "postcode": "85283",
    "city": "Gschwend"
  },
  {
    "postcode": "85283",
    "city": "Hanfkolm"
  },
  {
    "postcode": "85283",
    "city": "Haunerhof"
  },
  {
    "postcode": "85283",
    "city": "Kreithof"
  },
  {
    "postcode": "85283",
    "city": "Kreuthof"
  },
  {
    "postcode": "85283",
    "city": "Moosmühle"
  },
  {
    "postcode": "85283",
    "city": "Nietenhausen"
  },
  {
    "postcode": "85283",
    "city": "Schermbach"
  },
  {
    "postcode": "85283",
    "city": "Schrittenlohe"
  },
  {
    "postcode": "85283",
    "city": "Siegertszell"
  },
  {
    "postcode": "85283",
    "city": "Weingarten"
  },
  {
    "postcode": "85283",
    "city": "Wilhelm"
  },
  {
    "postcode": "85290",
    "city": "Ainau"
  },
  {
    "postcode": "85290",
    "city": "Brunn"
  },
  {
    "postcode": "85290",
    "city": "Eichelberg"
  },
  {
    "postcode": "85290",
    "city": "Engelbrechtsmünster"
  },
  {
    "postcode": "85290",
    "city": "Gaden bei Geisenfeld"
  },
  {
    "postcode": "85290",
    "city": "Geisenfeld"
  },
  {
    "postcode": "85290",
    "city": "Geisenfeldwinden"
  },
  {
    "postcode": "85290",
    "city": "Holzleiten"
  },
  {
    "postcode": "85290",
    "city": "Ilmendorf"
  },
  {
    "postcode": "85290",
    "city": "Nötting"
  },
  {
    "postcode": "85290",
    "city": "Obermettenbach"
  },
  {
    "postcode": "85290",
    "city": "Parleiten"
  },
  {
    "postcode": "85290",
    "city": "Rottenegg"
  },
  {
    "postcode": "85290",
    "city": "Schillwitzhausen"
  },
  {
    "postcode": "85290",
    "city": "Schillwitzried"
  },
  {
    "postcode": "85290",
    "city": "Untermettenbach"
  },
  {
    "postcode": "85290",
    "city": "Unterpindhart"
  },
  {
    "postcode": "85290",
    "city": "Zell"
  },
  {
    "postcode": "85290",
    "city": "Pfaffenhofen an der Ilm"
  },
  {
    "postcode": "85290",
    "city": "Gaden b. Geisenfeld"
  },
  {
    "postcode": "85290",
    "city": "Birkenheide"
  },
  {
    "postcode": "85290",
    "city": "Einberg"
  },
  {
    "postcode": "85290",
    "city": "Furthof"
  },
  {
    "postcode": "85290",
    "city": "Gießübl"
  },
  {
    "postcode": "85290",
    "city": "Hornlohe"
  },
  {
    "postcode": "85290",
    "city": "Moosmühle"
  },
  {
    "postcode": "85290",
    "city": "Schafhof"
  },
  {
    "postcode": "85290",
    "city": "Wasenstatt"
  },
  {
    "postcode": "85290",
    "city": "Ziegelstadel"
  },
  {
    "postcode": "85293",
    "city": "Bärnhausen"
  },
  {
    "postcode": "85293",
    "city": "Grafing Ilm"
  },
  {
    "postcode": "85293",
    "city": "Grafing"
  },
  {
    "postcode": "85293",
    "city": "Gründholm"
  },
  {
    "postcode": "85293",
    "city": "Gurnöbach Ilm"
  },
  {
    "postcode": "85293",
    "city": "Gurnöbach"
  },
  {
    "postcode": "85293",
    "city": "Haunstetten"
  },
  {
    "postcode": "85293",
    "city": "Holzhof Ilm"
  },
  {
    "postcode": "85293",
    "city": "Holzhof"
  },
  {
    "postcode": "85293",
    "city": "Kreut Ilm"
  },
  {
    "postcode": "85293",
    "city": "Kreut"
  },
  {
    "postcode": "85293",
    "city": "Langwaid"
  },
  {
    "postcode": "85293",
    "city": "Lausham"
  },
  {
    "postcode": "85293",
    "city": "Oberpaindorf Ilm"
  },
  {
    "postcode": "85293",
    "city": "Oberpaindorf"
  },
  {
    "postcode": "85293",
    "city": "Paindorf Ilm"
  },
  {
    "postcode": "85293",
    "city": "Paindorf"
  },
  {
    "postcode": "85293",
    "city": "Pischelsdorf"
  },
  {
    "postcode": "85293",
    "city": "Reichertshausen"
  },
  {
    "postcode": "85293",
    "city": "Reichertshausen Ilm"
  },
  {
    "postcode": "85293",
    "city": "Salmading Ilm"
  },
  {
    "postcode": "85293",
    "city": "Salmading"
  },
  {
    "postcode": "85293",
    "city": "Steinkirchen"
  },
  {
    "postcode": "85293",
    "city": "Pfaffenhofen an der Ilm"
  },
  {
    "postcode": "85296",
    "city": "Buchersried"
  },
  {
    "postcode": "85296",
    "city": "Fahlenbach"
  },
  {
    "postcode": "85296",
    "city": "Fürholzen"
  },
  {
    "postcode": "85296",
    "city": "Gambach Kreis Pfaffenhofen an der Ilm"
  },
  {
    "postcode": "85296",
    "city": "Gambach"
  },
  {
    "postcode": "85296",
    "city": "Ossenzhausen Kreis Pfaffenhofen an der Ilm"
  },
  {
    "postcode": "85296",
    "city": "Ossenzhausen"
  },
  {
    "postcode": "85296",
    "city": "Ottersried Kreis Pfaffenhofen an der Ilm"
  },
  {
    "postcode": "85296",
    "city": "Ottersried"
  },
  {
    "postcode": "85296",
    "city": "Rinnberg Kreis Pfaffenhofen an der Ilm"
  },
  {
    "postcode": "85296",
    "city": "Rinnberg"
  },
  {
    "postcode": "85296",
    "city": "Rohr Kreis Pfaffenhofen an der Ilm"
  },
  {
    "postcode": "85296",
    "city": "Rohr"
  },
  {
    "postcode": "85296",
    "city": "Rohrbach"
  },
  {
    "postcode": "85296",
    "city": "Rohrbach Ilm"
  },
  {
    "postcode": "85296",
    "city": "Waal Kreis Pfaffenhofen an der Ilm"
  },
  {
    "postcode": "85296",
    "city": "Waal"
  },
  {
    "postcode": "85296",
    "city": "Pfaffenhofen an der Ilm"
  },
  {
    "postcode": "85298",
    "city": "Durchschlacht"
  },
  {
    "postcode": "85298",
    "city": "Edersberg"
  },
  {
    "postcode": "85298",
    "city": "Edling"
  },
  {
    "postcode": "85298",
    "city": "Euernbach"
  },
  {
    "postcode": "85298",
    "city": "Fernhag"
  },
  {
    "postcode": "85298",
    "city": "Froschbach"
  },
  {
    "postcode": "85298",
    "city": "Gneisdorf"
  },
  {
    "postcode": "85298",
    "city": "Grainstetten"
  },
  {
    "postcode": "85298",
    "city": "Kreutenbach"
  },
  {
    "postcode": "85298",
    "city": "Mitterscheyern an der Ilm"
  },
  {
    "postcode": "85298",
    "city": "Oberschnatterbach"
  },
  {
    "postcode": "85298",
    "city": "Plöcking"
  },
  {
    "postcode": "85298",
    "city": "Scheyern"
  },
  {
    "postcode": "85298",
    "city": "Schmidhausen"
  },
  {
    "postcode": "85298",
    "city": "Schönberg"
  },
  {
    "postcode": "85298",
    "city": "Triefing Ilm"
  },
  {
    "postcode": "85298",
    "city": "Triefing"
  },
  {
    "postcode": "85298",
    "city": "Unterschnatterbach"
  },
  {
    "postcode": "85298",
    "city": "Vieth"
  },
  {
    "postcode": "85298",
    "city": "Voglried"
  },
  {
    "postcode": "85298",
    "city": "Winden bei Scheyern"
  },
  {
    "postcode": "85298",
    "city": "Zell"
  },
  {
    "postcode": "85298",
    "city": "Ziegelnöbach Ilm"
  },
  {
    "postcode": "85298",
    "city": "Ziegelnöbach"
  },
  {
    "postcode": "85298",
    "city": "Pfaffenhofen an der Ilm"
  },
  {
    "postcode": "85298",
    "city": "Mitterscheyern"
  },
  {
    "postcode": "85298",
    "city": "Biberg"
  },
  {
    "postcode": "85298",
    "city": "Blaumosen"
  },
  {
    "postcode": "85298",
    "city": "Edenhub"
  },
  {
    "postcode": "85298",
    "city": "Eichberg"
  },
  {
    "postcode": "85298",
    "city": "Grub"
  },
  {
    "postcode": "85298",
    "city": "Gumelsberg"
  },
  {
    "postcode": "85298",
    "city": "Günthal"
  },
  {
    "postcode": "85298",
    "city": "Klingbach"
  },
  {
    "postcode": "85298",
    "city": "Oberdummeltshausen"
  },
  {
    "postcode": "85298",
    "city": "Prielhof"
  },
  {
    "postcode": "85298",
    "city": "Rauhof"
  },
  {
    "postcode": "85298",
    "city": "Oed"
  },
  {
    "postcode": "85298",
    "city": "Winden b. Scheyern"
  },
  {
    "postcode": "85301",
    "city": "Ampertshausen"
  },
  {
    "postcode": "85301",
    "city": "Aufham"
  },
  {
    "postcode": "85301",
    "city": "Dietersdorf"
  },
  {
    "postcode": "85301",
    "city": "Dürnzhausen"
  },
  {
    "postcode": "85301",
    "city": "Frickendorf an der Ilm"
  },
  {
    "postcode": "85301",
    "city": "Geisenhausen Kreis Pfaffenhofen an der Ilm"
  },
  {
    "postcode": "85301",
    "city": "Geisenhausen"
  },
  {
    "postcode": "85301",
    "city": "Großarreshausen Kreis Pfaffenhofen an der Ilm"
  },
  {
    "postcode": "85301",
    "city": "Großarreshausen"
  },
  {
    "postcode": "85301",
    "city": "Gundelshausen"
  },
  {
    "postcode": "85301",
    "city": "Güntersdorf"
  },
  {
    "postcode": "85301",
    "city": "Hirschhausen"
  },
  {
    "postcode": "85301",
    "city": "Holzhäuseln"
  },
  {
    "postcode": "85301",
    "city": "Holzhausen"
  },
  {
    "postcode": "85301",
    "city": "Jetzelmaierhöfe"
  },
  {
    "postcode": "85301",
    "city": "Kleinarreshausen Kreis Pfaffenhofen an der Ilm"
  },
  {
    "postcode": "85301",
    "city": "Kleinarreshausen"
  },
  {
    "postcode": "85301",
    "city": "Loipersdorf"
  },
  {
    "postcode": "85301",
    "city": "Loipertshausen"
  },
  {
    "postcode": "85301",
    "city": "Niederthann"
  },
  {
    "postcode": "85301",
    "city": "Oberthann"
  },
  {
    "postcode": "85301",
    "city": "Preinersdorf"
  },
  {
    "postcode": "85301",
    "city": "Preinerszell Kreis Pfaffenhofen an der Ilm"
  },
  {
    "postcode": "85301",
    "city": "Preinerszell"
  },
  {
    "postcode": "85301",
    "city": "Raffenstetten"
  },
  {
    "postcode": "85301",
    "city": "Reisdorf"
  },
  {
    "postcode": "85301",
    "city": "Schaching"
  },
  {
    "postcode": "85301",
    "city": "Schmiedhausen"
  },
  {
    "postcode": "85301",
    "city": "Schweitenkirchen"
  },
  {
    "postcode": "85301",
    "city": "Sünzhausen"
  },
  {
    "postcode": "85301",
    "city": "Weikenhausen"
  },
  {
    "postcode": "85301",
    "city": "Pfaffenhofen an der Ilm"
  },
  {
    "postcode": "85301",
    "city": "Aign"
  },
  {
    "postcode": "85301",
    "city": "Giegenhausen"
  },
  {
    "postcode": "85301",
    "city": "Auhof"
  },
  {
    "postcode": "85301",
    "city": "Bettermacher"
  },
  {
    "postcode": "85301",
    "city": "Birketbaur"
  },
  {
    "postcode": "85301",
    "city": "Feldhof"
  },
  {
    "postcode": "85301",
    "city": "Frickendorf"
  },
  {
    "postcode": "85301",
    "city": "Hareß"
  },
  {
    "postcode": "85301",
    "city": "Hueb"
  },
  {
    "postcode": "85301",
    "city": "Kerschhof"
  },
  {
    "postcode": "85301",
    "city": "Neukaslehen"
  },
  {
    "postcode": "85301",
    "city": "Peiglmühle"
  },
  {
    "postcode": "85301",
    "city": "Ödhof"
  },
  {
    "postcode": "85301",
    "city": "Schellneck"
  },
  {
    "postcode": "85301",
    "city": "Stelzenberg"
  },
  {
    "postcode": "85301",
    "city": "Westing"
  },
  {
    "postcode": "85302",
    "city": "Alberzell"
  },
  {
    "postcode": "85302",
    "city": "Arnsried"
  },
  {
    "postcode": "85302",
    "city": "Bergern Oberbayern"
  },
  {
    "postcode": "85302",
    "city": "Bergern"
  },
  {
    "postcode": "85302",
    "city": "Duckenried Oberbayern"
  },
  {
    "postcode": "85302",
    "city": "Duckenried"
  },
  {
    "postcode": "85302",
    "city": "Einsassen"
  },
  {
    "postcode": "85302",
    "city": "Eisenhut Oberbayern"
  },
  {
    "postcode": "85302",
    "city": "Eisenhut"
  },
  {
    "postcode": "85302",
    "city": "Eulenthal"
  },
  {
    "postcode": "85302",
    "city": "Felbern Oberbayern"
  },
  {
    "postcode": "85302",
    "city": "Felbern"
  },
  {
    "postcode": "85302",
    "city": "Fürholzen Oberbayern"
  },
  {
    "postcode": "85302",
    "city": "Fürholzen"
  },
  {
    "postcode": "85302",
    "city": "Garbertshausen"
  },
  {
    "postcode": "85302",
    "city": "Gerenzhausen Oberbayern"
  },
  {
    "postcode": "85302",
    "city": "Gerenzhausen"
  },
  {
    "postcode": "85302",
    "city": "Gerolsbach"
  },
  {
    "postcode": "85302",
    "city": "Gröben"
  },
  {
    "postcode": "85302",
    "city": "Hickern"
  },
  {
    "postcode": "85302",
    "city": "Junkenhofen"
  },
  {
    "postcode": "85302",
    "city": "Klenau"
  },
  {
    "postcode": "85302",
    "city": "Labersberg Oberbayern"
  },
  {
    "postcode": "85302",
    "city": "Labersberg"
  },
  {
    "postcode": "85302",
    "city": "Lichthausen"
  },
  {
    "postcode": "85302",
    "city": "Oberwengen"
  },
  {
    "postcode": "85302",
    "city": "Schachach an der Ilm"
  },
  {
    "postcode": "85302",
    "city": "Singenbach Oberbayern"
  },
  {
    "postcode": "85302",
    "city": "Singenbach"
  },
  {
    "postcode": "85302",
    "city": "Singern"
  },
  {
    "postcode": "85302",
    "city": "Stockhausen Oberbayern"
  },
  {
    "postcode": "85302",
    "city": "Stockhausen"
  },
  {
    "postcode": "85302",
    "city": "Strobenried"
  },
  {
    "postcode": "85302",
    "city": "Thalern"
  },
  {
    "postcode": "85302",
    "city": "Unterwengen"
  },
  {
    "postcode": "85302",
    "city": "Weichselbaum"
  },
  {
    "postcode": "85302",
    "city": "Wolfertshausen Oberbayern"
  },
  {
    "postcode": "85302",
    "city": "Wolfertshausen"
  },
  {
    "postcode": "85302",
    "city": "Pfaffenhofen an der Ilm"
  },
  {
    "postcode": "85302",
    "city": "Aichmühle"
  },
  {
    "postcode": "85302",
    "city": "Ankertshausen"
  },
  {
    "postcode": "85302",
    "city": "Bockhof"
  },
  {
    "postcode": "85302",
    "city": "Branst"
  },
  {
    "postcode": "85302",
    "city": "Breitsamet"
  },
  {
    "postcode": "85302",
    "city": "Brenntenholz"
  },
  {
    "postcode": "85302",
    "city": "Dallach"
  },
  {
    "postcode": "85302",
    "city": "Dürnthal"
  },
  {
    "postcode": "85302",
    "city": "Eggern"
  },
  {
    "postcode": "85302",
    "city": "Finkenzell"
  },
  {
    "postcode": "85302",
    "city": "Forstern"
  },
  {
    "postcode": "85302",
    "city": "Forsthof"
  },
  {
    "postcode": "85302",
    "city": "Friedlhof"
  },
  {
    "postcode": "85302",
    "city": "Gmeind"
  },
  {
    "postcode": "85302",
    "city": "Graham"
  },
  {
    "postcode": "85302",
    "city": "Großpalmberg"
  },
  {
    "postcode": "85302",
    "city": "Großsommersberg"
  },
  {
    "postcode": "85302",
    "city": "Grub"
  },
  {
    "postcode": "85302",
    "city": "Hasenhof"
  },
  {
    "postcode": "85302",
    "city": "Hilm"
  },
  {
    "postcode": "85302",
    "city": "Hof"
  },
  {
    "postcode": "85302",
    "city": "Hudlhub"
  },
  {
    "postcode": "85302",
    "city": "Kleinhub"
  },
  {
    "postcode": "85302",
    "city": "Kleinpalmberg"
  },
  {
    "postcode": "85302",
    "city": "Kleinsommersberg"
  },
  {
    "postcode": "85302",
    "city": "Kohlstatt"
  },
  {
    "postcode": "85302",
    "city": "Kreuth"
  },
  {
    "postcode": "85302",
    "city": "Lahnhof"
  },
  {
    "postcode": "85302",
    "city": "Leithen"
  },
  {
    "postcode": "85302",
    "city": "Mammertshausen"
  },
  {
    "postcode": "85302",
    "city": "Maria Zell"
  },
  {
    "postcode": "85302",
    "city": "Oberbuch"
  },
  {
    "postcode": "85302",
    "city": "Oberzell"
  },
  {
    "postcode": "85302",
    "city": "Pitzlhof"
  },
  {
    "postcode": "85302",
    "city": "Riedern"
  },
  {
    "postcode": "85302",
    "city": "Sachenbach"
  },
  {
    "postcode": "85302",
    "city": "Sappenberg"
  },
  {
    "postcode": "85302",
    "city": "Saulbach"
  },
  {
    "postcode": "85302",
    "city": "Schachach"
  },
  {
    "postcode": "85302",
    "city": "Schartling"
  },
  {
    "postcode": "85302",
    "city": "Schleichern"
  },
  {
    "postcode": "85302",
    "city": "Tränk"
  },
  {
    "postcode": "85302",
    "city": "Siebeneich"
  },
  {
    "postcode": "85302",
    "city": "Voglhof"
  },
  {
    "postcode": "85302",
    "city": "Weilerau"
  },
  {
    "postcode": "85302",
    "city": "Wüstersberg"
  },
  {
    "postcode": "85302",
    "city": "Zaderhof"
  },
  {
    "postcode": "85304",
    "city": "Ilmmünster"
  },
  {
    "postcode": "85304",
    "city": "Ilmried Ilm"
  },
  {
    "postcode": "85304",
    "city": "Ilmried"
  },
  {
    "postcode": "85304",
    "city": "Prambach Gemeinde Hettenshausen"
  },
  {
    "postcode": "85304",
    "city": "Prambach"
  },
  {
    "postcode": "85304",
    "city": "Winden Gemeinde Hettenshausen"
  },
  {
    "postcode": "85304",
    "city": "Winden"
  },
  {
    "postcode": "85304",
    "city": "Pfaffenhofen an der Ilm"
  },
  {
    "postcode": "85304",
    "city": "Ehrensberg"
  },
  {
    "postcode": "85304",
    "city": "Harres"
  },
  {
    "postcode": "85304",
    "city": "Leiten"
  },
  {
    "postcode": "85304",
    "city": "Schaibmaierhof"
  },
  {
    "postcode": "85304",
    "city": "Gemeinde Scheyern"
  },
  {
    "postcode": "85304",
    "city": "Unterdummeltshausen"
  },
  {
    "postcode": "85305",
    "city": "Badershausen"
  },
  {
    "postcode": "85305",
    "city": "Eck"
  },
  {
    "postcode": "85305",
    "city": "Grubhof"
  },
  {
    "postcode": "85305",
    "city": "Habertshausen"
  },
  {
    "postcode": "85305",
    "city": "Hirschenhausen"
  },
  {
    "postcode": "85305",
    "city": "Jetzendorf"
  },
  {
    "postcode": "85305",
    "city": "Kemmoden"
  },
  {
    "postcode": "85305",
    "city": "Lampertshausen"
  },
  {
    "postcode": "85305",
    "city": "Priel"
  },
  {
    "postcode": "85305",
    "city": "Thann"
  },
  {
    "postcode": "85305",
    "city": "Volkersdorf"
  },
  {
    "postcode": "85305",
    "city": "Pfaffenhofen an der Ilm"
  },
  {
    "postcode": "85305",
    "city": "Saxau"
  },
  {
    "postcode": "85307",
    "city": "Angerhöfe"
  },
  {
    "postcode": "85307",
    "city": "Entrischenbrunn"
  },
  {
    "postcode": "85307",
    "city": "Hohenbuch"
  },
  {
    "postcode": "85307",
    "city": "Letten"
  },
  {
    "postcode": "85307",
    "city": "Paunzhausen"
  },
  {
    "postcode": "85307",
    "city": "Schernbuch"
  },
  {
    "postcode": "85307",
    "city": "Streitberg"
  },
  {
    "postcode": "85307",
    "city": "Walterskirchen"
  },
  {
    "postcode": "85307",
    "city": "Freising"
  },
  {
    "postcode": "85307",
    "city": "Johanneck"
  },
  {
    "postcode": "85307",
    "city": "Kreuth"
  },
  {
    "postcode": "85307",
    "city": "Wehrbach"
  },
  {
    "postcode": "85309",
    "city": "Oberkreut"
  },
  {
    "postcode": "85309",
    "city": "Pörnbach"
  },
  {
    "postcode": "85309",
    "city": "Puch"
  },
  {
    "postcode": "85309",
    "city": "Raitbach"
  },
  {
    "postcode": "85309",
    "city": "Pfaffenhofen an der Ilm"
  },
  {
    "postcode": "85309",
    "city": "Maushof"
  },
  {
    "postcode": "85309",
    "city": "Unterkreut"
  },
  {
    "postcode": "85354",
    "city": "Achering"
  },
  {
    "postcode": "85354",
    "city": "Dürneck"
  },
  {
    "postcode": "85354",
    "city": "Freising"
  },
  {
    "postcode": "85354",
    "city": "Freising Oberbayern"
  },
  {
    "postcode": "85354",
    "city": "Haindlfing"
  },
  {
    "postcode": "85354",
    "city": "Haxthausen Oberbayern"
  },
  {
    "postcode": "85354",
    "city": "Haxthausen"
  },
  {
    "postcode": "85354",
    "city": "Hohenbachern"
  },
  {
    "postcode": "85354",
    "city": "Pulling"
  },
  {
    "postcode": "85354",
    "city": "Sünzhausen Oberbayern"
  },
  {
    "postcode": "85354",
    "city": "Sünzhausen"
  },
  {
    "postcode": "85354",
    "city": "Untergartelshausen"
  },
  {
    "postcode": "85354",
    "city": "Vötting"
  },
  {
    "postcode": "85354",
    "city": "München-Flughafen"
  },
  {
    "postcode": "85354",
    "city": "Dürnast"
  },
  {
    "postcode": "85354",
    "city": "Eggertshofen"
  },
  {
    "postcode": "85354",
    "city": "Pellhausen"
  },
  {
    "postcode": "85354",
    "city": "Neustift"
  },
  {
    "postcode": "85356",
    "city": "Altenhausen"
  },
  {
    "postcode": "85356",
    "city": "Attaching"
  },
  {
    "postcode": "85356",
    "city": "Erlau"
  },
  {
    "postcode": "85356",
    "city": "Freising"
  },
  {
    "postcode": "85356",
    "city": "Freising Oberbayern"
  },
  {
    "postcode": "85356",
    "city": "Gartelshausen"
  },
  {
    "postcode": "85356",
    "city": "Itzling"
  },
  {
    "postcode": "85356",
    "city": "Lageltshausen Oberbayern"
  },
  {
    "postcode": "85356",
    "city": "Lageltshausen"
  },
  {
    "postcode": "85356",
    "city": "Lohmühle"
  },
  {
    "postcode": "85356",
    "city": "Neustift"
  },
  {
    "postcode": "85356",
    "city": "Pallhausen Oberbayern"
  },
  {
    "postcode": "85356",
    "city": "Pallhausen"
  },
  {
    "postcode": "85356",
    "city": "Pellhausen"
  },
  {
    "postcode": "85356",
    "city": "Pettenbrunn"
  },
  {
    "postcode": "85356",
    "city": "Tuching"
  },
  {
    "postcode": "85356",
    "city": "Tüntenhausen"
  },
  {
    "postcode": "85356",
    "city": "Weihenstephan"
  },
  {
    "postcode": "85356",
    "city": "Zellhausen"
  },
  {
    "postcode": "85356",
    "city": "Zurnhausen"
  },
  {
    "postcode": "85356",
    "city": "München-Flughafen"
  },
  {
    "postcode": "85356",
    "city": "Lerchenfeld"
  },
  {
    "postcode": "85356",
    "city": "Gemeinde Marzling"
  },
  {
    "postcode": "85368",
    "city": "Aich Kreis Freising"
  },
  {
    "postcode": "85368",
    "city": "Aich"
  },
  {
    "postcode": "85368",
    "city": "Bergen an der Isar"
  },
  {
    "postcode": "85368",
    "city": "Burgschlag an der Isar"
  },
  {
    "postcode": "85368",
    "city": "Dornhaselbach an der Isar"
  },
  {
    "postcode": "85368",
    "city": "Feldkirchen an der Isar"
  },
  {
    "postcode": "85368",
    "city": "Grünseiboldsdorf an der Isar"
  },
  {
    "postcode": "85368",
    "city": "Hagsdorf Kreis Freising"
  },
  {
    "postcode": "85368",
    "city": "Hagsdorf"
  },
  {
    "postcode": "85368",
    "city": "Inzkofen an der Isar"
  },
  {
    "postcode": "85368",
    "city": "Kirchamper an der Isar"
  },
  {
    "postcode": "85368",
    "city": "Moos Kreis Freising"
  },
  {
    "postcode": "85368",
    "city": "Moos"
  },
  {
    "postcode": "85368",
    "city": "Moosburg"
  },
  {
    "postcode": "85368",
    "city": "Moosburg an der Isar"
  },
  {
    "postcode": "85368",
    "city": "Niederambach an der Isar"
  },
  {
    "postcode": "85368",
    "city": "Oberambach an der Isar"
  },
  {
    "postcode": "85368",
    "city": "Oberpolln Kreis Freising"
  },
  {
    "postcode": "85368",
    "city": "Oberpolln"
  },
  {
    "postcode": "85368",
    "city": "Oberreit an der Isar"
  },
  {
    "postcode": "85368",
    "city": "Pfettrach Oberbayern"
  },
  {
    "postcode": "85368",
    "city": "Pfettrach"
  },
  {
    "postcode": "85368",
    "city": "Pfrombach Kreis Freising"
  },
  {
    "postcode": "85368",
    "city": "Pfrombach"
  },
  {
    "postcode": "85368",
    "city": "Pillhofen an der Donau"
  },
  {
    "postcode": "85368",
    "city": "Schweinersdorf Kreis Freising"
  },
  {
    "postcode": "85368",
    "city": "Schweinersdorf"
  },
  {
    "postcode": "85368",
    "city": "Sixthaselbach an der Isar"
  },
  {
    "postcode": "85368",
    "city": "Spörerau an der Isar"
  },
  {
    "postcode": "85368",
    "city": "Thalbach an der Isar"
  },
  {
    "postcode": "85368",
    "city": "Thonstetten an der Isar"
  },
  {
    "postcode": "85368",
    "city": "Thulbach Oberbayern"
  },
  {
    "postcode": "85368",
    "city": "Thulbach"
  },
  {
    "postcode": "85368",
    "city": "Unterreit an der Isar"
  },
  {
    "postcode": "85368",
    "city": "Volkmannsdorf Oberbayern"
  },
  {
    "postcode": "85368",
    "city": "Volkmannsdorf"
  },
  {
    "postcode": "85368",
    "city": "Volkmannsdorferau an der Isar"
  },
  {
    "postcode": "85368",
    "city": "Wang"
  },
  {
    "postcode": "85368",
    "city": "Wang Isar"
  },
  {
    "postcode": "85368",
    "city": "Weghausen an der Isar"
  },
  {
    "postcode": "85368",
    "city": "Freising"
  },
  {
    "postcode": "85368",
    "city": "Bruckberg"
  },
  {
    "postcode": "85368",
    "city": "Moosburg a.d.Isar"
  },
  {
    "postcode": "85368",
    "city": "Niederambach"
  },
  {
    "postcode": "85368",
    "city": "Spörerau"
  },
  {
    "postcode": "85368",
    "city": "Sixthaselbach"
  },
  {
    "postcode": "85368",
    "city": "Aselmühle"
  },
  {
    "postcode": "85368",
    "city": "Bergen"
  },
  {
    "postcode": "85368",
    "city": "Burgschlag"
  },
  {
    "postcode": "85368",
    "city": "Dornhaselbach"
  },
  {
    "postcode": "85368",
    "city": "Einhausen"
  },
  {
    "postcode": "85368",
    "city": "Volkmannsdorferau"
  },
  {
    "postcode": "85368",
    "city": "Zieglberg"
  },
  {
    "postcode": "85368",
    "city": "Grub"
  },
  {
    "postcode": "85368",
    "city": "Holzdobl"
  },
  {
    "postcode": "85368",
    "city": "Holzerhof"
  },
  {
    "postcode": "85368",
    "city": "Inzkofen"
  },
  {
    "postcode": "85368",
    "city": "Isareck"
  },
  {
    "postcode": "85368",
    "city": "Landl"
  },
  {
    "postcode": "85368",
    "city": "Thalbach"
  },
  {
    "postcode": "85368",
    "city": "Schöneck"
  },
  {
    "postcode": "85368",
    "city": "Scheckenhofen"
  },
  {
    "postcode": "85368",
    "city": "Schlag"
  },
  {
    "postcode": "85368",
    "city": "Weghausen"
  },
  {
    "postcode": "85368",
    "city": "Wittibsmühle"
  },
  {
    "postcode": "85375",
    "city": "Fürholzen Kreis Freising"
  },
  {
    "postcode": "85375",
    "city": "Fürholzen"
  },
  {
    "postcode": "85375",
    "city": "Mintraching Kreis Freising"
  },
  {
    "postcode": "85375",
    "city": "Mintraching"
  },
  {
    "postcode": "85375",
    "city": "Neufahrn"
  },
  {
    "postcode": "85375",
    "city": "Neufahrn bei Freising"
  },
  {
    "postcode": "85375",
    "city": "Freising"
  },
  {
    "postcode": "85375",
    "city": "Neufahrn b. Freising"
  },
  {
    "postcode": "85375",
    "city": "Gemeinde Eching"
  },
  {
    "postcode": "85376",
    "city": "Fürholzen Kreis Freising"
  },
  {
    "postcode": "85376",
    "city": "Fürholzen"
  },
  {
    "postcode": "85376",
    "city": "Giggenhausen"
  },
  {
    "postcode": "85376",
    "city": "Hetzenhausen"
  },
  {
    "postcode": "85376",
    "city": "Moosmühle Oberbayern"
  },
  {
    "postcode": "85376",
    "city": "Moosmühle"
  },
  {
    "postcode": "85376",
    "city": "Freising"
  },
  {
    "postcode": "85376",
    "city": "Massenhausen"
  },
  {
    "postcode": "85376",
    "city": "Neufahrn b. Freising"
  },
  {
    "postcode": "85376",
    "city": "Schaidenhausen"
  },
  {
    "postcode": "85376",
    "city": "Neufahrn bei Freising"
  },
  {
    "postcode": "85386",
    "city": "Deutenhausen Kreis Freising"
  },
  {
    "postcode": "85386",
    "city": "Deutenhausen"
  },
  {
    "postcode": "85386",
    "city": "Dietersheim Oberbayern"
  },
  {
    "postcode": "85386",
    "city": "Dietersheim"
  },
  {
    "postcode": "85386",
    "city": "Eching"
  },
  {
    "postcode": "85386",
    "city": "Eching Kreis Freising"
  },
  {
    "postcode": "85386",
    "city": "Günzenhausen Kreis Freising"
  },
  {
    "postcode": "85386",
    "city": "Günzenhausen"
  },
  {
    "postcode": "85386",
    "city": "Hollern"
  },
  {
    "postcode": "85386",
    "city": "Ottenburg Kreis Freising"
  },
  {
    "postcode": "85386",
    "city": "Ottenburg"
  },
  {
    "postcode": "85386",
    "city": "Freising"
  },
  {
    "postcode": "85391",
    "city": "Aiterbach Oberbayern"
  },
  {
    "postcode": "85391",
    "city": "Aiterbach"
  },
  {
    "postcode": "85391",
    "city": "Allershausen"
  },
  {
    "postcode": "85391",
    "city": "Allershausen Oberbayern"
  },
  {
    "postcode": "85391",
    "city": "Eggenberg Oberbayern"
  },
  {
    "postcode": "85391",
    "city": "Eggenberg"
  },
  {
    "postcode": "85391",
    "city": "Göttschlag Oberbayern"
  },
  {
    "postcode": "85391",
    "city": "Göttschlag"
  },
  {
    "postcode": "85391",
    "city": "Laimbach Oberbayern"
  },
  {
    "postcode": "85391",
    "city": "Laimbach"
  },
  {
    "postcode": "85391",
    "city": "Leonhardsbuch Oberbayern"
  },
  {
    "postcode": "85391",
    "city": "Leonhardsbuch"
  },
  {
    "postcode": "85391",
    "city": "Oberkienberg"
  },
  {
    "postcode": "85391",
    "city": "Schroßlach Oberbayern"
  },
  {
    "postcode": "85391",
    "city": "Schroßlach"
  },
  {
    "postcode": "85391",
    "city": "Tünzhausen Oberbayern"
  },
  {
    "postcode": "85391",
    "city": "Tünzhausen"
  },
  {
    "postcode": "85391",
    "city": "Unterkienberg Oberbayern"
  },
  {
    "postcode": "85391",
    "city": "Unterkienberg"
  },
  {
    "postcode": "85391",
    "city": "Freising"
  },
  {
    "postcode": "85391",
    "city": "Siedlung Reckmühle"
  },
  {
    "postcode": "85391",
    "city": "Oberallershausen"
  },
  {
    "postcode": "85395",
    "city": "Alsdorf"
  },
  {
    "postcode": "85395",
    "city": "Attenkirchen"
  },
  {
    "postcode": "85395",
    "city": "Badendorf"
  },
  {
    "postcode": "85395",
    "city": "Berghaselbach"
  },
  {
    "postcode": "85395",
    "city": "Berging"
  },
  {
    "postcode": "85395",
    "city": "Billingsdorf"
  },
  {
    "postcode": "85395",
    "city": "Brandloh"
  },
  {
    "postcode": "85395",
    "city": "Gallersberg"
  },
  {
    "postcode": "85395",
    "city": "Gütlsdorf"
  },
  {
    "postcode": "85395",
    "city": "Haarland"
  },
  {
    "postcode": "85395",
    "city": "Heigenhausen"
  },
  {
    "postcode": "85395",
    "city": "Hettenkirchen"
  },
  {
    "postcode": "85395",
    "city": "Jägersdorf"
  },
  {
    "postcode": "85395",
    "city": "Kronsdorf"
  },
  {
    "postcode": "85395",
    "city": "Oberhaindlfing"
  },
  {
    "postcode": "85395",
    "city": "Pfettrach"
  },
  {
    "postcode": "85395",
    "city": "Pischlsdorf"
  },
  {
    "postcode": "85395",
    "city": "Roggendorf"
  },
  {
    "postcode": "85395",
    "city": "Ruhpalzing"
  },
  {
    "postcode": "85395",
    "city": "Sörzen"
  },
  {
    "postcode": "85395",
    "city": "Staudhausen"
  },
  {
    "postcode": "85395",
    "city": "Thonhausen"
  },
  {
    "postcode": "85395",
    "city": "Unterhaindlfing"
  },
  {
    "postcode": "85395",
    "city": "Wimpasing"
  },
  {
    "postcode": "85395",
    "city": "Wolfersdorf"
  },
  {
    "postcode": "85395",
    "city": "Wolfersdorf Oberbayern"
  },
  {
    "postcode": "85395",
    "city": "Wölfing"
  },
  {
    "postcode": "85395",
    "city": "Freising"
  },
  {
    "postcode": "85395",
    "city": "Oberholzhäuseln"
  },
  {
    "postcode": "85395",
    "city": "Aigenrüpel"
  },
  {
    "postcode": "85395",
    "city": "Aign"
  },
  {
    "postcode": "85395",
    "city": "Thalham"
  },
  {
    "postcode": "85395",
    "city": "Eisenthal"
  },
  {
    "postcode": "85395",
    "city": "Götzendorf"
  },
  {
    "postcode": "85395",
    "city": "Gehausen"
  },
  {
    "postcode": "85395",
    "city": "Gfeichtet"
  },
  {
    "postcode": "85395",
    "city": "Hohenmorgen"
  },
  {
    "postcode": "85395",
    "city": "Rannertshausen"
  },
  {
    "postcode": "85395",
    "city": "Kaltenberg"
  },
  {
    "postcode": "85395",
    "city": "Kastenhofen"
  },
  {
    "postcode": "85395",
    "city": "Seel"
  },
  {
    "postcode": "85395",
    "city": "Zum Fürst"
  },
  {
    "postcode": "85399",
    "city": "Erching"
  },
  {
    "postcode": "85399",
    "city": "Goldach"
  },
  {
    "postcode": "85399",
    "city": "Hallbergmoos"
  },
  {
    "postcode": "85399",
    "city": "Mariabrunn"
  },
  {
    "postcode": "85399",
    "city": "Freising"
  },
  {
    "postcode": "85402",
    "city": "Ampertshausen Kreis Freising"
  },
  {
    "postcode": "85402",
    "city": "Ampertshausen"
  },
  {
    "postcode": "85402",
    "city": "Berg Kreis Freising"
  },
  {
    "postcode": "85402",
    "city": "Berg"
  },
  {
    "postcode": "85402",
    "city": "Dorfacker Kreis Freising"
  },
  {
    "postcode": "85402",
    "city": "Dorfacker"
  },
  {
    "postcode": "85402",
    "city": "Eberspoint Kreis Freising"
  },
  {
    "postcode": "85402",
    "city": "Eberspoint"
  },
  {
    "postcode": "85402",
    "city": "Giesenbach Kreis Freising"
  },
  {
    "postcode": "85402",
    "city": "Giesenbach"
  },
  {
    "postcode": "85402",
    "city": "Grandlmiltach Kreis Dachau"
  },
  {
    "postcode": "85402",
    "city": "Grandlmiltach"
  },
  {
    "postcode": "85402",
    "city": "Gremertshausen Oberbayern"
  },
  {
    "postcode": "85402",
    "city": "Gremertshausen"
  },
  {
    "postcode": "85402",
    "city": "Griesbach Kreis Freising"
  },
  {
    "postcode": "85402",
    "city": "Griesbach"
  },
  {
    "postcode": "85402",
    "city": "Hagenau Kreis Freising"
  },
  {
    "postcode": "85402",
    "city": "Hagenau"
  },
  {
    "postcode": "85402",
    "city": "Hohenbercha Kreis Dachau"
  },
  {
    "postcode": "85402",
    "city": "Hohenbercha"
  },
  {
    "postcode": "85402",
    "city": "Kranzberg"
  },
  {
    "postcode": "85402",
    "city": "Kranzberg Kreis Freising"
  },
  {
    "postcode": "85402",
    "city": "Kühnhausen Kreis Freising"
  },
  {
    "postcode": "85402",
    "city": "Kühnhausen"
  },
  {
    "postcode": "85402",
    "city": "Neuhausen Kreis Freising"
  },
  {
    "postcode": "85402",
    "city": "Neuhausen"
  },
  {
    "postcode": "85402",
    "city": "Schönbichl Kreis Freising"
  },
  {
    "postcode": "85402",
    "city": "Schönbichl"
  },
  {
    "postcode": "85402",
    "city": "Sickenhausen Oberbayern"
  },
  {
    "postcode": "85402",
    "city": "Sickenhausen"
  },
  {
    "postcode": "85402",
    "city": "Thalhausen Kreis Freising"
  },
  {
    "postcode": "85402",
    "city": "Thalhausen"
  },
  {
    "postcode": "85402",
    "city": "Thurnsberg Kreis Dachau"
  },
  {
    "postcode": "85402",
    "city": "Thurnsberg"
  },
  {
    "postcode": "85402",
    "city": "Viehhausen Kreis Freising"
  },
  {
    "postcode": "85402",
    "city": "Viehhausen"
  },
  {
    "postcode": "85402",
    "city": "Zinklmiltach Kreis Dachau"
  },
  {
    "postcode": "85402",
    "city": "Zinklmiltach"
  },
  {
    "postcode": "85402",
    "city": "Freising"
  },
  {
    "postcode": "85402",
    "city": "Ast"
  },
  {
    "postcode": "85402",
    "city": "Bernstorf"
  },
  {
    "postcode": "85402",
    "city": "Höchenberg"
  },
  {
    "postcode": "85405",
    "city": "Aiglsdorf"
  },
  {
    "postcode": "85405",
    "city": "Airischwand"
  },
  {
    "postcode": "85405",
    "city": "Altfalterbach Kreis Freising"
  },
  {
    "postcode": "85405",
    "city": "Altfalterbach"
  },
  {
    "postcode": "85405",
    "city": "Andorf"
  },
  {
    "postcode": "85405",
    "city": "Bauernried"
  },
  {
    "postcode": "85405",
    "city": "Baumgarten"
  },
  {
    "postcode": "85405",
    "city": "Faistenberg"
  },
  {
    "postcode": "85405",
    "city": "Figlsdorf"
  },
  {
    "postcode": "85405",
    "city": "Großgründling"
  },
  {
    "postcode": "85405",
    "city": "Gründl"
  },
  {
    "postcode": "85405",
    "city": "Hausmehring"
  },
  {
    "postcode": "85405",
    "city": "Holzen"
  },
  {
    "postcode": "85405",
    "city": "Kleinwolfersdorf"
  },
  {
    "postcode": "85405",
    "city": "Kollersdorf"
  },
  {
    "postcode": "85405",
    "city": "Kronwinkl"
  },
  {
    "postcode": "85405",
    "city": "Nandlstadt"
  },
  {
    "postcode": "85405",
    "city": "Reith"
  },
  {
    "postcode": "85405",
    "city": "Schatz"
  },
  {
    "postcode": "85405",
    "city": "Tölzkirchen"
  },
  {
    "postcode": "85405",
    "city": "Unterholzhäuseln"
  },
  {
    "postcode": "85405",
    "city": "Weihersdorf"
  },
  {
    "postcode": "85405",
    "city": "Freising"
  },
  {
    "postcode": "85405",
    "city": "Schwaig"
  },
  {
    "postcode": "85405",
    "city": "Brudersdorf"
  },
  {
    "postcode": "85405",
    "city": "Höll"
  },
  {
    "postcode": "85405",
    "city": "Hadersdorf"
  },
  {
    "postcode": "85405",
    "city": "Kainrad"
  },
  {
    "postcode": "85405",
    "city": "Kitzberg"
  },
  {
    "postcode": "85405",
    "city": "Kleingründling"
  },
  {
    "postcode": "85405",
    "city": "Meilendorf"
  },
  {
    "postcode": "85405",
    "city": "Oberholzhäuseln"
  },
  {
    "postcode": "85405",
    "city": "Rehloh"
  },
  {
    "postcode": "85405",
    "city": "Riedglas"
  },
  {
    "postcode": "85405",
    "city": "Riedhof"
  },
  {
    "postcode": "85405",
    "city": "Spitz"
  },
  {
    "postcode": "85405",
    "city": "Wadensdorf"
  },
  {
    "postcode": "85405",
    "city": "Zeilhof"
  },
  {
    "postcode": "85405",
    "city": "Zulehen"
  },
  {
    "postcode": "85406",
    "city": "Abersberg an der Amper"
  },
  {
    "postcode": "85406",
    "city": "Anglberg"
  },
  {
    "postcode": "85406",
    "city": "Flitzing"
  },
  {
    "postcode": "85406",
    "city": "Gerlhausen"
  },
  {
    "postcode": "85406",
    "city": "Hartshausen"
  },
  {
    "postcode": "85406",
    "city": "Kratzerimbach"
  },
  {
    "postcode": "85406",
    "city": "Moos"
  },
  {
    "postcode": "85406",
    "city": "Oberappersdorf"
  },
  {
    "postcode": "85406",
    "city": "Oberzolling"
  },
  {
    "postcode": "85406",
    "city": "Palzing"
  },
  {
    "postcode": "85406",
    "city": "Siechendorf"
  },
  {
    "postcode": "85406",
    "city": "Thann"
  },
  {
    "postcode": "85406",
    "city": "Unterappersdorf"
  },
  {
    "postcode": "85406",
    "city": "Willertshausen"
  },
  {
    "postcode": "85406",
    "city": "Zolling"
  },
  {
    "postcode": "85406",
    "city": "Zolling Oberbayern"
  },
  {
    "postcode": "85406",
    "city": "Freising"
  },
  {
    "postcode": "85406",
    "city": "Abersberg"
  },
  {
    "postcode": "85406",
    "city": "Eichenhof"
  },
  {
    "postcode": "85406",
    "city": "Haarland"
  },
  {
    "postcode": "85406",
    "city": "Haun"
  },
  {
    "postcode": "85406",
    "city": "Holzen"
  },
  {
    "postcode": "85406",
    "city": "Osterimbach"
  },
  {
    "postcode": "85406",
    "city": "Ölpersberg"
  },
  {
    "postcode": "85406",
    "city": "Walkertshausen"
  },
  {
    "postcode": "85408",
    "city": "Flickendorf"
  },
  {
    "postcode": "85408",
    "city": "Gammelsdorf"
  },
  {
    "postcode": "85408",
    "city": "Gelbersdorf Oberbayern"
  },
  {
    "postcode": "85408",
    "city": "Gelbersdorf"
  },
  {
    "postcode": "85408",
    "city": "Katharinazell"
  },
  {
    "postcode": "85408",
    "city": "Oberpriel"
  },
  {
    "postcode": "85408",
    "city": "Priel"
  },
  {
    "postcode": "85408",
    "city": "Rehbach"
  },
  {
    "postcode": "85408",
    "city": "Reichersdorf Oberbayern"
  },
  {
    "postcode": "85408",
    "city": "Reichersdorf"
  },
  {
    "postcode": "85408",
    "city": "Willersdorf Oberbayern"
  },
  {
    "postcode": "85408",
    "city": "Willersdorf"
  },
  {
    "postcode": "85408",
    "city": "Freising"
  },
  {
    "postcode": "85408",
    "city": "Berghof"
  },
  {
    "postcode": "85408",
    "city": "Daberg"
  },
  {
    "postcode": "85408",
    "city": "Dreifaltern"
  },
  {
    "postcode": "85408",
    "city": "Weichsberg"
  },
  {
    "postcode": "85408",
    "city": "Giglberg"
  },
  {
    "postcode": "85408",
    "city": "Hiendlberg"
  },
  {
    "postcode": "85408",
    "city": "Häringsschwaig"
  },
  {
    "postcode": "85408",
    "city": "Kothingried"
  },
  {
    "postcode": "85408",
    "city": "Kreuzholzen"
  },
  {
    "postcode": "85408",
    "city": "Landersdorf"
  },
  {
    "postcode": "85408",
    "city": "Langholzen"
  },
  {
    "postcode": "85408",
    "city": "Reith"
  },
  {
    "postcode": "85408",
    "city": "Roßberg"
  },
  {
    "postcode": "85408",
    "city": "Schergenöd"
  },
  {
    "postcode": "85408",
    "city": "Starkhof"
  },
  {
    "postcode": "85408",
    "city": "Traich"
  },
  {
    "postcode": "85408",
    "city": "Winbürg"
  },
  {
    "postcode": "85410",
    "city": "Haag"
  },
  {
    "postcode": "85410",
    "city": "Haag an der Amper"
  },
  {
    "postcode": "85410",
    "city": "Inkofen an der Amper"
  },
  {
    "postcode": "85410",
    "city": "Mittermarchenbach an der Amper"
  },
  {
    "postcode": "85410",
    "city": "Obermarchenbach an der Amper"
  },
  {
    "postcode": "85410",
    "city": "Oberplörnbach"
  },
  {
    "postcode": "85410",
    "city": "Plörnbach an der Amper"
  },
  {
    "postcode": "85410",
    "city": "Seeberg Gemeinde Inkofen"
  },
  {
    "postcode": "85410",
    "city": "Seeberg"
  },
  {
    "postcode": "85410",
    "city": "Sollern an der Amper"
  },
  {
    "postcode": "85410",
    "city": "Untermarchenbach"
  },
  {
    "postcode": "85410",
    "city": "Unterplörnbach an der Amper"
  },
  {
    "postcode": "85410",
    "city": "Freising"
  },
  {
    "postcode": "85410",
    "city": "Haag a.d.Amper"
  },
  {
    "postcode": "85410",
    "city": "Inkofen"
  },
  {
    "postcode": "85410",
    "city": "Obermarchenbach"
  },
  {
    "postcode": "85410",
    "city": "Haun"
  },
  {
    "postcode": "85410",
    "city": "Hausmehring"
  },
  {
    "postcode": "85410",
    "city": "Holzhäusl"
  },
  {
    "postcode": "85410",
    "city": "Mittermarchenbach"
  },
  {
    "postcode": "85410",
    "city": "Plörnbach"
  },
  {
    "postcode": "85410",
    "city": "Sollern"
  },
  {
    "postcode": "85410",
    "city": "Unterschwaig"
  },
  {
    "postcode": "85410",
    "city": "Wörlhof"
  },
  {
    "postcode": "85410",
    "city": "Weihrinnen"
  },
  {
    "postcode": "85411",
    "city": "Deutldorf"
  },
  {
    "postcode": "85411",
    "city": "Dörnbach"
  },
  {
    "postcode": "85411",
    "city": "Eglhausen"
  },
  {
    "postcode": "85411",
    "city": "Herschenhofen"
  },
  {
    "postcode": "85411",
    "city": "Hohenkammer"
  },
  {
    "postcode": "85411",
    "city": "Niernsdorf"
  },
  {
    "postcode": "85411",
    "city": "Oberwohlbach"
  },
  {
    "postcode": "85411",
    "city": "Pelka"
  },
  {
    "postcode": "85411",
    "city": "Schlipps"
  },
  {
    "postcode": "85411",
    "city": "Untermarbach"
  },
  {
    "postcode": "85411",
    "city": "Unterwohlbach"
  },
  {
    "postcode": "85411",
    "city": "Waltenhofen"
  },
  {
    "postcode": "85411",
    "city": "Freising"
  },
  {
    "postcode": "85411",
    "city": "Eichethof"
  },
  {
    "postcode": "85411",
    "city": "Haberhof"
  },
  {
    "postcode": "85411",
    "city": "Kleinkammerberg"
  },
  {
    "postcode": "85411",
    "city": "Riedhof"
  },
  {
    "postcode": "85411",
    "city": "Wahl"
  },
  {
    "postcode": "85413",
    "city": "Doidorf Kreis Freising"
  },
  {
    "postcode": "85413",
    "city": "Doidorf"
  },
  {
    "postcode": "85413",
    "city": "Gütersberg"
  },
  {
    "postcode": "85413",
    "city": "Hörgertshausen"
  },
  {
    "postcode": "85413",
    "city": "Margarethenried"
  },
  {
    "postcode": "85413",
    "city": "Peterswahl Kreis Freising"
  },
  {
    "postcode": "85413",
    "city": "Peterswahl"
  },
  {
    "postcode": "85413",
    "city": "Sankt Alban"
  },
  {
    "postcode": "85413",
    "city": "Saxberg"
  },
  {
    "postcode": "85413",
    "city": "Schlaghäuseln Kreis Freising"
  },
  {
    "postcode": "85413",
    "city": "Schlaghäuseln"
  },
  {
    "postcode": "85413",
    "city": "Sielstetten"
  },
  {
    "postcode": "85413",
    "city": "Freising"
  },
  {
    "postcode": "85413",
    "city": "Reissen"
  },
  {
    "postcode": "85413",
    "city": "Ammersberg"
  },
  {
    "postcode": "85413",
    "city": "Bergmartl"
  },
  {
    "postcode": "85413",
    "city": "Eckelsberg"
  },
  {
    "postcode": "85413",
    "city": "Holzmichl"
  },
  {
    "postcode": "85413",
    "city": "Fuchswinkl"
  },
  {
    "postcode": "85413",
    "city": "Goglhof"
  },
  {
    "postcode": "85413",
    "city": "Gröben"
  },
  {
    "postcode": "85413",
    "city": "Höfl"
  },
  {
    "postcode": "85413",
    "city": "Haider"
  },
  {
    "postcode": "85413",
    "city": "Haslreuth"
  },
  {
    "postcode": "85413",
    "city": "Hinterschlag"
  },
  {
    "postcode": "85413",
    "city": "Holzhaus"
  },
  {
    "postcode": "85413",
    "city": "Holzhäuseln"
  },
  {
    "postcode": "85413",
    "city": "Hub"
  },
  {
    "postcode": "85413",
    "city": "Kehrer am Biber"
  },
  {
    "postcode": "85413",
    "city": "Kimoden"
  },
  {
    "postcode": "85413",
    "city": "Lackermann"
  },
  {
    "postcode": "85413",
    "city": "Limmer zu der Linden"
  },
  {
    "postcode": "85413",
    "city": "Neuöd"
  },
  {
    "postcode": "85413",
    "city": "Niederschönbuch"
  },
  {
    "postcode": "85413",
    "city": "Oberschönbuch"
  },
  {
    "postcode": "85413",
    "city": "Öd"
  },
  {
    "postcode": "85413",
    "city": "Sammetsreith"
  },
  {
    "postcode": "85413",
    "city": "Sixt in der Point"
  },
  {
    "postcode": "85413",
    "city": "Spitzstidl"
  },
  {
    "postcode": "85413",
    "city": "St. Alban"
  },
  {
    "postcode": "85413",
    "city": "Stadlhof"
  },
  {
    "postcode": "85413",
    "city": "Vorderschlag"
  },
  {
    "postcode": "85413",
    "city": "Wies"
  },
  {
    "postcode": "85413",
    "city": "Wiesenberg"
  },
  {
    "postcode": "85414",
    "city": "Burghausen Kreis Freising"
  },
  {
    "postcode": "85414",
    "city": "Burghausen"
  },
  {
    "postcode": "85414",
    "city": "Geierlambach Kreis Freising"
  },
  {
    "postcode": "85414",
    "city": "Geierlambach"
  },
  {
    "postcode": "85414",
    "city": "Helfenbrunn"
  },
  {
    "postcode": "85414",
    "city": "Hirschbach Kreis Freising"
  },
  {
    "postcode": "85414",
    "city": "Hirschbach"
  },
  {
    "postcode": "85414",
    "city": "Kirchdorf an der Amper"
  },
  {
    "postcode": "85414",
    "city": "Nörting Kreis Freising"
  },
  {
    "postcode": "85414",
    "city": "Nörting"
  },
  {
    "postcode": "85414",
    "city": "Schidlambach Kreis Freising"
  },
  {
    "postcode": "85414",
    "city": "Schidlambach"
  },
  {
    "postcode": "85414",
    "city": "Schnotting Kreis Freising"
  },
  {
    "postcode": "85414",
    "city": "Schnotting"
  },
  {
    "postcode": "85414",
    "city": "Wippenhausen"
  },
  {
    "postcode": "85414",
    "city": "Freising"
  },
  {
    "postcode": "85414",
    "city": "Kirchdorf a.d.Amper"
  },
  {
    "postcode": "85414",
    "city": "Kirchdorf"
  },
  {
    "postcode": "85414",
    "city": "Esterndorf"
  },
  {
    "postcode": "85414",
    "city": "Hahnbach"
  },
  {
    "postcode": "85414",
    "city": "Saulhof"
  },
  {
    "postcode": "85414",
    "city": "Schellhof"
  },
  {
    "postcode": "85414",
    "city": "Unterberg"
  },
  {
    "postcode": "85414",
    "city": "Voglhof"
  },
  {
    "postcode": "85416",
    "city": "Grossenviecht"
  },
  {
    "postcode": "85416",
    "city": "Kleinviecht Kreis Freising"
  },
  {
    "postcode": "85416",
    "city": "Kleinviecht"
  },
  {
    "postcode": "85416",
    "city": "Langenbach Kreis Freising"
  },
  {
    "postcode": "85416",
    "city": "Langenbach"
  },
  {
    "postcode": "85416",
    "city": "Niederhummel Kreis Freising"
  },
  {
    "postcode": "85416",
    "city": "Niederhummel"
  },
  {
    "postcode": "85416",
    "city": "Oberbach Kreis Freising"
  },
  {
    "postcode": "85416",
    "city": "Oberbach"
  },
  {
    "postcode": "85416",
    "city": "Oberhummel Kreis Freising"
  },
  {
    "postcode": "85416",
    "city": "Oberhummel"
  },
  {
    "postcode": "85416",
    "city": "Rast Kreis Freising"
  },
  {
    "postcode": "85416",
    "city": "Rast"
  },
  {
    "postcode": "85416",
    "city": "Schmidhausen Kreis Freising"
  },
  {
    "postcode": "85416",
    "city": "Schmidhausen"
  },
  {
    "postcode": "85416",
    "city": "Windham Kreis Freising"
  },
  {
    "postcode": "85416",
    "city": "Windham"
  },
  {
    "postcode": "85416",
    "city": "Freising"
  },
  {
    "postcode": "85417",
    "city": "Eixendorf"
  },
  {
    "postcode": "85417",
    "city": "Hangenham Kreis Freising"
  },
  {
    "postcode": "85417",
    "city": "Hangenham"
  },
  {
    "postcode": "85417",
    "city": "Jaibling"
  },
  {
    "postcode": "85417",
    "city": "Marzling"
  },
  {
    "postcode": "85417",
    "city": "Riegerau"
  },
  {
    "postcode": "85417",
    "city": "Rudlfing"
  },
  {
    "postcode": "85417",
    "city": "Unterberghausen"
  },
  {
    "postcode": "85417",
    "city": "Freising"
  },
  {
    "postcode": "85417",
    "city": "Brunnhofen"
  },
  {
    "postcode": "85417",
    "city": "Goldshausen"
  },
  {
    "postcode": "85417",
    "city": "Hirschau"
  },
  {
    "postcode": "85417",
    "city": "Riedhof"
  },
  {
    "postcode": "85417",
    "city": "Stoibermühle"
  },
  {
    "postcode": "85417",
    "city": "Einöd"
  },
  {
    "postcode": "85419",
    "city": "Dürnseiboldsdorf Oberbayern"
  },
  {
    "postcode": "85419",
    "city": "Dürnseiboldsdorf"
  },
  {
    "postcode": "85419",
    "city": "Enghausen Kreis Freising"
  },
  {
    "postcode": "85419",
    "city": "Enghausen"
  },
  {
    "postcode": "85419",
    "city": "Freundsbach Oberbayern"
  },
  {
    "postcode": "85419",
    "city": "Freundsbach"
  },
  {
    "postcode": "85419",
    "city": "Kleidorf Kreis Freising"
  },
  {
    "postcode": "85419",
    "city": "Kleidorf"
  },
  {
    "postcode": "85419",
    "city": "Kronwinkl Kreis Freising"
  },
  {
    "postcode": "85419",
    "city": "Kronwinkl"
  },
  {
    "postcode": "85419",
    "city": "Mauern"
  },
  {
    "postcode": "85419",
    "city": "Mauern Kreis Freising"
  },
  {
    "postcode": "85419",
    "city": "Niederndorf Kreis Freising"
  },
  {
    "postcode": "85419",
    "city": "Niederndorf"
  },
  {
    "postcode": "85419",
    "city": "Schwarzersdorf Kreis Freising"
  },
  {
    "postcode": "85419",
    "city": "Schwarzersdorf"
  },
  {
    "postcode": "85419",
    "city": "Thal Kreis Freising"
  },
  {
    "postcode": "85419",
    "city": "Thal"
  },
  {
    "postcode": "85419",
    "city": "Wollersdorf Kreis Freising"
  },
  {
    "postcode": "85419",
    "city": "Wollersdorf"
  },
  {
    "postcode": "85419",
    "city": "Freising"
  },
  {
    "postcode": "85419",
    "city": "Alpersdorf"
  },
  {
    "postcode": "85419",
    "city": "Bergmühle"
  },
  {
    "postcode": "85419",
    "city": "Beselmühle"
  },
  {
    "postcode": "85419",
    "city": "Besenried"
  },
  {
    "postcode": "85419",
    "city": "Gandorf"
  },
  {
    "postcode": "85419",
    "city": "Geiting"
  },
  {
    "postcode": "85419",
    "city": "Grub"
  },
  {
    "postcode": "85419",
    "city": "Hörgersdorf"
  },
  {
    "postcode": "85419",
    "city": "Hanslmühle"
  },
  {
    "postcode": "85419",
    "city": "Hartshausen"
  },
  {
    "postcode": "85419",
    "city": "Hintermeier"
  },
  {
    "postcode": "85419",
    "city": "Hufnagelreuth"
  },
  {
    "postcode": "85419",
    "city": "Mönchsberg"
  },
  {
    "postcode": "85419",
    "city": "Gemeinde Wang"
  },
  {
    "postcode": "85419",
    "city": "Nußberg"
  },
  {
    "postcode": "85419",
    "city": "Oberndorf"
  },
  {
    "postcode": "85419",
    "city": "Riedlmühle"
  },
  {
    "postcode": "85419",
    "city": "Scheckenhofen"
  },
  {
    "postcode": "85419",
    "city": "Schwarzberg"
  },
  {
    "postcode": "85419",
    "city": "Vordermeier"
  },
  {
    "postcode": "85419",
    "city": "Wölflmühle"
  },
  {
    "postcode": "85419",
    "city": "Wildenreuth"
  },
  {
    "postcode": "85435",
    "city": "Altenerding"
  },
  {
    "postcode": "85435",
    "city": "Altham"
  },
  {
    "postcode": "85435",
    "city": "Ammersdorf"
  },
  {
    "postcode": "85435",
    "city": "Aufhausen"
  },
  {
    "postcode": "85435",
    "city": "Bergham"
  },
  {
    "postcode": "85435",
    "city": "Eichenkofen"
  },
  {
    "postcode": "85435",
    "city": "Erding"
  },
  {
    "postcode": "85435",
    "city": "Indorf"
  },
  {
    "postcode": "85435",
    "city": "Itzling"
  },
  {
    "postcode": "85435",
    "city": "Kehr"
  },
  {
    "postcode": "85435",
    "city": "Klettham"
  },
  {
    "postcode": "85435",
    "city": "Langengeisling"
  },
  {
    "postcode": "85435",
    "city": "Neuhausen"
  },
  {
    "postcode": "85435",
    "city": "Pretzen"
  },
  {
    "postcode": "85435",
    "city": "Sankt Paul"
  },
  {
    "postcode": "85435",
    "city": "Siglfing"
  },
  {
    "postcode": "85435",
    "city": "Singlding"
  },
  {
    "postcode": "85435",
    "city": "Werndlfing"
  },
  {
    "postcode": "85435",
    "city": "Graß"
  },
  {
    "postcode": "85435",
    "city": "Heilig Blut"
  },
  {
    "postcode": "85435",
    "city": "Kiefing"
  },
  {
    "postcode": "85435",
    "city": "Schollbach"
  },
  {
    "postcode": "85435",
    "city": "Straß"
  },
  {
    "postcode": "85435",
    "city": "Voggenöd"
  },
  {
    "postcode": "85435",
    "city": "Ziegelstatt"
  },
  {
    "postcode": "85445",
    "city": "Aufkirchen"
  },
  {
    "postcode": "85445",
    "city": "Franzheim"
  },
  {
    "postcode": "85445",
    "city": "Niederding"
  },
  {
    "postcode": "85445",
    "city": "Notzing"
  },
  {
    "postcode": "85445",
    "city": "Oberding"
  },
  {
    "postcode": "85445",
    "city": "Schwaig Kreis Erding"
  },
  {
    "postcode": "85445",
    "city": "Schwaig"
  },
  {
    "postcode": "85445",
    "city": "Erding"
  },
  {
    "postcode": "85445",
    "city": "Notzingermoos"
  },
  {
    "postcode": "85445",
    "city": "Schwaigermoos"
  },
  {
    "postcode": "85445",
    "city": "Oberdingermoos"
  },
  {
    "postcode": "85447",
    "city": "Bergham Kreis Erding"
  },
  {
    "postcode": "85447",
    "city": "Bergham"
  },
  {
    "postcode": "85447",
    "city": "Eck Kreis Erding"
  },
  {
    "postcode": "85447",
    "city": "Eck"
  },
  {
    "postcode": "85447",
    "city": "Endham Vils"
  },
  {
    "postcode": "85447",
    "city": "Endham"
  },
  {
    "postcode": "85447",
    "city": "Forach Kreis Erding"
  },
  {
    "postcode": "85447",
    "city": "Forach"
  },
  {
    "postcode": "85447",
    "city": "Frankendorf"
  },
  {
    "postcode": "85447",
    "city": "Fraunberg"
  },
  {
    "postcode": "85447",
    "city": "Fraunberg Oberbayern"
  },
  {
    "postcode": "85447",
    "city": "Grafing"
  },
  {
    "postcode": "85447",
    "city": "Großhündlbach bei Erding"
  },
  {
    "postcode": "85447",
    "city": "Großstürzlham Kreis Erding"
  },
  {
    "postcode": "85447",
    "city": "Großstürzlham"
  },
  {
    "postcode": "85447",
    "city": "Grucking"
  },
  {
    "postcode": "85447",
    "city": "Harham"
  },
  {
    "postcode": "85447",
    "city": "Helling Kreis Erding"
  },
  {
    "postcode": "85447",
    "city": "Helling"
  },
  {
    "postcode": "85447",
    "city": "Hinterbaumberg Kreis Erding"
  },
  {
    "postcode": "85447",
    "city": "Hinterbaumberg"
  },
  {
    "postcode": "85447",
    "city": "Kleinhündlbach bei Erding"
  },
  {
    "postcode": "85447",
    "city": "Kleinstürzlham Kreis Erding"
  },
  {
    "postcode": "85447",
    "city": "Kleinstürzlham"
  },
  {
    "postcode": "85447",
    "city": "Kleinthalheim Kreis Erding"
  },
  {
    "postcode": "85447",
    "city": "Kleinthalheim"
  },
  {
    "postcode": "85447",
    "city": "Lohkirchen"
  },
  {
    "postcode": "85447",
    "city": "Oberbierbach Vils"
  },
  {
    "postcode": "85447",
    "city": "Oberbierbach"
  },
  {
    "postcode": "85447",
    "city": "Pillkofen"
  },
  {
    "postcode": "85447",
    "city": "Rappoltskirchen bei Erding"
  },
  {
    "postcode": "85447",
    "city": "Reichenkirchen"
  },
  {
    "postcode": "85447",
    "city": "Riding Kreis Erding"
  },
  {
    "postcode": "85447",
    "city": "Riding"
  },
  {
    "postcode": "85447",
    "city": "Thalheim Kreis Erding"
  },
  {
    "postcode": "85447",
    "city": "Thalheim"
  },
  {
    "postcode": "85447",
    "city": "Tittenkofen"
  },
  {
    "postcode": "85447",
    "city": "Unterbierbach Vils"
  },
  {
    "postcode": "85447",
    "city": "Unterbierbach"
  },
  {
    "postcode": "85447",
    "city": "Vorderbaumberg Kreis Erding"
  },
  {
    "postcode": "85447",
    "city": "Vorderbaumberg"
  },
  {
    "postcode": "85447",
    "city": "Erding"
  },
  {
    "postcode": "85447",
    "city": "Weg"
  },
  {
    "postcode": "85447",
    "city": "Maria Thalheim"
  },
  {
    "postcode": "85447",
    "city": "Anglsbruck"
  },
  {
    "postcode": "85447",
    "city": "Bachham"
  },
  {
    "postcode": "85447",
    "city": "Edersberg"
  },
  {
    "postcode": "85447",
    "city": "Felben"
  },
  {
    "postcode": "85447",
    "city": "Furthmühle"
  },
  {
    "postcode": "85447",
    "city": "Gigling"
  },
  {
    "postcode": "85447",
    "city": "Großhündlbach"
  },
  {
    "postcode": "85447",
    "city": "Grub"
  },
  {
    "postcode": "85447",
    "city": "Grün"
  },
  {
    "postcode": "85447",
    "city": "Hainthal"
  },
  {
    "postcode": "85447",
    "city": "Hatting"
  },
  {
    "postcode": "85447",
    "city": "Holz"
  },
  {
    "postcode": "85447",
    "city": "Kemoding"
  },
  {
    "postcode": "85447",
    "city": "Kleinhündlbach"
  },
  {
    "postcode": "85447",
    "city": "Loodermoos"
  },
  {
    "postcode": "85447",
    "city": "Rappoltskirchen"
  },
  {
    "postcode": "85447",
    "city": "Sandberg"
  },
  {
    "postcode": "85447",
    "city": "Singlding"
  },
  {
    "postcode": "85447",
    "city": "Urtl"
  },
  {
    "postcode": "85452",
    "city": "Eching"
  },
  {
    "postcode": "85452",
    "city": "Eichenried bei Erding"
  },
  {
    "postcode": "85452",
    "city": "Kempfing"
  },
  {
    "postcode": "85452",
    "city": "Moosinning"
  },
  {
    "postcode": "85452",
    "city": "Riexing"
  },
  {
    "postcode": "85452",
    "city": "Stammham"
  },
  {
    "postcode": "85452",
    "city": "Zengermoos bei Erding"
  },
  {
    "postcode": "85452",
    "city": "Erding"
  },
  {
    "postcode": "85452",
    "city": "Eichenried"
  },
  {
    "postcode": "85452",
    "city": "Burgholz"
  },
  {
    "postcode": "85452",
    "city": "Eder am Holz"
  },
  {
    "postcode": "85452",
    "city": "Zengermoos"
  },
  {
    "postcode": "85452",
    "city": "Schnabelmoos"
  },
  {
    "postcode": "85452",
    "city": "Sollnberg"
  },
  {
    "postcode": "85456",
    "city": "Auerbach Oberbayern"
  },
  {
    "postcode": "85456",
    "city": "Auerbach"
  },
  {
    "postcode": "85456",
    "city": "Hardt Oberbayern"
  },
  {
    "postcode": "85456",
    "city": "Hardt"
  },
  {
    "postcode": "85456",
    "city": "Manhartsdorf"
  },
  {
    "postcode": "85456",
    "city": "Pesenlern Oberbayern"
  },
  {
    "postcode": "85456",
    "city": "Pesenlern"
  },
  {
    "postcode": "85456",
    "city": "Thenn Oberbayern"
  },
  {
    "postcode": "85456",
    "city": "Thenn"
  },
  {
    "postcode": "85456",
    "city": "Wartenberg"
  },
  {
    "postcode": "85456",
    "city": "Wartenberg Oberbayern"
  },
  {
    "postcode": "85456",
    "city": "Erding"
  },
  {
    "postcode": "85456",
    "city": "Gemeinde Langenpreising"
  },
  {
    "postcode": "85457",
    "city": "Berg"
  },
  {
    "postcode": "85457",
    "city": "Brand Kreis Erding"
  },
  {
    "postcode": "85457",
    "city": "Brand"
  },
  {
    "postcode": "85457",
    "city": "Breitötting"
  },
  {
    "postcode": "85457",
    "city": "Hofsingelding"
  },
  {
    "postcode": "85457",
    "city": "Hörlkofen"
  },
  {
    "postcode": "85457",
    "city": "Niederwörth"
  },
  {
    "postcode": "85457",
    "city": "Rottmann"
  },
  {
    "postcode": "85457",
    "city": "Teufstetten"
  },
  {
    "postcode": "85457",
    "city": "Wifling"
  },
  {
    "postcode": "85457",
    "city": "Wörth Kreis Erding"
  },
  {
    "postcode": "85457",
    "city": "Wörth"
  },
  {
    "postcode": "85457",
    "city": "Erding"
  },
  {
    "postcode": "85459",
    "city": "Berglern"
  },
  {
    "postcode": "85459",
    "city": "Glaslern"
  },
  {
    "postcode": "85459",
    "city": "Mitterlern"
  },
  {
    "postcode": "85459",
    "city": "Niederlern"
  },
  {
    "postcode": "85459",
    "city": "Erding"
  },
  {
    "postcode": "85461",
    "city": "Aurlfing bei Erding"
  },
  {
    "postcode": "85461",
    "city": "Bergarn"
  },
  {
    "postcode": "85461",
    "city": "Bockhorn"
  },
  {
    "postcode": "85461",
    "city": "Bockhorn Oberbayern"
  },
  {
    "postcode": "85461",
    "city": "Breitasch"
  },
  {
    "postcode": "85461",
    "city": "Deimling bei Erding"
  },
  {
    "postcode": "85461",
    "city": "Englpolding"
  },
  {
    "postcode": "85461",
    "city": "Eschlbach bei Erding"
  },
  {
    "postcode": "85461",
    "city": "Ferteln bei Erding"
  },
  {
    "postcode": "85461",
    "city": "Flanning"
  },
  {
    "postcode": "85461",
    "city": "Grünbach bei Erding"
  },
  {
    "postcode": "85461",
    "city": "Gugging"
  },
  {
    "postcode": "85461",
    "city": "Hammerthal bei Erding"
  },
  {
    "postcode": "85461",
    "city": "Haselbach bei Erding"
  },
  {
    "postcode": "85461",
    "city": "Hecken bei Erding"
  },
  {
    "postcode": "85461",
    "city": "Hörgersberg bei Erding"
  },
  {
    "postcode": "85461",
    "city": "Kinzlbach"
  },
  {
    "postcode": "85461",
    "city": "Kirchasch"
  },
  {
    "postcode": "85461",
    "city": "Köhl bei Erding"
  },
  {
    "postcode": "85461",
    "city": "Maierklopfen bei Erding"
  },
  {
    "postcode": "85461",
    "city": "Mauggen"
  },
  {
    "postcode": "85461",
    "city": "Neukirchen"
  },
  {
    "postcode": "85461",
    "city": "Oberstrogn"
  },
  {
    "postcode": "85461",
    "city": "Papferding"
  },
  {
    "postcode": "85461",
    "city": "Polzing"
  },
  {
    "postcode": "85461",
    "city": "Riedersheim bei Erding"
  },
  {
    "postcode": "85461",
    "city": "Salmannskirchen"
  },
  {
    "postcode": "85461",
    "city": "Tankham bei Erding"
  },
  {
    "postcode": "85461",
    "city": "Thal"
  },
  {
    "postcode": "85461",
    "city": "Übermiething Gemeinde Eschlbach"
  },
  {
    "postcode": "85461",
    "city": "Übermiething"
  },
  {
    "postcode": "85461",
    "city": "Unterstrogn"
  },
  {
    "postcode": "85461",
    "city": "Windham bei Erding"
  },
  {
    "postcode": "85461",
    "city": "Erding"
  },
  {
    "postcode": "85461",
    "city": "Neumauggen"
  },
  {
    "postcode": "85461",
    "city": "Grünbach"
  },
  {
    "postcode": "85461",
    "city": "Aurlfing"
  },
  {
    "postcode": "85461",
    "city": "Bernau"
  },
  {
    "postcode": "85461",
    "city": "Deimling"
  },
  {
    "postcode": "85461",
    "city": "Emling"
  },
  {
    "postcode": "85461",
    "city": "Eschlbach"
  },
  {
    "postcode": "85461",
    "city": "Ferteln"
  },
  {
    "postcode": "85461",
    "city": "Graß"
  },
  {
    "postcode": "85461",
    "city": "Hörgersberg"
  },
  {
    "postcode": "85461",
    "city": "Haiderl"
  },
  {
    "postcode": "85461",
    "city": "Hammerthal"
  },
  {
    "postcode": "85461",
    "city": "Haselbach"
  },
  {
    "postcode": "85461",
    "city": "Hecken"
  },
  {
    "postcode": "85461",
    "city": "Heckenberg"
  },
  {
    "postcode": "85461",
    "city": "Hubberg"
  },
  {
    "postcode": "85461",
    "city": "Hundshof"
  },
  {
    "postcode": "85461",
    "city": "Köhl"
  },
  {
    "postcode": "85461",
    "city": "Kölling"
  },
  {
    "postcode": "85461",
    "city": "Kreuthhäusl"
  },
  {
    "postcode": "85461",
    "city": "Loh"
  },
  {
    "postcode": "85461",
    "city": "Maierklopfen"
  },
  {
    "postcode": "85461",
    "city": "Obermailling"
  },
  {
    "postcode": "85461",
    "city": "Oppolding"
  },
  {
    "postcode": "85461",
    "city": "Reisach"
  },
  {
    "postcode": "85461",
    "city": "Riedersheim"
  },
  {
    "postcode": "85461",
    "city": "Schwabelsöd"
  },
  {
    "postcode": "85461",
    "city": "Schwarzhölzl"
  },
  {
    "postcode": "85461",
    "city": "Tankham"
  },
  {
    "postcode": "85461",
    "city": "Untermailling"
  },
  {
    "postcode": "85461",
    "city": "Wiesthof"
  },
  {
    "postcode": "85461",
    "city": "Windham"
  },
  {
    "postcode": "85462",
    "city": "Eitting"
  },
  {
    "postcode": "85462",
    "city": "Eitting Kreis Erding"
  },
  {
    "postcode": "85462",
    "city": "Gaden Kreis Freising"
  },
  {
    "postcode": "85462",
    "city": "Gaden"
  },
  {
    "postcode": "85462",
    "city": "Reisen Kreis Erding"
  },
  {
    "postcode": "85462",
    "city": "Reisen"
  },
  {
    "postcode": "85462",
    "city": "Erding"
  },
  {
    "postcode": "85462",
    "city": "Eittingermoos"
  },
  {
    "postcode": "85464",
    "city": "Eicherloh"
  },
  {
    "postcode": "85464",
    "city": "Finsing"
  },
  {
    "postcode": "85464",
    "city": "Finsing Oberbayern"
  },
  {
    "postcode": "85464",
    "city": "Neufinsing"
  },
  {
    "postcode": "85464",
    "city": "Erding"
  },
  {
    "postcode": "85464",
    "city": "Moosinning"
  },
  {
    "postcode": "85464",
    "city": "Vorderes Finsingermoos"
  },
  {
    "postcode": "85464",
    "city": "Finsingerau"
  },
  {
    "postcode": "85464",
    "city": "Brennermühle"
  },
  {
    "postcode": "85464",
    "city": "Hinteres Finsingermoos"
  },
  {
    "postcode": "85465",
    "city": "Appolding"
  },
  {
    "postcode": "85465",
    "city": "Hinterholzhausen"
  },
  {
    "postcode": "85465",
    "city": "Langenpreising"
  },
  {
    "postcode": "85465",
    "city": "Pottenau"
  },
  {
    "postcode": "85465",
    "city": "Vorderholzhausen"
  },
  {
    "postcode": "85465",
    "city": "Weipersdorf"
  },
  {
    "postcode": "85465",
    "city": "Zustorf"
  },
  {
    "postcode": "85465",
    "city": "Erding"
  },
  {
    "postcode": "85467",
    "city": "Harlachen"
  },
  {
    "postcode": "85467",
    "city": "Holzhausen"
  },
  {
    "postcode": "85467",
    "city": "Lausbach"
  },
  {
    "postcode": "85467",
    "city": "Neuching"
  },
  {
    "postcode": "85467",
    "city": "Niederneuching"
  },
  {
    "postcode": "85467",
    "city": "Oberneuching"
  },
  {
    "postcode": "85467",
    "city": "Erding"
  },
  {
    "postcode": "85467",
    "city": "Lüß"
  },
  {
    "postcode": "85469",
    "city": "Deuting"
  },
  {
    "postcode": "85469",
    "city": "Graß beim Bartl"
  },
  {
    "postcode": "85469",
    "city": "Hallnberg"
  },
  {
    "postcode": "85469",
    "city": "Holzstrogn"
  },
  {
    "postcode": "85469",
    "city": "Kapfing"
  },
  {
    "postcode": "85469",
    "city": "Kolbing"
  },
  {
    "postcode": "85469",
    "city": "Kuglern"
  },
  {
    "postcode": "85469",
    "city": "Neufahrn"
  },
  {
    "postcode": "85469",
    "city": "Niederhof"
  },
  {
    "postcode": "85469",
    "city": "Oberhof"
  },
  {
    "postcode": "85469",
    "city": "Ringelsdorf"
  },
  {
    "postcode": "85469",
    "city": "Schwabersberg"
  },
  {
    "postcode": "85469",
    "city": "Walpertskirchen"
  },
  {
    "postcode": "85469",
    "city": "Wattendorf"
  },
  {
    "postcode": "85469",
    "city": "Erding"
  },
  {
    "postcode": "85521",
    "city": "Ottobrunn"
  },
  {
    "postcode": "85521",
    "city": "Riemerling"
  },
  {
    "postcode": "85521",
    "city": "München"
  },
  {
    "postcode": "85521",
    "city": "Hohenbrunn"
  },
  {
    "postcode": "85521",
    "city": "Taufkirchen"
  },
  {
    "postcode": "85540",
    "city": "Eglfing Kreis München"
  },
  {
    "postcode": "85540",
    "city": "Eglfing"
  },
  {
    "postcode": "85540",
    "city": "Gronsdorf Kreis München"
  },
  {
    "postcode": "85540",
    "city": "Gronsdorf"
  },
  {
    "postcode": "85540",
    "city": "Haar bei München"
  },
  {
    "postcode": "85540",
    "city": "München"
  },
  {
    "postcode": "85540",
    "city": "Ottendichl Kreis München"
  },
  {
    "postcode": "85540",
    "city": "Ottendichl"
  },
  {
    "postcode": "85540",
    "city": "Salmdorf Kreis München"
  },
  {
    "postcode": "85540",
    "city": "Salmdorf"
  },
  {
    "postcode": "85540",
    "city": "Haar"
  },
  {
    "postcode": "85540",
    "city": "Gemeinde München"
  },
  {
    "postcode": "85540",
    "city": "Trudering-Riem"
  },
  {
    "postcode": "85551",
    "city": "Heimstetten Kreis München"
  },
  {
    "postcode": "85551",
    "city": "Heimstetten"
  },
  {
    "postcode": "85551",
    "city": "Kirchheim"
  },
  {
    "postcode": "85551",
    "city": "Kirchheim bei München"
  },
  {
    "postcode": "85551",
    "city": "München"
  },
  {
    "postcode": "85551",
    "city": "Kirchheim b. München"
  },
  {
    "postcode": "85560",
    "city": "Aßlkofen Oberbayern"
  },
  {
    "postcode": "85560",
    "city": "Aßlkofen"
  },
  {
    "postcode": "85560",
    "city": "Dieding"
  },
  {
    "postcode": "85560",
    "city": "Ebersberg"
  },
  {
    "postcode": "85560",
    "city": "Ebersberg Oberbayern"
  },
  {
    "postcode": "85560",
    "city": "Englmeng"
  },
  {
    "postcode": "85560",
    "city": "Halbing Oberbayern"
  },
  {
    "postcode": "85560",
    "city": "Halbing"
  },
  {
    "postcode": "85560",
    "city": "Haselbach Oberbayern"
  },
  {
    "postcode": "85560",
    "city": "Haselbach"
  },
  {
    "postcode": "85560",
    "city": "Hörmannsdorf Oberbayern"
  },
  {
    "postcode": "85560",
    "city": "Hörmannsdorf"
  },
  {
    "postcode": "85560",
    "city": "Mailing Oberbayern"
  },
  {
    "postcode": "85560",
    "city": "Mailing"
  },
  {
    "postcode": "85560",
    "city": "Neuhausen"
  },
  {
    "postcode": "85560",
    "city": "Oberlaufing Oberbayern"
  },
  {
    "postcode": "85560",
    "city": "Oberlaufing"
  },
  {
    "postcode": "85560",
    "city": "Oberndorf"
  },
  {
    "postcode": "85560",
    "city": "Pollmoos"
  },
  {
    "postcode": "85560",
    "city": "Reitgesing Oberbayern"
  },
  {
    "postcode": "85560",
    "city": "Reitgesing"
  },
  {
    "postcode": "85560",
    "city": "Reith Oberbayern"
  },
  {
    "postcode": "85560",
    "city": "Reith"
  },
  {
    "postcode": "85560",
    "city": "Rinding"
  },
  {
    "postcode": "85560",
    "city": "Sigersdorf Oberbayern"
  },
  {
    "postcode": "85560",
    "city": "Sigersdorf"
  },
  {
    "postcode": "85560",
    "city": "Traxl"
  },
  {
    "postcode": "85560",
    "city": "Unterlaufing Oberbayern"
  },
  {
    "postcode": "85560",
    "city": "Unterlaufing"
  },
  {
    "postcode": "85560",
    "city": "Weiding Oberbayern"
  },
  {
    "postcode": "85560",
    "city": "Weiding"
  },
  {
    "postcode": "85560",
    "city": "Aepfelkam"
  },
  {
    "postcode": "85560",
    "city": "Altmannsberg"
  },
  {
    "postcode": "85560",
    "city": "Gemeinde Steinhöring"
  },
  {
    "postcode": "85560",
    "city": "Angermann"
  },
  {
    "postcode": "85560",
    "city": "Au"
  },
  {
    "postcode": "85560",
    "city": "Bärmühle"
  },
  {
    "postcode": "85560",
    "city": "Egglsee"
  },
  {
    "postcode": "85560",
    "city": "Gmaind"
  },
  {
    "postcode": "85560",
    "city": "Motzenberg"
  },
  {
    "postcode": "85560",
    "city": "Gsprait"
  },
  {
    "postcode": "85560",
    "city": "Hinteregglburg"
  },
  {
    "postcode": "85560",
    "city": "Kalteneck"
  },
  {
    "postcode": "85560",
    "city": "Kaps"
  },
  {
    "postcode": "85560",
    "city": "Kleinmühle"
  },
  {
    "postcode": "85560",
    "city": "Kumpfmühle"
  },
  {
    "postcode": "85560",
    "city": "Langwied"
  },
  {
    "postcode": "85560",
    "city": "Pötting"
  },
  {
    "postcode": "85560",
    "city": "Riedhof"
  },
  {
    "postcode": "85560",
    "city": "Ruhensdorf"
  },
  {
    "postcode": "85560",
    "city": "St. Hubertus"
  },
  {
    "postcode": "85560",
    "city": "Vorderegglburg"
  },
  {
    "postcode": "85560",
    "city": "Westerndorf"
  },
  {
    "postcode": "85567",
    "city": "Aiterndorf bei München"
  },
  {
    "postcode": "85567",
    "city": "Alxing bei München"
  },
  {
    "postcode": "85567",
    "city": "Bruck"
  },
  {
    "postcode": "85567",
    "city": "Bruck Oberbayern"
  },
  {
    "postcode": "85567",
    "city": "Dichau bei München"
  },
  {
    "postcode": "85567",
    "city": "Eichtling bei München"
  },
  {
    "postcode": "85567",
    "city": "Einharding bei München"
  },
  {
    "postcode": "85567",
    "city": "Eisendorf bei München"
  },
  {
    "postcode": "85567",
    "city": "Filzhof bei München"
  },
  {
    "postcode": "85567",
    "city": "Gasteig bei München"
  },
  {
    "postcode": "85567",
    "city": "Grafing"
  },
  {
    "postcode": "85567",
    "city": "Grafing bei München"
  },
  {
    "postcode": "85567",
    "city": "Haidling bei München"
  },
  {
    "postcode": "85567",
    "city": "Hamberg bei München"
  },
  {
    "postcode": "85567",
    "city": "Hüttelkofen bei München"
  },
  {
    "postcode": "85567",
    "city": "Katzenreuth bei München"
  },
  {
    "postcode": "85567",
    "city": "Nettelkofen bei München"
  },
  {
    "postcode": "85567",
    "city": "Oberelkofen bei München"
  },
  {
    "postcode": "85567",
    "city": "Pienzenau bei München"
  },
  {
    "postcode": "85567",
    "city": "Pullenhofen bei München"
  },
  {
    "postcode": "85567",
    "city": "Straußdorf bei München"
  },
  {
    "postcode": "85567",
    "city": "Taglaching bei München"
  },
  {
    "postcode": "85567",
    "city": "Unterelkofen bei München"
  },
  {
    "postcode": "85567",
    "city": "Wiesham bei München"
  },
  {
    "postcode": "85567",
    "city": "Wildenholzen bei München"
  },
  {
    "postcode": "85567",
    "city": "Ebersberg"
  },
  {
    "postcode": "85567",
    "city": "Grafing b. München"
  },
  {
    "postcode": "85567",
    "city": "Pienzenau"
  },
  {
    "postcode": "85567",
    "city": "Balharding"
  },
  {
    "postcode": "85567",
    "city": "Bauhof"
  },
  {
    "postcode": "85567",
    "city": "Alxing"
  },
  {
    "postcode": "85567",
    "city": "Eichtling"
  },
  {
    "postcode": "85567",
    "city": "Einharding"
  },
  {
    "postcode": "85567",
    "city": "Feichten"
  },
  {
    "postcode": "85567",
    "city": "Wildenholzen"
  },
  {
    "postcode": "85567",
    "city": "Taglaching"
  },
  {
    "postcode": "85567",
    "city": "Hamberg"
  },
  {
    "postcode": "85567",
    "city": "Hüttelkofen"
  },
  {
    "postcode": "85567",
    "city": "Nebelberg"
  },
  {
    "postcode": "85567",
    "city": "Pullenhofen"
  },
  {
    "postcode": "85567",
    "city": "Schlipfhausen"
  },
  {
    "postcode": "85567",
    "city": "Wildaching"
  },
  {
    "postcode": "85567",
    "city": "Aiterndorf"
  },
  {
    "postcode": "85567",
    "city": "Oberelkofen"
  },
  {
    "postcode": "85567",
    "city": "Engerloh"
  },
  {
    "postcode": "85567",
    "city": "Unterelkofen"
  },
  {
    "postcode": "85567",
    "city": "Hesselfurt"
  },
  {
    "postcode": "85567",
    "city": "Straußdorf"
  },
  {
    "postcode": "85567",
    "city": "Pierstling"
  },
  {
    "postcode": "85567",
    "city": "Schammach"
  },
  {
    "postcode": "85567",
    "city": "Bachhäusl"
  },
  {
    "postcode": "85567",
    "city": "Eisendorf"
  },
  {
    "postcode": "85567",
    "city": "Grafing-Bahnhof"
  },
  {
    "postcode": "85567",
    "city": "Baumgartenmühle"
  },
  {
    "postcode": "85567",
    "city": "Bergfeld"
  },
  {
    "postcode": "85567",
    "city": "Dichau"
  },
  {
    "postcode": "85567",
    "city": "Gindlkofen"
  },
  {
    "postcode": "85567",
    "city": "Filzhof"
  },
  {
    "postcode": "85567",
    "city": "Gasteig"
  },
  {
    "postcode": "85567",
    "city": "Gem. Frauenneuharting"
  },
  {
    "postcode": "85567",
    "city": "Haidling"
  },
  {
    "postcode": "85567",
    "city": "Henneleiten"
  },
  {
    "postcode": "85567",
    "city": "Katzenreuth"
  },
  {
    "postcode": "85567",
    "city": "Loch"
  },
  {
    "postcode": "85567",
    "city": "Nettelkofen"
  },
  {
    "postcode": "85567",
    "city": "Neudichau"
  },
  {
    "postcode": "85567",
    "city": "Schauerach"
  },
  {
    "postcode": "85567",
    "city": "Voglherd"
  },
  {
    "postcode": "85567",
    "city": "Wiesham"
  },
  {
    "postcode": "85570",
    "city": "Herdweg"
  },
  {
    "postcode": "85570",
    "city": "Markt Schwaben"
  },
  {
    "postcode": "85570",
    "city": "Ottenhofen"
  },
  {
    "postcode": "85570",
    "city": "Ottenhofen Oberbayern"
  },
  {
    "postcode": "85570",
    "city": "Siggenhofen"
  },
  {
    "postcode": "85570",
    "city": "Unterschwillach"
  },
  {
    "postcode": "85570",
    "city": "Ebersberg"
  },
  {
    "postcode": "85570",
    "city": "Köppelmühle"
  },
  {
    "postcode": "85570",
    "city": "Grashausen"
  },
  {
    "postcode": "85570",
    "city": "Grund"
  },
  {
    "postcode": "85570",
    "city": "Lieberharting"
  },
  {
    "postcode": "85570",
    "city": "Loher"
  },
  {
    "postcode": "85570",
    "city": "Schußmühle"
  },
  {
    "postcode": "85570",
    "city": "Steiler"
  },
  {
    "postcode": "85570",
    "city": "Stocker"
  },
  {
    "postcode": "85570",
    "city": "Wimpasing"
  },
  {
    "postcode": "85579",
    "city": "Neubiberg"
  },
  {
    "postcode": "85579",
    "city": "München"
  },
  {
    "postcode": "85579",
    "city": "Unterbiberg"
  },
  {
    "postcode": "85586",
    "city": "Angelbrechting"
  },
  {
    "postcode": "85586",
    "city": "Grub"
  },
  {
    "postcode": "85586",
    "city": "Poing"
  },
  {
    "postcode": "85586",
    "city": "Poing bei München"
  },
  {
    "postcode": "85586",
    "city": "Ebersberg"
  },
  {
    "postcode": "85591",
    "city": "Vaterstetten"
  },
  {
    "postcode": "85591",
    "city": "Ebersberg"
  },
  {
    "postcode": "85598",
    "city": "Baldham"
  },
  {
    "postcode": "85598",
    "city": "Ebersberg"
  },
  {
    "postcode": "85599",
    "city": "Hergolding"
  },
  {
    "postcode": "85599",
    "city": "Parsdorf"
  },
  {
    "postcode": "85599",
    "city": "Ebersberg"
  },
  {
    "postcode": "85604",
    "city": "Ingelsberg"
  },
  {
    "postcode": "85604",
    "city": "Pöring"
  },
  {
    "postcode": "85604",
    "city": "Wolfesing"
  },
  {
    "postcode": "85604",
    "city": "Zorneding"
  },
  {
    "postcode": "85604",
    "city": "Ebersberg"
  },
  {
    "postcode": "85609",
    "city": "Aschheim"
  },
  {
    "postcode": "85609",
    "city": "Dornach"
  },
  {
    "postcode": "85609",
    "city": "München"
  },
  {
    "postcode": "85614",
    "city": "Buch"
  },
  {
    "postcode": "85614",
    "city": "Eglharting"
  },
  {
    "postcode": "85614",
    "city": "Forstseeon"
  },
  {
    "postcode": "85614",
    "city": "Ilching"
  },
  {
    "postcode": "85614",
    "city": "Kirchseeon"
  },
  {
    "postcode": "85614",
    "city": "Osterseeon"
  },
  {
    "postcode": "85614",
    "city": "Riedering"
  },
  {
    "postcode": "85614",
    "city": "Ebersberg"
  },
  {
    "postcode": "85617",
    "city": "Aßling"
  },
  {
    "postcode": "85617",
    "city": "Dorfen"
  },
  {
    "postcode": "85617",
    "city": "Hochreit"
  },
  {
    "postcode": "85617",
    "city": "Holzen"
  },
  {
    "postcode": "85617",
    "city": "Längholz"
  },
  {
    "postcode": "85617",
    "city": "Langkofen"
  },
  {
    "postcode": "85617",
    "city": "Loitersdorf"
  },
  {
    "postcode": "85617",
    "city": "Lorenzenberg"
  },
  {
    "postcode": "85617",
    "city": "Niclasreuth"
  },
  {
    "postcode": "85617",
    "city": "Obereichhofen"
  },
  {
    "postcode": "85617",
    "city": "Obstädt"
  },
  {
    "postcode": "85617",
    "city": "Pausmühle"
  },
  {
    "postcode": "85617",
    "city": "Pfadendorf"
  },
  {
    "postcode": "85617",
    "city": "Pörsdorf"
  },
  {
    "postcode": "85617",
    "city": "Steinkirchen"
  },
  {
    "postcode": "85617",
    "city": "Thaldorf"
  },
  {
    "postcode": "85617",
    "city": "Untereichhofen"
  },
  {
    "postcode": "85617",
    "city": "Ebersberg"
  },
  {
    "postcode": "85617",
    "city": "Adelpolt"
  },
  {
    "postcode": "85617",
    "city": "Ast"
  },
  {
    "postcode": "85617",
    "city": "Bichl"
  },
  {
    "postcode": "85617",
    "city": "Haar"
  },
  {
    "postcode": "85617",
    "city": "Hainza"
  },
  {
    "postcode": "85617",
    "city": "Martermühle"
  },
  {
    "postcode": "85617",
    "city": "Osterwald"
  },
  {
    "postcode": "85617",
    "city": "Pürzelberg"
  },
  {
    "postcode": "85617",
    "city": "Setzermühle"
  },
  {
    "postcode": "85617",
    "city": "Siglmühle"
  },
  {
    "postcode": "85617",
    "city": "Sixtenreit"
  },
  {
    "postcode": "85617",
    "city": "Sonnenreit"
  },
  {
    "postcode": "85617",
    "city": "Stelzenreit"
  },
  {
    "postcode": "85617",
    "city": "Tegernau"
  },
  {
    "postcode": "85617",
    "city": "Wollwies"
  },
  {
    "postcode": "85622",
    "city": "Feldkirchen"
  },
  {
    "postcode": "85622",
    "city": "Feldkirchen Kreis München"
  },
  {
    "postcode": "85622",
    "city": "Weißenfeld"
  },
  {
    "postcode": "85622",
    "city": "München"
  },
  {
    "postcode": "85622",
    "city": "Hölzlhof"
  },
  {
    "postcode": "85625",
    "city": "Adling Kreis Ebersberg Oberbayern"
  },
  {
    "postcode": "85625",
    "city": "Adling"
  },
  {
    "postcode": "85625",
    "city": "Antholing Kreis Ebersberg Oberbayern"
  },
  {
    "postcode": "85625",
    "city": "Antholing"
  },
  {
    "postcode": "85625",
    "city": "Baiern Kreis Ebersberg Oberbayern"
  },
  {
    "postcode": "85625",
    "city": "Baiern"
  },
  {
    "postcode": "85625",
    "city": "Balkham Kreis Ebersberg Oberbayern"
  },
  {
    "postcode": "85625",
    "city": "Balkham"
  },
  {
    "postcode": "85625",
    "city": "Berganger Kreis Ebersberg Oberbayern"
  },
  {
    "postcode": "85625",
    "city": "Berganger"
  },
  {
    "postcode": "85625",
    "city": "Doblberg Kreis Ebersberg Oberbayern"
  },
  {
    "postcode": "85625",
    "city": "Doblberg"
  },
  {
    "postcode": "85625",
    "city": "Engerling Kreis Ebersberg Oberbayern"
  },
  {
    "postcode": "85625",
    "city": "Engerling"
  },
  {
    "postcode": "85625",
    "city": "Frauenreuth Kreis Ebersberg Oberbayern"
  },
  {
    "postcode": "85625",
    "city": "Frauenreuth"
  },
  {
    "postcode": "85625",
    "city": "Gailling Kreis Ebersberg Oberbayern"
  },
  {
    "postcode": "85625",
    "city": "Gailling"
  },
  {
    "postcode": "85625",
    "city": "Georgenberg Kreis Ebersberg Oberbayern"
  },
  {
    "postcode": "85625",
    "city": "Georgenberg"
  },
  {
    "postcode": "85625",
    "city": "Glonn"
  },
  {
    "postcode": "85625",
    "city": "Glonn Kreis Ebersberg Oberbayern"
  },
  {
    "postcode": "85625",
    "city": "Großesterndorf Kreis Ebersberg Oberbayern"
  },
  {
    "postcode": "85625",
    "city": "Großesterndorf"
  },
  {
    "postcode": "85625",
    "city": "Großrohrsdorf Kreis Ebersberg Oberbayern"
  },
  {
    "postcode": "85625",
    "city": "Großrohrsdorf"
  },
  {
    "postcode": "85625",
    "city": "Hafelsberg Kreis Ebersberg Oberbayern"
  },
  {
    "postcode": "85625",
    "city": "Hafelsberg"
  },
  {
    "postcode": "85625",
    "city": "Haslach Kreis Ebersberg Oberbayern"
  },
  {
    "postcode": "85625",
    "city": "Haslach"
  },
  {
    "postcode": "85625",
    "city": "Haus Kreis Ebersberg Oberbayern"
  },
  {
    "postcode": "85625",
    "city": "Haus"
  },
  {
    "postcode": "85625",
    "city": "Herrmannsdorf Kreis Ebersberg Oberbayern"
  },
  {
    "postcode": "85625",
    "city": "Herrmannsdorf"
  },
  {
    "postcode": "85625",
    "city": "Hub Kreis Ebersberg Oberbayern"
  },
  {
    "postcode": "85625",
    "city": "Hub"
  },
  {
    "postcode": "85625",
    "city": "Kastenseeon Kreis Ebersberg Oberbayern"
  },
  {
    "postcode": "85625",
    "city": "Kastenseeon"
  },
  {
    "postcode": "85625",
    "city": "Kleinesterndorf Kreis Ebersberg Oberbayern"
  },
  {
    "postcode": "85625",
    "city": "Kleinesterndorf"
  },
  {
    "postcode": "85625",
    "city": "Kleinrohrsdorf Kreis Ebersberg Oberbayern"
  },
  {
    "postcode": "85625",
    "city": "Kleinrohrsdorf"
  },
  {
    "postcode": "85625",
    "city": "Kreuz Kreis Ebersberg Oberbayern"
  },
  {
    "postcode": "85625",
    "city": "Kreuz"
  },
  {
    "postcode": "85625",
    "city": "Kulbing Kreis Ebersberg Oberbayern"
  },
  {
    "postcode": "85625",
    "city": "Kulbing"
  },
  {
    "postcode": "85625",
    "city": "Mattenhofen Kreis Ebersberg Oberbayern"
  },
  {
    "postcode": "85625",
    "city": "Mattenhofen"
  },
  {
    "postcode": "85625",
    "city": "Mühlthal Kreis Ebersberg Oberbayern"
  },
  {
    "postcode": "85625",
    "city": "Mühlthal"
  },
  {
    "postcode": "85625",
    "city": "Netterndorf Kreis Ebersberg Oberbayern"
  },
  {
    "postcode": "85625",
    "city": "Netterndorf"
  },
  {
    "postcode": "85625",
    "city": "Pfleg Kreis Ebersberg Oberbayern"
  },
  {
    "postcode": "85625",
    "city": "Pfleg"
  },
  {
    "postcode": "85625",
    "city": "Piusheim Kreis Ebersberg Oberbayern"
  },
  {
    "postcode": "85625",
    "city": "Piusheim"
  },
  {
    "postcode": "85625",
    "city": "Reinstorf Kreis Ebersberg Oberbayern"
  },
  {
    "postcode": "85625",
    "city": "Reinstorf"
  },
  {
    "postcode": "85625",
    "city": "Schlacht Kreis Ebersberg Oberbayern"
  },
  {
    "postcode": "85625",
    "city": "Schlacht"
  },
  {
    "postcode": "85625",
    "city": "Steinhausen Kreis Ebersberg Oberbayern"
  },
  {
    "postcode": "85625",
    "city": "Steinhausen"
  },
  {
    "postcode": "85625",
    "city": "Straß Kreis Ebersberg Oberbayern"
  },
  {
    "postcode": "85625",
    "city": "Straß"
  },
  {
    "postcode": "85625",
    "city": "Überloh Kreis Ebersberg Oberbayern"
  },
  {
    "postcode": "85625",
    "city": "Überloh"
  },
  {
    "postcode": "85625",
    "city": "Ursprung Kreis Ebersberg Oberbayern"
  },
  {
    "postcode": "85625",
    "city": "Ursprung"
  },
  {
    "postcode": "85625",
    "city": "Weidach Kreis Ebersberg Oberbayern"
  },
  {
    "postcode": "85625",
    "city": "Weidach"
  },
  {
    "postcode": "85625",
    "city": "Weiterskirchen Kreis Ebersberg Oberbayern"
  },
  {
    "postcode": "85625",
    "city": "Weiterskirchen"
  },
  {
    "postcode": "85625",
    "city": "Westerndorf Gemeinde Glonn"
  },
  {
    "postcode": "85625",
    "city": "Westerndorf"
  },
  {
    "postcode": "85625",
    "city": "Wetterling Kreis Ebersberg Oberbayern"
  },
  {
    "postcode": "85625",
    "city": "Wetterling"
  },
  {
    "postcode": "85625",
    "city": "Zinneberg Kreis Ebersberg Oberbayern"
  },
  {
    "postcode": "85625",
    "city": "Zinneberg"
  },
  {
    "postcode": "85625",
    "city": "Ebersberg"
  },
  {
    "postcode": "85625",
    "city": "Jakobsbaiern"
  },
  {
    "postcode": "85625",
    "city": "Einhaus"
  },
  {
    "postcode": "85625",
    "city": "Feuerreit"
  },
  {
    "postcode": "85625",
    "city": "Frauenbründl"
  },
  {
    "postcode": "85625",
    "city": "Hochreit"
  },
  {
    "postcode": "85625",
    "city": "Köhlbründl"
  },
  {
    "postcode": "85625",
    "city": "Kreithann"
  },
  {
    "postcode": "85625",
    "city": "Lindach"
  },
  {
    "postcode": "85625",
    "city": "Moos"
  },
  {
    "postcode": "85625",
    "city": "Öd"
  },
  {
    "postcode": "85625",
    "city": "Schnurr"
  },
  {
    "postcode": "85625",
    "city": "Stroblberg"
  },
  {
    "postcode": "85625",
    "city": "Waslmühle"
  },
  {
    "postcode": "85625",
    "city": "Weiher"
  },
  {
    "postcode": "85625",
    "city": "Witting"
  },
  {
    "postcode": "85625",
    "city": "Filzen"
  },
  {
    "postcode": "85625",
    "city": "Mecking"
  },
  {
    "postcode": "85625",
    "city": "Reisenthal"
  },
  {
    "postcode": "85625",
    "city": "Ödenhub"
  },
  {
    "postcode": "85625",
    "city": "Sonnenhausen"
  },
  {
    "postcode": "85630",
    "city": "Grasbrunn"
  },
  {
    "postcode": "85630",
    "city": "Harthausen Kreis München"
  },
  {
    "postcode": "85630",
    "city": "Harthausen"
  },
  {
    "postcode": "85630",
    "city": "Keferloh Kreis München"
  },
  {
    "postcode": "85630",
    "city": "Keferloh"
  },
  {
    "postcode": "85630",
    "city": "Möschenfeld Kreis München"
  },
  {
    "postcode": "85630",
    "city": "Möschenfeld"
  },
  {
    "postcode": "85630",
    "city": "Neukeferloh"
  },
  {
    "postcode": "85630",
    "city": "München"
  },
  {
    "postcode": "85630",
    "city": "Mayrhäusl"
  },
  {
    "postcode": "85635",
    "city": "Höhenkirchen"
  },
  {
    "postcode": "85635",
    "city": "Höhenkirchen-Siegertsbrunn"
  },
  {
    "postcode": "85635",
    "city": "Siegertsbrunn"
  },
  {
    "postcode": "85635",
    "city": "Wächterhof"
  },
  {
    "postcode": "85635",
    "city": "München"
  },
  {
    "postcode": "85640",
    "city": "Oedenstockach"
  },
  {
    "postcode": "85640",
    "city": "Putzbrunn"
  },
  {
    "postcode": "85640",
    "city": "Solalinden"
  },
  {
    "postcode": "85640",
    "city": "München"
  },
  {
    "postcode": "85640",
    "city": "Waldkolonie"
  },
  {
    "postcode": "85643",
    "city": "Abersdorf"
  },
  {
    "postcode": "85643",
    "city": "Berg"
  },
  {
    "postcode": "85643",
    "city": "Dietmering"
  },
  {
    "postcode": "85643",
    "city": "Elchering"
  },
  {
    "postcode": "85643",
    "city": "Endorf"
  },
  {
    "postcode": "85643",
    "city": "Etzenberg"
  },
  {
    "postcode": "85643",
    "city": "Hintsberg"
  },
  {
    "postcode": "85643",
    "city": "Kraiß"
  },
  {
    "postcode": "85643",
    "city": "Niederaltmannsberg"
  },
  {
    "postcode": "85643",
    "city": "Sankt Christoph"
  },
  {
    "postcode": "85643",
    "city": "Schützen"
  },
  {
    "postcode": "85643",
    "city": "Sensau"
  },
  {
    "postcode": "85643",
    "city": "Steinhöring"
  },
  {
    "postcode": "85643",
    "city": "Steinhöring bei München"
  },
  {
    "postcode": "85643",
    "city": "Tulling"
  },
  {
    "postcode": "85643",
    "city": "Unterseifsieden"
  },
  {
    "postcode": "85643",
    "city": "Wall"
  },
  {
    "postcode": "85643",
    "city": "Winkl"
  },
  {
    "postcode": "85643",
    "city": "Zaißing"
  },
  {
    "postcode": "85643",
    "city": "Ebersberg"
  },
  {
    "postcode": "85643",
    "city": "Adersdorf"
  },
  {
    "postcode": "85643",
    "city": "Aschau"
  },
  {
    "postcode": "85643",
    "city": "Au"
  },
  {
    "postcode": "85643",
    "city": "Blöckl"
  },
  {
    "postcode": "85643",
    "city": "Buchschechen"
  },
  {
    "postcode": "85643",
    "city": "Dichtlmühle"
  },
  {
    "postcode": "85643",
    "city": "Graben"
  },
  {
    "postcode": "85643",
    "city": "Höhenberg"
  },
  {
    "postcode": "85643",
    "city": "Helletsgaden"
  },
  {
    "postcode": "85643",
    "city": "Hofstett"
  },
  {
    "postcode": "85643",
    "city": "Holzhäusln"
  },
  {
    "postcode": "85643",
    "city": "Hub"
  },
  {
    "postcode": "85643",
    "city": "Lehen"
  },
  {
    "postcode": "85643",
    "city": "Lieging"
  },
  {
    "postcode": "85643",
    "city": "Mayrhof"
  },
  {
    "postcode": "85643",
    "city": "Meiletskirchen"
  },
  {
    "postcode": "85643",
    "city": "Neuhardsberg"
  },
  {
    "postcode": "85643",
    "city": "Oberseifsieden"
  },
  {
    "postcode": "85643",
    "city": "Ranhartsberg"
  },
  {
    "postcode": "85643",
    "city": "Rosenberg"
  },
  {
    "postcode": "85643",
    "city": "Rupertsdorf"
  },
  {
    "postcode": "85643",
    "city": "Oed"
  },
  {
    "postcode": "85643",
    "city": "Oelmühle"
  },
  {
    "postcode": "85643",
    "city": "Ötzmann"
  },
  {
    "postcode": "85643",
    "city": "Salzburg"
  },
  {
    "postcode": "85643",
    "city": "Schechen"
  },
  {
    "postcode": "85643",
    "city": "Schweig"
  },
  {
    "postcode": "85643",
    "city": "Schätzl"
  },
  {
    "postcode": "85643",
    "city": "Sprinzenöd"
  },
  {
    "postcode": "85643",
    "city": "St. Christoph"
  },
  {
    "postcode": "85643",
    "city": "Stinau"
  },
  {
    "postcode": "85643",
    "city": "Thailing"
  },
  {
    "postcode": "85643",
    "city": "Untermeierhof"
  },
  {
    "postcode": "85643",
    "city": "Welling"
  },
  {
    "postcode": "85643",
    "city": "Winkl bei St. Christoph"
  },
  {
    "postcode": "85646",
    "city": "Anzing"
  },
  {
    "postcode": "85646",
    "city": "Anzing bei München"
  },
  {
    "postcode": "85646",
    "city": "Froschkern bei München"
  },
  {
    "postcode": "85646",
    "city": "Frotzhofen bei München"
  },
  {
    "postcode": "85646",
    "city": "Garkofen"
  },
  {
    "postcode": "85646",
    "city": "Lindach"
  },
  {
    "postcode": "85646",
    "city": "Neufarn"
  },
  {
    "postcode": "85646",
    "city": "Obelfing bei München"
  },
  {
    "postcode": "85646",
    "city": "Oberasbach bei München"
  },
  {
    "postcode": "85646",
    "city": "Purfing"
  },
  {
    "postcode": "85646",
    "city": "Unterasbach bei München"
  },
  {
    "postcode": "85646",
    "city": "Ziegelstadel bei München"
  },
  {
    "postcode": "85646",
    "city": "Ebersberg"
  },
  {
    "postcode": "85646",
    "city": "Ziegelstadel"
  },
  {
    "postcode": "85646",
    "city": "Obelfing"
  },
  {
    "postcode": "85646",
    "city": "Auhofen"
  },
  {
    "postcode": "85646",
    "city": "Boden"
  },
  {
    "postcode": "85646",
    "city": "Froschkern"
  },
  {
    "postcode": "85646",
    "city": "Höggerloh"
  },
  {
    "postcode": "85646",
    "city": "Heiliges Kreuz"
  },
  {
    "postcode": "85646",
    "city": "Kaisersberg"
  },
  {
    "postcode": "85646",
    "city": "Frotzhofen"
  },
  {
    "postcode": "85646",
    "city": "Mauerstetten"
  },
  {
    "postcode": "85646",
    "city": "Hl. Kreuz"
  },
  {
    "postcode": "85646",
    "city": "Oberasbach"
  },
  {
    "postcode": "85646",
    "city": "Ranharting"
  },
  {
    "postcode": "85646",
    "city": "Ried"
  },
  {
    "postcode": "85646",
    "city": "Staudach"
  },
  {
    "postcode": "85646",
    "city": "Unterasbach"
  },
  {
    "postcode": "85649",
    "city": "Brunnthal Kreis München"
  },
  {
    "postcode": "85649",
    "city": "Brunnthal"
  },
  {
    "postcode": "85649",
    "city": "Faistenhaar"
  },
  {
    "postcode": "85649",
    "city": "Hofolding"
  },
  {
    "postcode": "85649",
    "city": "Kirchstockach Kreis München"
  },
  {
    "postcode": "85649",
    "city": "Kirchstockach"
  },
  {
    "postcode": "85649",
    "city": "Otterloh"
  },
  {
    "postcode": "85649",
    "city": "Portenläng"
  },
  {
    "postcode": "85649",
    "city": "Waldbrunn"
  },
  {
    "postcode": "85649",
    "city": "München"
  },
  {
    "postcode": "85649",
    "city": "Englwarting"
  },
  {
    "postcode": "85649",
    "city": "Neukirchstockach"
  },
  {
    "postcode": "85649",
    "city": "Riedhausen"
  },
  {
    "postcode": "85652",
    "city": "Gelting"
  },
  {
    "postcode": "85652",
    "city": "Gerharding"
  },
  {
    "postcode": "85652",
    "city": "Landsham"
  },
  {
    "postcode": "85652",
    "city": "Ottersberg"
  },
  {
    "postcode": "85652",
    "city": "Pliening"
  },
  {
    "postcode": "85652",
    "city": "Unterspann"
  },
  {
    "postcode": "85652",
    "city": "Ebersberg"
  },
  {
    "postcode": "85652",
    "city": "Erlmühle"
  },
  {
    "postcode": "85652",
    "city": "Gigging"
  },
  {
    "postcode": "85653",
    "city": "Aying"
  },
  {
    "postcode": "85653",
    "city": "Dürrnhaar"
  },
  {
    "postcode": "85653",
    "city": "Peiß"
  },
  {
    "postcode": "85653",
    "city": "München"
  },
  {
    "postcode": "85653",
    "city": "Göggenhofen"
  },
  {
    "postcode": "85653",
    "city": "Großhelfendorf"
  },
  {
    "postcode": "85653",
    "city": "Blindham"
  },
  {
    "postcode": "85653",
    "city": "Graß"
  },
  {
    "postcode": "85653",
    "city": "Griesstätt"
  },
  {
    "postcode": "85653",
    "city": "Heimatshofen"
  },
  {
    "postcode": "85653",
    "city": "Kaltenbrunn"
  },
  {
    "postcode": "85653",
    "city": "Kaps"
  },
  {
    "postcode": "85653",
    "city": "Kleinhelfendorf"
  },
  {
    "postcode": "85653",
    "city": "Kleinkarolinenfeld"
  },
  {
    "postcode": "85653",
    "city": "Loibersdorf"
  },
  {
    "postcode": "85653",
    "city": "Oberschops"
  },
  {
    "postcode": "85653",
    "city": "Rauchenberg"
  },
  {
    "postcode": "85653",
    "city": "Spielberg"
  },
  {
    "postcode": "85653",
    "city": "Trautshofen"
  },
  {
    "postcode": "85653",
    "city": "Unterschops"
  },
  {
    "postcode": "85655",
    "city": "Blindham bei Großhelfendorf"
  },
  {
    "postcode": "85655",
    "city": "Göggenhofen"
  },
  {
    "postcode": "85655",
    "city": "Graß bei Großhelfendorf"
  },
  {
    "postcode": "85655",
    "city": "Griesstätt bei Großhelfendorf"
  },
  {
    "postcode": "85655",
    "city": "Großhelfendorf"
  },
  {
    "postcode": "85655",
    "city": "Helfendorf"
  },
  {
    "postcode": "85655",
    "city": "Kaltenbrunn bei Großhelfendorf"
  },
  {
    "postcode": "85655",
    "city": "Kaps Gemeinde Aying"
  },
  {
    "postcode": "85655",
    "city": "Kaps"
  },
  {
    "postcode": "85655",
    "city": "Kleinhelfendorf"
  },
  {
    "postcode": "85655",
    "city": "Kleinkarolinenfeld"
  },
  {
    "postcode": "85655",
    "city": "Loibersdorf bei Großhelfendorf"
  },
  {
    "postcode": "85655",
    "city": "Trautshofen"
  },
  {
    "postcode": "85656",
    "city": "Buch am Buchrain"
  },
  {
    "postcode": "85656",
    "city": "Fang am Buchrain"
  },
  {
    "postcode": "85656",
    "city": "Haidberg am Buchrain"
  },
  {
    "postcode": "85656",
    "city": "Hammersdorf"
  },
  {
    "postcode": "85656",
    "city": "Hausmehring am Buchrain"
  },
  {
    "postcode": "85656",
    "city": "Kaltenbach am Buchrain"
  },
  {
    "postcode": "85656",
    "city": "Loiperding am Buchrain"
  },
  {
    "postcode": "85656",
    "city": "Mitterbuch am Buchrain"
  },
  {
    "postcode": "85656",
    "city": "Oberbuch am Buchrain"
  },
  {
    "postcode": "85656",
    "city": "Oberndorf"
  },
  {
    "postcode": "85656",
    "city": "Erding"
  },
  {
    "postcode": "85656",
    "city": "Buch a. Buchrain"
  },
  {
    "postcode": "85656",
    "city": "Mitterbuch"
  },
  {
    "postcode": "85656",
    "city": "Fang"
  },
  {
    "postcode": "85656",
    "city": "Haidberg"
  },
  {
    "postcode": "85656",
    "city": "Hausmehring"
  },
  {
    "postcode": "85656",
    "city": "Herweg"
  },
  {
    "postcode": "85656",
    "city": "Kaltenbach"
  },
  {
    "postcode": "85656",
    "city": "Loiperding"
  },
  {
    "postcode": "85656",
    "city": "Oberbuch"
  },
  {
    "postcode": "85656",
    "city": "Pitz"
  },
  {
    "postcode": "85656",
    "city": "Tannenhof"
  },
  {
    "postcode": "85658",
    "city": "Egmating"
  },
  {
    "postcode": "85658",
    "city": "Lindach"
  },
  {
    "postcode": "85658",
    "city": "Münster Kreis Ebersberg Oberbayern"
  },
  {
    "postcode": "85658",
    "city": "Münster"
  },
  {
    "postcode": "85658",
    "city": "Neumünster Kreis Ebersberg Oberbayern"
  },
  {
    "postcode": "85658",
    "city": "Neumünster"
  },
  {
    "postcode": "85658",
    "city": "Neuorthofen"
  },
  {
    "postcode": "85658",
    "city": "Orthofen"
  },
  {
    "postcode": "85658",
    "city": "Ebersberg"
  },
  {
    "postcode": "85658",
    "city": "Binsberg"
  },
  {
    "postcode": "85659",
    "city": "Forstern"
  },
  {
    "postcode": "85659",
    "city": "Forstern Oberbayern"
  },
  {
    "postcode": "85659",
    "city": "Karlsdorf Oberbayern"
  },
  {
    "postcode": "85659",
    "city": "Karlsdorf"
  },
  {
    "postcode": "85659",
    "city": "Kreiling Oberbayern"
  },
  {
    "postcode": "85659",
    "city": "Kreiling"
  },
  {
    "postcode": "85659",
    "city": "Neuharting Oberbayern"
  },
  {
    "postcode": "85659",
    "city": "Neuharting"
  },
  {
    "postcode": "85659",
    "city": "Preisendorf Oberbayern"
  },
  {
    "postcode": "85659",
    "city": "Preisendorf"
  },
  {
    "postcode": "85659",
    "city": "Straßham"
  },
  {
    "postcode": "85659",
    "city": "Tading Oberbayern"
  },
  {
    "postcode": "85659",
    "city": "Tading"
  },
  {
    "postcode": "85659",
    "city": "Wetting Oberbayern"
  },
  {
    "postcode": "85659",
    "city": "Wetting"
  },
  {
    "postcode": "85659",
    "city": "Erding"
  },
  {
    "postcode": "85659",
    "city": "Amplötz"
  },
  {
    "postcode": "85659",
    "city": "Bocköd"
  },
  {
    "postcode": "85659",
    "city": "Brand"
  },
  {
    "postcode": "85659",
    "city": "Hartbrunn"
  },
  {
    "postcode": "85659",
    "city": "Hub"
  },
  {
    "postcode": "85659",
    "city": "Kipfing"
  },
  {
    "postcode": "85659",
    "city": "Oberstaudham"
  },
  {
    "postcode": "85659",
    "city": "Pullach"
  },
  {
    "postcode": "85659",
    "city": "Siggenberg"
  },
  {
    "postcode": "85659",
    "city": "Unterstaudham"
  },
  {
    "postcode": "85661",
    "city": "Aitersteinering"
  },
  {
    "postcode": "85661",
    "city": "Forstinning"
  },
  {
    "postcode": "85661",
    "city": "Moos"
  },
  {
    "postcode": "85661",
    "city": "Neupullach"
  },
  {
    "postcode": "85661",
    "city": "Niederried"
  },
  {
    "postcode": "85661",
    "city": "Schwaberwegen"
  },
  {
    "postcode": "85661",
    "city": "Sempt"
  },
  {
    "postcode": "85661",
    "city": "Wind"
  },
  {
    "postcode": "85661",
    "city": "Ebersberg"
  },
  {
    "postcode": "85661",
    "city": "Aich"
  },
  {
    "postcode": "85661",
    "city": "Berg"
  },
  {
    "postcode": "85661",
    "city": "Eglhartinger Forst"
  },
  {
    "postcode": "85661",
    "city": "Ebersberger Forst"
  },
  {
    "postcode": "85661",
    "city": "Köckmühle"
  },
  {
    "postcode": "85661",
    "city": "Kressiermühle"
  },
  {
    "postcode": "85661",
    "city": "Salzburg"
  },
  {
    "postcode": "85661",
    "city": "Siegstätt"
  },
  {
    "postcode": "85661",
    "city": "Steffelmühle"
  },
  {
    "postcode": "85661",
    "city": "Wagmühle"
  },
  {
    "postcode": "85661",
    "city": "Wolfmühle"
  },
  {
    "postcode": "85662",
    "city": "Hohenbrunn"
  },
  {
    "postcode": "85662",
    "city": "München"
  },
  {
    "postcode": "85662",
    "city": "Siedlung am Grasbrunner Weg"
  },
  {
    "postcode": "85664",
    "city": "Altmühlhausen"
  },
  {
    "postcode": "85664",
    "city": "Altstockach"
  },
  {
    "postcode": "85664",
    "city": "Birkach"
  },
  {
    "postcode": "85664",
    "city": "Hohenlinden"
  },
  {
    "postcode": "85664",
    "city": "Kreith"
  },
  {
    "postcode": "85664",
    "city": "Neumühlhausen"
  },
  {
    "postcode": "85664",
    "city": "Neustockach"
  },
  {
    "postcode": "85664",
    "city": "Niederkaging"
  },
  {
    "postcode": "85664",
    "city": "Oberkaging"
  },
  {
    "postcode": "85664",
    "city": "Ebersberg"
  },
  {
    "postcode": "85664",
    "city": "Au"
  },
  {
    "postcode": "85664",
    "city": "Berg"
  },
  {
    "postcode": "85664",
    "city": "Weber"
  },
  {
    "postcode": "85664",
    "city": "Karlsdorf"
  },
  {
    "postcode": "85664",
    "city": "Kronacker"
  },
  {
    "postcode": "85664",
    "city": "Neupullach"
  },
  {
    "postcode": "85664",
    "city": "Sauschütt"
  },
  {
    "postcode": "85665",
    "city": "Altenburg"
  },
  {
    "postcode": "85665",
    "city": "Falkenberg"
  },
  {
    "postcode": "85665",
    "city": "Fürmoosen"
  },
  {
    "postcode": "85665",
    "city": "Moosach"
  },
  {
    "postcode": "85665",
    "city": "Moosach bei Grafing bei München"
  },
  {
    "postcode": "85665",
    "city": "Niederseeon"
  },
  {
    "postcode": "85665",
    "city": "Ebersberg"
  },
  {
    "postcode": "85665",
    "city": "Baumhau"
  },
  {
    "postcode": "85665",
    "city": "Berghofen"
  },
  {
    "postcode": "85665",
    "city": "Deinhofen"
  },
  {
    "postcode": "85665",
    "city": "Gemeinde Bruck"
  },
  {
    "postcode": "85665",
    "city": "Gutterstätt"
  },
  {
    "postcode": "85665",
    "city": "Höglsteig"
  },
  {
    "postcode": "85665",
    "city": "Oberseeon"
  },
  {
    "postcode": "85665",
    "city": "Reit"
  },
  {
    "postcode": "85665",
    "city": "Schattenhofen"
  },
  {
    "postcode": "85665",
    "city": "Schartlhof"
  },
  {
    "postcode": "85667",
    "city": "Esterndorf"
  },
  {
    "postcode": "85667",
    "city": "Niederpframmern"
  },
  {
    "postcode": "85667",
    "city": "Oberpframmern"
  },
  {
    "postcode": "85667",
    "city": "Wolfersberg"
  },
  {
    "postcode": "85667",
    "city": "Ebersberg"
  },
  {
    "postcode": "85667",
    "city": "Aich"
  },
  {
    "postcode": "85667",
    "city": "Tal"
  },
  {
    "postcode": "85667",
    "city": "Schlag"
  },
  {
    "postcode": "85667",
    "city": "Gemeinde Egmating"
  },
  {
    "postcode": "85669",
    "city": "Dürnberg"
  },
  {
    "postcode": "85669",
    "city": "Erlbach"
  },
  {
    "postcode": "85669",
    "city": "Fendsbach"
  },
  {
    "postcode": "85669",
    "city": "Harthofen"
  },
  {
    "postcode": "85669",
    "city": "Moosstetten"
  },
  {
    "postcode": "85669",
    "city": "Oberschwillach"
  },
  {
    "postcode": "85669",
    "city": "Pastetten"
  },
  {
    "postcode": "85669",
    "city": "Poigenberg"
  },
  {
    "postcode": "85669",
    "city": "Reithofen"
  },
  {
    "postcode": "85669",
    "city": "Taing"
  },
  {
    "postcode": "85669",
    "city": "Zeilern"
  },
  {
    "postcode": "85669",
    "city": "Erding"
  },
  {
    "postcode": "85669",
    "city": "Ödenbach"
  },
  {
    "postcode": "85669",
    "city": "Birkeln"
  },
  {
    "postcode": "85669",
    "city": "Harrain"
  },
  {
    "postcode": "85669",
    "city": "Katterloh"
  },
  {
    "postcode": "85669",
    "city": "Ötz"
  },
  {
    "postcode": "85716",
    "city": "Lohhof Kreis München"
  },
  {
    "postcode": "85716",
    "city": "Lohhof"
  },
  {
    "postcode": "85716",
    "city": "Riedmoos"
  },
  {
    "postcode": "85716",
    "city": "Unterschleißheim"
  },
  {
    "postcode": "85716",
    "city": "München"
  },
  {
    "postcode": "85716",
    "city": "Gemeinde Eching"
  },
  {
    "postcode": "85716",
    "city": "Hollern"
  },
  {
    "postcode": "85737",
    "city": "Fischerhäuser"
  },
  {
    "postcode": "85737",
    "city": "Ismaning"
  },
  {
    "postcode": "85737",
    "city": "München"
  },
  {
    "postcode": "85737",
    "city": "Zwillingshof"
  },
  {
    "postcode": "85748",
    "city": "Dirnismaning bei München"
  },
  {
    "postcode": "85748",
    "city": "Garching"
  },
  {
    "postcode": "85748",
    "city": "Garching bei München"
  },
  {
    "postcode": "85748",
    "city": "Hochbrück bei München"
  },
  {
    "postcode": "85748",
    "city": "München"
  },
  {
    "postcode": "85748",
    "city": "Garching b. München"
  },
  {
    "postcode": "85748",
    "city": "Hochbrück"
  },
  {
    "postcode": "85748",
    "city": "Dirnismaning"
  },
  {
    "postcode": "85757",
    "city": "Karlsfeld bei München"
  },
  {
    "postcode": "85757",
    "city": "Obergrashof"
  },
  {
    "postcode": "85757",
    "city": "Rothschwaige"
  },
  {
    "postcode": "85757",
    "city": "Dachau"
  },
  {
    "postcode": "85757",
    "city": "Karlsfeld"
  },
  {
    "postcode": "85764",
    "city": "Badersfeld"
  },
  {
    "postcode": "85764",
    "city": "Hochmutting"
  },
  {
    "postcode": "85764",
    "city": "Lustheim"
  },
  {
    "postcode": "85764",
    "city": "Mittenheim"
  },
  {
    "postcode": "85764",
    "city": "Neuherberg"
  },
  {
    "postcode": "85764",
    "city": "Oberschleißheim"
  },
  {
    "postcode": "85764",
    "city": "München"
  },
  {
    "postcode": "85764",
    "city": "Hackermoos"
  },
  {
    "postcode": "85764",
    "city": "Lohhof"
  },
  {
    "postcode": "85774",
    "city": "Unterföhring"
  },
  {
    "postcode": "85774",
    "city": "München"
  },
  {
    "postcode": "85777",
    "city": "Appercha"
  },
  {
    "postcode": "85777",
    "city": "Bachenhausen"
  },
  {
    "postcode": "85777",
    "city": "Fahrenzhausen"
  },
  {
    "postcode": "85777",
    "city": "Gesseltshausen Oberbayern"
  },
  {
    "postcode": "85777",
    "city": "Gesseltshausen"
  },
  {
    "postcode": "85777",
    "city": "Großeisenbach Oberbayern"
  },
  {
    "postcode": "85777",
    "city": "Großeisenbach"
  },
  {
    "postcode": "85777",
    "city": "Großnöbach"
  },
  {
    "postcode": "85777",
    "city": "Hörenzhausen Kreis Freising"
  },
  {
    "postcode": "85777",
    "city": "Hörenzhausen"
  },
  {
    "postcode": "85777",
    "city": "Jarzt"
  },
  {
    "postcode": "85777",
    "city": "Kammerberg"
  },
  {
    "postcode": "85777",
    "city": "Kleineisenbach Oberbayern"
  },
  {
    "postcode": "85777",
    "city": "Kleineisenbach"
  },
  {
    "postcode": "85777",
    "city": "Kleinnöbach"
  },
  {
    "postcode": "85777",
    "city": "Lauterbach"
  },
  {
    "postcode": "85777",
    "city": "Unterbruck"
  },
  {
    "postcode": "85777",
    "city": "Viehbach"
  },
  {
    "postcode": "85777",
    "city": "Weng"
  },
  {
    "postcode": "85777",
    "city": "Freising"
  },
  {
    "postcode": "85777",
    "city": "Bärnau"
  },
  {
    "postcode": "85777",
    "city": "Bergfeld"
  },
  {
    "postcode": "85778",
    "city": "Amperpettenbach Oberbayern"
  },
  {
    "postcode": "85778",
    "city": "Amperpettenbach"
  },
  {
    "postcode": "85778",
    "city": "Haimhausen"
  },
  {
    "postcode": "85778",
    "city": "Haimhausen Oberbayern"
  },
  {
    "postcode": "85778",
    "city": "Hörgenbach Oberbayern"
  },
  {
    "postcode": "85778",
    "city": "Hörgenbach"
  },
  {
    "postcode": "85778",
    "city": "Inhausen"
  },
  {
    "postcode": "85778",
    "city": "Oberndorf"
  },
  {
    "postcode": "85778",
    "city": "Ottershausen Oberbayern"
  },
  {
    "postcode": "85778",
    "city": "Ottershausen"
  },
  {
    "postcode": "85778",
    "city": "Westerndorf"
  },
  {
    "postcode": "85778",
    "city": "Dachau"
  },
  {
    "postcode": "85778",
    "city": "Inhausermoos"
  },
  {
    "postcode": "85778",
    "city": "Gemeinde Unterschleißheim"
  }
]