[
  {
    "postcode": "7407",
    "city": "Ammelstädt"
  },
  {
    "postcode": "7407",
    "city": "Breitenheerda"
  },
  {
    "postcode": "7407",
    "city": "Geitersdorf"
  },
  {
    "postcode": "7407",
    "city": "Großkochberg"
  },
  {
    "postcode": "7407",
    "city": "Haufeld"
  },
  {
    "postcode": "7407",
    "city": "Heilingen"
  },
  {
    "postcode": "7407",
    "city": "Remda"
  },
  {
    "postcode": "7407",
    "city": "Remda-Teichel"
  },
  {
    "postcode": "7407",
    "city": "Rudolstadt"
  },
  {
    "postcode": "7407",
    "city": "Sundremda"
  },
  {
    "postcode": "7407",
    "city": "Tännich"
  },
  {
    "postcode": "7407",
    "city": "Teichel"
  },
  {
    "postcode": "7407",
    "city": "Teichröda"
  },
  {
    "postcode": "7407",
    "city": "Uhlstädt-Kirchhasel"
  },
  {
    "postcode": "7407",
    "city": "Saalfeld-Rudolstadt"
  },
  {
    "postcode": "7407",
    "city": "Schaala"
  },
  {
    "postcode": "7407",
    "city": "Schwarza"
  },
  {
    "postcode": "7407",
    "city": "Volkstedt"
  },
  {
    "postcode": "7407",
    "city": "Keilhau"
  },
  {
    "postcode": "7407",
    "city": "Zentrum"
  },
  {
    "postcode": "7407",
    "city": "Heilsberg"
  },
  {
    "postcode": "7407",
    "city": "Cumbach"
  },
  {
    "postcode": "7407",
    "city": "Ost"
  },
  {
    "postcode": "7407",
    "city": "West"
  },
  {
    "postcode": "7407",
    "city": "Pflanzwirbach"
  },
  {
    "postcode": "7407",
    "city": "Mörla"
  },
  {
    "postcode": "7407",
    "city": "Eichfeld"
  },
  {
    "postcode": "7407",
    "city": "Nord"
  },
  {
    "postcode": "7407",
    "city": "Eschdorf"
  },
  {
    "postcode": "7407",
    "city": "Wohngebiet Rudolspark"
  },
  {
    "postcode": "7407",
    "city": "Groschwitz"
  },
  {
    "postcode": "7407",
    "city": "Lichstedt"
  },
  {
    "postcode": "7407",
    "city": "Milbitz"
  },
  {
    "postcode": "7407",
    "city": "Oberpreilipp"
  },
  {
    "postcode": "7407",
    "city": "Schwarzenshof"
  },
  {
    "postcode": "7407",
    "city": "Treppendorf"
  },
  {
    "postcode": "7407",
    "city": "Unterpreilipp"
  },
  {
    "postcode": "7407",
    "city": "Catharinau"
  },
  {
    "postcode": "7407",
    "city": "Kirchhasel"
  },
  {
    "postcode": "7407",
    "city": "Uhlstädt"
  },
  {
    "postcode": "7407",
    "city": "Zeutsch"
  },
  {
    "postcode": "7407",
    "city": "Beutelsdorf"
  },
  {
    "postcode": "7407",
    "city": "Clöswitz"
  },
  {
    "postcode": "7407",
    "city": "Dorndorf"
  },
  {
    "postcode": "7407",
    "city": "Engerda"
  },
  {
    "postcode": "7407",
    "city": "Etzelbach"
  },
  {
    "postcode": "7407",
    "city": "Kuhfraß"
  },
  {
    "postcode": "7407",
    "city": "Niederkrossen"
  },
  {
    "postcode": "7407",
    "city": "Kleinkochberg"
  },
  {
    "postcode": "7407",
    "city": "Kleinkrossen"
  },
  {
    "postcode": "7407",
    "city": "Kolkwitz"
  },
  {
    "postcode": "7407",
    "city": "Mötzelbach"
  },
  {
    "postcode": "7407",
    "city": "Naundorf"
  },
  {
    "postcode": "7407",
    "city": "Neusitz"
  },
  {
    "postcode": "7407",
    "city": "Oberhasel"
  },
  {
    "postcode": "7407",
    "city": "Oberkrossen"
  },
  {
    "postcode": "7407",
    "city": "Partschefeld"
  },
  {
    "postcode": "7407",
    "city": "Rödelwitz"
  },
  {
    "postcode": "7407",
    "city": "Rückersdorf"
  },
  {
    "postcode": "7407",
    "city": "Schloßkulm"
  },
  {
    "postcode": "7407",
    "city": "Schmieden"
  },
  {
    "postcode": "7407",
    "city": "Teichweiden"
  },
  {
    "postcode": "7407",
    "city": "Unterhasel"
  },
  {
    "postcode": "7407",
    "city": "Weißbach"
  },
  {
    "postcode": "7407",
    "city": "Weißen"
  },
  {
    "postcode": "7422",
    "city": "Bad Blankenburg"
  },
  {
    "postcode": "7422",
    "city": "Rottenbach Thüringen"
  },
  {
    "postcode": "7422",
    "city": "Rottenbach"
  },
  {
    "postcode": "7422",
    "city": "Saalfelder Höhe"
  },
  {
    "postcode": "7422",
    "city": "Saalfeld-Rudolstadt"
  },
  {
    "postcode": "7422",
    "city": "Zeigerheim"
  },
  {
    "postcode": "7422",
    "city": "Böhlscheiben"
  },
  {
    "postcode": "7422",
    "city": "Kleingölitz"
  },
  {
    "postcode": "7422",
    "city": "Cordobang"
  },
  {
    "postcode": "7422",
    "city": "Fröbitz"
  },
  {
    "postcode": "7422",
    "city": "Großgölitz"
  },
  {
    "postcode": "7422",
    "city": "Oberwirbach"
  },
  {
    "postcode": "7422",
    "city": "Watzdorf"
  },
  {
    "postcode": "7426",
    "city": "Allendorf bei Rudolstadt"
  },
  {
    "postcode": "7426",
    "city": "Bechstedt"
  },
  {
    "postcode": "7426",
    "city": "Dröbischau"
  },
  {
    "postcode": "7426",
    "city": "Königsee"
  },
  {
    "postcode": "7426",
    "city": "Oberhain"
  },
  {
    "postcode": "7426",
    "city": "Saalfeld-Rudolstadt"
  },
  {
    "postcode": "7426",
    "city": "Allendorf"
  },
  {
    "postcode": "7426",
    "city": "Aschau"
  },
  {
    "postcode": "7426",
    "city": "Köditzberg"
  },
  {
    "postcode": "7426",
    "city": "Milbitz"
  },
  {
    "postcode": "7426",
    "city": "Rottenbach"
  },
  {
    "postcode": "7426",
    "city": "Egelsdorf"
  },
  {
    "postcode": "7426",
    "city": "Storchsdorf"
  },
  {
    "postcode": "7426",
    "city": "Paulinzella"
  },
  {
    "postcode": "7426",
    "city": "Barigau"
  },
  {
    "postcode": "7426",
    "city": "Dörnfeld a d Heide"
  },
  {
    "postcode": "7426",
    "city": "Garsitz"
  },
  {
    "postcode": "7426",
    "city": "Hengelbach"
  },
  {
    "postcode": "7426",
    "city": "Horba"
  },
  {
    "postcode": "7426",
    "city": "Leutnitz"
  },
  {
    "postcode": "7426",
    "city": "Kossau"
  },
  {
    "postcode": "7426",
    "city": "Lichta"
  },
  {
    "postcode": "7426",
    "city": "Mankenbach"
  },
  {
    "postcode": "7426",
    "city": "Oberköditz"
  },
  {
    "postcode": "7426",
    "city": "Oberschöbling"
  },
  {
    "postcode": "7426",
    "city": "Quittelsdorf"
  },
  {
    "postcode": "7426",
    "city": "Solsdorf"
  },
  {
    "postcode": "7426",
    "city": "Thälendorf"
  },
  {
    "postcode": "7426",
    "city": "Unterhain"
  },
  {
    "postcode": "7426",
    "city": "Unterköditz"
  },
  {
    "postcode": "7426",
    "city": "Unterschöbling"
  },
  {
    "postcode": "7427",
    "city": "Schwarzburg"
  },
  {
    "postcode": "7427",
    "city": "Saalfeld-Rudolstadt"
  },
  {
    "postcode": "7429",
    "city": "Döschnitz"
  },
  {
    "postcode": "7429",
    "city": "Rohrbach bei Rudolstadt"
  },
  {
    "postcode": "7429",
    "city": "Sitzendorf"
  },
  {
    "postcode": "7429",
    "city": "Saalfeld-Rudolstadt"
  },
  {
    "postcode": "7429",
    "city": "Rohrbach"
  },
  {
    "postcode": "7429",
    "city": "Bockschmiede"
  },
  {
    "postcode": "74072",
    "city": "Heilbronn"
  },
  {
    "postcode": "74072",
    "city": "Heilbronn (Neckar)"
  },
  {
    "postcode": "74074",
    "city": "Heilbronn"
  },
  {
    "postcode": "74074",
    "city": "Heilbronn (Neckar)"
  },
  {
    "postcode": "74074",
    "city": "Sontheim"
  },
  {
    "postcode": "74076",
    "city": "Heilbronn"
  },
  {
    "postcode": "74076",
    "city": "Heilbronn (Neckar)"
  },
  {
    "postcode": "74076",
    "city": "Neckarbogen"
  },
  {
    "postcode": "74076",
    "city": "Sontheim"
  },
  {
    "postcode": "74076",
    "city": "Böckingen"
  },
  {
    "postcode": "74078",
    "city": "Biberach"
  },
  {
    "postcode": "74078",
    "city": "Frankenbach"
  },
  {
    "postcode": "74078",
    "city": "Heilbronn"
  },
  {
    "postcode": "74078",
    "city": "Heilbronn (Neckar)"
  },
  {
    "postcode": "74078",
    "city": "Hipfelhof"
  },
  {
    "postcode": "74078",
    "city": "Kirchhausen"
  },
  {
    "postcode": "74078",
    "city": "Neckargartach"
  },
  {
    "postcode": "74078",
    "city": "Böckingen"
  },
  {
    "postcode": "74078",
    "city": "Sontheim"
  },
  {
    "postcode": "74078",
    "city": "Klingenberg"
  },
  {
    "postcode": "74080",
    "city": "Böckingen"
  },
  {
    "postcode": "74080",
    "city": "Frankenbach"
  },
  {
    "postcode": "74080",
    "city": "Heilbronn (Neckar)"
  },
  {
    "postcode": "74080",
    "city": "Heilbronn"
  },
  {
    "postcode": "74081",
    "city": "Böckingen"
  },
  {
    "postcode": "74081",
    "city": "Heilbronn (Neckar)"
  },
  {
    "postcode": "74081",
    "city": "Heilbronn"
  },
  {
    "postcode": "74081",
    "city": "Horkheim"
  },
  {
    "postcode": "74081",
    "city": "Klingenberg"
  },
  {
    "postcode": "74081",
    "city": "Sontheim"
  },
  {
    "postcode": "74172",
    "city": "Dahenfeld"
  },
  {
    "postcode": "74172",
    "city": "Neckarsulm"
  },
  {
    "postcode": "74172",
    "city": "Obereisesheim"
  },
  {
    "postcode": "74172",
    "city": "Heilbronn"
  },
  {
    "postcode": "74172",
    "city": "Amorbach"
  },
  {
    "postcode": "74177",
    "city": "Bad Friedrichshall"
  },
  {
    "postcode": "74177",
    "city": "Duttenberg"
  },
  {
    "postcode": "74177",
    "city": "Hagenbach"
  },
  {
    "postcode": "74177",
    "city": "Jagstfeld"
  },
  {
    "postcode": "74177",
    "city": "Kochendorf"
  },
  {
    "postcode": "74177",
    "city": "Untergriesheim"
  },
  {
    "postcode": "74177",
    "city": "Heilbronn"
  },
  {
    "postcode": "74177",
    "city": "Plattenwald"
  },
  {
    "postcode": "74177",
    "city": "Waldau"
  },
  {
    "postcode": "74177",
    "city": "Heuchlingen"
  },
  {
    "postcode": "74182",
    "city": "Affaltrach"
  },
  {
    "postcode": "74182",
    "city": "Eichelberg"
  },
  {
    "postcode": "74182",
    "city": "Eschenau"
  },
  {
    "postcode": "74182",
    "city": "Friedrichshof"
  },
  {
    "postcode": "74182",
    "city": "Obersulm"
  },
  {
    "postcode": "74182",
    "city": "Sülzbach"
  },
  {
    "postcode": "74182",
    "city": "Weiler"
  },
  {
    "postcode": "74182",
    "city": "Wieslensdorf"
  },
  {
    "postcode": "74182",
    "city": "Willsbach"
  },
  {
    "postcode": "74182",
    "city": "Heilbronn"
  },
  {
    "postcode": "74189",
    "city": "Gellmersbach"
  },
  {
    "postcode": "74189",
    "city": "Grantschen"
  },
  {
    "postcode": "74189",
    "city": "Rappenhof"
  },
  {
    "postcode": "74189",
    "city": "Weinsberg"
  },
  {
    "postcode": "74189",
    "city": "Weißenhof"
  },
  {
    "postcode": "74189",
    "city": "Wimmental"
  },
  {
    "postcode": "74189",
    "city": "Heilbronn"
  },
  {
    "postcode": "74193",
    "city": "Massenbach"
  },
  {
    "postcode": "74193",
    "city": "Niederhofen"
  },
  {
    "postcode": "74193",
    "city": "Schwaigern"
  },
  {
    "postcode": "74193",
    "city": "Schwaigern (Württemberg)"
  },
  {
    "postcode": "74193",
    "city": "Stetten"
  },
  {
    "postcode": "74193",
    "city": "Heilbronn"
  },
  {
    "postcode": "74196",
    "city": "Brambacherhof"
  },
  {
    "postcode": "74196",
    "city": "Buchhof am Kocher"
  },
  {
    "postcode": "74196",
    "city": "Bürg"
  },
  {
    "postcode": "74196",
    "city": "Cleversulzbach"
  },
  {
    "postcode": "74196",
    "city": "Hösselinshof"
  },
  {
    "postcode": "74196",
    "city": "Kochertürn"
  },
  {
    "postcode": "74196",
    "city": "Neuenstadt"
  },
  {
    "postcode": "74196",
    "city": "Neuenstadt am Kocher"
  },
  {
    "postcode": "74196",
    "city": "Stein am Kocher"
  },
  {
    "postcode": "74196",
    "city": "Heilbronn"
  },
  {
    "postcode": "74196",
    "city": "Grollenhof"
  },
  {
    "postcode": "74196",
    "city": "Stein"
  },
  {
    "postcode": "74199",
    "city": "Donnbronn"
  },
  {
    "postcode": "74199",
    "city": "Obergruppenbach"
  },
  {
    "postcode": "74199",
    "city": "Oberheinriet"
  },
  {
    "postcode": "74199",
    "city": "Untergruppenbach"
  },
  {
    "postcode": "74199",
    "city": "Unterheinriet"
  },
  {
    "postcode": "74199",
    "city": "Vorhof"
  },
  {
    "postcode": "74199",
    "city": "Heilbronn"
  },
  {
    "postcode": "74206",
    "city": "Bad Wimpfen"
  },
  {
    "postcode": "74206",
    "city": "Hohenstadt"
  },
  {
    "postcode": "74206",
    "city": "Wimpfen"
  },
  {
    "postcode": "74206",
    "city": "Heilbronn"
  },
  {
    "postcode": "74211",
    "city": "Großgartach"
  },
  {
    "postcode": "74211",
    "city": "Leingarten"
  },
  {
    "postcode": "74211",
    "city": "Schluchtern"
  },
  {
    "postcode": "74211",
    "city": "Heilbronn"
  },
  {
    "postcode": "74214",
    "city": "Altdorf"
  },
  {
    "postcode": "74214",
    "city": "Aschhausen"
  },
  {
    "postcode": "74214",
    "city": "Berlichingen"
  },
  {
    "postcode": "74214",
    "city": "Bieringen"
  },
  {
    "postcode": "74214",
    "city": "Eichelshof"
  },
  {
    "postcode": "74214",
    "city": "Halsberg"
  },
  {
    "postcode": "74214",
    "city": "Heßlingshof"
  },
  {
    "postcode": "74214",
    "city": "Hopfengarten"
  },
  {
    "postcode": "74214",
    "city": "Marlach"
  },
  {
    "postcode": "74214",
    "city": "Neuhof"
  },
  {
    "postcode": "74214",
    "city": "Oberkessach"
  },
  {
    "postcode": "74214",
    "city": "Rossach"
  },
  {
    "postcode": "74214",
    "city": "Schöntal (Jagst)"
  },
  {
    "postcode": "74214",
    "city": "Schöntal"
  },
  {
    "postcode": "74214",
    "city": "Sindeldorf"
  },
  {
    "postcode": "74214",
    "city": "Weigental"
  },
  {
    "postcode": "74214",
    "city": "Weltersberg"
  },
  {
    "postcode": "74214",
    "city": "Westernhausen"
  },
  {
    "postcode": "74214",
    "city": "Winzenhofen"
  },
  {
    "postcode": "74214",
    "city": "Hohenlohekreis"
  },
  {
    "postcode": "74214",
    "city": "Kloster Schöntal"
  },
  {
    "postcode": "74219",
    "city": "Assumstadt"
  },
  {
    "postcode": "74219",
    "city": "Bittelbronn"
  },
  {
    "postcode": "74219",
    "city": "Dippach"
  },
  {
    "postcode": "74219",
    "city": "Ernstein"
  },
  {
    "postcode": "74219",
    "city": "Hagenbach"
  },
  {
    "postcode": "74219",
    "city": "Korb Baden"
  },
  {
    "postcode": "74219",
    "city": "Korb"
  },
  {
    "postcode": "74219",
    "city": "Maisenhälden"
  },
  {
    "postcode": "74219",
    "city": "Möckmühl"
  },
  {
    "postcode": "74219",
    "city": "Ruchsen"
  },
  {
    "postcode": "74219",
    "city": "Schwärzerhof"
  },
  {
    "postcode": "74219",
    "city": "Siegelbach"
  },
  {
    "postcode": "74219",
    "city": "Sülzhof"
  },
  {
    "postcode": "74219",
    "city": "Züttlingen"
  },
  {
    "postcode": "74219",
    "city": "Heilbronn"
  },
  {
    "postcode": "74223",
    "city": "Flein bei Heilbronn Neckar"
  },
  {
    "postcode": "74223",
    "city": "Flein bei Heilbronn"
  },
  {
    "postcode": "74223",
    "city": "Heilbronn"
  },
  {
    "postcode": "74223",
    "city": "Flein"
  },
  {
    "postcode": "74226",
    "city": "Nordhausen"
  },
  {
    "postcode": "74226",
    "city": "Nordheim"
  },
  {
    "postcode": "74226",
    "city": "Nordheim (Württemberg)"
  },
  {
    "postcode": "74226",
    "city": "Heilbronn"
  },
  {
    "postcode": "74229",
    "city": "Degmarn"
  },
  {
    "postcode": "74229",
    "city": "Lautenbach"
  },
  {
    "postcode": "74229",
    "city": "Oedheim"
  },
  {
    "postcode": "74229",
    "city": "Heilbronn"
  },
  {
    "postcode": "74232",
    "city": "Abstatt"
  },
  {
    "postcode": "74232",
    "city": "Happenbach"
  },
  {
    "postcode": "74232",
    "city": "Vohenlohe"
  },
  {
    "postcode": "74232",
    "city": "Heilbronn"
  },
  {
    "postcode": "74232",
    "city": "Burg Wildeck"
  },
  {
    "postcode": "74235",
    "city": "Binswangen"
  },
  {
    "postcode": "74235",
    "city": "Erlenbach"
  },
  {
    "postcode": "74235",
    "city": "Erlenbach (Kreis Heilbronn Neckar)"
  },
  {
    "postcode": "74235",
    "city": "Erlenbach (Kreis Heilbronn"
  },
  {
    "postcode": "74235",
    "city": "Heilbronn"
  },
  {
    "postcode": "74238",
    "city": "Altkrautheim"
  },
  {
    "postcode": "74238",
    "city": "Gommersdorf"
  },
  {
    "postcode": "74238",
    "city": "Horrenbach"
  },
  {
    "postcode": "74238",
    "city": "Klepsau"
  },
  {
    "postcode": "74238",
    "city": "Krautheim"
  },
  {
    "postcode": "74238",
    "city": "Krautheim (Jagst)"
  },
  {
    "postcode": "74238",
    "city": "Neunstetten"
  },
  {
    "postcode": "74238",
    "city": "Oberginsbach"
  },
  {
    "postcode": "74238",
    "city": "Oberndorf Bauland"
  },
  {
    "postcode": "74238",
    "city": "Oberndorf"
  },
  {
    "postcode": "74238",
    "city": "Unterginsbach"
  },
  {
    "postcode": "74238",
    "city": "Hohenlohekreis"
  },
  {
    "postcode": "74239",
    "city": "Gochsen"
  },
  {
    "postcode": "74239",
    "city": "Hardthausen am Kocher"
  },
  {
    "postcode": "74239",
    "city": "Kochersteinsfeld"
  },
  {
    "postcode": "74239",
    "city": "Lampoldshausen"
  },
  {
    "postcode": "74239",
    "city": "Heilbronn"
  },
  {
    "postcode": "74243",
    "city": "Brettach"
  },
  {
    "postcode": "74243",
    "city": "Langenbeutingen"
  },
  {
    "postcode": "74243",
    "city": "Langenbrettach"
  },
  {
    "postcode": "74243",
    "city": "Neudeck"
  },
  {
    "postcode": "74243",
    "city": "Heilbronn"
  },
  {
    "postcode": "74245",
    "city": "Gerberhäusle"
  },
  {
    "postcode": "74245",
    "city": "Hirrweiler"
  },
  {
    "postcode": "74245",
    "city": "Hößlinsülz"
  },
  {
    "postcode": "74245",
    "city": "Lichtenstern"
  },
  {
    "postcode": "74245",
    "city": "Löwenstein"
  },
  {
    "postcode": "74245",
    "city": "Löwenstein (Württemberg)"
  },
  {
    "postcode": "74245",
    "city": "Reisach"
  },
  {
    "postcode": "74245",
    "city": "Rittelhof"
  },
  {
    "postcode": "74245",
    "city": "Teusserbad"
  },
  {
    "postcode": "74245",
    "city": "Heilbronn"
  },
  {
    "postcode": "74245",
    "city": "Klinik"
  },
  {
    "postcode": "74246",
    "city": "Buchhorn"
  },
  {
    "postcode": "74246",
    "city": "Eberstadt"
  },
  {
    "postcode": "74246",
    "city": "Eberstadt (Württemberg)"
  },
  {
    "postcode": "74246",
    "city": "Hölzern"
  },
  {
    "postcode": "74246",
    "city": "Heilbronn"
  },
  {
    "postcode": "74248",
    "city": "Ellhofen (Württemberg)"
  },
  {
    "postcode": "74248",
    "city": "Ellhofen"
  },
  {
    "postcode": "74248",
    "city": "Heilbronn"
  },
  {
    "postcode": "74249",
    "city": "Äußerer Pfitzhof"
  },
  {
    "postcode": "74249",
    "city": "Buchhof (Gemeinde Hardthausen am Kocher)"
  },
  {
    "postcode": "74249",
    "city": "Buchhof"
  },
  {
    "postcode": "74249",
    "city": "Edelmannshof"
  },
  {
    "postcode": "74249",
    "city": "Jagsthausen"
  },
  {
    "postcode": "74249",
    "city": "Jagsthausen bei Heilbronn Neckar"
  },
  {
    "postcode": "74249",
    "city": "Jagsthausen bei Heilbronn"
  },
  {
    "postcode": "74249",
    "city": "Leuterstal"
  },
  {
    "postcode": "74249",
    "city": "Mittlerer Pfitzhof"
  },
  {
    "postcode": "74249",
    "city": "Olnhausen"
  },
  {
    "postcode": "74249",
    "city": "Heilbronn"
  },
  {
    "postcode": "74249",
    "city": "Buchhof Gem Hardthausen"
  },
  {
    "postcode": "74249",
    "city": "Trautenhof"
  },
  {
    "postcode": "74249",
    "city": "Pfitzhof"
  },
  {
    "postcode": "74251",
    "city": "Lehrensteinsfeld"
  },
  {
    "postcode": "74251",
    "city": "Heilbronn"
  },
  {
    "postcode": "74252",
    "city": "Massenbachhausen"
  },
  {
    "postcode": "74252",
    "city": "Heilbronn"
  },
  {
    "postcode": "74254",
    "city": "Offenau (Württemberg)"
  },
  {
    "postcode": "74254",
    "city": "Offenau"
  },
  {
    "postcode": "74254",
    "city": "Heilbronn"
  },
  {
    "postcode": "74255",
    "city": "Roigheim"
  },
  {
    "postcode": "74255",
    "city": "Heilbronn"
  },
  {
    "postcode": "74257",
    "city": "Untereisesheim"
  },
  {
    "postcode": "74257",
    "city": "Heilbronn"
  },
  {
    "postcode": "74259",
    "city": "Unterkessach"
  },
  {
    "postcode": "74259",
    "city": "Volkshausen"
  },
  {
    "postcode": "74259",
    "city": "Widdern"
  },
  {
    "postcode": "74259",
    "city": "Heilbronn"
  },
  {
    "postcode": "74321",
    "city": "Bietigheim"
  },
  {
    "postcode": "74321",
    "city": "Bietigheim-Bissingen"
  },
  {
    "postcode": "74321",
    "city": "Bissingen"
  },
  {
    "postcode": "74321",
    "city": "Metterzimmern"
  },
  {
    "postcode": "74321",
    "city": "Untermberg"
  },
  {
    "postcode": "74321",
    "city": "Wilhelmshof"
  },
  {
    "postcode": "74321",
    "city": "Ludwigsburg"
  },
  {
    "postcode": "74336",
    "city": "Botenheim"
  },
  {
    "postcode": "74336",
    "city": "Brackenheim"
  },
  {
    "postcode": "74336",
    "city": "Dürrenzimmern"
  },
  {
    "postcode": "74336",
    "city": "Haberschlacht"
  },
  {
    "postcode": "74336",
    "city": "Hausen"
  },
  {
    "postcode": "74336",
    "city": "Meimsheim"
  },
  {
    "postcode": "74336",
    "city": "Neipperg"
  },
  {
    "postcode": "74336",
    "city": "Stockheim"
  },
  {
    "postcode": "74336",
    "city": "Heilbronn"
  },
  {
    "postcode": "74337",
    "city": "Botenheim"
  },
  {
    "postcode": "74343",
    "city": "Egartenhof"
  },
  {
    "postcode": "74343",
    "city": "Großsachsenheim"
  },
  {
    "postcode": "74343",
    "city": "Häfnerhaslach"
  },
  {
    "postcode": "74343",
    "city": "Hohenhaslach"
  },
  {
    "postcode": "74343",
    "city": "Kleinsachsenheim"
  },
  {
    "postcode": "74343",
    "city": "Ochsenbach"
  },
  {
    "postcode": "74343",
    "city": "Rechentshofen"
  },
  {
    "postcode": "74343",
    "city": "Sachsenheim (Württemberg)"
  },
  {
    "postcode": "74343",
    "city": "Sachsenheim"
  },
  {
    "postcode": "74343",
    "city": "Spielberg"
  },
  {
    "postcode": "74343",
    "city": "Ludwigsburg"
  },
  {
    "postcode": "74348",
    "city": "Lauffen am Neckar"
  },
  {
    "postcode": "74348",
    "city": "Heilbronn"
  },
  {
    "postcode": "74354",
    "city": "Besigheim"
  },
  {
    "postcode": "74354",
    "city": "Husarenhof"
  },
  {
    "postcode": "74354",
    "city": "Ottmarsheim"
  },
  {
    "postcode": "74354",
    "city": "Ludwigsburg"
  },
  {
    "postcode": "74357",
    "city": "Bönnigheim"
  },
  {
    "postcode": "74357",
    "city": "Hofen"
  },
  {
    "postcode": "74357",
    "city": "Hohenstein"
  },
  {
    "postcode": "74357",
    "city": "Ludwigsburg"
  },
  {
    "postcode": "74360",
    "city": "Abstetter Hof"
  },
  {
    "postcode": "74360",
    "city": "Auenstein"
  },
  {
    "postcode": "74360",
    "city": "Helfenberg"
  },
  {
    "postcode": "74360",
    "city": "Ilsfeld"
  },
  {
    "postcode": "74360",
    "city": "Pfahlhof"
  },
  {
    "postcode": "74360",
    "city": "Schozach"
  },
  {
    "postcode": "74360",
    "city": "Wüstenhausen"
  },
  {
    "postcode": "74360",
    "city": "Heilbronn"
  },
  {
    "postcode": "74360",
    "city": "Abstetterhof"
  },
  {
    "postcode": "74363",
    "city": "Eibensbach"
  },
  {
    "postcode": "74363",
    "city": "Frauenzimmern"
  },
  {
    "postcode": "74363",
    "city": "Güglingen"
  },
  {
    "postcode": "74363",
    "city": "Heilbronn"
  },
  {
    "postcode": "74366",
    "city": "Kirchheim am Neckar"
  },
  {
    "postcode": "74366",
    "city": "Ludwigsburg"
  },
  {
    "postcode": "74369",
    "city": "Löchgau"
  },
  {
    "postcode": "74369",
    "city": "Weißenhof"
  },
  {
    "postcode": "74369",
    "city": "Ludwigsburg"
  },
  {
    "postcode": "74372",
    "city": "Sersheim"
  },
  {
    "postcode": "74372",
    "city": "Ludwigsburg"
  },
  {
    "postcode": "74372",
    "city": "Oberriexingen"
  },
  {
    "postcode": "74374",
    "city": "Leonbronn"
  },
  {
    "postcode": "74374",
    "city": "Michelbach"
  },
  {
    "postcode": "74374",
    "city": "Ochsenburg"
  },
  {
    "postcode": "74374",
    "city": "Zaberfeld"
  },
  {
    "postcode": "74374",
    "city": "Heilbronn"
  },
  {
    "postcode": "74376",
    "city": "Gemmrigheim"
  },
  {
    "postcode": "74376",
    "city": "Ludwigsburg"
  },
  {
    "postcode": "74379",
    "city": "Großingersheim"
  },
  {
    "postcode": "74379",
    "city": "Ingersheim (Württemberg)"
  },
  {
    "postcode": "74379",
    "city": "Ingersheim"
  },
  {
    "postcode": "74379",
    "city": "Kleiningersheim"
  },
  {
    "postcode": "74379",
    "city": "Ludwigsburg"
  },
  {
    "postcode": "74382",
    "city": "Neckarwestheim"
  },
  {
    "postcode": "74382",
    "city": "Heilbronn"
  },
  {
    "postcode": "74385",
    "city": "Pleidelsheim"
  },
  {
    "postcode": "74385",
    "city": "Ludwigsburg"
  },
  {
    "postcode": "74388",
    "city": "Talheim (Neckar)"
  },
  {
    "postcode": "74388",
    "city": "Talheim"
  },
  {
    "postcode": "74388",
    "city": "Heilbronn"
  },
  {
    "postcode": "74389",
    "city": "Cleebronn"
  },
  {
    "postcode": "74389",
    "city": "Treffentrill"
  },
  {
    "postcode": "74389",
    "city": "Heilbronn"
  },
  {
    "postcode": "74391",
    "city": "Erligheim"
  },
  {
    "postcode": "74391",
    "city": "Ludwigsburg"
  },
  {
    "postcode": "74392",
    "city": "Freudental (Württemberg)"
  },
  {
    "postcode": "74392",
    "city": "Freudental"
  },
  {
    "postcode": "74392",
    "city": "Ludwigsburg"
  },
  {
    "postcode": "74394",
    "city": "Hessigheim"
  },
  {
    "postcode": "74394",
    "city": "Schreyerhof"
  },
  {
    "postcode": "74394",
    "city": "Ludwigsburg"
  },
  {
    "postcode": "74395",
    "city": "Mundelsheim"
  },
  {
    "postcode": "74395",
    "city": "Ludwigsburg"
  },
  {
    "postcode": "74395",
    "city": "Schreyerhof"
  },
  {
    "postcode": "74397",
    "city": "Pfaffenhofen"
  },
  {
    "postcode": "74397",
    "city": "Pfaffenhofen (Württemberg)"
  },
  {
    "postcode": "74397",
    "city": "Weiler an der Eck"
  },
  {
    "postcode": "74397",
    "city": "Heilbronn"
  },
  {
    "postcode": "74397",
    "city": "Weiler"
  },
  {
    "postcode": "74399",
    "city": "Walheim (Württemberg)"
  },
  {
    "postcode": "74399",
    "city": "Walheim"
  },
  {
    "postcode": "74399",
    "city": "Ludwigsburg"
  },
  {
    "postcode": "74405",
    "city": "Adelbach"
  },
  {
    "postcode": "74405",
    "city": "Bröckingen"
  },
  {
    "postcode": "74405",
    "city": "Eisbach"
  },
  {
    "postcode": "74405",
    "city": "Eutendorf"
  },
  {
    "postcode": "74405",
    "city": "Gaildorf"
  },
  {
    "postcode": "74405",
    "city": "Großaltdorf"
  },
  {
    "postcode": "74405",
    "city": "Hägenau"
  },
  {
    "postcode": "74405",
    "city": "Kieselberg"
  },
  {
    "postcode": "74405",
    "city": "Kleinaltdorf"
  },
  {
    "postcode": "74405",
    "city": "Münster"
  },
  {
    "postcode": "74405",
    "city": "Niederndorf"
  },
  {
    "postcode": "74405",
    "city": "Ottendorf"
  },
  {
    "postcode": "74405",
    "city": "Reippersberg"
  },
  {
    "postcode": "74405",
    "city": "Schönberg"
  },
  {
    "postcode": "74405",
    "city": "Spöck"
  },
  {
    "postcode": "74405",
    "city": "Unterrot"
  },
  {
    "postcode": "74405",
    "city": "Winzenweiler"
  },
  {
    "postcode": "74405",
    "city": "Schwäbisch Hall"
  },
  {
    "postcode": "74405",
    "city": "Adelberg"
  },
  {
    "postcode": "74405",
    "city": "Schweizerhof"
  },
  {
    "postcode": "74405",
    "city": "Chausseehaus"
  },
  {
    "postcode": "74405",
    "city": "Steigenhaus"
  },
  {
    "postcode": "74405",
    "city": "Steppach"
  },
  {
    "postcode": "74417",
    "city": "Altersberg"
  },
  {
    "postcode": "74417",
    "city": "Birkhof"
  },
  {
    "postcode": "74417",
    "city": "Brandhof"
  },
  {
    "postcode": "74417",
    "city": "Buchhaus"
  },
  {
    "postcode": "74417",
    "city": "Dietenhof"
  },
  {
    "postcode": "74417",
    "city": "Dinglesmad"
  },
  {
    "postcode": "74417",
    "city": "Eichenkirnberg"
  },
  {
    "postcode": "74417",
    "city": "Felgenhof"
  },
  {
    "postcode": "74417",
    "city": "Frickenhofen"
  },
  {
    "postcode": "74417",
    "city": "Gschwend bei Gaildorf"
  },
  {
    "postcode": "74417",
    "city": "Haghof"
  },
  {
    "postcode": "74417",
    "city": "Hagkling"
  },
  {
    "postcode": "74417",
    "city": "Hetschenhof"
  },
  {
    "postcode": "74417",
    "city": "Hinteres Breitenfeld"
  },
  {
    "postcode": "74417",
    "city": "Hirschbach"
  },
  {
    "postcode": "74417",
    "city": "Hohenreusch"
  },
  {
    "postcode": "74417",
    "city": "Hohenreut"
  },
  {
    "postcode": "74417",
    "city": "Honkling"
  },
  {
    "postcode": "74417",
    "city": "Horlachen"
  },
  {
    "postcode": "74417",
    "city": "Hugenbeckenreute"
  },
  {
    "postcode": "74417",
    "city": "Humberg"
  },
  {
    "postcode": "74417",
    "city": "Hundsberg"
  },
  {
    "postcode": "74417",
    "city": "Joosenhof"
  },
  {
    "postcode": "74417",
    "city": "Linsenhof"
  },
  {
    "postcode": "74417",
    "city": "Metzlenshof"
  },
  {
    "postcode": "74417",
    "city": "Mittelbronn"
  },
  {
    "postcode": "74417",
    "city": "Nardenheim"
  },
  {
    "postcode": "74417",
    "city": "Ottenried"
  },
  {
    "postcode": "74417",
    "city": "Pritschenhof"
  },
  {
    "postcode": "74417",
    "city": "Rotenhar"
  },
  {
    "postcode": "74417",
    "city": "Schlechtbach"
  },
  {
    "postcode": "74417",
    "city": "Seelach"
  },
  {
    "postcode": "74417",
    "city": "Vorderes Breitenfeld"
  },
  {
    "postcode": "74417",
    "city": "Waldhaus"
  },
  {
    "postcode": "74417",
    "city": "Wasserhof"
  },
  {
    "postcode": "74417",
    "city": "Weiher"
  },
  {
    "postcode": "74417",
    "city": "Wildgarten"
  },
  {
    "postcode": "74417",
    "city": "Wimberg"
  },
  {
    "postcode": "74417",
    "city": "Ostalbkreis"
  },
  {
    "postcode": "74417",
    "city": "Gschwend"
  },
  {
    "postcode": "74417",
    "city": "Brechtenhalden"
  },
  {
    "postcode": "74417",
    "city": "Bruckenhaus"
  },
  {
    "postcode": "74417",
    "city": "Ernst"
  },
  {
    "postcode": "74417",
    "city": "Gläserhof"
  },
  {
    "postcode": "74417",
    "city": "Gschwender Mühle"
  },
  {
    "postcode": "74417",
    "city": "Haghöfle"
  },
  {
    "postcode": "74417",
    "city": "Haldenhaus"
  },
  {
    "postcode": "74417",
    "city": "Hasenhof"
  },
  {
    "postcode": "74417",
    "city": "Hengstberg"
  },
  {
    "postcode": "74417",
    "city": "Hetzenhof"
  },
  {
    "postcode": "74417",
    "city": "Hohenohl"
  },
  {
    "postcode": "74417",
    "city": "Hollenhöfle"
  },
  {
    "postcode": "74417",
    "city": "Hollenhof"
  },
  {
    "postcode": "74417",
    "city": "Steinreute"
  },
  {
    "postcode": "74417",
    "city": "Humbach"
  },
  {
    "postcode": "74417",
    "city": "Joosenhofer Sägmühle"
  },
  {
    "postcode": "74417",
    "city": "Kellershof"
  },
  {
    "postcode": "74417",
    "city": "Krämersberg"
  },
  {
    "postcode": "74417",
    "city": "Käshöfle"
  },
  {
    "postcode": "74417",
    "city": "Lindenreute"
  },
  {
    "postcode": "74417",
    "city": "Lämmershof"
  },
  {
    "postcode": "74417",
    "city": "Marzellenhof"
  },
  {
    "postcode": "74417",
    "city": "Mühläckerle"
  },
  {
    "postcode": "74417",
    "city": "Neumühle"
  },
  {
    "postcode": "74417",
    "city": "Oberer Hugenhof"
  },
  {
    "postcode": "74417",
    "city": "Oppenland"
  },
  {
    "postcode": "74417",
    "city": "Pfeiferhof"
  },
  {
    "postcode": "74417",
    "city": "Rappenhof"
  },
  {
    "postcode": "74417",
    "city": "Reißenhöfle"
  },
  {
    "postcode": "74417",
    "city": "Roßsumpf"
  },
  {
    "postcode": "74417",
    "city": "Schöllhof"
  },
  {
    "postcode": "74417",
    "city": "Schierhof"
  },
  {
    "postcode": "74417",
    "city": "Schlechtbacher Sägmühle"
  },
  {
    "postcode": "74417",
    "city": "Schmidbügel"
  },
  {
    "postcode": "74417",
    "city": "Seehöfle"
  },
  {
    "postcode": "74417",
    "city": "Spittelhof"
  },
  {
    "postcode": "74417",
    "city": "Steinenforst"
  },
  {
    "postcode": "74417",
    "city": "Steinhöfle"
  },
  {
    "postcode": "74417",
    "city": "Straßenhaus"
  },
  {
    "postcode": "74417",
    "city": "Sturmhof"
  },
  {
    "postcode": "74417",
    "city": "Unterer Hugenhof"
  },
  {
    "postcode": "74417",
    "city": "Wildenhöfle"
  },
  {
    "postcode": "74417",
    "city": "Wolfsmühle"
  },
  {
    "postcode": "74417",
    "city": "Ziegelhütte"
  },
  {
    "postcode": "74420",
    "city": "Ebersberg"
  },
  {
    "postcode": "74420",
    "city": "Frankenberg"
  },
  {
    "postcode": "74420",
    "city": "Glashofen"
  },
  {
    "postcode": "74420",
    "city": "Hausen an der Rot"
  },
  {
    "postcode": "74420",
    "city": "Hausen Rot"
  },
  {
    "postcode": "74420",
    "city": "Hohenhardtsweiler"
  },
  {
    "postcode": "74420",
    "city": "Konhalden"
  },
  {
    "postcode": "74420",
    "city": "Kornberg"
  },
  {
    "postcode": "74420",
    "city": "Marbächle"
  },
  {
    "postcode": "74420",
    "city": "Marhördt"
  },
  {
    "postcode": "74420",
    "city": "Neuhausen"
  },
  {
    "postcode": "74420",
    "city": "Oberrot"
  },
  {
    "postcode": "74420",
    "city": "Oberrot bei Gaildorf"
  },
  {
    "postcode": "74420",
    "city": "Scheuerhalden"
  },
  {
    "postcode": "74420",
    "city": "Stiershof"
  },
  {
    "postcode": "74420",
    "city": "Wiesenbach"
  },
  {
    "postcode": "74420",
    "city": "Wolfenbrück"
  },
  {
    "postcode": "74420",
    "city": "Schwäbisch Hall"
  },
  {
    "postcode": "74420",
    "city": "Badhaus"
  },
  {
    "postcode": "74420",
    "city": "Ebersberger Sägmühle"
  },
  {
    "postcode": "74420",
    "city": "Amselhalde"
  },
  {
    "postcode": "74420",
    "city": "Brennhof"
  },
  {
    "postcode": "74420",
    "city": "Obermühle"
  },
  {
    "postcode": "74420",
    "city": "Dexelhof"
  },
  {
    "postcode": "74420",
    "city": "Eitelwäldle"
  },
  {
    "postcode": "74420",
    "city": "Ernstenhöfle"
  },
  {
    "postcode": "74420",
    "city": "Greuthof"
  },
  {
    "postcode": "74420",
    "city": "Hammerschmiede"
  },
  {
    "postcode": "74420",
    "city": "Jaghaus"
  },
  {
    "postcode": "74420",
    "city": "Marhördter Mühle"
  },
  {
    "postcode": "74420",
    "city": "Neumühle"
  },
  {
    "postcode": "74420",
    "city": "Obere Kornberger Sägmühle"
  },
  {
    "postcode": "74420",
    "city": "Ofenberg"
  },
  {
    "postcode": "74420",
    "city": "Seehölzle"
  },
  {
    "postcode": "74420",
    "city": "Stielberg"
  },
  {
    "postcode": "74420",
    "city": "Stiersbach"
  },
  {
    "postcode": "74420",
    "city": "Ziegelhütte"
  },
  {
    "postcode": "74423",
    "city": "Benzenhof"
  },
  {
    "postcode": "74423",
    "city": "Engelhofen"
  },
  {
    "postcode": "74423",
    "city": "Hausen Gemeinde Untersontheim"
  },
  {
    "postcode": "74423",
    "city": "Hausen"
  },
  {
    "postcode": "74423",
    "city": "Herlebach"
  },
  {
    "postcode": "74423",
    "city": "Mittelfischach"
  },
  {
    "postcode": "74423",
    "city": "Oberfischach"
  },
  {
    "postcode": "74423",
    "city": "Obersontheim"
  },
  {
    "postcode": "74423",
    "city": "Rappoltshofen"
  },
  {
    "postcode": "74423",
    "city": "Ummenhofen"
  },
  {
    "postcode": "74423",
    "city": "Unterfischach"
  },
  {
    "postcode": "74423",
    "city": "Untersontheim"
  },
  {
    "postcode": "74423",
    "city": "Schwäbisch Hall"
  },
  {
    "postcode": "74423",
    "city": "Beutenmühle"
  },
  {
    "postcode": "74423",
    "city": "Mühlhof"
  },
  {
    "postcode": "74423",
    "city": "Röschbühl"
  },
  {
    "postcode": "74423",
    "city": "Rappoltsau"
  },
  {
    "postcode": "74423",
    "city": "Rothof"
  },
  {
    "postcode": "74423",
    "city": "Weiler"
  },
  {
    "postcode": "74424",
    "city": "Bühlertann"
  },
  {
    "postcode": "74424",
    "city": "Fronrot"
  },
  {
    "postcode": "74424",
    "city": "Halden"
  },
  {
    "postcode": "74424",
    "city": "Hettensberg"
  },
  {
    "postcode": "74424",
    "city": "Kottspiel"
  },
  {
    "postcode": "74424",
    "city": "Vetterhöfe"
  },
  {
    "postcode": "74424",
    "city": "Schwäbisch Hall"
  },
  {
    "postcode": "74424",
    "city": "Avenmühle"
  },
  {
    "postcode": "74424",
    "city": "Blashof"
  },
  {
    "postcode": "74424",
    "city": "Tannenburg"
  },
  {
    "postcode": "74424",
    "city": "Heuhof"
  },
  {
    "postcode": "74424",
    "city": "Himmelreich"
  },
  {
    "postcode": "74424",
    "city": "Kreidelhaus"
  },
  {
    "postcode": "74424",
    "city": "Tannenberghalden"
  },
  {
    "postcode": "74424",
    "city": "Weidenmühle"
  },
  {
    "postcode": "74426",
    "city": "Bühlerzell"
  },
  {
    "postcode": "74426",
    "city": "Eichberg"
  },
  {
    "postcode": "74426",
    "city": "Gantenwald Gemeinde Bühlerzell"
  },
  {
    "postcode": "74426",
    "city": "Gantenwald"
  },
  {
    "postcode": "74426",
    "city": "Geifertshofen"
  },
  {
    "postcode": "74426",
    "city": "Gerabronn"
  },
  {
    "postcode": "74426",
    "city": "Heilberg"
  },
  {
    "postcode": "74426",
    "city": "Hinterwald"
  },
  {
    "postcode": "74426",
    "city": "Hochbronn"
  },
  {
    "postcode": "74426",
    "city": "Holenstein"
  },
  {
    "postcode": "74426",
    "city": "Imberg"
  },
  {
    "postcode": "74426",
    "city": "Immersberg"
  },
  {
    "postcode": "74426",
    "city": "Kammerstatt"
  },
  {
    "postcode": "74426",
    "city": "Mangoldshausen"
  },
  {
    "postcode": "74426",
    "city": "Röhmen"
  },
  {
    "postcode": "74426",
    "city": "Säghalden"
  },
  {
    "postcode": "74426",
    "city": "Schönbronn"
  },
  {
    "postcode": "74426",
    "city": "Senzenberg"
  },
  {
    "postcode": "74426",
    "city": "Spitzenberg"
  },
  {
    "postcode": "74426",
    "city": "Steinenbühl"
  },
  {
    "postcode": "74426",
    "city": "Trögelsberg"
  },
  {
    "postcode": "74426",
    "city": "Schwäbisch Hall"
  },
  {
    "postcode": "74426",
    "city": "Benzenhof"
  },
  {
    "postcode": "74426",
    "city": "Brunnenhaus"
  },
  {
    "postcode": "74426",
    "city": "Hambacher Mühle"
  },
  {
    "postcode": "74426",
    "city": "Lautenhof"
  },
  {
    "postcode": "74426",
    "city": "Röhmensägmühle"
  },
  {
    "postcode": "74426",
    "city": "Reitenhaus"
  },
  {
    "postcode": "74426",
    "city": "Roßberg"
  },
  {
    "postcode": "74426",
    "city": "Spatzenhof"
  },
  {
    "postcode": "74426",
    "city": "Stockhäusle"
  },
  {
    "postcode": "74426",
    "city": "Teuerzensägmühle"
  },
  {
    "postcode": "74426",
    "city": "Weißenhof"
  },
  {
    "postcode": "74426",
    "city": "Wurzelbühl"
  },
  {
    "postcode": "74426",
    "city": "Wurzelhof"
  },
  {
    "postcode": "74427",
    "city": "Dappach"
  },
  {
    "postcode": "74427",
    "city": "Diebach"
  },
  {
    "postcode": "74427",
    "city": "Erlenhof"
  },
  {
    "postcode": "74427",
    "city": "Fichtenberg"
  },
  {
    "postcode": "74427",
    "city": "Fichtenberg (Württemberg)"
  },
  {
    "postcode": "74427",
    "city": "Gehrhof"
  },
  {
    "postcode": "74427",
    "city": "Hinterlangert"
  },
  {
    "postcode": "74427",
    "city": "Hornberg"
  },
  {
    "postcode": "74427",
    "city": "Michelbächle"
  },
  {
    "postcode": "74427",
    "city": "Mittelrot"
  },
  {
    "postcode": "74427",
    "city": "Plapphof"
  },
  {
    "postcode": "74427",
    "city": "Rauhenzainbach"
  },
  {
    "postcode": "74427",
    "city": "Vorderlangert"
  },
  {
    "postcode": "74427",
    "city": "Schwäbisch Hall"
  },
  {
    "postcode": "74427",
    "city": "Langert"
  },
  {
    "postcode": "74427",
    "city": "Buschhof"
  },
  {
    "postcode": "74427",
    "city": "Kleehaus"
  },
  {
    "postcode": "74427",
    "city": "Kronmühle"
  },
  {
    "postcode": "74427",
    "city": "Retzenhof"
  },
  {
    "postcode": "74427",
    "city": "Reutehaus"
  },
  {
    "postcode": "74427",
    "city": "Rupphof"
  },
  {
    "postcode": "74427",
    "city": "Stöckenhofer Sägmühle"
  },
  {
    "postcode": "74427",
    "city": "Wörbelhöfle"
  },
  {
    "postcode": "74429",
    "city": "Aichenrain"
  },
  {
    "postcode": "74429",
    "city": "Altschmiedelfeld"
  },
  {
    "postcode": "74429",
    "city": "Brünst"
  },
  {
    "postcode": "74429",
    "city": "Eckenberg"
  },
  {
    "postcode": "74429",
    "city": "Grauhöfle"
  },
  {
    "postcode": "74429",
    "city": "Hägeleshöfle"
  },
  {
    "postcode": "74429",
    "city": "Haslach"
  },
  {
    "postcode": "74429",
    "city": "Heerberg"
  },
  {
    "postcode": "74429",
    "city": "Hof"
  },
  {
    "postcode": "74429",
    "city": "Hohenberg"
  },
  {
    "postcode": "74429",
    "city": "Knollenberg"
  },
  {
    "postcode": "74429",
    "city": "Kohlwald"
  },
  {
    "postcode": "74429",
    "city": "Krasberg"
  },
  {
    "postcode": "74429",
    "city": "Laufen"
  },
  {
    "postcode": "74429",
    "city": "Mühlenberg"
  },
  {
    "postcode": "74429",
    "city": "Rübgarten"
  },
  {
    "postcode": "74429",
    "city": "Schönbronn"
  },
  {
    "postcode": "74429",
    "city": "Sulzbach"
  },
  {
    "postcode": "74429",
    "city": "Sulzbach-Laufen"
  },
  {
    "postcode": "74429",
    "city": "Wengen"
  },
  {
    "postcode": "74429",
    "city": "Schwäbisch Hall"
  },
  {
    "postcode": "74429",
    "city": "Altenberg"
  },
  {
    "postcode": "74429",
    "city": "Bayerhöfle"
  },
  {
    "postcode": "74429",
    "city": "Braunhof"
  },
  {
    "postcode": "74429",
    "city": "Egelsbach"
  },
  {
    "postcode": "74429",
    "city": "Eisbach"
  },
  {
    "postcode": "74429",
    "city": "Eisenschmiede"
  },
  {
    "postcode": "74429",
    "city": "Engelsburg"
  },
  {
    "postcode": "74429",
    "city": "Falschengehren"
  },
  {
    "postcode": "74429",
    "city": "Kleinteutschenhof"
  },
  {
    "postcode": "74429",
    "city": "Freihöfle"
  },
  {
    "postcode": "74429",
    "city": "Gottlenshaus"
  },
  {
    "postcode": "74429",
    "city": "Hasenberg"
  },
  {
    "postcode": "74429",
    "city": "Herrenfeld"
  },
  {
    "postcode": "74429",
    "city": "Hochhalden"
  },
  {
    "postcode": "74429",
    "city": "Hohl"
  },
  {
    "postcode": "74429",
    "city": "Hägelesburg"
  },
  {
    "postcode": "74429",
    "city": "Jörgenhaus"
  },
  {
    "postcode": "74429",
    "city": "Jägerhaus"
  },
  {
    "postcode": "74429",
    "city": "Nestelberg"
  },
  {
    "postcode": "74429",
    "city": "Neuhorlachen"
  },
  {
    "postcode": "74429",
    "city": "Ochsenhöfle"
  },
  {
    "postcode": "74429",
    "city": "Ochsenhalde"
  },
  {
    "postcode": "74429",
    "city": "Platz"
  },
  {
    "postcode": "74429",
    "city": "Roßhalden"
  },
  {
    "postcode": "74429",
    "city": "Schaufelhaus"
  },
  {
    "postcode": "74429",
    "city": "Schloßschmiedelfeld"
  },
  {
    "postcode": "74429",
    "city": "Schneckenbusch"
  },
  {
    "postcode": "74429",
    "city": "Steigenhaus"
  },
  {
    "postcode": "74429",
    "city": "Teutschenhof"
  },
  {
    "postcode": "74429",
    "city": "Uhlbach"
  },
  {
    "postcode": "74429",
    "city": "Vogelhöfle"
  },
  {
    "postcode": "74429",
    "city": "Walkmühle"
  },
  {
    "postcode": "74429",
    "city": "Wannenhaus"
  },
  {
    "postcode": "74429",
    "city": "Weiler"
  },
  {
    "postcode": "74429",
    "city": "Weißenhaus"
  },
  {
    "postcode": "74429",
    "city": "Wimbach"
  },
  {
    "postcode": "74523",
    "city": "Altenhausen"
  },
  {
    "postcode": "74523",
    "city": "Anhausen"
  },
  {
    "postcode": "74523",
    "city": "Bibersfeld"
  },
  {
    "postcode": "74523",
    "city": "Buch"
  },
  {
    "postcode": "74523",
    "city": "Bühlerzimmern"
  },
  {
    "postcode": "74523",
    "city": "Dörrenzimmern"
  },
  {
    "postcode": "74523",
    "city": "Eltershofen"
  },
  {
    "postcode": "74523",
    "city": "Erlach"
  },
  {
    "postcode": "74523",
    "city": "Frühlingsberg"
  },
  {
    "postcode": "74523",
    "city": "Gailenkirchen"
  },
  {
    "postcode": "74523",
    "city": "Gelbingen"
  },
  {
    "postcode": "74523",
    "city": "Gottwollshausen"
  },
  {
    "postcode": "74523",
    "city": "Heimbach"
  },
  {
    "postcode": "74523",
    "city": "Hessental"
  },
  {
    "postcode": "74523",
    "city": "Hohenholz"
  },
  {
    "postcode": "74523",
    "city": "Hohenstadt"
  },
  {
    "postcode": "74523",
    "city": "Jagstrot"
  },
  {
    "postcode": "74523",
    "city": "Kleincomburg"
  },
  {
    "postcode": "74523",
    "city": "Matheshörlebach"
  },
  {
    "postcode": "74523",
    "city": "Neuhofen"
  },
  {
    "postcode": "74523",
    "city": "Otterbach"
  },
  {
    "postcode": "74523",
    "city": "Ramsbach"
  },
  {
    "postcode": "74523",
    "city": "Rötenhof"
  },
  {
    "postcode": "74523",
    "city": "Schwäbisch Hall"
  },
  {
    "postcode": "74523",
    "city": "Schwarzenlache"
  },
  {
    "postcode": "74523",
    "city": "Sittenhardt"
  },
  {
    "postcode": "74523",
    "city": "Starkholzbach"
  },
  {
    "postcode": "74523",
    "city": "Steinbach"
  },
  {
    "postcode": "74523",
    "city": "Sülz"
  },
  {
    "postcode": "74523",
    "city": "Sulzdorf"
  },
  {
    "postcode": "74523",
    "city": "Teurershof"
  },
  {
    "postcode": "74523",
    "city": "Tüngental"
  },
  {
    "postcode": "74523",
    "city": "Veinau"
  },
  {
    "postcode": "74523",
    "city": "Wackershofen"
  },
  {
    "postcode": "74523",
    "city": "Weckrieden"
  },
  {
    "postcode": "74523",
    "city": "Wielandsweiler"
  },
  {
    "postcode": "74523",
    "city": "Wolpertsdorf"
  },
  {
    "postcode": "74523",
    "city": "Burgbretzingen"
  },
  {
    "postcode": "74523",
    "city": "Michelbach"
  },
  {
    "postcode": "74523",
    "city": "Scherbenmühle"
  },
  {
    "postcode": "74523",
    "city": "Traubenmühle"
  },
  {
    "postcode": "74523",
    "city": "Michelbach an der Bilz"
  },
  {
    "postcode": "74523",
    "city": "Breitenstein"
  },
  {
    "postcode": "74523",
    "city": "Steigenhaus"
  },
  {
    "postcode": "74523",
    "city": "Baumgarten"
  },
  {
    "postcode": "74523",
    "city": "Buchhof"
  },
  {
    "postcode": "74523",
    "city": "Gipsmühle"
  },
  {
    "postcode": "74523",
    "city": "Gliemenhof"
  },
  {
    "postcode": "74523",
    "city": "Hilbenhof"
  },
  {
    "postcode": "74523",
    "city": "Winterhalde"
  },
  {
    "postcode": "74523",
    "city": "Neunbronn"
  },
  {
    "postcode": "74532",
    "city": "Altenberg"
  },
  {
    "postcode": "74532",
    "city": "Eckartshausen"
  },
  {
    "postcode": "74532",
    "city": "Gaugshausen"
  },
  {
    "postcode": "74532",
    "city": "Großallmerspann"
  },
  {
    "postcode": "74532",
    "city": "Hessenau"
  },
  {
    "postcode": "74532",
    "city": "Ilshofen"
  },
  {
    "postcode": "74532",
    "city": "Kerleweck"
  },
  {
    "postcode": "74532",
    "city": "Leofels"
  },
  {
    "postcode": "74532",
    "city": "Niedersteinach"
  },
  {
    "postcode": "74532",
    "city": "Oberaspach"
  },
  {
    "postcode": "74532",
    "city": "Oberscheffach"
  },
  {
    "postcode": "74532",
    "city": "Oberschmerach"
  },
  {
    "postcode": "74532",
    "city": "Obersteinach"
  },
  {
    "postcode": "74532",
    "city": "Ruppertshofen"
  },
  {
    "postcode": "74532",
    "city": "Sandelsbronn"
  },
  {
    "postcode": "74532",
    "city": "Söllbot"
  },
  {
    "postcode": "74532",
    "city": "Steinbächle"
  },
  {
    "postcode": "74532",
    "city": "Unteraspach"
  },
  {
    "postcode": "74532",
    "city": "Unterschmerach"
  },
  {
    "postcode": "74532",
    "city": "Schwäbisch Hall"
  },
  {
    "postcode": "74532",
    "city": "Landturm"
  },
  {
    "postcode": "74532",
    "city": "Windisch Brachbach"
  },
  {
    "postcode": "74532",
    "city": "Birkhof"
  },
  {
    "postcode": "74532",
    "city": "Großstadel"
  },
  {
    "postcode": "74532",
    "city": "Kleinstadel"
  },
  {
    "postcode": "74532",
    "city": "Klingenhof"
  },
  {
    "postcode": "74532",
    "city": "Lerchenhof"
  },
  {
    "postcode": "74532",
    "city": "Lerchenmühle"
  },
  {
    "postcode": "74535",
    "city": "Ammertsweiler"
  },
  {
    "postcode": "74535",
    "city": "Baad"
  },
  {
    "postcode": "74535",
    "city": "Bäumlesfeld"
  },
  {
    "postcode": "74535",
    "city": "Bubenorbis"
  },
  {
    "postcode": "74535",
    "city": "Dennhof"
  },
  {
    "postcode": "74535",
    "city": "Dürrnast"
  },
  {
    "postcode": "74535",
    "city": "Frohnfalls"
  },
  {
    "postcode": "74535",
    "city": "Gailsbach"
  },
  {
    "postcode": "74535",
    "city": "Geißelhardt"
  },
  {
    "postcode": "74535",
    "city": "Haubühl"
  },
  {
    "postcode": "74535",
    "city": "Hohenegarten"
  },
  {
    "postcode": "74535",
    "city": "Hohenstraßen"
  },
  {
    "postcode": "74535",
    "city": "Hütten"
  },
  {
    "postcode": "74535",
    "city": "Klingenhof"
  },
  {
    "postcode": "74535",
    "city": "Lachweiler"
  },
  {
    "postcode": "74535",
    "city": "Laukenmühle"
  },
  {
    "postcode": "74535",
    "city": "Maibach"
  },
  {
    "postcode": "74535",
    "city": "Mainhardt"
  },
  {
    "postcode": "74535",
    "city": "Mönchsberg"
  },
  {
    "postcode": "74535",
    "city": "Nüßlenshof"
  },
  {
    "postcode": "74535",
    "city": "Riegenhof"
  },
  {
    "postcode": "74535",
    "city": "Schönhardt"
  },
  {
    "postcode": "74535",
    "city": "Steinbrück"
  },
  {
    "postcode": "74535",
    "city": "Storchsnest"
  },
  {
    "postcode": "74535",
    "city": "Streithag"
  },
  {
    "postcode": "74535",
    "city": "Vordermühle"
  },
  {
    "postcode": "74535",
    "city": "Württemberger Hof"
  },
  {
    "postcode": "74535",
    "city": "Ziegelbronn"
  },
  {
    "postcode": "74535",
    "city": "Schwäbisch Hall"
  },
  {
    "postcode": "74535",
    "city": "Eulhof"
  },
  {
    "postcode": "74535",
    "city": "Gögelhof"
  },
  {
    "postcode": "74535",
    "city": "Hammerschmiede"
  },
  {
    "postcode": "74535",
    "city": "Hausenbühl"
  },
  {
    "postcode": "74535",
    "city": "Hegenhäule"
  },
  {
    "postcode": "74535",
    "city": "Klingenhöfle"
  },
  {
    "postcode": "74535",
    "city": "Krebshof"
  },
  {
    "postcode": "74535",
    "city": "Mittelmühle"
  },
  {
    "postcode": "74535",
    "city": "Neusägmühle"
  },
  {
    "postcode": "74535",
    "city": "Römergraben"
  },
  {
    "postcode": "74535",
    "city": "Rösersmühle"
  },
  {
    "postcode": "74535",
    "city": "Rappenhof"
  },
  {
    "postcode": "74535",
    "city": "Schollenhof"
  },
  {
    "postcode": "74535",
    "city": "Stock"
  },
  {
    "postcode": "74535",
    "city": "Waspenhof"
  },
  {
    "postcode": "74535",
    "city": "Zimmerhaus"
  },
  {
    "postcode": "74538",
    "city": "Berghof"
  },
  {
    "postcode": "74538",
    "city": "Dendelbach"
  },
  {
    "postcode": "74538",
    "city": "Raibach"
  },
  {
    "postcode": "74538",
    "city": "Rieden"
  },
  {
    "postcode": "74538",
    "city": "Rosengarten (Württemberg)"
  },
  {
    "postcode": "74538",
    "city": "Rosengarten"
  },
  {
    "postcode": "74538",
    "city": "Sanzenbach"
  },
  {
    "postcode": "74538",
    "city": "Tullau"
  },
  {
    "postcode": "74538",
    "city": "Uttenhofen"
  },
  {
    "postcode": "74538",
    "city": "Vohenstein"
  },
  {
    "postcode": "74538",
    "city": "Westheim"
  },
  {
    "postcode": "74538",
    "city": "Schwäbisch Hall"
  },
  {
    "postcode": "74541",
    "city": "Eschenau"
  },
  {
    "postcode": "74541",
    "city": "Großaltdorf"
  },
  {
    "postcode": "74541",
    "city": "Kleinaltdorf"
  },
  {
    "postcode": "74541",
    "city": "Lorenzenzimmern"
  },
  {
    "postcode": "74541",
    "city": "Merkelbach"
  },
  {
    "postcode": "74541",
    "city": "Schneckenweiler"
  },
  {
    "postcode": "74541",
    "city": "Stöckenburg"
  },
  {
    "postcode": "74541",
    "city": "Talheim"
  },
  {
    "postcode": "74541",
    "city": "Vellberg"
  },
  {
    "postcode": "74541",
    "city": "Schwäbisch Hall"
  },
  {
    "postcode": "74541",
    "city": "Dürrsching"
  },
  {
    "postcode": "74542",
    "city": "Arnsdorf"
  },
  {
    "postcode": "74542",
    "city": "Braunoldswiesen"
  },
  {
    "postcode": "74542",
    "city": "Braunsbach"
  },
  {
    "postcode": "74542",
    "city": "Braunsbach (Württemberg)"
  },
  {
    "postcode": "74542",
    "city": "Döttingen"
  },
  {
    "postcode": "74542",
    "city": "Elzhausen"
  },
  {
    "postcode": "74542",
    "city": "Geislingen"
  },
  {
    "postcode": "74542",
    "city": "Herdtlingshagen"
  },
  {
    "postcode": "74542",
    "city": "Hergershof"
  },
  {
    "postcode": "74542",
    "city": "Jungholzhausen"
  },
  {
    "postcode": "74542",
    "city": "Orlach"
  },
  {
    "postcode": "74542",
    "city": "Reisachshof"
  },
  {
    "postcode": "74542",
    "city": "Rückertsbronn"
  },
  {
    "postcode": "74542",
    "city": "Rückertshausen"
  },
  {
    "postcode": "74542",
    "city": "Sommerberg"
  },
  {
    "postcode": "74542",
    "city": "Steinkirchen"
  },
  {
    "postcode": "74542",
    "city": "Weilersbach"
  },
  {
    "postcode": "74542",
    "city": "Winterberg"
  },
  {
    "postcode": "74542",
    "city": "Zottishofen"
  },
  {
    "postcode": "74542",
    "city": "Schwäbisch Hall"
  },
  {
    "postcode": "74542",
    "city": "Dörrhof"
  },
  {
    "postcode": "74542",
    "city": "Schaalhof"
  },
  {
    "postcode": "74542",
    "city": "Tierberg"
  },
  {
    "postcode": "74544",
    "city": "Buchhorn"
  },
  {
    "postcode": "74544",
    "city": "Gschlachtenbretzingen"
  },
  {
    "postcode": "74544",
    "city": "Hirschfelden"
  },
  {
    "postcode": "74544",
    "city": "Michelbach"
  },
  {
    "postcode": "74544",
    "city": "Michelbach an der Bilz"
  },
  {
    "postcode": "74544",
    "city": "Rauhenbretzingen"
  },
  {
    "postcode": "74544",
    "city": "Wilhelmsglück Bahnhof"
  },
  {
    "postcode": "74544",
    "city": "Wilhelmsglück"
  },
  {
    "postcode": "74544",
    "city": "Schwäbisch Hall"
  },
  {
    "postcode": "74544",
    "city": "Hagenhof"
  },
  {
    "postcode": "74544",
    "city": "Steinbrück"
  },
  {
    "postcode": "74544",
    "city": "Neumühle"
  },
  {
    "postcode": "74544",
    "city": "Ziegelhütte"
  },
  {
    "postcode": "74545",
    "city": "Blindheim"
  },
  {
    "postcode": "74545",
    "city": "Büchelberg"
  },
  {
    "postcode": "74545",
    "city": "Eichholz"
  },
  {
    "postcode": "74545",
    "city": "Erlin"
  },
  {
    "postcode": "74545",
    "city": "Forst"
  },
  {
    "postcode": "74545",
    "city": "Gnadental"
  },
  {
    "postcode": "74545",
    "city": "Hahnenbusch"
  },
  {
    "postcode": "74545",
    "city": "Kiesberg"
  },
  {
    "postcode": "74545",
    "city": "Lemberg"
  },
  {
    "postcode": "74545",
    "city": "Leoweiler"
  },
  {
    "postcode": "74545",
    "city": "Michelfeld"
  },
  {
    "postcode": "74545",
    "city": "Michelfeld (Kreis Schwäbisch Hall)"
  },
  {
    "postcode": "74545",
    "city": "Neunkirchen"
  },
  {
    "postcode": "74545",
    "city": "Rinnen"
  },
  {
    "postcode": "74545",
    "city": "Schöpperg"
  },
  {
    "postcode": "74545",
    "city": "Wagrain"
  },
  {
    "postcode": "74545",
    "city": "Winterrain"
  },
  {
    "postcode": "74545",
    "city": "Witzmannsweiler"
  },
  {
    "postcode": "74545",
    "city": "Schwäbisch Hall"
  },
  {
    "postcode": "74545",
    "city": "Hinterziegelhalden"
  },
  {
    "postcode": "74545",
    "city": "Baierbach"
  },
  {
    "postcode": "74545",
    "city": "Baumgarten"
  },
  {
    "postcode": "74545",
    "city": "Buchernhof"
  },
  {
    "postcode": "74545",
    "city": "Bürkhof"
  },
  {
    "postcode": "74545",
    "city": "Eichelberg"
  },
  {
    "postcode": "74545",
    "city": "Hinterschöpperg"
  },
  {
    "postcode": "74545",
    "city": "Kleineichholz"
  },
  {
    "postcode": "74545",
    "city": "Koppelinshof"
  },
  {
    "postcode": "74545",
    "city": "Landturm"
  },
  {
    "postcode": "74545",
    "city": "Lemberghaus"
  },
  {
    "postcode": "74545",
    "city": "Lindachshof"
  },
  {
    "postcode": "74545",
    "city": "Messersmühle"
  },
  {
    "postcode": "74545",
    "city": "Mittelschöpperg"
  },
  {
    "postcode": "74545",
    "city": "Molkenstein"
  },
  {
    "postcode": "74545",
    "city": "Rote Steige"
  },
  {
    "postcode": "74545",
    "city": "Vorderschöpperg"
  },
  {
    "postcode": "74545",
    "city": "Vorderziegelhalden"
  },
  {
    "postcode": "74547",
    "city": "Brachbach"
  },
  {
    "postcode": "74547",
    "city": "Enslingen"
  },
  {
    "postcode": "74547",
    "city": "Gaisdorf"
  },
  {
    "postcode": "74547",
    "city": "Haagen"
  },
  {
    "postcode": "74547",
    "city": "Kupfer"
  },
  {
    "postcode": "74547",
    "city": "Leipoldsweiler"
  },
  {
    "postcode": "74547",
    "city": "Obermünkheim"
  },
  {
    "postcode": "74547",
    "city": "Schönenberg"
  },
  {
    "postcode": "74547",
    "city": "Steigenhaus"
  },
  {
    "postcode": "74547",
    "city": "Suhlburg"
  },
  {
    "postcode": "74547",
    "city": "Übrigshausen"
  },
  {
    "postcode": "74547",
    "city": "Untermünkheim"
  },
  {
    "postcode": "74547",
    "city": "Wittighausen"
  },
  {
    "postcode": "74547",
    "city": "Schwäbisch Hall"
  },
  {
    "postcode": "74547",
    "city": "Eichelhof"
  },
  {
    "postcode": "74547",
    "city": "Lindenhof"
  },
  {
    "postcode": "74549",
    "city": "Cröffelbach"
  },
  {
    "postcode": "74549",
    "city": "Haßfelden"
  },
  {
    "postcode": "74549",
    "city": "Hohenberg"
  },
  {
    "postcode": "74549",
    "city": "Hopfach"
  },
  {
    "postcode": "74549",
    "city": "Hörlebach"
  },
  {
    "postcode": "74549",
    "city": "Reinsberg"
  },
  {
    "postcode": "74549",
    "city": "Rudelsdorf"
  },
  {
    "postcode": "74549",
    "city": "Unterscheffach"
  },
  {
    "postcode": "74549",
    "city": "Wolpertshausen"
  },
  {
    "postcode": "74549",
    "city": "Schwäbisch Hall"
  },
  {
    "postcode": "74549",
    "city": "Heide"
  },
  {
    "postcode": "74564",
    "city": "Alexandersreut"
  },
  {
    "postcode": "74564",
    "city": "Auhof bei Crailsheim"
  },
  {
    "postcode": "74564",
    "city": "Beuerlbach"
  },
  {
    "postcode": "74564",
    "city": "Crailsheim"
  },
  {
    "postcode": "74564",
    "city": "Eichelberg"
  },
  {
    "postcode": "74564",
    "city": "Goldbach"
  },
  {
    "postcode": "74564",
    "city": "Hagenhof"
  },
  {
    "postcode": "74564",
    "city": "Heinkenbusch"
  },
  {
    "postcode": "74564",
    "city": "Jagstheim"
  },
  {
    "postcode": "74564",
    "city": "Lohr"
  },
  {
    "postcode": "74564",
    "city": "Maulach"
  },
  {
    "postcode": "74564",
    "city": "Ofenbach"
  },
  {
    "postcode": "74564",
    "city": "Onolzheim"
  },
  {
    "postcode": "74564",
    "city": "Oßhalden"
  },
  {
    "postcode": "74564",
    "city": "Roßfeld"
  },
  {
    "postcode": "74564",
    "city": "Rüddern"
  },
  {
    "postcode": "74564",
    "city": "Saurach"
  },
  {
    "postcode": "74564",
    "city": "Schüttberg"
  },
  {
    "postcode": "74564",
    "city": "Tiefenbach"
  },
  {
    "postcode": "74564",
    "city": "Triensbach"
  },
  {
    "postcode": "74564",
    "city": "Wegses"
  },
  {
    "postcode": "74564",
    "city": "Westgartshausen"
  },
  {
    "postcode": "74564",
    "city": "Wittau"
  },
  {
    "postcode": "74564",
    "city": "Wollmershausen"
  },
  {
    "postcode": "74564",
    "city": "Schwäbisch Hall"
  },
  {
    "postcode": "74564",
    "city": "Auhof"
  },
  {
    "postcode": "74564",
    "city": "Heldenmühle"
  },
  {
    "postcode": "74564",
    "city": "Schummhof"
  },
  {
    "postcode": "74564",
    "city": "Burgberg"
  },
  {
    "postcode": "74564",
    "city": "Ölhaus"
  },
  {
    "postcode": "74564",
    "city": "Ingersheim"
  },
  {
    "postcode": "74564",
    "city": "Weidenhausen"
  },
  {
    "postcode": "74572",
    "city": "Alkertshausen"
  },
  {
    "postcode": "74572",
    "city": "Billingsbach"
  },
  {
    "postcode": "74572",
    "city": "Blaubach"
  },
  {
    "postcode": "74572",
    "city": "Blaufelden"
  },
  {
    "postcode": "74572",
    "city": "Brüchlingen"
  },
  {
    "postcode": "74572",
    "city": "Ehringshausen"
  },
  {
    "postcode": "74572",
    "city": "Emmertsbühl"
  },
  {
    "postcode": "74572",
    "city": "Engelhardshausen"
  },
  {
    "postcode": "74572",
    "city": "Erpfersweiler"
  },
  {
    "postcode": "74572",
    "city": "Gammesfeld"
  },
  {
    "postcode": "74572",
    "city": "Herrentierbach"
  },
  {
    "postcode": "74572",
    "city": "Heufelwinden"
  },
  {
    "postcode": "74572",
    "city": "Kottmannsweiler"
  },
  {
    "postcode": "74572",
    "city": "Lentersweiler"
  },
  {
    "postcode": "74572",
    "city": "Metzholz"
  },
  {
    "postcode": "74572",
    "city": "Mittelbach"
  },
  {
    "postcode": "74572",
    "city": "Naicha"
  },
  {
    "postcode": "74572",
    "city": "Niederweiler"
  },
  {
    "postcode": "74572",
    "city": "Raboldshausen"
  },
  {
    "postcode": "74572",
    "city": "Saalbach"
  },
  {
    "postcode": "74572",
    "city": "Simmetshausen"
  },
  {
    "postcode": "74572",
    "city": "Wiesenbach"
  },
  {
    "postcode": "74572",
    "city": "Wittenweiler"
  },
  {
    "postcode": "74572",
    "city": "Schwäbisch Hall"
  },
  {
    "postcode": "74572",
    "city": "Geroldshausen"
  },
  {
    "postcode": "74572",
    "city": "Schuckhof"
  },
  {
    "postcode": "74575",
    "city": "Bartenstein"
  },
  {
    "postcode": "74575",
    "city": "Böhmweiler"
  },
  {
    "postcode": "74575",
    "city": "Bossendorf"
  },
  {
    "postcode": "74575",
    "city": "Bovenzenweiler"
  },
  {
    "postcode": "74575",
    "city": "Eichholz"
  },
  {
    "postcode": "74575",
    "city": "Eichswiesen"
  },
  {
    "postcode": "74575",
    "city": "Enzenweiler"
  },
  {
    "postcode": "74575",
    "city": "Ettenhausen"
  },
  {
    "postcode": "74575",
    "city": "Funkstatt"
  },
  {
    "postcode": "74575",
    "city": "Ganertshausen"
  },
  {
    "postcode": "74575",
    "city": "Gemmhagen"
  },
  {
    "postcode": "74575",
    "city": "Großbärenweiler"
  },
  {
    "postcode": "74575",
    "city": "Gütbach"
  },
  {
    "postcode": "74575",
    "city": "Hechelein"
  },
  {
    "postcode": "74575",
    "city": "Heiligenbronn"
  },
  {
    "postcode": "74575",
    "city": "Heuchlingen"
  },
  {
    "postcode": "74575",
    "city": "Hirschbronn"
  },
  {
    "postcode": "74575",
    "city": "Hornungshof"
  },
  {
    "postcode": "74575",
    "city": "Hummertsweiler"
  },
  {
    "postcode": "74575",
    "city": "Kälberbach"
  },
  {
    "postcode": "74575",
    "city": "Kleinbärenweiler"
  },
  {
    "postcode": "74575",
    "city": "Klopfhof"
  },
  {
    "postcode": "74575",
    "city": "Könbronn"
  },
  {
    "postcode": "74575",
    "city": "Krailshausen"
  },
  {
    "postcode": "74575",
    "city": "Kreuzfeld"
  },
  {
    "postcode": "74575",
    "city": "Leuzendorf"
  },
  {
    "postcode": "74575",
    "city": "Lindlein"
  },
  {
    "postcode": "74575",
    "city": "Mäusberg"
  },
  {
    "postcode": "74575",
    "city": "Obereichenrot"
  },
  {
    "postcode": "74575",
    "city": "Reichertswiesen"
  },
  {
    "postcode": "74575",
    "city": "Reupoldsrot"
  },
  {
    "postcode": "74575",
    "city": "Riedbach"
  },
  {
    "postcode": "74575",
    "city": "Schmalfelden"
  },
  {
    "postcode": "74575",
    "city": "Schrozberg"
  },
  {
    "postcode": "74575",
    "city": "Sigisweiler"
  },
  {
    "postcode": "74575",
    "city": "Speckheim"
  },
  {
    "postcode": "74575",
    "city": "Spielbach"
  },
  {
    "postcode": "74575",
    "city": "Spindelbach"
  },
  {
    "postcode": "74575",
    "city": "Standorf"
  },
  {
    "postcode": "74575",
    "city": "Untereichenrot"
  },
  {
    "postcode": "74575",
    "city": "Wittmersklingen"
  },
  {
    "postcode": "74575",
    "city": "Wolfskreut"
  },
  {
    "postcode": "74575",
    "city": "Zell"
  },
  {
    "postcode": "74575",
    "city": "Schwäbisch Hall"
  },
  {
    "postcode": "74575",
    "city": "Neukreut"
  },
  {
    "postcode": "74575",
    "city": "Oberloh"
  },
  {
    "postcode": "74575",
    "city": "Schöngras"
  },
  {
    "postcode": "74575",
    "city": "Windisch-Bockenfeld"
  },
  {
    "postcode": "74579",
    "city": "Bernhardsweiler"
  },
  {
    "postcode": "74579",
    "city": "Buckenweiler"
  },
  {
    "postcode": "74579",
    "city": "Fichtenau"
  },
  {
    "postcode": "74579",
    "city": "Fichtenhof"
  },
  {
    "postcode": "74579",
    "city": "Finkenberg bei Fichtenau"
  },
  {
    "postcode": "74579",
    "city": "Großenhub"
  },
  {
    "postcode": "74579",
    "city": "Gunzach"
  },
  {
    "postcode": "74579",
    "city": "Krettenbach"
  },
  {
    "postcode": "74579",
    "city": "Lautenbach"
  },
  {
    "postcode": "74579",
    "city": "Matzenbach"
  },
  {
    "postcode": "74579",
    "city": "Neustädtlein"
  },
  {
    "postcode": "74579",
    "city": "Oberdeufstetten"
  },
  {
    "postcode": "74579",
    "city": "Rötlein"
  },
  {
    "postcode": "74579",
    "city": "Unterdeufstetten"
  },
  {
    "postcode": "74579",
    "city": "Wäldershub"
  },
  {
    "postcode": "74579",
    "city": "Wildenstein"
  },
  {
    "postcode": "74579",
    "city": "Schwäbisch Hall"
  },
  {
    "postcode": "74579",
    "city": "Buchmühle"
  },
  {
    "postcode": "74579",
    "city": "Finkenberg"
  },
  {
    "postcode": "74579",
    "city": "Finkenhaus"
  },
  {
    "postcode": "74579",
    "city": "Hahnenmühle"
  },
  {
    "postcode": "74579",
    "city": "Jagstzell"
  },
  {
    "postcode": "74579",
    "city": "Neumühle"
  },
  {
    "postcode": "74579",
    "city": "Ratzensägmühle"
  },
  {
    "postcode": "74579",
    "city": "Birkenhof"
  },
  {
    "postcode": "74579",
    "city": "Felsenmühle"
  },
  {
    "postcode": "74579",
    "city": "Hahnenberg"
  },
  {
    "postcode": "74579",
    "city": "Hammermühle"
  },
  {
    "postcode": "74579",
    "city": "Melbersmühle"
  },
  {
    "postcode": "74579",
    "city": "Schönblick"
  },
  {
    "postcode": "74579",
    "city": "Kellerhaus"
  },
  {
    "postcode": "74579",
    "city": "Ölmühle"
  },
  {
    "postcode": "74579",
    "city": "Spitzenmühle"
  },
  {
    "postcode": "74579",
    "city": "Völkermühle"
  },
  {
    "postcode": "74579",
    "city": "Vorstadt"
  },
  {
    "postcode": "74579",
    "city": "Zankhof"
  },
  {
    "postcode": "74579",
    "city": "Ziegelhütte"
  },
  {
    "postcode": "74582",
    "city": "Amlishagen"
  },
  {
    "postcode": "74582",
    "city": "Binselberg"
  },
  {
    "postcode": "74582",
    "city": "Bügenstegen"
  },
  {
    "postcode": "74582",
    "city": "Dünsbach"
  },
  {
    "postcode": "74582",
    "city": "Elpershofen"
  },
  {
    "postcode": "74582",
    "city": "Gerabronn"
  },
  {
    "postcode": "74582",
    "city": "Gerabronn (Württemberg)"
  },
  {
    "postcode": "74582",
    "city": "Großforst"
  },
  {
    "postcode": "74582",
    "city": "Kleinforst"
  },
  {
    "postcode": "74582",
    "city": "Liebesdorf"
  },
  {
    "postcode": "74582",
    "city": "Michelbach an der Heide"
  },
  {
    "postcode": "74582",
    "city": "Oberweiler"
  },
  {
    "postcode": "74582",
    "city": "Rechenhausen"
  },
  {
    "postcode": "74582",
    "city": "Rückershagen"
  },
  {
    "postcode": "74582",
    "city": "Seibotenberg"
  },
  {
    "postcode": "74582",
    "city": "Unterweiler"
  },
  {
    "postcode": "74582",
    "city": "Schwäbisch Hall"
  },
  {
    "postcode": "74582",
    "city": "Brettachhöhe"
  },
  {
    "postcode": "74582",
    "city": "Hubertushof"
  },
  {
    "postcode": "74582",
    "city": "Holderhof"
  },
  {
    "postcode": "74582",
    "city": "Kupferhof"
  },
  {
    "postcode": "74582",
    "city": "Morstein"
  },
  {
    "postcode": "74585",
    "city": "Beimbach"
  },
  {
    "postcode": "74585",
    "city": "Bemberg"
  },
  {
    "postcode": "74585",
    "city": "Brettenfeld"
  },
  {
    "postcode": "74585",
    "city": "Brettheim"
  },
  {
    "postcode": "74585",
    "city": "Hausen"
  },
  {
    "postcode": "74585",
    "city": "Hegenau"
  },
  {
    "postcode": "74585",
    "city": "Herbertshausen"
  },
  {
    "postcode": "74585",
    "city": "Heroldhausen"
  },
  {
    "postcode": "74585",
    "city": "Hertershofen"
  },
  {
    "postcode": "74585",
    "city": "Hilgartshausen"
  },
  {
    "postcode": "74585",
    "city": "Kleinansbach"
  },
  {
    "postcode": "74585",
    "city": "Kleinbrettheim"
  },
  {
    "postcode": "74585",
    "city": "Kühnhard"
  },
  {
    "postcode": "74585",
    "city": "Lenkerstetten"
  },
  {
    "postcode": "74585",
    "city": "Musdorf"
  },
  {
    "postcode": "74585",
    "city": "Niederwinden"
  },
  {
    "postcode": "74585",
    "city": "Oberndorf"
  },
  {
    "postcode": "74585",
    "city": "Oberwinden"
  },
  {
    "postcode": "74585",
    "city": "Reinsbürg"
  },
  {
    "postcode": "74585",
    "city": "Reubach"
  },
  {
    "postcode": "74585",
    "city": "Rot am See"
  },
  {
    "postcode": "74585",
    "city": "Weikersholz"
  },
  {
    "postcode": "74585",
    "city": "Schwäbisch Hall"
  },
  {
    "postcode": "74585",
    "city": "Horschhof"
  },
  {
    "postcode": "74585",
    "city": "Hausen am Bach"
  },
  {
    "postcode": "74585",
    "city": "Buch"
  },
  {
    "postcode": "74585",
    "city": "Werdeck"
  },
  {
    "postcode": "74586",
    "city": "Altenfelden"
  },
  {
    "postcode": "74586",
    "city": "Banzenweiler"
  },
  {
    "postcode": "74586",
    "city": "Bechhof"
  },
  {
    "postcode": "74586",
    "city": "Birkhof"
  },
  {
    "postcode": "74586",
    "city": "Bonolzhof"
  },
  {
    "postcode": "74586",
    "city": "Brunzenberg"
  },
  {
    "postcode": "74586",
    "city": "Frankenhardt"
  },
  {
    "postcode": "74586",
    "city": "Gründelhardt"
  },
  {
    "postcode": "74586",
    "city": "Hellmannshofen"
  },
  {
    "postcode": "74586",
    "city": "Hinteruhlberg"
  },
  {
    "postcode": "74586",
    "city": "Hirschhof"
  },
  {
    "postcode": "74586",
    "city": "Honhardt"
  },
  {
    "postcode": "74586",
    "city": "Ipshof"
  },
  {
    "postcode": "74586",
    "city": "Mainkling"
  },
  {
    "postcode": "74586",
    "city": "Markertshofen"
  },
  {
    "postcode": "74586",
    "city": "Neuhaus"
  },
  {
    "postcode": "74586",
    "city": "Oberspeltach"
  },
  {
    "postcode": "74586",
    "city": "Reishof"
  },
  {
    "postcode": "74586",
    "city": "Sandhof"
  },
  {
    "postcode": "74586",
    "city": "Spaichbühl"
  },
  {
    "postcode": "74586",
    "city": "Steinehaig"
  },
  {
    "postcode": "74586",
    "city": "Stetten"
  },
  {
    "postcode": "74586",
    "city": "Unterspeltach"
  },
  {
    "postcode": "74586",
    "city": "Vorderuhlberg"
  },
  {
    "postcode": "74586",
    "city": "Waldbuch"
  },
  {
    "postcode": "74586",
    "city": "Zum Wagner"
  },
  {
    "postcode": "74586",
    "city": "Schwäbisch Hall"
  },
  {
    "postcode": "74586",
    "city": "Appensee"
  },
  {
    "postcode": "74586",
    "city": "Belzhof"
  },
  {
    "postcode": "74586",
    "city": "Betzenmühle"
  },
  {
    "postcode": "74586",
    "city": "Eckarrot"
  },
  {
    "postcode": "74586",
    "city": "Fichtenhaus"
  },
  {
    "postcode": "74586",
    "city": "Fleckenbachsägmühle"
  },
  {
    "postcode": "74586",
    "city": "Gauchshausen"
  },
  {
    "postcode": "74586",
    "city": "Grunbachsägmühle"
  },
  {
    "postcode": "74586",
    "city": "Henkensägmühle"
  },
  {
    "postcode": "74586",
    "city": "Steinbach an der Jagst"
  },
  {
    "postcode": "74586",
    "city": "Reifenhof"
  },
  {
    "postcode": "74586",
    "city": "Reifensägmühle"
  },
  {
    "postcode": "74586",
    "city": "Tiefensägmühle"
  },
  {
    "postcode": "74589",
    "city": "Beeghof"
  },
  {
    "postcode": "74589",
    "city": "Birkelbach"
  },
  {
    "postcode": "74589",
    "city": "Bölgental"
  },
  {
    "postcode": "74589",
    "city": "Bronnholzheim"
  },
  {
    "postcode": "74589",
    "city": "Burleswagen"
  },
  {
    "postcode": "74589",
    "city": "Ellrichshausen"
  },
  {
    "postcode": "74589",
    "city": "Gersbach"
  },
  {
    "postcode": "74589",
    "city": "Gröningen"
  },
  {
    "postcode": "74589",
    "city": "Helmshofen"
  },
  {
    "postcode": "74589",
    "city": "Horschhausen"
  },
  {
    "postcode": "74589",
    "city": "Neidenfels"
  },
  {
    "postcode": "74589",
    "city": "Rockhalden"
  },
  {
    "postcode": "74589",
    "city": "Satteldorf"
  },
  {
    "postcode": "74589",
    "city": "Sattelweiler"
  },
  {
    "postcode": "74589",
    "city": "Schleehardshof"
  },
  {
    "postcode": "74589",
    "city": "Simonsberg"
  },
  {
    "postcode": "74589",
    "city": "Triftshausen"
  },
  {
    "postcode": "74589",
    "city": "Volkershausen"
  },
  {
    "postcode": "74589",
    "city": "Schwäbisch Hall"
  },
  {
    "postcode": "74589",
    "city": "Barenhaldenmühle"
  },
  {
    "postcode": "74589",
    "city": "Kernmühle"
  },
  {
    "postcode": "74589",
    "city": "Neumühle"
  },
  {
    "postcode": "74592",
    "city": "Diembot"
  },
  {
    "postcode": "74592",
    "city": "Dörrmenz"
  },
  {
    "postcode": "74592",
    "city": "Eichenau"
  },
  {
    "postcode": "74592",
    "city": "Gaggstatt"
  },
  {
    "postcode": "74592",
    "city": "Herboldshausen"
  },
  {
    "postcode": "74592",
    "city": "Hornberg"
  },
  {
    "postcode": "74592",
    "city": "Kirchberg"
  },
  {
    "postcode": "74592",
    "city": "Kirchberg an der Jagst"
  },
  {
    "postcode": "74592",
    "city": "Kleinallmerspann"
  },
  {
    "postcode": "74592",
    "city": "Lendsiedel"
  },
  {
    "postcode": "74592",
    "city": "Lobenhausen"
  },
  {
    "postcode": "74592",
    "city": "Mistlau"
  },
  {
    "postcode": "74592",
    "city": "Sommerhof"
  },
  {
    "postcode": "74592",
    "city": "Weckelweiler"
  },
  {
    "postcode": "74592",
    "city": "Schwäbisch Hall"
  },
  {
    "postcode": "74592",
    "city": "Wallhausen"
  },
  {
    "postcode": "74594",
    "city": "Asbach"
  },
  {
    "postcode": "74594",
    "city": "Bergbronn"
  },
  {
    "postcode": "74594",
    "city": "Bergertshofen"
  },
  {
    "postcode": "74594",
    "city": "Bräunersberg"
  },
  {
    "postcode": "74594",
    "city": "Gaisbühl"
  },
  {
    "postcode": "74594",
    "city": "Gumpenweiler bei Kreßberg"
  },
  {
    "postcode": "74594",
    "city": "Halden"
  },
  {
    "postcode": "74594",
    "city": "Haselhof"
  },
  {
    "postcode": "74594",
    "city": "Hohenberg"
  },
  {
    "postcode": "74594",
    "city": "Kreßberg"
  },
  {
    "postcode": "74594",
    "city": "Leukershausen"
  },
  {
    "postcode": "74594",
    "city": "Mariäkappel"
  },
  {
    "postcode": "74594",
    "city": "Marktlustenau"
  },
  {
    "postcode": "74594",
    "city": "Mistlau"
  },
  {
    "postcode": "74594",
    "city": "Oberstelzhausen"
  },
  {
    "postcode": "74594",
    "city": "Riegelbach"
  },
  {
    "postcode": "74594",
    "city": "Rötsweiler"
  },
  {
    "postcode": "74594",
    "city": "Rudolfsberg"
  },
  {
    "postcode": "74594",
    "city": "Ruppersbach"
  },
  {
    "postcode": "74594",
    "city": "Schönbronn"
  },
  {
    "postcode": "74594",
    "city": "Schwarzenhorb"
  },
  {
    "postcode": "74594",
    "city": "Selgenstadt"
  },
  {
    "postcode": "74594",
    "city": "Tempelhof"
  },
  {
    "postcode": "74594",
    "city": "Unterstelzhausen"
  },
  {
    "postcode": "74594",
    "city": "Vehlenberg"
  },
  {
    "postcode": "74594",
    "city": "Waidmannsberg"
  },
  {
    "postcode": "74594",
    "city": "Waldtann"
  },
  {
    "postcode": "74594",
    "city": "Wüstenau"
  },
  {
    "postcode": "74594",
    "city": "Schwäbisch Hall"
  },
  {
    "postcode": "74594",
    "city": "Gumpenweiler"
  },
  {
    "postcode": "74594",
    "city": "Hohenkreßberg"
  },
  {
    "postcode": "74594",
    "city": "Schönmühle"
  },
  {
    "postcode": "74594",
    "city": "Neuhaus"
  },
  {
    "postcode": "74594",
    "city": "Rotmühle"
  },
  {
    "postcode": "74594",
    "city": "Stegenhof"
  },
  {
    "postcode": "74594",
    "city": "Vötschenhof"
  },
  {
    "postcode": "74595",
    "city": "Atzenrod"
  },
  {
    "postcode": "74595",
    "city": "Bächlingen"
  },
  {
    "postcode": "74595",
    "city": "Hürden"
  },
  {
    "postcode": "74595",
    "city": "Langenburg"
  },
  {
    "postcode": "74595",
    "city": "Langenburg (Württemberg)"
  },
  {
    "postcode": "74595",
    "city": "Ludwigsruhe"
  },
  {
    "postcode": "74595",
    "city": "Nesselbach"
  },
  {
    "postcode": "74595",
    "city": "Oberregenbach"
  },
  {
    "postcode": "74595",
    "city": "Unterregenbach"
  },
  {
    "postcode": "74595",
    "city": "Schwäbisch Hall"
  },
  {
    "postcode": "74595",
    "city": "Neuhof"
  },
  {
    "postcode": "74595",
    "city": "Großhürden"
  },
  {
    "postcode": "74595",
    "city": "Kleinhürden"
  },
  {
    "postcode": "74597",
    "city": "Appensee"
  },
  {
    "postcode": "74597",
    "city": "Bautzenhof"
  },
  {
    "postcode": "74597",
    "city": "Connenweiler"
  },
  {
    "postcode": "74597",
    "city": "Eckarrot"
  },
  {
    "postcode": "74597",
    "city": "Eichishof"
  },
  {
    "postcode": "74597",
    "city": "Gerbertshofen"
  },
  {
    "postcode": "74597",
    "city": "Hörbühl"
  },
  {
    "postcode": "74597",
    "city": "Hübnershof"
  },
  {
    "postcode": "74597",
    "city": "Käsbach"
  },
  {
    "postcode": "74597",
    "city": "Kreßbronn"
  },
  {
    "postcode": "74597",
    "city": "Nestleinsberg"
  },
  {
    "postcode": "74597",
    "city": "Rechenberg"
  },
  {
    "postcode": "74597",
    "city": "Riegersheim"
  },
  {
    "postcode": "74597",
    "city": "Siglershofen"
  },
  {
    "postcode": "74597",
    "city": "Steinbach am Wald"
  },
  {
    "postcode": "74597",
    "city": "Stimpfach"
  },
  {
    "postcode": "74597",
    "city": "Weipertshofen"
  },
  {
    "postcode": "74597",
    "city": "Schwäbisch Hall"
  },
  {
    "postcode": "74597",
    "city": "Eulenmühle"
  },
  {
    "postcode": "74597",
    "city": "Mittelmühle"
  },
  {
    "postcode": "74597",
    "city": "Blindhof"
  },
  {
    "postcode": "74597",
    "city": "Randenweiler"
  },
  {
    "postcode": "74597",
    "city": "Eichissägmühle"
  },
  {
    "postcode": "74597",
    "city": "Streitberg"
  },
  {
    "postcode": "74597",
    "city": "Hochbronn"
  },
  {
    "postcode": "74597",
    "city": "Klinglesmühle"
  },
  {
    "postcode": "74597",
    "city": "Lixhof"
  },
  {
    "postcode": "74597",
    "city": "Sixenmühle"
  },
  {
    "postcode": "74599",
    "city": "Asbach"
  },
  {
    "postcode": "74599",
    "city": "Hengstfeld"
  },
  {
    "postcode": "74599",
    "city": "Limbach"
  },
  {
    "postcode": "74599",
    "city": "Michelbach an der Lücke"
  },
  {
    "postcode": "74599",
    "city": "Roßbürg"
  },
  {
    "postcode": "74599",
    "city": "Schainbach"
  },
  {
    "postcode": "74599",
    "city": "Schönbronn"
  },
  {
    "postcode": "74599",
    "city": "Wallhausen"
  },
  {
    "postcode": "74599",
    "city": "Wallhausen (Württemberg)"
  },
  {
    "postcode": "74599",
    "city": "Schwäbisch Hall"
  },
  {
    "postcode": "74613",
    "city": "Baumerlenbach"
  },
  {
    "postcode": "74613",
    "city": "Büttelbronn"
  },
  {
    "postcode": "74613",
    "city": "Cappel"
  },
  {
    "postcode": "74613",
    "city": "Eckartsweiler"
  },
  {
    "postcode": "74613",
    "city": "Hornberg"
  },
  {
    "postcode": "74613",
    "city": "Michelbach"
  },
  {
    "postcode": "74613",
    "city": "Möglingen"
  },
  {
    "postcode": "74613",
    "city": "Möhrig"
  },
  {
    "postcode": "74613",
    "city": "Obermaßholderbach"
  },
  {
    "postcode": "74613",
    "city": "Öhringen"
  },
  {
    "postcode": "74613",
    "city": "Ohrnberg"
  },
  {
    "postcode": "74613",
    "city": "Platzhof"
  },
  {
    "postcode": "74613",
    "city": "Schwöllbronn"
  },
  {
    "postcode": "74613",
    "city": "Untermaßholderbach"
  },
  {
    "postcode": "74613",
    "city": "Unterohrn"
  },
  {
    "postcode": "74613",
    "city": "Untersöllbach"
  },
  {
    "postcode": "74613",
    "city": "Verrenberg"
  },
  {
    "postcode": "74613",
    "city": "Waldhöfe"
  },
  {
    "postcode": "74613",
    "city": "Weinsbach"
  },
  {
    "postcode": "74613",
    "city": "Hohenlohekreis"
  },
  {
    "postcode": "74626",
    "city": "Adolzfurt"
  },
  {
    "postcode": "74626",
    "city": "Bitzfeld"
  },
  {
    "postcode": "74626",
    "city": "Brettach"
  },
  {
    "postcode": "74626",
    "city": "Bretzfeld"
  },
  {
    "postcode": "74626",
    "city": "Dimbach"
  },
  {
    "postcode": "74626",
    "city": "Geddelsbach"
  },
  {
    "postcode": "74626",
    "city": "Hahnenbusch"
  },
  {
    "postcode": "74626",
    "city": "Hälden Gemeinde Adolzfurt"
  },
  {
    "postcode": "74626",
    "city": "Hälden"
  },
  {
    "postcode": "74626",
    "city": "Herrenhölzle"
  },
  {
    "postcode": "74626",
    "city": "Hohenacker"
  },
  {
    "postcode": "74626",
    "city": "Rappach"
  },
  {
    "postcode": "74626",
    "city": "Scheppach"
  },
  {
    "postcode": "74626",
    "city": "Schwabbach"
  },
  {
    "postcode": "74626",
    "city": "Siebeneich"
  },
  {
    "postcode": "74626",
    "city": "Unterheimbach"
  },
  {
    "postcode": "74626",
    "city": "Waldbach"
  },
  {
    "postcode": "74626",
    "city": "Weißlensburg"
  },
  {
    "postcode": "74626",
    "city": "Wiesental"
  },
  {
    "postcode": "74626",
    "city": "Hohenlohekreis"
  },
  {
    "postcode": "74629",
    "city": "Baierbach"
  },
  {
    "postcode": "74629",
    "city": "Beingasse"
  },
  {
    "postcode": "74629",
    "city": "Buchhorn"
  },
  {
    "postcode": "74629",
    "city": "Bühl"
  },
  {
    "postcode": "74629",
    "city": "Floßholz"
  },
  {
    "postcode": "74629",
    "city": "Griet"
  },
  {
    "postcode": "74629",
    "city": "Harsberg"
  },
  {
    "postcode": "74629",
    "city": "Heuberg"
  },
  {
    "postcode": "74629",
    "city": "Heuholz"
  },
  {
    "postcode": "74629",
    "city": "Hinterespig"
  },
  {
    "postcode": "74629",
    "city": "Klingenhof"
  },
  {
    "postcode": "74629",
    "city": "Lindelberg"
  },
  {
    "postcode": "74629",
    "city": "Mittelsteinbach"
  },
  {
    "postcode": "74629",
    "city": "Obergleichen"
  },
  {
    "postcode": "74629",
    "city": "Oberhöfen"
  },
  {
    "postcode": "74629",
    "city": "Oberohrn"
  },
  {
    "postcode": "74629",
    "city": "Ohnholz"
  },
  {
    "postcode": "74629",
    "city": "Pfedelbach"
  },
  {
    "postcode": "74629",
    "city": "Renzen"
  },
  {
    "postcode": "74629",
    "city": "Schuppach"
  },
  {
    "postcode": "74629",
    "city": "Stöckig"
  },
  {
    "postcode": "74629",
    "city": "Untergleichen"
  },
  {
    "postcode": "74629",
    "city": "Unterhöfen"
  },
  {
    "postcode": "74629",
    "city": "Untersteinbach"
  },
  {
    "postcode": "74629",
    "city": "Vorderespig"
  },
  {
    "postcode": "74629",
    "city": "Windischenbach"
  },
  {
    "postcode": "74629",
    "city": "Hohenlohekreis"
  },
  {
    "postcode": "74629",
    "city": "Gleichen"
  },
  {
    "postcode": "74629",
    "city": "Altrenzen"
  },
  {
    "postcode": "74629",
    "city": "Braunenberg"
  },
  {
    "postcode": "74629",
    "city": "Burghof"
  },
  {
    "postcode": "74629",
    "city": "Eichhornshof"
  },
  {
    "postcode": "74629",
    "city": "Gänsberg"
  },
  {
    "postcode": "74629",
    "city": "Hasenberg"
  },
  {
    "postcode": "74629",
    "city": "Heimaten"
  },
  {
    "postcode": "74629",
    "city": "Herbenberg"
  },
  {
    "postcode": "74629",
    "city": "Kohlhof"
  },
  {
    "postcode": "74629",
    "city": "Lerchenhof"
  },
  {
    "postcode": "74629",
    "city": "Rohrmühle"
  },
  {
    "postcode": "74629",
    "city": "Schmiedshof"
  },
  {
    "postcode": "74629",
    "city": "Strohberg"
  },
  {
    "postcode": "74629",
    "city": "Tannhof"
  },
  {
    "postcode": "74629",
    "city": "Weißlensberg"
  },
  {
    "postcode": "74632",
    "city": "Döttenweiler"
  },
  {
    "postcode": "74632",
    "city": "Eichhof"
  },
  {
    "postcode": "74632",
    "city": "Emmertshof"
  },
  {
    "postcode": "74632",
    "city": "Eschelbach"
  },
  {
    "postcode": "74632",
    "city": "Göltenhof"
  },
  {
    "postcode": "74632",
    "city": "Großhirschbach"
  },
  {
    "postcode": "74632",
    "city": "Grünbühl"
  },
  {
    "postcode": "74632",
    "city": "Hohrain"
  },
  {
    "postcode": "74632",
    "city": "Kesselfeld"
  },
  {
    "postcode": "74632",
    "city": "Kesselhof"
  },
  {
    "postcode": "74632",
    "city": "Kirchensall"
  },
  {
    "postcode": "74632",
    "city": "Kleinhirschbach"
  },
  {
    "postcode": "74632",
    "city": "Klumpenhof"
  },
  {
    "postcode": "74632",
    "city": "Langensall"
  },
  {
    "postcode": "74632",
    "city": "Lohe"
  },
  {
    "postcode": "74632",
    "city": "Löschenhirschbach"
  },
  {
    "postcode": "74632",
    "city": "Mainhardtsall"
  },
  {
    "postcode": "74632",
    "city": "Neuenstein"
  },
  {
    "postcode": "74632",
    "city": "Neuenstein (Württemberg)"
  },
  {
    "postcode": "74632",
    "city": "Neufels"
  },
  {
    "postcode": "74632",
    "city": "Neureut"
  },
  {
    "postcode": "74632",
    "city": "Obereppach"
  },
  {
    "postcode": "74632",
    "city": "Obersöllbach"
  },
  {
    "postcode": "74632",
    "city": "Orbachshof"
  },
  {
    "postcode": "74632",
    "city": "Pfaffenweiler"
  },
  {
    "postcode": "74632",
    "city": "Steinsfürtle"
  },
  {
    "postcode": "74632",
    "city": "Stolzeneck"
  },
  {
    "postcode": "74632",
    "city": "Tannen"
  },
  {
    "postcode": "74632",
    "city": "Untereppach"
  },
  {
    "postcode": "74632",
    "city": "Waldsall"
  },
  {
    "postcode": "74632",
    "city": "Wüchern"
  },
  {
    "postcode": "74632",
    "city": "Hohenlohekreis"
  },
  {
    "postcode": "74632",
    "city": "Haberhof"
  },
  {
    "postcode": "74632",
    "city": "Neufelser Mühle"
  },
  {
    "postcode": "74632",
    "city": "Neureuter Mühle"
  },
  {
    "postcode": "74632",
    "city": "Tiergarten"
  },
  {
    "postcode": "74635",
    "city": "Bauersbach"
  },
  {
    "postcode": "74635",
    "city": "Beltersrot"
  },
  {
    "postcode": "74635",
    "city": "Belzhag"
  },
  {
    "postcode": "74635",
    "city": "Einweiler"
  },
  {
    "postcode": "74635",
    "city": "Eschental"
  },
  {
    "postcode": "74635",
    "city": "Feßbach"
  },
  {
    "postcode": "74635",
    "city": "Füßbach"
  },
  {
    "postcode": "74635",
    "city": "Goggenbach"
  },
  {
    "postcode": "74635",
    "city": "Hesselbronn"
  },
  {
    "postcode": "74635",
    "city": "Kubach"
  },
  {
    "postcode": "74635",
    "city": "Künsbach"
  },
  {
    "postcode": "74635",
    "city": "Kupferzell"
  },
  {
    "postcode": "74635",
    "city": "Löcherholz"
  },
  {
    "postcode": "74635",
    "city": "Mangoldsall"
  },
  {
    "postcode": "74635",
    "city": "Rechbach"
  },
  {
    "postcode": "74635",
    "city": "Rüblingen"
  },
  {
    "postcode": "74635",
    "city": "Ulrichsberg"
  },
  {
    "postcode": "74635",
    "city": "Westernach"
  },
  {
    "postcode": "74635",
    "city": "Hohenlohekreis"
  },
  {
    "postcode": "74635",
    "city": "Neu-Kupfer"
  },
  {
    "postcode": "74635",
    "city": "Schafhof"
  },
  {
    "postcode": "74635",
    "city": "Stegmühle"
  },
  {
    "postcode": "74638",
    "city": "Bahnhofsiedlung"
  },
  {
    "postcode": "74638",
    "city": "Goldbach"
  },
  {
    "postcode": "74638",
    "city": "Großlindig"
  },
  {
    "postcode": "74638",
    "city": "Hohenau"
  },
  {
    "postcode": "74638",
    "city": "Kleinlindig"
  },
  {
    "postcode": "74638",
    "city": "Laurach"
  },
  {
    "postcode": "74638",
    "city": "Obersteinbach"
  },
  {
    "postcode": "74638",
    "city": "Sailach"
  },
  {
    "postcode": "74638",
    "city": "Streithof"
  },
  {
    "postcode": "74638",
    "city": "Tommelhardt"
  },
  {
    "postcode": "74638",
    "city": "Waldenburg"
  },
  {
    "postcode": "74638",
    "city": "Waldenburg (Württemberg)"
  },
  {
    "postcode": "74638",
    "city": "Hohenlohekreis"
  },
  {
    "postcode": "74639",
    "city": "Eichach"
  },
  {
    "postcode": "74639",
    "city": "Friedrichsruhe"
  },
  {
    "postcode": "74639",
    "city": "Orendelsall"
  },
  {
    "postcode": "74639",
    "city": "Pfahlbach"
  },
  {
    "postcode": "74639",
    "city": "Tiefensall"
  },
  {
    "postcode": "74639",
    "city": "Westernbach"
  },
  {
    "postcode": "74639",
    "city": "Zweiflingen"
  },
  {
    "postcode": "74639",
    "city": "Zweiflingen (Württemberg)"
  },
  {
    "postcode": "74639",
    "city": "Hohenlohekreis"
  },
  {
    "postcode": "74639",
    "city": "Schießhof"
  },
  {
    "postcode": "74653",
    "city": "Amrichshausen"
  },
  {
    "postcode": "74653",
    "city": "Belsenberg"
  },
  {
    "postcode": "74653",
    "city": "Berndshausen"
  },
  {
    "postcode": "74653",
    "city": "Bobachshof"
  },
  {
    "postcode": "74653",
    "city": "Bühlhof"
  },
  {
    "postcode": "74653",
    "city": "Büttelbronn"
  },
  {
    "postcode": "74653",
    "city": "Criesbach"
  },
  {
    "postcode": "74653",
    "city": "Diebach"
  },
  {
    "postcode": "74653",
    "city": "Dörrenzimmern"
  },
  {
    "postcode": "74653",
    "city": "Eberstal"
  },
  {
    "postcode": "74653",
    "city": "Eschenhof"
  },
  {
    "postcode": "74653",
    "city": "Etzlinsweiler"
  },
  {
    "postcode": "74653",
    "city": "Gaisbach"
  },
  {
    "postcode": "74653",
    "city": "Garnberg"
  },
  {
    "postcode": "74653",
    "city": "Haag"
  },
  {
    "postcode": "74653",
    "city": "Hermuthausen"
  },
  {
    "postcode": "74653",
    "city": "Hofratsmühle"
  },
  {
    "postcode": "74653",
    "city": "Ingelfingen"
  },
  {
    "postcode": "74653",
    "city": "Kemmeten"
  },
  {
    "postcode": "74653",
    "city": "Kocherstein"
  },
  {
    "postcode": "74653",
    "city": "Kocherstetten"
  },
  {
    "postcode": "74653",
    "city": "Kügelhof"
  },
  {
    "postcode": "74653",
    "city": "Künzelsau"
  },
  {
    "postcode": "74653",
    "city": "Laßbach"
  },
  {
    "postcode": "74653",
    "city": "Lipfersberg"
  },
  {
    "postcode": "74653",
    "city": "Mäusdorf"
  },
  {
    "postcode": "74653",
    "city": "Morsbach"
  },
  {
    "postcode": "74653",
    "city": "Nagelsberg"
  },
  {
    "postcode": "74653",
    "city": "Nitzenhausen"
  },
  {
    "postcode": "74653",
    "city": "Oberhof"
  },
  {
    "postcode": "74653",
    "city": "Ohrenbach"
  },
  {
    "postcode": "74653",
    "city": "Rodachshof"
  },
  {
    "postcode": "74653",
    "city": "Scheurachshof"
  },
  {
    "postcode": "74653",
    "city": "Siegelhof"
  },
  {
    "postcode": "74653",
    "city": "Sonnhofen"
  },
  {
    "postcode": "74653",
    "city": "Stachenhausen"
  },
  {
    "postcode": "74653",
    "city": "Steinbach"
  },
  {
    "postcode": "74653",
    "city": "Unterhof"
  },
  {
    "postcode": "74653",
    "city": "Vogelsberg"
  },
  {
    "postcode": "74653",
    "city": "Weckhof"
  },
  {
    "postcode": "74653",
    "city": "Weldingsfelden"
  },
  {
    "postcode": "74653",
    "city": "Wolfsölden"
  },
  {
    "postcode": "74653",
    "city": "Hohenlohekreis"
  },
  {
    "postcode": "74653",
    "city": "Jägerhaus"
  },
  {
    "postcode": "74653",
    "city": "Bienenhof"
  },
  {
    "postcode": "74653",
    "city": "Schloß Stetten"
  },
  {
    "postcode": "74653",
    "city": "Falkenhof"
  },
  {
    "postcode": "74653",
    "city": "Taläcker"
  },
  {
    "postcode": "74653",
    "city": "Rappoldsweiler Hof"
  },
  {
    "postcode": "74653",
    "city": "Schnaihof"
  },
  {
    "postcode": "74670",
    "city": "Büschelhof"
  },
  {
    "postcode": "74670",
    "city": "Ernsbach"
  },
  {
    "postcode": "74670",
    "city": "Forchtenberg"
  },
  {
    "postcode": "74670",
    "city": "Hohensall"
  },
  {
    "postcode": "74670",
    "city": "Metzdorf"
  },
  {
    "postcode": "74670",
    "city": "Muthof"
  },
  {
    "postcode": "74670",
    "city": "Schleierhof"
  },
  {
    "postcode": "74670",
    "city": "Schwarzenweiler"
  },
  {
    "postcode": "74670",
    "city": "Sindringen"
  },
  {
    "postcode": "74670",
    "city": "Wohlmuthausen"
  },
  {
    "postcode": "74670",
    "city": "Hohenlohekreis"
  },
  {
    "postcode": "74670",
    "city": "Holzweiler"
  },
  {
    "postcode": "74670",
    "city": "Im Hölzle"
  },
  {
    "postcode": "74670",
    "city": "Rauhbusch"
  },
  {
    "postcode": "74670",
    "city": "Teichhof"
  },
  {
    "postcode": "74673",
    "city": "Ailringen"
  },
  {
    "postcode": "74673",
    "city": "Berndshofen"
  },
  {
    "postcode": "74673",
    "city": "Bodenhof"
  },
  {
    "postcode": "74673",
    "city": "Buchenbach"
  },
  {
    "postcode": "74673",
    "city": "Eberbach"
  },
  {
    "postcode": "74673",
    "city": "Heimhausen"
  },
  {
    "postcode": "74673",
    "city": "Hohenrot"
  },
  {
    "postcode": "74673",
    "city": "Hollenbach"
  },
  {
    "postcode": "74673",
    "city": "Jagstberg"
  },
  {
    "postcode": "74673",
    "city": "Mulfingen (Jagst)"
  },
  {
    "postcode": "74673",
    "city": "Mulfingen"
  },
  {
    "postcode": "74673",
    "city": "Oberer Railhof"
  },
  {
    "postcode": "74673",
    "city": "Ochsental"
  },
  {
    "postcode": "74673",
    "city": "Seidelklingen"
  },
  {
    "postcode": "74673",
    "city": "Simprechtshausen"
  },
  {
    "postcode": "74673",
    "city": "Staigerbach"
  },
  {
    "postcode": "74673",
    "city": "Unterer Railhof"
  },
  {
    "postcode": "74673",
    "city": "Zaisenhausen"
  },
  {
    "postcode": "74673",
    "city": "Hohenlohekreis"
  },
  {
    "postcode": "74673",
    "city": "Hasenklinge"
  },
  {
    "postcode": "74676",
    "city": "Hermersberg"
  },
  {
    "postcode": "74676",
    "city": "Niedernhall"
  },
  {
    "postcode": "74676",
    "city": "Waldzimmern"
  },
  {
    "postcode": "74676",
    "city": "Hohenlohekreis"
  },
  {
    "postcode": "74677",
    "city": "Dörzbach"
  },
  {
    "postcode": "74677",
    "city": "Eisenhutsrot"
  },
  {
    "postcode": "74677",
    "city": "Heßlachshof"
  },
  {
    "postcode": "74677",
    "city": "Hohebach"
  },
  {
    "postcode": "74677",
    "city": "Laibach"
  },
  {
    "postcode": "74677",
    "city": "Meßbach"
  },
  {
    "postcode": "74677",
    "city": "Wendischenhof"
  },
  {
    "postcode": "74677",
    "city": "Hohenlohekreis"
  },
  {
    "postcode": "74679",
    "city": "Crispenhofen"
  },
  {
    "postcode": "74679",
    "city": "Halberg"
  },
  {
    "postcode": "74679",
    "city": "Schloß"
  },
  {
    "postcode": "74679",
    "city": "Weißbach (Württemberg)"
  },
  {
    "postcode": "74679",
    "city": "Weißbach"
  },
  {
    "postcode": "74679",
    "city": "Hohenlohekreis"
  },
  {
    "postcode": "74706",
    "city": "Bofsheim"
  },
  {
    "postcode": "74706",
    "city": "Hemsbach Bauland"
  },
  {
    "postcode": "74706",
    "city": "Hemsbach"
  },
  {
    "postcode": "74706",
    "city": "Osterburken"
  },
  {
    "postcode": "74706",
    "city": "Schlierstadt"
  },
  {
    "postcode": "74706",
    "city": "Neckar-Odenwald-Kreis"
  },
  {
    "postcode": "74722",
    "city": "Bödigheim"
  },
  {
    "postcode": "74722",
    "city": "Buchen"
  },
  {
    "postcode": "74722",
    "city": "Buchen (Odenwald)"
  },
  {
    "postcode": "74722",
    "city": "Eberstadt Baden"
  },
  {
    "postcode": "74722",
    "city": "Eberstadt"
  },
  {
    "postcode": "74722",
    "city": "Einbach Odenwald"
  },
  {
    "postcode": "74722",
    "city": "Einbach"
  },
  {
    "postcode": "74722",
    "city": "Götzingen Baden"
  },
  {
    "postcode": "74722",
    "city": "Götzingen"
  },
  {
    "postcode": "74722",
    "city": "Hainstadt"
  },
  {
    "postcode": "74722",
    "city": "Hettigenbeuern"
  },
  {
    "postcode": "74722",
    "city": "Hettingen"
  },
  {
    "postcode": "74722",
    "city": "Hollerbach"
  },
  {
    "postcode": "74722",
    "city": "Oberneudorf Baden"
  },
  {
    "postcode": "74722",
    "city": "Oberneudorf"
  },
  {
    "postcode": "74722",
    "city": "Rinschheim"
  },
  {
    "postcode": "74722",
    "city": "Stürzenhardt"
  },
  {
    "postcode": "74722",
    "city": "Unterneudorf"
  },
  {
    "postcode": "74722",
    "city": "Waldhausen"
  },
  {
    "postcode": "74722",
    "city": "Neckar-Odenwald-Kreis"
  },
  {
    "postcode": "74731",
    "city": "Altheim Bauland"
  },
  {
    "postcode": "74731",
    "city": "Altheim"
  },
  {
    "postcode": "74731",
    "city": "Gerolzahn"
  },
  {
    "postcode": "74731",
    "city": "Glashofen"
  },
  {
    "postcode": "74731",
    "city": "Gottersdorf Baden"
  },
  {
    "postcode": "74731",
    "city": "Gottersdorf"
  },
  {
    "postcode": "74731",
    "city": "Hornbach bei Walldürn"
  },
  {
    "postcode": "74731",
    "city": "Kaltenbrunn Baden"
  },
  {
    "postcode": "74731",
    "city": "Kaltenbrunn"
  },
  {
    "postcode": "74731",
    "city": "Reinhardsachsen"
  },
  {
    "postcode": "74731",
    "city": "Rippberg"
  },
  {
    "postcode": "74731",
    "city": "Walldürn"
  },
  {
    "postcode": "74731",
    "city": "Walldürn / Storchhof"
  },
  {
    "postcode": "74731",
    "city": "Wettersdorf"
  },
  {
    "postcode": "74731",
    "city": "Neckar-Odenwald-Kreis"
  },
  {
    "postcode": "74731",
    "city": "Hornbach"
  },
  {
    "postcode": "74731",
    "city": "Storchhof"
  },
  {
    "postcode": "74736",
    "city": "Bretzingen"
  },
  {
    "postcode": "74736",
    "city": "Dornberg Baden"
  },
  {
    "postcode": "74736",
    "city": "Dornberg"
  },
  {
    "postcode": "74736",
    "city": "Erfeld"
  },
  {
    "postcode": "74736",
    "city": "Gerichtstetten"
  },
  {
    "postcode": "74736",
    "city": "Hardheim"
  },
  {
    "postcode": "74736",
    "city": "Hardheim (Odenwald)"
  },
  {
    "postcode": "74736",
    "city": "Rüdental"
  },
  {
    "postcode": "74736",
    "city": "Rütschdorf"
  },
  {
    "postcode": "74736",
    "city": "Schweinberg"
  },
  {
    "postcode": "74736",
    "city": "Vollmersdorf"
  },
  {
    "postcode": "74736",
    "city": "Neckar-Odenwald-Kreis"
  },
  {
    "postcode": "74740",
    "city": "Adelsheim"
  },
  {
    "postcode": "74740",
    "city": "Hergenstadt"
  },
  {
    "postcode": "74740",
    "city": "Leibenstadt"
  },
  {
    "postcode": "74740",
    "city": "Sennfeld Baden"
  },
  {
    "postcode": "74740",
    "city": "Sennfeld"
  },
  {
    "postcode": "74740",
    "city": "Wemmershof"
  },
  {
    "postcode": "74740",
    "city": "Neckar-Odenwald-Kreis"
  },
  {
    "postcode": "74743",
    "city": "Großeicholzheim"
  },
  {
    "postcode": "74743",
    "city": "Seckach"
  },
  {
    "postcode": "74743",
    "city": "Waidachshof"
  },
  {
    "postcode": "74743",
    "city": "Zimmern Bauland"
  },
  {
    "postcode": "74743",
    "city": "Zimmern"
  },
  {
    "postcode": "74743",
    "city": "Neckar-Odenwald-Kreis"
  },
  {
    "postcode": "74743",
    "city": "Klinge"
  },
  {
    "postcode": "74744",
    "city": "Ahorn (Baden)"
  },
  {
    "postcode": "74744",
    "city": "Ahorn"
  },
  {
    "postcode": "74744",
    "city": "Berolzheim"
  },
  {
    "postcode": "74744",
    "city": "Buch"
  },
  {
    "postcode": "74744",
    "city": "Eubigheim"
  },
  {
    "postcode": "74744",
    "city": "Hohenstadt Baden"
  },
  {
    "postcode": "74744",
    "city": "Hohenstadt"
  },
  {
    "postcode": "74744",
    "city": "Neidelsbach"
  },
  {
    "postcode": "74744",
    "city": "Obereubigheim"
  },
  {
    "postcode": "74744",
    "city": "Schillingstadt"
  },
  {
    "postcode": "74744",
    "city": "Schwarzenbrunn Hof"
  },
  {
    "postcode": "74744",
    "city": "Schwarzenbrunn"
  },
  {
    "postcode": "74744",
    "city": "Main-Tauber-Kreis"
  },
  {
    "postcode": "74746",
    "city": "Höpfingen"
  },
  {
    "postcode": "74746",
    "city": "Schlempertshof"
  },
  {
    "postcode": "74746",
    "city": "Waldstetten Baden"
  },
  {
    "postcode": "74746",
    "city": "Waldstetten"
  },
  {
    "postcode": "74746",
    "city": "Neckar-Odenwald-Kreis"
  },
  {
    "postcode": "74747",
    "city": "Ballenberg"
  },
  {
    "postcode": "74747",
    "city": "Erlenbach"
  },
  {
    "postcode": "74747",
    "city": "Hüngheim"
  },
  {
    "postcode": "74747",
    "city": "Merchingen"
  },
  {
    "postcode": "74747",
    "city": "Oberwittstadt"
  },
  {
    "postcode": "74747",
    "city": "Ravenstein (Baden)"
  },
  {
    "postcode": "74747",
    "city": "Ravenstein"
  },
  {
    "postcode": "74747",
    "city": "Schollhof"
  },
  {
    "postcode": "74747",
    "city": "Unterwittstadt Bauland"
  },
  {
    "postcode": "74747",
    "city": "Unterwittstadt"
  },
  {
    "postcode": "74747",
    "city": "Neckar-Odenwald-Kreis"
  },
  {
    "postcode": "74749",
    "city": "Bronnacker"
  },
  {
    "postcode": "74749",
    "city": "Hirschlanden Baden"
  },
  {
    "postcode": "74749",
    "city": "Hirschlanden"
  },
  {
    "postcode": "74749",
    "city": "Rosenberg"
  },
  {
    "postcode": "74749",
    "city": "Rosenberg (Baden)"
  },
  {
    "postcode": "74749",
    "city": "Sindolsheim"
  },
  {
    "postcode": "74749",
    "city": "Neckar-Odenwald-Kreis"
  },
  {
    "postcode": "74821",
    "city": "Diedesheim"
  },
  {
    "postcode": "74821",
    "city": "Hardhof"
  },
  {
    "postcode": "74821",
    "city": "Lohrbach"
  },
  {
    "postcode": "74821",
    "city": "Mosbach"
  },
  {
    "postcode": "74821",
    "city": "Mosbach (Baden)"
  },
  {
    "postcode": "74821",
    "city": "Neckarelz"
  },
  {
    "postcode": "74821",
    "city": "Nüstenbach"
  },
  {
    "postcode": "74821",
    "city": "Reichenbuch"
  },
  {
    "postcode": "74821",
    "city": "Sattelbach"
  },
  {
    "postcode": "74821",
    "city": "Schreckhof"
  },
  {
    "postcode": "74821",
    "city": "Neckar-Odenwald-Kreis"
  },
  {
    "postcode": "74821",
    "city": "Waldstadt"
  },
  {
    "postcode": "74831",
    "city": "Bachenau"
  },
  {
    "postcode": "74831",
    "city": "Bernbrunn"
  },
  {
    "postcode": "74831",
    "city": "Böttingen"
  },
  {
    "postcode": "74831",
    "city": "Gundelsheim"
  },
  {
    "postcode": "74831",
    "city": "Gundelsheim (Württemberg)"
  },
  {
    "postcode": "74831",
    "city": "Höchstberg"
  },
  {
    "postcode": "74831",
    "city": "Michaelsberg"
  },
  {
    "postcode": "74831",
    "city": "Obergriesheim"
  },
  {
    "postcode": "74831",
    "city": "Tiefenbach"
  },
  {
    "postcode": "74831",
    "city": "Heilbronn"
  },
  {
    "postcode": "74832",
    "city": "Bachenau"
  },
  {
    "postcode": "74834",
    "city": "Dallau Kreis Mosbach Baden"
  },
  {
    "postcode": "74834",
    "city": "Dallau"
  },
  {
    "postcode": "74834",
    "city": "Elztal"
  },
  {
    "postcode": "74834",
    "city": "Muckental Baden"
  },
  {
    "postcode": "74834",
    "city": "Muckental"
  },
  {
    "postcode": "74834",
    "city": "Neckarburken"
  },
  {
    "postcode": "74834",
    "city": "Rittersbach Odenwald"
  },
  {
    "postcode": "74834",
    "city": "Rittersbach"
  },
  {
    "postcode": "74834",
    "city": "Neckar-Odenwald-Kreis"
  },
  {
    "postcode": "74834",
    "city": "Auerbach"
  },
  {
    "postcode": "74834",
    "city": "Heidersbacher Mühle"
  },
  {
    "postcode": "74838",
    "city": "Balsbach"
  },
  {
    "postcode": "74838",
    "city": "Heidersbach Baden"
  },
  {
    "postcode": "74838",
    "city": "Heidersbach"
  },
  {
    "postcode": "74838",
    "city": "Krumbach"
  },
  {
    "postcode": "74838",
    "city": "Laudenberg"
  },
  {
    "postcode": "74838",
    "city": "Limbach"
  },
  {
    "postcode": "74838",
    "city": "Limbach (Baden)"
  },
  {
    "postcode": "74838",
    "city": "Scheringen"
  },
  {
    "postcode": "74838",
    "city": "Wagenschwend"
  },
  {
    "postcode": "74838",
    "city": "Neckar-Odenwald-Kreis"
  },
  {
    "postcode": "74842",
    "city": "Allfeld"
  },
  {
    "postcode": "74842",
    "city": "Billigheim"
  },
  {
    "postcode": "74842",
    "city": "Billigheim (Baden)"
  },
  {
    "postcode": "74842",
    "city": "Katzental"
  },
  {
    "postcode": "74842",
    "city": "Schmelzenhof"
  },
  {
    "postcode": "74842",
    "city": "Sulzbach"
  },
  {
    "postcode": "74842",
    "city": "Waldmühlbach"
  },
  {
    "postcode": "74842",
    "city": "Neckar-Odenwald-Kreis"
  },
  {
    "postcode": "74847",
    "city": "Asbach"
  },
  {
    "postcode": "74847",
    "city": "Mörtelstein"
  },
  {
    "postcode": "74847",
    "city": "Obrigheim"
  },
  {
    "postcode": "74847",
    "city": "Obrigheim (Baden)"
  },
  {
    "postcode": "74847",
    "city": "Neckar-Odenwald-Kreis"
  },
  {
    "postcode": "74850",
    "city": "Kleineicholzheim"
  },
  {
    "postcode": "74850",
    "city": "Mittelschefflenz"
  },
  {
    "postcode": "74850",
    "city": "Oberschefflenz"
  },
  {
    "postcode": "74850",
    "city": "Schefflenz"
  },
  {
    "postcode": "74850",
    "city": "Unterschefflenz"
  },
  {
    "postcode": "74850",
    "city": "Neckar-Odenwald-Kreis"
  },
  {
    "postcode": "74855",
    "city": "Haßmersheim"
  },
  {
    "postcode": "74855",
    "city": "Hochhausen Neckar"
  },
  {
    "postcode": "74855",
    "city": "Hochhausen"
  },
  {
    "postcode": "74855",
    "city": "Neckarmühlbach"
  },
  {
    "postcode": "74855",
    "city": "Neckar-Odenwald-Kreis"
  },
  {
    "postcode": "74858",
    "city": "Aglasterhausen"
  },
  {
    "postcode": "74858",
    "city": "Breitenbronn Baden"
  },
  {
    "postcode": "74858",
    "city": "Breitenbronn"
  },
  {
    "postcode": "74858",
    "city": "Daudenzell"
  },
  {
    "postcode": "74858",
    "city": "Michelbach bei Mosbach Baden"
  },
  {
    "postcode": "74858",
    "city": "Michelbach bei Mosbach"
  },
  {
    "postcode": "74858",
    "city": "Neckar-Odenwald-Kreis"
  },
  {
    "postcode": "74858",
    "city": "Michelbach"
  },
  {
    "postcode": "74861",
    "city": "Herbolzheim Jagst"
  },
  {
    "postcode": "74861",
    "city": "Herbolzheim"
  },
  {
    "postcode": "74861",
    "city": "Kreßbach"
  },
  {
    "postcode": "74861",
    "city": "Neudenau"
  },
  {
    "postcode": "74861",
    "city": "Reichertshausen"
  },
  {
    "postcode": "74861",
    "city": "Siglingen"
  },
  {
    "postcode": "74861",
    "city": "Heilbronn"
  },
  {
    "postcode": "74862",
    "city": "Binau"
  },
  {
    "postcode": "74862",
    "city": "Neckar-Odenwald-Kreis"
  },
  {
    "postcode": "74864",
    "city": "Fahrenbach"
  },
  {
    "postcode": "74864",
    "city": "Fahrenbach (Baden)"
  },
  {
    "postcode": "74864",
    "city": "Robern"
  },
  {
    "postcode": "74864",
    "city": "Trienz"
  },
  {
    "postcode": "74864",
    "city": "Neckar-Odenwald-Kreis"
  },
  {
    "postcode": "74865",
    "city": "Neckarzimmern"
  },
  {
    "postcode": "74865",
    "city": "Steinbach"
  },
  {
    "postcode": "74865",
    "city": "Neckar-Odenwald-Kreis"
  },
  {
    "postcode": "74867",
    "city": "Neckarkatzenbach"
  },
  {
    "postcode": "74867",
    "city": "Neunkirchen bei Mosbach Baden"
  },
  {
    "postcode": "74867",
    "city": "Neunkirchen bei Mosbach"
  },
  {
    "postcode": "74867",
    "city": "Neckar-Odenwald-Kreis"
  },
  {
    "postcode": "74867",
    "city": "Neunkirchen"
  },
  {
    "postcode": "74869",
    "city": "Oberschwarzach"
  },
  {
    "postcode": "74869",
    "city": "Schwarzach (Odenwald)"
  },
  {
    "postcode": "74869",
    "city": "Schwarzach"
  },
  {
    "postcode": "74869",
    "city": "Unterschwarzach"
  },
  {
    "postcode": "74869",
    "city": "Neckar-Odenwald-Kreis"
  },
  {
    "postcode": "74869",
    "city": "Schwarzacher Hof"
  },
  {
    "postcode": "74889",
    "city": "Adersbach"
  },
  {
    "postcode": "74889",
    "city": "Dühren"
  },
  {
    "postcode": "74889",
    "city": "Ehrstädt"
  },
  {
    "postcode": "74889",
    "city": "Eschelbach"
  },
  {
    "postcode": "74889",
    "city": "Hasselbach"
  },
  {
    "postcode": "74889",
    "city": "Hilsbach"
  },
  {
    "postcode": "74889",
    "city": "Hoffenheim"
  },
  {
    "postcode": "74889",
    "city": "Reihen"
  },
  {
    "postcode": "74889",
    "city": "Rohrbach"
  },
  {
    "postcode": "74889",
    "city": "Sinsheim"
  },
  {
    "postcode": "74889",
    "city": "Sinsheim (Elsenz)"
  },
  {
    "postcode": "74889",
    "city": "Steinsfurt"
  },
  {
    "postcode": "74889",
    "city": "Waldangelloch"
  },
  {
    "postcode": "74889",
    "city": "Weiler"
  },
  {
    "postcode": "74889",
    "city": "Rhein-Neckar-Kreis"
  },
  {
    "postcode": "74889",
    "city": "Hammerau"
  },
  {
    "postcode": "74906",
    "city": "Babstadt"
  },
  {
    "postcode": "74906",
    "city": "Bad Rappenau"
  },
  {
    "postcode": "74906",
    "city": "Bonfeld"
  },
  {
    "postcode": "74906",
    "city": "Fürfeld"
  },
  {
    "postcode": "74906",
    "city": "Grombach Kreis Sinsheim Elsenz"
  },
  {
    "postcode": "74906",
    "city": "Grombach"
  },
  {
    "postcode": "74906",
    "city": "Heinsheim Baden"
  },
  {
    "postcode": "74906",
    "city": "Heinsheim"
  },
  {
    "postcode": "74906",
    "city": "Obergimpern"
  },
  {
    "postcode": "74906",
    "city": "Treschklingen"
  },
  {
    "postcode": "74906",
    "city": "Wollenberg Baden"
  },
  {
    "postcode": "74906",
    "city": "Wollenberg"
  },
  {
    "postcode": "74906",
    "city": "Zimmerhof"
  },
  {
    "postcode": "74906",
    "city": "Heilbronn"
  },
  {
    "postcode": "74906",
    "city": "Stadt Neckarbischofsheim"
  },
  {
    "postcode": "74909",
    "city": "Meckesheim"
  },
  {
    "postcode": "74909",
    "city": "Mönchzell"
  },
  {
    "postcode": "74909",
    "city": "Rhein-Neckar-Kreis"
  },
  {
    "postcode": "74912",
    "city": "Berwangen Kraichgau"
  },
  {
    "postcode": "74912",
    "city": "Berwangen"
  },
  {
    "postcode": "74912",
    "city": "Bockschaft"
  },
  {
    "postcode": "74912",
    "city": "Kirchardt"
  },
  {
    "postcode": "74912",
    "city": "Heilbronn"
  },
  {
    "postcode": "74915",
    "city": "Daisbach Baden"
  },
  {
    "postcode": "74915",
    "city": "Daisbach"
  },
  {
    "postcode": "74915",
    "city": "Waibstadt"
  },
  {
    "postcode": "74915",
    "city": "Rhein-Neckar-Kreis"
  },
  {
    "postcode": "74918",
    "city": "Angelbachtal"
  },
  {
    "postcode": "74918",
    "city": "Rhein-Neckar-Kreis"
  },
  {
    "postcode": "74921",
    "city": "Bargen"
  },
  {
    "postcode": "74921",
    "city": "Flinsbach"
  },
  {
    "postcode": "74921",
    "city": "Helmstadt"
  },
  {
    "postcode": "74921",
    "city": "Helmstadt-Bargen"
  },
  {
    "postcode": "74921",
    "city": "Ingelheimerhof Kraichgau"
  },
  {
    "postcode": "74921",
    "city": "Ingelheimerhof"
  },
  {
    "postcode": "74921",
    "city": "Rhein-Neckar-Kreis"
  },
  {
    "postcode": "74924",
    "city": "Helmhof"
  },
  {
    "postcode": "74924",
    "city": "Neckarbischofsheim"
  },
  {
    "postcode": "74924",
    "city": "Untergimpern"
  },
  {
    "postcode": "74924",
    "city": "Rhein-Neckar-Kreis"
  },
  {
    "postcode": "74924",
    "city": "Stadt Bad Rappenau"
  },
  {
    "postcode": "74925",
    "city": "Epfenbach"
  },
  {
    "postcode": "74925",
    "city": "Rhein-Neckar-Kreis"
  },
  {
    "postcode": "74927",
    "city": "Eschelbronn"
  },
  {
    "postcode": "74927",
    "city": "Rhein-Neckar-Kreis"
  },
  {
    "postcode": "74928",
    "city": "Hüffenhardt"
  },
  {
    "postcode": "74928",
    "city": "Kälbertshausen"
  },
  {
    "postcode": "74928",
    "city": "Neckar-Odenwald-Kreis"
  },
  {
    "postcode": "74930",
    "city": "Ittlingen"
  },
  {
    "postcode": "74930",
    "city": "Heilbronn"
  },
  {
    "postcode": "74931",
    "city": "Lobbach (Baden)"
  },
  {
    "postcode": "74931",
    "city": "Lobbach"
  },
  {
    "postcode": "74931",
    "city": "Lobenfeld"
  },
  {
    "postcode": "74931",
    "city": "Spechbach"
  },
  {
    "postcode": "74931",
    "city": "Waldwimmersbach"
  },
  {
    "postcode": "74931",
    "city": "Rhein-Neckar-Kreis"
  },
  {
    "postcode": "74931",
    "city": "Gemeinde Spechbach"
  },
  {
    "postcode": "74933",
    "city": "Neidenstein Elsenzgau"
  },
  {
    "postcode": "74933",
    "city": "Neidenstein"
  },
  {
    "postcode": "74933",
    "city": "Rhein-Neckar-Kreis"
  },
  {
    "postcode": "74934",
    "city": "Reichartshausen (Baden)"
  },
  {
    "postcode": "74934",
    "city": "Reichartshausen"
  },
  {
    "postcode": "74934",
    "city": "Rhein-Neckar-Kreis"
  },
  {
    "postcode": "74936",
    "city": "Siegelsbach Kraichgau"
  },
  {
    "postcode": "74936",
    "city": "Siegelsbach"
  },
  {
    "postcode": "74936",
    "city": "Heilbronn"
  },
  {
    "postcode": "74937",
    "city": "Spechbach"
  },
  {
    "postcode": "74937",
    "city": "Rhein-Neckar-Kreis"
  },
  {
    "postcode": "74939",
    "city": "Zuzenhausen"
  },
  {
    "postcode": "74939",
    "city": "Rhein-Neckar-Kreis"
  }
]