[
  {
    "postcode": "2625",
    "city": "Bautzen"
  },
  {
    "postcode": "2625",
    "city": "Bolbritz"
  },
  {
    "postcode": "2625",
    "city": "Salzenforst"
  },
  {
    "postcode": "2625",
    "city": "Stiebitz"
  },
  {
    "postcode": "2625",
    "city": "Niederkaina"
  },
  {
    "postcode": "2625",
    "city": "Großwelka"
  },
  {
    "postcode": "2625",
    "city": "Teichnitz"
  },
  {
    "postcode": "2625",
    "city": "Oberkaina"
  },
  {
    "postcode": "2625",
    "city": "Burk"
  },
  {
    "postcode": "2625",
    "city": "Kleinwelka"
  },
  {
    "postcode": "2625",
    "city": "Kleinseidau"
  },
  {
    "postcode": "2625",
    "city": "Nadelwitz"
  },
  {
    "postcode": "2625",
    "city": "Auritz"
  },
  {
    "postcode": "2625",
    "city": "Bloaschütz"
  },
  {
    "postcode": "2625",
    "city": "Döberkitz"
  },
  {
    "postcode": "2625",
    "city": "Löschau"
  },
  {
    "postcode": "2625",
    "city": "Lubachau"
  },
  {
    "postcode": "2625",
    "city": "Niederuhna"
  },
  {
    "postcode": "2625",
    "city": "Oberuhna"
  },
  {
    "postcode": "2625",
    "city": "Schmochtitz"
  },
  {
    "postcode": "2625",
    "city": "Temritz"
  },
  {
    "postcode": "2627",
    "city": "Hochkirch"
  },
  {
    "postcode": "2627",
    "city": "Kubschütz"
  },
  {
    "postcode": "2627",
    "city": "Radibor"
  },
  {
    "postcode": "2627",
    "city": "Weißenberg Sachsen"
  },
  {
    "postcode": "2627",
    "city": "Weißenberg"
  },
  {
    "postcode": "2627",
    "city": "Bautzen"
  },
  {
    "postcode": "2627",
    "city": "Breitendorf"
  },
  {
    "postcode": "2627",
    "city": "Jauernick"
  },
  {
    "postcode": "2627",
    "city": "Kohlwesa"
  },
  {
    "postcode": "2627",
    "city": "Kuppritz"
  },
  {
    "postcode": "2627",
    "city": "Lehn"
  },
  {
    "postcode": "2627",
    "city": "Meschwitz"
  },
  {
    "postcode": "2627",
    "city": "Neukuppritz"
  },
  {
    "postcode": "2627",
    "city": "Neuwuischke"
  },
  {
    "postcode": "2627",
    "city": "Niethen"
  },
  {
    "postcode": "2627",
    "city": "Plotzen"
  },
  {
    "postcode": "2627",
    "city": "Pommritz"
  },
  {
    "postcode": "2627",
    "city": "Rodewitz"
  },
  {
    "postcode": "2627",
    "city": "Sornßig"
  },
  {
    "postcode": "2627",
    "city": "Steindörfel"
  },
  {
    "postcode": "2627",
    "city": "Wawitz"
  },
  {
    "postcode": "2627",
    "city": "Wuischke"
  },
  {
    "postcode": "2627",
    "city": "Zschorna"
  },
  {
    "postcode": "2627",
    "city": "Jenkwitz"
  },
  {
    "postcode": "2627",
    "city": "Zieschütz"
  },
  {
    "postcode": "2627",
    "city": "Daranitz"
  },
  {
    "postcode": "2627",
    "city": "Soculahora"
  },
  {
    "postcode": "2627",
    "city": "Baschütz"
  },
  {
    "postcode": "2627",
    "city": "Rabitz"
  },
  {
    "postcode": "2627",
    "city": "Rieschen"
  },
  {
    "postcode": "2627",
    "city": "Grubditz"
  },
  {
    "postcode": "2627",
    "city": "Blösa"
  },
  {
    "postcode": "2627",
    "city": "Canitz-Christina"
  },
  {
    "postcode": "2627",
    "city": "Döhlen"
  },
  {
    "postcode": "2627",
    "city": "Litten"
  },
  {
    "postcode": "2627",
    "city": "Großkunitz"
  },
  {
    "postcode": "2627",
    "city": "Kreckwitz"
  },
  {
    "postcode": "2627",
    "city": "Kumschütz"
  },
  {
    "postcode": "2627",
    "city": "Neupurschwitz"
  },
  {
    "postcode": "2627",
    "city": "Pielitz"
  },
  {
    "postcode": "2627",
    "city": "Purschwitz"
  },
  {
    "postcode": "2627",
    "city": "Rachlau"
  },
  {
    "postcode": "2627",
    "city": "Scheckwitz"
  },
  {
    "postcode": "2627",
    "city": "Soritz"
  },
  {
    "postcode": "2627",
    "city": "Waditz"
  },
  {
    "postcode": "2627",
    "city": "Weißig"
  },
  {
    "postcode": "2627",
    "city": "Lomske"
  },
  {
    "postcode": "2627",
    "city": "Luttowitz"
  },
  {
    "postcode": "2627",
    "city": "Lippitsch"
  },
  {
    "postcode": "2627",
    "city": "Merka"
  },
  {
    "postcode": "2627",
    "city": "Milkel"
  },
  {
    "postcode": "2627",
    "city": "Bornitz"
  },
  {
    "postcode": "2627",
    "city": "Brohna"
  },
  {
    "postcode": "2627",
    "city": "Camina"
  },
  {
    "postcode": "2627",
    "city": "Cölln"
  },
  {
    "postcode": "2627",
    "city": "Droben"
  },
  {
    "postcode": "2627",
    "city": "Schwarzadler"
  },
  {
    "postcode": "2627",
    "city": "Großbrösern"
  },
  {
    "postcode": "2627",
    "city": "Grünbusch"
  },
  {
    "postcode": "2627",
    "city": "Teicha"
  },
  {
    "postcode": "2627",
    "city": "Kleinbrösern"
  },
  {
    "postcode": "2627",
    "city": "Luppa"
  },
  {
    "postcode": "2627",
    "city": "Luppedubrau"
  },
  {
    "postcode": "2627",
    "city": "Milkwitz"
  },
  {
    "postcode": "2627",
    "city": "Neu-Bornitz"
  },
  {
    "postcode": "2627",
    "city": "Neu-Brohna"
  },
  {
    "postcode": "2627",
    "city": "Quoos"
  },
  {
    "postcode": "2627",
    "city": "Strohschütz"
  },
  {
    "postcode": "2627",
    "city": "Wessel"
  },
  {
    "postcode": "2627",
    "city": "Gröditz"
  },
  {
    "postcode": "2627",
    "city": "Nechern"
  },
  {
    "postcode": "2627",
    "city": "Drehsa"
  },
  {
    "postcode": "2627",
    "city": "Wurschen"
  },
  {
    "postcode": "2627",
    "city": "Belgern"
  },
  {
    "postcode": "2627",
    "city": "Kotitz"
  },
  {
    "postcode": "2627",
    "city": "Weicha"
  },
  {
    "postcode": "2627",
    "city": "Cortnitz"
  },
  {
    "postcode": "2627",
    "city": "Grube"
  },
  {
    "postcode": "2627",
    "city": "Lauske"
  },
  {
    "postcode": "2627",
    "city": "Maltitz"
  },
  {
    "postcode": "2627",
    "city": "Nostitz"
  },
  {
    "postcode": "2627",
    "city": "Spittel"
  },
  {
    "postcode": "2627",
    "city": "Särka"
  },
  {
    "postcode": "2633",
    "city": "Doberschau-Gaußig"
  },
  {
    "postcode": "2633",
    "city": "Göda"
  },
  {
    "postcode": "2633",
    "city": "Bautzen"
  },
  {
    "postcode": "2633",
    "city": "Gaußig"
  },
  {
    "postcode": "2633",
    "city": "Weißnaußlitz"
  },
  {
    "postcode": "2633",
    "city": "Kleinseitschen"
  },
  {
    "postcode": "2633",
    "city": "Neuspittwitz"
  },
  {
    "postcode": "2633",
    "city": "Sollschwitz"
  },
  {
    "postcode": "2633",
    "city": "Spittwitz"
  },
  {
    "postcode": "2633",
    "city": "Birkau"
  },
  {
    "postcode": "2633",
    "city": "Buscheritz"
  },
  {
    "postcode": "2633",
    "city": "Coblenz"
  },
  {
    "postcode": "2633",
    "city": "Döbschke"
  },
  {
    "postcode": "2633",
    "city": "Dahren"
  },
  {
    "postcode": "2633",
    "city": "Dobranitz"
  },
  {
    "postcode": "2633",
    "city": "Dreikretscham"
  },
  {
    "postcode": "2633",
    "city": "Dreistern"
  },
  {
    "postcode": "2633",
    "city": "Seitschen"
  },
  {
    "postcode": "2633",
    "city": "Jannowitz"
  },
  {
    "postcode": "2633",
    "city": "Kleinförstchen"
  },
  {
    "postcode": "2633",
    "city": "Kleinpraga"
  },
  {
    "postcode": "2633",
    "city": "Leutwitz"
  },
  {
    "postcode": "2633",
    "city": "Liebon"
  },
  {
    "postcode": "2633",
    "city": "Muschelwitz"
  },
  {
    "postcode": "2633",
    "city": "Nedaschütz"
  },
  {
    "postcode": "2633",
    "city": "Neu-Bloaschütz"
  },
  {
    "postcode": "2633",
    "city": "Oberförstchen"
  },
  {
    "postcode": "2633",
    "city": "Paßditz"
  },
  {
    "postcode": "2633",
    "city": "Pietzschwitz"
  },
  {
    "postcode": "2633",
    "city": "Preske"
  },
  {
    "postcode": "2633",
    "city": "Prischwitz"
  },
  {
    "postcode": "2633",
    "city": "Semmichau"
  },
  {
    "postcode": "2633",
    "city": "Siebitz"
  },
  {
    "postcode": "2633",
    "city": "Storcha"
  },
  {
    "postcode": "2633",
    "city": "Zischkowitz"
  },
  {
    "postcode": "2633",
    "city": "Zscharnitz"
  },
  {
    "postcode": "2633",
    "city": "Dretschen"
  },
  {
    "postcode": "2633",
    "city": "Zockau"
  },
  {
    "postcode": "2633",
    "city": "Günthersdorf"
  },
  {
    "postcode": "2633",
    "city": "Arnsdorf"
  },
  {
    "postcode": "2633",
    "city": "Brösang"
  },
  {
    "postcode": "2633",
    "city": "Katschwitz"
  },
  {
    "postcode": "2633",
    "city": "Diehmen"
  },
  {
    "postcode": "2633",
    "city": "Neu-Diehmen"
  },
  {
    "postcode": "2633",
    "city": "Drauschkowitz"
  },
  {
    "postcode": "2633",
    "city": "Neu-Drauschkowitz"
  },
  {
    "postcode": "2633",
    "city": "Golenz"
  },
  {
    "postcode": "2640",
    "city": "Bautzen"
  },
  {
    "postcode": "2643",
    "city": "Bautzen"
  },
  {
    "postcode": "2681",
    "city": "Crostau"
  },
  {
    "postcode": "2681",
    "city": "Kirschau"
  },
  {
    "postcode": "2681",
    "city": "Schirgiswalde"
  },
  {
    "postcode": "2681",
    "city": "Wilthen"
  },
  {
    "postcode": "2681",
    "city": "Bautzen"
  },
  {
    "postcode": "2681",
    "city": "Schirgiswalde-Kirschau"
  },
  {
    "postcode": "2681",
    "city": "Rodewitz/Spree"
  },
  {
    "postcode": "2681",
    "city": "Bederwitz"
  },
  {
    "postcode": "2681",
    "city": "Callenberg"
  },
  {
    "postcode": "2681",
    "city": "Halbendorf/Geb"
  },
  {
    "postcode": "2681",
    "city": "Carlsberg"
  },
  {
    "postcode": "2681",
    "city": "Wurbis"
  },
  {
    "postcode": "2681",
    "city": "Kleinpostwitz"
  },
  {
    "postcode": "2681",
    "city": "Neuschirgiswalde"
  },
  {
    "postcode": "2681",
    "city": "Sonnenberg"
  },
  {
    "postcode": "2681",
    "city": "Irgersdorf"
  },
  {
    "postcode": "2681",
    "city": "Sora"
  },
  {
    "postcode": "2681",
    "city": "Tautewalde"
  },
  {
    "postcode": "2681",
    "city": "Rodewitz"
  },
  {
    "postcode": "2681",
    "city": "Halbendorf"
  },
  {
    "postcode": "2689",
    "city": "Sohland an der Spree"
  },
  {
    "postcode": "2689",
    "city": "Bautzen"
  },
  {
    "postcode": "2689",
    "city": "Sohland"
  },
  {
    "postcode": "2689",
    "city": "Taubenheim"
  },
  {
    "postcode": "2689",
    "city": "Wehrsdorf"
  },
  {
    "postcode": "2692",
    "city": "Doberschau-Gaußig"
  },
  {
    "postcode": "2692",
    "city": "Eulowitz"
  },
  {
    "postcode": "2692",
    "city": "Großpostwitz / Oberlausitz"
  },
  {
    "postcode": "2692",
    "city": "Großpostwitz"
  },
  {
    "postcode": "2692",
    "city": "Obergurig"
  },
  {
    "postcode": "2692",
    "city": "Bautzen"
  },
  {
    "postcode": "2692",
    "city": "Doberschau"
  },
  {
    "postcode": "2692",
    "city": "Gnaschwitz"
  },
  {
    "postcode": "2692",
    "city": "Großpostwitz/O.L."
  },
  {
    "postcode": "2692",
    "city": "Grubschütz"
  },
  {
    "postcode": "2692",
    "city": "Preuschwitz"
  },
  {
    "postcode": "2692",
    "city": "Techritz"
  },
  {
    "postcode": "2692",
    "city": "Schlungwitz"
  },
  {
    "postcode": "2692",
    "city": "Rascha"
  },
  {
    "postcode": "2692",
    "city": "Binnewitz"
  },
  {
    "postcode": "2692",
    "city": "Niedereulowitz"
  },
  {
    "postcode": "2692",
    "city": "Ebendörfel"
  },
  {
    "postcode": "2692",
    "city": "Neueulowitz"
  },
  {
    "postcode": "2692",
    "city": "Berge"
  },
  {
    "postcode": "2692",
    "city": "Obereulowitz"
  },
  {
    "postcode": "2692",
    "city": "Cosul"
  },
  {
    "postcode": "2692",
    "city": "Denkwitz"
  },
  {
    "postcode": "2692",
    "city": "Mehltheuer"
  },
  {
    "postcode": "2692",
    "city": "Klein-Kunitz"
  },
  {
    "postcode": "2692",
    "city": "Schwarznaußlitz"
  },
  {
    "postcode": "2692",
    "city": "Singwitz"
  },
  {
    "postcode": "2692",
    "city": "Kleindöbschütz"
  },
  {
    "postcode": "2692",
    "city": "Großdöbschütz"
  },
  {
    "postcode": "2692",
    "city": "Lehn"
  },
  {
    "postcode": "2692",
    "city": "Mönchswalde"
  },
  {
    "postcode": "2694",
    "city": "Großdubrau"
  },
  {
    "postcode": "2694",
    "city": "Guttau Sachsen"
  },
  {
    "postcode": "2694",
    "city": "Guttau"
  },
  {
    "postcode": "2694",
    "city": "Malschwitz"
  },
  {
    "postcode": "2694",
    "city": "Bautzen"
  },
  {
    "postcode": "2694",
    "city": "Crosta"
  },
  {
    "postcode": "2694",
    "city": "Kleindubrau"
  },
  {
    "postcode": "2694",
    "city": "Adolfshütte"
  },
  {
    "postcode": "2694",
    "city": "Salga"
  },
  {
    "postcode": "2694",
    "city": "Sdier"
  },
  {
    "postcode": "2694",
    "city": "Särchen"
  },
  {
    "postcode": "2694",
    "city": "Quatitz"
  },
  {
    "postcode": "2694",
    "city": "Dahlowitz"
  },
  {
    "postcode": "2694",
    "city": "Göbeln"
  },
  {
    "postcode": "2694",
    "city": "Neusärchen"
  },
  {
    "postcode": "2694",
    "city": "Jeschütz"
  },
  {
    "postcode": "2694",
    "city": "Klix"
  },
  {
    "postcode": "2694",
    "city": "Brehmen"
  },
  {
    "postcode": "2694",
    "city": "Zschillichau"
  },
  {
    "postcode": "2694",
    "city": "Commerau"
  },
  {
    "postcode": "2694",
    "city": "Kauppa"
  },
  {
    "postcode": "2694",
    "city": "Jetscheba"
  },
  {
    "postcode": "2694",
    "city": "Spreewiese"
  },
  {
    "postcode": "2694",
    "city": "Kronförstchen"
  },
  {
    "postcode": "2694",
    "city": "Margarethenhütte"
  },
  {
    "postcode": "2694",
    "city": "Niedergurig"
  },
  {
    "postcode": "2694",
    "city": "Rackel"
  },
  {
    "postcode": "2694",
    "city": "Preititz"
  },
  {
    "postcode": "2694",
    "city": "Neudorf/Spree"
  },
  {
    "postcode": "2694",
    "city": "Cannewitz"
  },
  {
    "postcode": "2694",
    "city": "Brösa"
  },
  {
    "postcode": "2694",
    "city": "Brießnitz"
  },
  {
    "postcode": "2694",
    "city": "Baruth"
  },
  {
    "postcode": "2694",
    "city": "Briesing"
  },
  {
    "postcode": "2694",
    "city": "Kleinsaubernitz"
  },
  {
    "postcode": "2694",
    "city": "Kleinbautzen"
  },
  {
    "postcode": "2694",
    "city": "Lömischau"
  },
  {
    "postcode": "2694",
    "city": "Gleina"
  },
  {
    "postcode": "2694",
    "city": "Doberschütz"
  },
  {
    "postcode": "2694",
    "city": "Wartha"
  },
  {
    "postcode": "2694",
    "city": "Halbendorf/Spree"
  },
  {
    "postcode": "2694",
    "city": "Dubrauke"
  },
  {
    "postcode": "2694",
    "city": "Pließkowitz"
  },
  {
    "postcode": "2694",
    "city": "Ruhethal"
  },
  {
    "postcode": "2694",
    "city": "Buchwalde"
  },
  {
    "postcode": "2694",
    "city": "Lieske"
  },
  {
    "postcode": "2694",
    "city": "Neudörfel"
  },
  {
    "postcode": "2694",
    "city": "Neudorf"
  },
  {
    "postcode": "2694",
    "city": "Halbendorf"
  },
  {
    "postcode": "2699",
    "city": "Königswartha"
  },
  {
    "postcode": "2699",
    "city": "Neschwitz"
  },
  {
    "postcode": "2699",
    "city": "Puschwitz bei Bautzen"
  },
  {
    "postcode": "2699",
    "city": "Bautzen"
  },
  {
    "postcode": "2699",
    "city": "Puschwitz"
  },
  {
    "postcode": "2699",
    "city": "Caminau"
  },
  {
    "postcode": "2699",
    "city": "Neudorf"
  },
  {
    "postcode": "2699",
    "city": "Eutrich"
  },
  {
    "postcode": "2699",
    "city": "Johnsdorf"
  },
  {
    "postcode": "2699",
    "city": "Commerau"
  },
  {
    "postcode": "2699",
    "city": "Oppitz"
  },
  {
    "postcode": "2699",
    "city": "Truppen"
  },
  {
    "postcode": "2699",
    "city": "Wartha"
  },
  {
    "postcode": "2699",
    "city": "Entenschenke"
  },
  {
    "postcode": "2699",
    "city": "Niesendorf"
  },
  {
    "postcode": "2699",
    "city": "Übigau"
  },
  {
    "postcode": "2699",
    "city": "Holscha"
  },
  {
    "postcode": "2699",
    "city": "Luga"
  },
  {
    "postcode": "2699",
    "city": "Zescha"
  },
  {
    "postcode": "2699",
    "city": "Caßlau"
  },
  {
    "postcode": "2699",
    "city": "Doberschütz"
  },
  {
    "postcode": "2699",
    "city": "Holschdubrau"
  },
  {
    "postcode": "2699",
    "city": "Kleinholscha"
  },
  {
    "postcode": "2699",
    "city": "Krinitz"
  },
  {
    "postcode": "2699",
    "city": "Lissahora"
  },
  {
    "postcode": "2699",
    "city": "Loga"
  },
  {
    "postcode": "2699",
    "city": "Lomske"
  },
  {
    "postcode": "2699",
    "city": "Pannewitz"
  },
  {
    "postcode": "2699",
    "city": "Saritsch"
  },
  {
    "postcode": "2699",
    "city": "Weidlitz"
  },
  {
    "postcode": "2699",
    "city": "Guhra"
  },
  {
    "postcode": "2699",
    "city": "Neu-Jeßnitz"
  },
  {
    "postcode": "2699",
    "city": "Jeßnitz"
  },
  {
    "postcode": "2699",
    "city": "Lauske"
  },
  {
    "postcode": "2699",
    "city": "Neu-Lauske"
  },
  {
    "postcode": "2699",
    "city": "Neu-Puschwitz"
  },
  {
    "postcode": "2699",
    "city": "Wetro"
  },
  {
    "postcode": "26121",
    "city": "Oldenburg in Oldenburg"
  },
  {
    "postcode": "26121",
    "city": "Wechloy"
  },
  {
    "postcode": "26121",
    "city": "Oldenburg"
  },
  {
    "postcode": "26121",
    "city": "Bürgerfelde"
  },
  {
    "postcode": "26121",
    "city": "Innenstadt"
  },
  {
    "postcode": "26121",
    "city": "Oldenburg (Oldb.)"
  },
  {
    "postcode": "26122",
    "city": "Eversten"
  },
  {
    "postcode": "26122",
    "city": "Oldenburg in Oldenburg"
  },
  {
    "postcode": "26122",
    "city": "Wechloy"
  },
  {
    "postcode": "26122",
    "city": "Oldenburg"
  },
  {
    "postcode": "26122",
    "city": "Innenstadt"
  },
  {
    "postcode": "26122",
    "city": "Oldenburg (Oldb.)"
  },
  {
    "postcode": "26123",
    "city": "Donnerschwee"
  },
  {
    "postcode": "26123",
    "city": "Nadorst"
  },
  {
    "postcode": "26123",
    "city": "Oldenburg in Oldenburg"
  },
  {
    "postcode": "26123",
    "city": "Oldenburg"
  },
  {
    "postcode": "26123",
    "city": "Oldenburg (Oldb.)"
  },
  {
    "postcode": "26123",
    "city": "Bürgerfelde"
  },
  {
    "postcode": "26125",
    "city": "Donnerschwee"
  },
  {
    "postcode": "26125",
    "city": "Etzhorn"
  },
  {
    "postcode": "26125",
    "city": "Nadorst"
  },
  {
    "postcode": "26125",
    "city": "Ofenerdiek"
  },
  {
    "postcode": "26125",
    "city": "Ohmstede"
  },
  {
    "postcode": "26125",
    "city": "Oldenburg in Oldenburg"
  },
  {
    "postcode": "26125",
    "city": "Oldenburg"
  },
  {
    "postcode": "26125",
    "city": "Oldenburg (Oldb.)"
  },
  {
    "postcode": "26127",
    "city": "Nadorst"
  },
  {
    "postcode": "26127",
    "city": "Oldenburg in Oldenburg"
  },
  {
    "postcode": "26127",
    "city": "Oldenburg"
  },
  {
    "postcode": "26127",
    "city": "Alexandersfeld"
  },
  {
    "postcode": "26127",
    "city": "Bürgerfelde"
  },
  {
    "postcode": "26127",
    "city": "Dietrichsfeld"
  },
  {
    "postcode": "26127",
    "city": "Oldenburg (Oldb.)"
  },
  {
    "postcode": "26129",
    "city": "Bloherfelde"
  },
  {
    "postcode": "26129",
    "city": "Oldenburg in Oldenburg"
  },
  {
    "postcode": "26129",
    "city": "Wechloy"
  },
  {
    "postcode": "26129",
    "city": "Oldenburg"
  },
  {
    "postcode": "26129",
    "city": "Oldenburg (Oldb.)"
  },
  {
    "postcode": "26129",
    "city": "Gemeinde Bad Zwischenahn"
  },
  {
    "postcode": "26129",
    "city": "Innenstadt"
  },
  {
    "postcode": "26131",
    "city": "Bloherfelde"
  },
  {
    "postcode": "26131",
    "city": "Eversten"
  },
  {
    "postcode": "26131",
    "city": "Oldenburg in Oldenburg"
  },
  {
    "postcode": "26131",
    "city": "Oldenburg"
  },
  {
    "postcode": "26131",
    "city": "Oldenburg (Oldb.)"
  },
  {
    "postcode": "26133",
    "city": "Kreyenbrück"
  },
  {
    "postcode": "26133",
    "city": "Oldenburg in Oldenburg"
  },
  {
    "postcode": "26133",
    "city": "Oldenburg"
  },
  {
    "postcode": "26135",
    "city": "Kreyenbrück"
  },
  {
    "postcode": "26135",
    "city": "Krusenbusch"
  },
  {
    "postcode": "26135",
    "city": "Oldenburg in Oldenburg"
  },
  {
    "postcode": "26135",
    "city": "Tweelbäke"
  },
  {
    "postcode": "26135",
    "city": "Oldenburg"
  },
  {
    "postcode": "26135",
    "city": "Oldenburg (Oldb.)"
  },
  {
    "postcode": "26135",
    "city": "Osternburg"
  },
  {
    "postcode": "26135",
    "city": "Neuenwege"
  },
  {
    "postcode": "26160",
    "city": "Aschhausen"
  },
  {
    "postcode": "26160",
    "city": "Bad Zwischenahn"
  },
  {
    "postcode": "26160",
    "city": "Bloh"
  },
  {
    "postcode": "26160",
    "city": "Dänikhorst"
  },
  {
    "postcode": "26160",
    "city": "Ekern"
  },
  {
    "postcode": "26160",
    "city": "Elmendorf Oldenburg"
  },
  {
    "postcode": "26160",
    "city": "Elmendorf"
  },
  {
    "postcode": "26160",
    "city": "Helle"
  },
  {
    "postcode": "26160",
    "city": "Kayhausen"
  },
  {
    "postcode": "26160",
    "city": "Kayhauserfeld"
  },
  {
    "postcode": "26160",
    "city": "Klein Garnholt"
  },
  {
    "postcode": "26160",
    "city": "Ofen"
  },
  {
    "postcode": "26160",
    "city": "Ohrwege"
  },
  {
    "postcode": "26160",
    "city": "Petersfehn I"
  },
  {
    "postcode": "26160",
    "city": "Rostrup I"
  },
  {
    "postcode": "26160",
    "city": "Wehnen"
  },
  {
    "postcode": "26160",
    "city": "Willbroksmoor"
  },
  {
    "postcode": "26160",
    "city": "Ammerland"
  },
  {
    "postcode": "26160",
    "city": "Bad Zwischenahn II"
  },
  {
    "postcode": "26160",
    "city": "Rostrup II"
  },
  {
    "postcode": "26160",
    "city": "Bad Zwischenahn I"
  },
  {
    "postcode": "26160",
    "city": "Specken"
  },
  {
    "postcode": "26160",
    "city": "Bloh-Süd"
  },
  {
    "postcode": "26160",
    "city": "Bloh-Nord"
  },
  {
    "postcode": "26160",
    "city": "Querenstede"
  },
  {
    "postcode": "26160",
    "city": "Dreibergen"
  },
  {
    "postcode": "26160",
    "city": "Meyerhausen"
  },
  {
    "postcode": "26160",
    "city": "Westerholtsfelde"
  },
  {
    "postcode": "26160",
    "city": "Haarenstroth"
  },
  {
    "postcode": "26160",
    "city": "Rostrup"
  },
  {
    "postcode": "26160",
    "city": "Petersfehn II"
  },
  {
    "postcode": "26160",
    "city": "Dänikhorsterfeld"
  },
  {
    "postcode": "26160",
    "city": "Petersfehn"
  },
  {
    "postcode": "26160",
    "city": "Tannenkamp"
  },
  {
    "postcode": "26160",
    "city": "Aue"
  },
  {
    "postcode": "26169",
    "city": "Ahrensdorf"
  },
  {
    "postcode": "26169",
    "city": "Altenoythe"
  },
  {
    "postcode": "26169",
    "city": "Augustendorf Oldenburg"
  },
  {
    "postcode": "26169",
    "city": "Augustendorf"
  },
  {
    "postcode": "26169",
    "city": "Barkentange"
  },
  {
    "postcode": "26169",
    "city": "Ellerbrock"
  },
  {
    "postcode": "26169",
    "city": "Friesoythe"
  },
  {
    "postcode": "26169",
    "city": "Gehlenberg"
  },
  {
    "postcode": "26169",
    "city": "Heetberg"
  },
  {
    "postcode": "26169",
    "city": "Hohefeld"
  },
  {
    "postcode": "26169",
    "city": "Ikenbrügge Oldenburg"
  },
  {
    "postcode": "26169",
    "city": "Ikenbrügge"
  },
  {
    "postcode": "26169",
    "city": "Kamperfehn Oldenburg"
  },
  {
    "postcode": "26169",
    "city": "Kamperfehn"
  },
  {
    "postcode": "26169",
    "city": "Markhausen Oldenburg"
  },
  {
    "postcode": "26169",
    "city": "Markhausen"
  },
  {
    "postcode": "26169",
    "city": "Mehrenkamp"
  },
  {
    "postcode": "26169",
    "city": "Neumarkhausen"
  },
  {
    "postcode": "26169",
    "city": "Neuscharrel"
  },
  {
    "postcode": "26169",
    "city": "Neuvrees"
  },
  {
    "postcode": "26169",
    "city": "Pehmertange"
  },
  {
    "postcode": "26169",
    "city": "Schlingshöhe"
  },
  {
    "postcode": "26169",
    "city": "Schwaneburg"
  },
  {
    "postcode": "26169",
    "city": "Schwaneburgermoor"
  },
  {
    "postcode": "26169",
    "city": "Cloppenburg"
  },
  {
    "postcode": "26169",
    "city": "Mittelstenthüle"
  },
  {
    "postcode": "26169",
    "city": "Edewechterdamm"
  },
  {
    "postcode": "26169",
    "city": "Kampe"
  },
  {
    "postcode": "26169",
    "city": "Thülsfelde"
  },
  {
    "postcode": "26169",
    "city": "Vorderstenthüle"
  },
  {
    "postcode": "26169",
    "city": "Heinfelde"
  },
  {
    "postcode": "26169",
    "city": "Wolfstange"
  },
  {
    "postcode": "26169",
    "city": "Schillburg"
  },
  {
    "postcode": "26180",
    "city": "Barghorn"
  },
  {
    "postcode": "26180",
    "city": "Bekhausen"
  },
  {
    "postcode": "26180",
    "city": "Delfshausen"
  },
  {
    "postcode": "26180",
    "city": "Hahn Oldenburg"
  },
  {
    "postcode": "26180",
    "city": "Hahn"
  },
  {
    "postcode": "26180",
    "city": "Heubült"
  },
  {
    "postcode": "26180",
    "city": "Hostemost"
  },
  {
    "postcode": "26180",
    "city": "Ipwege Oldenburg"
  },
  {
    "postcode": "26180",
    "city": "Ipwege"
  },
  {
    "postcode": "26180",
    "city": "Ipwegermoor Oldenburg"
  },
  {
    "postcode": "26180",
    "city": "Ipwegermoor"
  },
  {
    "postcode": "26180",
    "city": "Kleibrok"
  },
  {
    "postcode": "26180",
    "city": "Kleinenfelde"
  },
  {
    "postcode": "26180",
    "city": "Lehmden Oldenburg"
  },
  {
    "postcode": "26180",
    "city": "Lehmden"
  },
  {
    "postcode": "26180",
    "city": "Lehmdermoor Oldenburg"
  },
  {
    "postcode": "26180",
    "city": "Lehmdermoor"
  },
  {
    "postcode": "26180",
    "city": "Leuchtenburg"
  },
  {
    "postcode": "26180",
    "city": "Loy"
  },
  {
    "postcode": "26180",
    "city": "Nethen"
  },
  {
    "postcode": "26180",
    "city": "Neusüdende I"
  },
  {
    "postcode": "26180",
    "city": "Rastede"
  },
  {
    "postcode": "26180",
    "city": "Rastede I"
  },
  {
    "postcode": "26180",
    "city": "Rastederberg"
  },
  {
    "postcode": "26180",
    "city": "Wahnbek Oldenburg"
  },
  {
    "postcode": "26180",
    "city": "Wahnbek"
  },
  {
    "postcode": "26180",
    "city": "Wapeldorf"
  },
  {
    "postcode": "26180",
    "city": "Ammerland"
  },
  {
    "postcode": "26180",
    "city": "Neusüdende II"
  },
  {
    "postcode": "26180",
    "city": "Rastede II"
  },
  {
    "postcode": "26180",
    "city": "Hankhausen II"
  },
  {
    "postcode": "26180",
    "city": "Südende I"
  },
  {
    "postcode": "26180",
    "city": "Hankhausen I"
  },
  {
    "postcode": "26180",
    "city": "Liethe"
  },
  {
    "postcode": "26180",
    "city": "Südende II"
  },
  {
    "postcode": "26180",
    "city": "Buttel"
  },
  {
    "postcode": "26180",
    "city": "Neusüdende"
  },
  {
    "postcode": "26180",
    "city": "Silberkamp"
  },
  {
    "postcode": "26188",
    "city": "Edewecht"
  },
  {
    "postcode": "26188",
    "city": "Friedrichsfehn"
  },
  {
    "postcode": "26188",
    "city": "Hogenset"
  },
  {
    "postcode": "26188",
    "city": "Husbäke"
  },
  {
    "postcode": "26188",
    "city": "Kleefeld"
  },
  {
    "postcode": "26188",
    "city": "Klein Scharrel"
  },
  {
    "postcode": "26188",
    "city": "Osterscheps"
  },
  {
    "postcode": "26188",
    "city": "Portsloge"
  },
  {
    "postcode": "26188",
    "city": "Süddorf"
  },
  {
    "postcode": "26188",
    "city": "Westerscheps"
  },
  {
    "postcode": "26188",
    "city": "Wildenloh"
  },
  {
    "postcode": "26188",
    "city": "Wittenberge"
  },
  {
    "postcode": "26188",
    "city": "Ammerland"
  },
  {
    "postcode": "26188",
    "city": "Jeddeloh II"
  },
  {
    "postcode": "26188",
    "city": "Jeddeloh I"
  },
  {
    "postcode": "26188",
    "city": "Lohhorst"
  },
  {
    "postcode": "26188",
    "city": "Auf der Harre"
  },
  {
    "postcode": "26188",
    "city": "Jeddeloherdamm"
  },
  {
    "postcode": "26188",
    "city": "Wittenriede"
  },
  {
    "postcode": "26188",
    "city": "Frerichs Placken"
  },
  {
    "postcode": "26197",
    "city": "Ahlhorn"
  },
  {
    "postcode": "26197",
    "city": "Amelhausen"
  },
  {
    "postcode": "26197",
    "city": "Bakenhus"
  },
  {
    "postcode": "26197",
    "city": "Bissel"
  },
  {
    "postcode": "26197",
    "city": "Döhlen"
  },
  {
    "postcode": "26197",
    "city": "Großenkneten"
  },
  {
    "postcode": "26197",
    "city": "Halenhorst"
  },
  {
    "postcode": "26197",
    "city": "Haschenbrok"
  },
  {
    "postcode": "26197",
    "city": "Hellbusch"
  },
  {
    "postcode": "26197",
    "city": "Hengstlage"
  },
  {
    "postcode": "26197",
    "city": "Hollen"
  },
  {
    "postcode": "26197",
    "city": "Hosüne"
  },
  {
    "postcode": "26197",
    "city": "Huntlosen"
  },
  {
    "postcode": "26197",
    "city": "Sage Kreis Oldenburg Oldenburg"
  },
  {
    "postcode": "26197",
    "city": "Sage"
  },
  {
    "postcode": "26197",
    "city": "Sannum"
  },
  {
    "postcode": "26197",
    "city": "Steinloge"
  },
  {
    "postcode": "26197",
    "city": "Westrittrum"
  },
  {
    "postcode": "26197",
    "city": "Oldenburg"
  },
  {
    "postcode": "26197",
    "city": "Hespenbusch-Pallast"
  },
  {
    "postcode": "26197",
    "city": "Sage-Haast"
  },
  {
    "postcode": "26197",
    "city": "Husum"
  },
  {
    "postcode": "26197",
    "city": "Hagel"
  },
  {
    "postcode": "26203",
    "city": "Achternholt"
  },
  {
    "postcode": "26203",
    "city": "Achternmeer"
  },
  {
    "postcode": "26203",
    "city": "Astrup"
  },
  {
    "postcode": "26203",
    "city": "Charlottendorf Ost"
  },
  {
    "postcode": "26203",
    "city": "Charlottendorf West"
  },
  {
    "postcode": "26203",
    "city": "Fünfhausen"
  },
  {
    "postcode": "26203",
    "city": "Harbern I"
  },
  {
    "postcode": "26203",
    "city": "Höven"
  },
  {
    "postcode": "26203",
    "city": "Hundsmühlen I"
  },
  {
    "postcode": "26203",
    "city": "Klein Bümmerstede"
  },
  {
    "postcode": "26203",
    "city": "Littel"
  },
  {
    "postcode": "26203",
    "city": "Neuengland"
  },
  {
    "postcode": "26203",
    "city": "Oberlethe I"
  },
  {
    "postcode": "26203",
    "city": "Tungeln"
  },
  {
    "postcode": "26203",
    "city": "Wardenburg"
  },
  {
    "postcode": "26203",
    "city": "Wardenburg I"
  },
  {
    "postcode": "26203",
    "city": "Westerburg"
  },
  {
    "postcode": "26203",
    "city": "Westerholt"
  },
  {
    "postcode": "26203",
    "city": "Oldenburg"
  },
  {
    "postcode": "26203",
    "city": "Hundsmühlen II"
  },
  {
    "postcode": "26203",
    "city": "Südmoslesfehn"
  },
  {
    "postcode": "26203",
    "city": "Wardenburg II-Ost"
  },
  {
    "postcode": "26203",
    "city": "Wardenburg III"
  },
  {
    "postcode": "26203",
    "city": "Benthullen West"
  },
  {
    "postcode": "26203",
    "city": "Harbern II"
  },
  {
    "postcode": "26203",
    "city": "Oberlethe"
  },
  {
    "postcode": "26203",
    "city": "Wardenburg II-West"
  },
  {
    "postcode": "26203",
    "city": "Benthullen Ost"
  },
  {
    "postcode": "26203",
    "city": "Oberlethe II"
  },
  {
    "postcode": "26203",
    "city": "Korsorsberg"
  },
  {
    "postcode": "26203",
    "city": "Benthullen"
  },
  {
    "postcode": "26203",
    "city": "Saarländerweg"
  },
  {
    "postcode": "26209",
    "city": "Bümmerstede"
  },
  {
    "postcode": "26209",
    "city": "Dingstede"
  },
  {
    "postcode": "26209",
    "city": "Hatten Oldenburg"
  },
  {
    "postcode": "26209",
    "city": "Hatten"
  },
  {
    "postcode": "26209",
    "city": "Hatterwüsting Kreis Oldenburg Oldenburg"
  },
  {
    "postcode": "26209",
    "city": "Hatterwüsting"
  },
  {
    "postcode": "26209",
    "city": "Kirchhatten I"
  },
  {
    "postcode": "26209",
    "city": "Munderloh"
  },
  {
    "postcode": "26209",
    "city": "Sandhatten"
  },
  {
    "postcode": "26209",
    "city": "Sandkrug I"
  },
  {
    "postcode": "26209",
    "city": "Sandtange Kreis Oldenburg Oldenburg"
  },
  {
    "postcode": "26209",
    "city": "Sandtange"
  },
  {
    "postcode": "26209",
    "city": "Schmede"
  },
  {
    "postcode": "26209",
    "city": "Streekermoor I"
  },
  {
    "postcode": "26209",
    "city": "Oldenburg"
  },
  {
    "postcode": "26209",
    "city": "Sandkrug III"
  },
  {
    "postcode": "26209",
    "city": "Sandkrug II"
  },
  {
    "postcode": "26209",
    "city": "Kirchhatten II"
  },
  {
    "postcode": "26209",
    "city": "Sandkrug"
  },
  {
    "postcode": "26209",
    "city": "Hatterwüsting I"
  },
  {
    "postcode": "26209",
    "city": "Hatterwüsting II"
  },
  {
    "postcode": "26209",
    "city": "Streekermoor II"
  },
  {
    "postcode": "26209",
    "city": "Kirchhatten III"
  },
  {
    "postcode": "26209",
    "city": "Tweelbäke-Ost"
  },
  {
    "postcode": "26209",
    "city": "Im Rehwinkel"
  },
  {
    "postcode": "26209",
    "city": "Heidhusen"
  },
  {
    "postcode": "26209",
    "city": "Kirchhatten"
  },
  {
    "postcode": "26215",
    "city": "Bokel"
  },
  {
    "postcode": "26215",
    "city": "Borbeck"
  },
  {
    "postcode": "26215",
    "city": "Borbeckerfeld"
  },
  {
    "postcode": "26215",
    "city": "Conneforde"
  },
  {
    "postcode": "26215",
    "city": "Dingsfelde"
  },
  {
    "postcode": "26215",
    "city": "Dringenburg"
  },
  {
    "postcode": "26215",
    "city": "Gristede"
  },
  {
    "postcode": "26215",
    "city": "Heidkamp"
  },
  {
    "postcode": "26215",
    "city": "Herrenhausen"
  },
  {
    "postcode": "26215",
    "city": "Hollen"
  },
  {
    "postcode": "26215",
    "city": "Lehe"
  },
  {
    "postcode": "26215",
    "city": "Mansholt"
  },
  {
    "postcode": "26215",
    "city": "Metjendorf"
  },
  {
    "postcode": "26215",
    "city": "Mollberg"
  },
  {
    "postcode": "26215",
    "city": "Neuenkruge"
  },
  {
    "postcode": "26215",
    "city": "Nuttel"
  },
  {
    "postcode": "26215",
    "city": "Ofenerfeld"
  },
  {
    "postcode": "26215",
    "city": "Spohle"
  },
  {
    "postcode": "26215",
    "city": "Wemkendorf"
  },
  {
    "postcode": "26215",
    "city": "Wiefelstede"
  },
  {
    "postcode": "26215",
    "city": "Ammerland"
  },
  {
    "postcode": "26215",
    "city": "Heidkamperfeld"
  },
  {
    "postcode": "26215",
    "city": "Wehnerfeld"
  },
  {
    "postcode": "26215",
    "city": "Westerholtsfelde"
  },
  {
    "postcode": "26215",
    "city": "Hassel"
  },
  {
    "postcode": "26215",
    "city": "Hullenhausen"
  },
  {
    "postcode": "26215",
    "city": "Bokelerburg"
  },
  {
    "postcode": "26215",
    "city": "Kortebrügge"
  },
  {
    "postcode": "26219",
    "city": "Aumühlen bei Friesoythe"
  },
  {
    "postcode": "26219",
    "city": "Bösel bei Friesoythe"
  },
  {
    "postcode": "26219",
    "city": "Bösel Oldenburg"
  },
  {
    "postcode": "26219",
    "city": "Bösel"
  },
  {
    "postcode": "26219",
    "city": "Edewechterdamm"
  },
  {
    "postcode": "26219",
    "city": "Glaßdorf bei Friesoythe"
  },
  {
    "postcode": "26219",
    "city": "Osterloh bei Friesoythe"
  },
  {
    "postcode": "26219",
    "city": "Ostland bei Friesoythe"
  },
  {
    "postcode": "26219",
    "city": "Petersdorf Oldenburg"
  },
  {
    "postcode": "26219",
    "city": "Petersdorf"
  },
  {
    "postcode": "26219",
    "city": "Westerloh bei Friesoythe"
  },
  {
    "postcode": "26219",
    "city": "Cloppenburg"
  },
  {
    "postcode": "26219",
    "city": "Osterloh"
  },
  {
    "postcode": "26219",
    "city": "Westerloh"
  },
  {
    "postcode": "26219",
    "city": "Ostland"
  },
  {
    "postcode": "26219",
    "city": "Hülsberg"
  },
  {
    "postcode": "26219",
    "city": "Glaßdorf"
  },
  {
    "postcode": "26219",
    "city": "Fladderburg"
  },
  {
    "postcode": "26219",
    "city": "Bösel I"
  },
  {
    "postcode": "26219",
    "city": "Kartzfehn"
  },
  {
    "postcode": "26219",
    "city": "Overlahe"
  },
  {
    "postcode": "26219",
    "city": "Bösel II"
  },
  {
    "postcode": "26219",
    "city": "Bremer Sand"
  },
  {
    "postcode": "26219",
    "city": "Hohelaherfeld"
  },
  {
    "postcode": "26219",
    "city": "Südkamp"
  },
  {
    "postcode": "26316",
    "city": "Altjührden"
  },
  {
    "postcode": "26316",
    "city": "Borgstede"
  },
  {
    "postcode": "26316",
    "city": "Bramloge"
  },
  {
    "postcode": "26316",
    "city": "Büppel"
  },
  {
    "postcode": "26316",
    "city": "Dangast"
  },
  {
    "postcode": "26316",
    "city": "Dangastermoor Kreis Friesland"
  },
  {
    "postcode": "26316",
    "city": "Dangastermoor"
  },
  {
    "postcode": "26316",
    "city": "Grünenkamp"
  },
  {
    "postcode": "26316",
    "city": "Hohelucht"
  },
  {
    "postcode": "26316",
    "city": "Hohenberge"
  },
  {
    "postcode": "26316",
    "city": "Jeringhave"
  },
  {
    "postcode": "26316",
    "city": "Jethausen"
  },
  {
    "postcode": "26316",
    "city": "Jethausermoor"
  },
  {
    "postcode": "26316",
    "city": "Langendamm Kreis Friesland"
  },
  {
    "postcode": "26316",
    "city": "Langendamm"
  },
  {
    "postcode": "26316",
    "city": "Moorhausen Kreis Friesland"
  },
  {
    "postcode": "26316",
    "city": "Moorhausen"
  },
  {
    "postcode": "26316",
    "city": "Neudorf"
  },
  {
    "postcode": "26316",
    "city": "Neuenwege"
  },
  {
    "postcode": "26316",
    "city": "Obenstrohe"
  },
  {
    "postcode": "26316",
    "city": "Rallenbüschen"
  },
  {
    "postcode": "26316",
    "city": "Rosenberg Kreis Friesland"
  },
  {
    "postcode": "26316",
    "city": "Rosenberg"
  },
  {
    "postcode": "26316",
    "city": "Seghorn"
  },
  {
    "postcode": "26316",
    "city": "Streek"
  },
  {
    "postcode": "26316",
    "city": "Varel"
  },
  {
    "postcode": "26316",
    "city": "Varel Jadebusen"
  },
  {
    "postcode": "26316",
    "city": "Winkelsheide"
  },
  {
    "postcode": "26316",
    "city": "Friesland"
  },
  {
    "postcode": "26340",
    "city": "Astederfeld"
  },
  {
    "postcode": "26340",
    "city": "Bohlenberge"
  },
  {
    "postcode": "26340",
    "city": "Bohlenbergerfeld"
  },
  {
    "postcode": "26340",
    "city": "Collstede"
  },
  {
    "postcode": "26340",
    "city": "Driefel"
  },
  {
    "postcode": "26340",
    "city": "Dünkirchen"
  },
  {
    "postcode": "26340",
    "city": "Feldhörn"
  },
  {
    "postcode": "26340",
    "city": "Hoheliet"
  },
  {
    "postcode": "26340",
    "city": "Kronshausen"
  },
  {
    "postcode": "26340",
    "city": "Neuenburg Kreis Friesland"
  },
  {
    "postcode": "26340",
    "city": "Neuenburg"
  },
  {
    "postcode": "26340",
    "city": "Neuenburgerfeld Kreis Friesland"
  },
  {
    "postcode": "26340",
    "city": "Neuenburgerfeld"
  },
  {
    "postcode": "26340",
    "city": "Osterende"
  },
  {
    "postcode": "26340",
    "city": "Ruttel Kreis Friesland"
  },
  {
    "postcode": "26340",
    "city": "Ruttel"
  },
  {
    "postcode": "26340",
    "city": "Ruttelerfeld Kreis Friesland"
  },
  {
    "postcode": "26340",
    "city": "Ruttelerfeld"
  },
  {
    "postcode": "26340",
    "city": "Schweinebrück"
  },
  {
    "postcode": "26340",
    "city": "Zetel"
  },
  {
    "postcode": "26340",
    "city": "Friesland"
  },
  {
    "postcode": "26340",
    "city": "Idagroden"
  },
  {
    "postcode": "26340",
    "city": "Fuhrenkamp"
  },
  {
    "postcode": "26345",
    "city": "Adelheidsgroden"
  },
  {
    "postcode": "26345",
    "city": "Blauhand"
  },
  {
    "postcode": "26345",
    "city": "Bockhorn"
  },
  {
    "postcode": "26345",
    "city": "Bockhorn Jadebusen"
  },
  {
    "postcode": "26345",
    "city": "Bockhornerfeld"
  },
  {
    "postcode": "26345",
    "city": "Bredehorn über Varel Kreis Friesland"
  },
  {
    "postcode": "26345",
    "city": "Bredehorn über Varel"
  },
  {
    "postcode": "26345",
    "city": "Ellenserdamm"
  },
  {
    "postcode": "26345",
    "city": "Ellenserdammersiel"
  },
  {
    "postcode": "26345",
    "city": "Goelriehenfeld"
  },
  {
    "postcode": "26345",
    "city": "Grabstede"
  },
  {
    "postcode": "26345",
    "city": "Jührdenerfeld"
  },
  {
    "postcode": "26345",
    "city": "Kranenkamp"
  },
  {
    "postcode": "26345",
    "city": "Moorwinkelsdamm"
  },
  {
    "postcode": "26345",
    "city": "Osterforde"
  },
  {
    "postcode": "26345",
    "city": "Petersgroden"
  },
  {
    "postcode": "26345",
    "city": "Steinhausen Kreis Friesland"
  },
  {
    "postcode": "26345",
    "city": "Steinhausen"
  },
  {
    "postcode": "26345",
    "city": "Friesland"
  },
  {
    "postcode": "26345",
    "city": "Bredehorn"
  },
  {
    "postcode": "26349",
    "city": "Achtermeer"
  },
  {
    "postcode": "26349",
    "city": "Augusthausen"
  },
  {
    "postcode": "26349",
    "city": "Jade"
  },
  {
    "postcode": "26349",
    "city": "Jaderaußendeich"
  },
  {
    "postcode": "26349",
    "city": "Jaderberg"
  },
  {
    "postcode": "26349",
    "city": "Jaderkreuzmoor"
  },
  {
    "postcode": "26349",
    "city": "Nordbollenhagen"
  },
  {
    "postcode": "26349",
    "city": "Norderschweiburg"
  },
  {
    "postcode": "26349",
    "city": "Nordmentzhausen"
  },
  {
    "postcode": "26349",
    "city": "Rönnelmoor"
  },
  {
    "postcode": "26349",
    "city": "Schweiburg"
  },
  {
    "postcode": "26349",
    "city": "Sehestedt Jadebusen"
  },
  {
    "postcode": "26349",
    "city": "Sehestedt"
  },
  {
    "postcode": "26349",
    "city": "Südbollenhagen"
  },
  {
    "postcode": "26349",
    "city": "Südmentzhausen"
  },
  {
    "postcode": "26349",
    "city": "Wapelergroden"
  },
  {
    "postcode": "26349",
    "city": "Wesermarsch"
  },
  {
    "postcode": "26349",
    "city": "Mentzhausen"
  },
  {
    "postcode": "26349",
    "city": "Diekmannshausen"
  },
  {
    "postcode": "26349",
    "city": "Jaderaltendeich"
  },
  {
    "postcode": "26349",
    "city": "Jaderlangstraße"
  },
  {
    "postcode": "26349",
    "city": "Kurzendorf"
  },
  {
    "postcode": "26349",
    "city": "Jaderaltensiel"
  },
  {
    "postcode": "26349",
    "city": "Wapelersiel"
  },
  {
    "postcode": "26382",
    "city": "Südstrand"
  },
  {
    "postcode": "26382",
    "city": "Wilhelmshaven"
  },
  {
    "postcode": "26382",
    "city": "Innenstadt"
  },
  {
    "postcode": "26382",
    "city": "Bant"
  },
  {
    "postcode": "26382",
    "city": "Innenhafen"
  },
  {
    "postcode": "26382",
    "city": "Heppens"
  },
  {
    "postcode": "26382",
    "city": "Siebethsburg"
  },
  {
    "postcode": "26384",
    "city": "Wilhelmshaven"
  },
  {
    "postcode": "26384",
    "city": "Heppenser Groden"
  },
  {
    "postcode": "26384",
    "city": "Heppens"
  },
  {
    "postcode": "26384",
    "city": "Innenhafen"
  },
  {
    "postcode": "26384",
    "city": "Innenstadt"
  },
  {
    "postcode": "26386",
    "city": "Altengroden"
  },
  {
    "postcode": "26386",
    "city": "Neuengroden"
  },
  {
    "postcode": "26386",
    "city": "Rüstersiel"
  },
  {
    "postcode": "26386",
    "city": "Wilhelmshaven"
  },
  {
    "postcode": "26386",
    "city": "Siebethsburg"
  },
  {
    "postcode": "26386",
    "city": "Rüstringer Stadtpark"
  },
  {
    "postcode": "26386",
    "city": "Heppens"
  },
  {
    "postcode": "26386",
    "city": "Rüstersieler Groden"
  },
  {
    "postcode": "26388",
    "city": "Bohnenburg"
  },
  {
    "postcode": "26388",
    "city": "Fedderwarden"
  },
  {
    "postcode": "26388",
    "city": "Fedderwardergroden"
  },
  {
    "postcode": "26388",
    "city": "Langewerth"
  },
  {
    "postcode": "26388",
    "city": "Sengwarden"
  },
  {
    "postcode": "26388",
    "city": "Voslapp"
  },
  {
    "postcode": "26388",
    "city": "Wilhelmshaven"
  },
  {
    "postcode": "26388",
    "city": "JadeWeserPort"
  },
  {
    "postcode": "26388",
    "city": "Coldewei-Himmelreich"
  },
  {
    "postcode": "26388",
    "city": "Rüstersiel"
  },
  {
    "postcode": "26388",
    "city": "Rüstersieler Groden"
  },
  {
    "postcode": "26388",
    "city": "Voslapper Groden"
  },
  {
    "postcode": "26389",
    "city": "Aldenburg"
  },
  {
    "postcode": "26389",
    "city": "Ebkeriege"
  },
  {
    "postcode": "26389",
    "city": "Langewerth"
  },
  {
    "postcode": "26389",
    "city": "Wilhelmshaven"
  },
  {
    "postcode": "26389",
    "city": "Maadebogen"
  },
  {
    "postcode": "26389",
    "city": "Innenhafen"
  },
  {
    "postcode": "26389",
    "city": "Neuende"
  },
  {
    "postcode": "26389",
    "city": "Schaar"
  },
  {
    "postcode": "26389",
    "city": "Bant"
  },
  {
    "postcode": "26389",
    "city": "Rüstringer Stadtpark"
  },
  {
    "postcode": "26389",
    "city": "Siebethsburg"
  },
  {
    "postcode": "26389",
    "city": "Altengroden"
  },
  {
    "postcode": "26389",
    "city": "Innenstadt"
  },
  {
    "postcode": "26409",
    "city": "Altfunnixsiel"
  },
  {
    "postcode": "26409",
    "city": "Ardorf"
  },
  {
    "postcode": "26409",
    "city": "Asel Ostfriesland"
  },
  {
    "postcode": "26409",
    "city": "Asel"
  },
  {
    "postcode": "26409",
    "city": "Berdum Ostfriesland"
  },
  {
    "postcode": "26409",
    "city": "Berdum"
  },
  {
    "postcode": "26409",
    "city": "Blersum"
  },
  {
    "postcode": "26409",
    "city": "Burhafe Ostfriesland"
  },
  {
    "postcode": "26409",
    "city": "Burhafe"
  },
  {
    "postcode": "26409",
    "city": "Buttforde"
  },
  {
    "postcode": "26409",
    "city": "Carolinensiel Ostfriesland"
  },
  {
    "postcode": "26409",
    "city": "Carolinensiel"
  },
  {
    "postcode": "26409",
    "city": "Eggelingen"
  },
  {
    "postcode": "26409",
    "city": "Funnix Ostfriesland"
  },
  {
    "postcode": "26409",
    "city": "Funnix"
  },
  {
    "postcode": "26409",
    "city": "Hovel"
  },
  {
    "postcode": "26409",
    "city": "Leerhafe"
  },
  {
    "postcode": "26409",
    "city": "Uttel"
  },
  {
    "postcode": "26409",
    "city": "Willen Harlingerland"
  },
  {
    "postcode": "26409",
    "city": "Willen"
  },
  {
    "postcode": "26409",
    "city": "Wittmund"
  },
  {
    "postcode": "26409",
    "city": "Knyphauserwald"
  },
  {
    "postcode": "26409",
    "city": "Pfahlhaus"
  },
  {
    "postcode": "26409",
    "city": "Stadt Esens"
  },
  {
    "postcode": "26409",
    "city": "Neuenhaus"
  },
  {
    "postcode": "26409",
    "city": "Updorf"
  },
  {
    "postcode": "26409",
    "city": "Angelsburg"
  },
  {
    "postcode": "26409",
    "city": "Kreyenburg"
  },
  {
    "postcode": "26409",
    "city": "Poggenkrug"
  },
  {
    "postcode": "26409",
    "city": "Tannenkamp"
  },
  {
    "postcode": "26409",
    "city": "Barg"
  },
  {
    "postcode": "26409",
    "city": "Barums"
  },
  {
    "postcode": "26409",
    "city": "Nenndorf"
  },
  {
    "postcode": "26409",
    "city": "Adlershof"
  },
  {
    "postcode": "26409",
    "city": "Ennoswonne"
  },
  {
    "postcode": "26409",
    "city": "Königskron"
  },
  {
    "postcode": "26409",
    "city": "Lilienthal"
  },
  {
    "postcode": "26409",
    "city": "Ludwigsburg"
  },
  {
    "postcode": "26409",
    "city": "Südwendung"
  },
  {
    "postcode": "26409",
    "city": "Gem Wangerland"
  },
  {
    "postcode": "26409",
    "city": "Irmenhof"
  },
  {
    "postcode": "26409",
    "city": "Klinge"
  },
  {
    "postcode": "26409",
    "city": "Kirmeer"
  },
  {
    "postcode": "26409",
    "city": "Müggenkrug"
  },
  {
    "postcode": "26409",
    "city": "Schultenhausen"
  },
  {
    "postcode": "26409",
    "city": "Schluis"
  },
  {
    "postcode": "26409",
    "city": "Kamphusen"
  },
  {
    "postcode": "26409",
    "city": "Schwarzehörn"
  },
  {
    "postcode": "26409",
    "city": "Harlesiel"
  },
  {
    "postcode": "26409",
    "city": "Steinhof"
  },
  {
    "postcode": "26409",
    "city": "Surenburg"
  },
  {
    "postcode": "26409",
    "city": "Tannenwerth"
  },
  {
    "postcode": "26409",
    "city": "Tiemannsegge"
  },
  {
    "postcode": "26409",
    "city": "Carmsland"
  },
  {
    "postcode": "26409",
    "city": "Till"
  },
  {
    "postcode": "26409",
    "city": "Negenbarger Feldstrich"
  },
  {
    "postcode": "26409",
    "city": "Warnsather Feldstrich"
  },
  {
    "postcode": "26419",
    "city": "Accum"
  },
  {
    "postcode": "26419",
    "city": "Addernhausen"
  },
  {
    "postcode": "26419",
    "city": "Barkel Kreis Friesland"
  },
  {
    "postcode": "26419",
    "city": "Barkel"
  },
  {
    "postcode": "26419",
    "city": "Feldhausen"
  },
  {
    "postcode": "26419",
    "city": "Grafschaft Kreis Friesland"
  },
  {
    "postcode": "26419",
    "city": "Grafschaft"
  },
  {
    "postcode": "26419",
    "city": "Heidmühle Kreis Friesland"
  },
  {
    "postcode": "26419",
    "city": "Heidmühle"
  },
  {
    "postcode": "26419",
    "city": "Middelsfähr"
  },
  {
    "postcode": "26419",
    "city": "Oestringfelde"
  },
  {
    "postcode": "26419",
    "city": "Ostiem"
  },
  {
    "postcode": "26419",
    "city": "Roffhausen"
  },
  {
    "postcode": "26419",
    "city": "Schoost"
  },
  {
    "postcode": "26419",
    "city": "Schortens"
  },
  {
    "postcode": "26419",
    "city": "Sillenstede"
  },
  {
    "postcode": "26419",
    "city": "Upjever"
  },
  {
    "postcode": "26419",
    "city": "Wilhelmshaven"
  },
  {
    "postcode": "26419",
    "city": "Friesland"
  },
  {
    "postcode": "26419",
    "city": "Moorhausen"
  },
  {
    "postcode": "26419",
    "city": "Moorsum"
  },
  {
    "postcode": "26419",
    "city": "Stadt Wilhelmshaven"
  },
  {
    "postcode": "26419",
    "city": "Mennhausen"
  },
  {
    "postcode": "26419",
    "city": "Connhausen"
  },
  {
    "postcode": "26427",
    "city": "Altharlingersiel"
  },
  {
    "postcode": "26427",
    "city": "Bensersiel"
  },
  {
    "postcode": "26427",
    "city": "Brill"
  },
  {
    "postcode": "26427",
    "city": "Damsum"
  },
  {
    "postcode": "26427",
    "city": "Dunum"
  },
  {
    "postcode": "26427",
    "city": "Esens"
  },
  {
    "postcode": "26427",
    "city": "Fulkum"
  },
  {
    "postcode": "26427",
    "city": "Holtgast"
  },
  {
    "postcode": "26427",
    "city": "Holtgast Ostfriesland"
  },
  {
    "postcode": "26427",
    "city": "Mamburg"
  },
  {
    "postcode": "26427",
    "city": "Moorweg"
  },
  {
    "postcode": "26427",
    "city": "Neufolstenhausen"
  },
  {
    "postcode": "26427",
    "city": "Neugaude"
  },
  {
    "postcode": "26427",
    "city": "Neuharlingersiel"
  },
  {
    "postcode": "26427",
    "city": "Nordorf"
  },
  {
    "postcode": "26427",
    "city": "Ost Dunum"
  },
  {
    "postcode": "26427",
    "city": "Osteraccum"
  },
  {
    "postcode": "26427",
    "city": "Seriem"
  },
  {
    "postcode": "26427",
    "city": "Stedesdorf"
  },
  {
    "postcode": "26427",
    "city": "Sterbur"
  },
  {
    "postcode": "26427",
    "city": "Süd Dunum"
  },
  {
    "postcode": "26427",
    "city": "Thunum"
  },
  {
    "postcode": "26427",
    "city": "Utgast"
  },
  {
    "postcode": "26427",
    "city": "Wagnersfehn"
  },
  {
    "postcode": "26427",
    "city": "Werdum"
  },
  {
    "postcode": "26427",
    "city": "Westbense"
  },
  {
    "postcode": "26427",
    "city": "Wittmund"
  },
  {
    "postcode": "26427",
    "city": "Westerburer Polder"
  },
  {
    "postcode": "26427",
    "city": "Neu Brill"
  },
  {
    "postcode": "26427",
    "city": "Oldendorf"
  },
  {
    "postcode": "26427",
    "city": "Groß Fulkum"
  },
  {
    "postcode": "26427",
    "city": "Mühlenstrich"
  },
  {
    "postcode": "26427",
    "city": "Kortenhörn"
  },
  {
    "postcode": "26427",
    "city": "Klosterschoo"
  },
  {
    "postcode": "26427",
    "city": "Altgaude"
  },
  {
    "postcode": "26427",
    "city": "Bramberg"
  },
  {
    "postcode": "26427",
    "city": "Schoo"
  },
  {
    "postcode": "26427",
    "city": "Ostbense"
  },
  {
    "postcode": "26427",
    "city": "Anderwarfen"
  },
  {
    "postcode": "26434",
    "city": "Altgarmssiel Jeverland"
  },
  {
    "postcode": "26434",
    "city": "Altgarmssiel"
  },
  {
    "postcode": "26434",
    "city": "Bassens"
  },
  {
    "postcode": "26434",
    "city": "Crildumersiel"
  },
  {
    "postcode": "26434",
    "city": "Friederikensiel"
  },
  {
    "postcode": "26434",
    "city": "Friedrich Augustengroden"
  },
  {
    "postcode": "26434",
    "city": "Funnens"
  },
  {
    "postcode": "26434",
    "city": "Grimmens"
  },
  {
    "postcode": "26434",
    "city": "Haddien"
  },
  {
    "postcode": "26434",
    "city": "Hohenkirchen Oldenburg"
  },
  {
    "postcode": "26434",
    "city": "Hohenkirchen"
  },
  {
    "postcode": "26434",
    "city": "Hooksiel"
  },
  {
    "postcode": "26434",
    "city": "Horum"
  },
  {
    "postcode": "26434",
    "city": "Horumersiel"
  },
  {
    "postcode": "26434",
    "city": "Mederns"
  },
  {
    "postcode": "26434",
    "city": "Middoge"
  },
  {
    "postcode": "26434",
    "city": "Minsen"
  },
  {
    "postcode": "26434",
    "city": "Neugarmssiel"
  },
  {
    "postcode": "26434",
    "city": "Oldorf"
  },
  {
    "postcode": "26434",
    "city": "Pakens"
  },
  {
    "postcode": "26434",
    "city": "Sankt Joost"
  },
  {
    "postcode": "26434",
    "city": "Schillig"
  },
  {
    "postcode": "26434",
    "city": "Tettens Jeverland"
  },
  {
    "postcode": "26434",
    "city": "Tettens"
  },
  {
    "postcode": "26434",
    "city": "Waddewarden"
  },
  {
    "postcode": "26434",
    "city": "Wangerland"
  },
  {
    "postcode": "26434",
    "city": "Wiarden"
  },
  {
    "postcode": "26434",
    "city": "Wichtens Jeverland"
  },
  {
    "postcode": "26434",
    "city": "Wichtens"
  },
  {
    "postcode": "26434",
    "city": "Wiefels"
  },
  {
    "postcode": "26434",
    "city": "Wüppels"
  },
  {
    "postcode": "26434",
    "city": "Friesland"
  },
  {
    "postcode": "26434",
    "city": "St. Joost"
  },
  {
    "postcode": "26434",
    "city": "Gem Wittmund"
  },
  {
    "postcode": "26434",
    "city": "Bottens"
  },
  {
    "postcode": "26434",
    "city": "Fuhleriege"
  },
  {
    "postcode": "26434",
    "city": "Uthausen"
  },
  {
    "postcode": "26434",
    "city": "Pakensergroden"
  },
  {
    "postcode": "26434",
    "city": "Schönhörne"
  },
  {
    "postcode": "26434",
    "city": "Kaisershof"
  },
  {
    "postcode": "26434",
    "city": "Bussenhausen"
  },
  {
    "postcode": "26441",
    "city": "Cleverns-Sandel"
  },
  {
    "postcode": "26441",
    "city": "Jever"
  },
  {
    "postcode": "26441",
    "city": "Moorwarfen"
  },
  {
    "postcode": "26441",
    "city": "Rahrdum"
  },
  {
    "postcode": "26441",
    "city": "Streitfeld Ostfriesland"
  },
  {
    "postcode": "26441",
    "city": "Streitfeld"
  },
  {
    "postcode": "26441",
    "city": "Friesland"
  },
  {
    "postcode": "26441",
    "city": "Groß Hauskreuz"
  },
  {
    "postcode": "26441",
    "city": "Auskündigerei"
  },
  {
    "postcode": "26441",
    "city": "Cleverns"
  },
  {
    "postcode": "26441",
    "city": "Sandel"
  },
  {
    "postcode": "26446",
    "city": "Abickhafe"
  },
  {
    "postcode": "26446",
    "city": "Bentstreek"
  },
  {
    "postcode": "26446",
    "city": "Dose"
  },
  {
    "postcode": "26446",
    "city": "Etzel"
  },
  {
    "postcode": "26446",
    "city": "Friedeburg"
  },
  {
    "postcode": "26446",
    "city": "Friedeburg Ostfriesland"
  },
  {
    "postcode": "26446",
    "city": "Heidhörn Ostfriesland"
  },
  {
    "postcode": "26446",
    "city": "Heidhörn"
  },
  {
    "postcode": "26446",
    "city": "Hesel"
  },
  {
    "postcode": "26446",
    "city": "Hoheesche"
  },
  {
    "postcode": "26446",
    "city": "Horsten Ostfriesland"
  },
  {
    "postcode": "26446",
    "city": "Horsten"
  },
  {
    "postcode": "26446",
    "city": "Marx"
  },
  {
    "postcode": "26446",
    "city": "Reepsholt"
  },
  {
    "postcode": "26446",
    "city": "Upschört"
  },
  {
    "postcode": "26446",
    "city": "Wiesede"
  },
  {
    "postcode": "26446",
    "city": "Wiesedermeer"
  },
  {
    "postcode": "26446",
    "city": "Wittmund"
  },
  {
    "postcode": "26446",
    "city": "Brinkenshöhe"
  },
  {
    "postcode": "26446",
    "city": "Preehörn"
  },
  {
    "postcode": "26446",
    "city": "Lopsum"
  },
  {
    "postcode": "26446",
    "city": "Hissenhausen"
  },
  {
    "postcode": "26446",
    "city": "Hagelskamp"
  },
  {
    "postcode": "26446",
    "city": "Langstraße"
  },
  {
    "postcode": "26446",
    "city": "Moorstrich"
  },
  {
    "postcode": "26446",
    "city": "Hohelucht"
  },
  {
    "postcode": "26446",
    "city": "Hermannslust"
  },
  {
    "postcode": "26446",
    "city": "Strooterhörn"
  },
  {
    "postcode": "26446",
    "city": "Riepen"
  },
  {
    "postcode": "26452",
    "city": "Altgödens"
  },
  {
    "postcode": "26452",
    "city": "Cäciliengroden"
  },
  {
    "postcode": "26452",
    "city": "Dykhausen"
  },
  {
    "postcode": "26452",
    "city": "Mariensiel"
  },
  {
    "postcode": "26452",
    "city": "Neustadtgödens"
  },
  {
    "postcode": "26452",
    "city": "Salzengroden Kreis Friesland"
  },
  {
    "postcode": "26452",
    "city": "Salzengroden"
  },
  {
    "postcode": "26452",
    "city": "Sande"
  },
  {
    "postcode": "26452",
    "city": "Sande Kreis Friesl"
  },
  {
    "postcode": "26452",
    "city": "Sanderbusch Kreis Friesland"
  },
  {
    "postcode": "26452",
    "city": "Sanderbusch"
  },
  {
    "postcode": "26452",
    "city": "Friesland"
  },
  {
    "postcode": "26452",
    "city": "Gödens"
  },
  {
    "postcode": "26465",
    "city": "Langeoog"
  },
  {
    "postcode": "26465",
    "city": "Wittmund"
  },
  {
    "postcode": "26474",
    "city": "Spiekeroog"
  },
  {
    "postcode": "26474",
    "city": "Wittmund"
  },
  {
    "postcode": "26486",
    "city": "Wangerooge Nordseebad"
  },
  {
    "postcode": "26486",
    "city": "Wangerooge"
  },
  {
    "postcode": "26486",
    "city": "Friesland"
  },
  {
    "postcode": "26487",
    "city": "Altgaude Ostfriesland"
  },
  {
    "postcode": "26487",
    "city": "Altgaude"
  },
  {
    "postcode": "26487",
    "city": "Blomberg Ostfriesland"
  },
  {
    "postcode": "26487",
    "city": "Blomberg"
  },
  {
    "postcode": "26487",
    "city": "Lüttstede"
  },
  {
    "postcode": "26487",
    "city": "Negenmeerten"
  },
  {
    "postcode": "26487",
    "city": "Neuschoo"
  },
  {
    "postcode": "26487",
    "city": "Wittmund"
  },
  {
    "postcode": "26487",
    "city": "Lütjensfehn"
  },
  {
    "postcode": "26489",
    "city": "Barkholt"
  },
  {
    "postcode": "26489",
    "city": "Ochtersum Ostfriesland"
  },
  {
    "postcode": "26489",
    "city": "Ochtersum"
  },
  {
    "postcode": "26489",
    "city": "Ostochtersum"
  },
  {
    "postcode": "26489",
    "city": "Westochtersum"
  },
  {
    "postcode": "26489",
    "city": "Wittmund"
  },
  {
    "postcode": "26506",
    "city": "Bargebur"
  },
  {
    "postcode": "26506",
    "city": "Leybuchtpolder"
  },
  {
    "postcode": "26506",
    "city": "Neuwesteel"
  },
  {
    "postcode": "26506",
    "city": "Norddeich Ostfriesland"
  },
  {
    "postcode": "26506",
    "city": "Norddeich"
  },
  {
    "postcode": "26506",
    "city": "Norden"
  },
  {
    "postcode": "26506",
    "city": "Norden Ostfriesland"
  },
  {
    "postcode": "26506",
    "city": "Ostermarsch"
  },
  {
    "postcode": "26506",
    "city": "Süderneuland I"
  },
  {
    "postcode": "26506",
    "city": "Süderneuland II"
  },
  {
    "postcode": "26506",
    "city": "Tidofeld"
  },
  {
    "postcode": "26506",
    "city": "Westermarsch I"
  },
  {
    "postcode": "26506",
    "city": "Westermarsch II"
  },
  {
    "postcode": "26506",
    "city": "Wurzeldeich"
  },
  {
    "postcode": "26506",
    "city": "Aurich"
  },
  {
    "postcode": "26506",
    "city": "Gastmarscher Rott"
  },
  {
    "postcode": "26506",
    "city": "Gastmarschersiel"
  },
  {
    "postcode": "26506",
    "city": "Flüthörn"
  },
  {
    "postcode": "26506",
    "city": "Flökershausen"
  },
  {
    "postcode": "26506",
    "city": "Osterloog"
  },
  {
    "postcode": "26506",
    "city": "Westerloog"
  },
  {
    "postcode": "26506",
    "city": "Soltenberg"
  },
  {
    "postcode": "26506",
    "city": "Süderhaus"
  },
  {
    "postcode": "26524",
    "city": "Berum Ostfriesland"
  },
  {
    "postcode": "26524",
    "city": "Berum"
  },
  {
    "postcode": "26524",
    "city": "Berumbur"
  },
  {
    "postcode": "26524",
    "city": "Blandorf-Wichte Ostfriesland"
  },
  {
    "postcode": "26524",
    "city": "Blandorf-Wichte"
  },
  {
    "postcode": "26524",
    "city": "Hage"
  },
  {
    "postcode": "26524",
    "city": "Hage Ostfriesland"
  },
  {
    "postcode": "26524",
    "city": "Hagermarsch"
  },
  {
    "postcode": "26524",
    "city": "Halbemond"
  },
  {
    "postcode": "26524",
    "city": "Hilgenriedersiel"
  },
  {
    "postcode": "26524",
    "city": "Holzdorf"
  },
  {
    "postcode": "26524",
    "city": "Kleinheide"
  },
  {
    "postcode": "26524",
    "city": "Lütetsburg"
  },
  {
    "postcode": "26524",
    "city": "Theener"
  },
  {
    "postcode": "26524",
    "city": "Aurich"
  },
  {
    "postcode": "26524",
    "city": "Wichte"
  },
  {
    "postcode": "26524",
    "city": "Hagerwilde"
  },
  {
    "postcode": "26524",
    "city": "Blandorf"
  },
  {
    "postcode": "26524",
    "city": "Poggenburg"
  },
  {
    "postcode": "26524",
    "city": "Finkenstede"
  },
  {
    "postcode": "26524",
    "city": "Junkersrott"
  },
  {
    "postcode": "26524",
    "city": "Karlshof"
  },
  {
    "postcode": "26524",
    "city": "Süderhaus"
  },
  {
    "postcode": "26524",
    "city": "Wilhelmsfeld"
  },
  {
    "postcode": "26524",
    "city": "Elisenhof"
  },
  {
    "postcode": "26524",
    "city": "Moorriege"
  },
  {
    "postcode": "26529",
    "city": "Leezdorf"
  },
  {
    "postcode": "26529",
    "city": "Marienhafe"
  },
  {
    "postcode": "26529",
    "city": "Osteel"
  },
  {
    "postcode": "26529",
    "city": "Rechtsupweg"
  },
  {
    "postcode": "26529",
    "city": "Siegelsum"
  },
  {
    "postcode": "26529",
    "city": "Tjüche"
  },
  {
    "postcode": "26529",
    "city": "Upgant-Schott"
  },
  {
    "postcode": "26529",
    "city": "Wirdum"
  },
  {
    "postcode": "26529",
    "city": "Wirdum Ostfriesland"
  },
  {
    "postcode": "26529",
    "city": "Aurich"
  },
  {
    "postcode": "26529",
    "city": "Ovelgönne"
  },
  {
    "postcode": "26529",
    "city": "Moortun"
  },
  {
    "postcode": "26529",
    "city": "Tjücher Äcker"
  },
  {
    "postcode": "26529",
    "city": "Hundergrasen"
  },
  {
    "postcode": "26529",
    "city": "Osteeler Neuland"
  },
  {
    "postcode": "26529",
    "city": "Altendeich"
  },
  {
    "postcode": "26529",
    "city": "Hohebeer"
  },
  {
    "postcode": "26529",
    "city": "Meevenburg"
  },
  {
    "postcode": "26529",
    "city": "Neue Welt"
  },
  {
    "postcode": "26529",
    "city": "Osteeler"
  },
  {
    "postcode": "26529",
    "city": "Hakerei"
  },
  {
    "postcode": "26529",
    "city": "Osterupgant"
  },
  {
    "postcode": "26529",
    "city": "Osterupganter Äcker"
  },
  {
    "postcode": "26529",
    "city": "Mühlenloog"
  },
  {
    "postcode": "26529",
    "city": "Botterfleth"
  },
  {
    "postcode": "26529",
    "city": "Coldehörn"
  },
  {
    "postcode": "26529",
    "city": "Tjücher Grashaus"
  },
  {
    "postcode": "26529",
    "city": "Wirdumer Neuland"
  },
  {
    "postcode": "26529",
    "city": "Neu Wilhelmshof"
  },
  {
    "postcode": "26529",
    "city": "Otterhamm"
  },
  {
    "postcode": "26529",
    "city": "Wilhelmshof"
  },
  {
    "postcode": "26529",
    "city": "Wirdumer Altendeich"
  },
  {
    "postcode": "26532",
    "city": "Arle"
  },
  {
    "postcode": "26532",
    "city": "Berumerfehn"
  },
  {
    "postcode": "26532",
    "city": "Coldinne"
  },
  {
    "postcode": "26532",
    "city": "Großheide"
  },
  {
    "postcode": "26532",
    "city": "Großheide Ostfriesland"
  },
  {
    "postcode": "26532",
    "city": "Menstede"
  },
  {
    "postcode": "26532",
    "city": "Menstede-Coldinne"
  },
  {
    "postcode": "26532",
    "city": "Müntjedorf Kreis Norden"
  },
  {
    "postcode": "26532",
    "city": "Müntjedorf"
  },
  {
    "postcode": "26532",
    "city": "Ostermoordorf"
  },
  {
    "postcode": "26532",
    "city": "Südarle"
  },
  {
    "postcode": "26532",
    "city": "Südcoldinne"
  },
  {
    "postcode": "26532",
    "city": "Westerende Kreis Norden"
  },
  {
    "postcode": "26532",
    "city": "Westerende"
  },
  {
    "postcode": "26532",
    "city": "Westermoordorf"
  },
  {
    "postcode": "26532",
    "city": "Aurich"
  },
  {
    "postcode": "26532",
    "city": "Breitefeld"
  },
  {
    "postcode": "26532",
    "city": "Terhalle"
  },
  {
    "postcode": "26532",
    "city": "Friederikenfeld"
  },
  {
    "postcode": "26532",
    "city": "Komper"
  },
  {
    "postcode": "26548",
    "city": "Norderney"
  },
  {
    "postcode": "26548",
    "city": "Aurich"
  },
  {
    "postcode": "26553",
    "city": "Dornum"
  },
  {
    "postcode": "26553",
    "city": "Dornum Ostfriesland"
  },
  {
    "postcode": "26553",
    "city": "Dornumergrode Kreis Norden"
  },
  {
    "postcode": "26553",
    "city": "Dornumergrode"
  },
  {
    "postcode": "26553",
    "city": "Dornumersiel"
  },
  {
    "postcode": "26553",
    "city": "Neßmersiel"
  },
  {
    "postcode": "26553",
    "city": "Nesse"
  },
  {
    "postcode": "26553",
    "city": "Roggenstede"
  },
  {
    "postcode": "26553",
    "city": "Schwittersum Kreis Norden"
  },
  {
    "postcode": "26553",
    "city": "Schwittersum"
  },
  {
    "postcode": "26553",
    "city": "Westdorf Kreis Norden"
  },
  {
    "postcode": "26553",
    "city": "Westdorf"
  },
  {
    "postcode": "26553",
    "city": "Westeraccum Kreis Norden"
  },
  {
    "postcode": "26553",
    "city": "Westeraccum"
  },
  {
    "postcode": "26553",
    "city": "Westeraccumersiel"
  },
  {
    "postcode": "26553",
    "city": "Westerbur"
  },
  {
    "postcode": "26553",
    "city": "Aurich"
  },
  {
    "postcode": "26553",
    "city": "Marienfeld"
  },
  {
    "postcode": "26553",
    "city": "Reersum"
  },
  {
    "postcode": "26553",
    "city": "Harketief"
  },
  {
    "postcode": "26553",
    "city": "Neßmermühle"
  },
  {
    "postcode": "26553",
    "city": "Ostdorf"
  },
  {
    "postcode": "26553",
    "city": "Siebelshörn"
  },
  {
    "postcode": "26553",
    "city": "Klein Kiphausen"
  },
  {
    "postcode": "26553",
    "city": "Sielrott"
  },
  {
    "postcode": "26553",
    "city": "Neegrobeer"
  },
  {
    "postcode": "26553",
    "city": "Neßmerpolder"
  },
  {
    "postcode": "26553",
    "city": "Deichrott"
  },
  {
    "postcode": "26553",
    "city": "Deichstrich"
  },
  {
    "postcode": "26553",
    "city": "Middelsbur"
  },
  {
    "postcode": "26553",
    "city": "Neßmeraltendeich"
  },
  {
    "postcode": "26553",
    "city": "Neuhausen"
  },
  {
    "postcode": "26553",
    "city": "Osterbur"
  },
  {
    "postcode": "26553",
    "city": "Pumpsiel"
  },
  {
    "postcode": "26556",
    "city": "Eversmeer"
  },
  {
    "postcode": "26556",
    "city": "Goldmoor"
  },
  {
    "postcode": "26556",
    "city": "Nenndorf Ostfriesland"
  },
  {
    "postcode": "26556",
    "city": "Nenndorf"
  },
  {
    "postcode": "26556",
    "city": "Schweindorf Harlingerland"
  },
  {
    "postcode": "26556",
    "city": "Schweindorf"
  },
  {
    "postcode": "26556",
    "city": "Utarp Harlingerland"
  },
  {
    "postcode": "26556",
    "city": "Utarp"
  },
  {
    "postcode": "26556",
    "city": "Westerholt Ostfriesland"
  },
  {
    "postcode": "26556",
    "city": "Westerholt"
  },
  {
    "postcode": "26556",
    "city": "Wittmund"
  },
  {
    "postcode": "26556",
    "city": "Nenndorferfeld"
  },
  {
    "postcode": "26556",
    "city": "Metzenburg"
  },
  {
    "postcode": "26556",
    "city": "Barger Unlande"
  },
  {
    "postcode": "26556",
    "city": "Lederne Lampe"
  },
  {
    "postcode": "26556",
    "city": "Schlei"
  },
  {
    "postcode": "26556",
    "city": "Terheide"
  },
  {
    "postcode": "26571",
    "city": "Juist"
  },
  {
    "postcode": "26571",
    "city": "Aurich"
  },
  {
    "postcode": "26579",
    "city": "Baltrum"
  },
  {
    "postcode": "26579",
    "city": "Aurich"
  },
  {
    "postcode": "26603",
    "city": "Aurich"
  },
  {
    "postcode": "26603",
    "city": "Aurich Ostfriesland"
  },
  {
    "postcode": "26603",
    "city": "Popens"
  },
  {
    "postcode": "26603",
    "city": "Sandhorst"
  },
  {
    "postcode": "26603",
    "city": "Wallinghausen"
  },
  {
    "postcode": "26603",
    "city": "Innenstadt"
  },
  {
    "postcode": "26603",
    "city": "Walle"
  },
  {
    "postcode": "26605",
    "city": "Aurich"
  },
  {
    "postcode": "26605",
    "city": "Aurich Ostfriesland"
  },
  {
    "postcode": "26605",
    "city": "Brockzetel"
  },
  {
    "postcode": "26605",
    "city": "Egels"
  },
  {
    "postcode": "26605",
    "city": "Extum Ostfriesland"
  },
  {
    "postcode": "26605",
    "city": "Extum"
  },
  {
    "postcode": "26605",
    "city": "Haxtum Ostfriesland"
  },
  {
    "postcode": "26605",
    "city": "Haxtum"
  },
  {
    "postcode": "26605",
    "city": "Kirchdorf Ostfriesland"
  },
  {
    "postcode": "26605",
    "city": "Kirchdorf"
  },
  {
    "postcode": "26605",
    "city": "Popens"
  },
  {
    "postcode": "26605",
    "city": "Rahe Ostfriesland"
  },
  {
    "postcode": "26605",
    "city": "Rahe"
  },
  {
    "postcode": "26605",
    "city": "Schirum"
  },
  {
    "postcode": "26605",
    "city": "Spekendorf"
  },
  {
    "postcode": "26605",
    "city": "Walle Ostfriesland"
  },
  {
    "postcode": "26605",
    "city": "Walle"
  },
  {
    "postcode": "26605",
    "city": "Wallinghausen"
  },
  {
    "postcode": "26605",
    "city": "Wiesens"
  },
  {
    "postcode": "26605",
    "city": "Kirchdorferfeld"
  },
  {
    "postcode": "26605",
    "city": "Osterfeld"
  },
  {
    "postcode": "26605",
    "city": "Innenstadt"
  },
  {
    "postcode": "26605",
    "city": "Sandhorst"
  },
  {
    "postcode": "26605",
    "city": "Westerfeld"
  },
  {
    "postcode": "26605",
    "city": "Schirumer Leegmoor"
  },
  {
    "postcode": "26605",
    "city": "Schirumerfeld"
  },
  {
    "postcode": "26607",
    "city": "Aurich"
  },
  {
    "postcode": "26607",
    "city": "Aurich Ostfriesland"
  },
  {
    "postcode": "26607",
    "city": "Dietrichsfeld"
  },
  {
    "postcode": "26607",
    "city": "Georgsfeld"
  },
  {
    "postcode": "26607",
    "city": "Langefeld"
  },
  {
    "postcode": "26607",
    "city": "Middels"
  },
  {
    "postcode": "26607",
    "city": "Pfalzdorf"
  },
  {
    "postcode": "26607",
    "city": "Plaggenburg"
  },
  {
    "postcode": "26607",
    "city": "Sandhorst"
  },
  {
    "postcode": "26607",
    "city": "Spekendorf"
  },
  {
    "postcode": "26607",
    "city": "Tannenhausen Ostfriesland"
  },
  {
    "postcode": "26607",
    "city": "Tannenhausen"
  },
  {
    "postcode": "26607",
    "city": "Walle Ostfriesland"
  },
  {
    "postcode": "26607",
    "city": "Walle"
  },
  {
    "postcode": "26607",
    "city": "Extum"
  },
  {
    "postcode": "26607",
    "city": "Kreihüttenmoor"
  },
  {
    "postcode": "26607",
    "city": "Middels-Westerloog"
  },
  {
    "postcode": "26607",
    "city": "Ogenbargen"
  },
  {
    "postcode": "26624",
    "city": "Bedekaspel"
  },
  {
    "postcode": "26624",
    "city": "Engerhafe"
  },
  {
    "postcode": "26624",
    "city": "Forlitz-Blaukirchen"
  },
  {
    "postcode": "26624",
    "city": "Moordorf Ostfriesland"
  },
  {
    "postcode": "26624",
    "city": "Moordorf"
  },
  {
    "postcode": "26624",
    "city": "Moorhusen"
  },
  {
    "postcode": "26624",
    "city": "Münkeboe"
  },
  {
    "postcode": "26624",
    "city": "Oldeborg"
  },
  {
    "postcode": "26624",
    "city": "Süd-Victorbur"
  },
  {
    "postcode": "26624",
    "city": "Südbrookmerland"
  },
  {
    "postcode": "26624",
    "city": "Theene"
  },
  {
    "postcode": "26624",
    "city": "Upende"
  },
  {
    "postcode": "26624",
    "city": "Uthwerdum"
  },
  {
    "postcode": "26624",
    "city": "Victorbur"
  },
  {
    "postcode": "26624",
    "city": "Wiegboldsbur"
  },
  {
    "postcode": "26624",
    "city": "Aurich"
  },
  {
    "postcode": "26624",
    "city": "Neu Ekels"
  },
  {
    "postcode": "26624",
    "city": "Hinter Theene"
  },
  {
    "postcode": "26624",
    "city": "Abelitz"
  },
  {
    "postcode": "26624",
    "city": "Mudderpott"
  },
  {
    "postcode": "26624",
    "city": "Drenhusen"
  },
  {
    "postcode": "26624",
    "city": "Gemeinde Großheide"
  },
  {
    "postcode": "26624",
    "city": "Klein Babel"
  },
  {
    "postcode": "26624",
    "city": "Kniepenburg"
  },
  {
    "postcode": "26624",
    "city": "Ost Victorbur"
  },
  {
    "postcode": "26624",
    "city": "Moorburg"
  },
  {
    "postcode": "26624",
    "city": "Theener Neuland"
  },
  {
    "postcode": "26624",
    "city": "West Victorbur"
  },
  {
    "postcode": "26624",
    "city": "Georgsheil"
  },
  {
    "postcode": "26629",
    "city": "Akelsbarg Ostfriesland"
  },
  {
    "postcode": "26629",
    "city": "Akelsbarg"
  },
  {
    "postcode": "26629",
    "city": "Aurich-Oldendorf"
  },
  {
    "postcode": "26629",
    "city": "Bagband Ostfriesland"
  },
  {
    "postcode": "26629",
    "city": "Bagband"
  },
  {
    "postcode": "26629",
    "city": "Felde"
  },
  {
    "postcode": "26629",
    "city": "Fiebing"
  },
  {
    "postcode": "26629",
    "city": "Großefehn"
  },
  {
    "postcode": "26629",
    "city": "Holtrop Ostfriesland"
  },
  {
    "postcode": "26629",
    "city": "Holtrop"
  },
  {
    "postcode": "26629",
    "city": "Mittegroßefehn"
  },
  {
    "postcode": "26629",
    "city": "Ostgroßefehn"
  },
  {
    "postcode": "26629",
    "city": "Spetzerfehn"
  },
  {
    "postcode": "26629",
    "city": "Strackholt"
  },
  {
    "postcode": "26629",
    "city": "Timmel"
  },
  {
    "postcode": "26629",
    "city": "Ulbargen"
  },
  {
    "postcode": "26629",
    "city": "Westgroßefehn"
  },
  {
    "postcode": "26629",
    "city": "Wrisse"
  },
  {
    "postcode": "26629",
    "city": "Aurich"
  },
  {
    "postcode": "26629",
    "city": "Wiesmoor"
  },
  {
    "postcode": "26629",
    "city": "Ulbargerfeld"
  },
  {
    "postcode": "26629",
    "city": "Bietzefeld"
  },
  {
    "postcode": "26629",
    "city": "Hammrich"
  },
  {
    "postcode": "26629",
    "city": "Holtroperfeld"
  },
  {
    "postcode": "26629",
    "city": "Kreismoor"
  },
  {
    "postcode": "26629",
    "city": "Zwischenmooren"
  },
  {
    "postcode": "26629",
    "city": "Leinerstift"
  },
  {
    "postcode": "26629",
    "city": "Heidhörnerweg"
  },
  {
    "postcode": "26629",
    "city": "Polder"
  },
  {
    "postcode": "26629",
    "city": "Südhörn"
  },
  {
    "postcode": "26629",
    "city": "Mühle"
  },
  {
    "postcode": "26629",
    "city": "Langerack"
  },
  {
    "postcode": "26629",
    "city": "Tunge"
  },
  {
    "postcode": "26629",
    "city": "Timmelerfeld"
  },
  {
    "postcode": "26629",
    "city": "Zwischenbergen"
  },
  {
    "postcode": "26632",
    "city": "Bangstede Ostfriesland"
  },
  {
    "postcode": "26632",
    "city": "Bangstede"
  },
  {
    "postcode": "26632",
    "city": "Barstede"
  },
  {
    "postcode": "26632",
    "city": "Ihlow Ostfriesland"
  },
  {
    "postcode": "26632",
    "city": "Ihlow"
  },
  {
    "postcode": "26632",
    "city": "Ihlowerfehn"
  },
  {
    "postcode": "26632",
    "city": "Ihlowerhörn"
  },
  {
    "postcode": "26632",
    "city": "Ludwigsdorf Ostfriesland"
  },
  {
    "postcode": "26632",
    "city": "Ludwigsdorf"
  },
  {
    "postcode": "26632",
    "city": "Ochtelbur Ostfriesland"
  },
  {
    "postcode": "26632",
    "city": "Ochtelbur"
  },
  {
    "postcode": "26632",
    "city": "Ostersander Ostfriesland"
  },
  {
    "postcode": "26632",
    "city": "Ostersander"
  },
  {
    "postcode": "26632",
    "city": "Riepe Ostfriesland"
  },
  {
    "postcode": "26632",
    "city": "Riepe"
  },
  {
    "postcode": "26632",
    "city": "Riepsterhammrich Ostfriesland"
  },
  {
    "postcode": "26632",
    "city": "Riepsterhammrich"
  },
  {
    "postcode": "26632",
    "city": "Simonswolde"
  },
  {
    "postcode": "26632",
    "city": "Westerende-Holzloog"
  },
  {
    "postcode": "26632",
    "city": "Westerende-Kirchloog"
  },
  {
    "postcode": "26632",
    "city": "Aurich"
  },
  {
    "postcode": "26632",
    "city": "Ülkefalle"
  },
  {
    "postcode": "26632",
    "city": "Weeringerhorn"
  },
  {
    "postcode": "26632",
    "city": "Grovehörn"
  },
  {
    "postcode": "26632",
    "city": "Neu Barstede"
  },
  {
    "postcode": "26632",
    "city": "Fahne"
  },
  {
    "postcode": "26632",
    "city": "Münkeweg"
  },
  {
    "postcode": "26632",
    "city": "Schweindorf"
  },
  {
    "postcode": "26632",
    "city": "Upschört"
  },
  {
    "postcode": "26632",
    "city": "Leegmoor"
  },
  {
    "postcode": "26632",
    "city": "Hüllenerfehn"
  },
  {
    "postcode": "26639",
    "city": "Marcardsmoor"
  },
  {
    "postcode": "26639",
    "city": "Voßbarg"
  },
  {
    "postcode": "26639",
    "city": "Wiesederfehn"
  },
  {
    "postcode": "26639",
    "city": "Wiesmoor"
  },
  {
    "postcode": "26639",
    "city": "Zwischenbergen"
  },
  {
    "postcode": "26639",
    "city": "Aurich"
  },
  {
    "postcode": "26639",
    "city": "Hinrichsfehn"
  },
  {
    "postcode": "26639",
    "city": "Auricher Wiesmoor II"
  },
  {
    "postcode": "26639",
    "city": "Wilhelmsfehn II"
  },
  {
    "postcode": "26639",
    "city": "Mullberg"
  },
  {
    "postcode": "26655",
    "city": "Burgforde"
  },
  {
    "postcode": "26655",
    "city": "Eggeloge"
  },
  {
    "postcode": "26655",
    "city": "Eggelogerfeld"
  },
  {
    "postcode": "26655",
    "city": "Felde"
  },
  {
    "postcode": "26655",
    "city": "Fikensolt"
  },
  {
    "postcode": "26655",
    "city": "Fikensolterfeld"
  },
  {
    "postcode": "26655",
    "city": "Garnholt"
  },
  {
    "postcode": "26655",
    "city": "Gießelhorst"
  },
  {
    "postcode": "26655",
    "city": "Grafenfeld"
  },
  {
    "postcode": "26655",
    "city": "Halsbek"
  },
  {
    "postcode": "26655",
    "city": "Halstrup"
  },
  {
    "postcode": "26655",
    "city": "Hollriede"
  },
  {
    "postcode": "26655",
    "city": "Hollwege"
  },
  {
    "postcode": "26655",
    "city": "Hollwegerfeld"
  },
  {
    "postcode": "26655",
    "city": "Howiek"
  },
  {
    "postcode": "26655",
    "city": "Howiekerfeld"
  },
  {
    "postcode": "26655",
    "city": "Hüllstede"
  },
  {
    "postcode": "26655",
    "city": "Ihausen"
  },
  {
    "postcode": "26655",
    "city": "Ihorst"
  },
  {
    "postcode": "26655",
    "city": "Karlshof"
  },
  {
    "postcode": "26655",
    "city": "Lindern"
  },
  {
    "postcode": "26655",
    "city": "Lindernerfeld"
  },
  {
    "postcode": "26655",
    "city": "Linswege"
  },
  {
    "postcode": "26655",
    "city": "Linswegerfeld"
  },
  {
    "postcode": "26655",
    "city": "Mansie"
  },
  {
    "postcode": "26655",
    "city": "Moorburg"
  },
  {
    "postcode": "26655",
    "city": "Neuengland"
  },
  {
    "postcode": "26655",
    "city": "Ocholt"
  },
  {
    "postcode": "26655",
    "city": "Ocholterfeld"
  },
  {
    "postcode": "26655",
    "city": "Ollenharde"
  },
  {
    "postcode": "26655",
    "city": "Petersfeld"
  },
  {
    "postcode": "26655",
    "city": "Seggern"
  },
  {
    "postcode": "26655",
    "city": "Stellhorn"
  },
  {
    "postcode": "26655",
    "city": "Südholt"
  },
  {
    "postcode": "26655",
    "city": "Tarbarg"
  },
  {
    "postcode": "26655",
    "city": "Torsholt"
  },
  {
    "postcode": "26655",
    "city": "Westerloy"
  },
  {
    "postcode": "26655",
    "city": "Westerloyerfeld"
  },
  {
    "postcode": "26655",
    "city": "Westerstede"
  },
  {
    "postcode": "26655",
    "city": "Westerstederfeld"
  },
  {
    "postcode": "26655",
    "city": "Ammerland"
  },
  {
    "postcode": "26655",
    "city": "Kielburg"
  },
  {
    "postcode": "26655",
    "city": "Haarfurth"
  },
  {
    "postcode": "26655",
    "city": "Hüllstederfeld"
  },
  {
    "postcode": "26655",
    "city": "Hüllstederdiele"
  },
  {
    "postcode": "26655",
    "city": "Voßbarg"
  },
  {
    "postcode": "26655",
    "city": "Klamperesch"
  },
  {
    "postcode": "26655",
    "city": "Goelriehenfeld"
  },
  {
    "postcode": "26655",
    "city": "Hoheliet"
  },
  {
    "postcode": "26655",
    "city": "Jührdenerfeld"
  },
  {
    "postcode": "26670",
    "city": "Bühren"
  },
  {
    "postcode": "26670",
    "city": "Großoldendorf"
  },
  {
    "postcode": "26670",
    "city": "Großsander"
  },
  {
    "postcode": "26670",
    "city": "Hollen Ostfriesland"
  },
  {
    "postcode": "26670",
    "city": "Hollen"
  },
  {
    "postcode": "26670",
    "city": "Jübberde"
  },
  {
    "postcode": "26670",
    "city": "Klein-Remels"
  },
  {
    "postcode": "26670",
    "city": "Kleinoldendorf"
  },
  {
    "postcode": "26670",
    "city": "Kleinsander"
  },
  {
    "postcode": "26670",
    "city": "Meinersfehn Ostfriesland"
  },
  {
    "postcode": "26670",
    "city": "Meinersfehn"
  },
  {
    "postcode": "26670",
    "city": "Neudorf Kreis Leer Ostfriesland"
  },
  {
    "postcode": "26670",
    "city": "Neudorf"
  },
  {
    "postcode": "26670",
    "city": "Neufirrel"
  },
  {
    "postcode": "26670",
    "city": "Nordgeorgsfehn"
  },
  {
    "postcode": "26670",
    "city": "Oltmannsfehn"
  },
  {
    "postcode": "26670",
    "city": "Poghausen"
  },
  {
    "postcode": "26670",
    "city": "Remels"
  },
  {
    "postcode": "26670",
    "city": "Selverde"
  },
  {
    "postcode": "26670",
    "city": "Spols"
  },
  {
    "postcode": "26670",
    "city": "Stapel Ostfriesland"
  },
  {
    "postcode": "26670",
    "city": "Stapel"
  },
  {
    "postcode": "26670",
    "city": "Südgeorgsfehn"
  },
  {
    "postcode": "26670",
    "city": "Uplengen"
  },
  {
    "postcode": "26670",
    "city": "Leer"
  },
  {
    "postcode": "26670",
    "city": "Sandersmeer"
  },
  {
    "postcode": "26670",
    "city": "Hanebarg"
  },
  {
    "postcode": "26670",
    "city": "Barkensweg"
  },
  {
    "postcode": "26670",
    "city": "Ockenhausen"
  },
  {
    "postcode": "26670",
    "city": "Ochsenkopf"
  },
  {
    "postcode": "26670",
    "city": "Kleinhollen"
  },
  {
    "postcode": "26670",
    "city": "Bargerfehn"
  },
  {
    "postcode": "26670",
    "city": "Stapelermoor"
  },
  {
    "postcode": "26676",
    "city": "Barßel"
  },
  {
    "postcode": "26676",
    "city": "Barßelermoor"
  },
  {
    "postcode": "26676",
    "city": "Elisabethfehn"
  },
  {
    "postcode": "26676",
    "city": "Harkebrügge"
  },
  {
    "postcode": "26676",
    "city": "Lohe bei Westerstede"
  },
  {
    "postcode": "26676",
    "city": "Loher Ostmark"
  },
  {
    "postcode": "26676",
    "city": "Neuland"
  },
  {
    "postcode": "26676",
    "city": "Neulohe"
  },
  {
    "postcode": "26676",
    "city": "Reekenfeld"
  },
  {
    "postcode": "26676",
    "city": "Roggenberg"
  },
  {
    "postcode": "26676",
    "city": "Cloppenburg"
  },
  {
    "postcode": "26676",
    "city": "Lohe"
  },
  {
    "postcode": "26676",
    "city": "Carolinenhof"
  },
  {
    "postcode": "26676",
    "city": "Bachtmoor"
  },
  {
    "postcode": "26676",
    "city": "Elisabethfehn Nord"
  },
  {
    "postcode": "26676",
    "city": "Elisabethfehn Ost"
  },
  {
    "postcode": "26676",
    "city": "Elisabethfehn Süd"
  },
  {
    "postcode": "26676",
    "city": "Osterhausen"
  },
  {
    "postcode": "26676",
    "city": "Loher Westmark"
  },
  {
    "postcode": "26676",
    "city": "Gut Cornelia"
  },
  {
    "postcode": "26683",
    "city": "Ramsloh"
  },
  {
    "postcode": "26683",
    "city": "Saterland"
  },
  {
    "postcode": "26683",
    "city": "Scharrel Oldenburg"
  },
  {
    "postcode": "26683",
    "city": "Scharrel"
  },
  {
    "postcode": "26683",
    "city": "Sedelsberg"
  },
  {
    "postcode": "26683",
    "city": "Strücklingen"
  },
  {
    "postcode": "26683",
    "city": "Cloppenburg"
  },
  {
    "postcode": "26683",
    "city": "Sedelsberg-Fermesand"
  },
  {
    "postcode": "26683",
    "city": "Ramsloh-Ost"
  },
  {
    "postcode": "26683",
    "city": "Ramsloh-Hollen"
  },
  {
    "postcode": "26683",
    "city": "Strücklingen-Bollingen I"
  },
  {
    "postcode": "26683",
    "city": "Sedelsberg-Hüllen II"
  },
  {
    "postcode": "26683",
    "city": "Scharrel-Langhorst"
  },
  {
    "postcode": "26683",
    "city": "Bollingen"
  },
  {
    "postcode": "26683",
    "city": "Ramsloh-Hollenermoor"
  },
  {
    "postcode": "26683",
    "city": "Ramsloh-Nord"
  },
  {
    "postcode": "26683",
    "city": "Scharrel-Neuwall"
  },
  {
    "postcode": "26683",
    "city": "Strücklingen-Bollingen II"
  },
  {
    "postcode": "26683",
    "city": "Sedelsberg-Hüllen I"
  },
  {
    "postcode": "26683",
    "city": "Langhorst"
  },
  {
    "postcode": "26683",
    "city": "Ramsloh-Hoheberg"
  },
  {
    "postcode": "26683",
    "city": "Scharrel-Bätholt"
  },
  {
    "postcode": "26683",
    "city": "Ramsloh-Hollen-Brand"
  },
  {
    "postcode": "26683",
    "city": "Strücklingen-Wittensand"
  },
  {
    "postcode": "26683",
    "city": "Kolonie Sedelsberg"
  },
  {
    "postcode": "26683",
    "city": "Scharrel-Heselberg"
  },
  {
    "postcode": "26683",
    "city": "Fermesand"
  },
  {
    "postcode": "26683",
    "city": "Hollen"
  },
  {
    "postcode": "26683",
    "city": "Utende"
  },
  {
    "postcode": "26683",
    "city": "Sedelsberg-Heselberg"
  },
  {
    "postcode": "26683",
    "city": "Bätholt"
  },
  {
    "postcode": "26683",
    "city": "Hüllen"
  },
  {
    "postcode": "26683",
    "city": "Ramsloh-Raake"
  },
  {
    "postcode": "26683",
    "city": "Strücklingen-Bokelesch"
  },
  {
    "postcode": "26683",
    "city": "Sedelsberg-Kolonie"
  },
  {
    "postcode": "26683",
    "city": "Strücklingen-Utende"
  },
  {
    "postcode": "26683",
    "city": "Scharrelerdamm"
  },
  {
    "postcode": "26683",
    "city": "Bollinger Kanal"
  },
  {
    "postcode": "26683",
    "city": "Elisabethfehn Süd"
  },
  {
    "postcode": "26683",
    "city": "Ubbehausen"
  },
  {
    "postcode": "26683",
    "city": "Heselberg"
  },
  {
    "postcode": "26689",
    "city": "Apen"
  },
  {
    "postcode": "26689",
    "city": "Aperberg"
  },
  {
    "postcode": "26689",
    "city": "Aperfeld"
  },
  {
    "postcode": "26689",
    "city": "Augustfehn"
  },
  {
    "postcode": "26689",
    "city": "Espern"
  },
  {
    "postcode": "26689",
    "city": "Godensholt"
  },
  {
    "postcode": "26689",
    "city": "Godensholterfeld"
  },
  {
    "postcode": "26689",
    "city": "Godensholterweg"
  },
  {
    "postcode": "26689",
    "city": "Hengstforde"
  },
  {
    "postcode": "26689",
    "city": "Klampen"
  },
  {
    "postcode": "26689",
    "city": "Klauhörn"
  },
  {
    "postcode": "26689",
    "city": "Lengenermoor"
  },
  {
    "postcode": "26689",
    "city": "Nordloh Kreis Ammerland"
  },
  {
    "postcode": "26689",
    "city": "Nordloh"
  },
  {
    "postcode": "26689",
    "city": "Roggenmoor"
  },
  {
    "postcode": "26689",
    "city": "Tange Kreis Ammerland"
  },
  {
    "postcode": "26689",
    "city": "Tange"
  },
  {
    "postcode": "26689",
    "city": "Vreschen-Bokel"
  },
  {
    "postcode": "26689",
    "city": "Winkel"
  },
  {
    "postcode": "26689",
    "city": "Ammerland"
  },
  {
    "postcode": "26689",
    "city": "Augustfehn I"
  },
  {
    "postcode": "26689",
    "city": "Augustfehn II"
  },
  {
    "postcode": "26689",
    "city": "Apermarsch"
  },
  {
    "postcode": "26689",
    "city": "Augustfehn III"
  },
  {
    "postcode": "26689",
    "city": "Bokelermoor"
  },
  {
    "postcode": "26689",
    "city": "Hengstforderfeld"
  },
  {
    "postcode": "26689",
    "city": "Nordloh-Kanal"
  },
  {
    "postcode": "26689",
    "city": "Holtgast"
  },
  {
    "postcode": "26721",
    "city": "Emden Ostfriesland"
  },
  {
    "postcode": "26721",
    "city": "Emden"
  },
  {
    "postcode": "26721",
    "city": "Harsweg"
  },
  {
    "postcode": "26721",
    "city": "Stadtzentrum"
  },
  {
    "postcode": "26721",
    "city": "Barenburg"
  },
  {
    "postcode": "26721",
    "city": "Früchteburg"
  },
  {
    "postcode": "26721",
    "city": "Conrebbersweg"
  },
  {
    "postcode": "26723",
    "city": "Emden Ostfriesland"
  },
  {
    "postcode": "26723",
    "city": "Emden"
  },
  {
    "postcode": "26723",
    "city": "Larrelt"
  },
  {
    "postcode": "26723",
    "city": "Logumer Vorwerk"
  },
  {
    "postcode": "26723",
    "city": "Twixlum"
  },
  {
    "postcode": "26723",
    "city": "Wybelsum"
  },
  {
    "postcode": "26723",
    "city": "Port Arthur/Transvaal"
  },
  {
    "postcode": "26723",
    "city": "Constantia"
  },
  {
    "postcode": "26723",
    "city": "Port Arthur"
  },
  {
    "postcode": "26725",
    "city": "Borssum / Hilmarsum"
  },
  {
    "postcode": "26725",
    "city": "Borssum"
  },
  {
    "postcode": "26725",
    "city": "Emden Ostfriesland"
  },
  {
    "postcode": "26725",
    "city": "Emden"
  },
  {
    "postcode": "26725",
    "city": "Friesland"
  },
  {
    "postcode": "26725",
    "city": "Petkum"
  },
  {
    "postcode": "26725",
    "city": "Uphusen / Marienwehr"
  },
  {
    "postcode": "26725",
    "city": "Uphusen"
  },
  {
    "postcode": "26725",
    "city": "Widdelswehr / Jarßum"
  },
  {
    "postcode": "26725",
    "city": "Widdelswehr"
  },
  {
    "postcode": "26725",
    "city": "Wolthusen"
  },
  {
    "postcode": "26725",
    "city": "Uphusen/Marienwehr"
  },
  {
    "postcode": "26725",
    "city": "Borssum/Hilmarsum"
  },
  {
    "postcode": "26725",
    "city": "Herrentor"
  },
  {
    "postcode": "26725",
    "city": "Stadtzentrum"
  },
  {
    "postcode": "26725",
    "city": "Widdelswehr/Jarßum"
  },
  {
    "postcode": "26725",
    "city": "Jarssum"
  },
  {
    "postcode": "26736",
    "city": "Campen bei Emden"
  },
  {
    "postcode": "26736",
    "city": "Canum"
  },
  {
    "postcode": "26736",
    "city": "Eilsum"
  },
  {
    "postcode": "26736",
    "city": "Freepsum"
  },
  {
    "postcode": "26736",
    "city": "Greetsiel"
  },
  {
    "postcode": "26736",
    "city": "Grimersum"
  },
  {
    "postcode": "26736",
    "city": "Groothusen"
  },
  {
    "postcode": "26736",
    "city": "Hamswehrum"
  },
  {
    "postcode": "26736",
    "city": "Jennelt"
  },
  {
    "postcode": "26736",
    "city": "Krummhörn"
  },
  {
    "postcode": "26736",
    "city": "Loquard"
  },
  {
    "postcode": "26736",
    "city": "Manslagt"
  },
  {
    "postcode": "26736",
    "city": "Pewsum"
  },
  {
    "postcode": "26736",
    "city": "Pilsum"
  },
  {
    "postcode": "26736",
    "city": "Rysum"
  },
  {
    "postcode": "26736",
    "city": "Upleward"
  },
  {
    "postcode": "26736",
    "city": "Uttum"
  },
  {
    "postcode": "26736",
    "city": "Visquard"
  },
  {
    "postcode": "26736",
    "city": "Woltzeten"
  },
  {
    "postcode": "26736",
    "city": "Woquard"
  },
  {
    "postcode": "26736",
    "city": "Aurich"
  },
  {
    "postcode": "26736",
    "city": "Aantjebitt"
  },
  {
    "postcode": "26736",
    "city": "Campen"
  },
  {
    "postcode": "26736",
    "city": "Langewehr"
  },
  {
    "postcode": "26736",
    "city": "Schnepel"
  },
  {
    "postcode": "26736",
    "city": "Graben Bohnenburg"
  },
  {
    "postcode": "26736",
    "city": "Graben Horenburg"
  },
  {
    "postcode": "26736",
    "city": "Hamswehrumer Altendeich"
  },
  {
    "postcode": "26736",
    "city": "Juitswarf"
  },
  {
    "postcode": "26736",
    "city": "Karlshof"
  },
  {
    "postcode": "26736",
    "city": "Damhusen"
  },
  {
    "postcode": "26736",
    "city": "Hammrich"
  },
  {
    "postcode": "26736",
    "city": "Hamswehrumer Leeshaus"
  },
  {
    "postcode": "26736",
    "city": "Lütje Haus"
  },
  {
    "postcode": "26736",
    "city": "Metzenheerd"
  },
  {
    "postcode": "26736",
    "city": "Pewsumer Hammrich"
  },
  {
    "postcode": "26736",
    "city": "Platthaus"
  },
  {
    "postcode": "26736",
    "city": "Graben Heiselhusen"
  },
  {
    "postcode": "26736",
    "city": "Rüsthofen"
  },
  {
    "postcode": "26736",
    "city": "Visquarder Meede"
  },
  {
    "postcode": "26757",
    "city": "Borkum"
  },
  {
    "postcode": "26757",
    "city": "Leer"
  },
  {
    "postcode": "26759",
    "city": "Canhusen bei Emden"
  },
  {
    "postcode": "26759",
    "city": "Cirkwehrum"
  },
  {
    "postcode": "26759",
    "city": "Groß-Midlum"
  },
  {
    "postcode": "26759",
    "city": "Hinte"
  },
  {
    "postcode": "26759",
    "city": "Loppersum bei Emden"
  },
  {
    "postcode": "26759",
    "city": "Osterhusen"
  },
  {
    "postcode": "26759",
    "city": "Suurhusen"
  },
  {
    "postcode": "26759",
    "city": "Westerhusen"
  },
  {
    "postcode": "26759",
    "city": "Aurich"
  },
  {
    "postcode": "26759",
    "city": "Klein Heikeland"
  },
  {
    "postcode": "26759",
    "city": "Loppersum"
  },
  {
    "postcode": "26759",
    "city": "Canhusen"
  },
  {
    "postcode": "26759",
    "city": "Wichhusen"
  },
  {
    "postcode": "26759",
    "city": "Stikelborg"
  },
  {
    "postcode": "26789",
    "city": "Bingum"
  },
  {
    "postcode": "26789",
    "city": "Eisinghausen Ostfriesland"
  },
  {
    "postcode": "26789",
    "city": "Eisinghausen"
  },
  {
    "postcode": "26789",
    "city": "Heisfelde"
  },
  {
    "postcode": "26789",
    "city": "Leer"
  },
  {
    "postcode": "26789",
    "city": "Leer (Ostfriesland)"
  },
  {
    "postcode": "26789",
    "city": "Leerort Ostfriesland"
  },
  {
    "postcode": "26789",
    "city": "Leerort"
  },
  {
    "postcode": "26789",
    "city": "Loga über Leer Ostfriesland"
  },
  {
    "postcode": "26789",
    "city": "Loga über Leer"
  },
  {
    "postcode": "26789",
    "city": "Logabirum"
  },
  {
    "postcode": "26789",
    "city": "Mooräcker Ostfriesland"
  },
  {
    "postcode": "26789",
    "city": "Mooräcker"
  },
  {
    "postcode": "26789",
    "city": "Nettelburg"
  },
  {
    "postcode": "26789",
    "city": "Nüttermoor Ostfriesland"
  },
  {
    "postcode": "26789",
    "city": "Nüttermoor"
  },
  {
    "postcode": "26789",
    "city": "Siebenbergen Ostfriesland"
  },
  {
    "postcode": "26789",
    "city": "Siebenbergen"
  },
  {
    "postcode": "26789",
    "city": "Loga"
  },
  {
    "postcode": "26789",
    "city": "Hohegaste"
  },
  {
    "postcode": "26789",
    "city": "Thedingaer Vorwerk"
  },
  {
    "postcode": "26789",
    "city": "Die Horst"
  },
  {
    "postcode": "26789",
    "city": "Logabirumer Feld"
  },
  {
    "postcode": "26789",
    "city": "Bingumgaste"
  },
  {
    "postcode": "26802",
    "city": "Boekzetelerfehn"
  },
  {
    "postcode": "26802",
    "city": "Gandersum"
  },
  {
    "postcode": "26802",
    "city": "Hatshausen"
  },
  {
    "postcode": "26802",
    "city": "Jheringsfehn"
  },
  {
    "postcode": "26802",
    "city": "Moormerland"
  },
  {
    "postcode": "26802",
    "city": "Neermoor"
  },
  {
    "postcode": "26802",
    "city": "Oldersum"
  },
  {
    "postcode": "26802",
    "city": "Rorichum"
  },
  {
    "postcode": "26802",
    "city": "Terborg Ostfriesland"
  },
  {
    "postcode": "26802",
    "city": "Terborg"
  },
  {
    "postcode": "26802",
    "city": "Tergast"
  },
  {
    "postcode": "26802",
    "city": "Veenhusen"
  },
  {
    "postcode": "26802",
    "city": "Warsingsfehn"
  },
  {
    "postcode": "26802",
    "city": "Leer"
  },
  {
    "postcode": "26810",
    "city": "Breinermoor"
  },
  {
    "postcode": "26810",
    "city": "Collhusen Ostfriesland"
  },
  {
    "postcode": "26810",
    "city": "Collhusen"
  },
  {
    "postcode": "26810",
    "city": "Driever"
  },
  {
    "postcode": "26810",
    "city": "Esklum"
  },
  {
    "postcode": "26810",
    "city": "Flachsmeer"
  },
  {
    "postcode": "26810",
    "city": "Folmhusen"
  },
  {
    "postcode": "26810",
    "city": "Großwolde"
  },
  {
    "postcode": "26810",
    "city": "Großwolderfeld Ostfriesland"
  },
  {
    "postcode": "26810",
    "city": "Großwolderfeld"
  },
  {
    "postcode": "26810",
    "city": "Grotegaste"
  },
  {
    "postcode": "26810",
    "city": "Ihren Ostfriesland"
  },
  {
    "postcode": "26810",
    "city": "Ihren"
  },
  {
    "postcode": "26810",
    "city": "Ihrenerfeld Ostfriesland"
  },
  {
    "postcode": "26810",
    "city": "Ihrenerfeld"
  },
  {
    "postcode": "26810",
    "city": "Ihrhove"
  },
  {
    "postcode": "26810",
    "city": "Klinge"
  },
  {
    "postcode": "26810",
    "city": "Mitling-Mark"
  },
  {
    "postcode": "26810",
    "city": "Steenfelde"
  },
  {
    "postcode": "26810",
    "city": "Völlen"
  },
  {
    "postcode": "26810",
    "city": "Völlenerfehn"
  },
  {
    "postcode": "26810",
    "city": "Völlenerkönigsfehn"
  },
  {
    "postcode": "26810",
    "city": "Weekeborg"
  },
  {
    "postcode": "26810",
    "city": "Westoverledingen"
  },
  {
    "postcode": "26810",
    "city": "Leer"
  },
  {
    "postcode": "26810",
    "city": "Mitling"
  },
  {
    "postcode": "26810",
    "city": "Mark"
  },
  {
    "postcode": "26810",
    "city": "Bullerbarg"
  },
  {
    "postcode": "26810",
    "city": "Steenfelderfehn"
  },
  {
    "postcode": "26810",
    "city": "Hustede"
  },
  {
    "postcode": "26810",
    "city": "Steenfelderfeld"
  },
  {
    "postcode": "26810",
    "city": "Kloster Muhde"
  },
  {
    "postcode": "26817",
    "city": "Backemoor"
  },
  {
    "postcode": "26817",
    "city": "Collinghorst"
  },
  {
    "postcode": "26817",
    "city": "Holte Kreis Leer Ostfriesland"
  },
  {
    "postcode": "26817",
    "city": "Holte"
  },
  {
    "postcode": "26817",
    "city": "Rhaude"
  },
  {
    "postcode": "26817",
    "city": "Rhauderfehn"
  },
  {
    "postcode": "26817",
    "city": "Rhaudermoor"
  },
  {
    "postcode": "26817",
    "city": "Schatteburg"
  },
  {
    "postcode": "26817",
    "city": "Westrhauderfehn"
  },
  {
    "postcode": "26817",
    "city": "Leer"
  },
  {
    "postcode": "26817",
    "city": "Langholt"
  },
  {
    "postcode": "26817",
    "city": "Burlage"
  },
  {
    "postcode": "26817",
    "city": "Klostermoor"
  },
  {
    "postcode": "26817",
    "city": "Glansdorf"
  },
  {
    "postcode": "26817",
    "city": "Altburlage"
  },
  {
    "postcode": "26817",
    "city": "Marienheil"
  },
  {
    "postcode": "26817",
    "city": "Rhauderwieke"
  },
  {
    "postcode": "26817",
    "city": "Hahnentange"
  },
  {
    "postcode": "26817",
    "city": "Heubrücke"
  },
  {
    "postcode": "26817",
    "city": "Collinghorstermoor"
  },
  {
    "postcode": "26826",
    "city": "Beschotenweg"
  },
  {
    "postcode": "26826",
    "city": "Diele"
  },
  {
    "postcode": "26826",
    "city": "Holthusen Kreis Leer Ostfriesland"
  },
  {
    "postcode": "26826",
    "city": "Holthusen"
  },
  {
    "postcode": "26826",
    "city": "Kirchborgum"
  },
  {
    "postcode": "26826",
    "city": "Middelstenborgum"
  },
  {
    "postcode": "26826",
    "city": "Sankt Georgiwold"
  },
  {
    "postcode": "26826",
    "city": "Stapelmoor"
  },
  {
    "postcode": "26826",
    "city": "Vellage"
  },
  {
    "postcode": "26826",
    "city": "Weener"
  },
  {
    "postcode": "26826",
    "city": "Weenermoor"
  },
  {
    "postcode": "26826",
    "city": "Leer"
  },
  {
    "postcode": "26826",
    "city": "Dreehusen"
  },
  {
    "postcode": "26826",
    "city": "Helenenhof"
  },
  {
    "postcode": "26826",
    "city": "Nesseburg"
  },
  {
    "postcode": "26826",
    "city": "Stapelmoorerheide"
  },
  {
    "postcode": "26826",
    "city": "St. Georgiwold"
  },
  {
    "postcode": "26831",
    "city": "Boen Ostfriesland"
  },
  {
    "postcode": "26831",
    "city": "Boen"
  },
  {
    "postcode": "26831",
    "city": "Bunde"
  },
  {
    "postcode": "26831",
    "city": "Bunde Ostfriesland"
  },
  {
    "postcode": "26831",
    "city": "Bunderhammrich"
  },
  {
    "postcode": "26831",
    "city": "Bunderhee"
  },
  {
    "postcode": "26831",
    "city": "Bunderneuland Ostfriesland"
  },
  {
    "postcode": "26831",
    "city": "Bunderneuland"
  },
  {
    "postcode": "26831",
    "city": "Ditzumerhammrich"
  },
  {
    "postcode": "26831",
    "city": "Ditzumerverlaat"
  },
  {
    "postcode": "26831",
    "city": "Dollart Ostfriesland"
  },
  {
    "postcode": "26831",
    "city": "Dollart"
  },
  {
    "postcode": "26831",
    "city": "Heinitzpolder"
  },
  {
    "postcode": "26831",
    "city": "Landschaftspolder"
  },
  {
    "postcode": "26831",
    "city": "Wymeer"
  },
  {
    "postcode": "26831",
    "city": "Leer"
  },
  {
    "postcode": "26831",
    "city": "Charlottenpolder"
  },
  {
    "postcode": "26831",
    "city": "Kanalpolder"
  },
  {
    "postcode": "26831",
    "city": "Dünkirchen"
  },
  {
    "postcode": "26831",
    "city": "Heerenland"
  },
  {
    "postcode": "26835",
    "city": "Beningafehn Kreis Leer Ostfriesland"
  },
  {
    "postcode": "26835",
    "city": "Beningafehn"
  },
  {
    "postcode": "26835",
    "city": "Brinkum"
  },
  {
    "postcode": "26835",
    "city": "Brinkum Ostfriesland"
  },
  {
    "postcode": "26835",
    "city": "Firrel"
  },
  {
    "postcode": "26835",
    "city": "Hesel"
  },
  {
    "postcode": "26835",
    "city": "Hesel Ostfriesland"
  },
  {
    "postcode": "26835",
    "city": "Holtland"
  },
  {
    "postcode": "26835",
    "city": "Kiefeld Kreis Leer Ostfriesland"
  },
  {
    "postcode": "26835",
    "city": "Kiefeld"
  },
  {
    "postcode": "26835",
    "city": "Meerhausen"
  },
  {
    "postcode": "26835",
    "city": "Neuemoor Ostfriesland"
  },
  {
    "postcode": "26835",
    "city": "Neuemoor"
  },
  {
    "postcode": "26835",
    "city": "Neukamperfehn"
  },
  {
    "postcode": "26835",
    "city": "Schwerinsdorf"
  },
  {
    "postcode": "26835",
    "city": "Siebestock"
  },
  {
    "postcode": "26835",
    "city": "Südermoor Ostfriesland"
  },
  {
    "postcode": "26835",
    "city": "Südermoor"
  },
  {
    "postcode": "26835",
    "city": "Leer"
  },
  {
    "postcode": "26835",
    "city": "Hasselt"
  },
  {
    "postcode": "26835",
    "city": "Klein-Hesel"
  },
  {
    "postcode": "26835",
    "city": "Bummert"
  },
  {
    "postcode": "26835",
    "city": "Stikelkamp"
  },
  {
    "postcode": "26835",
    "city": "Heseler Hörn"
  },
  {
    "postcode": "26835",
    "city": "Holtland-Nücke"
  },
  {
    "postcode": "26835",
    "city": "Holtlander Nücke"
  },
  {
    "postcode": "26835",
    "city": "Neuefehn"
  },
  {
    "postcode": "26835",
    "city": "Stiekelkamperfehn"
  },
  {
    "postcode": "26842",
    "city": "Holterfehn"
  },
  {
    "postcode": "26842",
    "city": "Holtermoor"
  },
  {
    "postcode": "26842",
    "city": "Idafehn"
  },
  {
    "postcode": "26842",
    "city": "Langholt"
  },
  {
    "postcode": "26842",
    "city": "Ostrhauderfehn"
  },
  {
    "postcode": "26842",
    "city": "Potshausen"
  },
  {
    "postcode": "26842",
    "city": "Rinzeldorf"
  },
  {
    "postcode": "26842",
    "city": "Ubbehausen"
  },
  {
    "postcode": "26842",
    "city": "Leer"
  },
  {
    "postcode": "26844",
    "city": "Böhmerwold"
  },
  {
    "postcode": "26844",
    "city": "Coldeborg"
  },
  {
    "postcode": "26844",
    "city": "Critzum"
  },
  {
    "postcode": "26844",
    "city": "Ditzum"
  },
  {
    "postcode": "26844",
    "city": "Dyksterhusen"
  },
  {
    "postcode": "26844",
    "city": "Hatzum"
  },
  {
    "postcode": "26844",
    "city": "Holtgaste"
  },
  {
    "postcode": "26844",
    "city": "Jemgum"
  },
  {
    "postcode": "26844",
    "city": "Marienchor"
  },
  {
    "postcode": "26844",
    "city": "Midlum Kreis Leer Ostfriesland"
  },
  {
    "postcode": "26844",
    "city": "Midlum"
  },
  {
    "postcode": "26844",
    "city": "Nendorp"
  },
  {
    "postcode": "26844",
    "city": "Oldendorp"
  },
  {
    "postcode": "26844",
    "city": "Pogum"
  },
  {
    "postcode": "26844",
    "city": "Leer"
  },
  {
    "postcode": "26844",
    "city": "Eppingawehr"
  },
  {
    "postcode": "26844",
    "city": "Jemgumgaste"
  },
  {
    "postcode": "26844",
    "city": "Bürgstede"
  },
  {
    "postcode": "26844",
    "city": "Wischenborg"
  },
  {
    "postcode": "26844",
    "city": "Ditzumerhammrich"
  },
  {
    "postcode": "26845",
    "city": "Brunn"
  },
  {
    "postcode": "26845",
    "city": "Heide"
  },
  {
    "postcode": "26845",
    "city": "Lehmgaste"
  },
  {
    "postcode": "26845",
    "city": "Nortmoor"
  },
  {
    "postcode": "26845",
    "city": "Plaggenburg"
  },
  {
    "postcode": "26845",
    "city": "Leer"
  },
  {
    "postcode": "26845",
    "city": "Graben Terwisch"
  },
  {
    "postcode": "26845",
    "city": "Gemeinde Brinkum"
  },
  {
    "postcode": "26847",
    "city": "Amdorf Ostfriesland"
  },
  {
    "postcode": "26847",
    "city": "Amdorf"
  },
  {
    "postcode": "26847",
    "city": "Barge"
  },
  {
    "postcode": "26847",
    "city": "Detern"
  },
  {
    "postcode": "26847",
    "city": "Deternerlehe"
  },
  {
    "postcode": "26847",
    "city": "Neuburg"
  },
  {
    "postcode": "26847",
    "city": "Scharrel"
  },
  {
    "postcode": "26847",
    "city": "Stickhausen"
  },
  {
    "postcode": "26847",
    "city": "Velde"
  },
  {
    "postcode": "26847",
    "city": "Leer"
  },
  {
    "postcode": "26849",
    "city": "Ammersum Ostfriesland"
  },
  {
    "postcode": "26849",
    "city": "Ammersum"
  },
  {
    "postcode": "26849",
    "city": "Brückenfehn Ostfriesland"
  },
  {
    "postcode": "26849",
    "city": "Brückenfehn"
  },
  {
    "postcode": "26849",
    "city": "Busboomsfehn"
  },
  {
    "postcode": "26849",
    "city": "Filsum"
  },
  {
    "postcode": "26849",
    "city": "Lammertsfehn"
  },
  {
    "postcode": "26849",
    "city": "Stallbrüggerfeld"
  },
  {
    "postcode": "26849",
    "city": "Leer"
  },
  {
    "postcode": "26871",
    "city": "Aschendorf Stadt Papenburg"
  },
  {
    "postcode": "26871",
    "city": "Aschendorf"
  },
  {
    "postcode": "26871",
    "city": "Aschendorfermoor"
  },
  {
    "postcode": "26871",
    "city": "Herbrum"
  },
  {
    "postcode": "26871",
    "city": "Nenndorf bei Papenburg"
  },
  {
    "postcode": "26871",
    "city": "Papenburg"
  },
  {
    "postcode": "26871",
    "city": "Tunxdorf bei Papenburg"
  },
  {
    "postcode": "26871",
    "city": "Emsland"
  },
  {
    "postcode": "26871",
    "city": "Tunxdorf"
  },
  {
    "postcode": "26871",
    "city": "Bokel"
  },
  {
    "postcode": "26871",
    "city": "Nenndorf"
  },
  {
    "postcode": "26892",
    "city": "Devermühlen Ems"
  },
  {
    "postcode": "26892",
    "city": "Devermühlen"
  },
  {
    "postcode": "26892",
    "city": "Dörpen"
  },
  {
    "postcode": "26892",
    "city": "Haar"
  },
  {
    "postcode": "26892",
    "city": "Heede"
  },
  {
    "postcode": "26892",
    "city": "Heede Ems"
  },
  {
    "postcode": "26892",
    "city": "Hunfelde Ems"
  },
  {
    "postcode": "26892",
    "city": "Hunfelde"
  },
  {
    "postcode": "26892",
    "city": "Kaltentange Ems"
  },
  {
    "postcode": "26892",
    "city": "Kaltentange"
  },
  {
    "postcode": "26892",
    "city": "Kluse"
  },
  {
    "postcode": "26892",
    "city": "Kluse Emsl"
  },
  {
    "postcode": "26892",
    "city": "Lehe Ems"
  },
  {
    "postcode": "26892",
    "city": "Lehe"
  },
  {
    "postcode": "26892",
    "city": "Müll"
  },
  {
    "postcode": "26892",
    "city": "Neudörpen"
  },
  {
    "postcode": "26892",
    "city": "Neuheede Ems"
  },
  {
    "postcode": "26892",
    "city": "Neuheede"
  },
  {
    "postcode": "26892",
    "city": "Schukenbrock Ems"
  },
  {
    "postcode": "26892",
    "city": "Schukenbrock"
  },
  {
    "postcode": "26892",
    "city": "Steinbild"
  },
  {
    "postcode": "26892",
    "city": "Wippingen Hümmling"
  },
  {
    "postcode": "26892",
    "city": "Wippingen"
  },
  {
    "postcode": "26892",
    "city": "Emsland"
  },
  {
    "postcode": "26892",
    "city": "Kleines Feld"
  },
  {
    "postcode": "26892",
    "city": "Heederfeld"
  },
  {
    "postcode": "26892",
    "city": "Ahlen"
  },
  {
    "postcode": "26892",
    "city": "Beckhusen"
  },
  {
    "postcode": "26892",
    "city": "Strotburg"
  },
  {
    "postcode": "26897",
    "city": "Bockhorst Hümmling"
  },
  {
    "postcode": "26897",
    "city": "Bockhorst"
  },
  {
    "postcode": "26897",
    "city": "Breddenberg"
  },
  {
    "postcode": "26897",
    "city": "Esterwegen"
  },
  {
    "postcode": "26897",
    "city": "Heidbrücken"
  },
  {
    "postcode": "26897",
    "city": "Hilkenbrook"
  },
  {
    "postcode": "26897",
    "city": "Emsland"
  },
  {
    "postcode": "26897",
    "city": "Hinternberg"
  },
  {
    "postcode": "26897",
    "city": "Lattensberg"
  },
  {
    "postcode": "26897",
    "city": "Mühlenberg"
  },
  {
    "postcode": "26899",
    "city": "Borsum Emsl"
  },
  {
    "postcode": "26899",
    "city": "Borsum"
  },
  {
    "postcode": "26899",
    "city": "Brahe Ems"
  },
  {
    "postcode": "26899",
    "city": "Brahe"
  },
  {
    "postcode": "26899",
    "city": "Brual"
  },
  {
    "postcode": "26899",
    "city": "Neurhede"
  },
  {
    "postcode": "26899",
    "city": "Rhede (Ems)"
  },
  {
    "postcode": "26899",
    "city": "Rhede"
  },
  {
    "postcode": "26899",
    "city": "Rhede Ems"
  },
  {
    "postcode": "26899",
    "city": "Emsland"
  },
  {
    "postcode": "26899",
    "city": "Neuengland"
  },
  {
    "postcode": "26901",
    "city": "Gemeinde Lorup"
  },
  {
    "postcode": "26901",
    "city": "Lorup"
  },
  {
    "postcode": "26901",
    "city": "Rastdorf"
  },
  {
    "postcode": "26901",
    "city": "Rastdorf Hümmling"
  },
  {
    "postcode": "26901",
    "city": "Emsland"
  },
  {
    "postcode": "26901",
    "city": "Gem Lorup"
  },
  {
    "postcode": "26903",
    "city": "Börgermoor"
  },
  {
    "postcode": "26903",
    "city": "Börgerwald"
  },
  {
    "postcode": "26903",
    "city": "Surwold"
  },
  {
    "postcode": "26903",
    "city": "Emsland"
  },
  {
    "postcode": "26904",
    "city": "Börger"
  },
  {
    "postcode": "26904",
    "city": "Nordkamp"
  },
  {
    "postcode": "26904",
    "city": "Emsland"
  },
  {
    "postcode": "26906",
    "city": "Dersum"
  },
  {
    "postcode": "26906",
    "city": "Neudersum"
  },
  {
    "postcode": "26906",
    "city": "Emsland"
  },
  {
    "postcode": "26906",
    "city": "Dersumerfeld"
  },
  {
    "postcode": "26906",
    "city": "Heede"
  },
  {
    "postcode": "26907",
    "city": "Hasselbrock"
  },
  {
    "postcode": "26907",
    "city": "Walchum"
  },
  {
    "postcode": "26907",
    "city": "Emsland"
  },
  {
    "postcode": "26909",
    "city": "Neubörger"
  },
  {
    "postcode": "26909",
    "city": "Neulehe"
  },
  {
    "postcode": "26909",
    "city": "Emsland"
  },
  {
    "postcode": "26909",
    "city": "Siedlung A"
  },
  {
    "postcode": "26919",
    "city": "Brake"
  },
  {
    "postcode": "26919",
    "city": "Brake (Unterweser)"
  },
  {
    "postcode": "26919",
    "city": "Golzwarden"
  },
  {
    "postcode": "26919",
    "city": "Hammelwarder Außendeich Unterweser"
  },
  {
    "postcode": "26919",
    "city": "Hammelwarder Außendeich"
  },
  {
    "postcode": "26919",
    "city": "Harrierwurp Unterweser"
  },
  {
    "postcode": "26919",
    "city": "Harrierwurp"
  },
  {
    "postcode": "26919",
    "city": "Käseburg"
  },
  {
    "postcode": "26919",
    "city": "Kirchhammelwarden"
  },
  {
    "postcode": "26919",
    "city": "Meyershof"
  },
  {
    "postcode": "26919",
    "city": "Norderfeld Unterweser"
  },
  {
    "postcode": "26919",
    "city": "Norderfeld"
  },
  {
    "postcode": "26919",
    "city": "Schmalenfleth"
  },
  {
    "postcode": "26919",
    "city": "Schmalenfletherwurp"
  },
  {
    "postcode": "26919",
    "city": "Süderfeld"
  },
  {
    "postcode": "26919",
    "city": "Wesermarsch"
  },
  {
    "postcode": "26919",
    "city": "Hammelwarder"
  },
  {
    "postcode": "26931",
    "city": "Bardenfleth"
  },
  {
    "postcode": "26931",
    "city": "Burwinkel"
  },
  {
    "postcode": "26931",
    "city": "Butteldorf"
  },
  {
    "postcode": "26931",
    "city": "Dalsper"
  },
  {
    "postcode": "26931",
    "city": "Deichstücken"
  },
  {
    "postcode": "26931",
    "city": "Eckfleth"
  },
  {
    "postcode": "26931",
    "city": "Elsfleth"
  },
  {
    "postcode": "26931",
    "city": "Fuchsberg"
  },
  {
    "postcode": "26931",
    "city": "Gellen"
  },
  {
    "postcode": "26931",
    "city": "Huntebrück"
  },
  {
    "postcode": "26931",
    "city": "Huntorf"
  },
  {
    "postcode": "26931",
    "city": "Lienen"
  },
  {
    "postcode": "26931",
    "city": "Moordorf"
  },
  {
    "postcode": "26931",
    "city": "Moorhausen"
  },
  {
    "postcode": "26931",
    "city": "Neuenfelde"
  },
  {
    "postcode": "26931",
    "city": "Nordermoor"
  },
  {
    "postcode": "26931",
    "city": "Oberhammelwarden"
  },
  {
    "postcode": "26931",
    "city": "Wesermarsch"
  },
  {
    "postcode": "26931",
    "city": "Birkenheide"
  },
  {
    "postcode": "26931",
    "city": "Neuenbrok"
  },
  {
    "postcode": "26931",
    "city": "Paradies"
  },
  {
    "postcode": "26931",
    "city": "Niederhörne"
  },
  {
    "postcode": "26935",
    "city": "Alse Kreis Wesermarsch"
  },
  {
    "postcode": "26935",
    "city": "Alse"
  },
  {
    "postcode": "26935",
    "city": "Beckum Kreis Wesermarsch"
  },
  {
    "postcode": "26935",
    "city": "Beckum"
  },
  {
    "postcode": "26935",
    "city": "Brunswarden Kreis Wesermarsch"
  },
  {
    "postcode": "26935",
    "city": "Brunswarden"
  },
  {
    "postcode": "26935",
    "city": "Edschenburg Kreis Wesermarsch"
  },
  {
    "postcode": "26935",
    "city": "Edschenburg"
  },
  {
    "postcode": "26935",
    "city": "Hakendorferwurp Kreis Wesermarsch"
  },
  {
    "postcode": "26935",
    "city": "Hakendorferwurp"
  },
  {
    "postcode": "26935",
    "city": "Hartwarden Kreis Wesermarsch"
  },
  {
    "postcode": "26935",
    "city": "Hartwarden"
  },
  {
    "postcode": "26935",
    "city": "Hartwarderwurp"
  },
  {
    "postcode": "26935",
    "city": "Havendorfersand"
  },
  {
    "postcode": "26935",
    "city": "Hayenwärf Kreis Wesermarsch"
  },
  {
    "postcode": "26935",
    "city": "Hayenwärf"
  },
  {
    "postcode": "26935",
    "city": "Hoben Kreis Wesermarsch"
  },
  {
    "postcode": "26935",
    "city": "Hoben"
  },
  {
    "postcode": "26935",
    "city": "Kleinensiel"
  },
  {
    "postcode": "26935",
    "city": "Rodenkirchen Kreis Wesermarsch"
  },
  {
    "postcode": "26935",
    "city": "Rodenkirchen"
  },
  {
    "postcode": "26935",
    "city": "Rodenkircherwurp"
  },
  {
    "postcode": "26935",
    "city": "Stadland"
  },
  {
    "postcode": "26935",
    "city": "Sürwürden Kreis Wesermarsch"
  },
  {
    "postcode": "26935",
    "city": "Sürwürden"
  },
  {
    "postcode": "26935",
    "city": "Wesermarsch"
  },
  {
    "postcode": "26935",
    "city": "Abserberg"
  },
  {
    "postcode": "26935",
    "city": "Alser Feld"
  },
  {
    "postcode": "26935",
    "city": "Düddingen"
  },
  {
    "postcode": "26935",
    "city": "Hiddingen"
  },
  {
    "postcode": "26935",
    "city": "Mittenfelde"
  },
  {
    "postcode": "26935",
    "city": "Oberdeich"
  },
  {
    "postcode": "26936",
    "city": "Achterstadt"
  },
  {
    "postcode": "26936",
    "city": "Kötermoor"
  },
  {
    "postcode": "26936",
    "city": "Norderschwei"
  },
  {
    "postcode": "26936",
    "city": "Schwei"
  },
  {
    "postcode": "26936",
    "city": "Schweieraußendeich"
  },
  {
    "postcode": "26936",
    "city": "Schweierfeld"
  },
  {
    "postcode": "26936",
    "city": "Stadland"
  },
  {
    "postcode": "26936",
    "city": "Süderschwei"
  },
  {
    "postcode": "26936",
    "city": "Wesermarsch"
  },
  {
    "postcode": "26936",
    "city": "Schweierzoll"
  },
  {
    "postcode": "26936",
    "city": "Schwei-West"
  },
  {
    "postcode": "26936",
    "city": "Schweieraltendeich"
  },
  {
    "postcode": "26937",
    "city": "Augustgroden"
  },
  {
    "postcode": "26937",
    "city": "Bösensieben Kreis Wesermarsch"
  },
  {
    "postcode": "26937",
    "city": "Bösensieben"
  },
  {
    "postcode": "26937",
    "city": "Morgenland Kreis Wesermarsch"
  },
  {
    "postcode": "26937",
    "city": "Morgenland"
  },
  {
    "postcode": "26937",
    "city": "Norderseefeld Kreis Wesermarsch"
  },
  {
    "postcode": "26937",
    "city": "Norderseefeld"
  },
  {
    "postcode": "26937",
    "city": "Reitland Kreis Wesermarsch"
  },
  {
    "postcode": "26937",
    "city": "Reitland"
  },
  {
    "postcode": "26937",
    "city": "Seefeld Kreis Wesermarsch"
  },
  {
    "postcode": "26937",
    "city": "Seefeld"
  },
  {
    "postcode": "26937",
    "city": "Seefelderaußendeich Kreis Wesermarsch"
  },
  {
    "postcode": "26937",
    "city": "Seefelderaußendeich"
  },
  {
    "postcode": "26937",
    "city": "Stadland"
  },
  {
    "postcode": "26937",
    "city": "Wesermarsch"
  },
  {
    "postcode": "26937",
    "city": "Binnenau"
  },
  {
    "postcode": "26937",
    "city": "Hobendeich"
  },
  {
    "postcode": "26937",
    "city": "Osterseefeld"
  },
  {
    "postcode": "26937",
    "city": "Reitlanderzoll"
  },
  {
    "postcode": "26939",
    "city": "Barghorn"
  },
  {
    "postcode": "26939",
    "city": "Loyermoor"
  },
  {
    "postcode": "26939",
    "city": "Moorseite"
  },
  {
    "postcode": "26939",
    "city": "Neustadt I"
  },
  {
    "postcode": "26939",
    "city": "Neustadt I"
  },
  {
    "postcode": "26939",
    "city": "Norderhofschlag Kreis Wesermarsch"
  },
  {
    "postcode": "26939",
    "city": "Norderhofschlag"
  },
  {
    "postcode": "26939",
    "city": "Ovelgönne"
  },
  {
    "postcode": "26939",
    "city": "Ovelgönne Kreis Wesermarsch"
  },
  {
    "postcode": "26939",
    "city": "Popkenhöge Kreis Wesermarsch"
  },
  {
    "postcode": "26939",
    "city": "Popkenhöge"
  },
  {
    "postcode": "26939",
    "city": "Rüdershausen"
  },
  {
    "postcode": "26939",
    "city": "Wesermarsch"
  },
  {
    "postcode": "26939",
    "city": "Norder-Frieschenmoor"
  },
  {
    "postcode": "26939",
    "city": "Großenmeer"
  },
  {
    "postcode": "26939",
    "city": "Altendorf"
  },
  {
    "postcode": "26939",
    "city": "Oldenbrok-Altendorf"
  },
  {
    "postcode": "26939",
    "city": "Strückhausermoor"
  },
  {
    "postcode": "26939",
    "city": "Oldenbrok-Mittelort"
  },
  {
    "postcode": "26939",
    "city": "Colmar I"
  },
  {
    "postcode": "26939",
    "city": "Neustadt I"
  },
  {
    "postcode": "26939",
    "city": "Süder-Frieschenmoor"
  },
  {
    "postcode": "26939",
    "city": "Strückhausen/Coldewey"
  },
  {
    "postcode": "26939",
    "city": "Strückhauser-Altendorf"
  },
  {
    "postcode": "26939",
    "city": "Mittelort"
  },
  {
    "postcode": "26939",
    "city": "Kirchdorf"
  },
  {
    "postcode": "26939",
    "city": "Oldenbrok-Niederort"
  },
  {
    "postcode": "26939",
    "city": "Niederort"
  },
  {
    "postcode": "26939",
    "city": "Salzendeich"
  },
  {
    "postcode": "26939",
    "city": "Strückhausen"
  },
  {
    "postcode": "26954",
    "city": "Abbehausen"
  },
  {
    "postcode": "26954",
    "city": "Blexen"
  },
  {
    "postcode": "26954",
    "city": "Einswarden"
  },
  {
    "postcode": "26954",
    "city": "Ellwürden"
  },
  {
    "postcode": "26954",
    "city": "Esenshamm"
  },
  {
    "postcode": "26954",
    "city": "Gemeinde Butjadingen"
  },
  {
    "postcode": "26954",
    "city": "Nordenham"
  },
  {
    "postcode": "26954",
    "city": "Phiesewarden"
  },
  {
    "postcode": "26954",
    "city": "Schweewarden"
  },
  {
    "postcode": "26954",
    "city": "Tettens"
  },
  {
    "postcode": "26954",
    "city": "Volkers"
  },
  {
    "postcode": "26954",
    "city": "Wesermarsch"
  },
  {
    "postcode": "26954",
    "city": "Friedrich-August-Hütte"
  },
  {
    "postcode": "26954",
    "city": "Gem Butjadingen"
  },
  {
    "postcode": "26954",
    "city": "Utergadingen"
  },
  {
    "postcode": "26969",
    "city": "Boving"
  },
  {
    "postcode": "26969",
    "city": "Burhave Kreis Wesermarsch"
  },
  {
    "postcode": "26969",
    "city": "Burhave"
  },
  {
    "postcode": "26969",
    "city": "Butjadingen"
  },
  {
    "postcode": "26969",
    "city": "Düke"
  },
  {
    "postcode": "26969",
    "city": "Eckwarden"
  },
  {
    "postcode": "26969",
    "city": "Eckwarderhörne"
  },
  {
    "postcode": "26969",
    "city": "Fedderwardersiel"
  },
  {
    "postcode": "26969",
    "city": "Husum"
  },
  {
    "postcode": "26969",
    "city": "Husumerdeich"
  },
  {
    "postcode": "26969",
    "city": "Langwarden"
  },
  {
    "postcode": "26969",
    "city": "Mitteldeich"
  },
  {
    "postcode": "26969",
    "city": "Mürrwarden"
  },
  {
    "postcode": "26969",
    "city": "Ruhwarden"
  },
  {
    "postcode": "26969",
    "city": "Seeverns"
  },
  {
    "postcode": "26969",
    "city": "Sillens"
  },
  {
    "postcode": "26969",
    "city": "Sillenserdeich"
  },
  {
    "postcode": "26969",
    "city": "Stollhamm"
  },
  {
    "postcode": "26969",
    "city": "Süllwarden"
  },
  {
    "postcode": "26969",
    "city": "Tossens"
  },
  {
    "postcode": "26969",
    "city": "Waddens"
  },
  {
    "postcode": "26969",
    "city": "Waddenserdeich"
  },
  {
    "postcode": "26969",
    "city": "Widders"
  },
  {
    "postcode": "26969",
    "city": "Wesermarsch"
  },
  {
    "postcode": "26969",
    "city": "Klein Tossens"
  },
  {
    "postcode": "26969",
    "city": "Niens"
  },
  {
    "postcode": "26969",
    "city": "Roddens"
  }
]