[
  {
    "postcode": "4416",
    "city": "Markkleeberg"
  },
  {
    "postcode": "4416",
    "city": "Wachau"
  },
  {
    "postcode": "4416",
    "city": "Leipzig"
  },
  {
    "postcode": "4416",
    "city": "Gaschwitz"
  },
  {
    "postcode": "4416",
    "city": "Auenhain"
  },
  {
    "postcode": "4420",
    "city": "Großlehna"
  },
  {
    "postcode": "4420",
    "city": "Markranstädt"
  },
  {
    "postcode": "4420",
    "city": "Leipzig"
  },
  {
    "postcode": "4420",
    "city": "Göhrenz"
  },
  {
    "postcode": "4420",
    "city": "Seebenisch"
  },
  {
    "postcode": "4420",
    "city": "Frankenheim"
  },
  {
    "postcode": "4420",
    "city": "Schkeitbar"
  },
  {
    "postcode": "4420",
    "city": "Schkölen"
  },
  {
    "postcode": "4420",
    "city": "Döhlen"
  },
  {
    "postcode": "4420",
    "city": "Thronitz"
  },
  {
    "postcode": "4420",
    "city": "Altranstädt"
  },
  {
    "postcode": "4420",
    "city": "Kulkwitz"
  },
  {
    "postcode": "4420",
    "city": "Priesteblich"
  },
  {
    "postcode": "4420",
    "city": "Quesitz"
  },
  {
    "postcode": "4420",
    "city": "Meyhen"
  },
  {
    "postcode": "4420",
    "city": "Räpitz"
  },
  {
    "postcode": "4420",
    "city": "Gärnitz"
  },
  {
    "postcode": "4420",
    "city": "Lindennaundorf"
  },
  {
    "postcode": "4420",
    "city": "Albersdorf"
  },
  {
    "postcode": "4425",
    "city": "Taucha bei Leipzig"
  },
  {
    "postcode": "4425",
    "city": "Nordsachsen"
  },
  {
    "postcode": "4425",
    "city": "Taucha"
  },
  {
    "postcode": "4425",
    "city": "Pönitz"
  },
  {
    "postcode": "4425",
    "city": "Merkwitz"
  },
  {
    "postcode": "4425",
    "city": "Seegeritz"
  },
  {
    "postcode": "4425",
    "city": "Sehlis"
  },
  {
    "postcode": "4435",
    "city": "Schkeuditz"
  },
  {
    "postcode": "4435",
    "city": "Nordsachsen"
  },
  {
    "postcode": "4435",
    "city": "Flughafen Leipzig/Halle"
  },
  {
    "postcode": "4435",
    "city": "Dölzig"
  },
  {
    "postcode": "4435",
    "city": "Freiroda"
  },
  {
    "postcode": "4435",
    "city": "Radefeld"
  },
  {
    "postcode": "4435",
    "city": "Kursdorf"
  },
  {
    "postcode": "4435",
    "city": "Glesien"
  },
  {
    "postcode": "4435",
    "city": "Gerbisdorf"
  },
  {
    "postcode": "4435",
    "city": "Hayna"
  },
  {
    "postcode": "4435",
    "city": "Kleinliebenau"
  },
  {
    "postcode": "4435",
    "city": "Wolteritz"
  },
  {
    "postcode": "4435",
    "city": "Flughafen Leipzig"
  },
  {
    "postcode": "4442",
    "city": "Döhlen"
  },
  {
    "postcode": "4442",
    "city": "Großdalzig"
  },
  {
    "postcode": "4442",
    "city": "Imnitz"
  },
  {
    "postcode": "4442",
    "city": "Kleindalzig"
  },
  {
    "postcode": "4442",
    "city": "Kotzschbar"
  },
  {
    "postcode": "4442",
    "city": "Löbschütz"
  },
  {
    "postcode": "4442",
    "city": "Mausitz"
  },
  {
    "postcode": "4442",
    "city": "Tellschütz"
  },
  {
    "postcode": "4442",
    "city": "Zitzschen"
  },
  {
    "postcode": "4442",
    "city": "Zwenkau"
  },
  {
    "postcode": "4442",
    "city": "Leipzig"
  },
  {
    "postcode": "4442",
    "city": "Rüssen-Kleinstorkwitz"
  },
  {
    "postcode": "4451",
    "city": "Borsdorf an der Parthe"
  },
  {
    "postcode": "4451",
    "city": "Leipzig"
  },
  {
    "postcode": "4451",
    "city": "Borsdorf"
  },
  {
    "postcode": "4451",
    "city": "Panitzsch"
  },
  {
    "postcode": "4451",
    "city": "Zweenfurth"
  },
  {
    "postcode": "4451",
    "city": "Cunnersdorf"
  },
  {
    "postcode": "4460",
    "city": "Kitzen bei Leipzig"
  },
  {
    "postcode": "4463",
    "city": "Dreiskau-Muckern"
  },
  {
    "postcode": "4463",
    "city": "Großpösna"
  },
  {
    "postcode": "4463",
    "city": "Seifertshain"
  },
  {
    "postcode": "4463",
    "city": "Störmthal"
  },
  {
    "postcode": "4463",
    "city": "Leipzig"
  },
  {
    "postcode": "4463",
    "city": "Güldengossa"
  },
  {
    "postcode": "4463",
    "city": "Gruna"
  },
  {
    "postcode": "44135",
    "city": "Dortmund"
  },
  {
    "postcode": "44135",
    "city": "Mitte"
  },
  {
    "postcode": "44137",
    "city": "Dortmund"
  },
  {
    "postcode": "44137",
    "city": "Mitte"
  },
  {
    "postcode": "44139",
    "city": "Brünninghausen"
  },
  {
    "postcode": "44139",
    "city": "Dortmund"
  },
  {
    "postcode": "44139",
    "city": "Mitte"
  },
  {
    "postcode": "44141",
    "city": "Dortmund"
  },
  {
    "postcode": "44141",
    "city": "Hörde"
  },
  {
    "postcode": "44141",
    "city": "Körne"
  },
  {
    "postcode": "44141",
    "city": "Mitte"
  },
  {
    "postcode": "44141",
    "city": "Gartenstadt"
  },
  {
    "postcode": "44143",
    "city": "Brackel"
  },
  {
    "postcode": "44143",
    "city": "Dortmund"
  },
  {
    "postcode": "44143",
    "city": "Körne"
  },
  {
    "postcode": "44143",
    "city": "Schüren"
  },
  {
    "postcode": "44143",
    "city": "Wambel"
  },
  {
    "postcode": "44143",
    "city": "Mitte"
  },
  {
    "postcode": "44145",
    "city": "Dortmund"
  },
  {
    "postcode": "44145",
    "city": "Lindenhorst"
  },
  {
    "postcode": "44145",
    "city": "Mitte"
  },
  {
    "postcode": "44147",
    "city": "Deusen"
  },
  {
    "postcode": "44147",
    "city": "Dorstfeld"
  },
  {
    "postcode": "44147",
    "city": "Dortmund"
  },
  {
    "postcode": "44147",
    "city": "Lindenhorst"
  },
  {
    "postcode": "44147",
    "city": "Mitte"
  },
  {
    "postcode": "44147",
    "city": "Huckarde"
  },
  {
    "postcode": "44149",
    "city": "Dorstfeld"
  },
  {
    "postcode": "44149",
    "city": "Dortmund"
  },
  {
    "postcode": "44149",
    "city": "Kley"
  },
  {
    "postcode": "44149",
    "city": "Lütgendortmund"
  },
  {
    "postcode": "44149",
    "city": "Marten"
  },
  {
    "postcode": "44149",
    "city": "Oespel"
  },
  {
    "postcode": "44149",
    "city": "Mitte"
  },
  {
    "postcode": "44225",
    "city": "Barop"
  },
  {
    "postcode": "44225",
    "city": "Brünninghausen"
  },
  {
    "postcode": "44225",
    "city": "Dortmund"
  },
  {
    "postcode": "44225",
    "city": "Hombruch"
  },
  {
    "postcode": "44225",
    "city": "Menglinghausen"
  },
  {
    "postcode": "44225",
    "city": "Renninghausen"
  },
  {
    "postcode": "44225",
    "city": "Kleinholthausen"
  },
  {
    "postcode": "44225",
    "city": "Kirchhörde"
  },
  {
    "postcode": "44225",
    "city": "Lücklemberg"
  },
  {
    "postcode": "44227",
    "city": "Barop"
  },
  {
    "postcode": "44227",
    "city": "Bittermark"
  },
  {
    "postcode": "44227",
    "city": "Dortmund"
  },
  {
    "postcode": "44227",
    "city": "Eichlinghofen"
  },
  {
    "postcode": "44227",
    "city": "Großholthausen"
  },
  {
    "postcode": "44227",
    "city": "Kirchhörde"
  },
  {
    "postcode": "44227",
    "city": "Kruckel"
  },
  {
    "postcode": "44227",
    "city": "Löttringhausen"
  },
  {
    "postcode": "44227",
    "city": "Menglinghausen"
  },
  {
    "postcode": "44227",
    "city": "Oespel"
  },
  {
    "postcode": "44227",
    "city": "Persebeck"
  },
  {
    "postcode": "44227",
    "city": "Salingen"
  },
  {
    "postcode": "44227",
    "city": "Schanze"
  },
  {
    "postcode": "44227",
    "city": "Schnee"
  },
  {
    "postcode": "44227",
    "city": "Schönau"
  },
  {
    "postcode": "44227",
    "city": "Syburg"
  },
  {
    "postcode": "44227",
    "city": "Groß-Barop"
  },
  {
    "postcode": "44227",
    "city": "Mitte"
  },
  {
    "postcode": "44229",
    "city": "Bittermark"
  },
  {
    "postcode": "44229",
    "city": "Brünninghausen"
  },
  {
    "postcode": "44229",
    "city": "Dortmund"
  },
  {
    "postcode": "44229",
    "city": "Großholthausen"
  },
  {
    "postcode": "44229",
    "city": "Kirchhörde"
  },
  {
    "postcode": "44229",
    "city": "Löttringhausen"
  },
  {
    "postcode": "44229",
    "city": "Renninghausen"
  },
  {
    "postcode": "44229",
    "city": "Lücklemberg"
  },
  {
    "postcode": "44229",
    "city": "Kleinholthausen"
  },
  {
    "postcode": "44263",
    "city": "Dortmund"
  },
  {
    "postcode": "44263",
    "city": "Hörde"
  },
  {
    "postcode": "44263",
    "city": "Schüren"
  },
  {
    "postcode": "44263",
    "city": "Mitte"
  },
  {
    "postcode": "44265",
    "city": "Dortmund"
  },
  {
    "postcode": "44265",
    "city": "Hacheney"
  },
  {
    "postcode": "44265",
    "city": "Syburg"
  },
  {
    "postcode": "44265",
    "city": "Wellinghofen"
  },
  {
    "postcode": "44265",
    "city": "Wichlinghofen"
  },
  {
    "postcode": "44265",
    "city": "Buchholz"
  },
  {
    "postcode": "44265",
    "city": "Holzen"
  },
  {
    "postcode": "44265",
    "city": "Brünninghausen"
  },
  {
    "postcode": "44267",
    "city": "Benninghofen"
  },
  {
    "postcode": "44267",
    "city": "Berghofen"
  },
  {
    "postcode": "44267",
    "city": "Dortmund"
  },
  {
    "postcode": "44267",
    "city": "Höchsten"
  },
  {
    "postcode": "44267",
    "city": "Holzen"
  },
  {
    "postcode": "44267",
    "city": "Benninghofen-Loh"
  },
  {
    "postcode": "44269",
    "city": "Benninghofen"
  },
  {
    "postcode": "44269",
    "city": "Berghofen"
  },
  {
    "postcode": "44269",
    "city": "Dortmund"
  },
  {
    "postcode": "44269",
    "city": "Schüren"
  },
  {
    "postcode": "44287",
    "city": "Berghofen"
  },
  {
    "postcode": "44287",
    "city": "Dortmund"
  },
  {
    "postcode": "44287",
    "city": "Schüren"
  },
  {
    "postcode": "44287",
    "city": "Sölde"
  },
  {
    "postcode": "44287",
    "city": "Aplerbeck"
  },
  {
    "postcode": "44287",
    "city": "Aplerbecker Mark"
  },
  {
    "postcode": "44289",
    "city": "Dortmund"
  },
  {
    "postcode": "44289",
    "city": "Sölde"
  },
  {
    "postcode": "44289",
    "city": "Sölderholz"
  },
  {
    "postcode": "44289",
    "city": "Lichtendorf"
  },
  {
    "postcode": "44309",
    "city": "Asseln"
  },
  {
    "postcode": "44309",
    "city": "Brackel"
  },
  {
    "postcode": "44309",
    "city": "Dortmund"
  },
  {
    "postcode": "44309",
    "city": "Neuasseln"
  },
  {
    "postcode": "44319",
    "city": "Asseln"
  },
  {
    "postcode": "44319",
    "city": "Dortmund"
  },
  {
    "postcode": "44319",
    "city": "Husen"
  },
  {
    "postcode": "44319",
    "city": "Kurl"
  },
  {
    "postcode": "44319",
    "city": "Wickede"
  },
  {
    "postcode": "44328",
    "city": "Dortmund"
  },
  {
    "postcode": "44328",
    "city": "Scharnhorst"
  },
  {
    "postcode": "44328",
    "city": "Wambel"
  },
  {
    "postcode": "44329",
    "city": "Brechten"
  },
  {
    "postcode": "44329",
    "city": "Derne"
  },
  {
    "postcode": "44329",
    "city": "Dortmund"
  },
  {
    "postcode": "44329",
    "city": "Eving"
  },
  {
    "postcode": "44329",
    "city": "Grevel"
  },
  {
    "postcode": "44329",
    "city": "Hostedde"
  },
  {
    "postcode": "44329",
    "city": "Kirchderne"
  },
  {
    "postcode": "44329",
    "city": "Lanstrop"
  },
  {
    "postcode": "44329",
    "city": "Scharnhorst"
  },
  {
    "postcode": "44339",
    "city": "Brechten"
  },
  {
    "postcode": "44339",
    "city": "Dortmund"
  },
  {
    "postcode": "44339",
    "city": "Ellinghausen"
  },
  {
    "postcode": "44339",
    "city": "Eving"
  },
  {
    "postcode": "44339",
    "city": "Lindenhorst"
  },
  {
    "postcode": "44339",
    "city": "Holthausen"
  },
  {
    "postcode": "44339",
    "city": "Mitte"
  },
  {
    "postcode": "44357",
    "city": "Bodelschwingh"
  },
  {
    "postcode": "44357",
    "city": "Dortmund"
  },
  {
    "postcode": "44357",
    "city": "Oestrich"
  },
  {
    "postcode": "44357",
    "city": "Westerfilde"
  },
  {
    "postcode": "44357",
    "city": "Nette"
  },
  {
    "postcode": "44359",
    "city": "Bodelschwingh"
  },
  {
    "postcode": "44359",
    "city": "Deusen"
  },
  {
    "postcode": "44359",
    "city": "Dortmund"
  },
  {
    "postcode": "44359",
    "city": "Ellinghausen"
  },
  {
    "postcode": "44359",
    "city": "Groppenbruch"
  },
  {
    "postcode": "44359",
    "city": "Mengede"
  },
  {
    "postcode": "44359",
    "city": "Oestrich"
  },
  {
    "postcode": "44359",
    "city": "Schwieringhausen"
  },
  {
    "postcode": "44359",
    "city": "Nette"
  },
  {
    "postcode": "44359",
    "city": "Mengeder Heide"
  },
  {
    "postcode": "44369",
    "city": "Deusen"
  },
  {
    "postcode": "44369",
    "city": "Dortmund"
  },
  {
    "postcode": "44369",
    "city": "Huckarde"
  },
  {
    "postcode": "44369",
    "city": "Rahm"
  },
  {
    "postcode": "44369",
    "city": "Westerfilde"
  },
  {
    "postcode": "44369",
    "city": "Wischlingen"
  },
  {
    "postcode": "44369",
    "city": "Mitte"
  },
  {
    "postcode": "44369",
    "city": "Jungferntal"
  },
  {
    "postcode": "44379",
    "city": "Dorstfeld"
  },
  {
    "postcode": "44379",
    "city": "Dortmund"
  },
  {
    "postcode": "44379",
    "city": "Kirchlinde"
  },
  {
    "postcode": "44379",
    "city": "Lütgendortmund"
  },
  {
    "postcode": "44379",
    "city": "Marten"
  },
  {
    "postcode": "44379",
    "city": "Rahm"
  },
  {
    "postcode": "44379",
    "city": "Hangeney"
  },
  {
    "postcode": "44379",
    "city": "Westrich"
  },
  {
    "postcode": "44388",
    "city": "Dortmund"
  },
  {
    "postcode": "44388",
    "city": "Kirchlinde"
  },
  {
    "postcode": "44388",
    "city": "Kley"
  },
  {
    "postcode": "44388",
    "city": "Lütgendortmund"
  },
  {
    "postcode": "44388",
    "city": "Marten"
  },
  {
    "postcode": "44388",
    "city": "Somborn"
  },
  {
    "postcode": "44388",
    "city": "Bövinghausen"
  },
  {
    "postcode": "44388",
    "city": "Westrich"
  },
  {
    "postcode": "44388",
    "city": "Holte"
  },
  {
    "postcode": "44532",
    "city": "Beckinghausen"
  },
  {
    "postcode": "44532",
    "city": "Gahmen"
  },
  {
    "postcode": "44532",
    "city": "Lünen"
  },
  {
    "postcode": "44532",
    "city": "Niederaden"
  },
  {
    "postcode": "44532",
    "city": "Nordlünen"
  },
  {
    "postcode": "44532",
    "city": "Unna"
  },
  {
    "postcode": "44532",
    "city": "Bergkamen"
  },
  {
    "postcode": "44532",
    "city": "Oberaden"
  },
  {
    "postcode": "44532",
    "city": "Lünen-Süd"
  },
  {
    "postcode": "44532",
    "city": "Horstmar"
  },
  {
    "postcode": "44534",
    "city": "Alstedde"
  },
  {
    "postcode": "44534",
    "city": "Lünen"
  },
  {
    "postcode": "44534",
    "city": "Nordlünen"
  },
  {
    "postcode": "44534",
    "city": "Wethmar"
  },
  {
    "postcode": "44534",
    "city": "Unna"
  },
  {
    "postcode": "44534",
    "city": "Altlünen"
  },
  {
    "postcode": "44536",
    "city": "Brambauer"
  },
  {
    "postcode": "44536",
    "city": "Lippholthausen"
  },
  {
    "postcode": "44536",
    "city": "Lünen"
  },
  {
    "postcode": "44536",
    "city": "Unna"
  },
  {
    "postcode": "44575",
    "city": "Behringhausen"
  },
  {
    "postcode": "44575",
    "city": "Castrop-Rauxel"
  },
  {
    "postcode": "44575",
    "city": "Obercastrop"
  },
  {
    "postcode": "44575",
    "city": "Rauxel"
  },
  {
    "postcode": "44575",
    "city": "Recklinghausen"
  },
  {
    "postcode": "44575",
    "city": "Castrop"
  },
  {
    "postcode": "44575",
    "city": "Schwerin"
  },
  {
    "postcode": "44577",
    "city": "Castrop-Rauxel"
  },
  {
    "postcode": "44577",
    "city": "Deininghausen"
  },
  {
    "postcode": "44577",
    "city": "Dingen"
  },
  {
    "postcode": "44577",
    "city": "Frohlinde"
  },
  {
    "postcode": "44577",
    "city": "Habinghorst"
  },
  {
    "postcode": "44577",
    "city": "Henrichenburg"
  },
  {
    "postcode": "44577",
    "city": "Ickern"
  },
  {
    "postcode": "44577",
    "city": "Merklinde"
  },
  {
    "postcode": "44577",
    "city": "Obercastrop"
  },
  {
    "postcode": "44577",
    "city": "Rauxel"
  },
  {
    "postcode": "44577",
    "city": "Recklinghausen"
  },
  {
    "postcode": "44577",
    "city": "Schwerin"
  },
  {
    "postcode": "44579",
    "city": "Behringhausen"
  },
  {
    "postcode": "44579",
    "city": "Bladenhorst"
  },
  {
    "postcode": "44579",
    "city": "Castrop-Rauxel"
  },
  {
    "postcode": "44579",
    "city": "Habinghorst"
  },
  {
    "postcode": "44579",
    "city": "Ickern"
  },
  {
    "postcode": "44579",
    "city": "Pöppinghausen"
  },
  {
    "postcode": "44579",
    "city": "Rauxel"
  },
  {
    "postcode": "44579",
    "city": "Recklinghausen"
  },
  {
    "postcode": "44579",
    "city": "Castrop"
  },
  {
    "postcode": "44581",
    "city": "Castrop-Rauxel"
  },
  {
    "postcode": "44581",
    "city": "Habinghorst"
  },
  {
    "postcode": "44581",
    "city": "Henrichenburg"
  },
  {
    "postcode": "44581",
    "city": "Ickern"
  },
  {
    "postcode": "44581",
    "city": "Recklinghausen"
  },
  {
    "postcode": "44623",
    "city": "Herne Westfalen"
  },
  {
    "postcode": "44623",
    "city": "Herne"
  },
  {
    "postcode": "44623",
    "city": "Herne-Mitte"
  },
  {
    "postcode": "44623",
    "city": "Herne-Süd"
  },
  {
    "postcode": "44623",
    "city": "Baukau-Ost"
  },
  {
    "postcode": "44625",
    "city": "Herne Westfalen"
  },
  {
    "postcode": "44625",
    "city": "Herne"
  },
  {
    "postcode": "44625",
    "city": "Holsterhausen"
  },
  {
    "postcode": "44625",
    "city": "Sodingen"
  },
  {
    "postcode": "44625",
    "city": "Herne-Süd"
  },
  {
    "postcode": "44625",
    "city": "Herne-Mitte"
  },
  {
    "postcode": "44627",
    "city": "Herne Westfalen"
  },
  {
    "postcode": "44627",
    "city": "Herne"
  },
  {
    "postcode": "44627",
    "city": "Holthausen"
  },
  {
    "postcode": "44627",
    "city": "Sodingen"
  },
  {
    "postcode": "44627",
    "city": "Börnig"
  },
  {
    "postcode": "44627",
    "city": "Gysenberg"
  },
  {
    "postcode": "44627",
    "city": "Herne-Mitte"
  },
  {
    "postcode": "44628",
    "city": "Herne Westfalen"
  },
  {
    "postcode": "44628",
    "city": "Herne"
  },
  {
    "postcode": "44628",
    "city": "Holthausen"
  },
  {
    "postcode": "44628",
    "city": "Horsthausen"
  },
  {
    "postcode": "44628",
    "city": "Sodingen"
  },
  {
    "postcode": "44628",
    "city": "Börnig"
  },
  {
    "postcode": "44628",
    "city": "Herne-Mitte"
  },
  {
    "postcode": "44628",
    "city": "Baukau"
  },
  {
    "postcode": "44628",
    "city": "Baukau-Ost"
  },
  {
    "postcode": "44629",
    "city": "Herne Westfalen"
  },
  {
    "postcode": "44629",
    "city": "Herne"
  },
  {
    "postcode": "44629",
    "city": "Horsthausen"
  },
  {
    "postcode": "44629",
    "city": "Baukau-Ost"
  },
  {
    "postcode": "44629",
    "city": "Baukau"
  },
  {
    "postcode": "44629",
    "city": "Herne-Mitte"
  },
  {
    "postcode": "44649",
    "city": "Crange"
  },
  {
    "postcode": "44649",
    "city": "Herne Westfalen"
  },
  {
    "postcode": "44649",
    "city": "Herne"
  },
  {
    "postcode": "44649",
    "city": "Röhlinghausen"
  },
  {
    "postcode": "44649",
    "city": "Wanne"
  },
  {
    "postcode": "44649",
    "city": "Baukau-West"
  },
  {
    "postcode": "44651",
    "city": "Eickel"
  },
  {
    "postcode": "44651",
    "city": "Herne Westfalen"
  },
  {
    "postcode": "44651",
    "city": "Herne"
  },
  {
    "postcode": "44651",
    "city": "Röhlinghausen"
  },
  {
    "postcode": "44651",
    "city": "Wanne-Süd"
  },
  {
    "postcode": "44652",
    "city": "Eickel"
  },
  {
    "postcode": "44652",
    "city": "Herne Westfalen"
  },
  {
    "postcode": "44652",
    "city": "Herne"
  },
  {
    "postcode": "44652",
    "city": "Holsterhausen"
  },
  {
    "postcode": "44652",
    "city": "Wanne"
  },
  {
    "postcode": "44652",
    "city": "Wanne-Süd"
  },
  {
    "postcode": "44652",
    "city": "Baukau-West"
  },
  {
    "postcode": "44653",
    "city": "Crange"
  },
  {
    "postcode": "44653",
    "city": "Herne Westfalen"
  },
  {
    "postcode": "44653",
    "city": "Herne"
  },
  {
    "postcode": "44653",
    "city": "Wanne"
  },
  {
    "postcode": "44653",
    "city": "Unser Fritz"
  },
  {
    "postcode": "44653",
    "city": "Baukau-West"
  },
  {
    "postcode": "44653",
    "city": "Holsterhausen"
  },
  {
    "postcode": "44653",
    "city": "Wanne-Süd"
  },
  {
    "postcode": "44653",
    "city": "Baukau"
  },
  {
    "postcode": "44787",
    "city": "Bochum"
  },
  {
    "postcode": "44787",
    "city": "Innenstadt"
  },
  {
    "postcode": "44789",
    "city": "Altenbochum"
  },
  {
    "postcode": "44789",
    "city": "Bochum"
  },
  {
    "postcode": "44789",
    "city": "Weitmar"
  },
  {
    "postcode": "44789",
    "city": "Wiemelhausen"
  },
  {
    "postcode": "44789",
    "city": "Innenstadt"
  },
  {
    "postcode": "44789",
    "city": "Ehrenfeld"
  },
  {
    "postcode": "44791",
    "city": "Altenbochum"
  },
  {
    "postcode": "44791",
    "city": "Bochum"
  },
  {
    "postcode": "44791",
    "city": "Grumme"
  },
  {
    "postcode": "44791",
    "city": "Hamme"
  },
  {
    "postcode": "44791",
    "city": "Harpen"
  },
  {
    "postcode": "44791",
    "city": "Innenstadt"
  },
  {
    "postcode": "44793",
    "city": "Bochum"
  },
  {
    "postcode": "44793",
    "city": "Hamme"
  },
  {
    "postcode": "44793",
    "city": "Hordel"
  },
  {
    "postcode": "44793",
    "city": "Weitmar"
  },
  {
    "postcode": "44793",
    "city": "Wiemelhausen"
  },
  {
    "postcode": "44793",
    "city": "Innenstadt"
  },
  {
    "postcode": "44795",
    "city": "Bochum"
  },
  {
    "postcode": "44795",
    "city": "Weitmar"
  },
  {
    "postcode": "44795",
    "city": "Wiemelhausen"
  },
  {
    "postcode": "44797",
    "city": "Bochum"
  },
  {
    "postcode": "44797",
    "city": "Linden"
  },
  {
    "postcode": "44797",
    "city": "Stiepel"
  },
  {
    "postcode": "44797",
    "city": "Weitmar"
  },
  {
    "postcode": "44797",
    "city": "Wiemelhausen"
  },
  {
    "postcode": "44799",
    "city": "Bochum"
  },
  {
    "postcode": "44799",
    "city": "Querenburg"
  },
  {
    "postcode": "44799",
    "city": "Wiemelhausen"
  },
  {
    "postcode": "44799",
    "city": "Weitmar"
  },
  {
    "postcode": "44799",
    "city": "Altenbochum"
  },
  {
    "postcode": "44801",
    "city": "Bochum"
  },
  {
    "postcode": "44801",
    "city": "Querenburg"
  },
  {
    "postcode": "44801",
    "city": "Stiepel"
  },
  {
    "postcode": "44801",
    "city": "Wiemelhausen"
  },
  {
    "postcode": "44803",
    "city": "Altenbochum"
  },
  {
    "postcode": "44803",
    "city": "Bochum"
  },
  {
    "postcode": "44803",
    "city": "Laer"
  },
  {
    "postcode": "44803",
    "city": "Wiemelhausen"
  },
  {
    "postcode": "44805",
    "city": "Bochum"
  },
  {
    "postcode": "44805",
    "city": "Gerthe"
  },
  {
    "postcode": "44805",
    "city": "Grumme"
  },
  {
    "postcode": "44805",
    "city": "Harpen"
  },
  {
    "postcode": "44805",
    "city": "Hiltrop"
  },
  {
    "postcode": "44805",
    "city": "Bergen"
  },
  {
    "postcode": "44807",
    "city": "Bergen"
  },
  {
    "postcode": "44807",
    "city": "Bochum"
  },
  {
    "postcode": "44807",
    "city": "Grumme"
  },
  {
    "postcode": "44807",
    "city": "Hofstede"
  },
  {
    "postcode": "44807",
    "city": "Riemke"
  },
  {
    "postcode": "44809",
    "city": "Bochum"
  },
  {
    "postcode": "44809",
    "city": "Grumme"
  },
  {
    "postcode": "44809",
    "city": "Hamme"
  },
  {
    "postcode": "44809",
    "city": "Hofstede"
  },
  {
    "postcode": "44809",
    "city": "Riemke"
  },
  {
    "postcode": "44809",
    "city": "Innenstadt"
  },
  {
    "postcode": "44866",
    "city": "Bochum"
  },
  {
    "postcode": "44866",
    "city": "Günnigfeld"
  },
  {
    "postcode": "44866",
    "city": "Sevinghausen"
  },
  {
    "postcode": "44866",
    "city": "Wattenscheid"
  },
  {
    "postcode": "44866",
    "city": "Westenfeld"
  },
  {
    "postcode": "44866",
    "city": "Leithe"
  },
  {
    "postcode": "44866",
    "city": "Hamme"
  },
  {
    "postcode": "44866",
    "city": "Querenburg"
  },
  {
    "postcode": "44867",
    "city": "Bochum"
  },
  {
    "postcode": "44867",
    "city": "Höntrop"
  },
  {
    "postcode": "44867",
    "city": "Sevinghausen"
  },
  {
    "postcode": "44867",
    "city": "Wattenscheid"
  },
  {
    "postcode": "44867",
    "city": "Westenfeld"
  },
  {
    "postcode": "44867",
    "city": "Leithe"
  },
  {
    "postcode": "44869",
    "city": "Bochum"
  },
  {
    "postcode": "44869",
    "city": "Dahlhausen"
  },
  {
    "postcode": "44869",
    "city": "Eppendorf"
  },
  {
    "postcode": "44869",
    "city": "Höntrop"
  },
  {
    "postcode": "44869",
    "city": "Sevinghausen"
  },
  {
    "postcode": "44869",
    "city": "Westenfeld"
  },
  {
    "postcode": "44879",
    "city": "Bochum"
  },
  {
    "postcode": "44879",
    "city": "Dahlhausen"
  },
  {
    "postcode": "44879",
    "city": "Linden"
  },
  {
    "postcode": "44892",
    "city": "Bochum"
  },
  {
    "postcode": "44892",
    "city": "Langendreer"
  },
  {
    "postcode": "44894",
    "city": "Bochum"
  },
  {
    "postcode": "44894",
    "city": "Langendreer"
  },
  {
    "postcode": "44894",
    "city": "Werne"
  }
]