[
  {
    "postcode": "6901",
    "city": "Ateritz"
  },
  {
    "postcode": "6901",
    "city": "Dorna bei Lutherstadt Wittenberg"
  },
  {
    "postcode": "6901",
    "city": "Globig-Bleddin"
  },
  {
    "postcode": "6901",
    "city": "Kemberg"
  },
  {
    "postcode": "6901",
    "city": "Rackith"
  },
  {
    "postcode": "6901",
    "city": "Schnellin"
  },
  {
    "postcode": "6901",
    "city": "Wartenburg"
  },
  {
    "postcode": "6901",
    "city": "Wittenberg"
  },
  {
    "postcode": "6901",
    "city": "Melzwig"
  },
  {
    "postcode": "6901",
    "city": "Globig"
  },
  {
    "postcode": "6901",
    "city": "Radis"
  },
  {
    "postcode": "6901",
    "city": "Bergwitz"
  },
  {
    "postcode": "6901",
    "city": "Reuden"
  },
  {
    "postcode": "6901",
    "city": "Uthausen"
  },
  {
    "postcode": "6901",
    "city": "Rotta"
  },
  {
    "postcode": "6901",
    "city": "Gniest"
  },
  {
    "postcode": "6901",
    "city": "Eutzsch"
  },
  {
    "postcode": "6901",
    "city": "Lubast"
  },
  {
    "postcode": "6901",
    "city": "Schleesen"
  },
  {
    "postcode": "6901",
    "city": "Klitzschena"
  },
  {
    "postcode": "6901",
    "city": "Bietegast"
  },
  {
    "postcode": "6901",
    "city": "Boos"
  },
  {
    "postcode": "6901",
    "city": "Dabrun"
  },
  {
    "postcode": "6901",
    "city": "Dorna"
  },
  {
    "postcode": "6901",
    "city": "Bleddin"
  },
  {
    "postcode": "6901",
    "city": "Selbitz"
  },
  {
    "postcode": "6901",
    "city": "Gommlo"
  },
  {
    "postcode": "6901",
    "city": "Gaditz"
  },
  {
    "postcode": "6901",
    "city": "Lammsdorf"
  },
  {
    "postcode": "6901",
    "city": "Naderkau"
  },
  {
    "postcode": "6901",
    "city": "Pannigkau"
  },
  {
    "postcode": "6901",
    "city": "Rötzsch"
  },
  {
    "postcode": "6905",
    "city": "Bad Schmiedeberg"
  },
  {
    "postcode": "6905",
    "city": "Korgau"
  },
  {
    "postcode": "6905",
    "city": "Meuro bei Lutherstadt Wittenberg"
  },
  {
    "postcode": "6905",
    "city": "Wittenberg"
  },
  {
    "postcode": "6905",
    "city": "Pretzsch"
  },
  {
    "postcode": "6905",
    "city": "Trebitz"
  },
  {
    "postcode": "6905",
    "city": "Splau"
  },
  {
    "postcode": "6905",
    "city": "Reinharz"
  },
  {
    "postcode": "6905",
    "city": "Großwig"
  },
  {
    "postcode": "6905",
    "city": "Bösewig"
  },
  {
    "postcode": "6905",
    "city": "Moschwig"
  },
  {
    "postcode": "6905",
    "city": "Söllichau"
  },
  {
    "postcode": "6905",
    "city": "Großkorgau"
  },
  {
    "postcode": "6905",
    "city": "Kleinkorgau"
  },
  {
    "postcode": "6905",
    "city": "Körbin-Alt"
  },
  {
    "postcode": "6905",
    "city": "Körbin-Neu"
  },
  {
    "postcode": "6905",
    "city": "Kleinzerbst"
  },
  {
    "postcode": "6905",
    "city": "Ogkeln"
  },
  {
    "postcode": "6905",
    "city": "Meuro"
  },
  {
    "postcode": "6905",
    "city": "Merkwitz"
  },
  {
    "postcode": "6905",
    "city": "Merschwitz"
  },
  {
    "postcode": "6905",
    "city": "Patzschwig"
  },
  {
    "postcode": "6905",
    "city": "Priesitz"
  },
  {
    "postcode": "6905",
    "city": "Österitz"
  },
  {
    "postcode": "6905",
    "city": "Sachau"
  },
  {
    "postcode": "6905",
    "city": "Sackwitz"
  },
  {
    "postcode": "6905",
    "city": "Schnellin"
  },
  {
    "postcode": "6905",
    "city": "Scholis"
  },
  {
    "postcode": "6909",
    "city": "Pretzsch (Elbe)"
  },
  {
    "postcode": "6909",
    "city": "Pretzsch"
  },
  {
    "postcode": "6909",
    "city": "Priesitz"
  },
  {
    "postcode": "6909",
    "city": "Trebitz bei Lutherstadt Wittenberg"
  },
  {
    "postcode": "6917",
    "city": "Arnsdorf bei Jessen Elster"
  },
  {
    "postcode": "6917",
    "city": "Arnsdorf bei Jessen"
  },
  {
    "postcode": "6917",
    "city": "Battin bei Jessen Elster"
  },
  {
    "postcode": "6917",
    "city": "Battin bei Jessen"
  },
  {
    "postcode": "6917",
    "city": "Buschkuhnsdorf"
  },
  {
    "postcode": "6917",
    "city": "Dixförda"
  },
  {
    "postcode": "6917",
    "city": "Düßnitz"
  },
  {
    "postcode": "6917",
    "city": "Gerbisbach"
  },
  {
    "postcode": "6917",
    "city": "Gorsdorf-Hemsendorf"
  },
  {
    "postcode": "6917",
    "city": "Grabo bei Jessen Elster"
  },
  {
    "postcode": "6917",
    "city": "Grabo bei Jessen"
  },
  {
    "postcode": "6917",
    "city": "Großkorga"
  },
  {
    "postcode": "6917",
    "city": "Holzdorf Elster"
  },
  {
    "postcode": "6917",
    "city": "Holzdorf"
  },
  {
    "postcode": "6917",
    "city": "Jessen (Elster)"
  },
  {
    "postcode": "6917",
    "city": "Jessen"
  },
  {
    "postcode": "6917",
    "city": "Kleindröben"
  },
  {
    "postcode": "6917",
    "city": "Kleinkorga"
  },
  {
    "postcode": "6917",
    "city": "Klöden"
  },
  {
    "postcode": "6917",
    "city": "Klossa"
  },
  {
    "postcode": "6917",
    "city": "Kremitz"
  },
  {
    "postcode": "6917",
    "city": "Leipa"
  },
  {
    "postcode": "6917",
    "city": "Linda (Elster)"
  },
  {
    "postcode": "6917",
    "city": "Linda"
  },
  {
    "postcode": "6917",
    "city": "Lindwerder"
  },
  {
    "postcode": "6917",
    "city": "Lüttchenseyda"
  },
  {
    "postcode": "6917",
    "city": "Mark Zwuschen"
  },
  {
    "postcode": "6917",
    "city": "Mellnitz bei Jessen Elster"
  },
  {
    "postcode": "6917",
    "city": "Mellnitz bei Jessen"
  },
  {
    "postcode": "6917",
    "city": "Mönchenhöfe"
  },
  {
    "postcode": "6917",
    "city": "Morxdorf"
  },
  {
    "postcode": "6917",
    "city": "Mügeln bei Jessen Elster"
  },
  {
    "postcode": "6917",
    "city": "Mügeln bei Jessen"
  },
  {
    "postcode": "6917",
    "city": "Neuerstadt"
  },
  {
    "postcode": "6917",
    "city": "Rade bei Jessen Elster"
  },
  {
    "postcode": "6917",
    "city": "Rade bei Jessen"
  },
  {
    "postcode": "6917",
    "city": "Reicho"
  },
  {
    "postcode": "6917",
    "city": "Ruhlsdorf bei Jessen Elster"
  },
  {
    "postcode": "6917",
    "city": "Ruhlsdorf bei Jessen"
  },
  {
    "postcode": "6917",
    "city": "Schadewalde"
  },
  {
    "postcode": "6917",
    "city": "Schöneicho"
  },
  {
    "postcode": "6917",
    "city": "Schützberg"
  },
  {
    "postcode": "6917",
    "city": "Schweinitz Elster"
  },
  {
    "postcode": "6917",
    "city": "Schweinitz"
  },
  {
    "postcode": "6917",
    "city": "Steinsdorf bei Jessen Elster"
  },
  {
    "postcode": "6917",
    "city": "Steinsdorf bei Jessen"
  },
  {
    "postcode": "6917",
    "city": "Wittenberg"
  },
  {
    "postcode": "6917",
    "city": "Arnsdorf"
  },
  {
    "postcode": "6917",
    "city": "Seyda"
  },
  {
    "postcode": "6917",
    "city": "Rehain"
  },
  {
    "postcode": "6917",
    "city": "Mügeln"
  },
  {
    "postcode": "6917",
    "city": "Battin"
  },
  {
    "postcode": "6917",
    "city": "Rade"
  },
  {
    "postcode": "6917",
    "city": "Grabo"
  },
  {
    "postcode": "6917",
    "city": "Gentha"
  },
  {
    "postcode": "6917",
    "city": "Glücksburg"
  },
  {
    "postcode": "6917",
    "city": "Gorsdorf"
  },
  {
    "postcode": "6917",
    "city": "Hemsendorf"
  },
  {
    "postcode": "6917",
    "city": "Mark Friedersdorf"
  },
  {
    "postcode": "6917",
    "city": "Mauken"
  },
  {
    "postcode": "6917",
    "city": "Mellnitz"
  },
  {
    "postcode": "6917",
    "city": "Naundorf b Seyda"
  },
  {
    "postcode": "6917",
    "city": "Rettig"
  },
  {
    "postcode": "6917",
    "city": "Ruhlsdorf"
  },
  {
    "postcode": "6917",
    "city": "Steinsdorf"
  },
  {
    "postcode": "6917",
    "city": "Zwuschen"
  },
  {
    "postcode": "6918",
    "city": "Elster (Elbe)"
  },
  {
    "postcode": "6918",
    "city": "Elster"
  },
  {
    "postcode": "6918",
    "city": "Gadegast"
  },
  {
    "postcode": "6918",
    "city": "Gentha"
  },
  {
    "postcode": "6918",
    "city": "Listerfehrda"
  },
  {
    "postcode": "6918",
    "city": "Lüttchenseyda"
  },
  {
    "postcode": "6918",
    "city": "Mark Zwuschen"
  },
  {
    "postcode": "6918",
    "city": "Mellnitz bei Jessen Elster"
  },
  {
    "postcode": "6918",
    "city": "Mellnitz bei Jessen"
  },
  {
    "postcode": "6918",
    "city": "Morxdorf"
  },
  {
    "postcode": "6918",
    "city": "Naundorf bei Seyda"
  },
  {
    "postcode": "6918",
    "city": "Schadewalde"
  },
  {
    "postcode": "6918",
    "city": "Seyda"
  },
  {
    "postcode": "6918",
    "city": "Zemnick"
  },
  {
    "postcode": "6922",
    "city": "Axien"
  },
  {
    "postcode": "6922",
    "city": "Labrun"
  },
  {
    "postcode": "6922",
    "city": "Lebien"
  },
  {
    "postcode": "6922",
    "city": "Plossig"
  },
  {
    "postcode": "6922",
    "city": "Prettin"
  },
  {
    "postcode": "6925",
    "city": "Annaburg Sachsen-Anhalt"
  },
  {
    "postcode": "6925",
    "city": "Annaburg"
  },
  {
    "postcode": "6925",
    "city": "Bethau"
  },
  {
    "postcode": "6925",
    "city": "Groß Naundorf bei Annaburg"
  },
  {
    "postcode": "6925",
    "city": "Löben Elster"
  },
  {
    "postcode": "6925",
    "city": "Löben"
  },
  {
    "postcode": "6925",
    "city": "Purzien"
  },
  {
    "postcode": "6925",
    "city": "Wittenberg"
  },
  {
    "postcode": "6925",
    "city": "Lebien"
  },
  {
    "postcode": "6925",
    "city": "Groß Naundorf"
  },
  {
    "postcode": "6925",
    "city": "Hohndorf"
  },
  {
    "postcode": "6925",
    "city": "Prettin"
  },
  {
    "postcode": "6925",
    "city": "Axien"
  },
  {
    "postcode": "6925",
    "city": "Labrun"
  },
  {
    "postcode": "6925",
    "city": "Gehmen"
  },
  {
    "postcode": "6925",
    "city": "Plossig"
  },
  {
    "postcode": "6925",
    "city": "Kolonie"
  },
  {
    "postcode": "6925",
    "city": "Meuselko"
  },
  {
    "postcode": "6925",
    "city": "Premsendorf"
  },
  {
    "postcode": "6926",
    "city": "Buschkuhnsdorf"
  },
  {
    "postcode": "6926",
    "city": "Holzdorf Elster"
  },
  {
    "postcode": "6926",
    "city": "Holzdorf"
  },
  {
    "postcode": "6926",
    "city": "Kleinkorga"
  },
  {
    "postcode": "6926",
    "city": "Kremitz"
  },
  {
    "postcode": "6926",
    "city": "Linda (Elster)"
  },
  {
    "postcode": "6926",
    "city": "Linda"
  },
  {
    "postcode": "6926",
    "city": "Mönchenhöfe"
  },
  {
    "postcode": "6926",
    "city": "Neuerstadt"
  },
  {
    "postcode": "6926",
    "city": "Premsendorf"
  },
  {
    "postcode": "6926",
    "city": "Reicho"
  },
  {
    "postcode": "6928",
    "city": "Dixförda"
  },
  {
    "postcode": "6928",
    "city": "Klossa"
  },
  {
    "postcode": "6928",
    "city": "Lindwerder"
  },
  {
    "postcode": "6928",
    "city": "Mügeln bei Jessen Elster"
  },
  {
    "postcode": "6928",
    "city": "Mügeln bei Jessen"
  },
  {
    "postcode": "6928",
    "city": "Schweinitz Elster"
  },
  {
    "postcode": "6928",
    "city": "Schweinitz"
  },
  {
    "postcode": "6928",
    "city": "Steinsdorf bei Jessen Elster"
  },
  {
    "postcode": "6928",
    "city": "Steinsdorf bei Jessen"
  },
  {
    "postcode": "69115",
    "city": "Bergheim"
  },
  {
    "postcode": "69115",
    "city": "Heidelberg (Neckar)"
  },
  {
    "postcode": "69115",
    "city": "Heidelberg"
  },
  {
    "postcode": "69115",
    "city": "Weststadt"
  },
  {
    "postcode": "69115",
    "city": "Bahnstadt"
  },
  {
    "postcode": "69115",
    "city": "Pfaffengrund"
  },
  {
    "postcode": "69115",
    "city": "Altstadt"
  },
  {
    "postcode": "69117",
    "city": "Altstadt"
  },
  {
    "postcode": "69117",
    "city": "Heidelberg (Neckar)"
  },
  {
    "postcode": "69117",
    "city": "Heidelberg"
  },
  {
    "postcode": "69118",
    "city": "Heidelberg (Neckar)"
  },
  {
    "postcode": "69118",
    "city": "Heidelberg"
  },
  {
    "postcode": "69118",
    "city": "Peterstal"
  },
  {
    "postcode": "69118",
    "city": "Schlierbach"
  },
  {
    "postcode": "69118",
    "city": "Ziegelhausen"
  },
  {
    "postcode": "69118",
    "city": "Rohrbach"
  },
  {
    "postcode": "69120",
    "city": "Heidelberg (Neckar)"
  },
  {
    "postcode": "69120",
    "city": "Heidelberg"
  },
  {
    "postcode": "69120",
    "city": "Neuenheim"
  },
  {
    "postcode": "69120",
    "city": "Kirchheim"
  },
  {
    "postcode": "69120",
    "city": "Handschuhsheim"
  },
  {
    "postcode": "69121",
    "city": "Handschuhsheim"
  },
  {
    "postcode": "69121",
    "city": "Heidelberg (Neckar)"
  },
  {
    "postcode": "69121",
    "city": "Heidelberg"
  },
  {
    "postcode": "69121",
    "city": "Neuenheim"
  },
  {
    "postcode": "69123",
    "city": "Grenzhof"
  },
  {
    "postcode": "69123",
    "city": "Heidelberg (Neckar)"
  },
  {
    "postcode": "69123",
    "city": "Heidelberg"
  },
  {
    "postcode": "69123",
    "city": "Wieblingen"
  },
  {
    "postcode": "69123",
    "city": "Pfaffengrund"
  },
  {
    "postcode": "69124",
    "city": "Heidelberg (Neckar)"
  },
  {
    "postcode": "69124",
    "city": "Heidelberg"
  },
  {
    "postcode": "69124",
    "city": "Kirchheim"
  },
  {
    "postcode": "69124",
    "city": "Pfaffengrund"
  },
  {
    "postcode": "69126",
    "city": "Heidelberg (Neckar)"
  },
  {
    "postcode": "69126",
    "city": "Heidelberg"
  },
  {
    "postcode": "69126",
    "city": "Rohrbach"
  },
  {
    "postcode": "69126",
    "city": "Südstadt"
  },
  {
    "postcode": "69126",
    "city": "Boxberg"
  },
  {
    "postcode": "69126",
    "city": "Emmertsgrund"
  },
  {
    "postcode": "69151",
    "city": "Dilsberg"
  },
  {
    "postcode": "69151",
    "city": "Kleingemünd"
  },
  {
    "postcode": "69151",
    "city": "Mückenloch"
  },
  {
    "postcode": "69151",
    "city": "Neckargemünd"
  },
  {
    "postcode": "69151",
    "city": "Waldhilsbach"
  },
  {
    "postcode": "69151",
    "city": "Rhein-Neckar-Kreis"
  },
  {
    "postcode": "69151",
    "city": "Rainbach"
  },
  {
    "postcode": "69168",
    "city": "Baiertal"
  },
  {
    "postcode": "69168",
    "city": "Schatthausen"
  },
  {
    "postcode": "69168",
    "city": "Wiesloch"
  },
  {
    "postcode": "69168",
    "city": "Rhein-Neckar-Kreis"
  },
  {
    "postcode": "69168",
    "city": "Frauenweiler"
  },
  {
    "postcode": "69181",
    "city": "Gauangelloch"
  },
  {
    "postcode": "69181",
    "city": "Leimen"
  },
  {
    "postcode": "69181",
    "city": "Leimen (Baden)"
  },
  {
    "postcode": "69181",
    "city": "Ochsenbach"
  },
  {
    "postcode": "69181",
    "city": "Sankt Ilgen"
  },
  {
    "postcode": "69181",
    "city": "Rhein-Neckar-Kreis"
  },
  {
    "postcode": "69181",
    "city": "St. Ilgen"
  },
  {
    "postcode": "69181",
    "city": "Lingental"
  },
  {
    "postcode": "69190",
    "city": "Walldorf (Baden)"
  },
  {
    "postcode": "69190",
    "city": "Walldorf"
  },
  {
    "postcode": "69190",
    "city": "Rhein-Neckar-Kreis"
  },
  {
    "postcode": "69198",
    "city": "Altenbach Baden"
  },
  {
    "postcode": "69198",
    "city": "Altenbach"
  },
  {
    "postcode": "69198",
    "city": "Schriesheim"
  },
  {
    "postcode": "69198",
    "city": "Ursenbach"
  },
  {
    "postcode": "69198",
    "city": "Rhein-Neckar-Kreis"
  },
  {
    "postcode": "69207",
    "city": "Bruchhausen"
  },
  {
    "postcode": "69207",
    "city": "Sandhausen (Baden)"
  },
  {
    "postcode": "69207",
    "city": "Sandhausen"
  },
  {
    "postcode": "69207",
    "city": "Rhein-Neckar-Kreis"
  },
  {
    "postcode": "69214",
    "city": "Eppelheim (Baden)"
  },
  {
    "postcode": "69214",
    "city": "Eppelheim"
  },
  {
    "postcode": "69214",
    "city": "Rhein-Neckar-Kreis"
  },
  {
    "postcode": "69221",
    "city": "Dossenheim"
  },
  {
    "postcode": "69221",
    "city": "Rhein-Neckar-Kreis"
  },
  {
    "postcode": "69221",
    "city": "Schwabenheimer Hof"
  },
  {
    "postcode": "69226",
    "city": "Maisbach"
  },
  {
    "postcode": "69226",
    "city": "Nußloch"
  },
  {
    "postcode": "69226",
    "city": "Rhein-Neckar-Kreis"
  },
  {
    "postcode": "69231",
    "city": "Malschenberg"
  },
  {
    "postcode": "69231",
    "city": "Rauenberg"
  },
  {
    "postcode": "69231",
    "city": "Rauenberg (Kraichgau)"
  },
  {
    "postcode": "69231",
    "city": "Rotenberg"
  },
  {
    "postcode": "69231",
    "city": "Rhein-Neckar-Kreis"
  },
  {
    "postcode": "69234",
    "city": "Balzfeld"
  },
  {
    "postcode": "69234",
    "city": "Dielheim"
  },
  {
    "postcode": "69234",
    "city": "Horrenberg"
  },
  {
    "postcode": "69234",
    "city": "Unterhof"
  },
  {
    "postcode": "69234",
    "city": "Rhein-Neckar-Kreis"
  },
  {
    "postcode": "69234",
    "city": "Oberhof"
  },
  {
    "postcode": "69239",
    "city": "Darsberg"
  },
  {
    "postcode": "69239",
    "city": "Grein"
  },
  {
    "postcode": "69239",
    "city": "Neckarhausen Hessen"
  },
  {
    "postcode": "69239",
    "city": "Neckarhausen"
  },
  {
    "postcode": "69239",
    "city": "Neckarsteinach"
  },
  {
    "postcode": "69239",
    "city": "Bergstraße"
  },
  {
    "postcode": "69242",
    "city": "Mühlhausen (Kraichgau)"
  },
  {
    "postcode": "69242",
    "city": "Mühlhausen"
  },
  {
    "postcode": "69242",
    "city": "Rettigheim"
  },
  {
    "postcode": "69242",
    "city": "Tairnbach"
  },
  {
    "postcode": "69242",
    "city": "Rhein-Neckar-Kreis"
  },
  {
    "postcode": "69245",
    "city": "Bammental"
  },
  {
    "postcode": "69245",
    "city": "Reilsheim"
  },
  {
    "postcode": "69245",
    "city": "Rhein-Neckar-Kreis"
  },
  {
    "postcode": "69250",
    "city": "Altneudorf"
  },
  {
    "postcode": "69250",
    "city": "Schönau (Odenwald)"
  },
  {
    "postcode": "69250",
    "city": "Schönau"
  },
  {
    "postcode": "69250",
    "city": "Rhein-Neckar-Kreis"
  },
  {
    "postcode": "69251",
    "city": "Gaiberg (Baden)"
  },
  {
    "postcode": "69251",
    "city": "Gaiberg"
  },
  {
    "postcode": "69251",
    "city": "Rhein-Neckar-Kreis"
  },
  {
    "postcode": "69253",
    "city": "Bärsbach"
  },
  {
    "postcode": "69253",
    "city": "Eiterbach"
  },
  {
    "postcode": "69253",
    "city": "Heiligkreuzsteinach"
  },
  {
    "postcode": "69253",
    "city": "Hilsenhain"
  },
  {
    "postcode": "69253",
    "city": "Hinterheubach"
  },
  {
    "postcode": "69253",
    "city": "Lampenhain"
  },
  {
    "postcode": "69253",
    "city": "Vorderheubach"
  },
  {
    "postcode": "69253",
    "city": "Rhein-Neckar-Kreis"
  },
  {
    "postcode": "69254",
    "city": "Malsch bei Wiesloch"
  },
  {
    "postcode": "69254",
    "city": "Rhein-Neckar-Kreis"
  },
  {
    "postcode": "69254",
    "city": "Malsch"
  },
  {
    "postcode": "69256",
    "city": "Mauer (Baden)"
  },
  {
    "postcode": "69256",
    "city": "Mauer"
  },
  {
    "postcode": "69256",
    "city": "Rhein-Neckar-Kreis"
  },
  {
    "postcode": "69257",
    "city": "Langenzell"
  },
  {
    "postcode": "69257",
    "city": "Wiesenbach"
  },
  {
    "postcode": "69257",
    "city": "Wiesenbach (Baden)"
  },
  {
    "postcode": "69257",
    "city": "Rhein-Neckar-Kreis"
  },
  {
    "postcode": "69259",
    "city": "Wilhelmsfeld"
  },
  {
    "postcode": "69259",
    "city": "Rhein-Neckar-Kreis"
  },
  {
    "postcode": "69412",
    "city": "Eberbach"
  },
  {
    "postcode": "69412",
    "city": "Eberbach (Baden)"
  },
  {
    "postcode": "69412",
    "city": "Friedrichsdorf"
  },
  {
    "postcode": "69412",
    "city": "Igelsbach"
  },
  {
    "postcode": "69412",
    "city": "Lindach"
  },
  {
    "postcode": "69412",
    "city": "Pleutersbach"
  },
  {
    "postcode": "69412",
    "city": "Rockenau"
  },
  {
    "postcode": "69412",
    "city": "Rhein-Neckar-Kreis"
  },
  {
    "postcode": "69412",
    "city": "Gaimühle"
  },
  {
    "postcode": "69412",
    "city": "Neckarwimmersbach"
  },
  {
    "postcode": "69427",
    "city": "Langenelz"
  },
  {
    "postcode": "69427",
    "city": "Mudau"
  },
  {
    "postcode": "69427",
    "city": "Reisenbach"
  },
  {
    "postcode": "69427",
    "city": "Rumpfen"
  },
  {
    "postcode": "69427",
    "city": "Scheidental"
  },
  {
    "postcode": "69427",
    "city": "Steinbach bei Walldürn"
  },
  {
    "postcode": "69427",
    "city": "Neckar-Odenwald-Kreis"
  },
  {
    "postcode": "69427",
    "city": "Donebach / Ünglert"
  },
  {
    "postcode": "69427",
    "city": "Schloßau / Waldauerbach"
  },
  {
    "postcode": "69427",
    "city": "Steinbach"
  },
  {
    "postcode": "69427",
    "city": "Mörschenhardt / Ernsttal"
  },
  {
    "postcode": "69427",
    "city": "Reisenbacher Grund"
  },
  {
    "postcode": "69427",
    "city": "Donebach"
  },
  {
    "postcode": "69427",
    "city": "Schloßau"
  },
  {
    "postcode": "69427",
    "city": "Mörschenhardt"
  },
  {
    "postcode": "69429",
    "city": "Mülben"
  },
  {
    "postcode": "69429",
    "city": "Oberdielbach"
  },
  {
    "postcode": "69429",
    "city": "Schollbrunn"
  },
  {
    "postcode": "69429",
    "city": "Strümpfelbrunn"
  },
  {
    "postcode": "69429",
    "city": "Unterhöllgrund"
  },
  {
    "postcode": "69429",
    "city": "Waldbrunn (Odenwald)"
  },
  {
    "postcode": "69429",
    "city": "Waldbrunn"
  },
  {
    "postcode": "69429",
    "city": "Waldkatzenbach"
  },
  {
    "postcode": "69429",
    "city": "Weisbach"
  },
  {
    "postcode": "69429",
    "city": "Neckar-Odenwald-Kreis"
  },
  {
    "postcode": "69429",
    "city": "Unterdielbach"
  },
  {
    "postcode": "69434",
    "city": "Eberbach (Baden)"
  },
  {
    "postcode": "69434",
    "city": "Eberbach"
  },
  {
    "postcode": "69434",
    "city": "Heddesbach"
  },
  {
    "postcode": "69434",
    "city": "Hirschhorn"
  },
  {
    "postcode": "69434",
    "city": "Hirschhorn (Neckar)"
  },
  {
    "postcode": "69434",
    "city": "Langenthal Odenwald"
  },
  {
    "postcode": "69434",
    "city": "Langenthal"
  },
  {
    "postcode": "69434",
    "city": "Bergstraße"
  },
  {
    "postcode": "69434",
    "city": "Brombach"
  },
  {
    "postcode": "69436",
    "city": "Allemühl"
  },
  {
    "postcode": "69436",
    "city": "Moosbrunn"
  },
  {
    "postcode": "69436",
    "city": "Schönbrunn"
  },
  {
    "postcode": "69436",
    "city": "Schönbrunn (Baden)"
  },
  {
    "postcode": "69436",
    "city": "Schwanheim"
  },
  {
    "postcode": "69436",
    "city": "Rhein-Neckar-Kreis"
  },
  {
    "postcode": "69436",
    "city": "Haag"
  },
  {
    "postcode": "69437",
    "city": "Guttenbach"
  },
  {
    "postcode": "69437",
    "city": "Neckargerach"
  },
  {
    "postcode": "69437",
    "city": "Neckar-Odenwald-Kreis"
  },
  {
    "postcode": "69439",
    "city": "Zwingenberg (Baden)"
  },
  {
    "postcode": "69439",
    "city": "Zwingenberg"
  },
  {
    "postcode": "69439",
    "city": "Neckar-Odenwald-Kreis"
  },
  {
    "postcode": "69469",
    "city": "Heiligkreuz"
  },
  {
    "postcode": "69469",
    "city": "Hohensachsen"
  },
  {
    "postcode": "69469",
    "city": "Lützelsachsen"
  },
  {
    "postcode": "69469",
    "city": "Oberflockenbach"
  },
  {
    "postcode": "69469",
    "city": "Oberkunzenbach"
  },
  {
    "postcode": "69469",
    "city": "Rippenweier"
  },
  {
    "postcode": "69469",
    "city": "Ritschweier"
  },
  {
    "postcode": "69469",
    "city": "Rittenweier"
  },
  {
    "postcode": "69469",
    "city": "Steinklingen"
  },
  {
    "postcode": "69469",
    "city": "Sulzbach"
  },
  {
    "postcode": "69469",
    "city": "Waid-Ofling"
  },
  {
    "postcode": "69469",
    "city": "Weinheim"
  },
  {
    "postcode": "69469",
    "city": "Weinheim (Bergstraße)"
  },
  {
    "postcode": "69469",
    "city": "Wünschmichelbach"
  },
  {
    "postcode": "69469",
    "city": "Rhein-Neckar-Kreis"
  },
  {
    "postcode": "69469",
    "city": "Ofling"
  },
  {
    "postcode": "69469",
    "city": "Waid"
  },
  {
    "postcode": "69483",
    "city": "Affolterbach Odenwald"
  },
  {
    "postcode": "69483",
    "city": "Affolterbach"
  },
  {
    "postcode": "69483",
    "city": "Aschbach Odenwald"
  },
  {
    "postcode": "69483",
    "city": "Aschbach"
  },
  {
    "postcode": "69483",
    "city": "Flockenbusch"
  },
  {
    "postcode": "69483",
    "city": "Gadern"
  },
  {
    "postcode": "69483",
    "city": "Hartenrod Odenwald"
  },
  {
    "postcode": "69483",
    "city": "Hartenrod"
  },
  {
    "postcode": "69483",
    "city": "Kocherbach"
  },
  {
    "postcode": "69483",
    "city": "Kreidach"
  },
  {
    "postcode": "69483",
    "city": "Schönbrunn"
  },
  {
    "postcode": "69483",
    "city": "Siedelsbrunn"
  },
  {
    "postcode": "69483",
    "city": "Spechtbach"
  },
  {
    "postcode": "69483",
    "city": "Stallenkandel"
  },
  {
    "postcode": "69483",
    "city": "Straßburg"
  },
  {
    "postcode": "69483",
    "city": "Wald-Michelbach"
  },
  {
    "postcode": "69483",
    "city": "Bergstraße"
  },
  {
    "postcode": "69483",
    "city": "Unter-Schönmattenwag"
  },
  {
    "postcode": "69483",
    "city": "Ober-Schönmattenwag"
  },
  {
    "postcode": "69488",
    "city": "Birkenau"
  },
  {
    "postcode": "69488",
    "city": "Birkenau Odenwald"
  },
  {
    "postcode": "69488",
    "city": "Buchklingen Odenwald"
  },
  {
    "postcode": "69488",
    "city": "Buchklingen"
  },
  {
    "postcode": "69488",
    "city": "Hornbach Kreis Bergstraße"
  },
  {
    "postcode": "69488",
    "city": "Hornbach"
  },
  {
    "postcode": "69488",
    "city": "Löhrbach Kreis Bergstraße"
  },
  {
    "postcode": "69488",
    "city": "Löhrbach"
  },
  {
    "postcode": "69488",
    "city": "Reisen Odenwald"
  },
  {
    "postcode": "69488",
    "city": "Reisen"
  },
  {
    "postcode": "69488",
    "city": "Bergstraße"
  },
  {
    "postcode": "69488",
    "city": "Nieder-Liebersbach"
  },
  {
    "postcode": "69493",
    "city": "Großsachsen"
  },
  {
    "postcode": "69493",
    "city": "Hirschberg an der Bergstraße"
  },
  {
    "postcode": "69493",
    "city": "Leutershausen"
  },
  {
    "postcode": "69493",
    "city": "Rhein-Neckar-Kreis"
  },
  {
    "postcode": "69502",
    "city": "Hemsbach (Bergstraße)"
  },
  {
    "postcode": "69502",
    "city": "Hemsbach"
  },
  {
    "postcode": "69502",
    "city": "Rhein-Neckar-Kreis"
  },
  {
    "postcode": "69509",
    "city": "Bonsweiher"
  },
  {
    "postcode": "69509",
    "city": "Juhöhe"
  },
  {
    "postcode": "69509",
    "city": "Mörlenbach"
  },
  {
    "postcode": "69509",
    "city": "Ober-Mumbach"
  },
  {
    "postcode": "69509",
    "city": "Vöckelsbach"
  },
  {
    "postcode": "69509",
    "city": "Weiher Odenwald"
  },
  {
    "postcode": "69509",
    "city": "Weiher"
  },
  {
    "postcode": "69509",
    "city": "Bergstraße"
  },
  {
    "postcode": "69509",
    "city": "Geisenbach"
  },
  {
    "postcode": "69509",
    "city": "Ober-Liebersbach"
  },
  {
    "postcode": "69514",
    "city": "Laudenbach (Bergstraße)"
  },
  {
    "postcode": "69514",
    "city": "Laudenbach"
  },
  {
    "postcode": "69514",
    "city": "Rhein-Neckar-Kreis"
  },
  {
    "postcode": "69517",
    "city": "Gorxheim Kreis Bergstraße"
  },
  {
    "postcode": "69517",
    "city": "Gorxheim"
  },
  {
    "postcode": "69517",
    "city": "Gorxheimertal"
  },
  {
    "postcode": "69517",
    "city": "Trösel"
  },
  {
    "postcode": "69517",
    "city": "Bergstraße"
  },
  {
    "postcode": "69517",
    "city": "Abtsteinach"
  },
  {
    "postcode": "69517",
    "city": "Unter-Flockenbach"
  },
  {
    "postcode": "69518",
    "city": "Abtsteinach"
  },
  {
    "postcode": "69518",
    "city": "Mackenheim"
  },
  {
    "postcode": "69518",
    "city": "Ober-Abtsteinach"
  },
  {
    "postcode": "69518",
    "city": "Unter-Abtsteinach"
  },
  {
    "postcode": "69518",
    "city": "Bergstraße"
  }
]