[
  {
    "postcode": "70173",
    "city": "Stuttgart"
  },
  {
    "postcode": "70173",
    "city": "Stuttgart-Mitte"
  },
  {
    "postcode": "70173",
    "city": "Mitte"
  },
  {
    "postcode": "70174",
    "city": "Stuttgart"
  },
  {
    "postcode": "70174",
    "city": "Stuttgart-Mitte"
  },
  {
    "postcode": "70174",
    "city": "Stuttgart-Nord"
  },
  {
    "postcode": "70174",
    "city": "Stuttgart-West"
  },
  {
    "postcode": "70174",
    "city": "Nord"
  },
  {
    "postcode": "70174",
    "city": "Mitte"
  },
  {
    "postcode": "70174",
    "city": "West"
  },
  {
    "postcode": "70176",
    "city": "Stuttgart"
  },
  {
    "postcode": "70176",
    "city": "Stuttgart-Mitte"
  },
  {
    "postcode": "70176",
    "city": "Stuttgart-West"
  },
  {
    "postcode": "70176",
    "city": "West"
  },
  {
    "postcode": "70176",
    "city": "Mitte"
  },
  {
    "postcode": "70178",
    "city": "Stuttgart"
  },
  {
    "postcode": "70178",
    "city": "Stuttgart-Mitte"
  },
  {
    "postcode": "70178",
    "city": "Stuttgart-Süd"
  },
  {
    "postcode": "70178",
    "city": "Stuttgart-West"
  },
  {
    "postcode": "70178",
    "city": "Mitte"
  },
  {
    "postcode": "70178",
    "city": "Süd"
  },
  {
    "postcode": "70178",
    "city": "West"
  },
  {
    "postcode": "70180",
    "city": "Stuttgart"
  },
  {
    "postcode": "70180",
    "city": "Stuttgart-Mitte"
  },
  {
    "postcode": "70180",
    "city": "Stuttgart-Süd"
  },
  {
    "postcode": "70180",
    "city": "Mitte"
  },
  {
    "postcode": "70180",
    "city": "Süd"
  },
  {
    "postcode": "70182",
    "city": "Stuttgart"
  },
  {
    "postcode": "70182",
    "city": "Stuttgart-Mitte"
  },
  {
    "postcode": "70182",
    "city": "Mitte"
  },
  {
    "postcode": "70184",
    "city": "Frauenkopf"
  },
  {
    "postcode": "70184",
    "city": "Stuttgart"
  },
  {
    "postcode": "70184",
    "city": "Stuttgart-Mitte"
  },
  {
    "postcode": "70184",
    "city": "Stuttgart-Ost"
  },
  {
    "postcode": "70184",
    "city": "Stuttgart-Süd"
  },
  {
    "postcode": "70184",
    "city": "Ost"
  },
  {
    "postcode": "70184",
    "city": "Mitte"
  },
  {
    "postcode": "70184",
    "city": "Süd"
  },
  {
    "postcode": "70184",
    "city": "Rohracker"
  },
  {
    "postcode": "70186",
    "city": "Stuttgart"
  },
  {
    "postcode": "70186",
    "city": "Stuttgart-Ost"
  },
  {
    "postcode": "70186",
    "city": "Ost"
  },
  {
    "postcode": "70188",
    "city": "Stuttgart"
  },
  {
    "postcode": "70188",
    "city": "Stuttgart-Mitte"
  },
  {
    "postcode": "70188",
    "city": "Stuttgart-Ost"
  },
  {
    "postcode": "70188",
    "city": "Ost"
  },
  {
    "postcode": "70188",
    "city": "Mitte"
  },
  {
    "postcode": "70188",
    "city": "Hedelfingen"
  },
  {
    "postcode": "70188",
    "city": "Wangen"
  },
  {
    "postcode": "70190",
    "city": "Stuttgart"
  },
  {
    "postcode": "70190",
    "city": "Stuttgart-Mitte"
  },
  {
    "postcode": "70190",
    "city": "Stuttgart-Ost"
  },
  {
    "postcode": "70190",
    "city": "Ost"
  },
  {
    "postcode": "70190",
    "city": "Mitte"
  },
  {
    "postcode": "70191",
    "city": "Bad Cannstatt"
  },
  {
    "postcode": "70191",
    "city": "Stuttgart"
  },
  {
    "postcode": "70191",
    "city": "Stuttgart-Nord"
  },
  {
    "postcode": "70191",
    "city": "Nord"
  },
  {
    "postcode": "70192",
    "city": "Feuerbach"
  },
  {
    "postcode": "70192",
    "city": "Stuttgart"
  },
  {
    "postcode": "70192",
    "city": "Stuttgart-Nord"
  },
  {
    "postcode": "70192",
    "city": "Nord"
  },
  {
    "postcode": "70193",
    "city": "Stuttgart"
  },
  {
    "postcode": "70193",
    "city": "Stuttgart-Nord"
  },
  {
    "postcode": "70193",
    "city": "Stuttgart-West"
  },
  {
    "postcode": "70193",
    "city": "Nord"
  },
  {
    "postcode": "70193",
    "city": "West"
  },
  {
    "postcode": "70195",
    "city": "Botnang"
  },
  {
    "postcode": "70195",
    "city": "Stuttgart"
  },
  {
    "postcode": "70197",
    "city": "Stuttgart"
  },
  {
    "postcode": "70197",
    "city": "Stuttgart-West"
  },
  {
    "postcode": "70197",
    "city": "West"
  },
  {
    "postcode": "70199",
    "city": "Stuttgart"
  },
  {
    "postcode": "70199",
    "city": "Stuttgart-Süd"
  },
  {
    "postcode": "70199",
    "city": "Stuttgart-West"
  },
  {
    "postcode": "70199",
    "city": "Süd"
  },
  {
    "postcode": "70199",
    "city": "Wangen"
  },
  {
    "postcode": "70327",
    "city": "Hedelfingen"
  },
  {
    "postcode": "70327",
    "city": "Luginsland"
  },
  {
    "postcode": "70327",
    "city": "Rohracker"
  },
  {
    "postcode": "70327",
    "city": "Rotenberg"
  },
  {
    "postcode": "70327",
    "city": "Stuttgart"
  },
  {
    "postcode": "70327",
    "city": "Stuttgart-Ost"
  },
  {
    "postcode": "70327",
    "city": "Uhlbach"
  },
  {
    "postcode": "70327",
    "city": "Untertürkheim"
  },
  {
    "postcode": "70327",
    "city": "Wangen"
  },
  {
    "postcode": "70327",
    "city": "Ost"
  },
  {
    "postcode": "70329",
    "city": "Hedelfingen"
  },
  {
    "postcode": "70329",
    "city": "Obertürkheim"
  },
  {
    "postcode": "70329",
    "city": "Rohracker"
  },
  {
    "postcode": "70329",
    "city": "Stuttgart"
  },
  {
    "postcode": "70329",
    "city": "Uhlbach"
  },
  {
    "postcode": "70329",
    "city": "Untertürkheim"
  },
  {
    "postcode": "70329",
    "city": "Sillenbuch"
  },
  {
    "postcode": "70329",
    "city": "Wangen"
  },
  {
    "postcode": "70372",
    "city": "Bad Cannstatt"
  },
  {
    "postcode": "70372",
    "city": "Stuttgart"
  },
  {
    "postcode": "70374",
    "city": "Bad Cannstatt"
  },
  {
    "postcode": "70374",
    "city": "Sommerrain"
  },
  {
    "postcode": "70374",
    "city": "Stuttgart"
  },
  {
    "postcode": "70376",
    "city": "Altenburg"
  },
  {
    "postcode": "70376",
    "city": "Bad Cannstatt"
  },
  {
    "postcode": "70376",
    "city": "Burgholzhof"
  },
  {
    "postcode": "70376",
    "city": "Münster"
  },
  {
    "postcode": "70376",
    "city": "Stuttgart"
  },
  {
    "postcode": "70376",
    "city": "Zuffenhausen"
  },
  {
    "postcode": "70376",
    "city": "Feuerbach"
  },
  {
    "postcode": "70378",
    "city": "Bad Cannstatt"
  },
  {
    "postcode": "70378",
    "city": "Hofen"
  },
  {
    "postcode": "70378",
    "city": "Mönchfeld"
  },
  {
    "postcode": "70378",
    "city": "Mühlhausen"
  },
  {
    "postcode": "70378",
    "city": "Steinhaldenfeld"
  },
  {
    "postcode": "70378",
    "city": "Stuttgart"
  },
  {
    "postcode": "70378",
    "city": "Sonnenhof"
  },
  {
    "postcode": "70378",
    "city": "Neugereut"
  },
  {
    "postcode": "70435",
    "city": "Rot"
  },
  {
    "postcode": "70435",
    "city": "Stammheim"
  },
  {
    "postcode": "70435",
    "city": "Stuttgart"
  },
  {
    "postcode": "70435",
    "city": "Zuffenhausen"
  },
  {
    "postcode": "70435",
    "city": "Hofen"
  },
  {
    "postcode": "70437",
    "city": "Freiberg"
  },
  {
    "postcode": "70437",
    "city": "Mönchfeld"
  },
  {
    "postcode": "70437",
    "city": "Rot"
  },
  {
    "postcode": "70437",
    "city": "Stuttgart"
  },
  {
    "postcode": "70437",
    "city": "Zazenhausen"
  },
  {
    "postcode": "70437",
    "city": "Zuffenhausen"
  },
  {
    "postcode": "70439",
    "city": "Neuwirtshaus"
  },
  {
    "postcode": "70439",
    "city": "Stammheim"
  },
  {
    "postcode": "70439",
    "city": "Stuttgart"
  },
  {
    "postcode": "70439",
    "city": "Zuffenhausen"
  },
  {
    "postcode": "70469",
    "city": "Feuerbach"
  },
  {
    "postcode": "70469",
    "city": "Stuttgart"
  },
  {
    "postcode": "70469",
    "city": "Zuffenhausen"
  },
  {
    "postcode": "70499",
    "city": "Bergheim"
  },
  {
    "postcode": "70499",
    "city": "Feuerbach"
  },
  {
    "postcode": "70499",
    "city": "Giebel"
  },
  {
    "postcode": "70499",
    "city": "Hausen"
  },
  {
    "postcode": "70499",
    "city": "Stuttgart"
  },
  {
    "postcode": "70499",
    "city": "Weilimdorf"
  },
  {
    "postcode": "70499",
    "city": "Wolfbusch"
  },
  {
    "postcode": "70499",
    "city": "Zuffenhausen"
  },
  {
    "postcode": "70563",
    "city": "Möhringen"
  },
  {
    "postcode": "70563",
    "city": "Stuttgart"
  },
  {
    "postcode": "70563",
    "city": "Vaihingen"
  },
  {
    "postcode": "70563",
    "city": "Kaltental"
  },
  {
    "postcode": "70565",
    "city": "Dürrlewang"
  },
  {
    "postcode": "70565",
    "city": "Fasanenhof"
  },
  {
    "postcode": "70565",
    "city": "Möhringen"
  },
  {
    "postcode": "70565",
    "city": "Rohr"
  },
  {
    "postcode": "70565",
    "city": "Stuttgart"
  },
  {
    "postcode": "70565",
    "city": "Vaihingen"
  },
  {
    "postcode": "70567",
    "city": "Degerloch"
  },
  {
    "postcode": "70567",
    "city": "Möhringen"
  },
  {
    "postcode": "70567",
    "city": "Stuttgart"
  },
  {
    "postcode": "70569",
    "city": "Büsnau"
  },
  {
    "postcode": "70569",
    "city": "Kaltental"
  },
  {
    "postcode": "70569",
    "city": "Stuttgart"
  },
  {
    "postcode": "70569",
    "city": "Vaihingen"
  },
  {
    "postcode": "70569",
    "city": "Möhringen"
  },
  {
    "postcode": "70597",
    "city": "Degerloch"
  },
  {
    "postcode": "70597",
    "city": "Hoffeld"
  },
  {
    "postcode": "70597",
    "city": "Kaltental"
  },
  {
    "postcode": "70597",
    "city": "Möhringen"
  },
  {
    "postcode": "70597",
    "city": "Sonnenberg"
  },
  {
    "postcode": "70597",
    "city": "Stuttgart"
  },
  {
    "postcode": "70597",
    "city": "Rotenberg"
  },
  {
    "postcode": "70599",
    "city": "Asemwald"
  },
  {
    "postcode": "70599",
    "city": "Birkach"
  },
  {
    "postcode": "70599",
    "city": "Hohenheim"
  },
  {
    "postcode": "70599",
    "city": "Plieningen"
  },
  {
    "postcode": "70599",
    "city": "Schönberg"
  },
  {
    "postcode": "70599",
    "city": "Steckfeld"
  },
  {
    "postcode": "70599",
    "city": "Stuttgart"
  },
  {
    "postcode": "70619",
    "city": "Heumaden"
  },
  {
    "postcode": "70619",
    "city": "Lederberg"
  },
  {
    "postcode": "70619",
    "city": "Riedenberg"
  },
  {
    "postcode": "70619",
    "city": "Sillenbuch"
  },
  {
    "postcode": "70619",
    "city": "Stuttgart"
  },
  {
    "postcode": "70619",
    "city": "Plieningen"
  },
  {
    "postcode": "70629",
    "city": "Flughafen"
  },
  {
    "postcode": "70629",
    "city": "Stuttgart"
  },
  {
    "postcode": "70734",
    "city": "Fellbach"
  },
  {
    "postcode": "70734",
    "city": "Fellbach (Württemberg)"
  },
  {
    "postcode": "70734",
    "city": "Rems-Murr-Kreis"
  },
  {
    "postcode": "70736",
    "city": "Fellbach"
  },
  {
    "postcode": "70736",
    "city": "Fellbach (Württemberg)"
  },
  {
    "postcode": "70736",
    "city": "Oeffingen"
  },
  {
    "postcode": "70736",
    "city": "Schmiden"
  },
  {
    "postcode": "70736",
    "city": "Rems-Murr-Kreis"
  },
  {
    "postcode": "70771",
    "city": "Echterdingen"
  },
  {
    "postcode": "70771",
    "city": "Leinfelden"
  },
  {
    "postcode": "70771",
    "city": "Leinfelden-Echterdingen"
  },
  {
    "postcode": "70771",
    "city": "Musberg"
  },
  {
    "postcode": "70771",
    "city": "Oberaichen"
  },
  {
    "postcode": "70771",
    "city": "Stadt Filderstadt"
  },
  {
    "postcode": "70771",
    "city": "Stetten"
  },
  {
    "postcode": "70771",
    "city": "Unteraichen"
  },
  {
    "postcode": "70771",
    "city": "Weidach"
  },
  {
    "postcode": "70771",
    "city": "Esslingen"
  },
  {
    "postcode": "70794",
    "city": "Bernhausen"
  },
  {
    "postcode": "70794",
    "city": "Bonlanden"
  },
  {
    "postcode": "70794",
    "city": "Filderstadt"
  },
  {
    "postcode": "70794",
    "city": "Harthausen"
  },
  {
    "postcode": "70794",
    "city": "Plattenhardt"
  },
  {
    "postcode": "70794",
    "city": "Sielmingen"
  },
  {
    "postcode": "70794",
    "city": "Esslingen"
  },
  {
    "postcode": "70806",
    "city": "Kornwestheim"
  },
  {
    "postcode": "70806",
    "city": "Kornwestheim-Pattonville"
  },
  {
    "postcode": "70806",
    "city": "Ludwigsburg"
  },
  {
    "postcode": "70825",
    "city": "Kallenberg"
  },
  {
    "postcode": "70825",
    "city": "Korntal"
  },
  {
    "postcode": "70825",
    "city": "Korntal-Münchingen"
  },
  {
    "postcode": "70825",
    "city": "Mauer"
  },
  {
    "postcode": "70825",
    "city": "Münchingen"
  },
  {
    "postcode": "70825",
    "city": "Ludwigsburg"
  },
  {
    "postcode": "70839",
    "city": "Bopser"
  },
  {
    "postcode": "70839",
    "city": "Gerlingen (Württemberg)"
  },
  {
    "postcode": "70839",
    "city": "Gerlingen"
  },
  {
    "postcode": "70839",
    "city": "Ludwigsburg"
  }
]