[
  {
    "postcode": "7545",
    "city": "Gera"
  },
  {
    "postcode": "7545",
    "city": "Untermhaus"
  },
  {
    "postcode": "7545",
    "city": "Pforten"
  },
  {
    "postcode": "7545",
    "city": "Innenstadt"
  },
  {
    "postcode": "7545",
    "city": "Ostviertel"
  },
  {
    "postcode": "7545",
    "city": "Bieblach"
  },
  {
    "postcode": "7546",
    "city": "Gera"
  },
  {
    "postcode": "7546",
    "city": "Bieblach"
  },
  {
    "postcode": "7546",
    "city": "Tinz"
  },
  {
    "postcode": "7546",
    "city": "Leumnitz"
  },
  {
    "postcode": "7546",
    "city": "Ostviertel"
  },
  {
    "postcode": "7546",
    "city": "Südhang/Zschippern"
  },
  {
    "postcode": "7546",
    "city": "Pforten"
  },
  {
    "postcode": "7546",
    "city": "Roschütz"
  },
  {
    "postcode": "7546",
    "city": "Bieblach-Ost"
  },
  {
    "postcode": "7546",
    "city": "Innenstadt"
  },
  {
    "postcode": "7546",
    "city": "Stublach"
  },
  {
    "postcode": "7546",
    "city": "Südhang"
  },
  {
    "postcode": "7548",
    "city": "Debschwitz"
  },
  {
    "postcode": "7548",
    "city": "Gera"
  },
  {
    "postcode": "7548",
    "city": "Untermhaus"
  },
  {
    "postcode": "7548",
    "city": "Frankenthal"
  },
  {
    "postcode": "7548",
    "city": "Dürrenebersdorf"
  },
  {
    "postcode": "7548",
    "city": "Scheubengrobsdorf"
  },
  {
    "postcode": "7548",
    "city": "Ernsee"
  },
  {
    "postcode": "7548",
    "city": "Innenstadt"
  },
  {
    "postcode": "7548",
    "city": "Thieschitz"
  },
  {
    "postcode": "7548",
    "city": "Milbitz"
  },
  {
    "postcode": "7548",
    "city": "Rubitz"
  },
  {
    "postcode": "7548",
    "city": "Windischenbernsdorf"
  },
  {
    "postcode": "7548",
    "city": "Langengrobsdorf"
  },
  {
    "postcode": "7548",
    "city": "Tinz"
  },
  {
    "postcode": "7549",
    "city": "Debschwitz"
  },
  {
    "postcode": "7549",
    "city": "Gera"
  },
  {
    "postcode": "7549",
    "city": "Lusan"
  },
  {
    "postcode": "7549",
    "city": "Röppisch"
  },
  {
    "postcode": "7551",
    "city": "Gera"
  },
  {
    "postcode": "7551",
    "city": "Zwötzen"
  },
  {
    "postcode": "7551",
    "city": "Zschippern"
  },
  {
    "postcode": "7551",
    "city": "Kleinfalke"
  },
  {
    "postcode": "7551",
    "city": "Taubenpreskeln"
  },
  {
    "postcode": "7551",
    "city": "Liebschwitz"
  },
  {
    "postcode": "7551",
    "city": "Pforten"
  },
  {
    "postcode": "7551",
    "city": "Falka"
  },
  {
    "postcode": "7551",
    "city": "Negis"
  },
  {
    "postcode": "7551",
    "city": "Südhang/Zschippern"
  },
  {
    "postcode": "7551",
    "city": "Kaimberg"
  },
  {
    "postcode": "7551",
    "city": "Niebra"
  },
  {
    "postcode": "7551",
    "city": "Otticha"
  },
  {
    "postcode": "7551",
    "city": "Lusan"
  },
  {
    "postcode": "7551",
    "city": "Südhang"
  },
  {
    "postcode": "7552",
    "city": "Gera"
  },
  {
    "postcode": "7552",
    "city": "Bieblach-Ost"
  },
  {
    "postcode": "7552",
    "city": "Stublach"
  },
  {
    "postcode": "7552",
    "city": "Langenberg"
  },
  {
    "postcode": "7552",
    "city": "Roschütz"
  },
  {
    "postcode": "7554",
    "city": "Bethenhausen"
  },
  {
    "postcode": "7554",
    "city": "Brahmenau"
  },
  {
    "postcode": "7554",
    "city": "Hirschfeld bei Gera"
  },
  {
    "postcode": "7554",
    "city": "Kauern bei Gera"
  },
  {
    "postcode": "7554",
    "city": "Korbußen"
  },
  {
    "postcode": "7554",
    "city": "Pölzig"
  },
  {
    "postcode": "7554",
    "city": "Schwaara"
  },
  {
    "postcode": "7554",
    "city": "Greiz"
  },
  {
    "postcode": "7554",
    "city": "Gera"
  },
  {
    "postcode": "7554",
    "city": "Hirschfeld"
  },
  {
    "postcode": "7554",
    "city": "Kauern"
  },
  {
    "postcode": "7554",
    "city": "Caasen"
  },
  {
    "postcode": "7554",
    "city": "Culm"
  },
  {
    "postcode": "7554",
    "city": "Waaswitz"
  },
  {
    "postcode": "7554",
    "city": "Zschippach"
  },
  {
    "postcode": "7554",
    "city": "Groitschen"
  },
  {
    "postcode": "7554",
    "city": "Wüstenhain"
  },
  {
    "postcode": "7554",
    "city": "Aga"
  },
  {
    "postcode": "7554",
    "city": "Kleinaga"
  },
  {
    "postcode": "7554",
    "city": "Hermsdorf"
  },
  {
    "postcode": "7554",
    "city": "Roben"
  },
  {
    "postcode": "7554",
    "city": "Thränitz"
  },
  {
    "postcode": "7554",
    "city": "Söllmnitz"
  },
  {
    "postcode": "7554",
    "city": "Trebnitz"
  },
  {
    "postcode": "7554",
    "city": "Röpsen"
  },
  {
    "postcode": "7554",
    "city": "Cretzschwitz"
  },
  {
    "postcode": "7554",
    "city": "Lessen"
  },
  {
    "postcode": "7554",
    "city": "Reichenbach"
  },
  {
    "postcode": "7554",
    "city": "Seligenstädt"
  },
  {
    "postcode": "7554",
    "city": "Dorna"
  },
  {
    "postcode": "7554",
    "city": "Großaga"
  },
  {
    "postcode": "7554",
    "city": "Hain"
  },
  {
    "postcode": "7554",
    "city": "Naulitz"
  },
  {
    "postcode": "7554",
    "city": "Lichtenberg"
  },
  {
    "postcode": "7554",
    "city": "Beiersdorf"
  },
  {
    "postcode": "7554",
    "city": "Sachsenroda"
  },
  {
    "postcode": "7554",
    "city": "Wüstenroda"
  },
  {
    "postcode": "7557",
    "city": "Bocka Thüringen"
  },
  {
    "postcode": "7557",
    "city": "Bocka"
  },
  {
    "postcode": "7557",
    "city": "Crimla"
  },
  {
    "postcode": "7557",
    "city": "Harth-Pöllnitz"
  },
  {
    "postcode": "7557",
    "city": "Hundhaupten"
  },
  {
    "postcode": "7557",
    "city": "Köckritz"
  },
  {
    "postcode": "7557",
    "city": "Köfeln"
  },
  {
    "postcode": "7557",
    "city": "Zedlitz"
  },
  {
    "postcode": "7557",
    "city": "Greiz"
  },
  {
    "postcode": "7557",
    "city": "Gera"
  },
  {
    "postcode": "7557",
    "city": "Weißig"
  },
  {
    "postcode": "7557",
    "city": "Markersdorf"
  },
  {
    "postcode": "7557",
    "city": "Wolfsgefärth"
  },
  {
    "postcode": "7557",
    "city": "Sirbis"
  },
  {
    "postcode": "7557",
    "city": "Seifersdorf"
  },
  {
    "postcode": "7570",
    "city": "Birkigt bei Gera"
  },
  {
    "postcode": "7570",
    "city": "Burkersdorf bei Gera"
  },
  {
    "postcode": "7570",
    "city": "Endschütz"
  },
  {
    "postcode": "7570",
    "city": "Forstwolfersdorf"
  },
  {
    "postcode": "7570",
    "city": "Frießnitz"
  },
  {
    "postcode": "7570",
    "city": "Grochwitz bei Gera"
  },
  {
    "postcode": "7570",
    "city": "Harth-Pöllnitz"
  },
  {
    "postcode": "7570",
    "city": "Hohenölsen"
  },
  {
    "postcode": "7570",
    "city": "Neundorf bei Gera"
  },
  {
    "postcode": "7570",
    "city": "Niederpöllnitz"
  },
  {
    "postcode": "7570",
    "city": "Nonnendorf bei Gera"
  },
  {
    "postcode": "7570",
    "city": "Rohna"
  },
  {
    "postcode": "7570",
    "city": "Schömberg bei Gera"
  },
  {
    "postcode": "7570",
    "city": "Steinsdorf bei Gera"
  },
  {
    "postcode": "7570",
    "city": "Teichwitz"
  },
  {
    "postcode": "7570",
    "city": "Uhlersdorf"
  },
  {
    "postcode": "7570",
    "city": "Weida Thüringen"
  },
  {
    "postcode": "7570",
    "city": "Weida"
  },
  {
    "postcode": "7570",
    "city": "Wetzdorf bei Gera"
  },
  {
    "postcode": "7570",
    "city": "Wünschendorf / Elster"
  },
  {
    "postcode": "7570",
    "city": "Wünschendorf"
  },
  {
    "postcode": "7570",
    "city": "Greiz"
  },
  {
    "postcode": "7570",
    "city": "Wünschendorf/Elster"
  },
  {
    "postcode": "7570",
    "city": "Letzendorf"
  },
  {
    "postcode": "7570",
    "city": "Burkersdorf"
  },
  {
    "postcode": "7570",
    "city": "Köckritz"
  },
  {
    "postcode": "7570",
    "city": "Birkhausen"
  },
  {
    "postcode": "7570",
    "city": "Birkigt"
  },
  {
    "postcode": "7570",
    "city": "Grochwitz"
  },
  {
    "postcode": "7570",
    "city": "Großebersdorf"
  },
  {
    "postcode": "7570",
    "city": "Köfeln"
  },
  {
    "postcode": "7570",
    "city": "Neundorf"
  },
  {
    "postcode": "7570",
    "city": "Nonnendorf"
  },
  {
    "postcode": "7570",
    "city": "Struth"
  },
  {
    "postcode": "7570",
    "city": "Wetzdorf"
  },
  {
    "postcode": "7570",
    "city": "Gräfenbrück"
  },
  {
    "postcode": "7570",
    "city": "Horngrund"
  },
  {
    "postcode": "7570",
    "city": "Kleindraxdorf"
  },
  {
    "postcode": "7570",
    "city": "Loitsch"
  },
  {
    "postcode": "7570",
    "city": "Nattermühle"
  },
  {
    "postcode": "7570",
    "city": "Neudörfel"
  },
  {
    "postcode": "7570",
    "city": "Ölsengrund"
  },
  {
    "postcode": "7570",
    "city": "Schömberg"
  },
  {
    "postcode": "7570",
    "city": "Schüptitz"
  },
  {
    "postcode": "7570",
    "city": "Steinsdorf"
  },
  {
    "postcode": "7570",
    "city": "Veitsberg"
  },
  {
    "postcode": "7570",
    "city": "Cronschwitz"
  },
  {
    "postcode": "7570",
    "city": "Meilitz"
  },
  {
    "postcode": "7570",
    "city": "Mosen"
  },
  {
    "postcode": "7570",
    "city": "Pösneck"
  },
  {
    "postcode": "7570",
    "city": "Untitz"
  },
  {
    "postcode": "7570",
    "city": "Zossen"
  },
  {
    "postcode": "7570",
    "city": "Zschorta"
  },
  {
    "postcode": "7580",
    "city": "Braunichswalde"
  },
  {
    "postcode": "7580",
    "city": "Gauern"
  },
  {
    "postcode": "7580",
    "city": "Großenstein"
  },
  {
    "postcode": "7580",
    "city": "Hilbersdorf bei Gera"
  },
  {
    "postcode": "7580",
    "city": "Linda bei Gera"
  },
  {
    "postcode": "7580",
    "city": "Paitzdorf"
  },
  {
    "postcode": "7580",
    "city": "Reichstädt bei Gera"
  },
  {
    "postcode": "7580",
    "city": "Ronneburg Thüringen"
  },
  {
    "postcode": "7580",
    "city": "Ronneburg"
  },
  {
    "postcode": "7580",
    "city": "Rückersdorf bei Gera"
  },
  {
    "postcode": "7580",
    "city": "Seelingstädt bei Gera"
  },
  {
    "postcode": "7580",
    "city": "Greiz"
  },
  {
    "postcode": "7580",
    "city": "Hilbersdorf"
  },
  {
    "postcode": "7580",
    "city": "Linda b. Weida"
  },
  {
    "postcode": "7580",
    "city": "Reichstädt"
  },
  {
    "postcode": "7580",
    "city": "Rückersdorf"
  },
  {
    "postcode": "7580",
    "city": "Seelingstädt"
  },
  {
    "postcode": "7580",
    "city": "Vogelgesang"
  },
  {
    "postcode": "7580",
    "city": "Nauendorf"
  },
  {
    "postcode": "7580",
    "city": "Baldenhain"
  },
  {
    "postcode": "7580",
    "city": "Mückern"
  },
  {
    "postcode": "7580",
    "city": "Rußdorf"
  },
  {
    "postcode": "7580",
    "city": "Mennsdorf"
  },
  {
    "postcode": "7580",
    "city": "Frankenau"
  },
  {
    "postcode": "7580",
    "city": "Raitzhain"
  },
  {
    "postcode": "7580",
    "city": "Grobsdorf"
  },
  {
    "postcode": "7580",
    "city": "Reust"
  },
  {
    "postcode": "7580",
    "city": "Haselbach"
  },
  {
    "postcode": "7580",
    "city": "Chursdorf"
  },
  {
    "postcode": "7580",
    "city": "Friedmannsdorf"
  },
  {
    "postcode": "7580",
    "city": "Zwirtzschen"
  },
  {
    "postcode": "7586",
    "city": "Bad Köstritz"
  },
  {
    "postcode": "7586",
    "city": "Caaschwitz"
  },
  {
    "postcode": "7586",
    "city": "Hartmannsdorf"
  },
  {
    "postcode": "7586",
    "city": "Hartmannsdorf bei Gera"
  },
  {
    "postcode": "7586",
    "city": "Kraftsdorf"
  },
  {
    "postcode": "7586",
    "city": "Greiz"
  },
  {
    "postcode": "7586",
    "city": "Gleina"
  },
  {
    "postcode": "7586",
    "city": "Reichardtsdorf"
  },
  {
    "postcode": "7586",
    "city": "Dürrenberg"
  },
  {
    "postcode": "7586",
    "city": "Töppeln"
  },
  {
    "postcode": "7586",
    "city": "Mühlsdorf"
  },
  {
    "postcode": "7586",
    "city": "Pörsdorf"
  },
  {
    "postcode": "7586",
    "city": "Rüdersdorf"
  },
  {
    "postcode": "7586",
    "city": "Grüna"
  },
  {
    "postcode": "7586",
    "city": "Harpersdorf"
  },
  {
    "postcode": "7586",
    "city": "Oberndorf"
  },
  {
    "postcode": "7586",
    "city": "Kaltenborn"
  },
  {
    "postcode": "7586",
    "city": "Niederndorf"
  },
  {
    "postcode": "7589",
    "city": "Birkhausen"
  },
  {
    "postcode": "7589",
    "city": "Bocka Thüringen"
  },
  {
    "postcode": "7589",
    "city": "Bocka"
  },
  {
    "postcode": "7589",
    "city": "Großebersdorf"
  },
  {
    "postcode": "7589",
    "city": "Harth-Pöllnitz"
  },
  {
    "postcode": "7589",
    "city": "Lederhose"
  },
  {
    "postcode": "7589",
    "city": "Lindenkreuz"
  },
  {
    "postcode": "7589",
    "city": "Münchenbernsdorf"
  },
  {
    "postcode": "7589",
    "city": "Saara bei Gera"
  },
  {
    "postcode": "7589",
    "city": "Schwarzbach bei Gera"
  },
  {
    "postcode": "7589",
    "city": "Struth bei Gera"
  },
  {
    "postcode": "7589",
    "city": "Greiz"
  },
  {
    "postcode": "7589",
    "city": "Saara"
  },
  {
    "postcode": "7589",
    "city": "Schwarzbach"
  },
  {
    "postcode": "7589",
    "city": "Großbocka"
  },
  {
    "postcode": "7589",
    "city": "Kleinbocka"
  },
  {
    "postcode": "7589",
    "city": "Neuensorga"
  },
  {
    "postcode": "7589",
    "city": "Rothenbach"
  },
  {
    "postcode": "7589",
    "city": "Waltersdorf"
  },
  {
    "postcode": "7589",
    "city": "Schöna"
  },
  {
    "postcode": "7589",
    "city": "Kleinsaara"
  },
  {
    "postcode": "7589",
    "city": "Geißen"
  },
  {
    "postcode": "7589",
    "city": "Großsaara"
  },
  {
    "postcode": "75015",
    "city": "Bauerbach"
  },
  {
    "postcode": "75015",
    "city": "Bretten"
  },
  {
    "postcode": "75015",
    "city": "Bretten (Baden)"
  },
  {
    "postcode": "75015",
    "city": "Büchig"
  },
  {
    "postcode": "75015",
    "city": "Diedelsheim"
  },
  {
    "postcode": "75015",
    "city": "Dürrenbüchig"
  },
  {
    "postcode": "75015",
    "city": "Gölshausen"
  },
  {
    "postcode": "75015",
    "city": "Neibsheim"
  },
  {
    "postcode": "75015",
    "city": "Rinklingen"
  },
  {
    "postcode": "75015",
    "city": "Ruit"
  },
  {
    "postcode": "75015",
    "city": "Sprantal"
  },
  {
    "postcode": "75015",
    "city": "Karlsruhe"
  },
  {
    "postcode": "75031",
    "city": "Adelshofen Baden"
  },
  {
    "postcode": "75031",
    "city": "Adelshofen"
  },
  {
    "postcode": "75031",
    "city": "Elsenz"
  },
  {
    "postcode": "75031",
    "city": "Eppingen"
  },
  {
    "postcode": "75031",
    "city": "Kleingartach"
  },
  {
    "postcode": "75031",
    "city": "Mühlbach"
  },
  {
    "postcode": "75031",
    "city": "Richen Baden"
  },
  {
    "postcode": "75031",
    "city": "Richen"
  },
  {
    "postcode": "75031",
    "city": "Rohrbach"
  },
  {
    "postcode": "75031",
    "city": "Sulzfeld (Baden)"
  },
  {
    "postcode": "75031",
    "city": "Sulzfeld"
  },
  {
    "postcode": "75031",
    "city": "Heilbronn"
  },
  {
    "postcode": "75031",
    "city": "Gießhübelmühle"
  },
  {
    "postcode": "75038",
    "city": "Derdingen"
  },
  {
    "postcode": "75038",
    "city": "Flehingen"
  },
  {
    "postcode": "75038",
    "city": "Großvillars"
  },
  {
    "postcode": "75038",
    "city": "Oberderdingen"
  },
  {
    "postcode": "75038",
    "city": "Sickingen"
  },
  {
    "postcode": "75038",
    "city": "Karlsruhe"
  },
  {
    "postcode": "75045",
    "city": "Binsheim"
  },
  {
    "postcode": "75045",
    "city": "Jöhlingen"
  },
  {
    "postcode": "75045",
    "city": "Walzbachtal"
  },
  {
    "postcode": "75045",
    "city": "Wössingen"
  },
  {
    "postcode": "75045",
    "city": "Karlsruhe"
  },
  {
    "postcode": "75050",
    "city": "Gemmingen"
  },
  {
    "postcode": "75050",
    "city": "Stebbach"
  },
  {
    "postcode": "75050",
    "city": "Heilbronn"
  },
  {
    "postcode": "75053",
    "city": "Gondelsheim (Baden)"
  },
  {
    "postcode": "75053",
    "city": "Gondelsheim"
  },
  {
    "postcode": "75053",
    "city": "Karlsruhe"
  },
  {
    "postcode": "75056",
    "city": "Sulzfeld (Baden)"
  },
  {
    "postcode": "75056",
    "city": "Sulzfeld"
  },
  {
    "postcode": "75056",
    "city": "Karlsruhe"
  },
  {
    "postcode": "75057",
    "city": "Kürnbach (Baden)"
  },
  {
    "postcode": "75057",
    "city": "Kürnbach"
  },
  {
    "postcode": "75057",
    "city": "Karlsruhe"
  },
  {
    "postcode": "75059",
    "city": "Zaisenhausen (Baden)"
  },
  {
    "postcode": "75059",
    "city": "Zaisenhausen"
  },
  {
    "postcode": "75059",
    "city": "Karlsruhe"
  },
  {
    "postcode": "75172",
    "city": "Brötzingen"
  },
  {
    "postcode": "75172",
    "city": "Innenstadt"
  },
  {
    "postcode": "75172",
    "city": "Pforzheim"
  },
  {
    "postcode": "75172",
    "city": "Südweststadt"
  },
  {
    "postcode": "75172",
    "city": "Weststadt"
  },
  {
    "postcode": "75173",
    "city": "Brötzingen"
  },
  {
    "postcode": "75173",
    "city": "Dillweißenstein"
  },
  {
    "postcode": "75173",
    "city": "Innenstadt"
  },
  {
    "postcode": "75173",
    "city": "Pforzheim"
  },
  {
    "postcode": "75173",
    "city": "Südoststadt"
  },
  {
    "postcode": "75173",
    "city": "Südstadt"
  },
  {
    "postcode": "75173",
    "city": "Südweststadt"
  },
  {
    "postcode": "75175",
    "city": "Buckenberg"
  },
  {
    "postcode": "75175",
    "city": "Innenstadt"
  },
  {
    "postcode": "75175",
    "city": "Oststadt"
  },
  {
    "postcode": "75175",
    "city": "Pforzheim"
  },
  {
    "postcode": "75175",
    "city": "Südoststadt"
  },
  {
    "postcode": "75175",
    "city": "Südstadt"
  },
  {
    "postcode": "75175",
    "city": "Eutingen"
  },
  {
    "postcode": "75175",
    "city": "Haidach"
  },
  {
    "postcode": "75177",
    "city": "Eutingen"
  },
  {
    "postcode": "75177",
    "city": "Nordstadt"
  },
  {
    "postcode": "75177",
    "city": "Nordweststadt"
  },
  {
    "postcode": "75177",
    "city": "Oststadt"
  },
  {
    "postcode": "75177",
    "city": "Pforzheim"
  },
  {
    "postcode": "75177",
    "city": "Gemeinde Neulingen"
  },
  {
    "postcode": "75179",
    "city": "Arlinger"
  },
  {
    "postcode": "75179",
    "city": "Brötzingen"
  },
  {
    "postcode": "75179",
    "city": "Nordstadt"
  },
  {
    "postcode": "75179",
    "city": "Nordweststadt"
  },
  {
    "postcode": "75179",
    "city": "Pforzheim"
  },
  {
    "postcode": "75179",
    "city": "Wilferdinger Höhe"
  },
  {
    "postcode": "75179",
    "city": "Maihälden"
  },
  {
    "postcode": "75180",
    "city": "Büchenbronn"
  },
  {
    "postcode": "75180",
    "city": "Dillweißenstein"
  },
  {
    "postcode": "75180",
    "city": "Pforzheim"
  },
  {
    "postcode": "75180",
    "city": "Sonnenberg"
  },
  {
    "postcode": "75180",
    "city": "Sonnenhof"
  },
  {
    "postcode": "75181",
    "city": "Altgefäll"
  },
  {
    "postcode": "75181",
    "city": "Buckenberg"
  },
  {
    "postcode": "75181",
    "city": "Eutingen"
  },
  {
    "postcode": "75181",
    "city": "Hohenwart"
  },
  {
    "postcode": "75181",
    "city": "Huchenfeld"
  },
  {
    "postcode": "75181",
    "city": "Pforzheim"
  },
  {
    "postcode": "75181",
    "city": "Südoststadt"
  },
  {
    "postcode": "75181",
    "city": "Würm"
  },
  {
    "postcode": "75181",
    "city": "Haidach"
  },
  {
    "postcode": "75181",
    "city": "Hagenschießsiedlung"
  },
  {
    "postcode": "75196",
    "city": "Darmsbach"
  },
  {
    "postcode": "75196",
    "city": "Nöttingen"
  },
  {
    "postcode": "75196",
    "city": "Remchingen"
  },
  {
    "postcode": "75196",
    "city": "Singen"
  },
  {
    "postcode": "75196",
    "city": "Wilferdingen"
  },
  {
    "postcode": "75196",
    "city": "Enzkreis"
  },
  {
    "postcode": "75203",
    "city": "Königsbach"
  },
  {
    "postcode": "75203",
    "city": "Königsbach-Stein"
  },
  {
    "postcode": "75203",
    "city": "Stein"
  },
  {
    "postcode": "75203",
    "city": "Enzkreis"
  },
  {
    "postcode": "75210",
    "city": "Dietenhausen"
  },
  {
    "postcode": "75210",
    "city": "Dietlingen"
  },
  {
    "postcode": "75210",
    "city": "Ellmendingen"
  },
  {
    "postcode": "75210",
    "city": "Keltern"
  },
  {
    "postcode": "75210",
    "city": "Niebelsbach"
  },
  {
    "postcode": "75210",
    "city": "Weiler"
  },
  {
    "postcode": "75210",
    "city": "Enzkreis"
  },
  {
    "postcode": "75210",
    "city": "Gemeinde Remchingen"
  },
  {
    "postcode": "75217",
    "city": "Birkenfeld"
  },
  {
    "postcode": "75217",
    "city": "Birkenfeld (Württemberg)"
  },
  {
    "postcode": "75217",
    "city": "Gräfenhausen"
  },
  {
    "postcode": "75217",
    "city": "Enzkreis"
  },
  {
    "postcode": "75223",
    "city": "Niefern"
  },
  {
    "postcode": "75223",
    "city": "Niefern-Öschelbronn"
  },
  {
    "postcode": "75223",
    "city": "Öschelbronn"
  },
  {
    "postcode": "75223",
    "city": "Enzkreis"
  },
  {
    "postcode": "75228",
    "city": "Ispringen"
  },
  {
    "postcode": "75228",
    "city": "Enzkreis"
  },
  {
    "postcode": "75233",
    "city": "Lehningen"
  },
  {
    "postcode": "75233",
    "city": "Mühlhausen"
  },
  {
    "postcode": "75233",
    "city": "Tiefenbronn"
  },
  {
    "postcode": "75233",
    "city": "Enzkreis"
  },
  {
    "postcode": "75236",
    "city": "Bilfingen"
  },
  {
    "postcode": "75236",
    "city": "Ersingen"
  },
  {
    "postcode": "75236",
    "city": "Kämpfelbach"
  },
  {
    "postcode": "75236",
    "city": "Enzkreis"
  },
  {
    "postcode": "75239",
    "city": "Eisingen (Baden)"
  },
  {
    "postcode": "75239",
    "city": "Eisingen"
  },
  {
    "postcode": "75239",
    "city": "Enzkreis"
  },
  {
    "postcode": "75242",
    "city": "Hamberg"
  },
  {
    "postcode": "75242",
    "city": "Neuhausen (Enzkreis)"
  },
  {
    "postcode": "75242",
    "city": "Neuhausen"
  },
  {
    "postcode": "75242",
    "city": "Schellbronn"
  },
  {
    "postcode": "75242",
    "city": "Steinegg"
  },
  {
    "postcode": "75242",
    "city": "Enzkreis"
  },
  {
    "postcode": "75245",
    "city": "Bauschlott"
  },
  {
    "postcode": "75245",
    "city": "Göbrichen"
  },
  {
    "postcode": "75245",
    "city": "Neulingen (Enzkreis)"
  },
  {
    "postcode": "75245",
    "city": "Neulingen"
  },
  {
    "postcode": "75245",
    "city": "Nußbaum"
  },
  {
    "postcode": "75245",
    "city": "Enzkreis"
  },
  {
    "postcode": "75245",
    "city": "Gemeinde Königsbach-Stein"
  },
  {
    "postcode": "75248",
    "city": "Dürrn"
  },
  {
    "postcode": "75248",
    "city": "Ölbronn"
  },
  {
    "postcode": "75248",
    "city": "Ölbronn-Dürrn"
  },
  {
    "postcode": "75248",
    "city": "Enzkreis"
  },
  {
    "postcode": "75248",
    "city": "Maulbronn"
  },
  {
    "postcode": "75249",
    "city": "Kieselbronn"
  },
  {
    "postcode": "75249",
    "city": "Enzkreis"
  },
  {
    "postcode": "75305",
    "city": "Arnbach"
  },
  {
    "postcode": "75305",
    "city": "Dennach"
  },
  {
    "postcode": "75305",
    "city": "Eisenfurt"
  },
  {
    "postcode": "75305",
    "city": "Neuenbürg"
  },
  {
    "postcode": "75305",
    "city": "Neuenbürg (Württemberg)"
  },
  {
    "postcode": "75305",
    "city": "Rotenbach"
  },
  {
    "postcode": "75305",
    "city": "Waldrennach"
  },
  {
    "postcode": "75305",
    "city": "Enzkreis"
  },
  {
    "postcode": "75323",
    "city": "Aichelberg"
  },
  {
    "postcode": "75323",
    "city": "Bad Wildbad"
  },
  {
    "postcode": "75323",
    "city": "Bad Wildbad im Schwarzwald"
  },
  {
    "postcode": "75323",
    "city": "Calmbach"
  },
  {
    "postcode": "75323",
    "city": "Christophshof"
  },
  {
    "postcode": "75323",
    "city": "Meistern"
  },
  {
    "postcode": "75323",
    "city": "Nonnenmiß"
  },
  {
    "postcode": "75323",
    "city": "Sprollenhaus"
  },
  {
    "postcode": "75323",
    "city": "Calw"
  },
  {
    "postcode": "75323",
    "city": "Hünerberg"
  },
  {
    "postcode": "75328",
    "city": "Charlottenhöhe"
  },
  {
    "postcode": "75328",
    "city": "Langenbrand"
  },
  {
    "postcode": "75328",
    "city": "Oberlengenhardt"
  },
  {
    "postcode": "75328",
    "city": "Schömberg"
  },
  {
    "postcode": "75328",
    "city": "Schömberg bei Neuenbürg (Württemberg)"
  },
  {
    "postcode": "75328",
    "city": "Schömberg bei Neuenbürg"
  },
  {
    "postcode": "75328",
    "city": "Schwarzenberg"
  },
  {
    "postcode": "75328",
    "city": "Calw"
  },
  {
    "postcode": "75328",
    "city": "Bieselsberg"
  },
  {
    "postcode": "75331",
    "city": "Engelsbrand"
  },
  {
    "postcode": "75331",
    "city": "Grunbach"
  },
  {
    "postcode": "75331",
    "city": "Salmbach"
  },
  {
    "postcode": "75331",
    "city": "Enzkreis"
  },
  {
    "postcode": "75334",
    "city": "Conweiler"
  },
  {
    "postcode": "75334",
    "city": "Feldrennach"
  },
  {
    "postcode": "75334",
    "city": "Langenalb"
  },
  {
    "postcode": "75334",
    "city": "Ottenhausen"
  },
  {
    "postcode": "75334",
    "city": "Pfinzweiler"
  },
  {
    "postcode": "75334",
    "city": "Schwann"
  },
  {
    "postcode": "75334",
    "city": "Straubenhardt"
  },
  {
    "postcode": "75334",
    "city": "Enzkreis"
  },
  {
    "postcode": "75335",
    "city": "Dobel (Württemberg)"
  },
  {
    "postcode": "75335",
    "city": "Dobel"
  },
  {
    "postcode": "75335",
    "city": "Eyachmühle"
  },
  {
    "postcode": "75335",
    "city": "Calw"
  },
  {
    "postcode": "75337",
    "city": "Enzklösterle"
  },
  {
    "postcode": "75337",
    "city": "Gompelscheuer"
  },
  {
    "postcode": "75337",
    "city": "Nonnenmiß"
  },
  {
    "postcode": "75337",
    "city": "Poppeltal"
  },
  {
    "postcode": "75337",
    "city": "Calw"
  },
  {
    "postcode": "75337",
    "city": "Lappach"
  },
  {
    "postcode": "75337",
    "city": "Mittelenztal"
  },
  {
    "postcode": "75337",
    "city": "Rohnbach"
  },
  {
    "postcode": "75339",
    "city": "Höfen an der Enz"
  },
  {
    "postcode": "75339",
    "city": "Calw"
  },
  {
    "postcode": "75365",
    "city": "Altburg"
  },
  {
    "postcode": "75365",
    "city": "Alzenberg"
  },
  {
    "postcode": "75365",
    "city": "Calw"
  },
  {
    "postcode": "75365",
    "city": "Ernstmühl"
  },
  {
    "postcode": "75365",
    "city": "Hirsau-Lützenhardter Hof"
  },
  {
    "postcode": "75365",
    "city": "Hof Waldeck"
  },
  {
    "postcode": "75365",
    "city": "Holzbronn"
  },
  {
    "postcode": "75365",
    "city": "Öländerle"
  },
  {
    "postcode": "75365",
    "city": "Speßhardt"
  },
  {
    "postcode": "75365",
    "city": "Stammheim"
  },
  {
    "postcode": "75365",
    "city": "Weltenschwann"
  },
  {
    "postcode": "75365",
    "city": "Wimberg"
  },
  {
    "postcode": "75365",
    "city": "Hirsau"
  },
  {
    "postcode": "75365",
    "city": "Heumaden"
  },
  {
    "postcode": "75378",
    "city": "Bad Liebenzell"
  },
  {
    "postcode": "75378",
    "city": "Beinberg"
  },
  {
    "postcode": "75378",
    "city": "Maisenbach"
  },
  {
    "postcode": "75378",
    "city": "Monakam"
  },
  {
    "postcode": "75378",
    "city": "Möttlingen"
  },
  {
    "postcode": "75378",
    "city": "Unterhaugstett"
  },
  {
    "postcode": "75378",
    "city": "Unterlengenhardt"
  },
  {
    "postcode": "75378",
    "city": "Zainen"
  },
  {
    "postcode": "75378",
    "city": "Calw"
  },
  {
    "postcode": "75378",
    "city": "Maisenbach-Zainen"
  },
  {
    "postcode": "75382",
    "city": "Althengstett"
  },
  {
    "postcode": "75382",
    "city": "Neuhengstett"
  },
  {
    "postcode": "75382",
    "city": "Ottenbronn"
  },
  {
    "postcode": "75382",
    "city": "Calw"
  },
  {
    "postcode": "75382",
    "city": "Simmozheim"
  },
  {
    "postcode": "75385",
    "city": "Bad Teinach"
  },
  {
    "postcode": "75385",
    "city": "Bad Teinach-Zavelstein"
  },
  {
    "postcode": "75385",
    "city": "Emberg"
  },
  {
    "postcode": "75385",
    "city": "Kentheim"
  },
  {
    "postcode": "75385",
    "city": "Schmieh"
  },
  {
    "postcode": "75385",
    "city": "Sommenhardt"
  },
  {
    "postcode": "75385",
    "city": "Zavelstein"
  },
  {
    "postcode": "75385",
    "city": "Calw"
  },
  {
    "postcode": "75385",
    "city": "Dachshof"
  },
  {
    "postcode": "75385",
    "city": "Glasmühle"
  },
  {
    "postcode": "75385",
    "city": "Lautenbachhof"
  },
  {
    "postcode": "75385",
    "city": "Rötenbach"
  },
  {
    "postcode": "75385",
    "city": "Stadt Neubulach"
  },
  {
    "postcode": "75385",
    "city": "Stammheim"
  },
  {
    "postcode": "75387",
    "city": "Altbulach"
  },
  {
    "postcode": "75387",
    "city": "Kohlerstal"
  },
  {
    "postcode": "75387",
    "city": "Liebelsberg"
  },
  {
    "postcode": "75387",
    "city": "Martinsmoos"
  },
  {
    "postcode": "75387",
    "city": "Neubulach"
  },
  {
    "postcode": "75387",
    "city": "Oberhaugstett"
  },
  {
    "postcode": "75387",
    "city": "Seitzental"
  },
  {
    "postcode": "75387",
    "city": "Calw"
  },
  {
    "postcode": "75389",
    "city": "Agenbach"
  },
  {
    "postcode": "75389",
    "city": "Breitenberg"
  },
  {
    "postcode": "75389",
    "city": "Gaugenwald"
  },
  {
    "postcode": "75389",
    "city": "Hofstett"
  },
  {
    "postcode": "75389",
    "city": "Neuweiler"
  },
  {
    "postcode": "75389",
    "city": "Neuweiler (Kreis Calw)"
  },
  {
    "postcode": "75389",
    "city": "Oberkollwangen"
  },
  {
    "postcode": "75389",
    "city": "Zwerenberg"
  },
  {
    "postcode": "75389",
    "city": "Calw"
  },
  {
    "postcode": "75391",
    "city": "Gechingen (Kreis Calw)"
  },
  {
    "postcode": "75391",
    "city": "Gechingen"
  },
  {
    "postcode": "75391",
    "city": "Calw"
  },
  {
    "postcode": "75392",
    "city": "Deckenpfronn"
  },
  {
    "postcode": "75392",
    "city": "Böblingen"
  },
  {
    "postcode": "75394",
    "city": "Eberspiel"
  },
  {
    "postcode": "75394",
    "city": "Igelsloch"
  },
  {
    "postcode": "75394",
    "city": "Oberkollbach"
  },
  {
    "postcode": "75394",
    "city": "Oberreichenbach"
  },
  {
    "postcode": "75394",
    "city": "Oberreichenbach (Württemberg)"
  },
  {
    "postcode": "75394",
    "city": "Siehdichfür"
  },
  {
    "postcode": "75394",
    "city": "Unterkollbach"
  },
  {
    "postcode": "75394",
    "city": "Würzbach"
  },
  {
    "postcode": "75394",
    "city": "Calw"
  },
  {
    "postcode": "75395",
    "city": "Ostelsheim"
  },
  {
    "postcode": "75395",
    "city": "Calw"
  },
  {
    "postcode": "75397",
    "city": "Büchelbronn"
  },
  {
    "postcode": "75397",
    "city": "Simmozheim"
  },
  {
    "postcode": "75397",
    "city": "Calw"
  },
  {
    "postcode": "75399",
    "city": "Dennjächt"
  },
  {
    "postcode": "75399",
    "city": "Kapfenhardt"
  },
  {
    "postcode": "75399",
    "city": "Unterreichenbach"
  },
  {
    "postcode": "75399",
    "city": "Unterreichenbach (Kreis Calw)"
  },
  {
    "postcode": "75399",
    "city": "Calw"
  },
  {
    "postcode": "75399",
    "city": "Schömberg"
  },
  {
    "postcode": "75417",
    "city": "Dürrmenz"
  },
  {
    "postcode": "75417",
    "city": "Enzberg"
  },
  {
    "postcode": "75417",
    "city": "Großglattbach"
  },
  {
    "postcode": "75417",
    "city": "Lienzingen"
  },
  {
    "postcode": "75417",
    "city": "Lomersheim"
  },
  {
    "postcode": "75417",
    "city": "Mühlacker"
  },
  {
    "postcode": "75417",
    "city": "Mühlhausen"
  },
  {
    "postcode": "75417",
    "city": "Sengach"
  },
  {
    "postcode": "75417",
    "city": "Enzkreis"
  },
  {
    "postcode": "75428",
    "city": "Illingen"
  },
  {
    "postcode": "75428",
    "city": "Illingen (Württemberg)"
  },
  {
    "postcode": "75428",
    "city": "Schützingen"
  },
  {
    "postcode": "75428",
    "city": "Enzkreis"
  },
  {
    "postcode": "75433",
    "city": "Elfinger Hof"
  },
  {
    "postcode": "75433",
    "city": "Maulbronn"
  },
  {
    "postcode": "75433",
    "city": "Schmie"
  },
  {
    "postcode": "75433",
    "city": "Zaisersweiher"
  },
  {
    "postcode": "75433",
    "city": "Enzkreis"
  },
  {
    "postcode": "75438",
    "city": "Freudenstein"
  },
  {
    "postcode": "75438",
    "city": "Hohenklingen"
  },
  {
    "postcode": "75438",
    "city": "Kleinvillars"
  },
  {
    "postcode": "75438",
    "city": "Knittlingen"
  },
  {
    "postcode": "75438",
    "city": "Enzkreis"
  },
  {
    "postcode": "75438",
    "city": "Freudenstein-Hohenklingen"
  },
  {
    "postcode": "75443",
    "city": "Corres"
  },
  {
    "postcode": "75443",
    "city": "Erlenbach"
  },
  {
    "postcode": "75443",
    "city": "Ötisheim"
  },
  {
    "postcode": "75443",
    "city": "Schönenberg"
  },
  {
    "postcode": "75443",
    "city": "Enzkreis"
  },
  {
    "postcode": "75446",
    "city": "Iptingen"
  },
  {
    "postcode": "75446",
    "city": "Pinache"
  },
  {
    "postcode": "75446",
    "city": "Serres"
  },
  {
    "postcode": "75446",
    "city": "Wiernsheim"
  },
  {
    "postcode": "75446",
    "city": "Enzkreis"
  },
  {
    "postcode": "75447",
    "city": "Diefenbach"
  },
  {
    "postcode": "75447",
    "city": "Sternenfels"
  },
  {
    "postcode": "75447",
    "city": "Enzkreis"
  },
  {
    "postcode": "75449",
    "city": "Neubärental"
  },
  {
    "postcode": "75449",
    "city": "Wurmberg"
  },
  {
    "postcode": "75449",
    "city": "Wurmberg (Württemberg)"
  },
  {
    "postcode": "75449",
    "city": "Enzkreis"
  }
]