[
  {
    "postcode": "36037",
    "city": "Fulda"
  },
  {
    "postcode": "36037",
    "city": "Innenstadt"
  },
  {
    "postcode": "36037",
    "city": "Nordend"
  },
  {
    "postcode": "36037",
    "city": "Ziehers-Nord"
  },
  {
    "postcode": "36037",
    "city": "Unterstadt"
  },
  {
    "postcode": "36039",
    "city": "Aschenberg"
  },
  {
    "postcode": "36039",
    "city": "Bernhards Kreis Fulda"
  },
  {
    "postcode": "36039",
    "city": "Bernhards"
  },
  {
    "postcode": "36039",
    "city": "Dietershan"
  },
  {
    "postcode": "36039",
    "city": "Fulda"
  },
  {
    "postcode": "36039",
    "city": "Gläserzell"
  },
  {
    "postcode": "36039",
    "city": "Horas"
  },
  {
    "postcode": "36039",
    "city": "Lehnerz"
  },
  {
    "postcode": "36039",
    "city": "Niesig"
  },
  {
    "postcode": "36039",
    "city": "Frauenberg"
  },
  {
    "postcode": "36039",
    "city": "Nordend"
  },
  {
    "postcode": "36041",
    "city": "Besges"
  },
  {
    "postcode": "36041",
    "city": "Fulda"
  },
  {
    "postcode": "36041",
    "city": "Gläserzell"
  },
  {
    "postcode": "36041",
    "city": "Haimbach"
  },
  {
    "postcode": "36041",
    "city": "Harmerz"
  },
  {
    "postcode": "36041",
    "city": "Istergiesel"
  },
  {
    "postcode": "36041",
    "city": "Johannesberg Kreis Fulda"
  },
  {
    "postcode": "36041",
    "city": "Johannesberg"
  },
  {
    "postcode": "36041",
    "city": "Kämmerzell"
  },
  {
    "postcode": "36041",
    "city": "Kohlhaus"
  },
  {
    "postcode": "36041",
    "city": "Lüdermünd"
  },
  {
    "postcode": "36041",
    "city": "Maberzell Kreis Fulda"
  },
  {
    "postcode": "36041",
    "city": "Maberzell"
  },
  {
    "postcode": "36041",
    "city": "Malkes"
  },
  {
    "postcode": "36041",
    "city": "Mittelrode Kreis Fulda"
  },
  {
    "postcode": "36041",
    "city": "Mittelrode"
  },
  {
    "postcode": "36041",
    "city": "Neuenberg"
  },
  {
    "postcode": "36041",
    "city": "Niederrode"
  },
  {
    "postcode": "36041",
    "city": "Oberrode"
  },
  {
    "postcode": "36041",
    "city": "Rodges"
  },
  {
    "postcode": "36041",
    "city": "Sickels Kreis Fulda"
  },
  {
    "postcode": "36041",
    "city": "Sickels"
  },
  {
    "postcode": "36041",
    "city": "Trätzhof"
  },
  {
    "postcode": "36041",
    "city": "Zell Kreis Fulda"
  },
  {
    "postcode": "36041",
    "city": "Zell"
  },
  {
    "postcode": "36041",
    "city": "Zirkenbach"
  },
  {
    "postcode": "36041",
    "city": "Westend"
  },
  {
    "postcode": "36041",
    "city": "Galerie"
  },
  {
    "postcode": "36041",
    "city": "Südend"
  },
  {
    "postcode": "36041",
    "city": "Innenstadt"
  },
  {
    "postcode": "36043",
    "city": "Bronnzell"
  },
  {
    "postcode": "36043",
    "city": "Edelzell"
  },
  {
    "postcode": "36043",
    "city": "Fulda"
  },
  {
    "postcode": "36043",
    "city": "Kohlhaus"
  },
  {
    "postcode": "36043",
    "city": "Ziegel"
  },
  {
    "postcode": "36043",
    "city": "Ziehers-Süd"
  },
  {
    "postcode": "36043",
    "city": "Ostend"
  },
  {
    "postcode": "36043",
    "city": "Südend"
  },
  {
    "postcode": "36088",
    "city": "Großenbach Kreis Hünfeld"
  },
  {
    "postcode": "36088",
    "city": "Großenbach"
  },
  {
    "postcode": "36088",
    "city": "Hünfeld"
  },
  {
    "postcode": "36088",
    "city": "Kirchhasel Kreis Hünfeld"
  },
  {
    "postcode": "36088",
    "city": "Kirchhasel"
  },
  {
    "postcode": "36088",
    "city": "Mackenzell"
  },
  {
    "postcode": "36088",
    "city": "Malges"
  },
  {
    "postcode": "36088",
    "city": "Michelsrombach"
  },
  {
    "postcode": "36088",
    "city": "Molzbach"
  },
  {
    "postcode": "36088",
    "city": "Neunhards"
  },
  {
    "postcode": "36088",
    "city": "Nüst"
  },
  {
    "postcode": "36088",
    "city": "Oberfeld über Hünfeld"
  },
  {
    "postcode": "36088",
    "city": "Oberleimbachshof"
  },
  {
    "postcode": "36088",
    "city": "Oberrombach"
  },
  {
    "postcode": "36088",
    "city": "Rückers Kreis Hünfeld"
  },
  {
    "postcode": "36088",
    "city": "Rückers"
  },
  {
    "postcode": "36088",
    "city": "Rudolphshan"
  },
  {
    "postcode": "36088",
    "city": "Sargenzell"
  },
  {
    "postcode": "36088",
    "city": "Unterleimbachshof"
  },
  {
    "postcode": "36088",
    "city": "Fulda"
  },
  {
    "postcode": "36088",
    "city": "Oberfeld"
  },
  {
    "postcode": "36088",
    "city": "Dammersbach"
  },
  {
    "postcode": "36088",
    "city": "Roßbach"
  },
  {
    "postcode": "36093",
    "city": "Bachrain"
  },
  {
    "postcode": "36093",
    "city": "Dietershausen Kreis Fulda"
  },
  {
    "postcode": "36093",
    "city": "Dietershausen"
  },
  {
    "postcode": "36093",
    "city": "Dirlos"
  },
  {
    "postcode": "36093",
    "city": "Engelhelms"
  },
  {
    "postcode": "36093",
    "city": "Keulos"
  },
  {
    "postcode": "36093",
    "city": "Künzell"
  },
  {
    "postcode": "36093",
    "city": "Pilgerzell"
  },
  {
    "postcode": "36093",
    "city": "Wissels"
  },
  {
    "postcode": "36093",
    "city": "Fulda"
  },
  {
    "postcode": "36093",
    "city": "Dassen"
  },
  {
    "postcode": "36100",
    "city": "Almendorf"
  },
  {
    "postcode": "36100",
    "city": "Böckels"
  },
  {
    "postcode": "36100",
    "city": "Götzenhof"
  },
  {
    "postcode": "36100",
    "city": "Horwieden"
  },
  {
    "postcode": "36100",
    "city": "Marbach Kreis Fulda"
  },
  {
    "postcode": "36100",
    "city": "Marbach"
  },
  {
    "postcode": "36100",
    "city": "Margretenhaun"
  },
  {
    "postcode": "36100",
    "city": "Melzdorf"
  },
  {
    "postcode": "36100",
    "city": "Petersberg Kreis Fulda"
  },
  {
    "postcode": "36100",
    "city": "Petersberg"
  },
  {
    "postcode": "36100",
    "city": "Rex"
  },
  {
    "postcode": "36100",
    "city": "Steinau Kreis Fulda"
  },
  {
    "postcode": "36100",
    "city": "Steinau"
  },
  {
    "postcode": "36100",
    "city": "Steinhaus Kreis Fulda"
  },
  {
    "postcode": "36100",
    "city": "Steinhaus"
  },
  {
    "postcode": "36100",
    "city": "Stöckels"
  },
  {
    "postcode": "36100",
    "city": "Untergötzenhof"
  },
  {
    "postcode": "36100",
    "city": "Fulda"
  },
  {
    "postcode": "36103",
    "city": "Buchenrod Hessen"
  },
  {
    "postcode": "36103",
    "city": "Buchenrod"
  },
  {
    "postcode": "36103",
    "city": "Döngesmühle"
  },
  {
    "postcode": "36103",
    "city": "Flieden"
  },
  {
    "postcode": "36103",
    "city": "Höf und Haid"
  },
  {
    "postcode": "36103",
    "city": "Katzenberg"
  },
  {
    "postcode": "36103",
    "city": "Kautz"
  },
  {
    "postcode": "36103",
    "city": "Magdlos"
  },
  {
    "postcode": "36103",
    "city": "Rückers Kreis Fulda"
  },
  {
    "postcode": "36103",
    "city": "Rückers"
  },
  {
    "postcode": "36103",
    "city": "Schweben"
  },
  {
    "postcode": "36103",
    "city": "Stork"
  },
  {
    "postcode": "36103",
    "city": "Fulda"
  },
  {
    "postcode": "36103",
    "city": "Struth"
  },
  {
    "postcode": "36110",
    "city": "Bernshausen Hessen"
  },
  {
    "postcode": "36110",
    "city": "Bernshausen"
  },
  {
    "postcode": "36110",
    "city": "Fraurombach"
  },
  {
    "postcode": "36110",
    "city": "Hartershausen"
  },
  {
    "postcode": "36110",
    "city": "Hemmen"
  },
  {
    "postcode": "36110",
    "city": "Hutzdorf"
  },
  {
    "postcode": "36110",
    "city": "Nieder-Stoll"
  },
  {
    "postcode": "36110",
    "city": "Pfordt"
  },
  {
    "postcode": "36110",
    "city": "Queck"
  },
  {
    "postcode": "36110",
    "city": "Rimbach bei Fulda"
  },
  {
    "postcode": "36110",
    "city": "Sandlofs"
  },
  {
    "postcode": "36110",
    "city": "Sassen"
  },
  {
    "postcode": "36110",
    "city": "Schlitz"
  },
  {
    "postcode": "36110",
    "city": "Üllershausen"
  },
  {
    "postcode": "36110",
    "city": "Ützhausen"
  },
  {
    "postcode": "36110",
    "city": "Willofs Hessen"
  },
  {
    "postcode": "36110",
    "city": "Willofs"
  },
  {
    "postcode": "36110",
    "city": "Vogelsbergkreis"
  },
  {
    "postcode": "36110",
    "city": "Unter-Wegfurth"
  },
  {
    "postcode": "36110",
    "city": "Rimbach"
  },
  {
    "postcode": "36110",
    "city": "Ober-Wegfurth"
  },
  {
    "postcode": "36110",
    "city": "Unter-Schwarz"
  },
  {
    "postcode": "36115",
    "city": "Batten"
  },
  {
    "postcode": "36115",
    "city": "Brand Kreis Fulda"
  },
  {
    "postcode": "36115",
    "city": "Brand"
  },
  {
    "postcode": "36115",
    "city": "Dietges"
  },
  {
    "postcode": "36115",
    "city": "Dörmbach an der Milseburg"
  },
  {
    "postcode": "36115",
    "city": "Eckweisbach"
  },
  {
    "postcode": "36115",
    "city": "Ehrenberg (Rhön)"
  },
  {
    "postcode": "36115",
    "city": "Ehrenberg"
  },
  {
    "postcode": "36115",
    "city": "Findlos"
  },
  {
    "postcode": "36115",
    "city": "Harbach"
  },
  {
    "postcode": "36115",
    "city": "Hilders"
  },
  {
    "postcode": "36115",
    "city": "Liebhards"
  },
  {
    "postcode": "36115",
    "city": "Melperts"
  },
  {
    "postcode": "36115",
    "city": "Oberbernhards"
  },
  {
    "postcode": "36115",
    "city": "Reulbach"
  },
  {
    "postcode": "36115",
    "city": "Rupsroth"
  },
  {
    "postcode": "36115",
    "city": "Sandenhof"
  },
  {
    "postcode": "36115",
    "city": "Seiferts"
  },
  {
    "postcode": "36115",
    "city": "Simmershausen Kreis Fulda"
  },
  {
    "postcode": "36115",
    "city": "Simmershausen"
  },
  {
    "postcode": "36115",
    "city": "Steinbach"
  },
  {
    "postcode": "36115",
    "city": "Thaiden"
  },
  {
    "postcode": "36115",
    "city": "Unterbernhards"
  },
  {
    "postcode": "36115",
    "city": "Wickers"
  },
  {
    "postcode": "36115",
    "city": "Wüstensachsen"
  },
  {
    "postcode": "36115",
    "city": "Fulda"
  },
  {
    "postcode": "36115",
    "city": "Dörmbach"
  },
  {
    "postcode": "36115",
    "city": "Milseburg"
  },
  {
    "postcode": "36119",
    "city": "Dorfborn Kreis Fulda"
  },
  {
    "postcode": "36119",
    "city": "Dorfborn"
  },
  {
    "postcode": "36119",
    "city": "Giesel"
  },
  {
    "postcode": "36119",
    "city": "Hattenhof"
  },
  {
    "postcode": "36119",
    "city": "Hauswurz"
  },
  {
    "postcode": "36119",
    "city": "Kauppen"
  },
  {
    "postcode": "36119",
    "city": "Neuhof Kreis Fulda"
  },
  {
    "postcode": "36119",
    "city": "Neuhof"
  },
  {
    "postcode": "36119",
    "city": "Rommerz"
  },
  {
    "postcode": "36119",
    "city": "Tiefengruben Kreis Fulda"
  },
  {
    "postcode": "36119",
    "city": "Tiefengruben"
  },
  {
    "postcode": "36119",
    "city": "Fulda"
  },
  {
    "postcode": "36124",
    "city": "Büchenberg"
  },
  {
    "postcode": "36124",
    "city": "Döllbach"
  },
  {
    "postcode": "36124",
    "city": "Eichenzell"
  },
  {
    "postcode": "36124",
    "city": "Kerzell"
  },
  {
    "postcode": "36124",
    "city": "Löschenrod"
  },
  {
    "postcode": "36124",
    "city": "Lütter"
  },
  {
    "postcode": "36124",
    "city": "Rönshausen"
  },
  {
    "postcode": "36124",
    "city": "Rothemann"
  },
  {
    "postcode": "36124",
    "city": "Welkers"
  },
  {
    "postcode": "36124",
    "city": "Zillbach Kreis Fulda"
  },
  {
    "postcode": "36124",
    "city": "Zillbach"
  },
  {
    "postcode": "36124",
    "city": "Fulda"
  },
  {
    "postcode": "36129",
    "city": "Altenfeld Rhön"
  },
  {
    "postcode": "36129",
    "city": "Altenfeld"
  },
  {
    "postcode": "36129",
    "city": "Dalherda"
  },
  {
    "postcode": "36129",
    "city": "Dörrenhof Rhöngebirge"
  },
  {
    "postcode": "36129",
    "city": "Dörrenhof"
  },
  {
    "postcode": "36129",
    "city": "Gersfeld"
  },
  {
    "postcode": "36129",
    "city": "Gersfeld (Rhön)"
  },
  {
    "postcode": "36129",
    "city": "Hettenhausen Rhön"
  },
  {
    "postcode": "36129",
    "city": "Hettenhausen"
  },
  {
    "postcode": "36129",
    "city": "Maiersbach"
  },
  {
    "postcode": "36129",
    "city": "Mosbach Kreis Fulda"
  },
  {
    "postcode": "36129",
    "city": "Mosbach"
  },
  {
    "postcode": "36129",
    "city": "Obernhausen Kreis Fulda"
  },
  {
    "postcode": "36129",
    "city": "Obernhausen"
  },
  {
    "postcode": "36129",
    "city": "Rengersfeld"
  },
  {
    "postcode": "36129",
    "city": "Rodenbach Kreis Fulda"
  },
  {
    "postcode": "36129",
    "city": "Rodenbach"
  },
  {
    "postcode": "36129",
    "city": "Rommers"
  },
  {
    "postcode": "36129",
    "city": "Sandberg Kreis Fulda"
  },
  {
    "postcode": "36129",
    "city": "Sandberg"
  },
  {
    "postcode": "36129",
    "city": "Schachen Kreis Fulda"
  },
  {
    "postcode": "36129",
    "city": "Schachen"
  },
  {
    "postcode": "36129",
    "city": "Steinbruch Rhön"
  },
  {
    "postcode": "36129",
    "city": "Steinbruch"
  },
  {
    "postcode": "36129",
    "city": "Wachtküppel Gemeinde Poppenhausen Wasserkupp"
  },
  {
    "postcode": "36129",
    "city": "Wachtküppel"
  },
  {
    "postcode": "36129",
    "city": "Fulda"
  },
  {
    "postcode": "36129",
    "city": "Gichenbach"
  },
  {
    "postcode": "36129",
    "city": "Holenbrunn"
  },
  {
    "postcode": "36129",
    "city": "Sparbrod"
  },
  {
    "postcode": "36132",
    "city": "Arzell"
  },
  {
    "postcode": "36132",
    "city": "Betzenrod Kreis Hünfeld"
  },
  {
    "postcode": "36132",
    "city": "Betzenrod"
  },
  {
    "postcode": "36132",
    "city": "Branders"
  },
  {
    "postcode": "36132",
    "city": "Buchenau bei Bad Hersfeld"
  },
  {
    "postcode": "36132",
    "city": "Dittlofrod"
  },
  {
    "postcode": "36132",
    "city": "Eiterfeld"
  },
  {
    "postcode": "36132",
    "city": "Giesenhain"
  },
  {
    "postcode": "36132",
    "city": "Großentaft"
  },
  {
    "postcode": "36132",
    "city": "Körnbach"
  },
  {
    "postcode": "36132",
    "city": "Leibolz"
  },
  {
    "postcode": "36132",
    "city": "Leimbach Kreis Hünfeld"
  },
  {
    "postcode": "36132",
    "city": "Leimbach"
  },
  {
    "postcode": "36132",
    "city": "Mengers"
  },
  {
    "postcode": "36132",
    "city": "Oberweisenborn"
  },
  {
    "postcode": "36132",
    "city": "Reckrod"
  },
  {
    "postcode": "36132",
    "city": "Soisdorf"
  },
  {
    "postcode": "36132",
    "city": "Treischfeld"
  },
  {
    "postcode": "36132",
    "city": "Unterufhausen Kreis Hünfeld"
  },
  {
    "postcode": "36132",
    "city": "Unterufhausen"
  },
  {
    "postcode": "36132",
    "city": "Wölf"
  },
  {
    "postcode": "36132",
    "city": "Fulda"
  },
  {
    "postcode": "36132",
    "city": "Ufhausen"
  },
  {
    "postcode": "36132",
    "city": "Buchenau"
  },
  {
    "postcode": "36132",
    "city": "Fürsteneck"
  },
  {
    "postcode": "36137",
    "city": "Bimbach Hessen"
  },
  {
    "postcode": "36137",
    "city": "Bimbach"
  },
  {
    "postcode": "36137",
    "city": "Eichenau Kreis Fulda"
  },
  {
    "postcode": "36137",
    "city": "Eichenau"
  },
  {
    "postcode": "36137",
    "city": "Großenlüder"
  },
  {
    "postcode": "36137",
    "city": "Kleinlüder"
  },
  {
    "postcode": "36137",
    "city": "Lütterz"
  },
  {
    "postcode": "36137",
    "city": "Müs Kreis Fulda"
  },
  {
    "postcode": "36137",
    "city": "Müs"
  },
  {
    "postcode": "36137",
    "city": "Uffhausen"
  },
  {
    "postcode": "36137",
    "city": "Fulda"
  },
  {
    "postcode": "36142",
    "city": "Dietgeshof Rhöngebirge"
  },
  {
    "postcode": "36142",
    "city": "Dietgeshof"
  },
  {
    "postcode": "36142",
    "city": "Esbachsgraben"
  },
  {
    "postcode": "36142",
    "city": "Günthers"
  },
  {
    "postcode": "36142",
    "city": "Hundsbach"
  },
  {
    "postcode": "36142",
    "city": "Kleinfischbach Rhön"
  },
  {
    "postcode": "36142",
    "city": "Kleinfischbach"
  },
  {
    "postcode": "36142",
    "city": "Knottenhof"
  },
  {
    "postcode": "36142",
    "city": "Lahrbach Kreis Fulda"
  },
  {
    "postcode": "36142",
    "city": "Lahrbach"
  },
  {
    "postcode": "36142",
    "city": "Meerswinden"
  },
  {
    "postcode": "36142",
    "city": "Neustädtges"
  },
  {
    "postcode": "36142",
    "city": "Neuswarts"
  },
  {
    "postcode": "36142",
    "city": "Oberrückersbach"
  },
  {
    "postcode": "36142",
    "city": "Schlitzenhausen Rhöngebirge"
  },
  {
    "postcode": "36142",
    "city": "Schlitzenhausen"
  },
  {
    "postcode": "36142",
    "city": "Schwarzenborn"
  },
  {
    "postcode": "36142",
    "city": "Sinswinden Rhöngebirge"
  },
  {
    "postcode": "36142",
    "city": "Sinswinden"
  },
  {
    "postcode": "36142",
    "city": "Tann"
  },
  {
    "postcode": "36142",
    "city": "Tann (Rhön)"
  },
  {
    "postcode": "36142",
    "city": "Theobaldshof"
  },
  {
    "postcode": "36142",
    "city": "Unterrückersbach"
  },
  {
    "postcode": "36142",
    "city": "Wendershausen Kreis Fulda"
  },
  {
    "postcode": "36142",
    "city": "Wendershausen"
  },
  {
    "postcode": "36142",
    "city": "Fulda"
  },
  {
    "postcode": "36142",
    "city": "Altschwambach"
  },
  {
    "postcode": "36142",
    "city": "Habel"
  },
  {
    "postcode": "36142",
    "city": "Aura"
  },
  {
    "postcode": "36142",
    "city": "Dippach"
  },
  {
    "postcode": "36142",
    "city": "Herdathurm"
  },
  {
    "postcode": "36142",
    "city": "Mollartshof"
  },
  {
    "postcode": "36142",
    "city": "Neuschwambach"
  },
  {
    "postcode": "36145",
    "city": "Allmus"
  },
  {
    "postcode": "36145",
    "city": "Danzwiesen"
  },
  {
    "postcode": "36145",
    "city": "Egelmes"
  },
  {
    "postcode": "36145",
    "city": "Elters"
  },
  {
    "postcode": "36145",
    "city": "Hofbieber"
  },
  {
    "postcode": "36145",
    "city": "Kleinsassen"
  },
  {
    "postcode": "36145",
    "city": "Langenberg Kreis Hünfeld"
  },
  {
    "postcode": "36145",
    "city": "Langenberg"
  },
  {
    "postcode": "36145",
    "city": "Langenbieber"
  },
  {
    "postcode": "36145",
    "city": "Mahlerts Kreis Hünfeld"
  },
  {
    "postcode": "36145",
    "city": "Mahlerts"
  },
  {
    "postcode": "36145",
    "city": "Niederbieber"
  },
  {
    "postcode": "36145",
    "city": "Obergruben Kreis Hünfeld"
  },
  {
    "postcode": "36145",
    "city": "Obergruben"
  },
  {
    "postcode": "36145",
    "city": "Obernüst"
  },
  {
    "postcode": "36145",
    "city": "Rödergrund / Egelmes"
  },
  {
    "postcode": "36145",
    "city": "Rödergrund"
  },
  {
    "postcode": "36145",
    "city": "Schwarzbach Kreis Hünfeld"
  },
  {
    "postcode": "36145",
    "city": "Schwarzbach"
  },
  {
    "postcode": "36145",
    "city": "Traisbach"
  },
  {
    "postcode": "36145",
    "city": "Wiesen Kreis Fulda"
  },
  {
    "postcode": "36145",
    "city": "Wiesen"
  },
  {
    "postcode": "36145",
    "city": "Wittges"
  },
  {
    "postcode": "36145",
    "city": "Fulda"
  },
  {
    "postcode": "36145",
    "city": "Dipperz"
  },
  {
    "postcode": "36145",
    "city": "Rödergrund/Egelmes"
  },
  {
    "postcode": "36145",
    "city": "Schackau"
  },
  {
    "postcode": "36148",
    "city": "Eichenried"
  },
  {
    "postcode": "36148",
    "city": "Heubach Rhöngebirge"
  },
  {
    "postcode": "36148",
    "city": "Heubach"
  },
  {
    "postcode": "36148",
    "city": "Kalbach Rhön"
  },
  {
    "postcode": "36148",
    "city": "Kalbach"
  },
  {
    "postcode": "36148",
    "city": "Mittelkalbach"
  },
  {
    "postcode": "36148",
    "city": "Niederkalbach"
  },
  {
    "postcode": "36148",
    "city": "Oberkalbach"
  },
  {
    "postcode": "36148",
    "city": "Uttrichshausen"
  },
  {
    "postcode": "36148",
    "city": "Veitsteinbach"
  },
  {
    "postcode": "36148",
    "city": "Fulda"
  },
  {
    "postcode": "36151",
    "city": "Burghaun"
  },
  {
    "postcode": "36151",
    "city": "Großenmoor"
  },
  {
    "postcode": "36151",
    "city": "Gruben Kreis Hünfeld"
  },
  {
    "postcode": "36151",
    "city": "Gruben"
  },
  {
    "postcode": "36151",
    "city": "Hechelmannskirchen"
  },
  {
    "postcode": "36151",
    "city": "Hünhan Kreis Hünfeld"
  },
  {
    "postcode": "36151",
    "city": "Hünhan"
  },
  {
    "postcode": "36151",
    "city": "Langenschwarz"
  },
  {
    "postcode": "36151",
    "city": "Rothenkirchen Kreis Hünfeld"
  },
  {
    "postcode": "36151",
    "city": "Rothenkirchen"
  },
  {
    "postcode": "36151",
    "city": "Schlotzau"
  },
  {
    "postcode": "36151",
    "city": "Steinbach Kreis Hünfeld"
  },
  {
    "postcode": "36151",
    "city": "Steinbach"
  },
  {
    "postcode": "36151",
    "city": "Fulda"
  },
  {
    "postcode": "36151",
    "city": "Klausmarbach"
  },
  {
    "postcode": "36154",
    "city": "Blankenau Kreis Fulda"
  },
  {
    "postcode": "36154",
    "city": "Blankenau"
  },
  {
    "postcode": "36154",
    "city": "Brandlos"
  },
  {
    "postcode": "36154",
    "city": "Hainzell"
  },
  {
    "postcode": "36154",
    "city": "Hosenfeld"
  },
  {
    "postcode": "36154",
    "city": "Jossa Kreis Fulda"
  },
  {
    "postcode": "36154",
    "city": "Jossa"
  },
  {
    "postcode": "36154",
    "city": "Pfaffenrod"
  },
  {
    "postcode": "36154",
    "city": "Poppenrod"
  },
  {
    "postcode": "36154",
    "city": "Schletzenhausen"
  },
  {
    "postcode": "36154",
    "city": "Fulda"
  },
  {
    "postcode": "36154",
    "city": "Zwickmühle"
  },
  {
    "postcode": "36157",
    "city": "Ebersburg"
  },
  {
    "postcode": "36157",
    "city": "Ried Kreis Fulda"
  },
  {
    "postcode": "36157",
    "city": "Ried"
  },
  {
    "postcode": "36157",
    "city": "Schmalnau"
  },
  {
    "postcode": "36157",
    "city": "Thalau Rhöngebirge"
  },
  {
    "postcode": "36157",
    "city": "Thalau"
  },
  {
    "postcode": "36157",
    "city": "Weyhers"
  },
  {
    "postcode": "36157",
    "city": "Fulda"
  },
  {
    "postcode": "36157",
    "city": "Ebersberg"
  },
  {
    "postcode": "36157",
    "city": "Oberrod"
  },
  {
    "postcode": "36160",
    "city": "Altenrain"
  },
  {
    "postcode": "36160",
    "city": "Armenhof"
  },
  {
    "postcode": "36160",
    "city": "Dipperz"
  },
  {
    "postcode": "36160",
    "city": "Dörmbach Fulda"
  },
  {
    "postcode": "36160",
    "city": "Dörmbach"
  },
  {
    "postcode": "36160",
    "city": "Finkenhain"
  },
  {
    "postcode": "36160",
    "city": "Friesenhausen Kreis Fulda"
  },
  {
    "postcode": "36160",
    "city": "Friesenhausen"
  },
  {
    "postcode": "36160",
    "city": "Wisselsrod"
  },
  {
    "postcode": "36160",
    "city": "Wolferts über Fulda"
  },
  {
    "postcode": "36160",
    "city": "Fulda"
  },
  {
    "postcode": "36160",
    "city": "Wolferts"
  },
  {
    "postcode": "36160",
    "city": "Kohlgrund"
  },
  {
    "postcode": "36163",
    "city": "Abtsroda"
  },
  {
    "postcode": "36163",
    "city": "Gackenhof an der Wasserkuppe"
  },
  {
    "postcode": "36163",
    "city": "Grabenhöfchen an der Wasserkuppe"
  },
  {
    "postcode": "36163",
    "city": "Öttersbach an der Wasserkuppe"
  },
  {
    "postcode": "36163",
    "city": "Poppenhausen"
  },
  {
    "postcode": "36163",
    "city": "Poppenhausen (Wasserkuppe)"
  },
  {
    "postcode": "36163",
    "city": "Rabennest an der Wasserkuppe"
  },
  {
    "postcode": "36163",
    "city": "Rauschelbach an der Wasserkuppe"
  },
  {
    "postcode": "36163",
    "city": "Rodholz an der Wasserkuppe"
  },
  {
    "postcode": "36163",
    "city": "Sieblos"
  },
  {
    "postcode": "36163",
    "city": "Steinwand an der Wasserkuppe"
  },
  {
    "postcode": "36163",
    "city": "Teufelstein an der Wasserkuppe"
  },
  {
    "postcode": "36163",
    "city": "Tränkhof"
  },
  {
    "postcode": "36163",
    "city": "Fulda"
  },
  {
    "postcode": "36163",
    "city": "Gackenhof"
  },
  {
    "postcode": "36163",
    "city": "Steinwand"
  },
  {
    "postcode": "36163",
    "city": "Rodholz"
  },
  {
    "postcode": "36166",
    "city": "Haunetal"
  },
  {
    "postcode": "36166",
    "city": "Hermannspiegel"
  },
  {
    "postcode": "36166",
    "city": "Holzheim Kreis Hersfeld"
  },
  {
    "postcode": "36166",
    "city": "Holzheim"
  },
  {
    "postcode": "36166",
    "city": "Kruspis"
  },
  {
    "postcode": "36166",
    "city": "Mauers bei Bad Hersfeld"
  },
  {
    "postcode": "36166",
    "city": "Meisenbach bei Bad Hersfeld"
  },
  {
    "postcode": "36166",
    "city": "Müsenbach bei Bad Hersfeld"
  },
  {
    "postcode": "36166",
    "city": "Neukirchen Kreis Hünfeld"
  },
  {
    "postcode": "36166",
    "city": "Neukirchen"
  },
  {
    "postcode": "36166",
    "city": "Oberstoppel"
  },
  {
    "postcode": "36166",
    "city": "Odensachsen"
  },
  {
    "postcode": "36166",
    "city": "Rhina"
  },
  {
    "postcode": "36166",
    "city": "Schletzenrod Kreis Hünfeld"
  },
  {
    "postcode": "36166",
    "city": "Schletzenrod"
  },
  {
    "postcode": "36166",
    "city": "Stärklos"
  },
  {
    "postcode": "36166",
    "city": "Unterstoppel"
  },
  {
    "postcode": "36166",
    "city": "Wehrda Kreis Hünfeld"
  },
  {
    "postcode": "36166",
    "city": "Wehrda"
  },
  {
    "postcode": "36166",
    "city": "Wetzlos"
  },
  {
    "postcode": "36166",
    "city": "Hersfeld-Rotenburg"
  },
  {
    "postcode": "36166",
    "city": "Sennhütte"
  },
  {
    "postcode": "36166",
    "city": "Müsenbach"
  },
  {
    "postcode": "36166",
    "city": "Mauers"
  },
  {
    "postcode": "36166",
    "city": "Meisenbach"
  },
  {
    "postcode": "36167",
    "city": "Gotthards"
  },
  {
    "postcode": "36167",
    "city": "Haselstein"
  },
  {
    "postcode": "36167",
    "city": "Hofaschenbach"
  },
  {
    "postcode": "36167",
    "city": "Mittelaschenbach"
  },
  {
    "postcode": "36167",
    "city": "Morles"
  },
  {
    "postcode": "36167",
    "city": "Nüsttal"
  },
  {
    "postcode": "36167",
    "city": "Oberaschenbach"
  },
  {
    "postcode": "36167",
    "city": "Rimmels"
  },
  {
    "postcode": "36167",
    "city": "Silges"
  },
  {
    "postcode": "36167",
    "city": "Fulda"
  },
  {
    "postcode": "36169",
    "city": "Grüsselbach"
  },
  {
    "postcode": "36169",
    "city": "Rasdorf"
  },
  {
    "postcode": "36169",
    "city": "Rasdorf bei Hünfeld"
  },
  {
    "postcode": "36169",
    "city": "Setzelbach"
  },
  {
    "postcode": "36169",
    "city": "Fulda"
  },
  {
    "postcode": "36179",
    "city": "Asmushausen"
  },
  {
    "postcode": "36179",
    "city": "Bebra"
  },
  {
    "postcode": "36179",
    "city": "Blankenheim Hessen"
  },
  {
    "postcode": "36179",
    "city": "Blankenheim"
  },
  {
    "postcode": "36179",
    "city": "Braunhausen"
  },
  {
    "postcode": "36179",
    "city": "Breitenbach Kreis Rotenburg an der Fulda"
  },
  {
    "postcode": "36179",
    "city": "Breitenbach"
  },
  {
    "postcode": "36179",
    "city": "Gilfershausen"
  },
  {
    "postcode": "36179",
    "city": "Iba Hessen"
  },
  {
    "postcode": "36179",
    "city": "Iba"
  },
  {
    "postcode": "36179",
    "city": "Imshausen"
  },
  {
    "postcode": "36179",
    "city": "Lüdersdorf"
  },
  {
    "postcode": "36179",
    "city": "Rautenhausen"
  },
  {
    "postcode": "36179",
    "city": "Solz Kreis Rotenburg an der Fulda"
  },
  {
    "postcode": "36179",
    "city": "Solz"
  },
  {
    "postcode": "36179",
    "city": "Weiterode"
  },
  {
    "postcode": "36179",
    "city": "Hersfeld-Rotenburg"
  },
  {
    "postcode": "36179",
    "city": "Gunkelrode"
  },
  {
    "postcode": "36179",
    "city": "Bauhaus"
  },
  {
    "postcode": "36199",
    "city": "Atzelrode"
  },
  {
    "postcode": "36199",
    "city": "Braach Kreis Rotenburg an der Fulda"
  },
  {
    "postcode": "36199",
    "city": "Braach"
  },
  {
    "postcode": "36199",
    "city": "Dankerode Hessen"
  },
  {
    "postcode": "36199",
    "city": "Dankerode"
  },
  {
    "postcode": "36199",
    "city": "Erkshausen"
  },
  {
    "postcode": "36199",
    "city": "Lispenhausen"
  },
  {
    "postcode": "36199",
    "city": "Mündershausen"
  },
  {
    "postcode": "36199",
    "city": "Rotenburg"
  },
  {
    "postcode": "36199",
    "city": "Rotenburg an der Fulda"
  },
  {
    "postcode": "36199",
    "city": "Schwarzenhasel"
  },
  {
    "postcode": "36199",
    "city": "Seifertshausen"
  },
  {
    "postcode": "36199",
    "city": "Hersfeld-Rotenburg"
  },
  {
    "postcode": "36199",
    "city": "Rotenburg a. d. Fulda"
  },
  {
    "postcode": "36205",
    "city": "Berneburg"
  },
  {
    "postcode": "36205",
    "city": "Blankenbach"
  },
  {
    "postcode": "36205",
    "city": "Breitau"
  },
  {
    "postcode": "36205",
    "city": "Diemerode"
  },
  {
    "postcode": "36205",
    "city": "Heyerode Hessen"
  },
  {
    "postcode": "36205",
    "city": "Heyerode"
  },
  {
    "postcode": "36205",
    "city": "Hornel"
  },
  {
    "postcode": "36205",
    "city": "Krauthausen Hessen"
  },
  {
    "postcode": "36205",
    "city": "Krauthausen"
  },
  {
    "postcode": "36205",
    "city": "Lindenau"
  },
  {
    "postcode": "36205",
    "city": "Mitterode"
  },
  {
    "postcode": "36205",
    "city": "Sontra"
  },
  {
    "postcode": "36205",
    "city": "Stadthosbach"
  },
  {
    "postcode": "36205",
    "city": "Thurnhosbach"
  },
  {
    "postcode": "36205",
    "city": "Ulfen"
  },
  {
    "postcode": "36205",
    "city": "Weißenborn"
  },
  {
    "postcode": "36205",
    "city": "Wellingerode"
  },
  {
    "postcode": "36205",
    "city": "Wichmannshausen"
  },
  {
    "postcode": "36205",
    "city": "Wölfterode"
  },
  {
    "postcode": "36205",
    "city": "Werra-Meißner-Kreis"
  },
  {
    "postcode": "36208",
    "city": "Bosserode"
  },
  {
    "postcode": "36208",
    "city": "Hönebach"
  },
  {
    "postcode": "36208",
    "city": "Obersuhl"
  },
  {
    "postcode": "36208",
    "city": "Raßdorf"
  },
  {
    "postcode": "36208",
    "city": "Richelsdorf"
  },
  {
    "postcode": "36208",
    "city": "Wildeck Hessen"
  },
  {
    "postcode": "36208",
    "city": "Wildeck"
  },
  {
    "postcode": "36208",
    "city": "Hersfeld-Rotenburg"
  },
  {
    "postcode": "36208",
    "city": "Bellers"
  },
  {
    "postcode": "36211",
    "city": "Alheim"
  },
  {
    "postcode": "36211",
    "city": "Baumbach Hessen"
  },
  {
    "postcode": "36211",
    "city": "Baumbach"
  },
  {
    "postcode": "36211",
    "city": "Erdpenhausen bei Bebra"
  },
  {
    "postcode": "36211",
    "city": "Heinebach"
  },
  {
    "postcode": "36211",
    "city": "Hergershausen bei Bebra"
  },
  {
    "postcode": "36211",
    "city": "Licherode"
  },
  {
    "postcode": "36211",
    "city": "Niederellenbach"
  },
  {
    "postcode": "36211",
    "city": "Niedergude"
  },
  {
    "postcode": "36211",
    "city": "Oberellenbach bei Bebra"
  },
  {
    "postcode": "36211",
    "city": "Obergude"
  },
  {
    "postcode": "36211",
    "city": "Sterkelshausen"
  },
  {
    "postcode": "36211",
    "city": "Hersfeld-Rotenburg"
  },
  {
    "postcode": "36211",
    "city": "Erdpenhausen"
  },
  {
    "postcode": "36211",
    "city": "Hergershausen"
  },
  {
    "postcode": "36211",
    "city": "Oberellenbach"
  },
  {
    "postcode": "36214",
    "city": "Bauhaus"
  },
  {
    "postcode": "36214",
    "city": "Dens"
  },
  {
    "postcode": "36214",
    "city": "Mönchhosbach"
  },
  {
    "postcode": "36214",
    "city": "Nentershausen"
  },
  {
    "postcode": "36214",
    "city": "Nentershausen Hessen"
  },
  {
    "postcode": "36214",
    "city": "Süß Kreis Rotenburg an der Fulda"
  },
  {
    "postcode": "36214",
    "city": "Süß"
  },
  {
    "postcode": "36214",
    "city": "Weißenhasel"
  },
  {
    "postcode": "36214",
    "city": "Hersfeld-Rotenburg"
  },
  {
    "postcode": "36217",
    "city": "Machtlos Kreis Rotenburg an der Fulda"
  },
  {
    "postcode": "36217",
    "city": "Machtlos"
  },
  {
    "postcode": "36217",
    "city": "Ronshausen"
  },
  {
    "postcode": "36217",
    "city": "Hersfeld-Rotenburg"
  },
  {
    "postcode": "36219",
    "city": "Cornberg"
  },
  {
    "postcode": "36219",
    "city": "Cornberg Hessen"
  },
  {
    "postcode": "36219",
    "city": "Königswald"
  },
  {
    "postcode": "36219",
    "city": "Rockensüß"
  },
  {
    "postcode": "36219",
    "city": "Hersfeld-Rotenburg"
  },
  {
    "postcode": "36219",
    "city": "Menglers"
  },
  {
    "postcode": "36251",
    "city": "Allmershausen"
  },
  {
    "postcode": "36251",
    "city": "Asbach Kreis Hersfeld"
  },
  {
    "postcode": "36251",
    "city": "Asbach"
  },
  {
    "postcode": "36251",
    "city": "Bad Hersfeld"
  },
  {
    "postcode": "36251",
    "city": "Beenhausen"
  },
  {
    "postcode": "36251",
    "city": "Beiershausen"
  },
  {
    "postcode": "36251",
    "city": "Biedebach Kreis Hersfeld"
  },
  {
    "postcode": "36251",
    "city": "Biedebach"
  },
  {
    "postcode": "36251",
    "city": "Eichhof"
  },
  {
    "postcode": "36251",
    "city": "Ersrode"
  },
  {
    "postcode": "36251",
    "city": "Friedlos"
  },
  {
    "postcode": "36251",
    "city": "Gerterode Hessen"
  },
  {
    "postcode": "36251",
    "city": "Gerterode"
  },
  {
    "postcode": "36251",
    "city": "Hainrode Hessen"
  },
  {
    "postcode": "36251",
    "city": "Hainrode"
  },
  {
    "postcode": "36251",
    "city": "Heenes"
  },
  {
    "postcode": "36251",
    "city": "Kathus"
  },
  {
    "postcode": "36251",
    "city": "Kohlhausen"
  },
  {
    "postcode": "36251",
    "city": "Ludwigsau Hessen"
  },
  {
    "postcode": "36251",
    "city": "Ludwigsau"
  },
  {
    "postcode": "36251",
    "city": "Meckbach"
  },
  {
    "postcode": "36251",
    "city": "Mecklar"
  },
  {
    "postcode": "36251",
    "city": "Niederthalhausen"
  },
  {
    "postcode": "36251",
    "city": "Oberthalhausen bei Bad Hersfeld"
  },
  {
    "postcode": "36251",
    "city": "Petersberg Kreis Hersfeld"
  },
  {
    "postcode": "36251",
    "city": "Petersberg"
  },
  {
    "postcode": "36251",
    "city": "Reilos"
  },
  {
    "postcode": "36251",
    "city": "Rohrbach Kreis Hersfeld"
  },
  {
    "postcode": "36251",
    "city": "Rohrbach"
  },
  {
    "postcode": "36251",
    "city": "Sorga Kreis Hersfeld"
  },
  {
    "postcode": "36251",
    "city": "Sorga"
  },
  {
    "postcode": "36251",
    "city": "Tann Kreis Hersfeld"
  },
  {
    "postcode": "36251",
    "city": "Tann"
  },
  {
    "postcode": "36251",
    "city": "Hersfeld-Rotenburg"
  },
  {
    "postcode": "36251",
    "city": "Johannesberg"
  },
  {
    "postcode": "36251",
    "city": "Schenklengsfeld"
  },
  {
    "postcode": "36251",
    "city": "Friedewald"
  },
  {
    "postcode": "36251",
    "city": "Hohe Luft"
  },
  {
    "postcode": "36251",
    "city": "Wehneberg"
  },
  {
    "postcode": "36251",
    "city": "Oberthalhausen"
  },
  {
    "postcode": "36266",
    "city": "Bengendorf"
  },
  {
    "postcode": "36266",
    "city": "Herfa"
  },
  {
    "postcode": "36266",
    "city": "Heringen"
  },
  {
    "postcode": "36266",
    "city": "Heringen (Werra)"
  },
  {
    "postcode": "36266",
    "city": "Kleinensee"
  },
  {
    "postcode": "36266",
    "city": "Leimbach Kreis Hersfeld"
  },
  {
    "postcode": "36266",
    "city": "Leimbach"
  },
  {
    "postcode": "36266",
    "city": "Lengers"
  },
  {
    "postcode": "36266",
    "city": "Widdershausen"
  },
  {
    "postcode": "36266",
    "city": "Wölfershausen Kreis Hersfeld"
  },
  {
    "postcode": "36266",
    "city": "Wölfershausen"
  },
  {
    "postcode": "36266",
    "city": "Hersfeld-Rotenburg"
  },
  {
    "postcode": "36269",
    "city": "Gethsemane Kreis Hersfeld"
  },
  {
    "postcode": "36269",
    "city": "Gethsemane"
  },
  {
    "postcode": "36269",
    "city": "Harnrode"
  },
  {
    "postcode": "36269",
    "city": "Heimboldshausen"
  },
  {
    "postcode": "36269",
    "city": "Philippsthal"
  },
  {
    "postcode": "36269",
    "city": "Philippsthal (Werra)"
  },
  {
    "postcode": "36269",
    "city": "Röhrigshof Kreis Hersfeld"
  },
  {
    "postcode": "36269",
    "city": "Röhrigshof"
  },
  {
    "postcode": "36269",
    "city": "Unterneurode"
  },
  {
    "postcode": "36269",
    "city": "Hersfeld-Rotenburg"
  },
  {
    "postcode": "36272",
    "city": "Hattenbach"
  },
  {
    "postcode": "36272",
    "city": "Hilperhausen"
  },
  {
    "postcode": "36272",
    "city": "Kerspenhausen Kreis Hersfeld"
  },
  {
    "postcode": "36272",
    "city": "Kerspenhausen"
  },
  {
    "postcode": "36272",
    "city": "Kleba Kreis Hersfeld"
  },
  {
    "postcode": "36272",
    "city": "Kleba"
  },
  {
    "postcode": "36272",
    "city": "Mengshausen"
  },
  {
    "postcode": "36272",
    "city": "Niederaula"
  },
  {
    "postcode": "36272",
    "city": "Niederjossa"
  },
  {
    "postcode": "36272",
    "city": "Solms"
  },
  {
    "postcode": "36272",
    "city": "Hersfeld-Rotenburg"
  },
  {
    "postcode": "36275",
    "city": "Allendorf Kreis Hersfeld"
  },
  {
    "postcode": "36275",
    "city": "Allendorf"
  },
  {
    "postcode": "36275",
    "city": "Frielingen Kreis Hersfeld"
  },
  {
    "postcode": "36275",
    "city": "Frielingen"
  },
  {
    "postcode": "36275",
    "city": "Gersdorf Kreis Hersfeld"
  },
  {
    "postcode": "36275",
    "city": "Gersdorf"
  },
  {
    "postcode": "36275",
    "city": "Gershausen"
  },
  {
    "postcode": "36275",
    "city": "Goßmannsrode"
  },
  {
    "postcode": "36275",
    "city": "Heddersdorf"
  },
  {
    "postcode": "36275",
    "city": "Kemmerode"
  },
  {
    "postcode": "36275",
    "city": "Kirchheim"
  },
  {
    "postcode": "36275",
    "city": "Kirchheim Hessen"
  },
  {
    "postcode": "36275",
    "city": "Reckerode"
  },
  {
    "postcode": "36275",
    "city": "Reimboldshausen"
  },
  {
    "postcode": "36275",
    "city": "Rotterterode"
  },
  {
    "postcode": "36275",
    "city": "Willingshain Kreis Hersfeld"
  },
  {
    "postcode": "36275",
    "city": "Willingshain"
  },
  {
    "postcode": "36275",
    "city": "Hersfeld-Rotenburg"
  },
  {
    "postcode": "36277",
    "city": "Dinkelrode Kreis Hersfeld"
  },
  {
    "postcode": "36277",
    "city": "Dinkelrode"
  },
  {
    "postcode": "36277",
    "city": "Erdmannrode"
  },
  {
    "postcode": "36277",
    "city": "Hilmes"
  },
  {
    "postcode": "36277",
    "city": "Konrode"
  },
  {
    "postcode": "36277",
    "city": "Landershausen"
  },
  {
    "postcode": "36277",
    "city": "Malkomes"
  },
  {
    "postcode": "36277",
    "city": "Oberlengsfeld"
  },
  {
    "postcode": "36277",
    "city": "Schenklengsfeld"
  },
  {
    "postcode": "36277",
    "city": "Schenksolz"
  },
  {
    "postcode": "36277",
    "city": "Unterweisenborn"
  },
  {
    "postcode": "36277",
    "city": "Wehrshausen Kreis Hersfeld"
  },
  {
    "postcode": "36277",
    "city": "Wehrshausen"
  },
  {
    "postcode": "36277",
    "city": "Wippershain"
  },
  {
    "postcode": "36277",
    "city": "Wüstfeld"
  },
  {
    "postcode": "36277",
    "city": "Hersfeld-Rotenburg"
  },
  {
    "postcode": "36277",
    "city": "Lampertsfeld"
  },
  {
    "postcode": "36280",
    "city": "Friedigerode"
  },
  {
    "postcode": "36280",
    "city": "Hausen bei Bad Hersfeld"
  },
  {
    "postcode": "36280",
    "city": "Ibra"
  },
  {
    "postcode": "36280",
    "city": "Oberaula"
  },
  {
    "postcode": "36280",
    "city": "Olberode"
  },
  {
    "postcode": "36280",
    "city": "Wahlshausen"
  },
  {
    "postcode": "36280",
    "city": "Schwalm-Eder-Kreis"
  },
  {
    "postcode": "36280",
    "city": "Hausen"
  },
  {
    "postcode": "36282",
    "city": "Bodes"
  },
  {
    "postcode": "36282",
    "city": "Eitra"
  },
  {
    "postcode": "36282",
    "city": "Fischbach bei Bad Hersfeld"
  },
  {
    "postcode": "36282",
    "city": "Hauneck"
  },
  {
    "postcode": "36282",
    "city": "Oberhaun"
  },
  {
    "postcode": "36282",
    "city": "Rotensee"
  },
  {
    "postcode": "36282",
    "city": "Sieglos"
  },
  {
    "postcode": "36282",
    "city": "Unterhaun"
  },
  {
    "postcode": "36282",
    "city": "Hersfeld-Rotenburg"
  },
  {
    "postcode": "36282",
    "city": "Fischbach"
  },
  {
    "postcode": "36284",
    "city": "Ausbach Kreis Hersfeld"
  },
  {
    "postcode": "36284",
    "city": "Ausbach"
  },
  {
    "postcode": "36284",
    "city": "Glaam"
  },
  {
    "postcode": "36284",
    "city": "Hohenroda Hessen"
  },
  {
    "postcode": "36284",
    "city": "Hohenroda"
  },
  {
    "postcode": "36284",
    "city": "Mansbach Kreis Hünfeld"
  },
  {
    "postcode": "36284",
    "city": "Mansbach"
  },
  {
    "postcode": "36284",
    "city": "Oberbreitzbach"
  },
  {
    "postcode": "36284",
    "city": "Ransbach Kreis Hersfeld"
  },
  {
    "postcode": "36284",
    "city": "Ransbach"
  },
  {
    "postcode": "36284",
    "city": "Soislieden Kreis Hünfeld"
  },
  {
    "postcode": "36284",
    "city": "Soislieden"
  },
  {
    "postcode": "36284",
    "city": "Hersfeld-Rotenburg"
  },
  {
    "postcode": "36286",
    "city": "Aua"
  },
  {
    "postcode": "36286",
    "city": "Gittersdorf"
  },
  {
    "postcode": "36286",
    "city": "Mühlbach bei Bad Hersfeld"
  },
  {
    "postcode": "36286",
    "city": "Neuenstein Hessen"
  },
  {
    "postcode": "36286",
    "city": "Neuenstein"
  },
  {
    "postcode": "36286",
    "city": "Obergeis"
  },
  {
    "postcode": "36286",
    "city": "Raboldshausen Hessen"
  },
  {
    "postcode": "36286",
    "city": "Raboldshausen"
  },
  {
    "postcode": "36286",
    "city": "Saasen bei Bad Hersfeld"
  },
  {
    "postcode": "36286",
    "city": "Salzberg"
  },
  {
    "postcode": "36286",
    "city": "Untergeis"
  },
  {
    "postcode": "36286",
    "city": "Hersfeld-Rotenburg"
  },
  {
    "postcode": "36286",
    "city": "Saasen"
  },
  {
    "postcode": "36286",
    "city": "Mühlbach"
  },
  {
    "postcode": "36287",
    "city": "Breitenbach am Herzberg"
  },
  {
    "postcode": "36287",
    "city": "Gehau bei Bad Hersfeld"
  },
  {
    "postcode": "36287",
    "city": "Hatterode"
  },
  {
    "postcode": "36287",
    "city": "Machtlos bei Bad Hersfeld"
  },
  {
    "postcode": "36287",
    "city": "Oberjossa"
  },
  {
    "postcode": "36287",
    "city": "Hersfeld-Rotenburg"
  },
  {
    "postcode": "36287",
    "city": "Breitenbach a. Herzberg"
  },
  {
    "postcode": "36287",
    "city": "Gehau"
  },
  {
    "postcode": "36287",
    "city": "Breitenbach"
  },
  {
    "postcode": "36287",
    "city": "Machtlos"
  },
  {
    "postcode": "36289",
    "city": "Friedewald"
  },
  {
    "postcode": "36289",
    "city": "Friedewald Hessen"
  },
  {
    "postcode": "36289",
    "city": "Hillartshausen"
  },
  {
    "postcode": "36289",
    "city": "Lautenhausen"
  },
  {
    "postcode": "36289",
    "city": "Motzfeld"
  },
  {
    "postcode": "36289",
    "city": "Hersfeld-Rotenburg"
  },
  {
    "postcode": "36289",
    "city": "Schenklengsfeld"
  },
  {
    "postcode": "36304",
    "city": "Alsfeld"
  },
  {
    "postcode": "36304",
    "city": "Altenburg Hessen"
  },
  {
    "postcode": "36304",
    "city": "Altenburg"
  },
  {
    "postcode": "36304",
    "city": "Angenrod"
  },
  {
    "postcode": "36304",
    "city": "Berfa"
  },
  {
    "postcode": "36304",
    "city": "Billertshausen"
  },
  {
    "postcode": "36304",
    "city": "Eifa Kreis Alsfeld"
  },
  {
    "postcode": "36304",
    "city": "Eifa"
  },
  {
    "postcode": "36304",
    "city": "Elbenrod"
  },
  {
    "postcode": "36304",
    "city": "Eudorf"
  },
  {
    "postcode": "36304",
    "city": "Fischbach Kreis Alsfeld"
  },
  {
    "postcode": "36304",
    "city": "Fischbach"
  },
  {
    "postcode": "36304",
    "city": "Hattendorf Hessen"
  },
  {
    "postcode": "36304",
    "city": "Hattendorf"
  },
  {
    "postcode": "36304",
    "city": "Heidelbach"
  },
  {
    "postcode": "36304",
    "city": "Leusel"
  },
  {
    "postcode": "36304",
    "city": "Liederbach"
  },
  {
    "postcode": "36304",
    "city": "Lingelbach"
  },
  {
    "postcode": "36304",
    "city": "Reibertenrod"
  },
  {
    "postcode": "36304",
    "city": "Schwabenrod"
  },
  {
    "postcode": "36304",
    "city": "Vogelsbergkreis"
  },
  {
    "postcode": "36304",
    "city": "Hardtmühle"
  },
  {
    "postcode": "36304",
    "city": "Münch-Leusel"
  },
  {
    "postcode": "36304",
    "city": "Schrecksbach"
  },
  {
    "postcode": "36318",
    "city": "Brauerschwend"
  },
  {
    "postcode": "36318",
    "city": "Hergersdorf"
  },
  {
    "postcode": "36318",
    "city": "Hopfgarten Hessen"
  },
  {
    "postcode": "36318",
    "city": "Hopfgarten"
  },
  {
    "postcode": "36318",
    "city": "Rainrod Kreis Alsfeld"
  },
  {
    "postcode": "36318",
    "city": "Rainrod"
  },
  {
    "postcode": "36318",
    "city": "Renzendorf"
  },
  {
    "postcode": "36318",
    "city": "Schwalmtal Hessen"
  },
  {
    "postcode": "36318",
    "city": "Schwalmtal"
  },
  {
    "postcode": "36318",
    "city": "Storndorf"
  },
  {
    "postcode": "36318",
    "city": "Vadenrod"
  },
  {
    "postcode": "36318",
    "city": "Vogelsbergkreis"
  },
  {
    "postcode": "36318",
    "city": "Unter-Sorg"
  },
  {
    "postcode": "36318",
    "city": "Ober-Sorg"
  },
  {
    "postcode": "36320",
    "city": "Arnshain"
  },
  {
    "postcode": "36320",
    "city": "Gleimenhain"
  },
  {
    "postcode": "36320",
    "city": "Heimertshausen"
  },
  {
    "postcode": "36320",
    "city": "Kirtorf"
  },
  {
    "postcode": "36320",
    "city": "Lehrbach"
  },
  {
    "postcode": "36320",
    "city": "Ober-Gleen"
  },
  {
    "postcode": "36320",
    "city": "Wahlen Kreis Alsfeld"
  },
  {
    "postcode": "36320",
    "city": "Wahlen"
  },
  {
    "postcode": "36320",
    "city": "Vogelsbergkreis"
  },
  {
    "postcode": "36323",
    "city": "Bieben"
  },
  {
    "postcode": "36323",
    "city": "Eulersdorf"
  },
  {
    "postcode": "36323",
    "city": "Grebenau"
  },
  {
    "postcode": "36323",
    "city": "Grebenau Hessen"
  },
  {
    "postcode": "36323",
    "city": "Reimenrod"
  },
  {
    "postcode": "36323",
    "city": "Schwarz Kreis Alsfeld"
  },
  {
    "postcode": "36323",
    "city": "Schwarz"
  },
  {
    "postcode": "36323",
    "city": "Udenhausen Kreis Alsfeld"
  },
  {
    "postcode": "36323",
    "city": "Udenhausen"
  },
  {
    "postcode": "36323",
    "city": "Wallersdorf Kreis Alsfeld"
  },
  {
    "postcode": "36323",
    "city": "Wallersdorf"
  },
  {
    "postcode": "36323",
    "city": "Vogelsbergkreis"
  },
  {
    "postcode": "36325",
    "city": "Ermenrod"
  },
  {
    "postcode": "36325",
    "city": "Feldatal"
  },
  {
    "postcode": "36325",
    "city": "Kestrich"
  },
  {
    "postcode": "36325",
    "city": "Köddingen"
  },
  {
    "postcode": "36325",
    "city": "Stumpertenrod"
  },
  {
    "postcode": "36325",
    "city": "Windhausen Kreis Alsfeld"
  },
  {
    "postcode": "36325",
    "city": "Windhausen"
  },
  {
    "postcode": "36325",
    "city": "Zeilbach"
  },
  {
    "postcode": "36325",
    "city": "Vogelsbergkreis"
  },
  {
    "postcode": "36325",
    "city": "Groß-Felda"
  },
  {
    "postcode": "36326",
    "city": "Antrifttal"
  },
  {
    "postcode": "36326",
    "city": "Bernsburg"
  },
  {
    "postcode": "36326",
    "city": "Ohmes"
  },
  {
    "postcode": "36326",
    "city": "Ruhlkirchen"
  },
  {
    "postcode": "36326",
    "city": "Seibelsdorf Kreis Alsfeld"
  },
  {
    "postcode": "36326",
    "city": "Seibelsdorf"
  },
  {
    "postcode": "36326",
    "city": "Vockenrod"
  },
  {
    "postcode": "36326",
    "city": "Vogelsbergkreis"
  },
  {
    "postcode": "36326",
    "city": "Dammeshof"
  },
  {
    "postcode": "36326",
    "city": "Dammesmühle"
  },
  {
    "postcode": "36329",
    "city": "Romrod"
  },
  {
    "postcode": "36329",
    "city": "Strebendorf"
  },
  {
    "postcode": "36329",
    "city": "Zell Kreis Alsfeld"
  },
  {
    "postcode": "36329",
    "city": "Zell"
  },
  {
    "postcode": "36329",
    "city": "Vogelsbergkreis"
  },
  {
    "postcode": "36329",
    "city": "Ober-Breidenbach"
  },
  {
    "postcode": "36329",
    "city": "Nieder-Breidenbach"
  },
  {
    "postcode": "36341",
    "city": "Allmenrod"
  },
  {
    "postcode": "36341",
    "city": "Blitzenrod Hessen"
  },
  {
    "postcode": "36341",
    "city": "Blitzenrod"
  },
  {
    "postcode": "36341",
    "city": "Frischborn Kreis Lauterbach Hessen"
  },
  {
    "postcode": "36341",
    "city": "Frischborn"
  },
  {
    "postcode": "36341",
    "city": "Heblos"
  },
  {
    "postcode": "36341",
    "city": "Lauterbach (Hessen)"
  },
  {
    "postcode": "36341",
    "city": "Lauterbach"
  },
  {
    "postcode": "36341",
    "city": "Maar"
  },
  {
    "postcode": "36341",
    "city": "Reuters"
  },
  {
    "postcode": "36341",
    "city": "Rimlos"
  },
  {
    "postcode": "36341",
    "city": "Rudlos"
  },
  {
    "postcode": "36341",
    "city": "Sickendorf"
  },
  {
    "postcode": "36341",
    "city": "Wallenrod"
  },
  {
    "postcode": "36341",
    "city": "Wernges"
  },
  {
    "postcode": "36341",
    "city": "Vogelsbergkreis"
  },
  {
    "postcode": "36355",
    "city": "Bannerod"
  },
  {
    "postcode": "36355",
    "city": "Bermuthshain"
  },
  {
    "postcode": "36355",
    "city": "Crainfeld"
  },
  {
    "postcode": "36355",
    "city": "Grebenhain"
  },
  {
    "postcode": "36355",
    "city": "Hartmannshain"
  },
  {
    "postcode": "36355",
    "city": "Heisters"
  },
  {
    "postcode": "36355",
    "city": "Herchenhain"
  },
  {
    "postcode": "36355",
    "city": "Metzlos"
  },
  {
    "postcode": "36355",
    "city": "Nösberts-Weidmoos"
  },
  {
    "postcode": "36355",
    "city": "Vaitshain"
  },
  {
    "postcode": "36355",
    "city": "Volkartshain"
  },
  {
    "postcode": "36355",
    "city": "Wünschen-Moos"
  },
  {
    "postcode": "36355",
    "city": "Zahmen"
  },
  {
    "postcode": "36355",
    "city": "Vogelsbergkreis"
  },
  {
    "postcode": "36355",
    "city": "Ilbeshausen-Hochwaldhausen"
  },
  {
    "postcode": "36355",
    "city": "Metzlos-Gehaag"
  },
  {
    "postcode": "36355",
    "city": "Ilbeshausen"
  },
  {
    "postcode": "36358",
    "city": "Altenschlirf"
  },
  {
    "postcode": "36358",
    "city": "Herbstein"
  },
  {
    "postcode": "36358",
    "city": "Lanzenhain"
  },
  {
    "postcode": "36358",
    "city": "Rixfeld"
  },
  {
    "postcode": "36358",
    "city": "Schadges"
  },
  {
    "postcode": "36358",
    "city": "Schlechtenwegen"
  },
  {
    "postcode": "36358",
    "city": "Steinfurt Kreis Lauterbach Hessen"
  },
  {
    "postcode": "36358",
    "city": "Steinfurt"
  },
  {
    "postcode": "36358",
    "city": "Stockhausen Kreis Lauterbach Hessen"
  },
  {
    "postcode": "36358",
    "city": "Stockhausen"
  },
  {
    "postcode": "36358",
    "city": "Vogelsbergkreis"
  },
  {
    "postcode": "36364",
    "city": "Bad Salzschlirf"
  },
  {
    "postcode": "36364",
    "city": "Fulda"
  },
  {
    "postcode": "36367",
    "city": "Angersbach"
  },
  {
    "postcode": "36367",
    "city": "Landenhausen"
  },
  {
    "postcode": "36367",
    "city": "Wartenberg Hessen"
  },
  {
    "postcode": "36367",
    "city": "Wartenberg"
  },
  {
    "postcode": "36367",
    "city": "Vogelsbergkreis"
  },
  {
    "postcode": "36369",
    "city": "Dirlammen"
  },
  {
    "postcode": "36369",
    "city": "Eichelhain"
  },
  {
    "postcode": "36369",
    "city": "Eichenrod"
  },
  {
    "postcode": "36369",
    "city": "Engelrod"
  },
  {
    "postcode": "36369",
    "city": "Hopfmannsfeld"
  },
  {
    "postcode": "36369",
    "city": "Hörgenau"
  },
  {
    "postcode": "36369",
    "city": "Lautertal (Vogelsberg)"
  },
  {
    "postcode": "36369",
    "city": "Lautertal"
  },
  {
    "postcode": "36369",
    "city": "Meiches"
  },
  {
    "postcode": "36369",
    "city": "Vogelsbergkreis"
  },
  {
    "postcode": "36381",
    "city": "Ahlersbach"
  },
  {
    "postcode": "36381",
    "city": "Breitenbach Kreis Schlüchtern"
  },
  {
    "postcode": "36381",
    "city": "Breitenbach"
  },
  {
    "postcode": "36381",
    "city": "Drasenberg"
  },
  {
    "postcode": "36381",
    "city": "Elm Kreis Schlüchtern"
  },
  {
    "postcode": "36381",
    "city": "Elm"
  },
  {
    "postcode": "36381",
    "city": "Gomfritz"
  },
  {
    "postcode": "36381",
    "city": "Gundhelm"
  },
  {
    "postcode": "36381",
    "city": "Herolz"
  },
  {
    "postcode": "36381",
    "city": "Hohenzell über Schlüchtern"
  },
  {
    "postcode": "36381",
    "city": "Hutten Kreis Schlüchtern"
  },
  {
    "postcode": "36381",
    "city": "Hutten"
  },
  {
    "postcode": "36381",
    "city": "Klosterhöfe"
  },
  {
    "postcode": "36381",
    "city": "Kressenbach"
  },
  {
    "postcode": "36381",
    "city": "Niederzell"
  },
  {
    "postcode": "36381",
    "city": "Röhrigs"
  },
  {
    "postcode": "36381",
    "city": "Schlüchtern"
  },
  {
    "postcode": "36381",
    "city": "Vollmerz"
  },
  {
    "postcode": "36381",
    "city": "Wallroth Kreis Schlüchtern"
  },
  {
    "postcode": "36381",
    "city": "Wallroth"
  },
  {
    "postcode": "36381",
    "city": "Main-Kinzig-Kreis"
  },
  {
    "postcode": "36381",
    "city": "Hohenzell"
  },
  {
    "postcode": "36391",
    "city": "Altengronau"
  },
  {
    "postcode": "36391",
    "city": "Breunings"
  },
  {
    "postcode": "36391",
    "city": "Jossa Kreis Schlüchtern"
  },
  {
    "postcode": "36391",
    "city": "Jossa"
  },
  {
    "postcode": "36391",
    "city": "Mottgers"
  },
  {
    "postcode": "36391",
    "city": "Neuengronau"
  },
  {
    "postcode": "36391",
    "city": "Oberzell Kreis Schlüchtern"
  },
  {
    "postcode": "36391",
    "city": "Oberzell"
  },
  {
    "postcode": "36391",
    "city": "Sannerz"
  },
  {
    "postcode": "36391",
    "city": "Schwarzenfels Kreis Schlüchtern"
  },
  {
    "postcode": "36391",
    "city": "Schwarzenfels"
  },
  {
    "postcode": "36391",
    "city": "Sinntal"
  },
  {
    "postcode": "36391",
    "city": "Sterbfritz"
  },
  {
    "postcode": "36391",
    "city": "Weichersbach"
  },
  {
    "postcode": "36391",
    "city": "Weiperz"
  },
  {
    "postcode": "36391",
    "city": "Züntersbach"
  },
  {
    "postcode": "36391",
    "city": "Main-Kinzig-Kreis"
  },
  {
    "postcode": "36396",
    "city": "Bellings"
  },
  {
    "postcode": "36396",
    "city": "Hintersteinau"
  },
  {
    "postcode": "36396",
    "city": "Marborn"
  },
  {
    "postcode": "36396",
    "city": "Marjoß"
  },
  {
    "postcode": "36396",
    "city": "Neustall"
  },
  {
    "postcode": "36396",
    "city": "Rabenstein Kreis Schlüchtern"
  },
  {
    "postcode": "36396",
    "city": "Rabenstein"
  },
  {
    "postcode": "36396",
    "city": "Rebsdorf Kreis Schlüchtern"
  },
  {
    "postcode": "36396",
    "city": "Rebsdorf"
  },
  {
    "postcode": "36396",
    "city": "Sarrod Kreis Schlüchtern"
  },
  {
    "postcode": "36396",
    "city": "Sarrod"
  },
  {
    "postcode": "36396",
    "city": "Seidenroth"
  },
  {
    "postcode": "36396",
    "city": "Steinau an der Straße"
  },
  {
    "postcode": "36396",
    "city": "Ulmbach"
  },
  {
    "postcode": "36396",
    "city": "Ürzell"
  },
  {
    "postcode": "36396",
    "city": "Main-Kinzig-Kreis"
  },
  {
    "postcode": "36396",
    "city": "Steinau"
  },
  {
    "postcode": "36396",
    "city": "Niederzell"
  },
  {
    "postcode": "36399",
    "city": "Fleschenbach"
  },
  {
    "postcode": "36399",
    "city": "Freiensteinau"
  },
  {
    "postcode": "36399",
    "city": "Gunzenau"
  },
  {
    "postcode": "36399",
    "city": "Holzmühl Vogelsberg"
  },
  {
    "postcode": "36399",
    "city": "Holzmühl"
  },
  {
    "postcode": "36399",
    "city": "Nieder-Moos"
  },
  {
    "postcode": "36399",
    "city": "Ober-Moos"
  },
  {
    "postcode": "36399",
    "city": "Reichlos"
  },
  {
    "postcode": "36399",
    "city": "Reinhards Kreis Schlüchtern"
  },
  {
    "postcode": "36399",
    "city": "Reinhards"
  },
  {
    "postcode": "36399",
    "city": "Salz Kreis Lauterbach Hessen"
  },
  {
    "postcode": "36399",
    "city": "Salz"
  },
  {
    "postcode": "36399",
    "city": "Weidenau Hessen"
  },
  {
    "postcode": "36399",
    "city": "Weidenau"
  },
  {
    "postcode": "36399",
    "city": "Vogelsbergkreis"
  },
  {
    "postcode": "36399",
    "city": "Radmühl I"
  },
  {
    "postcode": "36399",
    "city": "Radmühl II"
  },
  {
    "postcode": "36399",
    "city": "Radmühl"
  },
  {
    "postcode": "36404",
    "city": "Martinroda bei Vacha"
  },
  {
    "postcode": "36404",
    "city": "Oechsen"
  },
  {
    "postcode": "36404",
    "city": "Vacha"
  },
  {
    "postcode": "36404",
    "city": "Völkershausen bei Vacha"
  },
  {
    "postcode": "36404",
    "city": "Wölferbütt"
  },
  {
    "postcode": "36404",
    "city": "Wartburgkreis"
  },
  {
    "postcode": "36404",
    "city": "Sünna"
  },
  {
    "postcode": "36404",
    "city": "Deicheroda"
  },
  {
    "postcode": "36404",
    "city": "Hüttenroda"
  },
  {
    "postcode": "36404",
    "city": "Mosa"
  },
  {
    "postcode": "36404",
    "city": "Mühlwärts"
  },
  {
    "postcode": "36404",
    "city": "Mariengart"
  },
  {
    "postcode": "36404",
    "city": "Oberzella"
  },
  {
    "postcode": "36404",
    "city": "Völkershausen"
  },
  {
    "postcode": "36404",
    "city": "Martinroda"
  },
  {
    "postcode": "36404",
    "city": "Masbach"
  },
  {
    "postcode": "36404",
    "city": "Rodenberg"
  },
  {
    "postcode": "36404",
    "city": "Willmanns"
  },
  {
    "postcode": "36414",
    "city": "Unterbreizbach"
  },
  {
    "postcode": "36414",
    "city": "Wartburgkreis"
  },
  {
    "postcode": "36414",
    "city": "Pferdsdorf"
  },
  {
    "postcode": "36414",
    "city": "Räsa"
  },
  {
    "postcode": "36419",
    "city": "Buttlar"
  },
  {
    "postcode": "36419",
    "city": "Geisa"
  },
  {
    "postcode": "36419",
    "city": "Gerstengrund"
  },
  {
    "postcode": "36419",
    "city": "Rockenstuhl"
  },
  {
    "postcode": "36419",
    "city": "Schleid bei Vacha"
  },
  {
    "postcode": "36419",
    "city": "Wartburgkreis"
  },
  {
    "postcode": "36419",
    "city": "Schleid"
  },
  {
    "postcode": "36419",
    "city": "Wenigentaft"
  },
  {
    "postcode": "36419",
    "city": "Bermbach"
  },
  {
    "postcode": "36419",
    "city": "Borbels"
  },
  {
    "postcode": "36419",
    "city": "Mieswarz"
  },
  {
    "postcode": "36419",
    "city": "Spahl"
  },
  {
    "postcode": "36419",
    "city": "Borsch"
  },
  {
    "postcode": "36419",
    "city": "Otzbach"
  },
  {
    "postcode": "36419",
    "city": "Geismar"
  },
  {
    "postcode": "36419",
    "city": "Ketten"
  },
  {
    "postcode": "36419",
    "city": "Apfelbach"
  },
  {
    "postcode": "36419",
    "city": "Bremen"
  },
  {
    "postcode": "36419",
    "city": "Geblar"
  },
  {
    "postcode": "36419",
    "city": "Wiesenfeld"
  },
  {
    "postcode": "36419",
    "city": "Reinhards"
  },
  {
    "postcode": "36419",
    "city": "Walkes"
  },
  {
    "postcode": "36419",
    "city": "Kranlucken"
  },
  {
    "postcode": "36419",
    "city": "Motzlar"
  },
  {
    "postcode": "36419",
    "city": "Oberrothof"
  },
  {
    "postcode": "36419",
    "city": "Zitters"
  },
  {
    "postcode": "36433",
    "city": "Bad Salzungen"
  },
  {
    "postcode": "36433",
    "city": "Immelborn"
  },
  {
    "postcode": "36433",
    "city": "Leimbach bei Bad Salzungen"
  },
  {
    "postcode": "36433",
    "city": "Moorgrund"
  },
  {
    "postcode": "36433",
    "city": "Wartburgkreis"
  },
  {
    "postcode": "36433",
    "city": "Leimbach"
  },
  {
    "postcode": "36433",
    "city": "Langenfeld"
  },
  {
    "postcode": "36433",
    "city": "Kloster"
  },
  {
    "postcode": "36433",
    "city": "Wildprechtroda"
  },
  {
    "postcode": "36433",
    "city": "Kaltenborn"
  },
  {
    "postcode": "36433",
    "city": "Hohleborn"
  },
  {
    "postcode": "36433",
    "city": "Kaiseroda"
  },
  {
    "postcode": "36433",
    "city": "Hermannsroda"
  },
  {
    "postcode": "36433",
    "city": "Etterwinden"
  },
  {
    "postcode": "36433",
    "city": "Gumpelstadt"
  },
  {
    "postcode": "36433",
    "city": "Kupfersuhl"
  },
  {
    "postcode": "36433",
    "city": "Witzelroda"
  },
  {
    "postcode": "36433",
    "city": "Möhra"
  },
  {
    "postcode": "36433",
    "city": "Neuendorf"
  },
  {
    "postcode": "36433",
    "city": "Waldfisch"
  },
  {
    "postcode": "36433",
    "city": "Gräfen-Nitzendorf"
  },
  {
    "postcode": "36433",
    "city": "Kissel"
  },
  {
    "postcode": "36448",
    "city": "Bad Liebenstein"
  },
  {
    "postcode": "36448",
    "city": "Schweina bei Bad Liebenstein"
  },
  {
    "postcode": "36448",
    "city": "Steinbach bei Bad Salzungen"
  },
  {
    "postcode": "36448",
    "city": "Wartburgkreis"
  },
  {
    "postcode": "36448",
    "city": "Steinbach"
  },
  {
    "postcode": "36448",
    "city": "Schweina"
  },
  {
    "postcode": "36448",
    "city": "Meimers"
  },
  {
    "postcode": "36448",
    "city": "Bairoda"
  },
  {
    "postcode": "36448",
    "city": "Altenstein"
  },
  {
    "postcode": "36448",
    "city": "Marienthal"
  },
  {
    "postcode": "36452",
    "city": "Andenhausen"
  },
  {
    "postcode": "36452",
    "city": "Brunnhartshausen"
  },
  {
    "postcode": "36452",
    "city": "Diedorf / Rhön"
  },
  {
    "postcode": "36452",
    "city": "Diedorf"
  },
  {
    "postcode": "36452",
    "city": "Empfertshausen"
  },
  {
    "postcode": "36452",
    "city": "Fischbach / Rhön"
  },
  {
    "postcode": "36452",
    "city": "Fischbach"
  },
  {
    "postcode": "36452",
    "city": "Kaltenlengsfeld"
  },
  {
    "postcode": "36452",
    "city": "Kaltennordheim"
  },
  {
    "postcode": "36452",
    "city": "Klings"
  },
  {
    "postcode": "36452",
    "city": "Neidhartshausen"
  },
  {
    "postcode": "36452",
    "city": "Zella / Rhön"
  },
  {
    "postcode": "36452",
    "city": "Zella"
  },
  {
    "postcode": "36452",
    "city": "Wartburgkreis"
  },
  {
    "postcode": "36452",
    "city": "Dermbach"
  },
  {
    "postcode": "36452",
    "city": "Mittelsdorf"
  },
  {
    "postcode": "36452",
    "city": "Kaltenwestheim"
  },
  {
    "postcode": "36456",
    "city": "Barchfeld Werra"
  },
  {
    "postcode": "36456",
    "city": "Barchfeld"
  },
  {
    "postcode": "36456",
    "city": "Wartburgkreis"
  },
  {
    "postcode": "36456",
    "city": "Barchfeld-Immelborn"
  },
  {
    "postcode": "36456",
    "city": "Immelborn"
  },
  {
    "postcode": "36456",
    "city": "Übelroda"
  },
  {
    "postcode": "36456",
    "city": "Ettmarshausen"
  },
  {
    "postcode": "36457",
    "city": "Stadtlengsfeld"
  },
  {
    "postcode": "36457",
    "city": "Urnshausen"
  },
  {
    "postcode": "36457",
    "city": "Weilar"
  },
  {
    "postcode": "36457",
    "city": "Wartburgkreis"
  },
  {
    "postcode": "36457",
    "city": "Dermbach"
  },
  {
    "postcode": "36460",
    "city": "Dorndorf Rhön"
  },
  {
    "postcode": "36460",
    "city": "Dorndorf"
  },
  {
    "postcode": "36460",
    "city": "Frauensee"
  },
  {
    "postcode": "36460",
    "city": "Merkers-Kieselbach"
  },
  {
    "postcode": "36460",
    "city": "Weißendiez"
  },
  {
    "postcode": "36460",
    "city": "Wartburgkreis"
  },
  {
    "postcode": "36460",
    "city": "Krayenberggemeinde"
  },
  {
    "postcode": "36460",
    "city": "Merkers"
  },
  {
    "postcode": "36460",
    "city": "Kieselbach"
  },
  {
    "postcode": "36460",
    "city": "Dietlas"
  },
  {
    "postcode": "36460",
    "city": "Unterer Kirstingshof"
  },
  {
    "postcode": "36466",
    "city": "Dermbach Thüringen"
  },
  {
    "postcode": "36466",
    "city": "Dermbach"
  },
  {
    "postcode": "36466",
    "city": "Wiesenthal bei Bad Salzungen"
  },
  {
    "postcode": "36466",
    "city": "Wartburgkreis"
  },
  {
    "postcode": "36466",
    "city": "Wiesenthal"
  },
  {
    "postcode": "36466",
    "city": "Unteralba"
  },
  {
    "postcode": "36466",
    "city": "Lindigshof"
  },
  {
    "postcode": "36466",
    "city": "Glattbach"
  },
  {
    "postcode": "36466",
    "city": "Brunnhartshausen"
  },
  {
    "postcode": "36466",
    "city": "Urnshausen"
  },
  {
    "postcode": "36466",
    "city": "Föhlritz"
  },
  {
    "postcode": "36466",
    "city": "Oberalba"
  },
  {
    "postcode": "36466",
    "city": "Hartschwinden"
  },
  {
    "postcode": "36466",
    "city": "Bernshausen"
  },
  {
    "postcode": "36466",
    "city": "Hohenwart"
  },
  {
    "postcode": "36466",
    "city": "Lindenau"
  },
  {
    "postcode": "36466",
    "city": "Mebritz"
  },
  {
    "postcode": "36466",
    "city": "Steinberg"
  },
  {
    "postcode": "36469",
    "city": "Tiefenort"
  },
  {
    "postcode": "36469",
    "city": "Wartburgkreis"
  },
  {
    "postcode": "36469",
    "city": "Bad Salzungen"
  },
  {
    "postcode": "36469",
    "city": "Hämbach"
  },
  {
    "postcode": "36469",
    "city": "Dönges"
  },
  {
    "postcode": "36469",
    "city": "Oberrohn"
  },
  {
    "postcode": "36469",
    "city": "Ettenhausen"
  },
  {
    "postcode": "36469",
    "city": "Springen"
  },
  {
    "postcode": "36469",
    "city": "Frauensee"
  },
  {
    "postcode": "36469",
    "city": "Unterrohn"
  },
  {
    "postcode": "36469",
    "city": "Weißendiez"
  },
  {
    "postcode": "36469",
    "city": "Knottenhof"
  },
  {
    "postcode": "36469",
    "city": "Möllersgrund"
  },
  {
    "postcode": "36469",
    "city": "Schergeshof"
  }
]