[
  {
    "postcode": "37073",
    "city": "Göttingen"
  },
  {
    "postcode": "37073",
    "city": "Göttingen Niedersachsen"
  },
  {
    "postcode": "37075",
    "city": "Göttingen"
  },
  {
    "postcode": "37075",
    "city": "Göttingen Niedersachsen"
  },
  {
    "postcode": "37075",
    "city": "Herberhausen"
  },
  {
    "postcode": "37075",
    "city": "Weende"
  },
  {
    "postcode": "37077",
    "city": "Göttingen"
  },
  {
    "postcode": "37077",
    "city": "Göttingen Niedersachsen"
  },
  {
    "postcode": "37077",
    "city": "Nikolausberg"
  },
  {
    "postcode": "37077",
    "city": "Roringen"
  },
  {
    "postcode": "37077",
    "city": "Weende"
  },
  {
    "postcode": "37077",
    "city": "Deppoldshausen"
  },
  {
    "postcode": "37079",
    "city": "Elliehausen"
  },
  {
    "postcode": "37079",
    "city": "Esebeck"
  },
  {
    "postcode": "37079",
    "city": "Göttingen"
  },
  {
    "postcode": "37079",
    "city": "Göttingen Niedersachsen"
  },
  {
    "postcode": "37079",
    "city": "Grone"
  },
  {
    "postcode": "37079",
    "city": "Groß Ellershausen"
  },
  {
    "postcode": "37079",
    "city": "Hetjershausen"
  },
  {
    "postcode": "37079",
    "city": "Holtensen Kreis Göttingen"
  },
  {
    "postcode": "37079",
    "city": "Holtensen"
  },
  {
    "postcode": "37079",
    "city": "Knutbühren"
  },
  {
    "postcode": "37079",
    "city": "Weende"
  },
  {
    "postcode": "37081",
    "city": "Göttingen"
  },
  {
    "postcode": "37081",
    "city": "Göttingen Niedersachsen"
  },
  {
    "postcode": "37081",
    "city": "Grone"
  },
  {
    "postcode": "37083",
    "city": "Geismar Kreis Göttingen"
  },
  {
    "postcode": "37083",
    "city": "Geismar"
  },
  {
    "postcode": "37083",
    "city": "Göttingen"
  },
  {
    "postcode": "37083",
    "city": "Göttingen Niedersachsen"
  },
  {
    "postcode": "37083",
    "city": "Gartemühle"
  },
  {
    "postcode": "37083",
    "city": "Garteschenke"
  },
  {
    "postcode": "37085",
    "city": "Geismar Kreis Göttingen"
  },
  {
    "postcode": "37085",
    "city": "Geismar"
  },
  {
    "postcode": "37085",
    "city": "Göttingen"
  },
  {
    "postcode": "37085",
    "city": "Göttingen Niedersachsen"
  },
  {
    "postcode": "37115",
    "city": "Breitenberg Kreis Duderstadt Niedersachsen"
  },
  {
    "postcode": "37115",
    "city": "Breitenberg"
  },
  {
    "postcode": "37115",
    "city": "Brochthausen"
  },
  {
    "postcode": "37115",
    "city": "Desingerode"
  },
  {
    "postcode": "37115",
    "city": "Duderstadt"
  },
  {
    "postcode": "37115",
    "city": "Duderstadt Niedersachsen"
  },
  {
    "postcode": "37115",
    "city": "Esplingerode"
  },
  {
    "postcode": "37115",
    "city": "Fuhrbach"
  },
  {
    "postcode": "37115",
    "city": "Gerblingerode"
  },
  {
    "postcode": "37115",
    "city": "Hilkerode"
  },
  {
    "postcode": "37115",
    "city": "Immingerode"
  },
  {
    "postcode": "37115",
    "city": "Langenhagen Kreis Duderstadt Niedersachsen"
  },
  {
    "postcode": "37115",
    "city": "Langenhagen"
  },
  {
    "postcode": "37115",
    "city": "Mingerode"
  },
  {
    "postcode": "37115",
    "city": "Nesselröden Kreis Duderstadt Niedersachsen"
  },
  {
    "postcode": "37115",
    "city": "Nesselröden"
  },
  {
    "postcode": "37115",
    "city": "Tiftlingerode"
  },
  {
    "postcode": "37115",
    "city": "Werxhausen"
  },
  {
    "postcode": "37115",
    "city": "Westerode Kreis Duderstadt Niedersachsen"
  },
  {
    "postcode": "37115",
    "city": "Westerode"
  },
  {
    "postcode": "37115",
    "city": "Göttingen"
  },
  {
    "postcode": "37115",
    "city": "Pöhlde"
  },
  {
    "postcode": "37115",
    "city": "Sickental"
  },
  {
    "postcode": "37120",
    "city": "Bovenden"
  },
  {
    "postcode": "37120",
    "city": "Eddigehausen"
  },
  {
    "postcode": "37120",
    "city": "Emmenhausen bei Uslar"
  },
  {
    "postcode": "37120",
    "city": "Harste"
  },
  {
    "postcode": "37120",
    "city": "Lenglern"
  },
  {
    "postcode": "37120",
    "city": "Reyershausen"
  },
  {
    "postcode": "37120",
    "city": "Spanbeck"
  },
  {
    "postcode": "37120",
    "city": "Göttingen"
  },
  {
    "postcode": "37120",
    "city": "Billingshausen"
  },
  {
    "postcode": "37120",
    "city": "Emmenhausen"
  },
  {
    "postcode": "37124",
    "city": "Atzenhausen"
  },
  {
    "postcode": "37124",
    "city": "Dahlenrode"
  },
  {
    "postcode": "37124",
    "city": "Dramfeld"
  },
  {
    "postcode": "37124",
    "city": "Klein Wiershausen"
  },
  {
    "postcode": "37124",
    "city": "Lemshausen"
  },
  {
    "postcode": "37124",
    "city": "Mengershausen"
  },
  {
    "postcode": "37124",
    "city": "Obernjesa"
  },
  {
    "postcode": "37124",
    "city": "Olenhusen Kreis Göttingen"
  },
  {
    "postcode": "37124",
    "city": "Olenhusen"
  },
  {
    "postcode": "37124",
    "city": "Rosdorf"
  },
  {
    "postcode": "37124",
    "city": "Rosdorf Kreis Göttingen"
  },
  {
    "postcode": "37124",
    "city": "Settmarshausen"
  },
  {
    "postcode": "37124",
    "city": "Sieboldshausen"
  },
  {
    "postcode": "37124",
    "city": "Volkerode Kreis Göttingen"
  },
  {
    "postcode": "37124",
    "city": "Volkerode"
  },
  {
    "postcode": "37124",
    "city": "Göttingen"
  },
  {
    "postcode": "37127",
    "city": "Barlissen"
  },
  {
    "postcode": "37127",
    "city": "Bördel"
  },
  {
    "postcode": "37127",
    "city": "Brackenberg Forsthaus"
  },
  {
    "postcode": "37127",
    "city": "Brackenberg"
  },
  {
    "postcode": "37127",
    "city": "Bühren bei Göttingen"
  },
  {
    "postcode": "37127",
    "city": "Dankelshausen"
  },
  {
    "postcode": "37127",
    "city": "Dransfeld"
  },
  {
    "postcode": "37127",
    "city": "Ellershausen bei Hann Münden"
  },
  {
    "postcode": "37127",
    "city": "Imbsen"
  },
  {
    "postcode": "37127",
    "city": "Jühnde"
  },
  {
    "postcode": "37127",
    "city": "Löwenhagen"
  },
  {
    "postcode": "37127",
    "city": "Meensen"
  },
  {
    "postcode": "37127",
    "city": "Niemetal"
  },
  {
    "postcode": "37127",
    "city": "Ossenfeld"
  },
  {
    "postcode": "37127",
    "city": "Scheden"
  },
  {
    "postcode": "37127",
    "city": "Varlosen"
  },
  {
    "postcode": "37127",
    "city": "Varmissen"
  },
  {
    "postcode": "37127",
    "city": "Göttingen"
  },
  {
    "postcode": "37127",
    "city": "Bühren"
  },
  {
    "postcode": "37127",
    "city": "Ellershausen"
  },
  {
    "postcode": "37127",
    "city": "Oberscheden"
  },
  {
    "postcode": "37127",
    "city": "Niederscheden"
  },
  {
    "postcode": "37130",
    "city": "Beienrode Kreis Göttingen"
  },
  {
    "postcode": "37130",
    "city": "Beienrode"
  },
  {
    "postcode": "37130",
    "city": "Benniehausen"
  },
  {
    "postcode": "37130",
    "city": "Bischhausen Kreis Göttingen"
  },
  {
    "postcode": "37130",
    "city": "Bischhausen"
  },
  {
    "postcode": "37130",
    "city": "Bremke Kreis Göttingen"
  },
  {
    "postcode": "37130",
    "city": "Bremke"
  },
  {
    "postcode": "37130",
    "city": "Diemarden"
  },
  {
    "postcode": "37130",
    "city": "Etzenborn"
  },
  {
    "postcode": "37130",
    "city": "Gelliehausen"
  },
  {
    "postcode": "37130",
    "city": "Gleichen Kreis Göttingen"
  },
  {
    "postcode": "37130",
    "city": "Gleichen"
  },
  {
    "postcode": "37130",
    "city": "Groß Lengden"
  },
  {
    "postcode": "37130",
    "city": "Ischenrode"
  },
  {
    "postcode": "37130",
    "city": "Kerstlingerode"
  },
  {
    "postcode": "37130",
    "city": "Klein Lengden"
  },
  {
    "postcode": "37130",
    "city": "Reinhausen Kreis Göttingen"
  },
  {
    "postcode": "37130",
    "city": "Reinhausen"
  },
  {
    "postcode": "37130",
    "city": "Rittmarshausen"
  },
  {
    "postcode": "37130",
    "city": "Sattenhausen"
  },
  {
    "postcode": "37130",
    "city": "Weißenborn Kreis Göttingen"
  },
  {
    "postcode": "37130",
    "city": "Weißenborn"
  },
  {
    "postcode": "37130",
    "city": "Wöllmarshausen"
  },
  {
    "postcode": "37130",
    "city": "Göttingen"
  },
  {
    "postcode": "37133",
    "city": "Ballenhausen"
  },
  {
    "postcode": "37133",
    "city": "Deiderode"
  },
  {
    "postcode": "37133",
    "city": "Elkershausen"
  },
  {
    "postcode": "37133",
    "city": "Friedland Kreis Göttingen"
  },
  {
    "postcode": "37133",
    "city": "Friedland"
  },
  {
    "postcode": "37133",
    "city": "Groß Schneen"
  },
  {
    "postcode": "37133",
    "city": "Klein Schneen"
  },
  {
    "postcode": "37133",
    "city": "Lichtenhagen Kreis Göttingen"
  },
  {
    "postcode": "37133",
    "city": "Lichtenhagen"
  },
  {
    "postcode": "37133",
    "city": "Ludolfshausen"
  },
  {
    "postcode": "37133",
    "city": "Mollenfelde"
  },
  {
    "postcode": "37133",
    "city": "Niedergandern"
  },
  {
    "postcode": "37133",
    "city": "Niedernjesa"
  },
  {
    "postcode": "37133",
    "city": "Reckershausen Kreis Göttingen"
  },
  {
    "postcode": "37133",
    "city": "Reckershausen"
  },
  {
    "postcode": "37133",
    "city": "Reiffenhausen"
  },
  {
    "postcode": "37133",
    "city": "Stockhausen Kreis Göttingen"
  },
  {
    "postcode": "37133",
    "city": "Stockhausen"
  },
  {
    "postcode": "37133",
    "city": "Göttingen"
  },
  {
    "postcode": "37133",
    "city": "Hellenmühle"
  },
  {
    "postcode": "37133",
    "city": "Reinshof"
  },
  {
    "postcode": "37136",
    "city": "Bernshausen Niedersachsen"
  },
  {
    "postcode": "37136",
    "city": "Bernshausen"
  },
  {
    "postcode": "37136",
    "city": "Bösinghausen"
  },
  {
    "postcode": "37136",
    "city": "Ebergötzen"
  },
  {
    "postcode": "37136",
    "city": "Falkenhagen Kreis Göttingen"
  },
  {
    "postcode": "37136",
    "city": "Falkenhagen"
  },
  {
    "postcode": "37136",
    "city": "Holzerode"
  },
  {
    "postcode": "37136",
    "city": "Landolfshausen"
  },
  {
    "postcode": "37136",
    "city": "Mackenrode Kreis Göttingen"
  },
  {
    "postcode": "37136",
    "city": "Mackenrode"
  },
  {
    "postcode": "37136",
    "city": "Potzwenden"
  },
  {
    "postcode": "37136",
    "city": "Seeburg Niedersachsen"
  },
  {
    "postcode": "37136",
    "city": "Seeburg"
  },
  {
    "postcode": "37136",
    "city": "Seulingen"
  },
  {
    "postcode": "37136",
    "city": "Waake"
  },
  {
    "postcode": "37136",
    "city": "Waake Kreis Göttingen"
  },
  {
    "postcode": "37136",
    "city": "Göttingen"
  },
  {
    "postcode": "37139",
    "city": "Adelebsen"
  },
  {
    "postcode": "37139",
    "city": "Barterode"
  },
  {
    "postcode": "37139",
    "city": "Eberhausen"
  },
  {
    "postcode": "37139",
    "city": "Erbsen"
  },
  {
    "postcode": "37139",
    "city": "Güntersen"
  },
  {
    "postcode": "37139",
    "city": "Lödingsen"
  },
  {
    "postcode": "37139",
    "city": "Wibbecke"
  },
  {
    "postcode": "37139",
    "city": "Göttingen"
  },
  {
    "postcode": "37154",
    "city": "Berwartshausen"
  },
  {
    "postcode": "37154",
    "city": "Bühle Kreis Northeim"
  },
  {
    "postcode": "37154",
    "city": "Bühle"
  },
  {
    "postcode": "37154",
    "city": "Denkershausen"
  },
  {
    "postcode": "37154",
    "city": "Edesheim Leinetal"
  },
  {
    "postcode": "37154",
    "city": "Edesheim"
  },
  {
    "postcode": "37154",
    "city": "Hammenstedt"
  },
  {
    "postcode": "37154",
    "city": "Hillerse Kreis Northeim"
  },
  {
    "postcode": "37154",
    "city": "Hillerse"
  },
  {
    "postcode": "37154",
    "city": "Höckelheim"
  },
  {
    "postcode": "37154",
    "city": "Hohnstedt Leinetal"
  },
  {
    "postcode": "37154",
    "city": "Hohnstedt"
  },
  {
    "postcode": "37154",
    "city": "Hollenstedt Leinetal"
  },
  {
    "postcode": "37154",
    "city": "Hollenstedt"
  },
  {
    "postcode": "37154",
    "city": "Imbshausen"
  },
  {
    "postcode": "37154",
    "city": "Lagershausen"
  },
  {
    "postcode": "37154",
    "city": "Langenholtensen"
  },
  {
    "postcode": "37154",
    "city": "Northeim"
  },
  {
    "postcode": "37154",
    "city": "Schnedinghausen"
  },
  {
    "postcode": "37154",
    "city": "Stöckheim Leinetal"
  },
  {
    "postcode": "37154",
    "city": "Stöckheim"
  },
  {
    "postcode": "37154",
    "city": "Sudheim"
  },
  {
    "postcode": "37154",
    "city": "Siedlung Brunstein"
  },
  {
    "postcode": "37154",
    "city": "Wiebrechtshausen"
  },
  {
    "postcode": "37170",
    "city": "Ahlbershausen"
  },
  {
    "postcode": "37170",
    "city": "Bollensen Solling"
  },
  {
    "postcode": "37170",
    "city": "Bollensen"
  },
  {
    "postcode": "37170",
    "city": "Delliehausen"
  },
  {
    "postcode": "37170",
    "city": "Dinkelhausen Niedersachsen"
  },
  {
    "postcode": "37170",
    "city": "Dinkelhausen"
  },
  {
    "postcode": "37170",
    "city": "Eschershausen"
  },
  {
    "postcode": "37170",
    "city": "Fürstenhagen Weserbergland"
  },
  {
    "postcode": "37170",
    "city": "Fürstenhagen"
  },
  {
    "postcode": "37170",
    "city": "Gierswalde"
  },
  {
    "postcode": "37170",
    "city": "Kammerborn"
  },
  {
    "postcode": "37170",
    "city": "Offensen bei Uslar"
  },
  {
    "postcode": "37170",
    "city": "Schlarpe"
  },
  {
    "postcode": "37170",
    "city": "Schönhagen Solling"
  },
  {
    "postcode": "37170",
    "city": "Schönhagen"
  },
  {
    "postcode": "37170",
    "city": "Schoningen Solling"
  },
  {
    "postcode": "37170",
    "city": "Schoningen"
  },
  {
    "postcode": "37170",
    "city": "Sohlingen Solling"
  },
  {
    "postcode": "37170",
    "city": "Sohlingen"
  },
  {
    "postcode": "37170",
    "city": "Uslar"
  },
  {
    "postcode": "37170",
    "city": "Vahle"
  },
  {
    "postcode": "37170",
    "city": "Verliehausen"
  },
  {
    "postcode": "37170",
    "city": "Volpriehausen"
  },
  {
    "postcode": "37170",
    "city": "Wiensen"
  },
  {
    "postcode": "37170",
    "city": "Northeim"
  },
  {
    "postcode": "37170",
    "city": "Solling (Landkreis Northeim)"
  },
  {
    "postcode": "37170",
    "city": "Offensen"
  },
  {
    "postcode": "37170",
    "city": "Allershausen"
  },
  {
    "postcode": "37170",
    "city": "Solling"
  },
  {
    "postcode": "37176",
    "city": "Angerstein"
  },
  {
    "postcode": "37176",
    "city": "Bishausen"
  },
  {
    "postcode": "37176",
    "city": "Elvese"
  },
  {
    "postcode": "37176",
    "city": "Lütgenrode"
  },
  {
    "postcode": "37176",
    "city": "Nörten-Hardenberg"
  },
  {
    "postcode": "37176",
    "city": "Parensen"
  },
  {
    "postcode": "37176",
    "city": "Sudershausen"
  },
  {
    "postcode": "37176",
    "city": "Wolbrechtshausen"
  },
  {
    "postcode": "37176",
    "city": "Northeim"
  },
  {
    "postcode": "37181",
    "city": "Asche"
  },
  {
    "postcode": "37181",
    "city": "Ellierode bei Uslar"
  },
  {
    "postcode": "37181",
    "city": "Ertinghausen"
  },
  {
    "postcode": "37181",
    "city": "Espol Försterei"
  },
  {
    "postcode": "37181",
    "city": "Espol"
  },
  {
    "postcode": "37181",
    "city": "Gladebeck"
  },
  {
    "postcode": "37181",
    "city": "Hardegsen"
  },
  {
    "postcode": "37181",
    "city": "Hettensen"
  },
  {
    "postcode": "37181",
    "city": "Hevensen"
  },
  {
    "postcode": "37181",
    "city": "Lichtenborn Niedersachsen"
  },
  {
    "postcode": "37181",
    "city": "Lichtenborn"
  },
  {
    "postcode": "37181",
    "city": "Lutterhausen über Northeim Han"
  },
  {
    "postcode": "37181",
    "city": "Lutterhausen über Northeim"
  },
  {
    "postcode": "37181",
    "city": "Trögen"
  },
  {
    "postcode": "37181",
    "city": "Üssinghausen"
  },
  {
    "postcode": "37181",
    "city": "Northeim"
  },
  {
    "postcode": "37181",
    "city": "Ellierode"
  },
  {
    "postcode": "37181",
    "city": "Lutterhausen"
  },
  {
    "postcode": "37181",
    "city": "Grube Hildasglück"
  },
  {
    "postcode": "37181",
    "city": "Ober Hevenser Mühle"
  },
  {
    "postcode": "37181",
    "city": "Siedlung Goseplack"
  },
  {
    "postcode": "37186",
    "city": "Behrensen Kreis Northeim"
  },
  {
    "postcode": "37186",
    "city": "Behrensen"
  },
  {
    "postcode": "37186",
    "city": "Blankenhagen Solling"
  },
  {
    "postcode": "37186",
    "city": "Blankenhagen"
  },
  {
    "postcode": "37186",
    "city": "Fredelsloh"
  },
  {
    "postcode": "37186",
    "city": "Großenrode"
  },
  {
    "postcode": "37186",
    "city": "Lutterbeck"
  },
  {
    "postcode": "37186",
    "city": "Moringen"
  },
  {
    "postcode": "37186",
    "city": "Nienhagen Solling"
  },
  {
    "postcode": "37186",
    "city": "Nienhagen"
  },
  {
    "postcode": "37186",
    "city": "Oldenrode Solling"
  },
  {
    "postcode": "37186",
    "city": "Oldenrode"
  },
  {
    "postcode": "37186",
    "city": "Thüdinghausen"
  },
  {
    "postcode": "37186",
    "city": "Northeim"
  },
  {
    "postcode": "37186",
    "city": "Kirchberg"
  },
  {
    "postcode": "37191",
    "city": "Berka"
  },
  {
    "postcode": "37191",
    "city": "Elvershausen"
  },
  {
    "postcode": "37191",
    "city": "Gillersheim"
  },
  {
    "postcode": "37191",
    "city": "Katlenburg"
  },
  {
    "postcode": "37191",
    "city": "Katlenburg-Lindau"
  },
  {
    "postcode": "37191",
    "city": "Lindau"
  },
  {
    "postcode": "37191",
    "city": "Suterode"
  },
  {
    "postcode": "37191",
    "city": "Wachenhausen"
  },
  {
    "postcode": "37191",
    "city": "Northeim"
  },
  {
    "postcode": "37194",
    "city": "Amelith"
  },
  {
    "postcode": "37194",
    "city": "Bodenfelde"
  },
  {
    "postcode": "37194",
    "city": "Lippoldsberg"
  },
  {
    "postcode": "37194",
    "city": "Nienover"
  },
  {
    "postcode": "37194",
    "city": "Polier über Uslar"
  },
  {
    "postcode": "37194",
    "city": "Vernawahlshausen"
  },
  {
    "postcode": "37194",
    "city": "Wahlsburg Weser"
  },
  {
    "postcode": "37194",
    "city": "Wahlsburg"
  },
  {
    "postcode": "37194",
    "city": "Wahmbeck Niedersachsen"
  },
  {
    "postcode": "37194",
    "city": "Wahmbeck"
  },
  {
    "postcode": "37194",
    "city": "Kassel"
  },
  {
    "postcode": "37194",
    "city": "Solling (Landkreis Northeim)"
  },
  {
    "postcode": "37194",
    "city": "Wesertal"
  },
  {
    "postcode": "37194",
    "city": "Polier"
  },
  {
    "postcode": "37194",
    "city": "Solling"
  },
  {
    "postcode": "37197",
    "city": "Hattorf am Harz"
  },
  {
    "postcode": "37197",
    "city": "Osterode am Harz"
  },
  {
    "postcode": "37199",
    "city": "Wulften am Harz"
  },
  {
    "postcode": "37199",
    "city": "Osterode am Harz"
  },
  {
    "postcode": "37199",
    "city": "Wulften"
  },
  {
    "postcode": "37213",
    "city": "Witzenhausen"
  },
  {
    "postcode": "37213",
    "city": "Werra-Meißner-Kreis"
  },
  {
    "postcode": "37214",
    "city": "Neuseesen"
  },
  {
    "postcode": "37214",
    "city": "Unterrieden Kreis Witzenhausen"
  },
  {
    "postcode": "37214",
    "city": "Unterrieden"
  },
  {
    "postcode": "37214",
    "city": "Werleshausen"
  },
  {
    "postcode": "37214",
    "city": "Witzenhausen"
  },
  {
    "postcode": "37214",
    "city": "Werra-Meißner-Kreis"
  },
  {
    "postcode": "37215",
    "city": "Hundelshausen Kreis Witzenhausen"
  },
  {
    "postcode": "37215",
    "city": "Hundelshausen"
  },
  {
    "postcode": "37215",
    "city": "Wendershausen Kreis Witzenhausen"
  },
  {
    "postcode": "37215",
    "city": "Wendershausen"
  },
  {
    "postcode": "37215",
    "city": "Witzenhausen"
  },
  {
    "postcode": "37215",
    "city": "Werra-Meißner-Kreis"
  },
  {
    "postcode": "37216",
    "city": "Dohrenbach"
  },
  {
    "postcode": "37216",
    "city": "Roßbach Kreis Witzenhausen"
  },
  {
    "postcode": "37216",
    "city": "Roßbach"
  },
  {
    "postcode": "37216",
    "city": "Witzenhausen"
  },
  {
    "postcode": "37216",
    "city": "Werra-Meißner-Kreis"
  },
  {
    "postcode": "37217",
    "city": "Blickershausen"
  },
  {
    "postcode": "37217",
    "city": "Ellingerode"
  },
  {
    "postcode": "37217",
    "city": "Ermschwerd"
  },
  {
    "postcode": "37217",
    "city": "Hubenrode"
  },
  {
    "postcode": "37217",
    "city": "Kleinalmerode"
  },
  {
    "postcode": "37217",
    "city": "Stiedenrode"
  },
  {
    "postcode": "37217",
    "city": "Witzenhausen"
  },
  {
    "postcode": "37217",
    "city": "Ziegenhagen Kreis Witzenhausen"
  },
  {
    "postcode": "37217",
    "city": "Ziegenhagen"
  },
  {
    "postcode": "37217",
    "city": "Werra-Meißner-Kreis"
  },
  {
    "postcode": "37217",
    "city": "Gutsbezirk Kaufunger Wald"
  },
  {
    "postcode": "37217",
    "city": "Unterrieden"
  },
  {
    "postcode": "37218",
    "city": "Albshausen Kreis Witzenhausen"
  },
  {
    "postcode": "37218",
    "city": "Albshausen"
  },
  {
    "postcode": "37218",
    "city": "Berlepsch-Ellerode"
  },
  {
    "postcode": "37218",
    "city": "Gertenbach"
  },
  {
    "postcode": "37218",
    "city": "Witzenhausen"
  },
  {
    "postcode": "37218",
    "city": "Werra-Meißner-Kreis"
  },
  {
    "postcode": "37235",
    "city": "Friedrichsbrück"
  },
  {
    "postcode": "37235",
    "city": "Fürstenhagen Hessen"
  },
  {
    "postcode": "37235",
    "city": "Fürstenhagen"
  },
  {
    "postcode": "37235",
    "city": "Hausen Kreis Witzenhausen"
  },
  {
    "postcode": "37235",
    "city": "Hausen"
  },
  {
    "postcode": "37235",
    "city": "Hessisch Lichtenau"
  },
  {
    "postcode": "37235",
    "city": "Hollstein"
  },
  {
    "postcode": "37235",
    "city": "Hopfelde"
  },
  {
    "postcode": "37235",
    "city": "Küchen"
  },
  {
    "postcode": "37235",
    "city": "Quentel"
  },
  {
    "postcode": "37235",
    "city": "Reichenbach bei Melsungen"
  },
  {
    "postcode": "37235",
    "city": "Retterode"
  },
  {
    "postcode": "37235",
    "city": "Velmeden Kreis Witzenhausen"
  },
  {
    "postcode": "37235",
    "city": "Velmeden"
  },
  {
    "postcode": "37235",
    "city": "Walburg Kreis Witzenhausen"
  },
  {
    "postcode": "37235",
    "city": "Walburg"
  },
  {
    "postcode": "37235",
    "city": "Wickersrode"
  },
  {
    "postcode": "37235",
    "city": "Werra-Meißner-Kreis"
  },
  {
    "postcode": "37235",
    "city": "Reichenbach"
  },
  {
    "postcode": "37242",
    "city": "Ahrenberg"
  },
  {
    "postcode": "37242",
    "city": "Bad Sooden-Allendorf"
  },
  {
    "postcode": "37242",
    "city": "Dudenrode"
  },
  {
    "postcode": "37242",
    "city": "Ellershausen Kreis Witzenhausen"
  },
  {
    "postcode": "37242",
    "city": "Ellershausen"
  },
  {
    "postcode": "37242",
    "city": "Hilgershausen Kreis Witzenhausen"
  },
  {
    "postcode": "37242",
    "city": "Hilgershausen"
  },
  {
    "postcode": "37242",
    "city": "Kammerbach"
  },
  {
    "postcode": "37242",
    "city": "Kleinvach"
  },
  {
    "postcode": "37242",
    "city": "Oberrieden Kreis Witzenhausen"
  },
  {
    "postcode": "37242",
    "city": "Oberrieden"
  },
  {
    "postcode": "37242",
    "city": "Orferode"
  },
  {
    "postcode": "37242",
    "city": "Weiden"
  },
  {
    "postcode": "37242",
    "city": "Werra-Meißner-Kreis"
  },
  {
    "postcode": "37242",
    "city": "Allendorf"
  },
  {
    "postcode": "37247",
    "city": "Epterode"
  },
  {
    "postcode": "37247",
    "city": "Großalmerode"
  },
  {
    "postcode": "37247",
    "city": "Laudenbach Kreis Witzenhausen"
  },
  {
    "postcode": "37247",
    "city": "Laudenbach"
  },
  {
    "postcode": "37247",
    "city": "Rommerode"
  },
  {
    "postcode": "37247",
    "city": "Trubenhausen"
  },
  {
    "postcode": "37247",
    "city": "Uengsterode"
  },
  {
    "postcode": "37247",
    "city": "Weißenbach Kreis Witzenhausen"
  },
  {
    "postcode": "37247",
    "city": "Weißenbach"
  },
  {
    "postcode": "37247",
    "city": "Werra-Meißner-Kreis"
  },
  {
    "postcode": "37249",
    "city": "Berge Kreis Witzenhausen"
  },
  {
    "postcode": "37249",
    "city": "Berge"
  },
  {
    "postcode": "37249",
    "city": "Eichenberg-Dorf"
  },
  {
    "postcode": "37249",
    "city": "Hebenshausen"
  },
  {
    "postcode": "37249",
    "city": "Hermannrode"
  },
  {
    "postcode": "37249",
    "city": "Marzhausen Kreis Witzenhausen"
  },
  {
    "postcode": "37249",
    "city": "Marzhausen"
  },
  {
    "postcode": "37249",
    "city": "Neu-Eichenberg"
  },
  {
    "postcode": "37249",
    "city": "Werra-Meißner-Kreis"
  },
  {
    "postcode": "37249",
    "city": "Eichenberg-Bahnhof"
  },
  {
    "postcode": "37269",
    "city": "Albungen"
  },
  {
    "postcode": "37269",
    "city": "Eltmannshausen"
  },
  {
    "postcode": "37269",
    "city": "Eschwege"
  },
  {
    "postcode": "37269",
    "city": "Niddawitzhausen"
  },
  {
    "postcode": "37269",
    "city": "Niederdünzebach"
  },
  {
    "postcode": "37269",
    "city": "Niederhone"
  },
  {
    "postcode": "37269",
    "city": "Oberdünzebach"
  },
  {
    "postcode": "37269",
    "city": "Oberhone"
  },
  {
    "postcode": "37269",
    "city": "Werra-Meißner-Kreis"
  },
  {
    "postcode": "37276",
    "city": "Frieda"
  },
  {
    "postcode": "37276",
    "city": "Grebendorf"
  },
  {
    "postcode": "37276",
    "city": "Hitzelrode"
  },
  {
    "postcode": "37276",
    "city": "Jestädt"
  },
  {
    "postcode": "37276",
    "city": "Meinhard bei Eschwege"
  },
  {
    "postcode": "37276",
    "city": "Motzenrode"
  },
  {
    "postcode": "37276",
    "city": "Neuerode"
  },
  {
    "postcode": "37276",
    "city": "Schwebda"
  },
  {
    "postcode": "37276",
    "city": "Werra-Meißner-Kreis"
  },
  {
    "postcode": "37276",
    "city": "Meinhard"
  },
  {
    "postcode": "37281",
    "city": "Altenburschla"
  },
  {
    "postcode": "37281",
    "city": "Aue Kreis Eschwege"
  },
  {
    "postcode": "37281",
    "city": "Aue"
  },
  {
    "postcode": "37281",
    "city": "Heldra"
  },
  {
    "postcode": "37281",
    "city": "Völkershausen Kreis Eschwege"
  },
  {
    "postcode": "37281",
    "city": "Völkershausen"
  },
  {
    "postcode": "37281",
    "city": "Wanfried"
  },
  {
    "postcode": "37281",
    "city": "Werra-Meißner-Kreis"
  },
  {
    "postcode": "37284",
    "city": "Bischhausen Kreis Eschwege"
  },
  {
    "postcode": "37284",
    "city": "Bischhausen"
  },
  {
    "postcode": "37284",
    "city": "Burghofen"
  },
  {
    "postcode": "37284",
    "city": "Eltmannsee"
  },
  {
    "postcode": "37284",
    "city": "Friemen"
  },
  {
    "postcode": "37284",
    "city": "Gehau bei Bebra"
  },
  {
    "postcode": "37284",
    "city": "Harmuthsachsen"
  },
  {
    "postcode": "37284",
    "city": "Hasselbach"
  },
  {
    "postcode": "37284",
    "city": "Hetzerode"
  },
  {
    "postcode": "37284",
    "city": "Kirchhosbach"
  },
  {
    "postcode": "37284",
    "city": "Mäckelsdorf"
  },
  {
    "postcode": "37284",
    "city": "Rechtebach"
  },
  {
    "postcode": "37284",
    "city": "Rodebach"
  },
  {
    "postcode": "37284",
    "city": "Schemmern"
  },
  {
    "postcode": "37284",
    "city": "Stolzhausen bei Bebra"
  },
  {
    "postcode": "37284",
    "city": "Waldkappel"
  },
  {
    "postcode": "37284",
    "city": "Werra-Meißner-Kreis"
  },
  {
    "postcode": "37284",
    "city": "Gehau"
  },
  {
    "postcode": "37284",
    "city": "Stolzhausen"
  },
  {
    "postcode": "37287",
    "city": "Hoheneiche Kreis Eschwege"
  },
  {
    "postcode": "37287",
    "city": "Hoheneiche"
  },
  {
    "postcode": "37287",
    "city": "Langenhain Kreis Eschwege"
  },
  {
    "postcode": "37287",
    "city": "Langenhain"
  },
  {
    "postcode": "37287",
    "city": "Oetmannshausen"
  },
  {
    "postcode": "37287",
    "city": "Reichensachsen"
  },
  {
    "postcode": "37287",
    "city": "Vierbach"
  },
  {
    "postcode": "37287",
    "city": "Wehretal"
  },
  {
    "postcode": "37287",
    "city": "Werra-Meißner-Kreis"
  },
  {
    "postcode": "37290",
    "city": "Abterode"
  },
  {
    "postcode": "37290",
    "city": "Alberode"
  },
  {
    "postcode": "37290",
    "city": "Germerode"
  },
  {
    "postcode": "37290",
    "city": "Meißner bei Eschwege"
  },
  {
    "postcode": "37290",
    "city": "Vockerode Kreis Eschwege"
  },
  {
    "postcode": "37290",
    "city": "Vockerode"
  },
  {
    "postcode": "37290",
    "city": "Weidenhausen Kreis Eschwege"
  },
  {
    "postcode": "37290",
    "city": "Weidenhausen"
  },
  {
    "postcode": "37290",
    "city": "Wellingerode"
  },
  {
    "postcode": "37290",
    "city": "Wolfterode"
  },
  {
    "postcode": "37290",
    "city": "Werra-Meißner-Kreis"
  },
  {
    "postcode": "37290",
    "city": "Meißner"
  },
  {
    "postcode": "37293",
    "city": "Altefeld"
  },
  {
    "postcode": "37293",
    "city": "Archfeld"
  },
  {
    "postcode": "37293",
    "city": "Breitzbach"
  },
  {
    "postcode": "37293",
    "city": "Herleshausen"
  },
  {
    "postcode": "37293",
    "city": "Holzhausen Kreis Eschwege"
  },
  {
    "postcode": "37293",
    "city": "Holzhausen"
  },
  {
    "postcode": "37293",
    "city": "Markershausen"
  },
  {
    "postcode": "37293",
    "city": "Nesselröden Kreis Eschwege"
  },
  {
    "postcode": "37293",
    "city": "Nesselröden"
  },
  {
    "postcode": "37293",
    "city": "Unhausen"
  },
  {
    "postcode": "37293",
    "city": "Willershausen Kreis Eschwege"
  },
  {
    "postcode": "37293",
    "city": "Willershausen"
  },
  {
    "postcode": "37293",
    "city": "Wommen"
  },
  {
    "postcode": "37293",
    "city": "Werra-Meißner-Kreis"
  },
  {
    "postcode": "37296",
    "city": "Datterode"
  },
  {
    "postcode": "37296",
    "city": "Grandenborn"
  },
  {
    "postcode": "37296",
    "city": "Lüderbach"
  },
  {
    "postcode": "37296",
    "city": "Netra"
  },
  {
    "postcode": "37296",
    "city": "Renda"
  },
  {
    "postcode": "37296",
    "city": "Ringgau"
  },
  {
    "postcode": "37296",
    "city": "Rittmannshausen"
  },
  {
    "postcode": "37296",
    "city": "Röhrda"
  },
  {
    "postcode": "37296",
    "city": "Werra-Meißner-Kreis"
  },
  {
    "postcode": "37297",
    "city": "Berkatal"
  },
  {
    "postcode": "37297",
    "city": "Frankenhain Kreis Eschwege"
  },
  {
    "postcode": "37297",
    "city": "Frankenhain"
  },
  {
    "postcode": "37297",
    "city": "Frankershausen"
  },
  {
    "postcode": "37297",
    "city": "Hitzerode"
  },
  {
    "postcode": "37297",
    "city": "Werra-Meißner-Kreis"
  },
  {
    "postcode": "37299",
    "city": "Rambach Kreis Eschwege"
  },
  {
    "postcode": "37299",
    "city": "Rambach"
  },
  {
    "postcode": "37299",
    "city": "Weißenborn"
  },
  {
    "postcode": "37299",
    "city": "Weißenborn bei Eschwege"
  },
  {
    "postcode": "37299",
    "city": "Werra-Meißner-Kreis"
  },
  {
    "postcode": "37308",
    "city": "Bernterode (bei Eichsfeld)"
  },
  {
    "postcode": "37308",
    "city": "Bernterode"
  },
  {
    "postcode": "37308",
    "city": "Bodenrode-Westhausen"
  },
  {
    "postcode": "37308",
    "city": "Geisleden"
  },
  {
    "postcode": "37308",
    "city": "Geismar Eichsfeld"
  },
  {
    "postcode": "37308",
    "city": "Geismar"
  },
  {
    "postcode": "37308",
    "city": "Glasehausen"
  },
  {
    "postcode": "37308",
    "city": "Heilbad Heiligenstadt"
  },
  {
    "postcode": "37308",
    "city": "Heuthen"
  },
  {
    "postcode": "37308",
    "city": "Hohes Kreuz"
  },
  {
    "postcode": "37308",
    "city": "Kella"
  },
  {
    "postcode": "37308",
    "city": "Krombach bei Heilbad Heiligenstadt"
  },
  {
    "postcode": "37308",
    "city": "Pfaffschwende"
  },
  {
    "postcode": "37308",
    "city": "Reinholterode"
  },
  {
    "postcode": "37308",
    "city": "Schimberg"
  },
  {
    "postcode": "37308",
    "city": "Sickerode"
  },
  {
    "postcode": "37308",
    "city": "Steinbach bei Heilbad Heiligenstadt"
  },
  {
    "postcode": "37308",
    "city": "Volkerode Eichsfeld"
  },
  {
    "postcode": "37308",
    "city": "Volkerode"
  },
  {
    "postcode": "37308",
    "city": "Wiesenfeld bei Heilbad Heiligenstadt"
  },
  {
    "postcode": "37308",
    "city": "Wingerode"
  },
  {
    "postcode": "37308",
    "city": "Eichsfeld"
  },
  {
    "postcode": "37308",
    "city": "Krombach"
  },
  {
    "postcode": "37308",
    "city": "Steinbach"
  },
  {
    "postcode": "37308",
    "city": "Wiesenfeld"
  },
  {
    "postcode": "37308",
    "city": "Westhausen"
  },
  {
    "postcode": "37308",
    "city": "Bodenrode"
  },
  {
    "postcode": "37308",
    "city": "Großtöpfer"
  },
  {
    "postcode": "37308",
    "city": "Bebendorf"
  },
  {
    "postcode": "37308",
    "city": "Döringsdorf"
  },
  {
    "postcode": "37308",
    "city": "Flinsberg"
  },
  {
    "postcode": "37308",
    "city": "Rengelrode"
  },
  {
    "postcode": "37308",
    "city": "Kalteneber"
  },
  {
    "postcode": "37308",
    "city": "Günterode"
  },
  {
    "postcode": "37308",
    "city": "Mengelrode"
  },
  {
    "postcode": "37308",
    "city": "Siemerode"
  },
  {
    "postcode": "37308",
    "city": "Bischhagen"
  },
  {
    "postcode": "37308",
    "city": "Streitholz"
  },
  {
    "postcode": "37308",
    "city": "Rüstungen"
  },
  {
    "postcode": "37308",
    "city": "Ershausen"
  },
  {
    "postcode": "37308",
    "city": "Martinfeld"
  },
  {
    "postcode": "37308",
    "city": "Wilbich"
  },
  {
    "postcode": "37308",
    "city": "Lehna"
  },
  {
    "postcode": "37308",
    "city": "Misserode"
  },
  {
    "postcode": "37318",
    "city": "Arenshausen"
  },
  {
    "postcode": "37318",
    "city": "Asbach-Sickenberg"
  },
  {
    "postcode": "37318",
    "city": "Bernterode (bei Eichsfeld)"
  },
  {
    "postcode": "37318",
    "city": "Bernterode"
  },
  {
    "postcode": "37318",
    "city": "Birkenfelde bei Heilbad Heiligenstadt"
  },
  {
    "postcode": "37318",
    "city": "Bornhagen"
  },
  {
    "postcode": "37318",
    "city": "Burgwalde"
  },
  {
    "postcode": "37318",
    "city": "Dieterode"
  },
  {
    "postcode": "37318",
    "city": "Dietzenrode"
  },
  {
    "postcode": "37318",
    "city": "Dietzenrode / Vatterode"
  },
  {
    "postcode": "37318",
    "city": "Eichstruth"
  },
  {
    "postcode": "37318",
    "city": "Freienhagen bei Heilbad Heiligenstadt"
  },
  {
    "postcode": "37318",
    "city": "Fretterode"
  },
  {
    "postcode": "37318",
    "city": "Gerbershausen"
  },
  {
    "postcode": "37318",
    "city": "Hohengandern"
  },
  {
    "postcode": "37318",
    "city": "Kirchgandern"
  },
  {
    "postcode": "37318",
    "city": "Lenterode"
  },
  {
    "postcode": "37318",
    "city": "Lindewerra"
  },
  {
    "postcode": "37318",
    "city": "Lutter bei Heilbad Heiligenstadt"
  },
  {
    "postcode": "37318",
    "city": "Mackenrode bei Heilbad Heiligenstadt"
  },
  {
    "postcode": "37318",
    "city": "Marth bei Uder"
  },
  {
    "postcode": "37318",
    "city": "Rohrberg bei Heilbad Heiligenstadt"
  },
  {
    "postcode": "37318",
    "city": "Röhrig"
  },
  {
    "postcode": "37318",
    "city": "Rustenfelde"
  },
  {
    "postcode": "37318",
    "city": "Schachtebich"
  },
  {
    "postcode": "37318",
    "city": "Schönhagen bei Heilbad Heiligenstadt"
  },
  {
    "postcode": "37318",
    "city": "Schwobfeld"
  },
  {
    "postcode": "37318",
    "city": "Steinheuterode"
  },
  {
    "postcode": "37318",
    "city": "Thalwenden"
  },
  {
    "postcode": "37318",
    "city": "Uder"
  },
  {
    "postcode": "37318",
    "city": "Vatterode"
  },
  {
    "postcode": "37318",
    "city": "Wahlhausen"
  },
  {
    "postcode": "37318",
    "city": "Wüstheuterode"
  },
  {
    "postcode": "37318",
    "city": "Eichsfeld"
  },
  {
    "postcode": "37318",
    "city": "Birkenfelde"
  },
  {
    "postcode": "37318",
    "city": "Dietzenrode/Vatterode"
  },
  {
    "postcode": "37318",
    "city": "Freienhagen"
  },
  {
    "postcode": "37318",
    "city": "Lutter"
  },
  {
    "postcode": "37318",
    "city": "Mackenrode"
  },
  {
    "postcode": "37318",
    "city": "Marth"
  },
  {
    "postcode": "37318",
    "city": "Rohrberg"
  },
  {
    "postcode": "37318",
    "city": "Schönhagen"
  },
  {
    "postcode": "37318",
    "city": "Asbach"
  },
  {
    "postcode": "37318",
    "city": "Sickenberg"
  },
  {
    "postcode": "37318",
    "city": "Fürstenhagen"
  },
  {
    "postcode": "37318",
    "city": "Weidenbach"
  },
  {
    "postcode": "37318",
    "city": "Schönau"
  },
  {
    "postcode": "37327",
    "city": "Breitenbach Eichsfeld"
  },
  {
    "postcode": "37327",
    "city": "Breitenbach"
  },
  {
    "postcode": "37327",
    "city": "Hausen Eichsfeld"
  },
  {
    "postcode": "37327",
    "city": "Hausen"
  },
  {
    "postcode": "37327",
    "city": "Kallmerode"
  },
  {
    "postcode": "37327",
    "city": "Leinefelde"
  },
  {
    "postcode": "37327",
    "city": "Leinefelde-Worbis"
  },
  {
    "postcode": "37327",
    "city": "Wingerode"
  },
  {
    "postcode": "37327",
    "city": "Eichsfeld"
  },
  {
    "postcode": "37327",
    "city": "Niederorschel"
  },
  {
    "postcode": "37327",
    "city": "Birkungen"
  },
  {
    "postcode": "37327",
    "city": "Breitenholz"
  },
  {
    "postcode": "37327",
    "city": "Beuren"
  },
  {
    "postcode": "37327",
    "city": "Beinrode"
  },
  {
    "postcode": "37339",
    "city": "Berlingerode"
  },
  {
    "postcode": "37339",
    "city": "Brehme"
  },
  {
    "postcode": "37339",
    "city": "Breitenworbis"
  },
  {
    "postcode": "37339",
    "city": "Buhla"
  },
  {
    "postcode": "37339",
    "city": "Ecklingerode"
  },
  {
    "postcode": "37339",
    "city": "Ferna"
  },
  {
    "postcode": "37339",
    "city": "Gernrode bei Leinefelde"
  },
  {
    "postcode": "37339",
    "city": "Haynrode"
  },
  {
    "postcode": "37339",
    "city": "Hundeshagen"
  },
  {
    "postcode": "37339",
    "city": "Kirchworbis"
  },
  {
    "postcode": "37339",
    "city": "Tastungen"
  },
  {
    "postcode": "37339",
    "city": "Teistungen"
  },
  {
    "postcode": "37339",
    "city": "Wehnde"
  },
  {
    "postcode": "37339",
    "city": "Wintzingerode"
  },
  {
    "postcode": "37339",
    "city": "Worbis"
  },
  {
    "postcode": "37339",
    "city": "Eichsfeld"
  },
  {
    "postcode": "37339",
    "city": "Böseckendorf"
  },
  {
    "postcode": "37339",
    "city": "Bleckenrode"
  },
  {
    "postcode": "37339",
    "city": "Gernrode"
  },
  {
    "postcode": "37339",
    "city": "Leinefelde-Worbis"
  },
  {
    "postcode": "37339",
    "city": "Neuendorf"
  },
  {
    "postcode": "37339",
    "city": "Bernterode"
  },
  {
    "postcode": "37339",
    "city": "Ascherode"
  },
  {
    "postcode": "37339",
    "city": "Adelsborn"
  },
  {
    "postcode": "37339",
    "city": "Kirchohmfeld"
  },
  {
    "postcode": "37339",
    "city": "Bodenstein"
  },
  {
    "postcode": "37339",
    "city": "Kaltohmfeld"
  },
  {
    "postcode": "37345",
    "city": "Bischofferode bei Leinefelde"
  },
  {
    "postcode": "37345",
    "city": "Bockelnhagen"
  },
  {
    "postcode": "37345",
    "city": "Großbodungen"
  },
  {
    "postcode": "37345",
    "city": "Holungen"
  },
  {
    "postcode": "37345",
    "city": "Jützenbach"
  },
  {
    "postcode": "37345",
    "city": "Neustadt bei Leinefelde"
  },
  {
    "postcode": "37345",
    "city": "Silkerode"
  },
  {
    "postcode": "37345",
    "city": "Steinrode bei Leinefelde"
  },
  {
    "postcode": "37345",
    "city": "Stöckey"
  },
  {
    "postcode": "37345",
    "city": "Weißenborn-Lüderode"
  },
  {
    "postcode": "37345",
    "city": "Zwinge"
  },
  {
    "postcode": "37345",
    "city": "Eichsfeld"
  },
  {
    "postcode": "37345",
    "city": "Am Ohmberg"
  },
  {
    "postcode": "37345",
    "city": "Sonnenstein"
  },
  {
    "postcode": "37345",
    "city": "Bischofferode"
  },
  {
    "postcode": "37345",
    "city": "Hauröden"
  },
  {
    "postcode": "37345",
    "city": "Neustadt"
  },
  {
    "postcode": "37345",
    "city": "Wallrode"
  },
  {
    "postcode": "37345",
    "city": "Neubleicherode"
  },
  {
    "postcode": "37345",
    "city": "Werningerode"
  },
  {
    "postcode": "37345",
    "city": "Gerode"
  },
  {
    "postcode": "37345",
    "city": "Epschenrode"
  },
  {
    "postcode": "37345",
    "city": "Weilrode"
  },
  {
    "postcode": "37351",
    "city": "Dingelstädt Eichsfeld"
  },
  {
    "postcode": "37351",
    "city": "Dingelstädt"
  },
  {
    "postcode": "37351",
    "city": "Helmsdorf bei Leinefelde"
  },
  {
    "postcode": "37351",
    "city": "Kefferhausen"
  },
  {
    "postcode": "37351",
    "city": "Kreuzebra"
  },
  {
    "postcode": "37351",
    "city": "Silberhausen"
  },
  {
    "postcode": "37351",
    "city": "Eichsfeld"
  },
  {
    "postcode": "37351",
    "city": "Helmsdorf"
  },
  {
    "postcode": "37355",
    "city": "Bernterode (bei Worbis)"
  },
  {
    "postcode": "37355",
    "city": "Bernterode"
  },
  {
    "postcode": "37355",
    "city": "Deuna"
  },
  {
    "postcode": "37355",
    "city": "Gerterode bei Niederorschel"
  },
  {
    "postcode": "37355",
    "city": "Kleinbartloff"
  },
  {
    "postcode": "37355",
    "city": "Niederorschel"
  },
  {
    "postcode": "37355",
    "city": "Vollenborn"
  },
  {
    "postcode": "37355",
    "city": "Eichsfeld"
  },
  {
    "postcode": "37355",
    "city": "Rüdigershagen"
  },
  {
    "postcode": "37355",
    "city": "Reifenstein"
  },
  {
    "postcode": "37355",
    "city": "Oberorschel"
  },
  {
    "postcode": "37359",
    "city": "Büttstedt"
  },
  {
    "postcode": "37359",
    "city": "Effelder bei Leinefelde"
  },
  {
    "postcode": "37359",
    "city": "Großbartloff"
  },
  {
    "postcode": "37359",
    "city": "Küllstedt"
  },
  {
    "postcode": "37359",
    "city": "Wachstedt"
  },
  {
    "postcode": "37359",
    "city": "Eichsfeld"
  },
  {
    "postcode": "37359",
    "city": "Effelder"
  },
  {
    "postcode": "37412",
    "city": "Aschenhütte Harz"
  },
  {
    "postcode": "37412",
    "city": "Aschenhütte"
  },
  {
    "postcode": "37412",
    "city": "Elbingerode Niedersachsen"
  },
  {
    "postcode": "37412",
    "city": "Elbingerode"
  },
  {
    "postcode": "37412",
    "city": "Herzberg am Harz"
  },
  {
    "postcode": "37412",
    "city": "Hörden am Harz"
  },
  {
    "postcode": "37412",
    "city": "Lonau"
  },
  {
    "postcode": "37412",
    "city": "Pöhlde"
  },
  {
    "postcode": "37412",
    "city": "Scharzfeld"
  },
  {
    "postcode": "37412",
    "city": "Sieber"
  },
  {
    "postcode": "37412",
    "city": "Osterode am Harz"
  },
  {
    "postcode": "37412",
    "city": "Herzberg"
  },
  {
    "postcode": "37431",
    "city": "Bad Lauterberg"
  },
  {
    "postcode": "37431",
    "city": "Bad Lauterberg im Harz"
  },
  {
    "postcode": "37431",
    "city": "Barbis"
  },
  {
    "postcode": "37431",
    "city": "Bartolfelde"
  },
  {
    "postcode": "37431",
    "city": "Osterhagen Harz"
  },
  {
    "postcode": "37431",
    "city": "Osterhagen"
  },
  {
    "postcode": "37431",
    "city": "Osterode am Harz"
  },
  {
    "postcode": "37431",
    "city": "Bühberg"
  },
  {
    "postcode": "37431",
    "city": "Königshagen"
  },
  {
    "postcode": "37431",
    "city": "Königshütte"
  },
  {
    "postcode": "37434",
    "city": "Bilshausen"
  },
  {
    "postcode": "37434",
    "city": "Bodensee"
  },
  {
    "postcode": "37434",
    "city": "Germershausen"
  },
  {
    "postcode": "37434",
    "city": "Gieboldehausen"
  },
  {
    "postcode": "37434",
    "city": "Krebeck"
  },
  {
    "postcode": "37434",
    "city": "Lütgenhausen"
  },
  {
    "postcode": "37434",
    "city": "Obernfeld"
  },
  {
    "postcode": "37434",
    "city": "Renshausen"
  },
  {
    "postcode": "37434",
    "city": "Rhumspringe"
  },
  {
    "postcode": "37434",
    "city": "Rollshausen"
  },
  {
    "postcode": "37434",
    "city": "Rollshausen Eichsfeld"
  },
  {
    "postcode": "37434",
    "city": "Rüdershausen Eichsfeld"
  },
  {
    "postcode": "37434",
    "city": "Rüdershausen"
  },
  {
    "postcode": "37434",
    "city": "Wollbrandshausen"
  },
  {
    "postcode": "37434",
    "city": "Wollershausen"
  },
  {
    "postcode": "37434",
    "city": "Göttingen"
  },
  {
    "postcode": "37434",
    "city": "An der Rhumequelle"
  },
  {
    "postcode": "37441",
    "city": "Bad Sachsa"
  },
  {
    "postcode": "37441",
    "city": "Neuhof Harz"
  },
  {
    "postcode": "37441",
    "city": "Neuhof"
  },
  {
    "postcode": "37441",
    "city": "Steina Südharz"
  },
  {
    "postcode": "37441",
    "city": "Steina"
  },
  {
    "postcode": "37441",
    "city": "Tettenborn"
  },
  {
    "postcode": "37441",
    "city": "Osterode am Harz"
  },
  {
    "postcode": "37441",
    "city": "Tettenborn-Kolonie"
  },
  {
    "postcode": "37444",
    "city": "Sankt Andreasberg"
  },
  {
    "postcode": "37444",
    "city": "Goslar"
  },
  {
    "postcode": "37444",
    "city": "Braunlage"
  },
  {
    "postcode": "37444",
    "city": "St. Andreasberg"
  },
  {
    "postcode": "37444",
    "city": "Silberhütte"
  },
  {
    "postcode": "37445",
    "city": "Walkenried"
  },
  {
    "postcode": "37445",
    "city": "Osterode am Harz"
  },
  {
    "postcode": "37445",
    "city": "Wieda"
  },
  {
    "postcode": "37445",
    "city": "Zorge"
  },
  {
    "postcode": "37447",
    "city": "Wieda"
  },
  {
    "postcode": "37447",
    "city": "Osterode am Harz"
  },
  {
    "postcode": "37449",
    "city": "Zorge"
  },
  {
    "postcode": "37449",
    "city": "Osterode am Harz"
  },
  {
    "postcode": "37520",
    "city": "Dorste Harz"
  },
  {
    "postcode": "37520",
    "city": "Dorste"
  },
  {
    "postcode": "37520",
    "city": "Düna"
  },
  {
    "postcode": "37520",
    "city": "Förste"
  },
  {
    "postcode": "37520",
    "city": "Freiheit am Harz"
  },
  {
    "postcode": "37520",
    "city": "Katzenstein"
  },
  {
    "postcode": "37520",
    "city": "Lasfelde"
  },
  {
    "postcode": "37520",
    "city": "Lerbach Harz"
  },
  {
    "postcode": "37520",
    "city": "Lerbach"
  },
  {
    "postcode": "37520",
    "city": "Marke Harz"
  },
  {
    "postcode": "37520",
    "city": "Marke"
  },
  {
    "postcode": "37520",
    "city": "Nienstedt am Harz"
  },
  {
    "postcode": "37520",
    "city": "Osterode"
  },
  {
    "postcode": "37520",
    "city": "Osterode am Harz"
  },
  {
    "postcode": "37520",
    "city": "Petershütte am Harz"
  },
  {
    "postcode": "37520",
    "city": "Schwiegershausen"
  },
  {
    "postcode": "37520",
    "city": "Ührde"
  },
  {
    "postcode": "37520",
    "city": "Herzberg"
  },
  {
    "postcode": "37520",
    "city": "Rehhagen"
  },
  {
    "postcode": "37520",
    "city": "Freiheit"
  },
  {
    "postcode": "37520",
    "city": "Nienstedt"
  },
  {
    "postcode": "37520",
    "city": "Riefensbeek-Kamschlacken"
  },
  {
    "postcode": "37520",
    "city": "Petershütte"
  },
  {
    "postcode": "37520",
    "city": "Harz (LK Göttingen) (Gemfr.)"
  },
  {
    "postcode": "37520",
    "city": "Landwehr"
  },
  {
    "postcode": "37520",
    "city": "Riefensbeek"
  },
  {
    "postcode": "37520",
    "city": "Harz"
  },
  {
    "postcode": "37534",
    "city": "Badenhausen Harz"
  },
  {
    "postcode": "37534",
    "city": "Badenhausen"
  },
  {
    "postcode": "37534",
    "city": "Eisdorf"
  },
  {
    "postcode": "37534",
    "city": "Eisdorf Harz"
  },
  {
    "postcode": "37534",
    "city": "Gittelde"
  },
  {
    "postcode": "37534",
    "city": "Neuhütte Harz"
  },
  {
    "postcode": "37534",
    "city": "Neuhütte"
  },
  {
    "postcode": "37534",
    "city": "Oberhütte Harz"
  },
  {
    "postcode": "37534",
    "city": "Oberhütte"
  },
  {
    "postcode": "37534",
    "city": "Teichhütte"
  },
  {
    "postcode": "37534",
    "city": "Willensen"
  },
  {
    "postcode": "37539",
    "city": "Bad Grund (Harz)"
  },
  {
    "postcode": "37539",
    "city": "Bad Grund"
  },
  {
    "postcode": "37539",
    "city": "Laubhütte Harz"
  },
  {
    "postcode": "37539",
    "city": "Laubhütte"
  },
  {
    "postcode": "37539",
    "city": "Windhausen Harz"
  },
  {
    "postcode": "37539",
    "city": "Windhausen"
  },
  {
    "postcode": "37539",
    "city": "Osterode am Harz"
  },
  {
    "postcode": "37539",
    "city": "Badenhausen"
  },
  {
    "postcode": "37539",
    "city": "Gittelde"
  },
  {
    "postcode": "37539",
    "city": "Teichhütte"
  },
  {
    "postcode": "37539",
    "city": "Eisdorf"
  },
  {
    "postcode": "37539",
    "city": "Willensen"
  },
  {
    "postcode": "37547",
    "city": "Ahlshausen"
  },
  {
    "postcode": "37547",
    "city": "Bentierode"
  },
  {
    "postcode": "37547",
    "city": "Beulshausen"
  },
  {
    "postcode": "37547",
    "city": "Billerbeck"
  },
  {
    "postcode": "37547",
    "city": "Erzhausen Kreis Gandersheim"
  },
  {
    "postcode": "37547",
    "city": "Erzhausen"
  },
  {
    "postcode": "37547",
    "city": "Garlebsen"
  },
  {
    "postcode": "37547",
    "city": "Greene bei Kreiensen"
  },
  {
    "postcode": "37547",
    "city": "Haieshausen"
  },
  {
    "postcode": "37547",
    "city": "Ippensen Kreis Gandersheim"
  },
  {
    "postcode": "37547",
    "city": "Ippensen"
  },
  {
    "postcode": "37547",
    "city": "Kreiensen"
  },
  {
    "postcode": "37547",
    "city": "Olxheim"
  },
  {
    "postcode": "37547",
    "city": "Opperhausen Kreis Gandersheim"
  },
  {
    "postcode": "37547",
    "city": "Opperhausen"
  },
  {
    "postcode": "37547",
    "city": "Orxhausen"
  },
  {
    "postcode": "37547",
    "city": "Osterbruch"
  },
  {
    "postcode": "37547",
    "city": "Rimmerode"
  },
  {
    "postcode": "37547",
    "city": "Rittierode"
  },
  {
    "postcode": "37547",
    "city": "Siedlung Leinetal"
  },
  {
    "postcode": "37547",
    "city": "Sievershausen"
  },
  {
    "postcode": "37574",
    "city": "Andershausen"
  },
  {
    "postcode": "37574",
    "city": "Avendshausen"
  },
  {
    "postcode": "37574",
    "city": "Bartshausen"
  },
  {
    "postcode": "37574",
    "city": "Brunsen"
  },
  {
    "postcode": "37574",
    "city": "Buensen bei Northeim"
  },
  {
    "postcode": "37574",
    "city": "Dassensen"
  },
  {
    "postcode": "37574",
    "city": "Dörrigsen"
  },
  {
    "postcode": "37574",
    "city": "Drüber"
  },
  {
    "postcode": "37574",
    "city": "Edemissen Kreis Einbeck"
  },
  {
    "postcode": "37574",
    "city": "Edemissen"
  },
  {
    "postcode": "37574",
    "city": "Einbeck"
  },
  {
    "postcode": "37574",
    "city": "Hallensen"
  },
  {
    "postcode": "37574",
    "city": "Holtensen Kreis Einbeck"
  },
  {
    "postcode": "37574",
    "city": "Holtensen"
  },
  {
    "postcode": "37574",
    "city": "Holtershausen"
  },
  {
    "postcode": "37574",
    "city": "Hullersen"
  },
  {
    "postcode": "37574",
    "city": "Iber Niedersachsen"
  },
  {
    "postcode": "37574",
    "city": "Iber"
  },
  {
    "postcode": "37574",
    "city": "Immensen Kreis Einbeck"
  },
  {
    "postcode": "37574",
    "city": "Immensen"
  },
  {
    "postcode": "37574",
    "city": "Kohnsen"
  },
  {
    "postcode": "37574",
    "city": "Kuventhal"
  },
  {
    "postcode": "37574",
    "city": "Naensen"
  },
  {
    "postcode": "37574",
    "city": "Negenborn Kreis Einbeck"
  },
  {
    "postcode": "37574",
    "city": "Negenborn"
  },
  {
    "postcode": "37574",
    "city": "Odagsen"
  },
  {
    "postcode": "37574",
    "city": "Pinkler"
  },
  {
    "postcode": "37574",
    "city": "Rengershausen Kreis Einbeck"
  },
  {
    "postcode": "37574",
    "city": "Rengershausen"
  },
  {
    "postcode": "37574",
    "city": "Rotenkirchen"
  },
  {
    "postcode": "37574",
    "city": "Salzderhelden"
  },
  {
    "postcode": "37574",
    "city": "Strodthagen"
  },
  {
    "postcode": "37574",
    "city": "Stroit"
  },
  {
    "postcode": "37574",
    "city": "Sülbeck bei Northeim"
  },
  {
    "postcode": "37574",
    "city": "Vardeilsen"
  },
  {
    "postcode": "37574",
    "city": "Vogelbeck"
  },
  {
    "postcode": "37574",
    "city": "Voldagsen Kreis Gandersheim"
  },
  {
    "postcode": "37574",
    "city": "Voldagsen"
  },
  {
    "postcode": "37574",
    "city": "Volksen Kreis Einbeck"
  },
  {
    "postcode": "37574",
    "city": "Volksen"
  },
  {
    "postcode": "37574",
    "city": "Wenzen Kreis Gandersheim"
  },
  {
    "postcode": "37574",
    "city": "Wenzen"
  },
  {
    "postcode": "37574",
    "city": "Northeim"
  },
  {
    "postcode": "37574",
    "city": "Kreiensen"
  },
  {
    "postcode": "37574",
    "city": "Ahlshausen"
  },
  {
    "postcode": "37574",
    "city": "Opperhausen"
  },
  {
    "postcode": "37574",
    "city": "Sülbeck"
  },
  {
    "postcode": "37574",
    "city": "Erzhausen"
  },
  {
    "postcode": "37574",
    "city": "Buensen"
  },
  {
    "postcode": "37574",
    "city": "Billerbeck"
  },
  {
    "postcode": "37574",
    "city": "Greene"
  },
  {
    "postcode": "37574",
    "city": "Bentierode"
  },
  {
    "postcode": "37574",
    "city": "Beulshausen"
  },
  {
    "postcode": "37574",
    "city": "Garlebsen"
  },
  {
    "postcode": "37574",
    "city": "Haieshausen"
  },
  {
    "postcode": "37574",
    "city": "Ippensen"
  },
  {
    "postcode": "37574",
    "city": "Olxheim"
  },
  {
    "postcode": "37574",
    "city": "Orxhausen"
  },
  {
    "postcode": "37574",
    "city": "Osterbruch"
  },
  {
    "postcode": "37574",
    "city": "Rimmerode"
  },
  {
    "postcode": "37574",
    "city": "Rittierode"
  },
  {
    "postcode": "37574",
    "city": "Siedlung Leinetal"
  },
  {
    "postcode": "37574",
    "city": "Sievershausen"
  },
  {
    "postcode": "37581",
    "city": "Ackenhausen"
  },
  {
    "postcode": "37581",
    "city": "Altgandersheim"
  },
  {
    "postcode": "37581",
    "city": "Bad Gandersheim"
  },
  {
    "postcode": "37581",
    "city": "Clus"
  },
  {
    "postcode": "37581",
    "city": "Dankelsheim"
  },
  {
    "postcode": "37581",
    "city": "Dannhausen bei Seesen"
  },
  {
    "postcode": "37581",
    "city": "Ellierode"
  },
  {
    "postcode": "37581",
    "city": "Gehrenrode"
  },
  {
    "postcode": "37581",
    "city": "Gremsheim"
  },
  {
    "postcode": "37581",
    "city": "Hachenhausen"
  },
  {
    "postcode": "37581",
    "city": "Harriehausen"
  },
  {
    "postcode": "37581",
    "city": "Heckenbeck"
  },
  {
    "postcode": "37581",
    "city": "Helmscherode"
  },
  {
    "postcode": "37581",
    "city": "Seboldshausen"
  },
  {
    "postcode": "37581",
    "city": "Wolperode"
  },
  {
    "postcode": "37581",
    "city": "Wrescherode"
  },
  {
    "postcode": "37581",
    "city": "Northeim"
  },
  {
    "postcode": "37581",
    "city": "Dannhausen"
  },
  {
    "postcode": "37581",
    "city": "Domäne Schachtenbeck"
  },
  {
    "postcode": "37581",
    "city": "Haus Probst"
  },
  {
    "postcode": "37581",
    "city": "Hebersiedlung"
  },
  {
    "postcode": "37581",
    "city": "Siedlung Ludolfsfeld"
  },
  {
    "postcode": "37581",
    "city": "Meinesiedlung"
  },
  {
    "postcode": "37581",
    "city": "Siedlung Schülerkamp"
  },
  {
    "postcode": "37586",
    "city": "Amelsen"
  },
  {
    "postcode": "37586",
    "city": "Dassel"
  },
  {
    "postcode": "37586",
    "city": "Dassel Solling"
  },
  {
    "postcode": "37586",
    "city": "Deitersen"
  },
  {
    "postcode": "37586",
    "city": "Eilensen"
  },
  {
    "postcode": "37586",
    "city": "Ellensen"
  },
  {
    "postcode": "37586",
    "city": "Hilwartshausen Solling"
  },
  {
    "postcode": "37586",
    "city": "Hilwartshausen"
  },
  {
    "postcode": "37586",
    "city": "Hoppensen"
  },
  {
    "postcode": "37586",
    "city": "Krimmensen"
  },
  {
    "postcode": "37586",
    "city": "Lauenberg"
  },
  {
    "postcode": "37586",
    "city": "Lüthorst"
  },
  {
    "postcode": "37586",
    "city": "Mackensen"
  },
  {
    "postcode": "37586",
    "city": "Markoldendorf"
  },
  {
    "postcode": "37586",
    "city": "Portenhagen"
  },
  {
    "postcode": "37586",
    "city": "Relliehausen"
  },
  {
    "postcode": "37586",
    "city": "Sievershausen"
  },
  {
    "postcode": "37586",
    "city": "Wellersen"
  },
  {
    "postcode": "37586",
    "city": "Northeim"
  },
  {
    "postcode": "37586",
    "city": "Solling (Landkreis Northeim)"
  },
  {
    "postcode": "37586",
    "city": "Hunnesrück"
  },
  {
    "postcode": "37586",
    "city": "Eisenhütte"
  },
  {
    "postcode": "37586",
    "city": "Solling"
  },
  {
    "postcode": "37589",
    "city": "Dögerode"
  },
  {
    "postcode": "37589",
    "city": "Düderode Harz"
  },
  {
    "postcode": "37589",
    "city": "Düderode"
  },
  {
    "postcode": "37589",
    "city": "Eboldshausen"
  },
  {
    "postcode": "37589",
    "city": "Echte"
  },
  {
    "postcode": "37589",
    "city": "Kalefeld"
  },
  {
    "postcode": "37589",
    "city": "Oldenrode Harz"
  },
  {
    "postcode": "37589",
    "city": "Oldenrode"
  },
  {
    "postcode": "37589",
    "city": "Oldershausen bei Northeim"
  },
  {
    "postcode": "37589",
    "city": "Sebexen"
  },
  {
    "postcode": "37589",
    "city": "Westerhof Westharz"
  },
  {
    "postcode": "37589",
    "city": "Westerhof"
  },
  {
    "postcode": "37589",
    "city": "Wiershausen Harz"
  },
  {
    "postcode": "37589",
    "city": "Wiershausen"
  },
  {
    "postcode": "37589",
    "city": "Willershausen Westharz"
  },
  {
    "postcode": "37589",
    "city": "Willershausen"
  },
  {
    "postcode": "37589",
    "city": "Northeim"
  },
  {
    "postcode": "37589",
    "city": "Oldershausen"
  },
  {
    "postcode": "37603",
    "city": "Fohlenplacken"
  },
  {
    "postcode": "37603",
    "city": "Holzminden"
  },
  {
    "postcode": "37603",
    "city": "Mühlenberg"
  },
  {
    "postcode": "37603",
    "city": "Neuhaus im Solling"
  },
  {
    "postcode": "37603",
    "city": "Silberborn"
  },
  {
    "postcode": "37603",
    "city": "Altenhagen"
  },
  {
    "postcode": "37603",
    "city": "Neuhaus"
  },
  {
    "postcode": "37603",
    "city": "Allersheim"
  },
  {
    "postcode": "37619",
    "city": "Bodenwerder"
  },
  {
    "postcode": "37619",
    "city": "Breitenkamp"
  },
  {
    "postcode": "37619",
    "city": "Brökeln"
  },
  {
    "postcode": "37619",
    "city": "Buchhagen"
  },
  {
    "postcode": "37619",
    "city": "Daspe"
  },
  {
    "postcode": "37619",
    "city": "Hehlen"
  },
  {
    "postcode": "37619",
    "city": "Hehlen bei Holzminden"
  },
  {
    "postcode": "37619",
    "city": "Heinrichshagen"
  },
  {
    "postcode": "37619",
    "city": "Heyen Kreis Holzminden"
  },
  {
    "postcode": "37619",
    "city": "Heyen"
  },
  {
    "postcode": "37619",
    "city": "Hohe"
  },
  {
    "postcode": "37619",
    "city": "Kemnade"
  },
  {
    "postcode": "37619",
    "city": "Kirchbrak"
  },
  {
    "postcode": "37619",
    "city": "Linse"
  },
  {
    "postcode": "37619",
    "city": "Pegestorf"
  },
  {
    "postcode": "37619",
    "city": "Rühle Oberweser"
  },
  {
    "postcode": "37619",
    "city": "Rühle"
  },
  {
    "postcode": "37619",
    "city": "Westerbrak"
  },
  {
    "postcode": "37619",
    "city": "Holzminden"
  },
  {
    "postcode": "37619",
    "city": "Osterbrak"
  },
  {
    "postcode": "37620",
    "city": "Halle"
  },
  {
    "postcode": "37620",
    "city": "Halle Kreis Holzminden"
  },
  {
    "postcode": "37620",
    "city": "Kreipke Kreis Holzminden"
  },
  {
    "postcode": "37620",
    "city": "Kreipke"
  },
  {
    "postcode": "37620",
    "city": "Holzminden"
  },
  {
    "postcode": "37620",
    "city": "Bremke"
  },
  {
    "postcode": "37620",
    "city": "Dohnsen"
  },
  {
    "postcode": "37620",
    "city": "Hunzen"
  },
  {
    "postcode": "37620",
    "city": "Tuchtfeld"
  },
  {
    "postcode": "37620",
    "city": "Wegensen"
  },
  {
    "postcode": "37627",
    "city": "Arholzen"
  },
  {
    "postcode": "37627",
    "city": "Braak Kreis Holzminden"
  },
  {
    "postcode": "37627",
    "city": "Braak"
  },
  {
    "postcode": "37627",
    "city": "Deensen"
  },
  {
    "postcode": "37627",
    "city": "Denkiehausen"
  },
  {
    "postcode": "37627",
    "city": "Emmerborn"
  },
  {
    "postcode": "37627",
    "city": "Heinade"
  },
  {
    "postcode": "37627",
    "city": "Hellental"
  },
  {
    "postcode": "37627",
    "city": "Lenne am Solling"
  },
  {
    "postcode": "37627",
    "city": "Lindenplan Niedersachsen"
  },
  {
    "postcode": "37627",
    "city": "Lindenplan"
  },
  {
    "postcode": "37627",
    "city": "Linnenkamp"
  },
  {
    "postcode": "37627",
    "city": "Merxhausen Solling"
  },
  {
    "postcode": "37627",
    "city": "Merxhausen"
  },
  {
    "postcode": "37627",
    "city": "Schorborn"
  },
  {
    "postcode": "37627",
    "city": "Stadtoldendorf"
  },
  {
    "postcode": "37627",
    "city": "Wangelnstedt"
  },
  {
    "postcode": "37627",
    "city": "Holzminden"
  },
  {
    "postcode": "37627",
    "city": "Lenne"
  },
  {
    "postcode": "37632",
    "city": "Eimen"
  },
  {
    "postcode": "37632",
    "city": "Eschershausen"
  },
  {
    "postcode": "37632",
    "city": "Eschershausen Ith"
  },
  {
    "postcode": "37632",
    "city": "Holzen"
  },
  {
    "postcode": "37632",
    "city": "Holzen Kreis Holzminden"
  },
  {
    "postcode": "37632",
    "city": "Mainzholzen"
  },
  {
    "postcode": "37632",
    "city": "Scharfoldendorf"
  },
  {
    "postcode": "37632",
    "city": "Vorwohle"
  },
  {
    "postcode": "37632",
    "city": "Wickensen"
  },
  {
    "postcode": "37632",
    "city": "Holzminden"
  },
  {
    "postcode": "37632",
    "city": "Lenne-Vorwohle"
  },
  {
    "postcode": "37632",
    "city": "Ith"
  },
  {
    "postcode": "37633",
    "city": "Dielmissen"
  },
  {
    "postcode": "37633",
    "city": "Holzminden"
  },
  {
    "postcode": "37635",
    "city": "Lüerdissen"
  },
  {
    "postcode": "37635",
    "city": "Lüererdissen am Ith"
  },
  {
    "postcode": "37635",
    "city": "Oelkassen"
  },
  {
    "postcode": "37635",
    "city": "Holzminden"
  },
  {
    "postcode": "37639",
    "city": "Bevern"
  },
  {
    "postcode": "37639",
    "city": "Bevern Kreis Holzminden"
  },
  {
    "postcode": "37639",
    "city": "Dölme"
  },
  {
    "postcode": "37639",
    "city": "Lobach"
  },
  {
    "postcode": "37639",
    "city": "Lütgenade"
  },
  {
    "postcode": "37639",
    "city": "Reileifzen"
  },
  {
    "postcode": "37639",
    "city": "Holzminden"
  },
  {
    "postcode": "37639",
    "city": "Brille"
  },
  {
    "postcode": "37640",
    "city": "Golmbach"
  },
  {
    "postcode": "37640",
    "city": "Warbsen"
  },
  {
    "postcode": "37640",
    "city": "Holzminden"
  },
  {
    "postcode": "37642",
    "city": "Holenberg"
  },
  {
    "postcode": "37642",
    "city": "Holzminden"
  },
  {
    "postcode": "37643",
    "city": "Negenborn bei Holzminden"
  },
  {
    "postcode": "37643",
    "city": "Holzminden"
  },
  {
    "postcode": "37643",
    "city": "Negenborn"
  },
  {
    "postcode": "37647",
    "city": "Brevörde"
  },
  {
    "postcode": "37647",
    "city": "Grave Kreis Holzminden"
  },
  {
    "postcode": "37647",
    "city": "Grave"
  },
  {
    "postcode": "37647",
    "city": "Heidbrink Domäne"
  },
  {
    "postcode": "37647",
    "city": "Heidbrink"
  },
  {
    "postcode": "37647",
    "city": "Meiborssen"
  },
  {
    "postcode": "37647",
    "city": "Polle Weser"
  },
  {
    "postcode": "37647",
    "city": "Polle"
  },
  {
    "postcode": "37647",
    "city": "Vahlbruch"
  },
  {
    "postcode": "37647",
    "city": "Holzminden"
  },
  {
    "postcode": "37647",
    "city": "Wilmeröderberg"
  },
  {
    "postcode": "37649",
    "city": "Heinsen Weser"
  },
  {
    "postcode": "37649",
    "city": "Heinsen"
  },
  {
    "postcode": "37649",
    "city": "Holzminden"
  },
  {
    "postcode": "37671",
    "city": "Albaxen"
  },
  {
    "postcode": "37671",
    "city": "Bödexen"
  },
  {
    "postcode": "37671",
    "city": "Bosseborn"
  },
  {
    "postcode": "37671",
    "city": "Brenkhausen Kreis Höxter"
  },
  {
    "postcode": "37671",
    "city": "Brenkhausen"
  },
  {
    "postcode": "37671",
    "city": "Bruchhausen"
  },
  {
    "postcode": "37671",
    "city": "Fürstenau Kreis Höxter"
  },
  {
    "postcode": "37671",
    "city": "Fürstenau"
  },
  {
    "postcode": "37671",
    "city": "Godelheim"
  },
  {
    "postcode": "37671",
    "city": "Höxter"
  },
  {
    "postcode": "37671",
    "city": "Lüchtringen"
  },
  {
    "postcode": "37671",
    "city": "Lütmarsen"
  },
  {
    "postcode": "37671",
    "city": "Ottbergen Kreis Höxter"
  },
  {
    "postcode": "37671",
    "city": "Ottbergen"
  },
  {
    "postcode": "37671",
    "city": "Ovenhausen"
  },
  {
    "postcode": "37671",
    "city": "Stahle Weserbergland"
  },
  {
    "postcode": "37671",
    "city": "Stahle"
  },
  {
    "postcode": "37688",
    "city": "Amelunxen"
  },
  {
    "postcode": "37688",
    "city": "Beverungen"
  },
  {
    "postcode": "37688",
    "city": "Blankenau Kreis Höxter"
  },
  {
    "postcode": "37688",
    "city": "Blankenau"
  },
  {
    "postcode": "37688",
    "city": "Dalhausen bei Warburg Westfalen"
  },
  {
    "postcode": "37688",
    "city": "Dalhausen bei Warburg"
  },
  {
    "postcode": "37688",
    "city": "Drenke"
  },
  {
    "postcode": "37688",
    "city": "Haarbrück"
  },
  {
    "postcode": "37688",
    "city": "Herstelle"
  },
  {
    "postcode": "37688",
    "city": "Jakobsberg Kreis Höxter"
  },
  {
    "postcode": "37688",
    "city": "Jakobsberg"
  },
  {
    "postcode": "37688",
    "city": "Rothe"
  },
  {
    "postcode": "37688",
    "city": "Tietelsen"
  },
  {
    "postcode": "37688",
    "city": "Wehrden Weser"
  },
  {
    "postcode": "37688",
    "city": "Wehrden"
  },
  {
    "postcode": "37688",
    "city": "Würgassen"
  },
  {
    "postcode": "37688",
    "city": "Höxter"
  },
  {
    "postcode": "37688",
    "city": "Dalhausen"
  },
  {
    "postcode": "37691",
    "city": "Boffzen"
  },
  {
    "postcode": "37691",
    "city": "Derental"
  },
  {
    "postcode": "37691",
    "city": "Rottmünde"
  },
  {
    "postcode": "37691",
    "city": "Holzminden"
  },
  {
    "postcode": "37691",
    "city": "Solling (Landkreis Northeim)"
  },
  {
    "postcode": "37691",
    "city": "Texas"
  },
  {
    "postcode": "37691",
    "city": "Solling"
  },
  {
    "postcode": "37696",
    "city": "Altenbergen Kreis Höxter"
  },
  {
    "postcode": "37696",
    "city": "Altenbergen"
  },
  {
    "postcode": "37696",
    "city": "Born bei Bad Pyrmont"
  },
  {
    "postcode": "37696",
    "city": "Bredenborn"
  },
  {
    "postcode": "37696",
    "city": "Bremerberg"
  },
  {
    "postcode": "37696",
    "city": "Eilversen"
  },
  {
    "postcode": "37696",
    "city": "Großenbreden"
  },
  {
    "postcode": "37696",
    "city": "Hohehaus"
  },
  {
    "postcode": "37696",
    "city": "Kleinenbreden"
  },
  {
    "postcode": "37696",
    "city": "Kollerbeck"
  },
  {
    "postcode": "37696",
    "city": "Löwendorf Kreis Höxter"
  },
  {
    "postcode": "37696",
    "city": "Löwendorf"
  },
  {
    "postcode": "37696",
    "city": "Marienmünster"
  },
  {
    "postcode": "37696",
    "city": "Münsterbrock"
  },
  {
    "postcode": "37696",
    "city": "Papenhöfen"
  },
  {
    "postcode": "37696",
    "city": "Vörden Kreis Höxter"
  },
  {
    "postcode": "37696",
    "city": "Vörden"
  },
  {
    "postcode": "37696",
    "city": "Höxter"
  },
  {
    "postcode": "37696",
    "city": "Born"
  },
  {
    "postcode": "37697",
    "city": "Lauenförde"
  },
  {
    "postcode": "37697",
    "city": "Meinbrexen"
  },
  {
    "postcode": "37697",
    "city": "Holzminden"
  },
  {
    "postcode": "37699",
    "city": "Fürstenberg Weser"
  },
  {
    "postcode": "37699",
    "city": "Fürstenberg"
  },
  {
    "postcode": "37699",
    "city": "Holzminden"
  }
]