[
  {
    "postcode": "3202",
    "city": "Luckow-Petershagen"
  },
  {
    "postcode": "3205",
    "city": "Bischdorf Niederlausitz"
  },
  {
    "postcode": "3205",
    "city": "Bischdorf"
  },
  {
    "postcode": "3205",
    "city": "Bolschwitz"
  },
  {
    "postcode": "3205",
    "city": "Bronkow"
  },
  {
    "postcode": "3205",
    "city": "Buckow"
  },
  {
    "postcode": "3205",
    "city": "Calau"
  },
  {
    "postcode": "3205",
    "city": "Craupe"
  },
  {
    "postcode": "3205",
    "city": "Gollmitz"
  },
  {
    "postcode": "3205",
    "city": "Gosda"
  },
  {
    "postcode": "3205",
    "city": "Groß Jehser"
  },
  {
    "postcode": "3205",
    "city": "Groß-Mehßow"
  },
  {
    "postcode": "3205",
    "city": "Kemmen"
  },
  {
    "postcode": "3205",
    "city": "Koßwig"
  },
  {
    "postcode": "3205",
    "city": "Laasow bei Calau"
  },
  {
    "postcode": "3205",
    "city": "Lipten"
  },
  {
    "postcode": "3205",
    "city": "Luckaitztal"
  },
  {
    "postcode": "3205",
    "city": "Lug Niederlausitz"
  },
  {
    "postcode": "3205",
    "city": "Lug"
  },
  {
    "postcode": "3205",
    "city": "Missen Niederlausitz"
  },
  {
    "postcode": "3205",
    "city": "Missen"
  },
  {
    "postcode": "3205",
    "city": "Mlode"
  },
  {
    "postcode": "3205",
    "city": "Ogrosen"
  },
  {
    "postcode": "3205",
    "city": "Saßleben"
  },
  {
    "postcode": "3205",
    "city": "Stradow"
  },
  {
    "postcode": "3205",
    "city": "Werchow"
  },
  {
    "postcode": "3205",
    "city": "Zinnitz"
  },
  {
    "postcode": "3205",
    "city": "Oberspreewald-Lausitz"
  },
  {
    "postcode": "3205",
    "city": "Amandusdorf"
  },
  {
    "postcode": "3205",
    "city": "Rutzkau"
  },
  {
    "postcode": "3205",
    "city": "Saadow"
  },
  {
    "postcode": "3205",
    "city": "Plieskendorf"
  },
  {
    "postcode": "3205",
    "city": "Reuden"
  },
  {
    "postcode": "3205",
    "city": "Cabel"
  },
  {
    "postcode": "3205",
    "city": "Kalkwitz"
  },
  {
    "postcode": "3205",
    "city": "Säritz"
  },
  {
    "postcode": "3205",
    "city": "Erlenau"
  },
  {
    "postcode": "3205",
    "city": "Groß Mehßow"
  },
  {
    "postcode": "3205",
    "city": "Klein Mehßow"
  },
  {
    "postcode": "3205",
    "city": "Rochusthal"
  },
  {
    "postcode": "3222",
    "city": "Bischdorf Niederlausitz"
  },
  {
    "postcode": "3222",
    "city": "Bischdorf"
  },
  {
    "postcode": "3222",
    "city": "Boblitz"
  },
  {
    "postcode": "3222",
    "city": "Groß Beuchow"
  },
  {
    "postcode": "3222",
    "city": "Groß Lübbenau"
  },
  {
    "postcode": "3222",
    "city": "Groß-Klessow"
  },
  {
    "postcode": "3222",
    "city": "Hindenberg bei Calau"
  },
  {
    "postcode": "3222",
    "city": "Kittlitz bei Lübbenau"
  },
  {
    "postcode": "3222",
    "city": "Klein Radden"
  },
  {
    "postcode": "3222",
    "city": "Leipe"
  },
  {
    "postcode": "3222",
    "city": "Lübbenau / Spreewald"
  },
  {
    "postcode": "3222",
    "city": "Lübbenau"
  },
  {
    "postcode": "3222",
    "city": "Ragow Spree"
  },
  {
    "postcode": "3222",
    "city": "Ragow"
  },
  {
    "postcode": "3222",
    "city": "Oberspreewald-Lausitz"
  },
  {
    "postcode": "3222",
    "city": "Lübbenau/Spreewald"
  },
  {
    "postcode": "3222",
    "city": "Groß Radden"
  },
  {
    "postcode": "3222",
    "city": "Zerkwitz"
  },
  {
    "postcode": "3222",
    "city": "Klein Beuchow"
  },
  {
    "postcode": "3222",
    "city": "Lehde"
  },
  {
    "postcode": "3222",
    "city": "Kittlitz"
  },
  {
    "postcode": "3222",
    "city": "Krimnitz"
  },
  {
    "postcode": "3222",
    "city": "Klein Klessow"
  },
  {
    "postcode": "3222",
    "city": "Hindenberg"
  },
  {
    "postcode": "3222",
    "city": "Eisdorf"
  },
  {
    "postcode": "3222",
    "city": "Groß Klessow"
  },
  {
    "postcode": "3222",
    "city": "Lichtenau"
  },
  {
    "postcode": "3222",
    "city": "Schönfeld Nord"
  },
  {
    "postcode": "3226",
    "city": "Göritz"
  },
  {
    "postcode": "3226",
    "city": "Groß Lübbenau"
  },
  {
    "postcode": "3226",
    "city": "Koßwig"
  },
  {
    "postcode": "3226",
    "city": "Laasow bei Calau"
  },
  {
    "postcode": "3226",
    "city": "Leipe"
  },
  {
    "postcode": "3226",
    "city": "Missen Niederlausitz"
  },
  {
    "postcode": "3226",
    "city": "Missen"
  },
  {
    "postcode": "3226",
    "city": "Naundorf"
  },
  {
    "postcode": "3226",
    "city": "Ogrosen"
  },
  {
    "postcode": "3226",
    "city": "Raddusch"
  },
  {
    "postcode": "3226",
    "city": "Repten"
  },
  {
    "postcode": "3226",
    "city": "Stradow"
  },
  {
    "postcode": "3226",
    "city": "Suschow"
  },
  {
    "postcode": "3226",
    "city": "Vetschau / Spreewald"
  },
  {
    "postcode": "3226",
    "city": "Vetschau"
  },
  {
    "postcode": "3226",
    "city": "Oberspreewald-Lausitz"
  },
  {
    "postcode": "3226",
    "city": "Vetschau/Spreewald"
  },
  {
    "postcode": "3226",
    "city": "Gahlen"
  },
  {
    "postcode": "3226",
    "city": "Laasow"
  },
  {
    "postcode": "3226",
    "city": "Lobendorf"
  },
  {
    "postcode": "3226",
    "city": "Briesen"
  },
  {
    "postcode": "3226",
    "city": "Belten"
  },
  {
    "postcode": "3226",
    "city": "Dubrau"
  },
  {
    "postcode": "3226",
    "city": "Fleißdorf"
  },
  {
    "postcode": "3226",
    "city": "Jehschen"
  },
  {
    "postcode": "3226",
    "city": "Wüstenhain"
  },
  {
    "postcode": "3229",
    "city": "Altdöbern"
  },
  {
    "postcode": "3229",
    "city": "Buchwäldchen Ziegelei"
  },
  {
    "postcode": "3229",
    "city": "Casel"
  },
  {
    "postcode": "3229",
    "city": "Luckaitztal"
  },
  {
    "postcode": "3229",
    "city": "Muckwar"
  },
  {
    "postcode": "3229",
    "city": "Ranzow"
  },
  {
    "postcode": "3229",
    "city": "Reddern"
  },
  {
    "postcode": "3229",
    "city": "Schöllnitz"
  },
  {
    "postcode": "3229",
    "city": "Oberspreewald-Lausitz"
  },
  {
    "postcode": "3229",
    "city": "Chransdorf"
  },
  {
    "postcode": "3229",
    "city": "Pritzen"
  },
  {
    "postcode": "3229",
    "city": "Peitzendorf"
  },
  {
    "postcode": "3229",
    "city": "Gosda"
  },
  {
    "postcode": "3229",
    "city": "Neu Döbern"
  },
  {
    "postcode": "3229",
    "city": "Buchwäldchen"
  },
  {
    "postcode": "3229",
    "city": "Zwietow"
  },
  {
    "postcode": "3238",
    "city": "Betten"
  },
  {
    "postcode": "3238",
    "city": "Dollenchen"
  },
  {
    "postcode": "3238",
    "city": "Eichholz Niederlausitz"
  },
  {
    "postcode": "3238",
    "city": "Eichholz"
  },
  {
    "postcode": "3238",
    "city": "Eichholz-Drößig"
  },
  {
    "postcode": "3238",
    "city": "Finsterwalde"
  },
  {
    "postcode": "3238",
    "city": "Fischwasser"
  },
  {
    "postcode": "3238",
    "city": "Göllnitz Niederlausitz"
  },
  {
    "postcode": "3238",
    "city": "Göllnitz"
  },
  {
    "postcode": "3238",
    "city": "Gorden"
  },
  {
    "postcode": "3238",
    "city": "Gorden-Staupitz"
  },
  {
    "postcode": "3238",
    "city": "Gröbitz Niederlausitz"
  },
  {
    "postcode": "3238",
    "city": "Gröbitz"
  },
  {
    "postcode": "3238",
    "city": "Gruhno"
  },
  {
    "postcode": "3238",
    "city": "Heideland Niederlausitz"
  },
  {
    "postcode": "3238",
    "city": "Heideland"
  },
  {
    "postcode": "3238",
    "city": "Lichterfeld"
  },
  {
    "postcode": "3238",
    "city": "Lichterfeld-Schacksdorf"
  },
  {
    "postcode": "3238",
    "city": "Lieskau Niederlausitz"
  },
  {
    "postcode": "3238",
    "city": "Lieskau"
  },
  {
    "postcode": "3238",
    "city": "Lindena"
  },
  {
    "postcode": "3238",
    "city": "Lindthal"
  },
  {
    "postcode": "3238",
    "city": "Lugau Niederlausitz"
  },
  {
    "postcode": "3238",
    "city": "Lugau"
  },
  {
    "postcode": "3238",
    "city": "Massen bei Finsterwalde"
  },
  {
    "postcode": "3238",
    "city": "Massen-Niederlausitz"
  },
  {
    "postcode": "3238",
    "city": "Münchhausen Niederlausitz"
  },
  {
    "postcode": "3238",
    "city": "Münchhausen"
  },
  {
    "postcode": "3238",
    "city": "Oppelhain"
  },
  {
    "postcode": "3238",
    "city": "Ponnsdorf"
  },
  {
    "postcode": "3238",
    "city": "Rückersdorf bei Doberlug-Kirchhain"
  },
  {
    "postcode": "3238",
    "city": "Sallgast"
  },
  {
    "postcode": "3238",
    "city": "Schacksdorf"
  },
  {
    "postcode": "3238",
    "city": "Schadewitz bei Finsterwalde"
  },
  {
    "postcode": "3238",
    "city": "Schönewalde Niederlausitz"
  },
  {
    "postcode": "3238",
    "city": "Schönewalde"
  },
  {
    "postcode": "3238",
    "city": "Sorno"
  },
  {
    "postcode": "3238",
    "city": "Staupitz Niederlausitz"
  },
  {
    "postcode": "3238",
    "city": "Staupitz"
  },
  {
    "postcode": "3238",
    "city": "Elbe-Elster"
  },
  {
    "postcode": "3238",
    "city": "Massen"
  },
  {
    "postcode": "3238",
    "city": "Rückersdorf"
  },
  {
    "postcode": "3238",
    "city": "Zürchel"
  },
  {
    "postcode": "3238",
    "city": "Pechhütte"
  },
  {
    "postcode": "3238",
    "city": "Drößig"
  },
  {
    "postcode": "3238",
    "city": "Theresienhütte"
  },
  {
    "postcode": "3238",
    "city": "Tanneberg"
  },
  {
    "postcode": "3238",
    "city": "Friedersdorf"
  },
  {
    "postcode": "3238",
    "city": "Klingmühl"
  },
  {
    "postcode": "3238",
    "city": "Henriette"
  },
  {
    "postcode": "3238",
    "city": "Poley"
  },
  {
    "postcode": "3238",
    "city": "Siedlung Luise"
  },
  {
    "postcode": "3246",
    "city": "Babben"
  },
  {
    "postcode": "3246",
    "city": "Crinitz"
  },
  {
    "postcode": "3246",
    "city": "Fürstlich Drehna"
  },
  {
    "postcode": "3246",
    "city": "Gahro"
  },
  {
    "postcode": "3246",
    "city": "Elbe-Elster"
  },
  {
    "postcode": "3249",
    "city": "Bahren Niederlausitz"
  },
  {
    "postcode": "3249",
    "city": "Bahren"
  },
  {
    "postcode": "3249",
    "city": "Breitenau Niederlausitz"
  },
  {
    "postcode": "3249",
    "city": "Breitenau"
  },
  {
    "postcode": "3249",
    "city": "Brenitz bei Sonnewalde"
  },
  {
    "postcode": "3249",
    "city": "Friedersdorf Niederlausitz"
  },
  {
    "postcode": "3249",
    "city": "Friedersdorf"
  },
  {
    "postcode": "3249",
    "city": "Goßmar bei Sonnewalde"
  },
  {
    "postcode": "3249",
    "city": "Großkrausnik"
  },
  {
    "postcode": "3249",
    "city": "Kleinkrausnik"
  },
  {
    "postcode": "3249",
    "city": "Münchhausen Niederlausitz"
  },
  {
    "postcode": "3249",
    "city": "Münchhausen"
  },
  {
    "postcode": "3249",
    "city": "Pahlsdorf"
  },
  {
    "postcode": "3249",
    "city": "Sonnewalde"
  },
  {
    "postcode": "3249",
    "city": "Zeckerin"
  },
  {
    "postcode": "3249",
    "city": "Elbe-Elster"
  },
  {
    "postcode": "3249",
    "city": "Brenitz"
  },
  {
    "postcode": "3249",
    "city": "Goßmar"
  },
  {
    "postcode": "3249",
    "city": "Großbahren"
  },
  {
    "postcode": "3249",
    "city": "Schönewalde"
  },
  {
    "postcode": "3249",
    "city": "Dabern"
  },
  {
    "postcode": "3249",
    "city": "Ossak"
  },
  {
    "postcode": "3249",
    "city": "Kleinbahren"
  },
  {
    "postcode": "3249",
    "city": "Birkwalde"
  },
  {
    "postcode": "3249",
    "city": "Möllendorf"
  },
  {
    "postcode": "3249",
    "city": "Pießig"
  },
  {
    "postcode": "3253",
    "city": "Arenzhain"
  },
  {
    "postcode": "3253",
    "city": "Brenitz bei Sonnewalde"
  },
  {
    "postcode": "3253",
    "city": "Buchhain"
  },
  {
    "postcode": "3253",
    "city": "Doberlug-Kirchhain"
  },
  {
    "postcode": "3253",
    "city": "Dübrichen"
  },
  {
    "postcode": "3253",
    "city": "Frankena"
  },
  {
    "postcode": "3253",
    "city": "Friedersdorf Niederlausitz"
  },
  {
    "postcode": "3253",
    "city": "Friedersdorf"
  },
  {
    "postcode": "3253",
    "city": "Gruhno"
  },
  {
    "postcode": "3253",
    "city": "Hennersdorf bei Doberlug-Kirchhain"
  },
  {
    "postcode": "3253",
    "city": "Lindena"
  },
  {
    "postcode": "3253",
    "city": "Nexdorf"
  },
  {
    "postcode": "3253",
    "city": "Prießen"
  },
  {
    "postcode": "3253",
    "city": "Schadewitz bei Finsterwalde"
  },
  {
    "postcode": "3253",
    "city": "Schilda"
  },
  {
    "postcode": "3253",
    "city": "Schönborn Niederlausitz"
  },
  {
    "postcode": "3253",
    "city": "Schönborn"
  },
  {
    "postcode": "3253",
    "city": "Schönewalde bei Herzberg Elster"
  },
  {
    "postcode": "3253",
    "city": "Schönewalde bei Herzberg"
  },
  {
    "postcode": "3253",
    "city": "Schönewalde Niederlausitz"
  },
  {
    "postcode": "3253",
    "city": "Schönewalde"
  },
  {
    "postcode": "3253",
    "city": "Trebbus"
  },
  {
    "postcode": "3253",
    "city": "Tröbitz"
  },
  {
    "postcode": "3253",
    "city": "Werenzhain"
  },
  {
    "postcode": "3253",
    "city": "Elbe-Elster"
  },
  {
    "postcode": "3253",
    "city": "Lugau"
  },
  {
    "postcode": "3253",
    "city": "Hennersdorf"
  },
  {
    "postcode": "3253",
    "city": "Lichtena"
  },
  {
    "postcode": "3253",
    "city": "Schadewitz"
  },
  {
    "postcode": "32049",
    "city": "Falkendiek"
  },
  {
    "postcode": "32049",
    "city": "Herford"
  },
  {
    "postcode": "32049",
    "city": "Schwarzenmoor"
  },
  {
    "postcode": "32049",
    "city": "Innenstadt"
  },
  {
    "postcode": "32051",
    "city": "Diebrock"
  },
  {
    "postcode": "32051",
    "city": "Eickum"
  },
  {
    "postcode": "32051",
    "city": "Herford"
  },
  {
    "postcode": "32051",
    "city": "Laar"
  },
  {
    "postcode": "32051",
    "city": "Stedefreund"
  },
  {
    "postcode": "32051",
    "city": "Bielefeld"
  },
  {
    "postcode": "32051",
    "city": "Innenstadt"
  },
  {
    "postcode": "32051",
    "city": "Herringhausen"
  },
  {
    "postcode": "32051",
    "city": "Niedereickum"
  },
  {
    "postcode": "32052",
    "city": "Elverdissen"
  },
  {
    "postcode": "32052",
    "city": "Herford"
  },
  {
    "postcode": "32052",
    "city": "Schwarzenmoor"
  },
  {
    "postcode": "32052",
    "city": "Innenstadt"
  },
  {
    "postcode": "32052",
    "city": "Herforder Heide"
  },
  {
    "postcode": "32105",
    "city": "Bad Salzuflen"
  },
  {
    "postcode": "32105",
    "city": "Schötmar"
  },
  {
    "postcode": "32105",
    "city": "Lippe"
  },
  {
    "postcode": "32105",
    "city": "Innenstadt"
  },
  {
    "postcode": "32107",
    "city": "Bad Salzuflen"
  },
  {
    "postcode": "32107",
    "city": "Biemsen-Ahmsen"
  },
  {
    "postcode": "32107",
    "city": "Grastrup-Hölsen Lippe"
  },
  {
    "postcode": "32107",
    "city": "Grastrup-Hölsen"
  },
  {
    "postcode": "32107",
    "city": "Holzhausen Lippe"
  },
  {
    "postcode": "32107",
    "city": "Holzhausen"
  },
  {
    "postcode": "32107",
    "city": "Lockhausen über Herford"
  },
  {
    "postcode": "32107",
    "city": "Schötmar"
  },
  {
    "postcode": "32107",
    "city": "Werl-Aspe"
  },
  {
    "postcode": "32107",
    "city": "Wülfer-Bexten"
  },
  {
    "postcode": "32107",
    "city": "Lippe"
  },
  {
    "postcode": "32107",
    "city": "Lockhausen"
  },
  {
    "postcode": "32107",
    "city": "Wülfer"
  },
  {
    "postcode": "32107",
    "city": "Kusenbaum"
  },
  {
    "postcode": "32107",
    "city": "Sylbach"
  },
  {
    "postcode": "32108",
    "city": "Bad Salzuflen"
  },
  {
    "postcode": "32108",
    "city": "Ehrsen-Breden"
  },
  {
    "postcode": "32108",
    "city": "Grastrup-Hölsen Lippe"
  },
  {
    "postcode": "32108",
    "city": "Grastrup-Hölsen"
  },
  {
    "postcode": "32108",
    "city": "Holzhausen Lippe"
  },
  {
    "postcode": "32108",
    "city": "Holzhausen"
  },
  {
    "postcode": "32108",
    "city": "Retzen über Lage Lippe"
  },
  {
    "postcode": "32108",
    "city": "Retzen über Lage"
  },
  {
    "postcode": "32108",
    "city": "Schötmar"
  },
  {
    "postcode": "32108",
    "city": "Wüsten über Herford"
  },
  {
    "postcode": "32108",
    "city": "Lippe"
  },
  {
    "postcode": "32108",
    "city": "Wüsten"
  },
  {
    "postcode": "32108",
    "city": "Retzen"
  },
  {
    "postcode": "32108",
    "city": "Papenhausen"
  },
  {
    "postcode": "32108",
    "city": "Grastrup"
  },
  {
    "postcode": "32108",
    "city": "Innenstadt"
  },
  {
    "postcode": "32108",
    "city": "Hölserheide"
  },
  {
    "postcode": "32120",
    "city": "Eilshausen Kreis Herford"
  },
  {
    "postcode": "32120",
    "city": "Eilshausen"
  },
  {
    "postcode": "32120",
    "city": "Hiddenhausen"
  },
  {
    "postcode": "32120",
    "city": "Lippinghausen"
  },
  {
    "postcode": "32120",
    "city": "Oetinghausen"
  },
  {
    "postcode": "32120",
    "city": "Schweicheln"
  },
  {
    "postcode": "32120",
    "city": "Sundern bei Herford"
  },
  {
    "postcode": "32120",
    "city": "Herford"
  },
  {
    "postcode": "32120",
    "city": "Schweicheln-Bermbeck"
  },
  {
    "postcode": "32120",
    "city": "Sundern"
  },
  {
    "postcode": "32130",
    "city": "Besenkamp Kreis Herford"
  },
  {
    "postcode": "32130",
    "city": "Besenkamp"
  },
  {
    "postcode": "32130",
    "city": "Dreyen"
  },
  {
    "postcode": "32130",
    "city": "Enger"
  },
  {
    "postcode": "32130",
    "city": "Enger Westfalen"
  },
  {
    "postcode": "32130",
    "city": "Herringhausen"
  },
  {
    "postcode": "32130",
    "city": "Oldinghausen Kreis Herford"
  },
  {
    "postcode": "32130",
    "city": "Oldinghausen"
  },
  {
    "postcode": "32130",
    "city": "Pödinghausen"
  },
  {
    "postcode": "32130",
    "city": "Siele Kreis Herford"
  },
  {
    "postcode": "32130",
    "city": "Siele"
  },
  {
    "postcode": "32130",
    "city": "Herford"
  },
  {
    "postcode": "32130",
    "city": "Westerenger"
  },
  {
    "postcode": "32130",
    "city": "Belke-Steinbeck"
  },
  {
    "postcode": "32130",
    "city": "Klausheide"
  },
  {
    "postcode": "32139",
    "city": "Spenge"
  },
  {
    "postcode": "32139",
    "city": "Wallenbrück Kreis Herford"
  },
  {
    "postcode": "32139",
    "city": "Wallenbrück"
  },
  {
    "postcode": "32139",
    "city": "Herford"
  },
  {
    "postcode": "32139",
    "city": "Lenzinghausen"
  },
  {
    "postcode": "32139",
    "city": "Bardüttingdorf"
  },
  {
    "postcode": "32139",
    "city": "Hücker-Aschen"
  },
  {
    "postcode": "32139",
    "city": "Hückerkreuz"
  },
  {
    "postcode": "32139",
    "city": "Klein-Aschen"
  },
  {
    "postcode": "32139",
    "city": "Helligerheide"
  },
  {
    "postcode": "32139",
    "city": "Mantershagen"
  },
  {
    "postcode": "32257",
    "city": "Ahle bei Bünde Westfalen"
  },
  {
    "postcode": "32257",
    "city": "Ahle bei Bünde"
  },
  {
    "postcode": "32257",
    "city": "Bünde"
  },
  {
    "postcode": "32257",
    "city": "Bustedt"
  },
  {
    "postcode": "32257",
    "city": "Dünne"
  },
  {
    "postcode": "32257",
    "city": "Ennigloh"
  },
  {
    "postcode": "32257",
    "city": "Holsen bei Bünde"
  },
  {
    "postcode": "32257",
    "city": "Hunnebrock"
  },
  {
    "postcode": "32257",
    "city": "Muckum"
  },
  {
    "postcode": "32257",
    "city": "Spradow"
  },
  {
    "postcode": "32257",
    "city": "Werfen"
  },
  {
    "postcode": "32257",
    "city": "Herford"
  },
  {
    "postcode": "32257",
    "city": "Ahle"
  },
  {
    "postcode": "32257",
    "city": "Holsen"
  },
  {
    "postcode": "32257",
    "city": "Südlengern"
  },
  {
    "postcode": "32257",
    "city": "Hüffen"
  },
  {
    "postcode": "32257",
    "city": "Südholz"
  },
  {
    "postcode": "32278",
    "city": "Häver Westfalen"
  },
  {
    "postcode": "32278",
    "city": "Häver"
  },
  {
    "postcode": "32278",
    "city": "Kirchlengern"
  },
  {
    "postcode": "32278",
    "city": "Klosterbauerschaft"
  },
  {
    "postcode": "32278",
    "city": "Rehmerloh"
  },
  {
    "postcode": "32278",
    "city": "Stift Quernheim"
  },
  {
    "postcode": "32278",
    "city": "Südlengern"
  },
  {
    "postcode": "32278",
    "city": "Herford"
  },
  {
    "postcode": "32278",
    "city": "Quernheim"
  },
  {
    "postcode": "32278",
    "city": "Voßbrink"
  },
  {
    "postcode": "32289",
    "city": "Bieren Westfalen"
  },
  {
    "postcode": "32289",
    "city": "Bieren"
  },
  {
    "postcode": "32289",
    "city": "Bruchmühlen Westfalen"
  },
  {
    "postcode": "32289",
    "city": "Bruchmühlen"
  },
  {
    "postcode": "32289",
    "city": "Ostkilver"
  },
  {
    "postcode": "32289",
    "city": "Rödinghausen"
  },
  {
    "postcode": "32289",
    "city": "Rödinghausen Westfalen"
  },
  {
    "postcode": "32289",
    "city": "Schwenningdorf Westfalen"
  },
  {
    "postcode": "32289",
    "city": "Schwenningdorf"
  },
  {
    "postcode": "32289",
    "city": "Stadt Melle"
  },
  {
    "postcode": "32289",
    "city": "Herford"
  },
  {
    "postcode": "32289",
    "city": "Wehmerhorst"
  },
  {
    "postcode": "32289",
    "city": "Heidwinkel"
  },
  {
    "postcode": "32289",
    "city": "Rüschen"
  },
  {
    "postcode": "32289",
    "city": "Stukenhöfen"
  },
  {
    "postcode": "32289",
    "city": "Westkilver"
  },
  {
    "postcode": "32289",
    "city": "Siedlung Heimlake"
  },
  {
    "postcode": "32312",
    "city": "Alswede"
  },
  {
    "postcode": "32312",
    "city": "Blasheim"
  },
  {
    "postcode": "32312",
    "city": "Eilhausen Kreis Lübbecke Westfalen"
  },
  {
    "postcode": "32312",
    "city": "Eilhausen"
  },
  {
    "postcode": "32312",
    "city": "Gehlenbeck Kreis Lübbecke Westfalen"
  },
  {
    "postcode": "32312",
    "city": "Gehlenbeck"
  },
  {
    "postcode": "32312",
    "city": "Lübbecke"
  },
  {
    "postcode": "32312",
    "city": "Lübbecke Westfalen"
  },
  {
    "postcode": "32312",
    "city": "Nettelstedt Kreis Lübbecke Westfalen"
  },
  {
    "postcode": "32312",
    "city": "Nettelstedt"
  },
  {
    "postcode": "32312",
    "city": "Obermehnen"
  },
  {
    "postcode": "32312",
    "city": "Obernfelde Westfalen"
  },
  {
    "postcode": "32312",
    "city": "Obernfelde"
  },
  {
    "postcode": "32312",
    "city": "Stockhausen"
  },
  {
    "postcode": "32312",
    "city": "Minden-Lübbecke"
  },
  {
    "postcode": "32312",
    "city": "Steimke"
  },
  {
    "postcode": "32339",
    "city": "Espelkamp"
  },
  {
    "postcode": "32339",
    "city": "Fabbenstedt"
  },
  {
    "postcode": "32339",
    "city": "Fiestel"
  },
  {
    "postcode": "32339",
    "city": "Frotheim"
  },
  {
    "postcode": "32339",
    "city": "Gestringen"
  },
  {
    "postcode": "32339",
    "city": "Isenstedt Kreis Lübbecke Westfalen"
  },
  {
    "postcode": "32339",
    "city": "Isenstedt"
  },
  {
    "postcode": "32339",
    "city": "Schmalge"
  },
  {
    "postcode": "32339",
    "city": "Vehlage"
  },
  {
    "postcode": "32339",
    "city": "Minden-Lübbecke"
  },
  {
    "postcode": "32339",
    "city": "Alt-Espelkamp"
  },
  {
    "postcode": "32339",
    "city": "Altgemeinde"
  },
  {
    "postcode": "32339",
    "city": "Gem Preußisch Oldendorf"
  },
  {
    "postcode": "32351",
    "city": "Arrenkamp Kreis Lübbecke Westfalen"
  },
  {
    "postcode": "32351",
    "city": "Arrenkamp"
  },
  {
    "postcode": "32351",
    "city": "Destel"
  },
  {
    "postcode": "32351",
    "city": "Dielingen"
  },
  {
    "postcode": "32351",
    "city": "Drohne"
  },
  {
    "postcode": "32351",
    "city": "Haldem Kreis Lübbecke Westfalen"
  },
  {
    "postcode": "32351",
    "city": "Haldem"
  },
  {
    "postcode": "32351",
    "city": "Levern"
  },
  {
    "postcode": "32351",
    "city": "Niedermehnen"
  },
  {
    "postcode": "32351",
    "city": "Oppendorf"
  },
  {
    "postcode": "32351",
    "city": "Oppenwehe"
  },
  {
    "postcode": "32351",
    "city": "Stemwede"
  },
  {
    "postcode": "32351",
    "city": "Sundern"
  },
  {
    "postcode": "32351",
    "city": "Twiehausen"
  },
  {
    "postcode": "32351",
    "city": "Wehdem Kreis Lübbecke Westfalen"
  },
  {
    "postcode": "32351",
    "city": "Wehdem"
  },
  {
    "postcode": "32351",
    "city": "Minden-Lübbecke"
  },
  {
    "postcode": "32351",
    "city": "Westrup"
  },
  {
    "postcode": "32351",
    "city": "Berkenbüschen"
  },
  {
    "postcode": "32351",
    "city": "Mesenkamp"
  },
  {
    "postcode": "32351",
    "city": "Gem Bad Essen"
  },
  {
    "postcode": "32361",
    "city": "Börninghausen"
  },
  {
    "postcode": "32361",
    "city": "Engershausen"
  },
  {
    "postcode": "32361",
    "city": "Getmold"
  },
  {
    "postcode": "32361",
    "city": "Harlinghausen"
  },
  {
    "postcode": "32361",
    "city": "Hedem"
  },
  {
    "postcode": "32361",
    "city": "Holzhausen Kreis Lübbecke Westfalen"
  },
  {
    "postcode": "32361",
    "city": "Holzhausen"
  },
  {
    "postcode": "32361",
    "city": "Lashorst"
  },
  {
    "postcode": "32361",
    "city": "Offelten"
  },
  {
    "postcode": "32361",
    "city": "Preußisch Oldendorf"
  },
  {
    "postcode": "32361",
    "city": "Schroettinghausen Kreis Lübbecke Westfalen"
  },
  {
    "postcode": "32361",
    "city": "Schroettinghausen"
  },
  {
    "postcode": "32361",
    "city": "Minden-Lübbecke"
  },
  {
    "postcode": "32361",
    "city": "Melle"
  },
  {
    "postcode": "32361",
    "city": "Schröttinghausen"
  },
  {
    "postcode": "32361",
    "city": "Börninghausen-Masch"
  },
  {
    "postcode": "32361",
    "city": "Gem Bad Essen"
  },
  {
    "postcode": "32361",
    "city": "Gem Rödinghausen"
  },
  {
    "postcode": "32361",
    "city": "Stadt Melle"
  },
  {
    "postcode": "32369",
    "city": "Bulzendorf Westfalen"
  },
  {
    "postcode": "32369",
    "city": "Bulzendorf"
  },
  {
    "postcode": "32369",
    "city": "Haßlage Westfalen"
  },
  {
    "postcode": "32369",
    "city": "Haßlage"
  },
  {
    "postcode": "32369",
    "city": "Kleinendorf Westfalen"
  },
  {
    "postcode": "32369",
    "city": "Kleinendorf"
  },
  {
    "postcode": "32369",
    "city": "Lampenort Westfalen"
  },
  {
    "postcode": "32369",
    "city": "Lampenort"
  },
  {
    "postcode": "32369",
    "city": "Langendamm Westfalen"
  },
  {
    "postcode": "32369",
    "city": "Langendamm"
  },
  {
    "postcode": "32369",
    "city": "Lohbusch Westfalen"
  },
  {
    "postcode": "32369",
    "city": "Lohbusch"
  },
  {
    "postcode": "32369",
    "city": "Mühlendamm Westfalen"
  },
  {
    "postcode": "32369",
    "city": "Mühlendamm"
  },
  {
    "postcode": "32369",
    "city": "Mühlensteg Westfalen"
  },
  {
    "postcode": "32369",
    "city": "Mühlensteg"
  },
  {
    "postcode": "32369",
    "city": "Rahden"
  },
  {
    "postcode": "32369",
    "city": "Rahden Westfalen"
  },
  {
    "postcode": "32369",
    "city": "Sielhorst Westfalen"
  },
  {
    "postcode": "32369",
    "city": "Sielhorst"
  },
  {
    "postcode": "32369",
    "city": "Stellerloh Westfalen"
  },
  {
    "postcode": "32369",
    "city": "Stellerloh"
  },
  {
    "postcode": "32369",
    "city": "Tonnenheide"
  },
  {
    "postcode": "32369",
    "city": "Varl Westfalen"
  },
  {
    "postcode": "32369",
    "city": "Varl"
  },
  {
    "postcode": "32369",
    "city": "Wehe Kreis Lübbecke Westfalen"
  },
  {
    "postcode": "32369",
    "city": "Wehe"
  },
  {
    "postcode": "32369",
    "city": "Minden-Lübbecke"
  },
  {
    "postcode": "32369",
    "city": "Pr. Ströhen"
  },
  {
    "postcode": "32369",
    "city": "Stelle"
  },
  {
    "postcode": "32423",
    "city": "Aminghausen Westfalen"
  },
  {
    "postcode": "32423",
    "city": "Aminghausen"
  },
  {
    "postcode": "32423",
    "city": "Dankersen Kreis Minden Westfalen"
  },
  {
    "postcode": "32423",
    "city": "Dankersen"
  },
  {
    "postcode": "32423",
    "city": "Leteln"
  },
  {
    "postcode": "32423",
    "city": "Meißen Kreis Minden Westfalen"
  },
  {
    "postcode": "32423",
    "city": "Meißen"
  },
  {
    "postcode": "32423",
    "city": "Minden Westfalen"
  },
  {
    "postcode": "32423",
    "city": "Minden"
  },
  {
    "postcode": "32423",
    "city": "Päpinghausen"
  },
  {
    "postcode": "32423",
    "city": "Minden-Lübbecke"
  },
  {
    "postcode": "32423",
    "city": "Innenstadt"
  },
  {
    "postcode": "32425",
    "city": "Hahlen Kreis Minden Westfalen"
  },
  {
    "postcode": "32425",
    "city": "Hahlen"
  },
  {
    "postcode": "32425",
    "city": "Kutenhausen"
  },
  {
    "postcode": "32425",
    "city": "Minden Westfalen"
  },
  {
    "postcode": "32425",
    "city": "Minden"
  },
  {
    "postcode": "32425",
    "city": "Minderheide Kreis Minden Westfalen"
  },
  {
    "postcode": "32425",
    "city": "Minderheide"
  },
  {
    "postcode": "32425",
    "city": "Stemmer Kreis Minden Westfalen"
  },
  {
    "postcode": "32425",
    "city": "Stemmer"
  },
  {
    "postcode": "32425",
    "city": "Todtenhausen Kreis Minden Westfalen"
  },
  {
    "postcode": "32425",
    "city": "Todtenhausen"
  },
  {
    "postcode": "32425",
    "city": "Minden-Lübbecke"
  },
  {
    "postcode": "32425",
    "city": "Innenstadt"
  },
  {
    "postcode": "32427",
    "city": "Hahlen Kreis Minden Westfalen"
  },
  {
    "postcode": "32427",
    "city": "Hahlen"
  },
  {
    "postcode": "32427",
    "city": "Minden Westfalen"
  },
  {
    "postcode": "32427",
    "city": "Minden"
  },
  {
    "postcode": "32427",
    "city": "Minderheide Kreis Minden Westfalen"
  },
  {
    "postcode": "32427",
    "city": "Minderheide"
  },
  {
    "postcode": "32427",
    "city": "Minden-Lübbecke"
  },
  {
    "postcode": "32427",
    "city": "Innenstadt"
  },
  {
    "postcode": "32429",
    "city": "Barkhausen"
  },
  {
    "postcode": "32429",
    "city": "Dützen"
  },
  {
    "postcode": "32429",
    "city": "Haddenhausen"
  },
  {
    "postcode": "32429",
    "city": "Hahlen Kreis Minden Westfalen"
  },
  {
    "postcode": "32429",
    "city": "Hahlen"
  },
  {
    "postcode": "32429",
    "city": "Häverstädt"
  },
  {
    "postcode": "32429",
    "city": "Minden Westfalen"
  },
  {
    "postcode": "32429",
    "city": "Minden"
  },
  {
    "postcode": "32429",
    "city": "Minden-Lübbecke"
  },
  {
    "postcode": "32429",
    "city": "Innenstadt"
  },
  {
    "postcode": "32429",
    "city": "Bölhorst"
  },
  {
    "postcode": "32429",
    "city": "Uphausen"
  },
  {
    "postcode": "32457",
    "city": "Costedt"
  },
  {
    "postcode": "32457",
    "city": "Eisbergen"
  },
  {
    "postcode": "32457",
    "city": "Hausberge an der Porta"
  },
  {
    "postcode": "32457",
    "city": "Holtrup Kreis Minden Westfalen"
  },
  {
    "postcode": "32457",
    "city": "Holtrup"
  },
  {
    "postcode": "32457",
    "city": "Holzhausen"
  },
  {
    "postcode": "32457",
    "city": "Kleinenbremen"
  },
  {
    "postcode": "32457",
    "city": "Lerbeck Porta Westfalica"
  },
  {
    "postcode": "32457",
    "city": "Lerbeck"
  },
  {
    "postcode": "32457",
    "city": "Lohfeld"
  },
  {
    "postcode": "32457",
    "city": "Möllbergen"
  },
  {
    "postcode": "32457",
    "city": "Nammen"
  },
  {
    "postcode": "32457",
    "city": "Neesen Porta Westfalica"
  },
  {
    "postcode": "32457",
    "city": "Neesen"
  },
  {
    "postcode": "32457",
    "city": "Porta Westfalica"
  },
  {
    "postcode": "32457",
    "city": "Veltheim Kreis Minden Westfalen"
  },
  {
    "postcode": "32457",
    "city": "Veltheim"
  },
  {
    "postcode": "32457",
    "city": "Vennebeck"
  },
  {
    "postcode": "32457",
    "city": "Wülpke"
  },
  {
    "postcode": "32457",
    "city": "Minden-Lübbecke"
  },
  {
    "postcode": "32457",
    "city": "Hausberge"
  },
  {
    "postcode": "32457",
    "city": "Barkhausen"
  },
  {
    "postcode": "32457",
    "city": "Bornholz"
  },
  {
    "postcode": "32457",
    "city": "Voßbrink"
  },
  {
    "postcode": "32457",
    "city": "Auf der Heide"
  },
  {
    "postcode": "32457",
    "city": "Vennebeckerbruch"
  },
  {
    "postcode": "32457",
    "city": "Im Thielosen"
  },
  {
    "postcode": "32469",
    "city": "Bierde Weser"
  },
  {
    "postcode": "32469",
    "city": "Bierde"
  },
  {
    "postcode": "32469",
    "city": "Buchholz Kreis Minden Westfalen"
  },
  {
    "postcode": "32469",
    "city": "Buchholz"
  },
  {
    "postcode": "32469",
    "city": "Döhren Kreis Minden Westfalen"
  },
  {
    "postcode": "32469",
    "city": "Döhren"
  },
  {
    "postcode": "32469",
    "city": "Eldagsen Kreis Minden Westfalen"
  },
  {
    "postcode": "32469",
    "city": "Eldagsen"
  },
  {
    "postcode": "32469",
    "city": "Friedewalde Westfalen"
  },
  {
    "postcode": "32469",
    "city": "Friedewalde"
  },
  {
    "postcode": "32469",
    "city": "Frille"
  },
  {
    "postcode": "32469",
    "city": "Gorspen-Vahlsen"
  },
  {
    "postcode": "32469",
    "city": "Großenheerse Kreis Minden Westfalen"
  },
  {
    "postcode": "32469",
    "city": "Großenheerse"
  },
  {
    "postcode": "32469",
    "city": "Hävern"
  },
  {
    "postcode": "32469",
    "city": "Heimsen Kreis Minden Westfalen"
  },
  {
    "postcode": "32469",
    "city": "Heimsen"
  },
  {
    "postcode": "32469",
    "city": "Ilse Weser"
  },
  {
    "postcode": "32469",
    "city": "Ilse"
  },
  {
    "postcode": "32469",
    "city": "Ilserheide"
  },
  {
    "postcode": "32469",
    "city": "Ilvese"
  },
  {
    "postcode": "32469",
    "city": "Jössen Weser"
  },
  {
    "postcode": "32469",
    "city": "Jössen"
  },
  {
    "postcode": "32469",
    "city": "Lahde Weser"
  },
  {
    "postcode": "32469",
    "city": "Lahde"
  },
  {
    "postcode": "32469",
    "city": "Maaslingen Kreis Minden Westfalen"
  },
  {
    "postcode": "32469",
    "city": "Maaslingen"
  },
  {
    "postcode": "32469",
    "city": "Meßlingen Kreis Minden Westfalen"
  },
  {
    "postcode": "32469",
    "city": "Meßlingen"
  },
  {
    "postcode": "32469",
    "city": "Neuenknick"
  },
  {
    "postcode": "32469",
    "city": "Ovenstädt"
  },
  {
    "postcode": "32469",
    "city": "Petershagen (Weser)"
  },
  {
    "postcode": "32469",
    "city": "Petershagen"
  },
  {
    "postcode": "32469",
    "city": "Quetzen"
  },
  {
    "postcode": "32469",
    "city": "Raderhorst"
  },
  {
    "postcode": "32469",
    "city": "Rosenhagen bei Stadthagen"
  },
  {
    "postcode": "32469",
    "city": "Schlüsselburg"
  },
  {
    "postcode": "32469",
    "city": "Seelenfeld Kreis Minden Westfalen"
  },
  {
    "postcode": "32469",
    "city": "Seelenfeld"
  },
  {
    "postcode": "32469",
    "city": "Südfelde Kreis Minden Westfalen"
  },
  {
    "postcode": "32469",
    "city": "Südfelde"
  },
  {
    "postcode": "32469",
    "city": "Wasserstraße"
  },
  {
    "postcode": "32469",
    "city": "Wietersheim"
  },
  {
    "postcode": "32469",
    "city": "Windheim Weser"
  },
  {
    "postcode": "32469",
    "city": "Windheim"
  },
  {
    "postcode": "32469",
    "city": "Minden-Lübbecke"
  },
  {
    "postcode": "32469",
    "city": "Meerbeck"
  },
  {
    "postcode": "32469",
    "city": "Rosenhagen"
  },
  {
    "postcode": "32469",
    "city": "Hoppenberg"
  },
  {
    "postcode": "32469",
    "city": "Höpen"
  },
  {
    "postcode": "32469",
    "city": "Westliche Heide"
  },
  {
    "postcode": "32479",
    "city": "Bollacken"
  },
  {
    "postcode": "32479",
    "city": "Burthun"
  },
  {
    "postcode": "32479",
    "city": "Eickhorst Kreis Minden Westfalen"
  },
  {
    "postcode": "32479",
    "city": "Eickhorst"
  },
  {
    "postcode": "32479",
    "city": "Hartum"
  },
  {
    "postcode": "32479",
    "city": "Hille"
  },
  {
    "postcode": "32479",
    "city": "Holzhausen II"
  },
  {
    "postcode": "32479",
    "city": "Horstbohlen"
  },
  {
    "postcode": "32479",
    "city": "Nordhemmern"
  },
  {
    "postcode": "32479",
    "city": "Oberlübbe"
  },
  {
    "postcode": "32479",
    "city": "Peckrenne"
  },
  {
    "postcode": "32479",
    "city": "Ritterbruch"
  },
  {
    "postcode": "32479",
    "city": "Rothenuffeln"
  },
  {
    "postcode": "32479",
    "city": "Südhemmern"
  },
  {
    "postcode": "32479",
    "city": "Unterlübbe"
  },
  {
    "postcode": "32479",
    "city": "Wittloge"
  },
  {
    "postcode": "32479",
    "city": "Minden-Lübbecke"
  },
  {
    "postcode": "32479",
    "city": "Holzhausen"
  },
  {
    "postcode": "32479",
    "city": "Leifkenstadt"
  },
  {
    "postcode": "32479",
    "city": "Mindenerwald"
  },
  {
    "postcode": "32479",
    "city": "Winkelhausen"
  },
  {
    "postcode": "32479",
    "city": "Specken"
  },
  {
    "postcode": "32479",
    "city": "Dreierskrug"
  },
  {
    "postcode": "32545",
    "city": "Bad Oeynhausen"
  },
  {
    "postcode": "32545",
    "city": "Minden-Lübbecke"
  },
  {
    "postcode": "32545",
    "city": "Innenstadt"
  },
  {
    "postcode": "32545",
    "city": "Lohe"
  },
  {
    "postcode": "32547",
    "city": "Bad Oeynhausen"
  },
  {
    "postcode": "32547",
    "city": "Rehme"
  },
  {
    "postcode": "32547",
    "city": "Minden-Lübbecke"
  },
  {
    "postcode": "32547",
    "city": "Innenstadt"
  },
  {
    "postcode": "32547",
    "city": "Oberbecksen"
  },
  {
    "postcode": "32547",
    "city": "Lohe"
  },
  {
    "postcode": "32549",
    "city": "Bad Oeynhausen"
  },
  {
    "postcode": "32549",
    "city": "Eidinghausen"
  },
  {
    "postcode": "32549",
    "city": "Volmerdingsen"
  },
  {
    "postcode": "32549",
    "city": "Werste"
  },
  {
    "postcode": "32549",
    "city": "Wulferdingsen"
  },
  {
    "postcode": "32549",
    "city": "Minden-Lübbecke"
  },
  {
    "postcode": "32549",
    "city": "Dehme"
  },
  {
    "postcode": "32549",
    "city": "Innenstadt"
  },
  {
    "postcode": "32549",
    "city": "Bergkirchen"
  },
  {
    "postcode": "32549",
    "city": "Schmalenbeck"
  },
  {
    "postcode": "32549",
    "city": "Wietel"
  },
  {
    "postcode": "32584",
    "city": "Gohfeld Kreis Herford"
  },
  {
    "postcode": "32584",
    "city": "Gohfeld"
  },
  {
    "postcode": "32584",
    "city": "Löhne"
  },
  {
    "postcode": "32584",
    "city": "Obernbeck"
  },
  {
    "postcode": "32584",
    "city": "Ulenburg"
  },
  {
    "postcode": "32584",
    "city": "Herford"
  },
  {
    "postcode": "32584",
    "city": "Mennighüffen"
  },
  {
    "postcode": "32584",
    "city": "Halstern"
  },
  {
    "postcode": "32602",
    "city": "Exter Kreis Herford"
  },
  {
    "postcode": "32602",
    "city": "Exter"
  },
  {
    "postcode": "32602",
    "city": "Uffeln"
  },
  {
    "postcode": "32602",
    "city": "Valdorf"
  },
  {
    "postcode": "32602",
    "city": "Vlotho"
  },
  {
    "postcode": "32602",
    "city": "Herford"
  },
  {
    "postcode": "32602",
    "city": "Hollwiesen"
  },
  {
    "postcode": "32609",
    "city": "Ahlsen-Reineberg"
  },
  {
    "postcode": "32609",
    "city": "Bröderhausen"
  },
  {
    "postcode": "32609",
    "city": "Büttendorf"
  },
  {
    "postcode": "32609",
    "city": "Holsen bei Löhne"
  },
  {
    "postcode": "32609",
    "city": "Hüllhorst"
  },
  {
    "postcode": "32609",
    "city": "Lage"
  },
  {
    "postcode": "32609",
    "city": "Oberbauerschaft bei Bünde Westfalen"
  },
  {
    "postcode": "32609",
    "city": "Oberbauerschaft bei Bünde"
  },
  {
    "postcode": "32609",
    "city": "Schnathorst"
  },
  {
    "postcode": "32609",
    "city": "Tengern"
  },
  {
    "postcode": "32609",
    "city": "Minden-Lübbecke"
  },
  {
    "postcode": "32609",
    "city": "Oberbauerschaft"
  },
  {
    "postcode": "32609",
    "city": "Niedringhausen"
  },
  {
    "postcode": "32609",
    "city": "Holsen"
  },
  {
    "postcode": "32609",
    "city": "Tengerholz"
  },
  {
    "postcode": "32657",
    "city": "Brake Lippe"
  },
  {
    "postcode": "32657",
    "city": "Brake"
  },
  {
    "postcode": "32657",
    "city": "Brüntorf"
  },
  {
    "postcode": "32657",
    "city": "Entrup Kreis Lemgo"
  },
  {
    "postcode": "32657",
    "city": "Entrup"
  },
  {
    "postcode": "32657",
    "city": "Hörstmar"
  },
  {
    "postcode": "32657",
    "city": "Kirchheide"
  },
  {
    "postcode": "32657",
    "city": "Leese Kreis Lemgo"
  },
  {
    "postcode": "32657",
    "city": "Leese"
  },
  {
    "postcode": "32657",
    "city": "Lemgo"
  },
  {
    "postcode": "32657",
    "city": "Lieme"
  },
  {
    "postcode": "32657",
    "city": "Lüerdissen Kreis Lemgo"
  },
  {
    "postcode": "32657",
    "city": "Lüerdissen"
  },
  {
    "postcode": "32657",
    "city": "Trophagen Lippe"
  },
  {
    "postcode": "32657",
    "city": "Trophagen"
  },
  {
    "postcode": "32657",
    "city": "Voßheide"
  },
  {
    "postcode": "32657",
    "city": "Wahmbeck Lippe"
  },
  {
    "postcode": "32657",
    "city": "Wahmbeck"
  },
  {
    "postcode": "32657",
    "city": "Wahmbeckerheide"
  },
  {
    "postcode": "32657",
    "city": "Welstorf"
  },
  {
    "postcode": "32657",
    "city": "Wiembeck Lippe"
  },
  {
    "postcode": "32657",
    "city": "Wiembeck"
  },
  {
    "postcode": "32657",
    "city": "Lippe"
  },
  {
    "postcode": "32657",
    "city": "Matorf-Kirchheide"
  },
  {
    "postcode": "32657",
    "city": "Luherheide"
  },
  {
    "postcode": "32657",
    "city": "Gem Kalletal"
  },
  {
    "postcode": "32657",
    "city": "Lüerdisserbruch"
  },
  {
    "postcode": "32657",
    "city": "Stucken"
  },
  {
    "postcode": "32676",
    "city": "Elbrinxen"
  },
  {
    "postcode": "32676",
    "city": "Falkenhagen Lippe"
  },
  {
    "postcode": "32676",
    "city": "Falkenhagen"
  },
  {
    "postcode": "32676",
    "city": "Hummersen"
  },
  {
    "postcode": "32676",
    "city": "Köterberg Lippe"
  },
  {
    "postcode": "32676",
    "city": "Köterberg"
  },
  {
    "postcode": "32676",
    "city": "Lügde"
  },
  {
    "postcode": "32676",
    "city": "Niese Lippe"
  },
  {
    "postcode": "32676",
    "city": "Niese"
  },
  {
    "postcode": "32676",
    "city": "Rischenau"
  },
  {
    "postcode": "32676",
    "city": "Sabbenhausen"
  },
  {
    "postcode": "32676",
    "city": "Wörderfeld"
  },
  {
    "postcode": "32676",
    "city": "Lippe"
  },
  {
    "postcode": "32683",
    "city": "Alverdissen"
  },
  {
    "postcode": "32683",
    "city": "Barntrup"
  },
  {
    "postcode": "32683",
    "city": "Selbeck"
  },
  {
    "postcode": "32683",
    "city": "Sommersell"
  },
  {
    "postcode": "32683",
    "city": "Sonneborn Lippe"
  },
  {
    "postcode": "32683",
    "city": "Sonneborn"
  },
  {
    "postcode": "32683",
    "city": "Struchtrup"
  },
  {
    "postcode": "32683",
    "city": "Lippe"
  },
  {
    "postcode": "32689",
    "city": "Asendorf Lippe"
  },
  {
    "postcode": "32689",
    "city": "Asendorf"
  },
  {
    "postcode": "32689",
    "city": "Bavenhausen"
  },
  {
    "postcode": "32689",
    "city": "Bentorf"
  },
  {
    "postcode": "32689",
    "city": "Brosen Lippe"
  },
  {
    "postcode": "32689",
    "city": "Brosen"
  },
  {
    "postcode": "32689",
    "city": "Erder"
  },
  {
    "postcode": "32689",
    "city": "Harkemissen"
  },
  {
    "postcode": "32689",
    "city": "Heidelbeck"
  },
  {
    "postcode": "32689",
    "city": "Henstorf"
  },
  {
    "postcode": "32689",
    "city": "Hohenhausen Lippe"
  },
  {
    "postcode": "32689",
    "city": "Hohenhausen"
  },
  {
    "postcode": "32689",
    "city": "Kalldorf"
  },
  {
    "postcode": "32689",
    "city": "Kalletal"
  },
  {
    "postcode": "32689",
    "city": "Langenholzhausen Lippe"
  },
  {
    "postcode": "32689",
    "city": "Langenholzhausen"
  },
  {
    "postcode": "32689",
    "city": "Lüdenhausen"
  },
  {
    "postcode": "32689",
    "city": "Osterhagen Lippe"
  },
  {
    "postcode": "32689",
    "city": "Osterhagen"
  },
  {
    "postcode": "32689",
    "city": "Stemmen Kreis Lemgo"
  },
  {
    "postcode": "32689",
    "city": "Stemmen"
  },
  {
    "postcode": "32689",
    "city": "Talle"
  },
  {
    "postcode": "32689",
    "city": "Varenholz"
  },
  {
    "postcode": "32689",
    "city": "Westorf"
  },
  {
    "postcode": "32689",
    "city": "Lippe"
  },
  {
    "postcode": "32694",
    "city": "Bega"
  },
  {
    "postcode": "32694",
    "city": "Dörentrup"
  },
  {
    "postcode": "32694",
    "city": "Hillentrup"
  },
  {
    "postcode": "32694",
    "city": "Humfeld"
  },
  {
    "postcode": "32694",
    "city": "Schwelentrup"
  },
  {
    "postcode": "32694",
    "city": "Wendlinghausen"
  },
  {
    "postcode": "32694",
    "city": "Lippe"
  },
  {
    "postcode": "32699",
    "city": "Almena"
  },
  {
    "postcode": "32699",
    "city": "Asmissen"
  },
  {
    "postcode": "32699",
    "city": "Bösingfeld"
  },
  {
    "postcode": "32699",
    "city": "Bremke"
  },
  {
    "postcode": "32699",
    "city": "Extertal"
  },
  {
    "postcode": "32699",
    "city": "Göstrup"
  },
  {
    "postcode": "32699",
    "city": "Kükenbruch"
  },
  {
    "postcode": "32699",
    "city": "Laßbruch"
  },
  {
    "postcode": "32699",
    "city": "Meierberg"
  },
  {
    "postcode": "32699",
    "city": "Nalhof"
  },
  {
    "postcode": "32699",
    "city": "Rott Lippe"
  },
  {
    "postcode": "32699",
    "city": "Rott"
  },
  {
    "postcode": "32699",
    "city": "Schönhagen"
  },
  {
    "postcode": "32699",
    "city": "Silixen"
  },
  {
    "postcode": "32699",
    "city": "Lippe"
  },
  {
    "postcode": "32699",
    "city": "Linderhofe"
  },
  {
    "postcode": "32699",
    "city": "Hummerbruch"
  },
  {
    "postcode": "32699",
    "city": "Reine"
  },
  {
    "postcode": "32756",
    "city": "Detmold"
  },
  {
    "postcode": "32756",
    "city": "Heiligenkirchen"
  },
  {
    "postcode": "32756",
    "city": "Hiddesen"
  },
  {
    "postcode": "32756",
    "city": "Jerxen-Orbke"
  },
  {
    "postcode": "32756",
    "city": "Lippe"
  },
  {
    "postcode": "32756",
    "city": "Innenstadt"
  },
  {
    "postcode": "32758",
    "city": "Barkhausen"
  },
  {
    "postcode": "32758",
    "city": "Brokhausen"
  },
  {
    "postcode": "32758",
    "city": "Detmold"
  },
  {
    "postcode": "32758",
    "city": "Hakedahl"
  },
  {
    "postcode": "32758",
    "city": "Heidenoldendorf"
  },
  {
    "postcode": "32758",
    "city": "Jerxen-Orbke"
  },
  {
    "postcode": "32758",
    "city": "Klüt"
  },
  {
    "postcode": "32758",
    "city": "Mosebeck"
  },
  {
    "postcode": "32758",
    "city": "Nienhagen"
  },
  {
    "postcode": "32758",
    "city": "Niewald Lippe"
  },
  {
    "postcode": "32758",
    "city": "Niewald"
  },
  {
    "postcode": "32758",
    "city": "Oettern-Bremke"
  },
  {
    "postcode": "32758",
    "city": "Vahlhausen bei Detmold"
  },
  {
    "postcode": "32758",
    "city": "Lippe"
  },
  {
    "postcode": "32758",
    "city": "Pivitsheide"
  },
  {
    "postcode": "32758",
    "city": "Innenstadt"
  },
  {
    "postcode": "32758",
    "city": "Bentrup-Loßbruch"
  },
  {
    "postcode": "32758",
    "city": "Pivitsheide Vogtei Lage"
  },
  {
    "postcode": "32758",
    "city": "Vahlhausen"
  },
  {
    "postcode": "32760",
    "city": "Berlebeck"
  },
  {
    "postcode": "32760",
    "city": "Detmold"
  },
  {
    "postcode": "32760",
    "city": "Diestelbruch"
  },
  {
    "postcode": "32760",
    "city": "Heiligenkirchen"
  },
  {
    "postcode": "32760",
    "city": "Hiddesen"
  },
  {
    "postcode": "32760",
    "city": "Hornoldendorf"
  },
  {
    "postcode": "32760",
    "city": "Niederschönhagen"
  },
  {
    "postcode": "32760",
    "city": "Oberschönhagen"
  },
  {
    "postcode": "32760",
    "city": "Remmighausen"
  },
  {
    "postcode": "32760",
    "city": "Schönemark"
  },
  {
    "postcode": "32760",
    "city": "Spork-Eichholz"
  },
  {
    "postcode": "32760",
    "city": "Vahlhausen bei Detmold"
  },
  {
    "postcode": "32760",
    "city": "Lippe"
  },
  {
    "postcode": "32760",
    "city": "Vahlhausen"
  },
  {
    "postcode": "32760",
    "city": "Innenstadt"
  },
  {
    "postcode": "32760",
    "city": "Pivitsheide"
  },
  {
    "postcode": "32791",
    "city": "Billinghausen Lippe"
  },
  {
    "postcode": "32791",
    "city": "Billinghausen"
  },
  {
    "postcode": "32791",
    "city": "Ehrentrup"
  },
  {
    "postcode": "32791",
    "city": "Hagen bei Lage Lippe"
  },
  {
    "postcode": "32791",
    "city": "Hagen bei Lage"
  },
  {
    "postcode": "32791",
    "city": "Hardissen"
  },
  {
    "postcode": "32791",
    "city": "Heiden Lippe"
  },
  {
    "postcode": "32791",
    "city": "Heiden"
  },
  {
    "postcode": "32791",
    "city": "Heßloh"
  },
  {
    "postcode": "32791",
    "city": "Hörste Lippe"
  },
  {
    "postcode": "32791",
    "city": "Hörste"
  },
  {
    "postcode": "32791",
    "city": "Kachtenhausen"
  },
  {
    "postcode": "32791",
    "city": "Lage"
  },
  {
    "postcode": "32791",
    "city": "Lage Lippe"
  },
  {
    "postcode": "32791",
    "city": "Müssen Lippe"
  },
  {
    "postcode": "32791",
    "city": "Müssen"
  },
  {
    "postcode": "32791",
    "city": "Ohrsen"
  },
  {
    "postcode": "32791",
    "city": "Pottenhausen"
  },
  {
    "postcode": "32791",
    "city": "Waddenhausen"
  },
  {
    "postcode": "32791",
    "city": "Wissentrup"
  },
  {
    "postcode": "32791",
    "city": "Lippe"
  },
  {
    "postcode": "32791",
    "city": "Hagen"
  },
  {
    "postcode": "32791",
    "city": "Hachheide"
  },
  {
    "postcode": "32791",
    "city": "Stapelage"
  },
  {
    "postcode": "32791",
    "city": "Ehlenbruch"
  },
  {
    "postcode": "32791",
    "city": "Junghärtchen"
  },
  {
    "postcode": "32791",
    "city": "Wellenheide"
  },
  {
    "postcode": "32791",
    "city": "Waddenhauser Berg"
  },
  {
    "postcode": "32791",
    "city": "Werresiek"
  },
  {
    "postcode": "32805",
    "city": "Bad Meinberg"
  },
  {
    "postcode": "32805",
    "city": "Belle Kreis Detmold"
  },
  {
    "postcode": "32805",
    "city": "Belle"
  },
  {
    "postcode": "32805",
    "city": "Bellenberg Lippe"
  },
  {
    "postcode": "32805",
    "city": "Bellenberg"
  },
  {
    "postcode": "32805",
    "city": "Billerbeck Lippe"
  },
  {
    "postcode": "32805",
    "city": "Billerbeck"
  },
  {
    "postcode": "32805",
    "city": "Fissenknick"
  },
  {
    "postcode": "32805",
    "city": "Fromhausen"
  },
  {
    "postcode": "32805",
    "city": "Heesten"
  },
  {
    "postcode": "32805",
    "city": "Holzhausen-Externsteine"
  },
  {
    "postcode": "32805",
    "city": "Horn"
  },
  {
    "postcode": "32805",
    "city": "Horn-Bad Meinberg"
  },
  {
    "postcode": "32805",
    "city": "Leopoldstal Lippe"
  },
  {
    "postcode": "32805",
    "city": "Leopoldstal"
  },
  {
    "postcode": "32805",
    "city": "Schmedissen"
  },
  {
    "postcode": "32805",
    "city": "Vahlhausen über Bad Meinberg"
  },
  {
    "postcode": "32805",
    "city": "Veldrom"
  },
  {
    "postcode": "32805",
    "city": "Wehren"
  },
  {
    "postcode": "32805",
    "city": "Wilberg"
  },
  {
    "postcode": "32805",
    "city": "Lippe"
  },
  {
    "postcode": "32805",
    "city": "Kempenfeldrom"
  },
  {
    "postcode": "32805",
    "city": "Vahlhausen"
  },
  {
    "postcode": "32816",
    "city": "Brakelsiek"
  },
  {
    "postcode": "32816",
    "city": "Glashütte"
  },
  {
    "postcode": "32816",
    "city": "Lothe"
  },
  {
    "postcode": "32816",
    "city": "Ruensiek"
  },
  {
    "postcode": "32816",
    "city": "Schieder"
  },
  {
    "postcode": "32816",
    "city": "Schieder-Schwalenberg"
  },
  {
    "postcode": "32816",
    "city": "Schwalenberg"
  },
  {
    "postcode": "32816",
    "city": "Siekholz"
  },
  {
    "postcode": "32816",
    "city": "Wöbbel"
  },
  {
    "postcode": "32816",
    "city": "Lippe"
  },
  {
    "postcode": "32816",
    "city": "Kreienberg"
  },
  {
    "postcode": "32825",
    "city": "Altendonop"
  },
  {
    "postcode": "32825",
    "city": "Blomberg"
  },
  {
    "postcode": "32825",
    "city": "Blomberg Lippe"
  },
  {
    "postcode": "32825",
    "city": "Brüntrup"
  },
  {
    "postcode": "32825",
    "city": "Cappel Kreis Detmold"
  },
  {
    "postcode": "32825",
    "city": "Cappel"
  },
  {
    "postcode": "32825",
    "city": "Dalborn"
  },
  {
    "postcode": "32825",
    "city": "Donop"
  },
  {
    "postcode": "32825",
    "city": "Eschenbruch bei Bad Pyrmont"
  },
  {
    "postcode": "32825",
    "city": "Großenmarpe"
  },
  {
    "postcode": "32825",
    "city": "Herrentrup"
  },
  {
    "postcode": "32825",
    "city": "Höntrup"
  },
  {
    "postcode": "32825",
    "city": "Istrup Kreis Detmold"
  },
  {
    "postcode": "32825",
    "city": "Istrup"
  },
  {
    "postcode": "32825",
    "city": "Kleinenmarpe"
  },
  {
    "postcode": "32825",
    "city": "Maspe Lippe"
  },
  {
    "postcode": "32825",
    "city": "Maspe"
  },
  {
    "postcode": "32825",
    "city": "Mossenberg"
  },
  {
    "postcode": "32825",
    "city": "Reelkirchen"
  },
  {
    "postcode": "32825",
    "city": "Siebenhöfen Lippe"
  },
  {
    "postcode": "32825",
    "city": "Siebenhöfen"
  },
  {
    "postcode": "32825",
    "city": "Tintrup"
  },
  {
    "postcode": "32825",
    "city": "Wellentrup über Detmold"
  },
  {
    "postcode": "32825",
    "city": "Wöhren"
  },
  {
    "postcode": "32825",
    "city": "Lippe"
  },
  {
    "postcode": "32825",
    "city": "Wellentrup"
  },
  {
    "postcode": "32825",
    "city": "Eschenbruch"
  },
  {
    "postcode": "32832",
    "city": "Augustdorf"
  },
  {
    "postcode": "32832",
    "city": "Lippe"
  },
  {
    "postcode": "32839",
    "city": "Bergheim Westfalen"
  },
  {
    "postcode": "32839",
    "city": "Bergheim"
  },
  {
    "postcode": "32839",
    "city": "Eichholz"
  },
  {
    "postcode": "32839",
    "city": "Grevenhagen Lippe"
  },
  {
    "postcode": "32839",
    "city": "Grevenhagen"
  },
  {
    "postcode": "32839",
    "city": "Hagedorn"
  },
  {
    "postcode": "32839",
    "city": "Ottenhausen Westfalen"
  },
  {
    "postcode": "32839",
    "city": "Ottenhausen"
  },
  {
    "postcode": "32839",
    "city": "Rolfzen"
  },
  {
    "postcode": "32839",
    "city": "Sandebeck"
  },
  {
    "postcode": "32839",
    "city": "Steinheim"
  },
  {
    "postcode": "32839",
    "city": "Steinheim Westfalen"
  },
  {
    "postcode": "32839",
    "city": "Vinsebeck"
  },
  {
    "postcode": "32839",
    "city": "Höxter"
  }
]