[
  {
    "postcode": "55116",
    "city": "Mainz am Rhein"
  },
  {
    "postcode": "55116",
    "city": "Mainz"
  },
  {
    "postcode": "55116",
    "city": "Altstadt"
  },
  {
    "postcode": "55116",
    "city": "Neustadt"
  },
  {
    "postcode": "55116",
    "city": "Oberstadt"
  },
  {
    "postcode": "55118",
    "city": "Mainz am Rhein"
  },
  {
    "postcode": "55118",
    "city": "Mainz"
  },
  {
    "postcode": "55118",
    "city": "Neustadt"
  },
  {
    "postcode": "55120",
    "city": "Mainz am Rhein"
  },
  {
    "postcode": "55120",
    "city": "Mombach"
  },
  {
    "postcode": "55120",
    "city": "Mainz"
  },
  {
    "postcode": "55120",
    "city": "Neustadt"
  },
  {
    "postcode": "55120",
    "city": "Oberstadt"
  },
  {
    "postcode": "55122",
    "city": "Gonsenheim"
  },
  {
    "postcode": "55122",
    "city": "Mainz am Rhein"
  },
  {
    "postcode": "55122",
    "city": "Mainz"
  },
  {
    "postcode": "55122",
    "city": "Hartenberg/Münchfeld"
  },
  {
    "postcode": "55122",
    "city": "Neustadt"
  },
  {
    "postcode": "55122",
    "city": "Hartenberg"
  },
  {
    "postcode": "55124",
    "city": "Gonsenheim"
  },
  {
    "postcode": "55124",
    "city": "Mainz am Rhein"
  },
  {
    "postcode": "55124",
    "city": "Mainz"
  },
  {
    "postcode": "55124",
    "city": "Oberstadt"
  },
  {
    "postcode": "55126",
    "city": "Finthen"
  },
  {
    "postcode": "55126",
    "city": "Mainz am Rhein"
  },
  {
    "postcode": "55126",
    "city": "Mainz"
  },
  {
    "postcode": "55126",
    "city": "Layenhof"
  },
  {
    "postcode": "55127",
    "city": "Drais Kreis Mainz"
  },
  {
    "postcode": "55127",
    "city": "Drais"
  },
  {
    "postcode": "55127",
    "city": "Lerchenberg"
  },
  {
    "postcode": "55127",
    "city": "Mainz am Rhein"
  },
  {
    "postcode": "55127",
    "city": "Marienborn Kreis Mainz"
  },
  {
    "postcode": "55127",
    "city": "Marienborn"
  },
  {
    "postcode": "55127",
    "city": "Mainz"
  },
  {
    "postcode": "55128",
    "city": "Bretzenheim"
  },
  {
    "postcode": "55128",
    "city": "Mainz am Rhein"
  },
  {
    "postcode": "55128",
    "city": "Mainz"
  },
  {
    "postcode": "55128",
    "city": "Oberstadt"
  },
  {
    "postcode": "55129",
    "city": "Ebersheim"
  },
  {
    "postcode": "55129",
    "city": "Hechtsheim"
  },
  {
    "postcode": "55129",
    "city": "Mainz am Rhein"
  },
  {
    "postcode": "55129",
    "city": "Mainz"
  },
  {
    "postcode": "55129",
    "city": "Bretzenheim"
  },
  {
    "postcode": "55130",
    "city": "Laubenheim Rhein"
  },
  {
    "postcode": "55130",
    "city": "Laubenheim"
  },
  {
    "postcode": "55130",
    "city": "Mainz am Rhein"
  },
  {
    "postcode": "55130",
    "city": "Weisenau"
  },
  {
    "postcode": "55130",
    "city": "Mainz"
  },
  {
    "postcode": "55131",
    "city": "Mainz am Rhein"
  },
  {
    "postcode": "55131",
    "city": "Weisenau"
  },
  {
    "postcode": "55131",
    "city": "Mainz"
  },
  {
    "postcode": "55131",
    "city": "Oberstadt"
  },
  {
    "postcode": "55131",
    "city": "Altstadt"
  },
  {
    "postcode": "55131",
    "city": "Neustadt"
  },
  {
    "postcode": "55218",
    "city": "Ingelheim am Rhein"
  },
  {
    "postcode": "55218",
    "city": "Neumühle"
  },
  {
    "postcode": "55218",
    "city": "Mainz-Bingen"
  },
  {
    "postcode": "55232",
    "city": "Alzey"
  },
  {
    "postcode": "55232",
    "city": "Dautenheim"
  },
  {
    "postcode": "55232",
    "city": "Ensheim Rheinhessen"
  },
  {
    "postcode": "55232",
    "city": "Ensheim"
  },
  {
    "postcode": "55232",
    "city": "Heimersheim Rheinhessen"
  },
  {
    "postcode": "55232",
    "city": "Heimersheim"
  },
  {
    "postcode": "55232",
    "city": "Schafhausen Rheinhessen"
  },
  {
    "postcode": "55232",
    "city": "Schafhausen"
  },
  {
    "postcode": "55232",
    "city": "Weinheim Rheinhessen"
  },
  {
    "postcode": "55232",
    "city": "Weinheim"
  },
  {
    "postcode": "55232",
    "city": "Alzey-Worms"
  },
  {
    "postcode": "55234",
    "city": "Albig"
  },
  {
    "postcode": "55234",
    "city": "Bechenheim"
  },
  {
    "postcode": "55234",
    "city": "Bechtolsheim"
  },
  {
    "postcode": "55234",
    "city": "Bermersheim vor der Höhe"
  },
  {
    "postcode": "55234",
    "city": "Biebelnheim"
  },
  {
    "postcode": "55234",
    "city": "Dintesheim"
  },
  {
    "postcode": "55234",
    "city": "Eppelsheim Rheinhessen"
  },
  {
    "postcode": "55234",
    "city": "Eppelsheim"
  },
  {
    "postcode": "55234",
    "city": "Erbes-Büdesheim"
  },
  {
    "postcode": "55234",
    "city": "Esselborn"
  },
  {
    "postcode": "55234",
    "city": "Flomborn"
  },
  {
    "postcode": "55234",
    "city": "Framersheim"
  },
  {
    "postcode": "55234",
    "city": "Freimersheim Rheinhessen"
  },
  {
    "postcode": "55234",
    "city": "Freimersheim"
  },
  {
    "postcode": "55234",
    "city": "Gau-Heppenheim"
  },
  {
    "postcode": "55234",
    "city": "Hangen-Weisheim"
  },
  {
    "postcode": "55234",
    "city": "Hochborn"
  },
  {
    "postcode": "55234",
    "city": "Kettenheim Rheinhessen"
  },
  {
    "postcode": "55234",
    "city": "Kettenheim"
  },
  {
    "postcode": "55234",
    "city": "Monzernheim"
  },
  {
    "postcode": "55234",
    "city": "Nack Rheinhessen"
  },
  {
    "postcode": "55234",
    "city": "Nack"
  },
  {
    "postcode": "55234",
    "city": "Nieder-Wiesen Rheinhessen"
  },
  {
    "postcode": "55234",
    "city": "Nieder-Wiesen"
  },
  {
    "postcode": "55234",
    "city": "Ober-Flörsheim"
  },
  {
    "postcode": "55234",
    "city": "Offenheim Rheinhessen"
  },
  {
    "postcode": "55234",
    "city": "Offenheim"
  },
  {
    "postcode": "55234",
    "city": "Wahlheim"
  },
  {
    "postcode": "55234",
    "city": "Wendelsheim Rheinhessen"
  },
  {
    "postcode": "55234",
    "city": "Wendelsheim"
  },
  {
    "postcode": "55234",
    "city": "Alzey-Worms"
  },
  {
    "postcode": "55237",
    "city": "Bornheim Rheinhessen"
  },
  {
    "postcode": "55237",
    "city": "Bornheim"
  },
  {
    "postcode": "55237",
    "city": "Flonheim"
  },
  {
    "postcode": "55237",
    "city": "Lonsheim"
  },
  {
    "postcode": "55237",
    "city": "Uffhofen"
  },
  {
    "postcode": "55237",
    "city": "Alzey-Worms"
  },
  {
    "postcode": "55239",
    "city": "Gau-Köngernheim"
  },
  {
    "postcode": "55239",
    "city": "Gau-Odernheim"
  },
  {
    "postcode": "55239",
    "city": "Alzey-Worms"
  },
  {
    "postcode": "55246",
    "city": "Mainz-Kostheim"
  },
  {
    "postcode": "55246",
    "city": "Wiesbaden"
  },
  {
    "postcode": "55252",
    "city": "Mainz-Kastel"
  },
  {
    "postcode": "55252",
    "city": "Wiesbaden"
  },
  {
    "postcode": "55257",
    "city": "Budenheim bei Mainz"
  },
  {
    "postcode": "55257",
    "city": "Mainz-Bingen"
  },
  {
    "postcode": "55257",
    "city": "Budenheim"
  },
  {
    "postcode": "55262",
    "city": "Heidenfahrt am Rhein"
  },
  {
    "postcode": "55262",
    "city": "Heidesheim am Rhein"
  },
  {
    "postcode": "55262",
    "city": "Nonnenaue am Rhein"
  },
  {
    "postcode": "55262",
    "city": "Mainz-Bingen"
  },
  {
    "postcode": "55262",
    "city": "Ingelheim am Rhein"
  },
  {
    "postcode": "55263",
    "city": "Wackernheim"
  },
  {
    "postcode": "55263",
    "city": "Mainz-Bingen"
  },
  {
    "postcode": "55263",
    "city": "Ingelheim am Rhein"
  },
  {
    "postcode": "55268",
    "city": "Nieder-Olm"
  },
  {
    "postcode": "55268",
    "city": "Mainz-Bingen"
  },
  {
    "postcode": "55270",
    "city": "Bubenheim Rheinhessen"
  },
  {
    "postcode": "55270",
    "city": "Bubenheim"
  },
  {
    "postcode": "55270",
    "city": "Engelstadt"
  },
  {
    "postcode": "55270",
    "city": "Essenheim"
  },
  {
    "postcode": "55270",
    "city": "Jugenheim in Rheinhessen"
  },
  {
    "postcode": "55270",
    "city": "Klein-Winternheim"
  },
  {
    "postcode": "55270",
    "city": "Ober-Olm"
  },
  {
    "postcode": "55270",
    "city": "Schwabenheim an der Selz"
  },
  {
    "postcode": "55270",
    "city": "Sörgenloch"
  },
  {
    "postcode": "55270",
    "city": "Zornheim"
  },
  {
    "postcode": "55270",
    "city": "Mainz-Bingen"
  },
  {
    "postcode": "55271",
    "city": "Stadecken-Elsheim"
  },
  {
    "postcode": "55271",
    "city": "Mainz-Bingen"
  },
  {
    "postcode": "55271",
    "city": "Elsheim"
  },
  {
    "postcode": "55276",
    "city": "Dienheim"
  },
  {
    "postcode": "55276",
    "city": "Oppenheim"
  },
  {
    "postcode": "55276",
    "city": "Mainz-Bingen"
  },
  {
    "postcode": "55278",
    "city": "Dalheim bei Mainz"
  },
  {
    "postcode": "55278",
    "city": "Dexheim"
  },
  {
    "postcode": "55278",
    "city": "Dolgesheim"
  },
  {
    "postcode": "55278",
    "city": "Eimsheim"
  },
  {
    "postcode": "55278",
    "city": "Friesenheim Rheinhessen"
  },
  {
    "postcode": "55278",
    "city": "Friesenheim"
  },
  {
    "postcode": "55278",
    "city": "Hahnheim"
  },
  {
    "postcode": "55278",
    "city": "Köngernheim"
  },
  {
    "postcode": "55278",
    "city": "Ludwigshöhe Rheinhessen"
  },
  {
    "postcode": "55278",
    "city": "Ludwigshöhe"
  },
  {
    "postcode": "55278",
    "city": "Mommenheim Rheinhessen"
  },
  {
    "postcode": "55278",
    "city": "Mommenheim"
  },
  {
    "postcode": "55278",
    "city": "Selzen"
  },
  {
    "postcode": "55278",
    "city": "Uelversheim"
  },
  {
    "postcode": "55278",
    "city": "Undenheim"
  },
  {
    "postcode": "55278",
    "city": "Weinolsheim"
  },
  {
    "postcode": "55278",
    "city": "Mainz-Bingen"
  },
  {
    "postcode": "55278",
    "city": "Dalheim"
  },
  {
    "postcode": "55283",
    "city": "Nierstein"
  },
  {
    "postcode": "55283",
    "city": "Schwabsburg"
  },
  {
    "postcode": "55283",
    "city": "Mainz-Bingen"
  },
  {
    "postcode": "55286",
    "city": "Rommersheim Rheinhessen"
  },
  {
    "postcode": "55286",
    "city": "Rommersheim"
  },
  {
    "postcode": "55286",
    "city": "Sulzheim Rheinhessen"
  },
  {
    "postcode": "55286",
    "city": "Sulzheim"
  },
  {
    "postcode": "55286",
    "city": "Wörrstadt"
  },
  {
    "postcode": "55286",
    "city": "Alzey-Worms"
  },
  {
    "postcode": "55288",
    "city": "Armsheim"
  },
  {
    "postcode": "55288",
    "city": "Armsheim Rheinhessen"
  },
  {
    "postcode": "55288",
    "city": "Gabsheim"
  },
  {
    "postcode": "55288",
    "city": "Partenheim"
  },
  {
    "postcode": "55288",
    "city": "Schimsheim"
  },
  {
    "postcode": "55288",
    "city": "Schornsheim"
  },
  {
    "postcode": "55288",
    "city": "Spiesheim"
  },
  {
    "postcode": "55288",
    "city": "Udenheim Rheinhessen"
  },
  {
    "postcode": "55288",
    "city": "Udenheim"
  },
  {
    "postcode": "55288",
    "city": "Alzey-Worms"
  },
  {
    "postcode": "55291",
    "city": "Nieder-Saulheim"
  },
  {
    "postcode": "55291",
    "city": "Ober-Saulheim"
  },
  {
    "postcode": "55291",
    "city": "Saulheim"
  },
  {
    "postcode": "55291",
    "city": "Alzey-Worms"
  },
  {
    "postcode": "55294",
    "city": "Bodenheim Rhein"
  },
  {
    "postcode": "55294",
    "city": "Bodenheim"
  },
  {
    "postcode": "55294",
    "city": "Mainz-Bingen"
  },
  {
    "postcode": "55296",
    "city": "Gau-Bischofsheim"
  },
  {
    "postcode": "55296",
    "city": "Harxheim Rheinhessen"
  },
  {
    "postcode": "55296",
    "city": "Harxheim"
  },
  {
    "postcode": "55296",
    "city": "Lörzweiler"
  },
  {
    "postcode": "55296",
    "city": "Mainz-Bingen"
  },
  {
    "postcode": "55299",
    "city": "Nackenheim"
  },
  {
    "postcode": "55299",
    "city": "Mainz-Bingen"
  },
  {
    "postcode": "55411",
    "city": "Bingen"
  },
  {
    "postcode": "55411",
    "city": "Bingen am Rhein"
  },
  {
    "postcode": "55411",
    "city": "Bingerbrück"
  },
  {
    "postcode": "55411",
    "city": "Büdesheim bei Bingen Rhein"
  },
  {
    "postcode": "55411",
    "city": "Büdesheim bei Bingen"
  },
  {
    "postcode": "55411",
    "city": "Dietersheim bei Bingen Rhein"
  },
  {
    "postcode": "55411",
    "city": "Dietersheim bei Bingen"
  },
  {
    "postcode": "55411",
    "city": "Dromersheim"
  },
  {
    "postcode": "55411",
    "city": "Gaulsheim bei Bingen Rhein"
  },
  {
    "postcode": "55411",
    "city": "Gaulsheim bei Bingen"
  },
  {
    "postcode": "55411",
    "city": "Kempten bei Bingen Rhein"
  },
  {
    "postcode": "55411",
    "city": "Kempten bei Bingen"
  },
  {
    "postcode": "55411",
    "city": "Sponsheim Rheinhessen"
  },
  {
    "postcode": "55411",
    "city": "Sponsheim"
  },
  {
    "postcode": "55411",
    "city": "Mainz-Bingen"
  },
  {
    "postcode": "55411",
    "city": "Büdesheim"
  },
  {
    "postcode": "55411",
    "city": "Dietersheim"
  },
  {
    "postcode": "55411",
    "city": "Gaulsheim"
  },
  {
    "postcode": "55411",
    "city": "Kempten"
  },
  {
    "postcode": "55413",
    "city": "Manubach"
  },
  {
    "postcode": "55413",
    "city": "Niederheimbach bei Bingen am Rhein"
  },
  {
    "postcode": "55413",
    "city": "Niederheimbach bei Bingen"
  },
  {
    "postcode": "55413",
    "city": "Oberdiebach"
  },
  {
    "postcode": "55413",
    "city": "Oberheimbach bei Bingen am Rhein"
  },
  {
    "postcode": "55413",
    "city": "Rheindiebach"
  },
  {
    "postcode": "55413",
    "city": "Trechtingshausen"
  },
  {
    "postcode": "55413",
    "city": "Weiler bei Bingen"
  },
  {
    "postcode": "55413",
    "city": "Winzberg Hunsrück"
  },
  {
    "postcode": "55413",
    "city": "Winzberg"
  },
  {
    "postcode": "55413",
    "city": "Mainz-Bingen"
  },
  {
    "postcode": "55413",
    "city": "Niederheimbach"
  },
  {
    "postcode": "55413",
    "city": "Oberheimbach"
  },
  {
    "postcode": "55413",
    "city": "Weiler"
  },
  {
    "postcode": "55422",
    "city": "Bacharach"
  },
  {
    "postcode": "55422",
    "city": "Breitscheid Hunsrück"
  },
  {
    "postcode": "55422",
    "city": "Breitscheid"
  },
  {
    "postcode": "55422",
    "city": "Henschhausen Hunsrück"
  },
  {
    "postcode": "55422",
    "city": "Henschhausen"
  },
  {
    "postcode": "55422",
    "city": "Medenscheid Hunsrück"
  },
  {
    "postcode": "55422",
    "city": "Medenscheid"
  },
  {
    "postcode": "55422",
    "city": "Neurath Hunsrück"
  },
  {
    "postcode": "55422",
    "city": "Neurath"
  },
  {
    "postcode": "55422",
    "city": "Steeg bei Bacharach"
  },
  {
    "postcode": "55422",
    "city": "Mainz-Bingen"
  },
  {
    "postcode": "55422",
    "city": "Steeg"
  },
  {
    "postcode": "55424",
    "city": "Münster-Sarmsheim"
  },
  {
    "postcode": "55424",
    "city": "Mainz-Bingen"
  },
  {
    "postcode": "55425",
    "city": "Genheim"
  },
  {
    "postcode": "55425",
    "city": "Waldalgesheim"
  },
  {
    "postcode": "55425",
    "city": "Mainz-Bingen"
  },
  {
    "postcode": "55430",
    "city": "Dellhofen"
  },
  {
    "postcode": "55430",
    "city": "Engehöll"
  },
  {
    "postcode": "55430",
    "city": "Langscheid Hunsrück"
  },
  {
    "postcode": "55430",
    "city": "Langscheid"
  },
  {
    "postcode": "55430",
    "city": "Oberwesel"
  },
  {
    "postcode": "55430",
    "city": "Oberwesel Rhein"
  },
  {
    "postcode": "55430",
    "city": "Perscheid"
  },
  {
    "postcode": "55430",
    "city": "Urbar Rhein-Hunsrück"
  },
  {
    "postcode": "55430",
    "city": "Urbar"
  },
  {
    "postcode": "55430",
    "city": "Rhein-Hunsrück-Kreis"
  },
  {
    "postcode": "55430",
    "city": "Weiler-Boppard"
  },
  {
    "postcode": "55432",
    "city": "Damscheid"
  },
  {
    "postcode": "55432",
    "city": "Niederburg Hunsrück"
  },
  {
    "postcode": "55432",
    "city": "Niederburg"
  },
  {
    "postcode": "55432",
    "city": "Rhein-Hunsrück-Kreis"
  },
  {
    "postcode": "55435",
    "city": "Gau-Algesheim"
  },
  {
    "postcode": "55435",
    "city": "Mainz-Bingen"
  },
  {
    "postcode": "55437",
    "city": "Appenheim Rheinhessen"
  },
  {
    "postcode": "55437",
    "city": "Appenheim"
  },
  {
    "postcode": "55437",
    "city": "Nieder-Hilbersheim"
  },
  {
    "postcode": "55437",
    "city": "Ober-Hilbersheim"
  },
  {
    "postcode": "55437",
    "city": "Ockenheim Rheinhessen"
  },
  {
    "postcode": "55437",
    "city": "Ockenheim"
  },
  {
    "postcode": "55437",
    "city": "Mainz-Bingen"
  },
  {
    "postcode": "55442",
    "city": "Daxweiler"
  },
  {
    "postcode": "55442",
    "city": "Roth bei Stromberg"
  },
  {
    "postcode": "55442",
    "city": "Stromberg Hunsrück"
  },
  {
    "postcode": "55442",
    "city": "Stromberg"
  },
  {
    "postcode": "55442",
    "city": "Warmsroth"
  },
  {
    "postcode": "55442",
    "city": "Bad Kreuznach"
  },
  {
    "postcode": "55442",
    "city": "Roth"
  },
  {
    "postcode": "55444",
    "city": "Dörrebach Hunsrück"
  },
  {
    "postcode": "55444",
    "city": "Dörrebach"
  },
  {
    "postcode": "55444",
    "city": "Eckenroth"
  },
  {
    "postcode": "55444",
    "city": "Schöneberg Hunsrück"
  },
  {
    "postcode": "55444",
    "city": "Schöneberg"
  },
  {
    "postcode": "55444",
    "city": "Schweppenhausen"
  },
  {
    "postcode": "55444",
    "city": "Seibersbach"
  },
  {
    "postcode": "55444",
    "city": "Waldlaubersheim"
  },
  {
    "postcode": "55444",
    "city": "Bad Kreuznach"
  },
  {
    "postcode": "55450",
    "city": "Langenlonsheim"
  },
  {
    "postcode": "55450",
    "city": "Bad Kreuznach"
  },
  {
    "postcode": "55452",
    "city": "Dorsheim"
  },
  {
    "postcode": "55452",
    "city": "Guldental"
  },
  {
    "postcode": "55452",
    "city": "Hergenfeld"
  },
  {
    "postcode": "55452",
    "city": "Laubenheim Nahe"
  },
  {
    "postcode": "55452",
    "city": "Laubenheim"
  },
  {
    "postcode": "55452",
    "city": "Rümmelsheim / Burg Layen"
  },
  {
    "postcode": "55452",
    "city": "Rümmelsheim"
  },
  {
    "postcode": "55452",
    "city": "Windesheim"
  },
  {
    "postcode": "55452",
    "city": "Bad Kreuznach"
  },
  {
    "postcode": "55457",
    "city": "Gensingen"
  },
  {
    "postcode": "55457",
    "city": "Horrweiler"
  },
  {
    "postcode": "55457",
    "city": "Mainz-Bingen"
  },
  {
    "postcode": "55459",
    "city": "Aspisheim"
  },
  {
    "postcode": "55459",
    "city": "Grolsheim"
  },
  {
    "postcode": "55459",
    "city": "Mainz-Bingen"
  },
  {
    "postcode": "55469",
    "city": "Altweidelbach"
  },
  {
    "postcode": "55469",
    "city": "Belgweiler"
  },
  {
    "postcode": "55469",
    "city": "Bergenhausen Hunsrück"
  },
  {
    "postcode": "55469",
    "city": "Bergenhausen"
  },
  {
    "postcode": "55469",
    "city": "Budenbach"
  },
  {
    "postcode": "55469",
    "city": "Holzbach Hunsrück"
  },
  {
    "postcode": "55469",
    "city": "Holzbach"
  },
  {
    "postcode": "55469",
    "city": "Horn Hunsrück"
  },
  {
    "postcode": "55469",
    "city": "Horn"
  },
  {
    "postcode": "55469",
    "city": "Klosterkumbd"
  },
  {
    "postcode": "55469",
    "city": "Mutterschied"
  },
  {
    "postcode": "55469",
    "city": "Nannhausen"
  },
  {
    "postcode": "55469",
    "city": "Nickweiler"
  },
  {
    "postcode": "55469",
    "city": "Niederkumbd"
  },
  {
    "postcode": "55469",
    "city": "Ohlweiler"
  },
  {
    "postcode": "55469",
    "city": "Oppertshausen"
  },
  {
    "postcode": "55469",
    "city": "Pleizenhausen"
  },
  {
    "postcode": "55469",
    "city": "Rayerschied"
  },
  {
    "postcode": "55469",
    "city": "Riegenroth"
  },
  {
    "postcode": "55469",
    "city": "Schönborn Hunsrück"
  },
  {
    "postcode": "55469",
    "city": "Schönborn"
  },
  {
    "postcode": "55469",
    "city": "Simmern / Hunsrück"
  },
  {
    "postcode": "55469",
    "city": "Simmern"
  },
  {
    "postcode": "55469",
    "city": "Wimmersbacherhof"
  },
  {
    "postcode": "55469",
    "city": "Rhein-Hunsrück-Kreis"
  },
  {
    "postcode": "55469",
    "city": "Birkenhof"
  },
  {
    "postcode": "55469",
    "city": "Heidehof"
  },
  {
    "postcode": "55471",
    "city": "Biebern"
  },
  {
    "postcode": "55471",
    "city": "Fronhofen bei Simmern"
  },
  {
    "postcode": "55471",
    "city": "Gaß Hunsrück"
  },
  {
    "postcode": "55471",
    "city": "Gaß"
  },
  {
    "postcode": "55471",
    "city": "Keidelheim"
  },
  {
    "postcode": "55471",
    "city": "Külz (Hunsrück)"
  },
  {
    "postcode": "55471",
    "city": "Külz"
  },
  {
    "postcode": "55471",
    "city": "Kümbdchen"
  },
  {
    "postcode": "55471",
    "city": "Neuerkirch"
  },
  {
    "postcode": "55471",
    "city": "Ravengiersburg"
  },
  {
    "postcode": "55471",
    "city": "Reich Hunsrück"
  },
  {
    "postcode": "55471",
    "city": "Reich"
  },
  {
    "postcode": "55471",
    "city": "Sargenroth"
  },
  {
    "postcode": "55471",
    "city": "Taubenmühle Hunsrück"
  },
  {
    "postcode": "55471",
    "city": "Taubenmühle"
  },
  {
    "postcode": "55471",
    "city": "Tiefenbach Hunsrück"
  },
  {
    "postcode": "55471",
    "city": "Tiefenbach"
  },
  {
    "postcode": "55471",
    "city": "Wüschheim Hunsrück"
  },
  {
    "postcode": "55471",
    "city": "Wüschheim"
  },
  {
    "postcode": "55471",
    "city": "Rhein-Hunsrück-Kreis"
  },
  {
    "postcode": "55471",
    "city": "Fronhofen"
  },
  {
    "postcode": "55481",
    "city": "Dillendorf Hunsrück"
  },
  {
    "postcode": "55481",
    "city": "Dillendorf"
  },
  {
    "postcode": "55481",
    "city": "Hecken Hunsrück"
  },
  {
    "postcode": "55481",
    "city": "Hecken"
  },
  {
    "postcode": "55481",
    "city": "Kirchberg (Hunsrück)"
  },
  {
    "postcode": "55481",
    "city": "Kirchberg"
  },
  {
    "postcode": "55481",
    "city": "Kludenbach"
  },
  {
    "postcode": "55481",
    "city": "Liederbach Hunsrück"
  },
  {
    "postcode": "55481",
    "city": "Liederbach"
  },
  {
    "postcode": "55481",
    "city": "Lindenschied"
  },
  {
    "postcode": "55481",
    "city": "Maitzborn"
  },
  {
    "postcode": "55481",
    "city": "Metzenhausen"
  },
  {
    "postcode": "55481",
    "city": "Nieder Kostenz"
  },
  {
    "postcode": "55481",
    "city": "Ober Kostenz"
  },
  {
    "postcode": "55481",
    "city": "Reckershausen Hunsrück"
  },
  {
    "postcode": "55481",
    "city": "Reckershausen"
  },
  {
    "postcode": "55481",
    "city": "Rödern Hunsrück"
  },
  {
    "postcode": "55481",
    "city": "Rödern"
  },
  {
    "postcode": "55481",
    "city": "Schwarzen Hunsrück"
  },
  {
    "postcode": "55481",
    "city": "Schwarzen"
  },
  {
    "postcode": "55481",
    "city": "Todenroth"
  },
  {
    "postcode": "55481",
    "city": "Womrath"
  },
  {
    "postcode": "55481",
    "city": "Rhein-Hunsrück-Kreis"
  },
  {
    "postcode": "55483",
    "city": "Bärenbach bei Simmern"
  },
  {
    "postcode": "55483",
    "city": "Dickenschied"
  },
  {
    "postcode": "55483",
    "city": "Heinzenbach"
  },
  {
    "postcode": "55483",
    "city": "Hirschfeld (Hunsrück)"
  },
  {
    "postcode": "55483",
    "city": "Hirschfeld"
  },
  {
    "postcode": "55483",
    "city": "Horbruch"
  },
  {
    "postcode": "55483",
    "city": "Kappel Hunsrück"
  },
  {
    "postcode": "55483",
    "city": "Kappel"
  },
  {
    "postcode": "55483",
    "city": "Krummenau Hunsrück"
  },
  {
    "postcode": "55483",
    "city": "Krummenau"
  },
  {
    "postcode": "55483",
    "city": "Lautzenhausen"
  },
  {
    "postcode": "55483",
    "city": "Schlierschied"
  },
  {
    "postcode": "55483",
    "city": "Unzenberg"
  },
  {
    "postcode": "55483",
    "city": "Birkenfeld"
  },
  {
    "postcode": "55483",
    "city": "Bärenbach"
  },
  {
    "postcode": "55483",
    "city": "Büchenbeuren"
  },
  {
    "postcode": "55483",
    "city": "Hahn-Flughafen"
  },
  {
    "postcode": "55483",
    "city": "Scheid"
  },
  {
    "postcode": "55487",
    "city": "Dill"
  },
  {
    "postcode": "55487",
    "city": "Laufersweiler"
  },
  {
    "postcode": "55487",
    "city": "Niedersohren"
  },
  {
    "postcode": "55487",
    "city": "Sohren Hunsrück"
  },
  {
    "postcode": "55487",
    "city": "Sohren"
  },
  {
    "postcode": "55487",
    "city": "Sohrschied"
  },
  {
    "postcode": "55487",
    "city": "Rhein-Hunsrück-Kreis"
  },
  {
    "postcode": "55490",
    "city": "Gehlweiler"
  },
  {
    "postcode": "55490",
    "city": "Gemünden Hunsrück"
  },
  {
    "postcode": "55490",
    "city": "Gemünden"
  },
  {
    "postcode": "55490",
    "city": "Henau Hunsrück"
  },
  {
    "postcode": "55490",
    "city": "Henau"
  },
  {
    "postcode": "55490",
    "city": "Mengerschied"
  },
  {
    "postcode": "55490",
    "city": "Rohrbach Hunsrück"
  },
  {
    "postcode": "55490",
    "city": "Rohrbach"
  },
  {
    "postcode": "55490",
    "city": "Woppenroth"
  },
  {
    "postcode": "55490",
    "city": "Rhein-Hunsrück-Kreis"
  },
  {
    "postcode": "55490",
    "city": "Wildburg"
  },
  {
    "postcode": "55491",
    "city": "Büchenbeuren"
  },
  {
    "postcode": "55491",
    "city": "Niederweiler Hunsrück"
  },
  {
    "postcode": "55491",
    "city": "Niederweiler"
  },
  {
    "postcode": "55491",
    "city": "Wahlenau"
  },
  {
    "postcode": "55491",
    "city": "Rhein-Hunsrück-Kreis"
  },
  {
    "postcode": "55491",
    "city": "Scheid"
  },
  {
    "postcode": "55494",
    "city": "Benzweiler"
  },
  {
    "postcode": "55494",
    "city": "Dichtelbach"
  },
  {
    "postcode": "55494",
    "city": "Erbach Hunsrück"
  },
  {
    "postcode": "55494",
    "city": "Erbach"
  },
  {
    "postcode": "55494",
    "city": "Kleinweidelbach"
  },
  {
    "postcode": "55494",
    "city": "Liebshausen"
  },
  {
    "postcode": "55494",
    "city": "Mörschbach"
  },
  {
    "postcode": "55494",
    "city": "Rheinböllen"
  },
  {
    "postcode": "55494",
    "city": "Rheinböllerhütte"
  },
  {
    "postcode": "55494",
    "city": "Wahlbach Hunsrück"
  },
  {
    "postcode": "55494",
    "city": "Wahlbach"
  },
  {
    "postcode": "55494",
    "city": "Rhein-Hunsrück-Kreis"
  },
  {
    "postcode": "55496",
    "city": "Argenthal"
  },
  {
    "postcode": "55496",
    "city": "Rhein-Hunsrück-Kreis"
  },
  {
    "postcode": "55497",
    "city": "Ellern (Hunsrück)"
  },
  {
    "postcode": "55497",
    "city": "Ellern"
  },
  {
    "postcode": "55497",
    "city": "Schnorbach"
  },
  {
    "postcode": "55497",
    "city": "Rhein-Hunsrück-Kreis"
  },
  {
    "postcode": "55499",
    "city": "Riesweiler Hunsrück"
  },
  {
    "postcode": "55499",
    "city": "Riesweiler"
  },
  {
    "postcode": "55499",
    "city": "Rhein-Hunsrück-Kreis"
  },
  {
    "postcode": "55543",
    "city": "Bad Kreuznach"
  },
  {
    "postcode": "55543",
    "city": "Rosenhof"
  },
  {
    "postcode": "55545",
    "city": "Bad Kreuznach"
  },
  {
    "postcode": "55545",
    "city": "Bosenheim"
  },
  {
    "postcode": "55545",
    "city": "Ippesheim Rheinhessen"
  },
  {
    "postcode": "55545",
    "city": "Ippesheim"
  },
  {
    "postcode": "55545",
    "city": "Planig Rheinhessen"
  },
  {
    "postcode": "55545",
    "city": "Planig"
  },
  {
    "postcode": "55545",
    "city": "Winzenheim"
  },
  {
    "postcode": "55546",
    "city": "Biebelsheim"
  },
  {
    "postcode": "55546",
    "city": "Frei-Laubersheim"
  },
  {
    "postcode": "55546",
    "city": "Fürfeld Kreis Bad Kreuznach"
  },
  {
    "postcode": "55546",
    "city": "Fürfeld"
  },
  {
    "postcode": "55546",
    "city": "Hackenheim"
  },
  {
    "postcode": "55546",
    "city": "Neu-Bamberg"
  },
  {
    "postcode": "55546",
    "city": "Pfaffen-Schwabenheim"
  },
  {
    "postcode": "55546",
    "city": "Tiefenthal Rheinhessen"
  },
  {
    "postcode": "55546",
    "city": "Tiefenthal"
  },
  {
    "postcode": "55546",
    "city": "Volxheim"
  },
  {
    "postcode": "55546",
    "city": "Bad Kreuznach"
  },
  {
    "postcode": "55559",
    "city": "Bretzenheim Nahe"
  },
  {
    "postcode": "55559",
    "city": "Bretzenheim"
  },
  {
    "postcode": "55559",
    "city": "Bad Kreuznach"
  },
  {
    "postcode": "55566",
    "city": "Bad Sobernheim"
  },
  {
    "postcode": "55566",
    "city": "Daubach Hunsrück"
  },
  {
    "postcode": "55566",
    "city": "Daubach"
  },
  {
    "postcode": "55566",
    "city": "Ippenschied"
  },
  {
    "postcode": "55566",
    "city": "Kirschroth"
  },
  {
    "postcode": "55566",
    "city": "Meddersheim"
  },
  {
    "postcode": "55566",
    "city": "Rehbach bei Sobernheim"
  },
  {
    "postcode": "55566",
    "city": "Bad Kreuznach"
  },
  {
    "postcode": "55566",
    "city": "Rehbach"
  },
  {
    "postcode": "55566",
    "city": "Steinhardt"
  },
  {
    "postcode": "55568",
    "city": "Abtweiler"
  },
  {
    "postcode": "55568",
    "city": "Lauschied"
  },
  {
    "postcode": "55568",
    "city": "Sankt Antoniushof"
  },
  {
    "postcode": "55568",
    "city": "Staudernheim"
  },
  {
    "postcode": "55568",
    "city": "Bad Kreuznach"
  },
  {
    "postcode": "55569",
    "city": "Auen bei Monzingen"
  },
  {
    "postcode": "55569",
    "city": "Langenthal Hunsrück"
  },
  {
    "postcode": "55569",
    "city": "Langenthal"
  },
  {
    "postcode": "55569",
    "city": "Monzingen"
  },
  {
    "postcode": "55569",
    "city": "Nußbaum Kreis Bad Kreuznach"
  },
  {
    "postcode": "55569",
    "city": "Nußbaum"
  },
  {
    "postcode": "55569",
    "city": "Bad Kreuznach"
  },
  {
    "postcode": "55569",
    "city": "Auen"
  },
  {
    "postcode": "55571",
    "city": "Odernheim am Glan"
  },
  {
    "postcode": "55571",
    "city": "Bad Kreuznach"
  },
  {
    "postcode": "55576",
    "city": "Badenheim"
  },
  {
    "postcode": "55576",
    "city": "Pleitersheim"
  },
  {
    "postcode": "55576",
    "city": "Sprendlingen Rheinhessen"
  },
  {
    "postcode": "55576",
    "city": "Sprendlingen"
  },
  {
    "postcode": "55576",
    "city": "Welgesheim"
  },
  {
    "postcode": "55576",
    "city": "Zotzenheim"
  },
  {
    "postcode": "55576",
    "city": "Bad Kreuznach"
  },
  {
    "postcode": "55578",
    "city": "Gau-Weinheim"
  },
  {
    "postcode": "55578",
    "city": "Sankt Johann (Rheinhessen)"
  },
  {
    "postcode": "55578",
    "city": "Sankt Johann"
  },
  {
    "postcode": "55578",
    "city": "Vendersheim"
  },
  {
    "postcode": "55578",
    "city": "Wallertheim"
  },
  {
    "postcode": "55578",
    "city": "Wolfsheim"
  },
  {
    "postcode": "55578",
    "city": "Alzey-Worms"
  },
  {
    "postcode": "55578",
    "city": "St. Johann"
  },
  {
    "postcode": "55583",
    "city": "Bad Münster am Stein-Ebernburg"
  },
  {
    "postcode": "55583",
    "city": "Bad Kreuznach"
  },
  {
    "postcode": "55583",
    "city": "Bad Münster-Ebernburg"
  },
  {
    "postcode": "55585",
    "city": "Altenbamberg"
  },
  {
    "postcode": "55585",
    "city": "Brücklocherhof"
  },
  {
    "postcode": "55585",
    "city": "Duchroth"
  },
  {
    "postcode": "55585",
    "city": "Hochstätten Kreis Bad Kreuznach"
  },
  {
    "postcode": "55585",
    "city": "Hochstätten"
  },
  {
    "postcode": "55585",
    "city": "Montforterhof"
  },
  {
    "postcode": "55585",
    "city": "Niederhausen Nahe"
  },
  {
    "postcode": "55585",
    "city": "Niederhausen"
  },
  {
    "postcode": "55585",
    "city": "Norheim Nahe"
  },
  {
    "postcode": "55585",
    "city": "Norheim"
  },
  {
    "postcode": "55585",
    "city": "Oberhausen an der Nahe"
  },
  {
    "postcode": "55585",
    "city": "Bad Kreuznach"
  },
  {
    "postcode": "55590",
    "city": "Meisenheim Glan"
  },
  {
    "postcode": "55590",
    "city": "Meisenheim"
  },
  {
    "postcode": "55590",
    "city": "Bad Kreuznach"
  },
  {
    "postcode": "55592",
    "city": "Breitenheim"
  },
  {
    "postcode": "55592",
    "city": "Desloch"
  },
  {
    "postcode": "55592",
    "city": "Jeckenbach"
  },
  {
    "postcode": "55592",
    "city": "Raumbach"
  },
  {
    "postcode": "55592",
    "city": "Rehborn"
  },
  {
    "postcode": "55592",
    "city": "Bad Kreuznach"
  },
  {
    "postcode": "55593",
    "city": "Rüdesheim Kreis Bad Kreuznach"
  },
  {
    "postcode": "55593",
    "city": "Rüdesheim"
  },
  {
    "postcode": "55593",
    "city": "Bad Kreuznach"
  },
  {
    "postcode": "55595",
    "city": "Allenfeld"
  },
  {
    "postcode": "55595",
    "city": "Argenschwang"
  },
  {
    "postcode": "55595",
    "city": "Bockenau"
  },
  {
    "postcode": "55595",
    "city": "Boos Nahe"
  },
  {
    "postcode": "55595",
    "city": "Boos"
  },
  {
    "postcode": "55595",
    "city": "Braunweiler"
  },
  {
    "postcode": "55595",
    "city": "Burgsponheim"
  },
  {
    "postcode": "55595",
    "city": "Dalberg Kreis Bad Kreuznach"
  },
  {
    "postcode": "55595",
    "city": "Dalberg"
  },
  {
    "postcode": "55595",
    "city": "Gebroth"
  },
  {
    "postcode": "55595",
    "city": "Gutenberg Kreis Bad Kreuznach"
  },
  {
    "postcode": "55595",
    "city": "Gutenberg"
  },
  {
    "postcode": "55595",
    "city": "Hargesheim"
  },
  {
    "postcode": "55595",
    "city": "Hüffelsheim"
  },
  {
    "postcode": "55595",
    "city": "Kreershäuschen Kreis Bad Kreuznach"
  },
  {
    "postcode": "55595",
    "city": "Kreershäuschen"
  },
  {
    "postcode": "55595",
    "city": "Mandel"
  },
  {
    "postcode": "55595",
    "city": "Münchwald"
  },
  {
    "postcode": "55595",
    "city": "Oberhub"
  },
  {
    "postcode": "55595",
    "city": "Roxheim Kreis Bad Kreuznach"
  },
  {
    "postcode": "55595",
    "city": "Roxheim"
  },
  {
    "postcode": "55595",
    "city": "Sankt Katharinen (Kreis Bad Kreuznach)"
  },
  {
    "postcode": "55595",
    "city": "Sankt Katharinen"
  },
  {
    "postcode": "55595",
    "city": "Sommerloch"
  },
  {
    "postcode": "55595",
    "city": "Spabrücken"
  },
  {
    "postcode": "55595",
    "city": "Spall"
  },
  {
    "postcode": "55595",
    "city": "Sponheim"
  },
  {
    "postcode": "55595",
    "city": "Traisen"
  },
  {
    "postcode": "55595",
    "city": "Unterhub"
  },
  {
    "postcode": "55595",
    "city": "Wallhausen Kreis Bad Kreuznach"
  },
  {
    "postcode": "55595",
    "city": "Wallhausen"
  },
  {
    "postcode": "55595",
    "city": "Weinsheim Kreis Bad Kreuznach"
  },
  {
    "postcode": "55595",
    "city": "Weinsheim"
  },
  {
    "postcode": "55595",
    "city": "Winterbach Kreis Bad Kreuznach"
  },
  {
    "postcode": "55595",
    "city": "Winterbach"
  },
  {
    "postcode": "55595",
    "city": "Winterburg"
  },
  {
    "postcode": "55595",
    "city": "Bad Kreuznach"
  },
  {
    "postcode": "55596",
    "city": "Oberstreit"
  },
  {
    "postcode": "55596",
    "city": "Schloßböckelheim"
  },
  {
    "postcode": "55596",
    "city": "Waldböckelheim"
  },
  {
    "postcode": "55596",
    "city": "Bad Kreuznach"
  },
  {
    "postcode": "55596",
    "city": "Schloß"
  },
  {
    "postcode": "55597",
    "city": "Gumbsheim"
  },
  {
    "postcode": "55597",
    "city": "Wöllstein Rheinhessen"
  },
  {
    "postcode": "55597",
    "city": "Wöllstein"
  },
  {
    "postcode": "55597",
    "city": "Alzey-Worms"
  },
  {
    "postcode": "55599",
    "city": "Eckelsheim"
  },
  {
    "postcode": "55599",
    "city": "Gau-Bickelheim"
  },
  {
    "postcode": "55599",
    "city": "Siefersheim"
  },
  {
    "postcode": "55599",
    "city": "Stein-Bockenheim"
  },
  {
    "postcode": "55599",
    "city": "Wonsheim"
  },
  {
    "postcode": "55599",
    "city": "Alzey-Worms"
  },
  {
    "postcode": "55606",
    "city": "Bärweiler"
  },
  {
    "postcode": "55606",
    "city": "Brauweiler bei Kirn"
  },
  {
    "postcode": "55606",
    "city": "Bruschied"
  },
  {
    "postcode": "55606",
    "city": "Dhaun"
  },
  {
    "postcode": "55606",
    "city": "Hahnenbach"
  },
  {
    "postcode": "55606",
    "city": "Heimweiler"
  },
  {
    "postcode": "55606",
    "city": "Heinzenberg bei Kirn"
  },
  {
    "postcode": "55606",
    "city": "Hochstädten bei Kirn Nahe"
  },
  {
    "postcode": "55606",
    "city": "Hochstädten bei Kirn"
  },
  {
    "postcode": "55606",
    "city": "Hochstetten"
  },
  {
    "postcode": "55606",
    "city": "Hochstetten-Dhaun"
  },
  {
    "postcode": "55606",
    "city": "Horbach bei Simmertal"
  },
  {
    "postcode": "55606",
    "city": "Kellenbach"
  },
  {
    "postcode": "55606",
    "city": "Kirn Nahe"
  },
  {
    "postcode": "55606",
    "city": "Kirn"
  },
  {
    "postcode": "55606",
    "city": "Königsau bei Kirn"
  },
  {
    "postcode": "55606",
    "city": "Limbach bei Kirn"
  },
  {
    "postcode": "55606",
    "city": "Meckenbach bei Kirn"
  },
  {
    "postcode": "55606",
    "city": "Oberhausen bei Kirn"
  },
  {
    "postcode": "55606",
    "city": "Otzweiler"
  },
  {
    "postcode": "55606",
    "city": "Sankt Johannisberg"
  },
  {
    "postcode": "55606",
    "city": "Bad Kreuznach"
  },
  {
    "postcode": "55606",
    "city": "Brauweiler"
  },
  {
    "postcode": "55606",
    "city": "Heinzenberg"
  },
  {
    "postcode": "55606",
    "city": "Heinzenberger-Gesellschaftsmüh"
  },
  {
    "postcode": "55606",
    "city": "Horbach"
  },
  {
    "postcode": "55606",
    "city": "Hottenmühle"
  },
  {
    "postcode": "55606",
    "city": "Königsau"
  },
  {
    "postcode": "55606",
    "city": "Limbach"
  },
  {
    "postcode": "55606",
    "city": "Lochmühle"
  },
  {
    "postcode": "55606",
    "city": "Meckenbach"
  },
  {
    "postcode": "55606",
    "city": "Oberhausen"
  },
  {
    "postcode": "55606",
    "city": "Welschrötherhof"
  },
  {
    "postcode": "55606",
    "city": "Hochstädten"
  },
  {
    "postcode": "55606",
    "city": "Karlshof"
  },
  {
    "postcode": "55606",
    "city": "St. Johannisberg"
  },
  {
    "postcode": "55606",
    "city": "Kallenfels"
  },
  {
    "postcode": "55608",
    "city": "Becherbach bei Kirn"
  },
  {
    "postcode": "55608",
    "city": "Bergen bei Kirn"
  },
  {
    "postcode": "55608",
    "city": "Berschweiler bei Kirn"
  },
  {
    "postcode": "55608",
    "city": "Griebelschied"
  },
  {
    "postcode": "55608",
    "city": "Hausen Hunsrück"
  },
  {
    "postcode": "55608",
    "city": "Hausen"
  },
  {
    "postcode": "55608",
    "city": "Schneppenbach Hunsrück"
  },
  {
    "postcode": "55608",
    "city": "Schneppenbach"
  },
  {
    "postcode": "55608",
    "city": "Bad Kreuznach"
  },
  {
    "postcode": "55608",
    "city": "Becherbach"
  },
  {
    "postcode": "55608",
    "city": "Bergen"
  },
  {
    "postcode": "55618",
    "city": "Simmertal"
  },
  {
    "postcode": "55618",
    "city": "Bad Kreuznach"
  },
  {
    "postcode": "55619",
    "city": "Hennweiler"
  },
  {
    "postcode": "55619",
    "city": "Bad Kreuznach"
  },
  {
    "postcode": "55621",
    "city": "Hundsbach bei Kirn"
  },
  {
    "postcode": "55621",
    "city": "Lochmühle bei Kirn Nahe"
  },
  {
    "postcode": "55621",
    "city": "Lochmühle bei Kirn"
  },
  {
    "postcode": "55621",
    "city": "Bad Kreuznach"
  },
  {
    "postcode": "55621",
    "city": "Hundsbach"
  },
  {
    "postcode": "55624",
    "city": "Bollenbach Hunsrück"
  },
  {
    "postcode": "55624",
    "city": "Bollenbach"
  },
  {
    "postcode": "55624",
    "city": "Gösenroth"
  },
  {
    "postcode": "55624",
    "city": "Oberkirn"
  },
  {
    "postcode": "55624",
    "city": "Rhaunen Hunsrück"
  },
  {
    "postcode": "55624",
    "city": "Rhaunen"
  },
  {
    "postcode": "55624",
    "city": "Schwerbach"
  },
  {
    "postcode": "55624",
    "city": "Weitersbach"
  },
  {
    "postcode": "55624",
    "city": "Birkenfeld"
  },
  {
    "postcode": "55626",
    "city": "Bundenbach"
  },
  {
    "postcode": "55626",
    "city": "Birkenfeld"
  },
  {
    "postcode": "55627",
    "city": "Martinstein"
  },
  {
    "postcode": "55627",
    "city": "Merxheim Nahe"
  },
  {
    "postcode": "55627",
    "city": "Merxheim"
  },
  {
    "postcode": "55627",
    "city": "Weiler bei Monzingen"
  },
  {
    "postcode": "55627",
    "city": "Bad Kreuznach"
  },
  {
    "postcode": "55629",
    "city": "Schwarzerden Hunsrück"
  },
  {
    "postcode": "55629",
    "city": "Schwarzerden"
  },
  {
    "postcode": "55629",
    "city": "Seesbach"
  },
  {
    "postcode": "55629",
    "city": "Weitersborn"
  },
  {
    "postcode": "55629",
    "city": "Bad Kreuznach"
  },
  {
    "postcode": "55743",
    "city": "Algenrodt"
  },
  {
    "postcode": "55743",
    "city": "Enzweiler"
  },
  {
    "postcode": "55743",
    "city": "Fischbach bei Idar-Oberstein"
  },
  {
    "postcode": "55743",
    "city": "Georg-Weierbach"
  },
  {
    "postcode": "55743",
    "city": "Gerach bei Idar-Oberstein"
  },
  {
    "postcode": "55743",
    "city": "Göttschied"
  },
  {
    "postcode": "55743",
    "city": "Hammerstein Nahe"
  },
  {
    "postcode": "55743",
    "city": "Hammerstein"
  },
  {
    "postcode": "55743",
    "city": "Hintertiefenbach"
  },
  {
    "postcode": "55743",
    "city": "Hüttgeswasen"
  },
  {
    "postcode": "55743",
    "city": "Idar"
  },
  {
    "postcode": "55743",
    "city": "Idar-Oberstein"
  },
  {
    "postcode": "55743",
    "city": "Kirchenbollenbach"
  },
  {
    "postcode": "55743",
    "city": "Kirschweiler"
  },
  {
    "postcode": "55743",
    "city": "Mittelbollenbach"
  },
  {
    "postcode": "55743",
    "city": "Nahbollenbach"
  },
  {
    "postcode": "55743",
    "city": "Oberstein"
  },
  {
    "postcode": "55743",
    "city": "Regulshausen"
  },
  {
    "postcode": "55743",
    "city": "Tiefenstein"
  },
  {
    "postcode": "55743",
    "city": "Weierbach"
  },
  {
    "postcode": "55743",
    "city": "Birkenfeld"
  },
  {
    "postcode": "55743",
    "city": "Fischbach"
  },
  {
    "postcode": "55743",
    "city": "Gerach"
  },
  {
    "postcode": "55743",
    "city": "Gerichtsmannsmühle"
  },
  {
    "postcode": "55756",
    "city": "Herrstein"
  },
  {
    "postcode": "55756",
    "city": "Birkenfeld"
  },
  {
    "postcode": "55758",
    "city": "Allenbach Hunsrück"
  },
  {
    "postcode": "55758",
    "city": "Allenbach"
  },
  {
    "postcode": "55758",
    "city": "Asbach Hunsrück"
  },
  {
    "postcode": "55758",
    "city": "Asbach"
  },
  {
    "postcode": "55758",
    "city": "Asbacherhütte"
  },
  {
    "postcode": "55758",
    "city": "Bärenbach bei Idar-Oberstein"
  },
  {
    "postcode": "55758",
    "city": "Breitenthal bei Idar-Oberstein"
  },
  {
    "postcode": "55758",
    "city": "Bruchweiler"
  },
  {
    "postcode": "55758",
    "city": "Dickesbach"
  },
  {
    "postcode": "55758",
    "city": "Hammerbirkenfeld"
  },
  {
    "postcode": "55758",
    "city": "Hellertshausen"
  },
  {
    "postcode": "55758",
    "city": "Herborn bei Idar-Oberstein"
  },
  {
    "postcode": "55758",
    "city": "Hettenrodt"
  },
  {
    "postcode": "55758",
    "city": "Hottenbach"
  },
  {
    "postcode": "55758",
    "city": "Kempfeld"
  },
  {
    "postcode": "55758",
    "city": "Langweiler bei Idar-Oberstein"
  },
  {
    "postcode": "55758",
    "city": "Mackenrodt"
  },
  {
    "postcode": "55758",
    "city": "Mittelreidenbach"
  },
  {
    "postcode": "55758",
    "city": "Mörschied"
  },
  {
    "postcode": "55758",
    "city": "Niederhosenbach"
  },
  {
    "postcode": "55758",
    "city": "Niederwörresbach"
  },
  {
    "postcode": "55758",
    "city": "Oberhosenbach"
  },
  {
    "postcode": "55758",
    "city": "Oberreidenbach"
  },
  {
    "postcode": "55758",
    "city": "Oberwörresbach"
  },
  {
    "postcode": "55758",
    "city": "Schauren bei Idar-Oberstein"
  },
  {
    "postcode": "55758",
    "city": "Schmidthachenbach"
  },
  {
    "postcode": "55758",
    "city": "Sensweiler"
  },
  {
    "postcode": "55758",
    "city": "Sien"
  },
  {
    "postcode": "55758",
    "city": "Sienhachenbach"
  },
  {
    "postcode": "55758",
    "city": "Sonnschied"
  },
  {
    "postcode": "55758",
    "city": "Stipshausen"
  },
  {
    "postcode": "55758",
    "city": "Sulzbach bei Idar-Oberstein"
  },
  {
    "postcode": "55758",
    "city": "Veitsrodt"
  },
  {
    "postcode": "55758",
    "city": "Vollmersbach"
  },
  {
    "postcode": "55758",
    "city": "Weiden bei Hottenbach"
  },
  {
    "postcode": "55758",
    "city": "Wickenrodt"
  },
  {
    "postcode": "55758",
    "city": "Wirschweiler"
  },
  {
    "postcode": "55758",
    "city": "Bad Kreuznach"
  },
  {
    "postcode": "55758",
    "city": "Breitenthal"
  },
  {
    "postcode": "55758",
    "city": "Bärenbach"
  },
  {
    "postcode": "55758",
    "city": "Harfenmühle"
  },
  {
    "postcode": "55758",
    "city": "Herborn"
  },
  {
    "postcode": "55758",
    "city": "Langweiler"
  },
  {
    "postcode": "55758",
    "city": "Schauren"
  },
  {
    "postcode": "55758",
    "city": "Sulzbach"
  },
  {
    "postcode": "55758",
    "city": "Weiden"
  },
  {
    "postcode": "55758",
    "city": "Katzenloch"
  },
  {
    "postcode": "55765",
    "city": "Birkenfeld Nahe"
  },
  {
    "postcode": "55765",
    "city": "Birkenfeld"
  },
  {
    "postcode": "55765",
    "city": "Dambach Kreis Birkenfeld"
  },
  {
    "postcode": "55765",
    "city": "Dambach"
  },
  {
    "postcode": "55765",
    "city": "Dienstweiler"
  },
  {
    "postcode": "55765",
    "city": "Eborn"
  },
  {
    "postcode": "55765",
    "city": "Elchweiler"
  },
  {
    "postcode": "55765",
    "city": "Ellenberg bei Birkenfeld"
  },
  {
    "postcode": "55765",
    "city": "Ellweiler"
  },
  {
    "postcode": "55765",
    "city": "Oberhambach bei Birkenfeld"
  },
  {
    "postcode": "55765",
    "city": "Rimsberg"
  },
  {
    "postcode": "55765",
    "city": "Schmißberg"
  },
  {
    "postcode": "55765",
    "city": "Waldfriede bei Birkenfeld Nahe"
  },
  {
    "postcode": "55765",
    "city": "Waldfriede bei Birkenfeld"
  },
  {
    "postcode": "55765",
    "city": "Ellenberg"
  },
  {
    "postcode": "55765",
    "city": "Oberhambach"
  },
  {
    "postcode": "55765",
    "city": "Waldfriede"
  },
  {
    "postcode": "55767",
    "city": "Abentheuer"
  },
  {
    "postcode": "55767",
    "city": "Achtelsbach"
  },
  {
    "postcode": "55767",
    "city": "Böschweiler"
  },
  {
    "postcode": "55767",
    "city": "Brücken (Birkenfeld)"
  },
  {
    "postcode": "55767",
    "city": "Brücken"
  },
  {
    "postcode": "55767",
    "city": "Buhlenberg"
  },
  {
    "postcode": "55767",
    "city": "Burbach"
  },
  {
    "postcode": "55767",
    "city": "Gimbweiler"
  },
  {
    "postcode": "55767",
    "city": "Gollenberg (Kreis Birkenfeld)"
  },
  {
    "postcode": "55767",
    "city": "Gollenberg"
  },
  {
    "postcode": "55767",
    "city": "Hattgenstein"
  },
  {
    "postcode": "55767",
    "city": "Heidehof bei Idar-Oberstein"
  },
  {
    "postcode": "55767",
    "city": "Heupweiler"
  },
  {
    "postcode": "55767",
    "city": "Hußweiler"
  },
  {
    "postcode": "55767",
    "city": "Kronweiler"
  },
  {
    "postcode": "55767",
    "city": "Leisel"
  },
  {
    "postcode": "55767",
    "city": "Meckenbach Kreis Birkenfeld"
  },
  {
    "postcode": "55767",
    "city": "Meckenbach"
  },
  {
    "postcode": "55767",
    "city": "Niederbrombach"
  },
  {
    "postcode": "55767",
    "city": "Niederhambach"
  },
  {
    "postcode": "55767",
    "city": "Nockenthal"
  },
  {
    "postcode": "55767",
    "city": "Nohen"
  },
  {
    "postcode": "55767",
    "city": "Oberbrombach bei Idar-Oberstein"
  },
  {
    "postcode": "55767",
    "city": "Rinzenberg"
  },
  {
    "postcode": "55767",
    "city": "Rötsweiler"
  },
  {
    "postcode": "55767",
    "city": "Rötsweiler-Nockenthal"
  },
  {
    "postcode": "55767",
    "city": "Schwollen"
  },
  {
    "postcode": "55767",
    "city": "Siesbach"
  },
  {
    "postcode": "55767",
    "city": "Sonnenberg"
  },
  {
    "postcode": "55767",
    "city": "Sonnenberg-Winnenberg"
  },
  {
    "postcode": "55767",
    "city": "Traunen Birkenfeld"
  },
  {
    "postcode": "55767",
    "city": "Traunen"
  },
  {
    "postcode": "55767",
    "city": "Wilzenberg"
  },
  {
    "postcode": "55767",
    "city": "Wilzenberg-Hußweiler"
  },
  {
    "postcode": "55767",
    "city": "Winnenberg"
  },
  {
    "postcode": "55767",
    "city": "Birkenfeld"
  },
  {
    "postcode": "55767",
    "city": "Oberbrombach"
  },
  {
    "postcode": "55768",
    "city": "Hoppstädten"
  },
  {
    "postcode": "55768",
    "city": "Hoppstädten-Weiersbach"
  },
  {
    "postcode": "55768",
    "city": "Neubrücke"
  },
  {
    "postcode": "55768",
    "city": "Weiersbach"
  },
  {
    "postcode": "55768",
    "city": "Birkenfeld"
  },
  {
    "postcode": "55774",
    "city": "Baumholder"
  },
  {
    "postcode": "55774",
    "city": "Birkenfeld"
  },
  {
    "postcode": "55776",
    "city": "Berglangenbach"
  },
  {
    "postcode": "55776",
    "city": "Frauenberg bei Idar-Oberstein"
  },
  {
    "postcode": "55776",
    "city": "Hahnweiler"
  },
  {
    "postcode": "55776",
    "city": "Reichenbach Kreis Birkenfeld"
  },
  {
    "postcode": "55776",
    "city": "Reichenbach"
  },
  {
    "postcode": "55776",
    "city": "Rohrbach Nahe"
  },
  {
    "postcode": "55776",
    "city": "Rohrbach"
  },
  {
    "postcode": "55776",
    "city": "Rückweiler"
  },
  {
    "postcode": "55776",
    "city": "Ruschberg"
  },
  {
    "postcode": "55776",
    "city": "Birkenfeld"
  },
  {
    "postcode": "55776",
    "city": "Frauenberg"
  },
  {
    "postcode": "55777",
    "city": "Berschweiler bei Baumholder"
  },
  {
    "postcode": "55777",
    "city": "Eckersweiler"
  },
  {
    "postcode": "55777",
    "city": "Fohren-Linden"
  },
  {
    "postcode": "55777",
    "city": "Mettweiler"
  },
  {
    "postcode": "55777",
    "city": "Birkenfeld"
  },
  {
    "postcode": "55777",
    "city": "Berschweiler"
  },
  {
    "postcode": "55779",
    "city": "Heimbach Nahe"
  },
  {
    "postcode": "55779",
    "city": "Heimbach"
  },
  {
    "postcode": "55779",
    "city": "Leitzweiler bei Baumholder"
  },
  {
    "postcode": "55779",
    "city": "Birkenfeld"
  },
  {
    "postcode": "55779",
    "city": "Leitzweiler"
  }
]