[
  {
    "postcode": "4205",
    "city": "Leipzig"
  },
  {
    "postcode": "4205",
    "city": "Miltitz"
  },
  {
    "postcode": "4205",
    "city": "Grünau-Nord"
  },
  {
    "postcode": "4205",
    "city": "Schönau"
  },
  {
    "postcode": "4205",
    "city": "Grünau-Mitte"
  },
  {
    "postcode": "4205",
    "city": "Grünau-Siedlung"
  },
  {
    "postcode": "4207",
    "city": "Leipzig"
  },
  {
    "postcode": "4207",
    "city": "Grünau-Siedlung"
  },
  {
    "postcode": "4207",
    "city": "Lausen-Grünau"
  },
  {
    "postcode": "4207",
    "city": "Grünau"
  },
  {
    "postcode": "4207",
    "city": "Kleinzschocher"
  },
  {
    "postcode": "4207",
    "city": "Großzschocher"
  },
  {
    "postcode": "4209",
    "city": "Leipzig"
  },
  {
    "postcode": "4209",
    "city": "Grünau-Mitte"
  },
  {
    "postcode": "4209",
    "city": "Grünau-Ost"
  },
  {
    "postcode": "4209",
    "city": "Grünau-Nord"
  },
  {
    "postcode": "4209",
    "city": "Schönau"
  },
  {
    "postcode": "4209",
    "city": "Grünau"
  },
  {
    "postcode": "4229",
    "city": "Leipzig"
  },
  {
    "postcode": "4229",
    "city": "Schleußig"
  },
  {
    "postcode": "4229",
    "city": "Plagwitz"
  },
  {
    "postcode": "4229",
    "city": "Kleinzschocher"
  },
  {
    "postcode": "4249",
    "city": "Leipzig"
  },
  {
    "postcode": "4249",
    "city": "Knautkleeberg-Knauthain"
  },
  {
    "postcode": "4249",
    "city": "Hartmannsdorf-Knautnaundorf"
  },
  {
    "postcode": "4249",
    "city": "Großzschocher"
  },
  {
    "postcode": "4249",
    "city": "Grünau"
  },
  {
    "postcode": "4249",
    "city": "Lausen-Grünau"
  },
  {
    "postcode": "4275",
    "city": "Leipzig"
  },
  {
    "postcode": "4275",
    "city": "Südvorstadt"
  },
  {
    "postcode": "4277",
    "city": "Leipzig"
  },
  {
    "postcode": "4277",
    "city": "Connewitz"
  },
  {
    "postcode": "4277",
    "city": "Marienbrunn"
  },
  {
    "postcode": "4277",
    "city": "Probstheida"
  },
  {
    "postcode": "4277",
    "city": "Stötteritz"
  },
  {
    "postcode": "4279",
    "city": "Leipzig"
  },
  {
    "postcode": "4279",
    "city": "Dölitz-Dösen"
  },
  {
    "postcode": "4279",
    "city": "Lößnig"
  },
  {
    "postcode": "4288",
    "city": "Leipzig"
  },
  {
    "postcode": "4288",
    "city": "Liebertwolkwitz"
  },
  {
    "postcode": "4288",
    "city": "Holzhausen"
  },
  {
    "postcode": "4289",
    "city": "Leipzig"
  },
  {
    "postcode": "4289",
    "city": "Probstheida"
  },
  {
    "postcode": "4289",
    "city": "Meusdorf"
  },
  {
    "postcode": "4299",
    "city": "Leipzig"
  },
  {
    "postcode": "4299",
    "city": "Stötteritz"
  },
  {
    "postcode": "4299",
    "city": "Probstheida"
  },
  {
    "postcode": "42103",
    "city": "Elberfeld"
  },
  {
    "postcode": "42103",
    "city": "Wuppertal"
  },
  {
    "postcode": "42105",
    "city": "Elberfeld"
  },
  {
    "postcode": "42105",
    "city": "Wuppertal"
  },
  {
    "postcode": "42107",
    "city": "Elberfeld"
  },
  {
    "postcode": "42107",
    "city": "Wuppertal"
  },
  {
    "postcode": "42109",
    "city": "Elberfeld"
  },
  {
    "postcode": "42109",
    "city": "Wuppertal"
  },
  {
    "postcode": "42109",
    "city": "Uellendahl-Katernberg"
  },
  {
    "postcode": "42111",
    "city": "Elberfeld"
  },
  {
    "postcode": "42111",
    "city": "Wuppertal"
  },
  {
    "postcode": "42111",
    "city": "Stadt Wülfrath"
  },
  {
    "postcode": "42113",
    "city": "Elberfeld"
  },
  {
    "postcode": "42113",
    "city": "Wuppertal"
  },
  {
    "postcode": "42113",
    "city": "Uellendahl-Katernberg"
  },
  {
    "postcode": "42115",
    "city": "Elberfeld"
  },
  {
    "postcode": "42115",
    "city": "Wuppertal"
  },
  {
    "postcode": "42117",
    "city": "Elberfeld"
  },
  {
    "postcode": "42117",
    "city": "Wuppertal"
  },
  {
    "postcode": "42117",
    "city": "Elberfeld-West"
  },
  {
    "postcode": "42119",
    "city": "Elberfeld"
  },
  {
    "postcode": "42119",
    "city": "Wuppertal"
  },
  {
    "postcode": "42275",
    "city": "Barmen"
  },
  {
    "postcode": "42275",
    "city": "Wuppertal"
  },
  {
    "postcode": "42275",
    "city": "Oberbarmen"
  },
  {
    "postcode": "42277",
    "city": "Barmen"
  },
  {
    "postcode": "42277",
    "city": "Wuppertal"
  },
  {
    "postcode": "42277",
    "city": "Oberbarmen"
  },
  {
    "postcode": "42277",
    "city": "Langerfeld-Beyenburg"
  },
  {
    "postcode": "42279",
    "city": "Barmen"
  },
  {
    "postcode": "42279",
    "city": "Stadt Sprockhövel"
  },
  {
    "postcode": "42279",
    "city": "Wuppertal"
  },
  {
    "postcode": "42279",
    "city": "Langerfeld-Beyenburg"
  },
  {
    "postcode": "42279",
    "city": "Oberbarmen"
  },
  {
    "postcode": "42281",
    "city": "Barmen"
  },
  {
    "postcode": "42281",
    "city": "Wuppertal"
  },
  {
    "postcode": "42283",
    "city": "Barmen"
  },
  {
    "postcode": "42283",
    "city": "Wuppertal"
  },
  {
    "postcode": "42285",
    "city": "Barmen"
  },
  {
    "postcode": "42285",
    "city": "Wuppertal"
  },
  {
    "postcode": "42285",
    "city": "Elberfeld"
  },
  {
    "postcode": "42285",
    "city": "Uellendahl-Katernberg"
  },
  {
    "postcode": "42287",
    "city": "Barmen"
  },
  {
    "postcode": "42287",
    "city": "Wuppertal"
  },
  {
    "postcode": "42289",
    "city": "Barmen"
  },
  {
    "postcode": "42289",
    "city": "Langerfeld"
  },
  {
    "postcode": "42289",
    "city": "Wuppertal"
  },
  {
    "postcode": "42289",
    "city": "Heckinghausen"
  },
  {
    "postcode": "42327",
    "city": "Vohwinkel"
  },
  {
    "postcode": "42327",
    "city": "Wuppertal"
  },
  {
    "postcode": "42327",
    "city": "Elberfeld-West"
  },
  {
    "postcode": "42329",
    "city": "Vohwinkel"
  },
  {
    "postcode": "42329",
    "city": "Wuppertal"
  },
  {
    "postcode": "42349",
    "city": "Cronenberg"
  },
  {
    "postcode": "42349",
    "city": "Wuppertal"
  },
  {
    "postcode": "42369",
    "city": "Remscheid"
  },
  {
    "postcode": "42369",
    "city": "Ronsdorf"
  },
  {
    "postcode": "42369",
    "city": "Wuppertal"
  },
  {
    "postcode": "42369",
    "city": "Stadt Remscheid"
  },
  {
    "postcode": "42369",
    "city": "Nord"
  },
  {
    "postcode": "42389",
    "city": "Langerfeld"
  },
  {
    "postcode": "42389",
    "city": "Stadt Schwelm"
  },
  {
    "postcode": "42389",
    "city": "Wuppertal"
  },
  {
    "postcode": "42389",
    "city": "Schwelm"
  },
  {
    "postcode": "42389",
    "city": "Langerfeld-Beyenburg"
  },
  {
    "postcode": "42399",
    "city": "Beyenburg"
  },
  {
    "postcode": "42399",
    "city": "Stadt Schwelm"
  },
  {
    "postcode": "42399",
    "city": "Wuppertal"
  },
  {
    "postcode": "42399",
    "city": "Langerfeld-Beyenburg"
  },
  {
    "postcode": "42477",
    "city": "Dahlerau"
  },
  {
    "postcode": "42477",
    "city": "Filde"
  },
  {
    "postcode": "42477",
    "city": "Herbeck"
  },
  {
    "postcode": "42477",
    "city": "Herkingrade"
  },
  {
    "postcode": "42477",
    "city": "Honsberg"
  },
  {
    "postcode": "42477",
    "city": "Krebsöge"
  },
  {
    "postcode": "42477",
    "city": "Önkfeld"
  },
  {
    "postcode": "42477",
    "city": "Radevormwald"
  },
  {
    "postcode": "42477",
    "city": "Remlingrade"
  },
  {
    "postcode": "42477",
    "city": "Oberbergischer Kreis"
  },
  {
    "postcode": "42477",
    "city": "Rädereichen"
  },
  {
    "postcode": "42477",
    "city": "Innenstadt"
  },
  {
    "postcode": "42477",
    "city": "Hahnenberg"
  },
  {
    "postcode": "42477",
    "city": "Bergerhof"
  },
  {
    "postcode": "42477",
    "city": "Böhlefeldshaus"
  },
  {
    "postcode": "42477",
    "city": "Dahlhausen"
  },
  {
    "postcode": "42477",
    "city": "Studberg"
  },
  {
    "postcode": "42477",
    "city": "Heide"
  },
  {
    "postcode": "42477",
    "city": "Borbeck"
  },
  {
    "postcode": "42477",
    "city": "Wellringrade"
  },
  {
    "postcode": "42477",
    "city": "Freudenberg"
  },
  {
    "postcode": "42477",
    "city": "Feldmannshaus"
  },
  {
    "postcode": "42477",
    "city": "Grafweg"
  },
  {
    "postcode": "42477",
    "city": "Grüne"
  },
  {
    "postcode": "42477",
    "city": "Im Hagen"
  },
  {
    "postcode": "42477",
    "city": "Im Walde"
  },
  {
    "postcode": "42477",
    "city": "Stadt Wipperfürth"
  },
  {
    "postcode": "42477",
    "city": "Uelfe III"
  },
  {
    "postcode": "42489",
    "city": "Aprath"
  },
  {
    "postcode": "42489",
    "city": "Düssel"
  },
  {
    "postcode": "42489",
    "city": "Rohdenhaus"
  },
  {
    "postcode": "42489",
    "city": "Wülfrath"
  },
  {
    "postcode": "42489",
    "city": "Mettmann"
  },
  {
    "postcode": "42489",
    "city": "Innenstadt"
  },
  {
    "postcode": "42489",
    "city": "Schlupkothen"
  },
  {
    "postcode": "42489",
    "city": "Flandersbach"
  },
  {
    "postcode": "42489",
    "city": "Rützkausen"
  },
  {
    "postcode": "42499",
    "city": "Dreibäumen"
  },
  {
    "postcode": "42499",
    "city": "Heide"
  },
  {
    "postcode": "42499",
    "city": "Hückeswagen"
  },
  {
    "postcode": "42499",
    "city": "Marke"
  },
  {
    "postcode": "42499",
    "city": "Neuenherweg"
  },
  {
    "postcode": "42499",
    "city": "Scheideweg"
  },
  {
    "postcode": "42499",
    "city": "Schückhausen"
  },
  {
    "postcode": "42499",
    "city": "Steffenshagen"
  },
  {
    "postcode": "42499",
    "city": "Wiehagen"
  },
  {
    "postcode": "42499",
    "city": "Winterhagen"
  },
  {
    "postcode": "42499",
    "city": "Oberbergischer Kreis"
  },
  {
    "postcode": "42499",
    "city": "Innenstadt"
  },
  {
    "postcode": "42499",
    "city": "Kobeshofen"
  },
  {
    "postcode": "42499",
    "city": "Kormannshausen"
  },
  {
    "postcode": "42499",
    "city": "Mickenhagen"
  },
  {
    "postcode": "42499",
    "city": "Kirschsiepen"
  },
  {
    "postcode": "42549",
    "city": "Flandersbach"
  },
  {
    "postcode": "42549",
    "city": "Stadt Heiligenhaus"
  },
  {
    "postcode": "42549",
    "city": "Velbert"
  },
  {
    "postcode": "42549",
    "city": "Mettmann"
  },
  {
    "postcode": "42549",
    "city": "Birth"
  },
  {
    "postcode": "42549",
    "city": "Mitte"
  },
  {
    "postcode": "42549",
    "city": "Kostenberg"
  },
  {
    "postcode": "42549",
    "city": "Losenburg"
  },
  {
    "postcode": "42551",
    "city": "Rottberg"
  },
  {
    "postcode": "42551",
    "city": "Stadt Essen"
  },
  {
    "postcode": "42551",
    "city": "Velbert"
  },
  {
    "postcode": "42551",
    "city": "Mettmann"
  },
  {
    "postcode": "42551",
    "city": "Mitte"
  },
  {
    "postcode": "42551",
    "city": "Langenhorst"
  },
  {
    "postcode": "42553",
    "city": "Neviges"
  },
  {
    "postcode": "42553",
    "city": "Tönisheide"
  },
  {
    "postcode": "42553",
    "city": "Velbert"
  },
  {
    "postcode": "42553",
    "city": "Mettmann"
  },
  {
    "postcode": "42555",
    "city": "Langenberg Rheinland"
  },
  {
    "postcode": "42555",
    "city": "Langenberg"
  },
  {
    "postcode": "42555",
    "city": "Nierenhof"
  },
  {
    "postcode": "42555",
    "city": "Oberbonsfeld Rheinland"
  },
  {
    "postcode": "42555",
    "city": "Oberbonsfeld"
  },
  {
    "postcode": "42555",
    "city": "Velbert"
  },
  {
    "postcode": "42555",
    "city": "Mettmann"
  },
  {
    "postcode": "42555",
    "city": "Bonsfeld"
  },
  {
    "postcode": "42555",
    "city": "Niederelfringhausen"
  },
  {
    "postcode": "42579",
    "city": "Heiligenhaus bei Velbert"
  },
  {
    "postcode": "42579",
    "city": "Isenbügel bei Velbert"
  },
  {
    "postcode": "42579",
    "city": "Mettmann"
  },
  {
    "postcode": "42579",
    "city": "Heiligenhaus"
  },
  {
    "postcode": "42579",
    "city": "Mitte"
  },
  {
    "postcode": "42579",
    "city": "Isenbügel"
  },
  {
    "postcode": "42579",
    "city": "Hösel"
  },
  {
    "postcode": "42579",
    "city": "Hetterscheidt"
  },
  {
    "postcode": "42651",
    "city": "Gräfrath"
  },
  {
    "postcode": "42651",
    "city": "Solingen"
  },
  {
    "postcode": "42651",
    "city": "Solingen-Mitte"
  },
  {
    "postcode": "42653",
    "city": "Gräfrath"
  },
  {
    "postcode": "42653",
    "city": "Solingen"
  },
  {
    "postcode": "42653",
    "city": "Wald"
  },
  {
    "postcode": "42653",
    "city": "Solingen-Mitte"
  },
  {
    "postcode": "42655",
    "city": "Höhscheid"
  },
  {
    "postcode": "42655",
    "city": "Merscheid"
  },
  {
    "postcode": "42655",
    "city": "Solingen"
  },
  {
    "postcode": "42655",
    "city": "Wald"
  },
  {
    "postcode": "42655",
    "city": "Solingen-Mitte"
  },
  {
    "postcode": "42657",
    "city": "Höhscheid"
  },
  {
    "postcode": "42657",
    "city": "Solingen"
  },
  {
    "postcode": "42657",
    "city": "Solingen-Mitte"
  },
  {
    "postcode": "42659",
    "city": "Burg an der Wupper"
  },
  {
    "postcode": "42659",
    "city": "Höhscheid"
  },
  {
    "postcode": "42659",
    "city": "Solingen"
  },
  {
    "postcode": "42659",
    "city": "Burg"
  },
  {
    "postcode": "42659",
    "city": "Solingen-Mitte"
  },
  {
    "postcode": "42697",
    "city": "Merscheid"
  },
  {
    "postcode": "42697",
    "city": "Solingen"
  },
  {
    "postcode": "42697",
    "city": "Ohligs-Aufderhöhe"
  },
  {
    "postcode": "42699",
    "city": "Höhscheid"
  },
  {
    "postcode": "42699",
    "city": "Merscheid"
  },
  {
    "postcode": "42699",
    "city": "Solingen"
  },
  {
    "postcode": "42699",
    "city": "Ohligs-Aufderhöhe"
  },
  {
    "postcode": "42719",
    "city": "Gräfrath"
  },
  {
    "postcode": "42719",
    "city": "Merscheid"
  },
  {
    "postcode": "42719",
    "city": "Solingen"
  },
  {
    "postcode": "42719",
    "city": "Wald"
  },
  {
    "postcode": "42719",
    "city": "Solingen-Mitte"
  },
  {
    "postcode": "42781",
    "city": "Haan"
  },
  {
    "postcode": "42781",
    "city": "Haan Rheinland"
  },
  {
    "postcode": "42781",
    "city": "Mettmann"
  },
  {
    "postcode": "42781",
    "city": "Gruiten"
  },
  {
    "postcode": "42781",
    "city": "Oberhaan"
  },
  {
    "postcode": "42799",
    "city": "Leichlingen"
  },
  {
    "postcode": "42799",
    "city": "Leichlingen (Rheinland)"
  },
  {
    "postcode": "42799",
    "city": "Witzhelden"
  },
  {
    "postcode": "42799",
    "city": "Rheinisch-Bergischer Kreis"
  },
  {
    "postcode": "42853",
    "city": "Remscheid"
  },
  {
    "postcode": "42853",
    "city": "Innen"
  },
  {
    "postcode": "42853",
    "city": "Nord"
  },
  {
    "postcode": "42855",
    "city": "Lüttringhausen"
  },
  {
    "postcode": "42855",
    "city": "Remscheid"
  },
  {
    "postcode": "42855",
    "city": "Nord"
  },
  {
    "postcode": "42855",
    "city": "Süd"
  },
  {
    "postcode": "42855",
    "city": "Innen"
  },
  {
    "postcode": "42855",
    "city": "West"
  },
  {
    "postcode": "42857",
    "city": "Cronenberg"
  },
  {
    "postcode": "42857",
    "city": "Remscheid"
  },
  {
    "postcode": "42857",
    "city": "West"
  },
  {
    "postcode": "42857",
    "city": "Innen"
  },
  {
    "postcode": "42857",
    "city": "Nord"
  },
  {
    "postcode": "42857",
    "city": "Wuppertal"
  },
  {
    "postcode": "42857",
    "city": "Süd"
  },
  {
    "postcode": "42859",
    "city": "Remscheid"
  },
  {
    "postcode": "42859",
    "city": "Süd"
  },
  {
    "postcode": "42859",
    "city": "Innen"
  },
  {
    "postcode": "42897",
    "city": "Lennep"
  },
  {
    "postcode": "42897",
    "city": "Remscheid"
  },
  {
    "postcode": "42899",
    "city": "Lennep"
  },
  {
    "postcode": "42899",
    "city": "Lüttringhausen"
  },
  {
    "postcode": "42899",
    "city": "Remscheid"
  },
  {
    "postcode": "42899",
    "city": "Süd"
  },
  {
    "postcode": "42929",
    "city": "Dabringhausen"
  },
  {
    "postcode": "42929",
    "city": "Dhünn"
  },
  {
    "postcode": "42929",
    "city": "Eipringhausen"
  },
  {
    "postcode": "42929",
    "city": "Elbringhausen"
  },
  {
    "postcode": "42929",
    "city": "Neuenflügel"
  },
  {
    "postcode": "42929",
    "city": "Neuenhöhe"
  },
  {
    "postcode": "42929",
    "city": "Oberwinkelhausen"
  },
  {
    "postcode": "42929",
    "city": "Sellscheid"
  },
  {
    "postcode": "42929",
    "city": "Stolzenberg"
  },
  {
    "postcode": "42929",
    "city": "Töckelhausen"
  },
  {
    "postcode": "42929",
    "city": "Unterwinkelhausen"
  },
  {
    "postcode": "42929",
    "city": "Wermelskirchen"
  },
  {
    "postcode": "42929",
    "city": "Rheinisch-Bergischer Kreis"
  },
  {
    "postcode": "42929",
    "city": "Süppelbach"
  },
  {
    "postcode": "42929",
    "city": "Neuenhaus"
  },
  {
    "postcode": "42929",
    "city": "Wöllersberg"
  },
  {
    "postcode": "42929",
    "city": "Remscheid"
  },
  {
    "postcode": "42929",
    "city": "Süd"
  }
]