[
  {
    "postcode": "34117",
    "city": "Kassel Hessen"
  },
  {
    "postcode": "34117",
    "city": "Kassel"
  },
  {
    "postcode": "34117",
    "city": "Rothenditmold"
  },
  {
    "postcode": "34117",
    "city": "Mitte"
  },
  {
    "postcode": "34117",
    "city": "Nord-Holland"
  },
  {
    "postcode": "34117",
    "city": "Wesertor"
  },
  {
    "postcode": "34117",
    "city": "Süd"
  },
  {
    "postcode": "34117",
    "city": "West"
  },
  {
    "postcode": "34119",
    "city": "Kassel Hessen"
  },
  {
    "postcode": "34119",
    "city": "Kassel"
  },
  {
    "postcode": "34119",
    "city": "Rothenditmold"
  },
  {
    "postcode": "34119",
    "city": "West"
  },
  {
    "postcode": "34119",
    "city": "Mitte"
  },
  {
    "postcode": "34121",
    "city": "Kassel Hessen"
  },
  {
    "postcode": "34121",
    "city": "Kassel"
  },
  {
    "postcode": "34121",
    "city": "Wehlheiden"
  },
  {
    "postcode": "34121",
    "city": "Süd"
  },
  {
    "postcode": "34121",
    "city": "Mitte"
  },
  {
    "postcode": "34123",
    "city": "Bettenhausen"
  },
  {
    "postcode": "34123",
    "city": "Gemeinde Fuldabrück"
  },
  {
    "postcode": "34123",
    "city": "Gemeinde Lohfelden"
  },
  {
    "postcode": "34123",
    "city": "Kassel Hessen"
  },
  {
    "postcode": "34123",
    "city": "Kassel"
  },
  {
    "postcode": "34123",
    "city": "Waldau"
  },
  {
    "postcode": "34123",
    "city": "Forstfeld"
  },
  {
    "postcode": "34123",
    "city": "Unterneustadt"
  },
  {
    "postcode": "34125",
    "city": "Kassel Hessen"
  },
  {
    "postcode": "34125",
    "city": "Kassel"
  },
  {
    "postcode": "34125",
    "city": "Wolfsanger / Hasenhecke"
  },
  {
    "postcode": "34125",
    "city": "Wolfsanger"
  },
  {
    "postcode": "34125",
    "city": "Wesertor"
  },
  {
    "postcode": "34125",
    "city": "Wolfsanger/Hasenhecke"
  },
  {
    "postcode": "34125",
    "city": "Fasanenhof"
  },
  {
    "postcode": "34125",
    "city": "Unterneustadt"
  },
  {
    "postcode": "34125",
    "city": "Mitte"
  },
  {
    "postcode": "34125",
    "city": "Nord-Holland"
  },
  {
    "postcode": "34127",
    "city": "Kassel Hessen"
  },
  {
    "postcode": "34127",
    "city": "Kassel"
  },
  {
    "postcode": "34127",
    "city": "Philippinenhof / Warteberg"
  },
  {
    "postcode": "34127",
    "city": "Philippinenhof"
  },
  {
    "postcode": "34127",
    "city": "Rothenditmold"
  },
  {
    "postcode": "34127",
    "city": "Philippinenhof/Warteberg"
  },
  {
    "postcode": "34127",
    "city": "Nord-Holland"
  },
  {
    "postcode": "34127",
    "city": "Wesertor"
  },
  {
    "postcode": "34127",
    "city": "Fasanenhof"
  },
  {
    "postcode": "34128",
    "city": "Harleshausen"
  },
  {
    "postcode": "34128",
    "city": "Kassel Hessen"
  },
  {
    "postcode": "34128",
    "city": "Kassel"
  },
  {
    "postcode": "34128",
    "city": "Kirchditmold"
  },
  {
    "postcode": "34128",
    "city": "Jungfernkopf"
  },
  {
    "postcode": "34130",
    "city": "Harleshausen"
  },
  {
    "postcode": "34130",
    "city": "Kassel Hessen"
  },
  {
    "postcode": "34130",
    "city": "Kassel"
  },
  {
    "postcode": "34130",
    "city": "Kirchditmold"
  },
  {
    "postcode": "34131",
    "city": "Brasselsberg"
  },
  {
    "postcode": "34131",
    "city": "Kassel Hessen"
  },
  {
    "postcode": "34131",
    "city": "Kassel"
  },
  {
    "postcode": "34131",
    "city": "Kirchditmold"
  },
  {
    "postcode": "34131",
    "city": "Wehlheiden"
  },
  {
    "postcode": "34131",
    "city": "Bad Wilhelmshöhe"
  },
  {
    "postcode": "34132",
    "city": "Brasselsberg"
  },
  {
    "postcode": "34132",
    "city": "Kassel Hessen"
  },
  {
    "postcode": "34132",
    "city": "Kassel"
  },
  {
    "postcode": "34132",
    "city": "Niederzwehren"
  },
  {
    "postcode": "34132",
    "city": "Nordshausen"
  },
  {
    "postcode": "34132",
    "city": "Oberzwehren"
  },
  {
    "postcode": "34132",
    "city": "Bad Wilhelmshöhe"
  },
  {
    "postcode": "34134",
    "city": "Kassel Hessen"
  },
  {
    "postcode": "34134",
    "city": "Kassel"
  },
  {
    "postcode": "34134",
    "city": "Niederzwehren"
  },
  {
    "postcode": "34134",
    "city": "Oberzwehren"
  },
  {
    "postcode": "34134",
    "city": "Süsterfeld/Helleböhn"
  },
  {
    "postcode": "34134",
    "city": "Süsterfeld"
  },
  {
    "postcode": "34212",
    "city": "Adelshausen Kreis Melsungen"
  },
  {
    "postcode": "34212",
    "city": "Adelshausen"
  },
  {
    "postcode": "34212",
    "city": "Günsterode"
  },
  {
    "postcode": "34212",
    "city": "Kehrenbach"
  },
  {
    "postcode": "34212",
    "city": "Kirchhof"
  },
  {
    "postcode": "34212",
    "city": "Melsungen"
  },
  {
    "postcode": "34212",
    "city": "Obermelsungen"
  },
  {
    "postcode": "34212",
    "city": "Röhrenfurth"
  },
  {
    "postcode": "34212",
    "city": "Schwarzenberg Kreis Melsungen"
  },
  {
    "postcode": "34212",
    "city": "Schwarzenberg"
  },
  {
    "postcode": "34212",
    "city": "Schwalm-Eder-Kreis"
  },
  {
    "postcode": "34225",
    "city": "Altenbauna"
  },
  {
    "postcode": "34225",
    "city": "Altenritte"
  },
  {
    "postcode": "34225",
    "city": "Baunatal"
  },
  {
    "postcode": "34225",
    "city": "Großenritte"
  },
  {
    "postcode": "34225",
    "city": "Guntershausen Kreis Kassel"
  },
  {
    "postcode": "34225",
    "city": "Guntershausen"
  },
  {
    "postcode": "34225",
    "city": "Hertingshausen Kreis Kassel"
  },
  {
    "postcode": "34225",
    "city": "Hertingshausen"
  },
  {
    "postcode": "34225",
    "city": "Kirchbauna"
  },
  {
    "postcode": "34225",
    "city": "Rengershausen Kreis Kassel"
  },
  {
    "postcode": "34225",
    "city": "Rengershausen"
  },
  {
    "postcode": "34225",
    "city": "Kassel"
  },
  {
    "postcode": "34233",
    "city": "Fuldatal"
  },
  {
    "postcode": "34233",
    "city": "Ihringshausen"
  },
  {
    "postcode": "34233",
    "city": "Knickhagen"
  },
  {
    "postcode": "34233",
    "city": "Rothwesten"
  },
  {
    "postcode": "34233",
    "city": "Simmershausen Kreis Kassel"
  },
  {
    "postcode": "34233",
    "city": "Simmershausen"
  },
  {
    "postcode": "34233",
    "city": "Speele Schleusenmeisterei"
  },
  {
    "postcode": "34233",
    "city": "Speele"
  },
  {
    "postcode": "34233",
    "city": "Wahnhausen"
  },
  {
    "postcode": "34233",
    "city": "Wilhelmshausen über Kassel"
  },
  {
    "postcode": "34233",
    "city": "Wolfsanger / Hasenhecke"
  },
  {
    "postcode": "34233",
    "city": "Wolfsanger"
  },
  {
    "postcode": "34233",
    "city": "Kassel"
  },
  {
    "postcode": "34233",
    "city": "Wilhelmshausen"
  },
  {
    "postcode": "34233",
    "city": "Eichenberg"
  },
  {
    "postcode": "34233",
    "city": "Winterbüren"
  },
  {
    "postcode": "34233",
    "city": "Wolfsanger/Hasenhecke"
  },
  {
    "postcode": "34246",
    "city": "Frommershausen"
  },
  {
    "postcode": "34246",
    "city": "Niedervellmar"
  },
  {
    "postcode": "34246",
    "city": "Obervellmar"
  },
  {
    "postcode": "34246",
    "city": "Vellmar"
  },
  {
    "postcode": "34246",
    "city": "Kassel"
  },
  {
    "postcode": "34246",
    "city": "Hof Mondschirm"
  },
  {
    "postcode": "34246",
    "city": "Vellmar-West"
  },
  {
    "postcode": "34253",
    "city": "Crumbach"
  },
  {
    "postcode": "34253",
    "city": "Lohfelden"
  },
  {
    "postcode": "34253",
    "city": "Vollmarshausen"
  },
  {
    "postcode": "34253",
    "city": "Kassel"
  },
  {
    "postcode": "34253",
    "city": "Ochshausen"
  },
  {
    "postcode": "34260",
    "city": "Kaufungen Hessen"
  },
  {
    "postcode": "34260",
    "city": "Kaufungen"
  },
  {
    "postcode": "34260",
    "city": "Niederkaufungen"
  },
  {
    "postcode": "34260",
    "city": "Oberkaufungen"
  },
  {
    "postcode": "34260",
    "city": "Kassel"
  },
  {
    "postcode": "34260",
    "city": "Papierfabrik"
  },
  {
    "postcode": "34266",
    "city": "Heiligenrode Kreis Kassel"
  },
  {
    "postcode": "34266",
    "city": "Heiligenrode"
  },
  {
    "postcode": "34266",
    "city": "Niestetal"
  },
  {
    "postcode": "34266",
    "city": "Kassel"
  },
  {
    "postcode": "34266",
    "city": "Sandershausen"
  },
  {
    "postcode": "34270",
    "city": "Breitenbach Kreis Kassel"
  },
  {
    "postcode": "34270",
    "city": "Breitenbach"
  },
  {
    "postcode": "34270",
    "city": "Elgershausen Kreis Kassel"
  },
  {
    "postcode": "34270",
    "city": "Elgershausen"
  },
  {
    "postcode": "34270",
    "city": "Elmshagen"
  },
  {
    "postcode": "34270",
    "city": "Hoof Kreis Kassel"
  },
  {
    "postcode": "34270",
    "city": "Hoof"
  },
  {
    "postcode": "34270",
    "city": "Martinhagen"
  },
  {
    "postcode": "34270",
    "city": "Schauenburg"
  },
  {
    "postcode": "34270",
    "city": "Kassel"
  },
  {
    "postcode": "34277",
    "city": "Bergshausen Kreis Kassel"
  },
  {
    "postcode": "34277",
    "city": "Bergshausen"
  },
  {
    "postcode": "34277",
    "city": "Denn- / Dittershausen"
  },
  {
    "postcode": "34277",
    "city": "Denn-"
  },
  {
    "postcode": "34277",
    "city": "Dörnhagen"
  },
  {
    "postcode": "34277",
    "city": "Fuldabrück"
  },
  {
    "postcode": "34277",
    "city": "Kassel"
  },
  {
    "postcode": "34277",
    "city": "Denn-/Dittershausen"
  },
  {
    "postcode": "34277",
    "city": "Freienhagen"
  },
  {
    "postcode": "34281",
    "city": "Deute"
  },
  {
    "postcode": "34281",
    "city": "Dissen Hessen"
  },
  {
    "postcode": "34281",
    "city": "Dissen"
  },
  {
    "postcode": "34281",
    "city": "Dorla"
  },
  {
    "postcode": "34281",
    "city": "Gleichen Hessen"
  },
  {
    "postcode": "34281",
    "city": "Gleichen"
  },
  {
    "postcode": "34281",
    "city": "Gudensberg"
  },
  {
    "postcode": "34281",
    "city": "Maden Hessen"
  },
  {
    "postcode": "34281",
    "city": "Maden"
  },
  {
    "postcode": "34281",
    "city": "Obervorschütz"
  },
  {
    "postcode": "34281",
    "city": "Schwalm-Eder-Kreis"
  },
  {
    "postcode": "34286",
    "city": "Bergheim Kreis Melsungen"
  },
  {
    "postcode": "34286",
    "city": "Bergheim"
  },
  {
    "postcode": "34286",
    "city": "Bischofferode Kreis Melsungen"
  },
  {
    "postcode": "34286",
    "city": "Bischofferode"
  },
  {
    "postcode": "34286",
    "city": "Elbersdorf Kreis Melsungen"
  },
  {
    "postcode": "34286",
    "city": "Elbersdorf"
  },
  {
    "postcode": "34286",
    "city": "Herlefeld"
  },
  {
    "postcode": "34286",
    "city": "Landefeld"
  },
  {
    "postcode": "34286",
    "city": "Metzebach"
  },
  {
    "postcode": "34286",
    "city": "Mörshausen Kreis Melsungen"
  },
  {
    "postcode": "34286",
    "city": "Mörshausen"
  },
  {
    "postcode": "34286",
    "city": "Nausis bei Bebra"
  },
  {
    "postcode": "34286",
    "city": "Pfieffe"
  },
  {
    "postcode": "34286",
    "city": "Schnellrode"
  },
  {
    "postcode": "34286",
    "city": "Spangenberg"
  },
  {
    "postcode": "34286",
    "city": "Spangenberg Hessen"
  },
  {
    "postcode": "34286",
    "city": "Vockerode-Dinkelberg"
  },
  {
    "postcode": "34286",
    "city": "Weidelbach Kreis Melsungen"
  },
  {
    "postcode": "34286",
    "city": "Weidelbach"
  },
  {
    "postcode": "34286",
    "city": "Schwalm-Eder-Kreis"
  },
  {
    "postcode": "34286",
    "city": "Nausis"
  },
  {
    "postcode": "34289",
    "city": "Burghasungen"
  },
  {
    "postcode": "34289",
    "city": "Escheberg"
  },
  {
    "postcode": "34289",
    "city": "Hohenborn"
  },
  {
    "postcode": "34289",
    "city": "Laar"
  },
  {
    "postcode": "34289",
    "city": "Oberelsungen"
  },
  {
    "postcode": "34289",
    "city": "Oelshausen"
  },
  {
    "postcode": "34289",
    "city": "Zierenberg"
  },
  {
    "postcode": "34289",
    "city": "Kassel"
  },
  {
    "postcode": "34289",
    "city": "Friedrichstein"
  },
  {
    "postcode": "34292",
    "city": "Ahnatal"
  },
  {
    "postcode": "34292",
    "city": "Heckershausen"
  },
  {
    "postcode": "34292",
    "city": "Weimar Kreis Kassel"
  },
  {
    "postcode": "34292",
    "city": "Weimar"
  },
  {
    "postcode": "34292",
    "city": "Kassel"
  },
  {
    "postcode": "34295",
    "city": "Besse Hessen"
  },
  {
    "postcode": "34295",
    "city": "Besse"
  },
  {
    "postcode": "34295",
    "city": "Edermünde"
  },
  {
    "postcode": "34295",
    "city": "Grifte"
  },
  {
    "postcode": "34295",
    "city": "Haldorf"
  },
  {
    "postcode": "34295",
    "city": "Holzhausen am Hahn"
  },
  {
    "postcode": "34295",
    "city": "Schwalm-Eder-Kreis"
  },
  {
    "postcode": "34295",
    "city": "Holzhausen"
  },
  {
    "postcode": "34298",
    "city": "Eschenstruth"
  },
  {
    "postcode": "34298",
    "city": "Helsa"
  },
  {
    "postcode": "34298",
    "city": "Sankt Ottilien Hessen"
  },
  {
    "postcode": "34298",
    "city": "Sankt Ottilien"
  },
  {
    "postcode": "34298",
    "city": "Wickenrode Kreis Witzenhausen"
  },
  {
    "postcode": "34298",
    "city": "Wickenrode"
  },
  {
    "postcode": "34298",
    "city": "Kassel"
  },
  {
    "postcode": "34298",
    "city": "St. Ottilien"
  },
  {
    "postcode": "34302",
    "city": "Albshausen bei Kassel"
  },
  {
    "postcode": "34302",
    "city": "Breitenau"
  },
  {
    "postcode": "34302",
    "city": "Büchenwerra Hessen"
  },
  {
    "postcode": "34302",
    "city": "Büchenwerra"
  },
  {
    "postcode": "34302",
    "city": "Ellenberg bei Wabern Hessen"
  },
  {
    "postcode": "34302",
    "city": "Ellenberg bei Wabern"
  },
  {
    "postcode": "34302",
    "city": "Grebenau"
  },
  {
    "postcode": "34302",
    "city": "Guxhagen"
  },
  {
    "postcode": "34302",
    "city": "Wollrode"
  },
  {
    "postcode": "34302",
    "city": "Schwalm-Eder-Kreis"
  },
  {
    "postcode": "34302",
    "city": "Ellenberg"
  },
  {
    "postcode": "34302",
    "city": "Albshausen"
  },
  {
    "postcode": "34305",
    "city": "Ermetheis"
  },
  {
    "postcode": "34305",
    "city": "Kirchberg bei Kassel"
  },
  {
    "postcode": "34305",
    "city": "Metze"
  },
  {
    "postcode": "34305",
    "city": "Niedenstein"
  },
  {
    "postcode": "34305",
    "city": "Wichdorf Hessen"
  },
  {
    "postcode": "34305",
    "city": "Wichdorf"
  },
  {
    "postcode": "34305",
    "city": "Schwalm-Eder-Kreis"
  },
  {
    "postcode": "34305",
    "city": "Gestecke"
  },
  {
    "postcode": "34305",
    "city": "Kirchberg"
  },
  {
    "postcode": "34308",
    "city": "Bad Emstal"
  },
  {
    "postcode": "34308",
    "city": "Balhorn"
  },
  {
    "postcode": "34308",
    "city": "Merxhausen über Kassel"
  },
  {
    "postcode": "34308",
    "city": "Riede Hessen"
  },
  {
    "postcode": "34308",
    "city": "Riede"
  },
  {
    "postcode": "34308",
    "city": "Sand über Kassel"
  },
  {
    "postcode": "34308",
    "city": "Kassel"
  },
  {
    "postcode": "34308",
    "city": "Sand"
  },
  {
    "postcode": "34308",
    "city": "Merxhausen"
  },
  {
    "postcode": "34311",
    "city": "Altendorf bei Naumburg Hessen"
  },
  {
    "postcode": "34311",
    "city": "Altendorf bei Naumburg"
  },
  {
    "postcode": "34311",
    "city": "Altenstädt bei Kassel"
  },
  {
    "postcode": "34311",
    "city": "Elbenberg"
  },
  {
    "postcode": "34311",
    "city": "Heimarshausen"
  },
  {
    "postcode": "34311",
    "city": "Naumburg"
  },
  {
    "postcode": "34311",
    "city": "Naumburg Hessen"
  },
  {
    "postcode": "34311",
    "city": "Kassel"
  },
  {
    "postcode": "34311",
    "city": "Altenstädt"
  },
  {
    "postcode": "34311",
    "city": "Altendorf"
  },
  {
    "postcode": "34314",
    "city": "Espenau"
  },
  {
    "postcode": "34314",
    "city": "Hohenkirchen Hessen"
  },
  {
    "postcode": "34314",
    "city": "Hohenkirchen"
  },
  {
    "postcode": "34314",
    "city": "Mönchehof über Kassel"
  },
  {
    "postcode": "34314",
    "city": "Schäferberg Siedlung"
  },
  {
    "postcode": "34314",
    "city": "Schäferberg"
  },
  {
    "postcode": "34314",
    "city": "Kassel"
  },
  {
    "postcode": "34314",
    "city": "Mönchehof"
  },
  {
    "postcode": "34314",
    "city": "Auf der Heide"
  },
  {
    "postcode": "34317",
    "city": "Dörnberg bei Kassel"
  },
  {
    "postcode": "34317",
    "city": "Ehlen Hessen"
  },
  {
    "postcode": "34317",
    "city": "Ehlen"
  },
  {
    "postcode": "34317",
    "city": "Habichtswald"
  },
  {
    "postcode": "34317",
    "city": "Kassel"
  },
  {
    "postcode": "34317",
    "city": "Dörnberg"
  },
  {
    "postcode": "34320",
    "city": "Eiterhagen"
  },
  {
    "postcode": "34320",
    "city": "Söhrewald"
  },
  {
    "postcode": "34320",
    "city": "Wattenbach Kreis Kassel"
  },
  {
    "postcode": "34320",
    "city": "Wattenbach"
  },
  {
    "postcode": "34320",
    "city": "Wellerode"
  },
  {
    "postcode": "34320",
    "city": "Kassel"
  },
  {
    "postcode": "34323",
    "city": "Beiseförth"
  },
  {
    "postcode": "34323",
    "city": "Dagobertshausen Kreis Melsungen"
  },
  {
    "postcode": "34323",
    "city": "Dagobertshausen"
  },
  {
    "postcode": "34323",
    "city": "Elfershausen Kreis Melsungen"
  },
  {
    "postcode": "34323",
    "city": "Elfershausen"
  },
  {
    "postcode": "34323",
    "city": "Malsfeld"
  },
  {
    "postcode": "34323",
    "city": "Mosheim Hessen"
  },
  {
    "postcode": "34323",
    "city": "Mosheim"
  },
  {
    "postcode": "34323",
    "city": "Ostheim Kreis Melsungen"
  },
  {
    "postcode": "34323",
    "city": "Ostheim"
  },
  {
    "postcode": "34323",
    "city": "Sipperhausen"
  },
  {
    "postcode": "34323",
    "city": "Schwalm-Eder-Kreis"
  },
  {
    "postcode": "34326",
    "city": "Altmorschen"
  },
  {
    "postcode": "34326",
    "city": "Binsförth"
  },
  {
    "postcode": "34326",
    "city": "Eubach"
  },
  {
    "postcode": "34326",
    "city": "Heina"
  },
  {
    "postcode": "34326",
    "city": "Konnefeld"
  },
  {
    "postcode": "34326",
    "city": "Morschen"
  },
  {
    "postcode": "34326",
    "city": "Neumorschen"
  },
  {
    "postcode": "34326",
    "city": "Wichte"
  },
  {
    "postcode": "34326",
    "city": "Schwalm-Eder-Kreis"
  },
  {
    "postcode": "34327",
    "city": "Empfershausen"
  },
  {
    "postcode": "34327",
    "city": "Körle"
  },
  {
    "postcode": "34327",
    "city": "Lobenhausen"
  },
  {
    "postcode": "34327",
    "city": "Wagenfurth"
  },
  {
    "postcode": "34327",
    "city": "Schwalm-Eder-Kreis"
  },
  {
    "postcode": "34329",
    "city": "Nieste"
  },
  {
    "postcode": "34329",
    "city": "Nieste Kreis Kassel"
  },
  {
    "postcode": "34329",
    "city": "Kassel"
  },
  {
    "postcode": "34329",
    "city": "Gemeinde Staufenberg"
  },
  {
    "postcode": "34346",
    "city": "Bonaforth"
  },
  {
    "postcode": "34346",
    "city": "Bursfelde"
  },
  {
    "postcode": "34346",
    "city": "Gimte"
  },
  {
    "postcode": "34346",
    "city": "Glashütte Oberweser"
  },
  {
    "postcode": "34346",
    "city": "Glashütte"
  },
  {
    "postcode": "34346",
    "city": "Hann. Münden"
  },
  {
    "postcode": "34346",
    "city": "Hedemünden"
  },
  {
    "postcode": "34346",
    "city": "Hemeln Kreis Hann Münden"
  },
  {
    "postcode": "34346",
    "city": "Hemeln"
  },
  {
    "postcode": "34346",
    "city": "Laubach Kreis Hann Münden"
  },
  {
    "postcode": "34346",
    "city": "Laubach"
  },
  {
    "postcode": "34346",
    "city": "Lippoldshausen"
  },
  {
    "postcode": "34346",
    "city": "Mielenhausen"
  },
  {
    "postcode": "34346",
    "city": "Oberode"
  },
  {
    "postcode": "34346",
    "city": "Volkmarshausen"
  },
  {
    "postcode": "34346",
    "city": "Wiershausen Kreis Hann Münden"
  },
  {
    "postcode": "34346",
    "city": "Wiershausen"
  },
  {
    "postcode": "34346",
    "city": "Göttingen"
  },
  {
    "postcode": "34355",
    "city": "Benterode"
  },
  {
    "postcode": "34355",
    "city": "Escherode"
  },
  {
    "postcode": "34355",
    "city": "Landwehrhagen"
  },
  {
    "postcode": "34355",
    "city": "Lutterberg Kreis Hann Münden"
  },
  {
    "postcode": "34355",
    "city": "Lutterberg"
  },
  {
    "postcode": "34355",
    "city": "Nienhagen Kreis Hann Münden"
  },
  {
    "postcode": "34355",
    "city": "Nienhagen"
  },
  {
    "postcode": "34355",
    "city": "Sichelnstein"
  },
  {
    "postcode": "34355",
    "city": "Spiekershausen"
  },
  {
    "postcode": "34355",
    "city": "Staufenberg Niedersachsen"
  },
  {
    "postcode": "34355",
    "city": "Staufenberg"
  },
  {
    "postcode": "34355",
    "city": "Uschlag Kreis Hann Münden"
  },
  {
    "postcode": "34355",
    "city": "Uschlag"
  },
  {
    "postcode": "34355",
    "city": "Wolfsanger / Hasenhecke"
  },
  {
    "postcode": "34355",
    "city": "Wolfsanger"
  },
  {
    "postcode": "34355",
    "city": "Göttingen"
  },
  {
    "postcode": "34355",
    "city": "Kassel"
  },
  {
    "postcode": "34355",
    "city": "Wolfsanger/Hasenhecke"
  },
  {
    "postcode": "34355",
    "city": "Speele"
  },
  {
    "postcode": "34355",
    "city": "Dahlheim"
  },
  {
    "postcode": "34359",
    "city": "Reinhardshagen"
  },
  {
    "postcode": "34359",
    "city": "Vaake"
  },
  {
    "postcode": "34359",
    "city": "Veckerhagen"
  },
  {
    "postcode": "34359",
    "city": "Kassel"
  },
  {
    "postcode": "34369",
    "city": "Beberbeck"
  },
  {
    "postcode": "34369",
    "city": "Carlsdorf Kreis Hofgeismar"
  },
  {
    "postcode": "34369",
    "city": "Carlsdorf"
  },
  {
    "postcode": "34369",
    "city": "Friedrichsdorf Kreis Hofgeismar"
  },
  {
    "postcode": "34369",
    "city": "Friedrichsdorf"
  },
  {
    "postcode": "34369",
    "city": "Hofgeismar"
  },
  {
    "postcode": "34369",
    "city": "Hombressen"
  },
  {
    "postcode": "34369",
    "city": "Hümme"
  },
  {
    "postcode": "34369",
    "city": "Kelze"
  },
  {
    "postcode": "34369",
    "city": "Sababurg"
  },
  {
    "postcode": "34369",
    "city": "Schöneberg Kreis Hofgeismar"
  },
  {
    "postcode": "34369",
    "city": "Schöneberg"
  },
  {
    "postcode": "34369",
    "city": "Kassel"
  },
  {
    "postcode": "34369",
    "city": "Gutsbezirk Reinhardswald"
  },
  {
    "postcode": "34376",
    "city": "Holzhausen Reinhardswald"
  },
  {
    "postcode": "34376",
    "city": "Holzhausen"
  },
  {
    "postcode": "34376",
    "city": "Immenhausen"
  },
  {
    "postcode": "34376",
    "city": "Immenhausen Hessen"
  },
  {
    "postcode": "34376",
    "city": "Mariendorf über Hofgeismar"
  },
  {
    "postcode": "34376",
    "city": "Kassel"
  },
  {
    "postcode": "34376",
    "city": "Mariendorf"
  },
  {
    "postcode": "34379",
    "city": "Calden"
  },
  {
    "postcode": "34379",
    "city": "Calden Hessen"
  },
  {
    "postcode": "34379",
    "city": "Ehrsten"
  },
  {
    "postcode": "34379",
    "city": "Fürstenwald"
  },
  {
    "postcode": "34379",
    "city": "Meimbressen"
  },
  {
    "postcode": "34379",
    "city": "Obermeiser"
  },
  {
    "postcode": "34379",
    "city": "Westuffeln"
  },
  {
    "postcode": "34379",
    "city": "Kassel"
  },
  {
    "postcode": "34385",
    "city": "Bad Karlshafen"
  },
  {
    "postcode": "34385",
    "city": "Helmarshausen Kreis Hofgeismar"
  },
  {
    "postcode": "34385",
    "city": "Helmarshausen"
  },
  {
    "postcode": "34385",
    "city": "Kassel"
  },
  {
    "postcode": "34388",
    "city": "Deisel"
  },
  {
    "postcode": "34388",
    "city": "Eberschütz"
  },
  {
    "postcode": "34388",
    "city": "Friedrichsfeld Kreis Hofgeismar"
  },
  {
    "postcode": "34388",
    "city": "Friedrichsfeld"
  },
  {
    "postcode": "34388",
    "city": "Gottsbüren"
  },
  {
    "postcode": "34388",
    "city": "Langenthal Kreis Hofgeismar"
  },
  {
    "postcode": "34388",
    "city": "Langenthal"
  },
  {
    "postcode": "34388",
    "city": "Sielen"
  },
  {
    "postcode": "34388",
    "city": "Stammen"
  },
  {
    "postcode": "34388",
    "city": "Trendelburg"
  },
  {
    "postcode": "34388",
    "city": "Kassel"
  },
  {
    "postcode": "34393",
    "city": "Burguffeln"
  },
  {
    "postcode": "34393",
    "city": "Frankenhausen Kreis Hofgeismar"
  },
  {
    "postcode": "34393",
    "city": "Frankenhausen"
  },
  {
    "postcode": "34393",
    "city": "Friedrichsthal"
  },
  {
    "postcode": "34393",
    "city": "Grebenstein"
  },
  {
    "postcode": "34393",
    "city": "Schachten Kreis Hofgeismar"
  },
  {
    "postcode": "34393",
    "city": "Schachten"
  },
  {
    "postcode": "34393",
    "city": "Udenhausen Kreis Hofgeismar"
  },
  {
    "postcode": "34393",
    "city": "Udenhausen"
  },
  {
    "postcode": "34393",
    "city": "Kassel"
  },
  {
    "postcode": "34396",
    "city": "Ersen Hessen"
  },
  {
    "postcode": "34396",
    "city": "Ersen"
  },
  {
    "postcode": "34396",
    "city": "Grimelsheim Kreis Hofgeismar"
  },
  {
    "postcode": "34396",
    "city": "Grimelsheim"
  },
  {
    "postcode": "34396",
    "city": "Haueda"
  },
  {
    "postcode": "34396",
    "city": "Lamerden"
  },
  {
    "postcode": "34396",
    "city": "Liebenau Hessen"
  },
  {
    "postcode": "34396",
    "city": "Liebenau"
  },
  {
    "postcode": "34396",
    "city": "Niedermeiser"
  },
  {
    "postcode": "34396",
    "city": "Ostheim Kreis Hofgeismar"
  },
  {
    "postcode": "34396",
    "city": "Ostheim"
  },
  {
    "postcode": "34396",
    "city": "Zwergen"
  },
  {
    "postcode": "34396",
    "city": "Kassel"
  },
  {
    "postcode": "34399",
    "city": "Arenborn"
  },
  {
    "postcode": "34399",
    "city": "Gewissenruh"
  },
  {
    "postcode": "34399",
    "city": "Gieselwerder"
  },
  {
    "postcode": "34399",
    "city": "Gottstreu"
  },
  {
    "postcode": "34399",
    "city": "Heisebeck"
  },
  {
    "postcode": "34399",
    "city": "Oberweser Hessen"
  },
  {
    "postcode": "34399",
    "city": "Oberweser"
  },
  {
    "postcode": "34399",
    "city": "Oedelsheim"
  },
  {
    "postcode": "34399",
    "city": "Weißehütte Hessen"
  },
  {
    "postcode": "34399",
    "city": "Weißehütte"
  },
  {
    "postcode": "34399",
    "city": "Kassel"
  },
  {
    "postcode": "34399",
    "city": "Wesertal"
  },
  {
    "postcode": "34399",
    "city": "Vernawahlshausen"
  },
  {
    "postcode": "34399",
    "city": "Lippoldsberg"
  },
  {
    "postcode": "34414",
    "city": "Bonenburg"
  },
  {
    "postcode": "34414",
    "city": "Calenberg"
  },
  {
    "postcode": "34414",
    "city": "Dalheim Westfalen"
  },
  {
    "postcode": "34414",
    "city": "Dalheim"
  },
  {
    "postcode": "34414",
    "city": "Daseburg"
  },
  {
    "postcode": "34414",
    "city": "Dössel Westfalen"
  },
  {
    "postcode": "34414",
    "city": "Dössel"
  },
  {
    "postcode": "34414",
    "city": "Germete Westfalen"
  },
  {
    "postcode": "34414",
    "city": "Germete"
  },
  {
    "postcode": "34414",
    "city": "Herlinghausen Kreis Warburg Westfalen"
  },
  {
    "postcode": "34414",
    "city": "Herlinghausen"
  },
  {
    "postcode": "34414",
    "city": "Hohenwepel"
  },
  {
    "postcode": "34414",
    "city": "Menne"
  },
  {
    "postcode": "34414",
    "city": "Nörde"
  },
  {
    "postcode": "34414",
    "city": "Ossendorf Kreis Warburg Westfalen"
  },
  {
    "postcode": "34414",
    "city": "Ossendorf"
  },
  {
    "postcode": "34414",
    "city": "Rimbeck"
  },
  {
    "postcode": "34414",
    "city": "Scherfede"
  },
  {
    "postcode": "34414",
    "city": "Warburg"
  },
  {
    "postcode": "34414",
    "city": "Warburg Westfalen"
  },
  {
    "postcode": "34414",
    "city": "Welda Kreis Warburg Westfalen"
  },
  {
    "postcode": "34414",
    "city": "Welda"
  },
  {
    "postcode": "34414",
    "city": "Wormeln"
  },
  {
    "postcode": "34414",
    "city": "Höxter"
  },
  {
    "postcode": "34431",
    "city": "Beringhausen Kreis Brilon"
  },
  {
    "postcode": "34431",
    "city": "Beringhausen"
  },
  {
    "postcode": "34431",
    "city": "Borntosten"
  },
  {
    "postcode": "34431",
    "city": "Bredelar"
  },
  {
    "postcode": "34431",
    "city": "Canstein"
  },
  {
    "postcode": "34431",
    "city": "Erlinghausen"
  },
  {
    "postcode": "34431",
    "city": "Essentho"
  },
  {
    "postcode": "34431",
    "city": "Giershagen"
  },
  {
    "postcode": "34431",
    "city": "Heddinghausen Sauerland"
  },
  {
    "postcode": "34431",
    "city": "Heddinghausen"
  },
  {
    "postcode": "34431",
    "city": "Helminghausen Kreis Brilon"
  },
  {
    "postcode": "34431",
    "city": "Helminghausen"
  },
  {
    "postcode": "34431",
    "city": "Leitmar"
  },
  {
    "postcode": "34431",
    "city": "Marsberg Sauerland"
  },
  {
    "postcode": "34431",
    "city": "Marsberg"
  },
  {
    "postcode": "34431",
    "city": "Meerhof"
  },
  {
    "postcode": "34431",
    "city": "Obermarsberg"
  },
  {
    "postcode": "34431",
    "city": "Oesdorf Westfalen"
  },
  {
    "postcode": "34431",
    "city": "Oesdorf"
  },
  {
    "postcode": "34431",
    "city": "Padberg"
  },
  {
    "postcode": "34431",
    "city": "Udorf"
  },
  {
    "postcode": "34431",
    "city": "Westheim Westfalen"
  },
  {
    "postcode": "34431",
    "city": "Westheim"
  },
  {
    "postcode": "34431",
    "city": "Hochsauerlandkreis"
  },
  {
    "postcode": "34431",
    "city": "Niedermarsberg"
  },
  {
    "postcode": "34431",
    "city": "Heringhausen"
  },
  {
    "postcode": "34431",
    "city": "Gemeinde Diemelsee"
  },
  {
    "postcode": "34434",
    "city": "Borgentreich"
  },
  {
    "postcode": "34434",
    "city": "Borgholz Kreis Warburg Westfalen"
  },
  {
    "postcode": "34434",
    "city": "Borgholz"
  },
  {
    "postcode": "34434",
    "city": "Bühne Westfalen"
  },
  {
    "postcode": "34434",
    "city": "Bühne"
  },
  {
    "postcode": "34434",
    "city": "Drankhausen"
  },
  {
    "postcode": "34434",
    "city": "Großeneder"
  },
  {
    "postcode": "34434",
    "city": "Körbecke Kreis Warburg Westfalen"
  },
  {
    "postcode": "34434",
    "city": "Körbecke"
  },
  {
    "postcode": "34434",
    "city": "Lütgeneder"
  },
  {
    "postcode": "34434",
    "city": "Manrode"
  },
  {
    "postcode": "34434",
    "city": "Muddenhagen"
  },
  {
    "postcode": "34434",
    "city": "Natingen"
  },
  {
    "postcode": "34434",
    "city": "Natzungen"
  },
  {
    "postcode": "34434",
    "city": "Rösebeck Kreis Warburg Westfalen"
  },
  {
    "postcode": "34434",
    "city": "Rösebeck"
  },
  {
    "postcode": "34434",
    "city": "Höxter"
  },
  {
    "postcode": "34439",
    "city": "Altenheerse"
  },
  {
    "postcode": "34439",
    "city": "Borlinghausen"
  },
  {
    "postcode": "34439",
    "city": "Eissen"
  },
  {
    "postcode": "34439",
    "city": "Engar"
  },
  {
    "postcode": "34439",
    "city": "Fölsen"
  },
  {
    "postcode": "34439",
    "city": "Helmern"
  },
  {
    "postcode": "34439",
    "city": "Ikenhausen"
  },
  {
    "postcode": "34439",
    "city": "Löwen"
  },
  {
    "postcode": "34439",
    "city": "Niesen"
  },
  {
    "postcode": "34439",
    "city": "Peckelsheim"
  },
  {
    "postcode": "34439",
    "city": "Schweckhausen"
  },
  {
    "postcode": "34439",
    "city": "Willebadessen"
  },
  {
    "postcode": "34439",
    "city": "Willegassen"
  },
  {
    "postcode": "34439",
    "city": "Höxter"
  },
  {
    "postcode": "34454",
    "city": "Bad Arolsen"
  },
  {
    "postcode": "34454",
    "city": "Braunsen"
  },
  {
    "postcode": "34454",
    "city": "Bühle Waldeck"
  },
  {
    "postcode": "34454",
    "city": "Bühle"
  },
  {
    "postcode": "34454",
    "city": "Elleringhausen"
  },
  {
    "postcode": "34454",
    "city": "Helsen"
  },
  {
    "postcode": "34454",
    "city": "Kohlgrund Waldeck"
  },
  {
    "postcode": "34454",
    "city": "Kohlgrund"
  },
  {
    "postcode": "34454",
    "city": "Landau Waldeck"
  },
  {
    "postcode": "34454",
    "city": "Landau"
  },
  {
    "postcode": "34454",
    "city": "Massenhausen Waldeck"
  },
  {
    "postcode": "34454",
    "city": "Massenhausen"
  },
  {
    "postcode": "34454",
    "city": "Mengeringhausen"
  },
  {
    "postcode": "34454",
    "city": "Neu-Berich"
  },
  {
    "postcode": "34454",
    "city": "Schmillinghausen"
  },
  {
    "postcode": "34454",
    "city": "Volkhardinghausen"
  },
  {
    "postcode": "34454",
    "city": "Wetterburg"
  },
  {
    "postcode": "34454",
    "city": "Waldeck-Frankenberg"
  },
  {
    "postcode": "34466",
    "city": "Altenhasungen"
  },
  {
    "postcode": "34466",
    "city": "Bründersen"
  },
  {
    "postcode": "34466",
    "city": "Elmarshausen"
  },
  {
    "postcode": "34466",
    "city": "Gasterfeld"
  },
  {
    "postcode": "34466",
    "city": "Ippinghausen"
  },
  {
    "postcode": "34466",
    "city": "Istha"
  },
  {
    "postcode": "34466",
    "city": "Leckringhausen"
  },
  {
    "postcode": "34466",
    "city": "Niederelsungen"
  },
  {
    "postcode": "34466",
    "city": "Nothfelden"
  },
  {
    "postcode": "34466",
    "city": "Philippinenburg"
  },
  {
    "postcode": "34466",
    "city": "Philippinenthal"
  },
  {
    "postcode": "34466",
    "city": "Viesebeck"
  },
  {
    "postcode": "34466",
    "city": "Wenigenhasungen"
  },
  {
    "postcode": "34466",
    "city": "Wolfhagen"
  },
  {
    "postcode": "34466",
    "city": "Kassel"
  },
  {
    "postcode": "34471",
    "city": "Ehringen Hessen"
  },
  {
    "postcode": "34471",
    "city": "Ehringen"
  },
  {
    "postcode": "34471",
    "city": "Herbsen"
  },
  {
    "postcode": "34471",
    "city": "Hörle"
  },
  {
    "postcode": "34471",
    "city": "Külte Waldeck"
  },
  {
    "postcode": "34471",
    "city": "Külte"
  },
  {
    "postcode": "34471",
    "city": "Lütersheim"
  },
  {
    "postcode": "34471",
    "city": "Volkmarsen"
  },
  {
    "postcode": "34471",
    "city": "Waldeck-Frankenberg"
  },
  {
    "postcode": "34474",
    "city": "Ammenhausen"
  },
  {
    "postcode": "34474",
    "city": "Dehausen"
  },
  {
    "postcode": "34474",
    "city": "Diemelstadt"
  },
  {
    "postcode": "34474",
    "city": "Gashol"
  },
  {
    "postcode": "34474",
    "city": "Helmighausen Waldeck"
  },
  {
    "postcode": "34474",
    "city": "Helmighausen"
  },
  {
    "postcode": "34474",
    "city": "Hesperinghausen"
  },
  {
    "postcode": "34474",
    "city": "Neudorf Waldeck"
  },
  {
    "postcode": "34474",
    "city": "Neudorf"
  },
  {
    "postcode": "34474",
    "city": "Orpethal"
  },
  {
    "postcode": "34474",
    "city": "Rhoden Waldeck"
  },
  {
    "postcode": "34474",
    "city": "Rhoden"
  },
  {
    "postcode": "34474",
    "city": "Wethen"
  },
  {
    "postcode": "34474",
    "city": "Wrexen"
  },
  {
    "postcode": "34474",
    "city": "Waldeck-Frankenberg"
  },
  {
    "postcode": "34474",
    "city": "Diemelstadt-Rhoden"
  },
  {
    "postcode": "34474",
    "city": "Diemelstadt-Dehausen"
  },
  {
    "postcode": "34477",
    "city": "Berndorf Waldeck"
  },
  {
    "postcode": "34477",
    "city": "Berndorf"
  },
  {
    "postcode": "34477",
    "city": "Gembeck"
  },
  {
    "postcode": "34477",
    "city": "Mühlhausen Waldeck"
  },
  {
    "postcode": "34477",
    "city": "Mühlhausen"
  },
  {
    "postcode": "34477",
    "city": "Nieder-Waroldern"
  },
  {
    "postcode": "34477",
    "city": "Ober-Waroldern"
  },
  {
    "postcode": "34477",
    "city": "Twiste"
  },
  {
    "postcode": "34477",
    "city": "Twistetal"
  },
  {
    "postcode": "34477",
    "city": "Waldeck-Frankenberg"
  },
  {
    "postcode": "34477",
    "city": "Elleringhausen"
  },
  {
    "postcode": "34479",
    "city": "Breuna"
  },
  {
    "postcode": "34479",
    "city": "Niederlistingen"
  },
  {
    "postcode": "34479",
    "city": "Oberlistingen"
  },
  {
    "postcode": "34479",
    "city": "Rhöda"
  },
  {
    "postcode": "34479",
    "city": "Wettesingen"
  },
  {
    "postcode": "34479",
    "city": "Kassel"
  },
  {
    "postcode": "34497",
    "city": "Alleringhausen"
  },
  {
    "postcode": "34497",
    "city": "Dingeringhausen"
  },
  {
    "postcode": "34497",
    "city": "Eppe"
  },
  {
    "postcode": "34497",
    "city": "Goldhausen Waldeck"
  },
  {
    "postcode": "34497",
    "city": "Goldhausen"
  },
  {
    "postcode": "34497",
    "city": "Helmscheid"
  },
  {
    "postcode": "34497",
    "city": "Hillershausen"
  },
  {
    "postcode": "34497",
    "city": "Korbach"
  },
  {
    "postcode": "34497",
    "city": "Lelbach"
  },
  {
    "postcode": "34497",
    "city": "Lengefeld Waldeck"
  },
  {
    "postcode": "34497",
    "city": "Lengefeld"
  },
  {
    "postcode": "34497",
    "city": "Meineringhausen"
  },
  {
    "postcode": "34497",
    "city": "Nieder-Ense Waldeck"
  },
  {
    "postcode": "34497",
    "city": "Nieder-Ense"
  },
  {
    "postcode": "34497",
    "city": "Nieder-Schleidern"
  },
  {
    "postcode": "34497",
    "city": "Nordenbeck"
  },
  {
    "postcode": "34497",
    "city": "Rhena Waldeck"
  },
  {
    "postcode": "34497",
    "city": "Rhena"
  },
  {
    "postcode": "34497",
    "city": "Strothe Waldeck"
  },
  {
    "postcode": "34497",
    "city": "Strothe"
  },
  {
    "postcode": "34497",
    "city": "Waldeck-Frankenberg"
  },
  {
    "postcode": "34497",
    "city": "Ober-Ense"
  },
  {
    "postcode": "34508",
    "city": "Bömighausen"
  },
  {
    "postcode": "34508",
    "city": "Eimelrod"
  },
  {
    "postcode": "34508",
    "city": "Hemmighausen"
  },
  {
    "postcode": "34508",
    "city": "Neerdar"
  },
  {
    "postcode": "34508",
    "city": "Rattlar"
  },
  {
    "postcode": "34508",
    "city": "Schwalefeld"
  },
  {
    "postcode": "34508",
    "city": "Usseln"
  },
  {
    "postcode": "34508",
    "city": "Welleringhausen"
  },
  {
    "postcode": "34508",
    "city": "Willingen"
  },
  {
    "postcode": "34508",
    "city": "Willingen (Upland)"
  },
  {
    "postcode": "34508",
    "city": "Waldeck-Frankenberg"
  },
  {
    "postcode": "34508",
    "city": "Ottlar"
  },
  {
    "postcode": "34508",
    "city": "Wakenfeld"
  },
  {
    "postcode": "34513",
    "city": "Alraft"
  },
  {
    "postcode": "34513",
    "city": "Dehringhausen"
  },
  {
    "postcode": "34513",
    "city": "Freienhagen Waldeck"
  },
  {
    "postcode": "34513",
    "city": "Freienhagen"
  },
  {
    "postcode": "34513",
    "city": "Höringhausen Waldeck"
  },
  {
    "postcode": "34513",
    "city": "Höringhausen"
  },
  {
    "postcode": "34513",
    "city": "Netze Waldeck"
  },
  {
    "postcode": "34513",
    "city": "Netze"
  },
  {
    "postcode": "34513",
    "city": "Nieder-Werbe"
  },
  {
    "postcode": "34513",
    "city": "Ober-Werbe"
  },
  {
    "postcode": "34513",
    "city": "Sachsenhausen Waldeck"
  },
  {
    "postcode": "34513",
    "city": "Sachsenhausen"
  },
  {
    "postcode": "34513",
    "city": "Selbach Waldeck"
  },
  {
    "postcode": "34513",
    "city": "Selbach"
  },
  {
    "postcode": "34513",
    "city": "Waldeck"
  },
  {
    "postcode": "34513",
    "city": "Waldeck-Frankenberg"
  },
  {
    "postcode": "34513",
    "city": "Klippmühle"
  },
  {
    "postcode": "34516",
    "city": "Asel Domäne"
  },
  {
    "postcode": "34516",
    "city": "Asel"
  },
  {
    "postcode": "34516",
    "city": "Basdorf bei Korbach"
  },
  {
    "postcode": "34516",
    "city": "Buchenberg Kreis Frankenberg Eder"
  },
  {
    "postcode": "34516",
    "city": "Buchenberg"
  },
  {
    "postcode": "34516",
    "city": "Dorfitter"
  },
  {
    "postcode": "34516",
    "city": "Ederbringhausen"
  },
  {
    "postcode": "34516",
    "city": "Harbshausen"
  },
  {
    "postcode": "34516",
    "city": "Herzhausen bei Korbach"
  },
  {
    "postcode": "34516",
    "city": "Kirchlotheim"
  },
  {
    "postcode": "34516",
    "city": "Marienhagen bei Korbach"
  },
  {
    "postcode": "34516",
    "city": "Niederorke"
  },
  {
    "postcode": "34516",
    "city": "Obernburg Hessen"
  },
  {
    "postcode": "34516",
    "city": "Obernburg"
  },
  {
    "postcode": "34516",
    "city": "Oberorke"
  },
  {
    "postcode": "34516",
    "city": "Schmittlotheim"
  },
  {
    "postcode": "34516",
    "city": "Thalitter"
  },
  {
    "postcode": "34516",
    "city": "Vöhl"
  },
  {
    "postcode": "34516",
    "city": "Waldeck-Frankenberg"
  },
  {
    "postcode": "34516",
    "city": "Fürstental"
  },
  {
    "postcode": "34516",
    "city": "Herzhausen"
  },
  {
    "postcode": "34516",
    "city": "Asel-Süd"
  },
  {
    "postcode": "34516",
    "city": "Marienhagen"
  },
  {
    "postcode": "34516",
    "city": "Basdorf"
  },
  {
    "postcode": "34519",
    "city": "Adorf Waldeck"
  },
  {
    "postcode": "34519",
    "city": "Adorf"
  },
  {
    "postcode": "34519",
    "city": "Benkhausen"
  },
  {
    "postcode": "34519",
    "city": "Deisfeld"
  },
  {
    "postcode": "34519",
    "city": "Diemelsee"
  },
  {
    "postcode": "34519",
    "city": "Flechtdorf"
  },
  {
    "postcode": "34519",
    "city": "Giebringhausen"
  },
  {
    "postcode": "34519",
    "city": "Heringhausen Waldeck"
  },
  {
    "postcode": "34519",
    "city": "Heringhausen"
  },
  {
    "postcode": "34519",
    "city": "Ottlar"
  },
  {
    "postcode": "34519",
    "city": "Rhenegge"
  },
  {
    "postcode": "34519",
    "city": "Schweinsbühl"
  },
  {
    "postcode": "34519",
    "city": "Stormbruch"
  },
  {
    "postcode": "34519",
    "city": "Sudeck"
  },
  {
    "postcode": "34519",
    "city": "Vasbeck"
  },
  {
    "postcode": "34519",
    "city": "Wirmighausen Waldeck"
  },
  {
    "postcode": "34519",
    "city": "Wirmighausen"
  },
  {
    "postcode": "34519",
    "city": "Waldeck-Frankenberg"
  },
  {
    "postcode": "34537",
    "city": "Albertshausen Waldeck"
  },
  {
    "postcode": "34537",
    "city": "Albertshausen"
  },
  {
    "postcode": "34537",
    "city": "Altwildungen"
  },
  {
    "postcode": "34537",
    "city": "Armsfeld"
  },
  {
    "postcode": "34537",
    "city": "Bad Wildungen"
  },
  {
    "postcode": "34537",
    "city": "Bergfreiheit"
  },
  {
    "postcode": "34537",
    "city": "Braunau Waldeck"
  },
  {
    "postcode": "34537",
    "city": "Braunau"
  },
  {
    "postcode": "34537",
    "city": "Frebershausen"
  },
  {
    "postcode": "34537",
    "city": "Hüddingen"
  },
  {
    "postcode": "34537",
    "city": "Hundsdorf Waldeck"
  },
  {
    "postcode": "34537",
    "city": "Hundsdorf"
  },
  {
    "postcode": "34537",
    "city": "Mandern Waldeck"
  },
  {
    "postcode": "34537",
    "city": "Mandern"
  },
  {
    "postcode": "34537",
    "city": "Odershausen"
  },
  {
    "postcode": "34537",
    "city": "Reinhardshausen"
  },
  {
    "postcode": "34537",
    "city": "Reitzenhagen"
  },
  {
    "postcode": "34537",
    "city": "Wega"
  },
  {
    "postcode": "34537",
    "city": "Waldeck-Frankenberg"
  },
  {
    "postcode": "34549",
    "city": "Affoldern"
  },
  {
    "postcode": "34549",
    "city": "Anraff"
  },
  {
    "postcode": "34549",
    "city": "Bergheim Waldeck"
  },
  {
    "postcode": "34549",
    "city": "Bergheim"
  },
  {
    "postcode": "34549",
    "city": "Böhne Waldeck"
  },
  {
    "postcode": "34549",
    "city": "Böhne"
  },
  {
    "postcode": "34549",
    "city": "Bringhausen"
  },
  {
    "postcode": "34549",
    "city": "Buhlen"
  },
  {
    "postcode": "34549",
    "city": "Edertal"
  },
  {
    "postcode": "34549",
    "city": "Gellershausen Waldeck"
  },
  {
    "postcode": "34549",
    "city": "Gellershausen"
  },
  {
    "postcode": "34549",
    "city": "Giflitz"
  },
  {
    "postcode": "34549",
    "city": "Hemfurth-Edersee"
  },
  {
    "postcode": "34549",
    "city": "Kleinern"
  },
  {
    "postcode": "34549",
    "city": "Königshagen"
  },
  {
    "postcode": "34549",
    "city": "Mehlen"
  },
  {
    "postcode": "34549",
    "city": "Wellen Waldeck"
  },
  {
    "postcode": "34549",
    "city": "Wellen"
  },
  {
    "postcode": "34549",
    "city": "Waldeck-Frankenberg"
  },
  {
    "postcode": "34549",
    "city": "Rehbach"
  },
  {
    "postcode": "34560",
    "city": "Cappel Hessen"
  },
  {
    "postcode": "34560",
    "city": "Cappel"
  },
  {
    "postcode": "34560",
    "city": "Fritzlar"
  },
  {
    "postcode": "34560",
    "city": "Geismar bei Fritzlar"
  },
  {
    "postcode": "34560",
    "city": "Haddamar bei Wabern Hessen"
  },
  {
    "postcode": "34560",
    "city": "Haddamar bei Wabern"
  },
  {
    "postcode": "34560",
    "city": "Lohne Hessen"
  },
  {
    "postcode": "34560",
    "city": "Lohne"
  },
  {
    "postcode": "34560",
    "city": "Obermöllrich"
  },
  {
    "postcode": "34560",
    "city": "Rothhelmshausen"
  },
  {
    "postcode": "34560",
    "city": "Ungedanken"
  },
  {
    "postcode": "34560",
    "city": "Wehren Hessen"
  },
  {
    "postcode": "34560",
    "city": "Wehren"
  },
  {
    "postcode": "34560",
    "city": "Werkel"
  },
  {
    "postcode": "34560",
    "city": "Züschen Waldeck"
  },
  {
    "postcode": "34560",
    "city": "Züschen"
  },
  {
    "postcode": "34560",
    "city": "Schwalm-Eder-Kreis"
  },
  {
    "postcode": "34560",
    "city": "Geismar"
  },
  {
    "postcode": "34560",
    "city": "Haddamar"
  },
  {
    "postcode": "34576",
    "city": "Allmuthshausen"
  },
  {
    "postcode": "34576",
    "city": "Berge Kreis Fritzlar-Homberg"
  },
  {
    "postcode": "34576",
    "city": "Berge"
  },
  {
    "postcode": "34576",
    "city": "Caßdorf"
  },
  {
    "postcode": "34576",
    "city": "Dickershausen"
  },
  {
    "postcode": "34576",
    "city": "Holzhausen bei Homberg Bezirk Kassel"
  },
  {
    "postcode": "34576",
    "city": "Holzhausen bei Homberg"
  },
  {
    "postcode": "34576",
    "city": "Homberg (Efze)"
  },
  {
    "postcode": "34576",
    "city": "Homberg"
  },
  {
    "postcode": "34576",
    "city": "Homberg Efze"
  },
  {
    "postcode": "34576",
    "city": "Hombergshausen"
  },
  {
    "postcode": "34576",
    "city": "Hülsa"
  },
  {
    "postcode": "34576",
    "city": "Lembach Hessen"
  },
  {
    "postcode": "34576",
    "city": "Lembach"
  },
  {
    "postcode": "34576",
    "city": "Lützelwig"
  },
  {
    "postcode": "34576",
    "city": "Mardorf bei Homberg Bezirk Kassel"
  },
  {
    "postcode": "34576",
    "city": "Mardorf bei Homberg"
  },
  {
    "postcode": "34576",
    "city": "Mörshausen bei Homberg Bezirk Kassel"
  },
  {
    "postcode": "34576",
    "city": "Mörshausen bei Homberg"
  },
  {
    "postcode": "34576",
    "city": "Mühlhausen bei Homberg Bezirk Kassel"
  },
  {
    "postcode": "34576",
    "city": "Mühlhausen bei Homberg"
  },
  {
    "postcode": "34576",
    "city": "Relbehausen Bezirk Kassel"
  },
  {
    "postcode": "34576",
    "city": "Relbehausen"
  },
  {
    "postcode": "34576",
    "city": "Rodemann"
  },
  {
    "postcode": "34576",
    "city": "Roppershain"
  },
  {
    "postcode": "34576",
    "city": "Sondheim Hessen"
  },
  {
    "postcode": "34576",
    "city": "Sondheim"
  },
  {
    "postcode": "34576",
    "city": "Steindorf bei Homberg Bezirk Kassel"
  },
  {
    "postcode": "34576",
    "city": "Steindorf bei Homberg"
  },
  {
    "postcode": "34576",
    "city": "Waßmuthshausen"
  },
  {
    "postcode": "34576",
    "city": "Welferode"
  },
  {
    "postcode": "34576",
    "city": "Wernswig"
  },
  {
    "postcode": "34576",
    "city": "Schwalm-Eder-Kreis"
  },
  {
    "postcode": "34576",
    "city": "Grünhof"
  },
  {
    "postcode": "34576",
    "city": "Holzhausen"
  },
  {
    "postcode": "34576",
    "city": "Mardorf"
  },
  {
    "postcode": "34576",
    "city": "Mörshausen"
  },
  {
    "postcode": "34576",
    "city": "Mühlhausen"
  },
  {
    "postcode": "34576",
    "city": "Steindorf"
  },
  {
    "postcode": "34582",
    "city": "Arnsbach Hessen"
  },
  {
    "postcode": "34582",
    "city": "Arnsbach"
  },
  {
    "postcode": "34582",
    "city": "Borken (Hessen)"
  },
  {
    "postcode": "34582",
    "city": "Borken"
  },
  {
    "postcode": "34582",
    "city": "Dillich"
  },
  {
    "postcode": "34582",
    "city": "Freudenthal bei Wabern Hessen"
  },
  {
    "postcode": "34582",
    "city": "Freudenthal bei Wabern"
  },
  {
    "postcode": "34582",
    "city": "Gombeth"
  },
  {
    "postcode": "34582",
    "city": "Großenenglis"
  },
  {
    "postcode": "34582",
    "city": "Haarhausen bei Wabern Hessen"
  },
  {
    "postcode": "34582",
    "city": "Haarhausen bei Wabern"
  },
  {
    "postcode": "34582",
    "city": "Kerstenhausen Hessen"
  },
  {
    "postcode": "34582",
    "city": "Kerstenhausen"
  },
  {
    "postcode": "34582",
    "city": "Kleinenglis"
  },
  {
    "postcode": "34582",
    "city": "Lendorf Hessen"
  },
  {
    "postcode": "34582",
    "city": "Lendorf"
  },
  {
    "postcode": "34582",
    "city": "Nassenerfurth"
  },
  {
    "postcode": "34582",
    "city": "Pfaffenhausen bei Wabern Hessen"
  },
  {
    "postcode": "34582",
    "city": "Pfaffenhausen bei Wabern"
  },
  {
    "postcode": "34582",
    "city": "Singlis"
  },
  {
    "postcode": "34582",
    "city": "Stolzenbach"
  },
  {
    "postcode": "34582",
    "city": "Trockenerfurth"
  },
  {
    "postcode": "34582",
    "city": "Schwalm-Eder-Kreis"
  },
  {
    "postcode": "34582",
    "city": "Pfaffenhausen"
  },
  {
    "postcode": "34582",
    "city": "Freudenthal"
  },
  {
    "postcode": "34582",
    "city": "Haarhausen"
  },
  {
    "postcode": "34587",
    "city": "Altenbrunslar"
  },
  {
    "postcode": "34587",
    "city": "Altenburg bei Wabern Hessen"
  },
  {
    "postcode": "34587",
    "city": "Altenburg bei Wabern"
  },
  {
    "postcode": "34587",
    "city": "Beuern"
  },
  {
    "postcode": "34587",
    "city": "Böddiger"
  },
  {
    "postcode": "34587",
    "city": "Felsberg"
  },
  {
    "postcode": "34587",
    "city": "Felsberg Hessen"
  },
  {
    "postcode": "34587",
    "city": "Gensungen Hessen"
  },
  {
    "postcode": "34587",
    "city": "Gensungen"
  },
  {
    "postcode": "34587",
    "city": "Helmshausen"
  },
  {
    "postcode": "34587",
    "city": "Heßlar Kreis Melsungen"
  },
  {
    "postcode": "34587",
    "city": "Heßlar"
  },
  {
    "postcode": "34587",
    "city": "Hesserode Hessen"
  },
  {
    "postcode": "34587",
    "city": "Hesserode"
  },
  {
    "postcode": "34587",
    "city": "Hilgershausen Kreis Melsungen"
  },
  {
    "postcode": "34587",
    "city": "Hilgershausen"
  },
  {
    "postcode": "34587",
    "city": "Lohre"
  },
  {
    "postcode": "34587",
    "city": "Melgershausen"
  },
  {
    "postcode": "34587",
    "city": "Neuenbrunslar"
  },
  {
    "postcode": "34587",
    "city": "Niedervorschütz"
  },
  {
    "postcode": "34587",
    "city": "Rhünda"
  },
  {
    "postcode": "34587",
    "city": "Wolfershausen"
  },
  {
    "postcode": "34587",
    "city": "Schwalm-Eder-Kreis"
  },
  {
    "postcode": "34587",
    "city": "Altenburg"
  },
  {
    "postcode": "34587",
    "city": "Gemeinde Edermünde"
  },
  {
    "postcode": "34587",
    "city": "Sundhof"
  },
  {
    "postcode": "34590",
    "city": "Falkenberg Hessen"
  },
  {
    "postcode": "34590",
    "city": "Falkenberg"
  },
  {
    "postcode": "34590",
    "city": "Harle"
  },
  {
    "postcode": "34590",
    "city": "Hebel Hessen"
  },
  {
    "postcode": "34590",
    "city": "Hebel"
  },
  {
    "postcode": "34590",
    "city": "Niedermöllrich"
  },
  {
    "postcode": "34590",
    "city": "Rockshausen"
  },
  {
    "postcode": "34590",
    "city": "Udenborn"
  },
  {
    "postcode": "34590",
    "city": "Unshausen"
  },
  {
    "postcode": "34590",
    "city": "Uttershausen"
  },
  {
    "postcode": "34590",
    "city": "Wabern"
  },
  {
    "postcode": "34590",
    "city": "Wabern Hessen"
  },
  {
    "postcode": "34590",
    "city": "Zennern"
  },
  {
    "postcode": "34590",
    "city": "Schwalm-Eder-Kreis"
  },
  {
    "postcode": "34593",
    "city": "Appenfeld"
  },
  {
    "postcode": "34593",
    "city": "Berndshausen bei Homberg Efze"
  },
  {
    "postcode": "34593",
    "city": "Berndshausen bei Homberg"
  },
  {
    "postcode": "34593",
    "city": "Ellingshausen Hessen"
  },
  {
    "postcode": "34593",
    "city": "Ellingshausen"
  },
  {
    "postcode": "34593",
    "city": "Hausen"
  },
  {
    "postcode": "34593",
    "city": "Hergetsfeld"
  },
  {
    "postcode": "34593",
    "city": "Knüllwald"
  },
  {
    "postcode": "34593",
    "city": "Lichtenhagen"
  },
  {
    "postcode": "34593",
    "city": "Nausis bei Homberg Bezirk Kassel"
  },
  {
    "postcode": "34593",
    "city": "Nausis bei Homberg"
  },
  {
    "postcode": "34593",
    "city": "Nenterode Hessen"
  },
  {
    "postcode": "34593",
    "city": "Nenterode"
  },
  {
    "postcode": "34593",
    "city": "Niederbeisheim"
  },
  {
    "postcode": "34593",
    "city": "Oberbeisheim"
  },
  {
    "postcode": "34593",
    "city": "Reddingshausen"
  },
  {
    "postcode": "34593",
    "city": "Remsfeld"
  },
  {
    "postcode": "34593",
    "city": "Rengshausen Hessen"
  },
  {
    "postcode": "34593",
    "city": "Rengshausen"
  },
  {
    "postcode": "34593",
    "city": "Schellbach"
  },
  {
    "postcode": "34593",
    "city": "Völkershain"
  },
  {
    "postcode": "34593",
    "city": "Wallenstein Hessen"
  },
  {
    "postcode": "34593",
    "city": "Wallenstein"
  },
  {
    "postcode": "34593",
    "city": "Schwalm-Eder-Kreis"
  },
  {
    "postcode": "34593",
    "city": "Berndshausen"
  },
  {
    "postcode": "34593",
    "city": "Nausis"
  },
  {
    "postcode": "34596",
    "city": "Bad Zwesten"
  },
  {
    "postcode": "34596",
    "city": "Betzigerode"
  },
  {
    "postcode": "34596",
    "city": "Niederurff"
  },
  {
    "postcode": "34596",
    "city": "Wenzigerode"
  },
  {
    "postcode": "34596",
    "city": "Schwalm-Eder-Kreis"
  },
  {
    "postcode": "34596",
    "city": "Oberurff-Schiffelborn"
  },
  {
    "postcode": "34599",
    "city": "Bischhausen bei Wabern Hessen"
  },
  {
    "postcode": "34599",
    "city": "Bischhausen bei Wabern"
  },
  {
    "postcode": "34599",
    "city": "Dorheim bei Treysa"
  },
  {
    "postcode": "34599",
    "city": "Gilsa"
  },
  {
    "postcode": "34599",
    "city": "Neuenhain bei Treysa"
  },
  {
    "postcode": "34599",
    "city": "Neuental"
  },
  {
    "postcode": "34599",
    "city": "Römersberg Hessen"
  },
  {
    "postcode": "34599",
    "city": "Römersberg"
  },
  {
    "postcode": "34599",
    "city": "Schlierbach bei Treysa"
  },
  {
    "postcode": "34599",
    "city": "Waltersbrück"
  },
  {
    "postcode": "34599",
    "city": "Zimmersrode"
  },
  {
    "postcode": "34599",
    "city": "Schwalm-Eder-Kreis"
  },
  {
    "postcode": "34599",
    "city": "Bischhausen"
  },
  {
    "postcode": "34599",
    "city": "Neuenhain"
  },
  {
    "postcode": "34599",
    "city": "Dorheim"
  },
  {
    "postcode": "34599",
    "city": "Schlierbach"
  },
  {
    "postcode": "34613",
    "city": "Allendorf an der Landsburg"
  },
  {
    "postcode": "34613",
    "city": "Ascherode Kreis Ziegenhain Hessen"
  },
  {
    "postcode": "34613",
    "city": "Ascherode"
  },
  {
    "postcode": "34613",
    "city": "Dittershausen Kreis Ziegenhain Hessen"
  },
  {
    "postcode": "34613",
    "city": "Dittershausen"
  },
  {
    "postcode": "34613",
    "city": "Florshain"
  },
  {
    "postcode": "34613",
    "city": "Frankenhain Kreis Ziegenhain Hessen"
  },
  {
    "postcode": "34613",
    "city": "Frankenhain"
  },
  {
    "postcode": "34613",
    "city": "Michelsberg"
  },
  {
    "postcode": "34613",
    "city": "Niedergrenzebach"
  },
  {
    "postcode": "34613",
    "city": "Rommershausen"
  },
  {
    "postcode": "34613",
    "city": "Rörshain"
  },
  {
    "postcode": "34613",
    "city": "Schwalmstadt"
  },
  {
    "postcode": "34613",
    "city": "Treysa"
  },
  {
    "postcode": "34613",
    "city": "Trutzhain"
  },
  {
    "postcode": "34613",
    "city": "Wiera"
  },
  {
    "postcode": "34613",
    "city": "Ziegenhain Hessen"
  },
  {
    "postcode": "34613",
    "city": "Ziegenhain"
  },
  {
    "postcode": "34613",
    "city": "Schwalm-Eder-Kreis"
  },
  {
    "postcode": "34613",
    "city": "Allendorf"
  },
  {
    "postcode": "34621",
    "city": "Allendorf"
  },
  {
    "postcode": "34621",
    "city": "Frielendorf"
  },
  {
    "postcode": "34621",
    "city": "Gebersdorf Kreis Ziegenhain Hessen"
  },
  {
    "postcode": "34621",
    "city": "Gebersdorf"
  },
  {
    "postcode": "34621",
    "city": "Großropperhausen"
  },
  {
    "postcode": "34621",
    "city": "Lanertshausen"
  },
  {
    "postcode": "34621",
    "city": "Leimsfeld"
  },
  {
    "postcode": "34621",
    "city": "Lenderscheid"
  },
  {
    "postcode": "34621",
    "city": "Leuderode"
  },
  {
    "postcode": "34621",
    "city": "Linsingen"
  },
  {
    "postcode": "34621",
    "city": "Obergrenzebach"
  },
  {
    "postcode": "34621",
    "city": "Schönborn"
  },
  {
    "postcode": "34621",
    "city": "Siebertshausen"
  },
  {
    "postcode": "34621",
    "city": "Spieskappel"
  },
  {
    "postcode": "34621",
    "city": "Todenhausen Kreis Ziegenhain Hessen"
  },
  {
    "postcode": "34621",
    "city": "Todenhausen"
  },
  {
    "postcode": "34621",
    "city": "Verna Hessen"
  },
  {
    "postcode": "34621",
    "city": "Verna"
  },
  {
    "postcode": "34621",
    "city": "Welcherod"
  },
  {
    "postcode": "34621",
    "city": "Schwalm-Eder-Kreis"
  },
  {
    "postcode": "34626",
    "city": "Asterode"
  },
  {
    "postcode": "34626",
    "city": "Christerode"
  },
  {
    "postcode": "34626",
    "city": "Hauptschwenda"
  },
  {
    "postcode": "34626",
    "city": "Nausis Kreis Ziegenhain Hessen"
  },
  {
    "postcode": "34626",
    "city": "Nausis"
  },
  {
    "postcode": "34626",
    "city": "Neukirchen Knüllgeb."
  },
  {
    "postcode": "34626",
    "city": "Neukirchen"
  },
  {
    "postcode": "34626",
    "city": "Riebelsdorf"
  },
  {
    "postcode": "34626",
    "city": "Rückershausen Kreis Ziegenhain Hessen"
  },
  {
    "postcode": "34626",
    "city": "Rückershausen"
  },
  {
    "postcode": "34626",
    "city": "Seigertshausen"
  },
  {
    "postcode": "34626",
    "city": "Wincherode"
  },
  {
    "postcode": "34626",
    "city": "Schwalm-Eder-Kreis"
  },
  {
    "postcode": "34628",
    "city": "Gungelshausen"
  },
  {
    "postcode": "34628",
    "city": "Leimbach Kreis Ziegenhain Hessen"
  },
  {
    "postcode": "34628",
    "city": "Leimbach"
  },
  {
    "postcode": "34628",
    "city": "Loshausen"
  },
  {
    "postcode": "34628",
    "city": "Merzhausen Kreis Ziegenhain Hessen"
  },
  {
    "postcode": "34628",
    "city": "Merzhausen"
  },
  {
    "postcode": "34628",
    "city": "Ransbach Kreis Ziegenhain Hessen"
  },
  {
    "postcode": "34628",
    "city": "Ransbach"
  },
  {
    "postcode": "34628",
    "city": "Steina Kreis Ziegenhain Hessen"
  },
  {
    "postcode": "34628",
    "city": "Steina"
  },
  {
    "postcode": "34628",
    "city": "Wasenberg"
  },
  {
    "postcode": "34628",
    "city": "Willingshausen"
  },
  {
    "postcode": "34628",
    "city": "Zella Hessen"
  },
  {
    "postcode": "34628",
    "city": "Zella"
  },
  {
    "postcode": "34628",
    "city": "Schwalm-Eder-Kreis"
  },
  {
    "postcode": "34630",
    "city": "Appenhain"
  },
  {
    "postcode": "34630",
    "city": "Gilserberg"
  },
  {
    "postcode": "34630",
    "city": "Heimbach Kreis Ziegenhain Hessen"
  },
  {
    "postcode": "34630",
    "city": "Heimbach"
  },
  {
    "postcode": "34630",
    "city": "Itzenhain"
  },
  {
    "postcode": "34630",
    "city": "Lischeid"
  },
  {
    "postcode": "34630",
    "city": "Moischeid"
  },
  {
    "postcode": "34630",
    "city": "Sachsenhausen Kreis Ziegenhain Hessen"
  },
  {
    "postcode": "34630",
    "city": "Sachsenhausen"
  },
  {
    "postcode": "34630",
    "city": "Schönau Kreis Ziegenhain Hessen"
  },
  {
    "postcode": "34630",
    "city": "Schönau"
  },
  {
    "postcode": "34630",
    "city": "Schönstein Hessen"
  },
  {
    "postcode": "34630",
    "city": "Schönstein"
  },
  {
    "postcode": "34630",
    "city": "Sebbeterode"
  },
  {
    "postcode": "34630",
    "city": "Winterscheid Kreis Ziegenhain Hessen"
  },
  {
    "postcode": "34630",
    "city": "Winterscheid"
  },
  {
    "postcode": "34630",
    "city": "Schwalm-Eder-Kreis"
  },
  {
    "postcode": "34630",
    "city": "Bellnhausen"
  },
  {
    "postcode": "34632",
    "city": "Densberg Hessen"
  },
  {
    "postcode": "34632",
    "city": "Densberg"
  },
  {
    "postcode": "34632",
    "city": "Hundshausen"
  },
  {
    "postcode": "34632",
    "city": "Jesberg"
  },
  {
    "postcode": "34632",
    "city": "Reptich"
  },
  {
    "postcode": "34632",
    "city": "Schwalm-Eder-Kreis"
  },
  {
    "postcode": "34632",
    "city": "Elnrode-Strang"
  },
  {
    "postcode": "34633",
    "city": "Görzhain"
  },
  {
    "postcode": "34633",
    "city": "Immichenhain"
  },
  {
    "postcode": "34633",
    "city": "Kleinropperhausen"
  },
  {
    "postcode": "34633",
    "city": "Ottrau"
  },
  {
    "postcode": "34633",
    "city": "Schorbach bei Treysa"
  },
  {
    "postcode": "34633",
    "city": "Weißenborn Kreis Ziegenhain Hessen"
  },
  {
    "postcode": "34633",
    "city": "Weißenborn"
  },
  {
    "postcode": "34633",
    "city": "Schwalm-Eder-Kreis"
  },
  {
    "postcode": "34633",
    "city": "Schorbach"
  },
  {
    "postcode": "34633",
    "city": "Bahnhof Ottrau"
  },
  {
    "postcode": "34637",
    "city": "Holzburg"
  },
  {
    "postcode": "34637",
    "city": "Röllshausen"
  },
  {
    "postcode": "34637",
    "city": "Salmshausen"
  },
  {
    "postcode": "34637",
    "city": "Schrecksbach"
  },
  {
    "postcode": "34637",
    "city": "Schwalm-Eder-Kreis"
  },
  {
    "postcode": "34639",
    "city": "Grebenhagen Kreis Ziegenhain Hessen"
  },
  {
    "postcode": "34639",
    "city": "Grebenhagen"
  },
  {
    "postcode": "34639",
    "city": "Schwarzenborn"
  },
  {
    "postcode": "34639",
    "city": "Schwarzenborn Knüll"
  },
  {
    "postcode": "34639",
    "city": "Schwalm-Eder-Kreis"
  }
]