[
  {
    "postcode": "4315",
    "city": "Leipzig"
  },
  {
    "postcode": "4315",
    "city": "Volkmarsdorf"
  },
  {
    "postcode": "4315",
    "city": "Neustadt-Neuschönefeld"
  },
  {
    "postcode": "4315",
    "city": "Sellerhausen-Stünz"
  },
  {
    "postcode": "4316",
    "city": "Leipzig"
  },
  {
    "postcode": "4316",
    "city": "Mölkau"
  },
  {
    "postcode": "4316",
    "city": "Baalsdorf"
  },
  {
    "postcode": "4316",
    "city": "Holzhausen"
  },
  {
    "postcode": "4317",
    "city": "Leipzig"
  },
  {
    "postcode": "4317",
    "city": "Reudnitz-Thonberg"
  },
  {
    "postcode": "4317",
    "city": "Neustadt-Neuschönefeld"
  },
  {
    "postcode": "4317",
    "city": "Zentrum-Ost"
  },
  {
    "postcode": "4318",
    "city": "Leipzig"
  },
  {
    "postcode": "4318",
    "city": "Anger-Crottendorf"
  },
  {
    "postcode": "4318",
    "city": "Sellerhausen-Stünz"
  },
  {
    "postcode": "4319",
    "city": "Leipzig"
  },
  {
    "postcode": "4319",
    "city": "Engelsdorf"
  },
  {
    "postcode": "4319",
    "city": "Althen-Kleinpösna"
  },
  {
    "postcode": "4329",
    "city": "Leipzig"
  },
  {
    "postcode": "4329",
    "city": "Paunsdorf"
  },
  {
    "postcode": "4329",
    "city": "Heiterblick"
  },
  {
    "postcode": "4347",
    "city": "Leipzig"
  },
  {
    "postcode": "4347",
    "city": "Schönefeld-Abtnaundorf"
  },
  {
    "postcode": "4347",
    "city": "Schönefeld"
  },
  {
    "postcode": "4347",
    "city": "Heiterblick"
  },
  {
    "postcode": "4347",
    "city": "Schönefeld-Ost"
  },
  {
    "postcode": "4347",
    "city": "Zentrum"
  },
  {
    "postcode": "4347",
    "city": "Thekla"
  },
  {
    "postcode": "4349",
    "city": "Leipzig"
  },
  {
    "postcode": "4349",
    "city": "Plaußig-Portitz"
  },
  {
    "postcode": "4349",
    "city": "Thekla"
  },
  {
    "postcode": "4356",
    "city": "Leipzig"
  },
  {
    "postcode": "4356",
    "city": "Seehausen"
  },
  {
    "postcode": "4356",
    "city": "Wiederitzsch"
  },
  {
    "postcode": "4357",
    "city": "Leipzig"
  },
  {
    "postcode": "4357",
    "city": "Mockau-Nord"
  },
  {
    "postcode": "4357",
    "city": "Mockau-Süd"
  },
  {
    "postcode": "4357",
    "city": "Schönefeld-Abtnaundorf"
  },
  {
    "postcode": "4328",
    "city": "Leipzig"
  },
  {
    "postcode": "4328",
    "city": "Paunsdorf"
  },
  {
    "postcode": "4328",
    "city": "Sellerhausen-Stünz"
  }
]