[
  {
    "postcode": "98527",
    "city": "Suhl"
  },
  {
    "postcode": "98528",
    "city": "Suhl"
  },
  {
    "postcode": "98528",
    "city": "Goldlauter"
  },
  {
    "postcode": "98528",
    "city": "Gehlberg"
  },
  {
    "postcode": "98528",
    "city": "Vesser"
  },
  {
    "postcode": "98528",
    "city": "Gem Suhl"
  },
  {
    "postcode": "98529",
    "city": "Suhl"
  },
  {
    "postcode": "98529",
    "city": "Mäbendorf"
  },
  {
    "postcode": "98530",
    "city": "Dillstädt"
  },
  {
    "postcode": "98530",
    "city": "Grub bei Suhl"
  },
  {
    "postcode": "98530",
    "city": "Marisfeld / Ettertal"
  },
  {
    "postcode": "98530",
    "city": "Marisfeld"
  },
  {
    "postcode": "98530",
    "city": "Oberstadt"
  },
  {
    "postcode": "98530",
    "city": "Rohr bei Suhl"
  },
  {
    "postcode": "98530",
    "city": "Schmeheim"
  },
  {
    "postcode": "98530",
    "city": "Hildburghausen"
  },
  {
    "postcode": "98530",
    "city": "Grub"
  },
  {
    "postcode": "98530",
    "city": "Rohr"
  },
  {
    "postcode": "98530",
    "city": "Suhl"
  },
  {
    "postcode": "98544",
    "city": "Zella-Mehlis"
  },
  {
    "postcode": "98544",
    "city": "Schmalkalden-Meiningen"
  },
  {
    "postcode": "98544",
    "city": "Benshausen"
  },
  {
    "postcode": "98544",
    "city": "Ebertshausen"
  },
  {
    "postcode": "98547",
    "city": "Christes"
  },
  {
    "postcode": "98547",
    "city": "Kühndorf bei Suhl"
  },
  {
    "postcode": "98547",
    "city": "Schwarza bei Suhl"
  },
  {
    "postcode": "98547",
    "city": "Viernau"
  },
  {
    "postcode": "98547",
    "city": "Schmalkalden-Meiningen"
  },
  {
    "postcode": "98547",
    "city": "Kühndorf"
  },
  {
    "postcode": "98547",
    "city": "Schwarza"
  },
  {
    "postcode": "98547",
    "city": "Steinbach-Hallenberg"
  },
  {
    "postcode": "98553",
    "city": "Ahlstädt"
  },
  {
    "postcode": "98553",
    "city": "Bischofrod"
  },
  {
    "postcode": "98553",
    "city": "Eichenberg bei Suhl"
  },
  {
    "postcode": "98553",
    "city": "Fischbach bei Suhl"
  },
  {
    "postcode": "98553",
    "city": "Geisenhöhn"
  },
  {
    "postcode": "98553",
    "city": "Gethles"
  },
  {
    "postcode": "98553",
    "city": "Gottfriedsberg"
  },
  {
    "postcode": "98553",
    "city": "Haina bei Meiningen"
  },
  {
    "postcode": "98553",
    "city": "Heckengereuth"
  },
  {
    "postcode": "98553",
    "city": "Nahetal-Waldau"
  },
  {
    "postcode": "98553",
    "city": "Rappelsdorf"
  },
  {
    "postcode": "98553",
    "city": "Ratscher"
  },
  {
    "postcode": "98553",
    "city": "Sankt Kilian"
  },
  {
    "postcode": "98553",
    "city": "Schleusingen"
  },
  {
    "postcode": "98553",
    "city": "Hildburghausen"
  },
  {
    "postcode": "98553",
    "city": "Eichenberg"
  },
  {
    "postcode": "98553",
    "city": "Keulrod"
  },
  {
    "postcode": "98553",
    "city": "Hinternah"
  },
  {
    "postcode": "98553",
    "city": "Erlau"
  },
  {
    "postcode": "98553",
    "city": "Altendambach"
  },
  {
    "postcode": "98553",
    "city": "Waldau"
  },
  {
    "postcode": "98553",
    "city": "Fischbach"
  },
  {
    "postcode": "98553",
    "city": "Schleusingerneundorf"
  },
  {
    "postcode": "98553",
    "city": "Hirschbach"
  },
  {
    "postcode": "98553",
    "city": "Breitenbach"
  },
  {
    "postcode": "98553",
    "city": "St. Kilian"
  },
  {
    "postcode": "98553",
    "city": "Oberrod"
  },
  {
    "postcode": "98553",
    "city": "Silbach"
  },
  {
    "postcode": "98554",
    "city": "Benshausen"
  },
  {
    "postcode": "98554",
    "city": "Schmalkalden-Meiningen"
  },
  {
    "postcode": "98554",
    "city": "Zella-Mehlis"
  },
  {
    "postcode": "98559",
    "city": "Gehlberg"
  },
  {
    "postcode": "98559",
    "city": "Oberhof Thüringen"
  },
  {
    "postcode": "98559",
    "city": "Oberhof"
  },
  {
    "postcode": "98559",
    "city": "Schmücke"
  },
  {
    "postcode": "98559",
    "city": "Ilm-Kreis"
  },
  {
    "postcode": "98559",
    "city": "Suhl"
  },
  {
    "postcode": "98574",
    "city": "Schmalkalden Kurort"
  },
  {
    "postcode": "98574",
    "city": "Schmalkalden"
  },
  {
    "postcode": "98574",
    "city": "Schmalkalden-Meiningen"
  },
  {
    "postcode": "98574",
    "city": "Wernshausen"
  },
  {
    "postcode": "98574",
    "city": "Mittelschmalkalden"
  },
  {
    "postcode": "98574",
    "city": "Grumbach"
  },
  {
    "postcode": "98574",
    "city": "Springstille"
  },
  {
    "postcode": "98574",
    "city": "Asbach"
  },
  {
    "postcode": "98574",
    "city": "Mittelstille"
  },
  {
    "postcode": "98574",
    "city": "Möckers"
  },
  {
    "postcode": "98574",
    "city": "Reichenbach"
  },
  {
    "postcode": "98587",
    "city": "Altersbach bei Schmalkalden"
  },
  {
    "postcode": "98587",
    "city": "Bermbach bei Schmalkalden"
  },
  {
    "postcode": "98587",
    "city": "Kurort Steinbach-Hallenberg"
  },
  {
    "postcode": "98587",
    "city": "Oberschönau Thüringen"
  },
  {
    "postcode": "98587",
    "city": "Oberschönau"
  },
  {
    "postcode": "98587",
    "city": "Rotterode"
  },
  {
    "postcode": "98587",
    "city": "Springstille"
  },
  {
    "postcode": "98587",
    "city": "Unterschönau bei Schmalkalden"
  },
  {
    "postcode": "98587",
    "city": "Schmalkalden-Meiningen"
  },
  {
    "postcode": "98587",
    "city": "Steinbach-Hallenberg"
  },
  {
    "postcode": "98587",
    "city": "Viernau"
  },
  {
    "postcode": "98587",
    "city": "Herges-Hallenberg"
  },
  {
    "postcode": "98587",
    "city": "Altersbach"
  },
  {
    "postcode": "98587",
    "city": "Bermbach"
  },
  {
    "postcode": "98587",
    "city": "Unterschönau"
  },
  {
    "postcode": "98590",
    "city": "Rosa"
  },
  {
    "postcode": "98590",
    "city": "Roßdorf bei Schmalkalden"
  },
  {
    "postcode": "98590",
    "city": "Schwallungen"
  },
  {
    "postcode": "98590",
    "city": "Wernshausen"
  },
  {
    "postcode": "98590",
    "city": "Schmalkalden-Meiningen"
  },
  {
    "postcode": "98590",
    "city": "Roßdorf"
  },
  {
    "postcode": "98590",
    "city": "Georgenzell"
  },
  {
    "postcode": "98590",
    "city": "Eckardts"
  },
  {
    "postcode": "98590",
    "city": "Zillbach"
  },
  {
    "postcode": "98590",
    "city": "Schwarzbach"
  },
  {
    "postcode": "98593",
    "city": "Floh-Seligenthal"
  },
  {
    "postcode": "98593",
    "city": "Kleinschmalkalden"
  },
  {
    "postcode": "98593",
    "city": "Schmalkalden-Meiningen"
  },
  {
    "postcode": "98593",
    "city": "Hohleborn"
  },
  {
    "postcode": "98593",
    "city": "Seligenthal"
  },
  {
    "postcode": "98593",
    "city": "Struth-Helmershof"
  },
  {
    "postcode": "98593",
    "city": "Floh"
  },
  {
    "postcode": "98593",
    "city": "Schnellbach"
  },
  {
    "postcode": "98596",
    "city": "Trusetal"
  },
  {
    "postcode": "98596",
    "city": "Schmalkalden-Meiningen"
  },
  {
    "postcode": "98596",
    "city": "Brotterode-Trusetal"
  },
  {
    "postcode": "98596",
    "city": "Brotterode"
  },
  {
    "postcode": "98596",
    "city": "Wahles"
  },
  {
    "postcode": "98597",
    "city": "Breitungen / Werra"
  },
  {
    "postcode": "98597",
    "city": "Breitungen"
  },
  {
    "postcode": "98597",
    "city": "Fambach"
  },
  {
    "postcode": "98597",
    "city": "Heßles"
  },
  {
    "postcode": "98597",
    "city": "Schmalkalden-Meiningen"
  },
  {
    "postcode": "98599",
    "city": "Brotterode"
  },
  {
    "postcode": "98617",
    "city": "Bauerbach bei Meiningen"
  },
  {
    "postcode": "98617",
    "city": "Belrieth"
  },
  {
    "postcode": "98617",
    "city": "Einhausen bei Meiningen"
  },
  {
    "postcode": "98617",
    "city": "Ellingshausen bei Meiningen"
  },
  {
    "postcode": "98617",
    "city": "Henneberg bei Meiningen"
  },
  {
    "postcode": "98617",
    "city": "Herpf"
  },
  {
    "postcode": "98617",
    "city": "Leutersdorf bei Meiningen"
  },
  {
    "postcode": "98617",
    "city": "Meiningen"
  },
  {
    "postcode": "98617",
    "city": "Neubrunn bei Meiningen"
  },
  {
    "postcode": "98617",
    "city": "Obermaßfeld-Grimmenthal"
  },
  {
    "postcode": "98617",
    "city": "Rhönblick"
  },
  {
    "postcode": "98617",
    "city": "Ritschenhausen"
  },
  {
    "postcode": "98617",
    "city": "Stepfershausen"
  },
  {
    "postcode": "98617",
    "city": "Sülzfeld bei Meiningen"
  },
  {
    "postcode": "98617",
    "city": "Untermaßfeld"
  },
  {
    "postcode": "98617",
    "city": "Utendorf"
  },
  {
    "postcode": "98617",
    "city": "Vachdorf"
  },
  {
    "postcode": "98617",
    "city": "Wölfershausen bei Meiningen"
  },
  {
    "postcode": "98617",
    "city": "Schmalkalden-Meiningen"
  },
  {
    "postcode": "98617",
    "city": "Einhausen"
  },
  {
    "postcode": "98617",
    "city": "Ellingshausen"
  },
  {
    "postcode": "98617",
    "city": "Leutersdorf"
  },
  {
    "postcode": "98617",
    "city": "Neubrunn"
  },
  {
    "postcode": "98617",
    "city": "Sülzfeld"
  },
  {
    "postcode": "98617",
    "city": "Dreißigacker"
  },
  {
    "postcode": "98617",
    "city": "Henneberg"
  },
  {
    "postcode": "98617",
    "city": "Einödhausen"
  },
  {
    "postcode": "98617",
    "city": "Träbes"
  },
  {
    "postcode": "98617",
    "city": "Helmershausen"
  },
  {
    "postcode": "98617",
    "city": "Bettenhausen"
  },
  {
    "postcode": "98617",
    "city": "Gerthausen"
  },
  {
    "postcode": "98617",
    "city": "Gleimershausen"
  },
  {
    "postcode": "98617",
    "city": "Hermannsfeld"
  },
  {
    "postcode": "98617",
    "city": "Seeba"
  },
  {
    "postcode": "98617",
    "city": "Stedtlingen"
  },
  {
    "postcode": "98617",
    "city": "Geba"
  },
  {
    "postcode": "98617",
    "city": "Wohlmuthausen"
  },
  {
    "postcode": "98617",
    "city": "Haselbach"
  },
  {
    "postcode": "98631",
    "city": "Behrungen"
  },
  {
    "postcode": "98631",
    "city": "Berkach bei Meiningen"
  },
  {
    "postcode": "98631",
    "city": "Bibra bei Meiningen"
  },
  {
    "postcode": "98631",
    "city": "Exdorf"
  },
  {
    "postcode": "98631",
    "city": "Grabfeld"
  },
  {
    "postcode": "98631",
    "city": "Haina"
  },
  {
    "postcode": "98631",
    "city": "Haina bei Meiningen"
  },
  {
    "postcode": "98631",
    "city": "Hindfeld"
  },
  {
    "postcode": "98631",
    "city": "Jüchsen"
  },
  {
    "postcode": "98631",
    "city": "Mendhausen"
  },
  {
    "postcode": "98631",
    "city": "Milz"
  },
  {
    "postcode": "98631",
    "city": "Mönchshof"
  },
  {
    "postcode": "98631",
    "city": "Nordheim bei Meiningen"
  },
  {
    "postcode": "98631",
    "city": "Obendorf"
  },
  {
    "postcode": "98631",
    "city": "Queienfeld"
  },
  {
    "postcode": "98631",
    "city": "Rentwertshausen"
  },
  {
    "postcode": "98631",
    "city": "Römhild"
  },
  {
    "postcode": "98631",
    "city": "Schweickershausen"
  },
  {
    "postcode": "98631",
    "city": "Schwickershausen bei Meiningen"
  },
  {
    "postcode": "98631",
    "city": "Sülzdorf"
  },
  {
    "postcode": "98631",
    "city": "Westenfeld bei Meiningen"
  },
  {
    "postcode": "98631",
    "city": "Wolfmannshausen"
  },
  {
    "postcode": "98631",
    "city": "Hildburghausen"
  },
  {
    "postcode": "98631",
    "city": "Bauerbach"
  },
  {
    "postcode": "98631",
    "city": "Schwickershausen"
  },
  {
    "postcode": "98631",
    "city": "Bibra"
  },
  {
    "postcode": "98631",
    "city": "Berkach"
  },
  {
    "postcode": "98631",
    "city": "Nordheim"
  },
  {
    "postcode": "98631",
    "city": "Obendorf"
  },
  {
    "postcode": "98634",
    "city": "Aschenhausen"
  },
  {
    "postcode": "98634",
    "city": "Birx"
  },
  {
    "postcode": "98634",
    "city": "Erbenhausen bei Meiningen"
  },
  {
    "postcode": "98634",
    "city": "Frankenheim / Rhön"
  },
  {
    "postcode": "98634",
    "city": "Frankenheim"
  },
  {
    "postcode": "98634",
    "city": "Friedelshausen"
  },
  {
    "postcode": "98634",
    "city": "Hümpfershausen"
  },
  {
    "postcode": "98634",
    "city": "Kaltensundheim"
  },
  {
    "postcode": "98634",
    "city": "Kaltenwestheim"
  },
  {
    "postcode": "98634",
    "city": "Mehmels"
  },
  {
    "postcode": "98634",
    "city": "Melpers"
  },
  {
    "postcode": "98634",
    "city": "Oberkatz"
  },
  {
    "postcode": "98634",
    "city": "Oberweid"
  },
  {
    "postcode": "98634",
    "city": "Oepfershausen"
  },
  {
    "postcode": "98634",
    "city": "Unterkatz"
  },
  {
    "postcode": "98634",
    "city": "Unterweid"
  },
  {
    "postcode": "98634",
    "city": "Wahns"
  },
  {
    "postcode": "98634",
    "city": "Wasungen"
  },
  {
    "postcode": "98634",
    "city": "Schmalkalden-Meiningen"
  },
  {
    "postcode": "98634",
    "city": "Erbenhausen"
  },
  {
    "postcode": "98634",
    "city": "Kaltennordheim"
  },
  {
    "postcode": "98634",
    "city": "Reichenhausen"
  },
  {
    "postcode": "98634",
    "city": "Schafhausen"
  },
  {
    "postcode": "98634",
    "city": "Dörrensolz"
  },
  {
    "postcode": "98639",
    "city": "Metzels"
  },
  {
    "postcode": "98639",
    "city": "Rippershausen"
  },
  {
    "postcode": "98639",
    "city": "Wallbach bei Meiningen"
  },
  {
    "postcode": "98639",
    "city": "Walldorf bei Meiningen"
  },
  {
    "postcode": "98639",
    "city": "Schmalkalden-Meiningen"
  },
  {
    "postcode": "98639",
    "city": "Wasungen"
  },
  {
    "postcode": "98639",
    "city": "Solz"
  },
  {
    "postcode": "98639",
    "city": "Melkers"
  },
  {
    "postcode": "98646",
    "city": "Bürden"
  },
  {
    "postcode": "98646",
    "city": "Dingsleben"
  },
  {
    "postcode": "98646",
    "city": "Ebenhards"
  },
  {
    "postcode": "98646",
    "city": "Friedrichsanfang"
  },
  {
    "postcode": "98646",
    "city": "Gerhardtsgereuth"
  },
  {
    "postcode": "98646",
    "city": "Gleichamberg"
  },
  {
    "postcode": "98646",
    "city": "Heßberg"
  },
  {
    "postcode": "98646",
    "city": "Hildburghausen"
  },
  {
    "postcode": "98646",
    "city": "Leimrieth"
  },
  {
    "postcode": "98646",
    "city": "Neuendambach"
  },
  {
    "postcode": "98646",
    "city": "Pfersdorf bei Hildburghausen"
  },
  {
    "postcode": "98646",
    "city": "Reurieth"
  },
  {
    "postcode": "98646",
    "city": "Siegritz"
  },
  {
    "postcode": "98646",
    "city": "Straufhain"
  },
  {
    "postcode": "98646",
    "city": "Trostadt"
  },
  {
    "postcode": "98646",
    "city": "Wallrabs"
  },
  {
    "postcode": "98646",
    "city": "Weitersroda"
  },
  {
    "postcode": "98646",
    "city": "Häselrieth"
  },
  {
    "postcode": "98646",
    "city": "Birkenfeld"
  },
  {
    "postcode": "98646",
    "city": "Pfersdorf"
  },
  {
    "postcode": "98646",
    "city": "Adelhausen"
  },
  {
    "postcode": "98646",
    "city": "Stressenhausen"
  },
  {
    "postcode": "98646",
    "city": "Eishausen"
  },
  {
    "postcode": "98646",
    "city": "Streufdorf"
  },
  {
    "postcode": "98646",
    "city": "Steinfeld"
  },
  {
    "postcode": "98646",
    "city": "Linden"
  },
  {
    "postcode": "98646",
    "city": "Sophienthal"
  },
  {
    "postcode": "98646",
    "city": "Seidingstadt"
  },
  {
    "postcode": "98646",
    "city": "Massenhausen"
  },
  {
    "postcode": "98660",
    "city": "Beinerstadt"
  },
  {
    "postcode": "98660",
    "city": "Ehrenberg bei Hildburghausen"
  },
  {
    "postcode": "98660",
    "city": "Grimmelshausen"
  },
  {
    "postcode": "98660",
    "city": "Henfstädt"
  },
  {
    "postcode": "98660",
    "city": "Kloster Veßra"
  },
  {
    "postcode": "98660",
    "city": "Lengfeld bei Hildburghausen"
  },
  {
    "postcode": "98660",
    "city": "Sankt Bernhard"
  },
  {
    "postcode": "98660",
    "city": "Tachbach"
  },
  {
    "postcode": "98660",
    "city": "Themar"
  },
  {
    "postcode": "98660",
    "city": "Wachenbrunn"
  },
  {
    "postcode": "98660",
    "city": "Hildburghausen"
  },
  {
    "postcode": "98660",
    "city": "Ehrenberg"
  },
  {
    "postcode": "98660",
    "city": "Lengfeld"
  },
  {
    "postcode": "98660",
    "city": "St. Bernhard"
  },
  {
    "postcode": "98660",
    "city": "Neuhof"
  },
  {
    "postcode": "98660",
    "city": "Zollbrück"
  },
  {
    "postcode": "98663",
    "city": "Bad Colberg-Heldburg"
  },
  {
    "postcode": "98663",
    "city": "Gompertshausen"
  },
  {
    "postcode": "98663",
    "city": "Hellingen bei Hildburghausen"
  },
  {
    "postcode": "98663",
    "city": "Schlechtsart"
  },
  {
    "postcode": "98663",
    "city": "Schweickershausen"
  },
  {
    "postcode": "98663",
    "city": "Ummerstadt"
  },
  {
    "postcode": "98663",
    "city": "Westhausen bei Hildburghausen"
  },
  {
    "postcode": "98663",
    "city": "Hildburghausen"
  },
  {
    "postcode": "98663",
    "city": "Heldburg"
  },
  {
    "postcode": "98663",
    "city": "Westhausen"
  },
  {
    "postcode": "98663",
    "city": "Albingshausen"
  },
  {
    "postcode": "98663",
    "city": "Völkershausen"
  },
  {
    "postcode": "98663",
    "city": "Rieth"
  },
  {
    "postcode": "98663",
    "city": "Lindenau"
  },
  {
    "postcode": "98663",
    "city": "Gellershausen"
  },
  {
    "postcode": "98663",
    "city": "Käßlitz"
  },
  {
    "postcode": "98663",
    "city": "Volkmannshausen"
  },
  {
    "postcode": "98663",
    "city": "Einöd"
  },
  {
    "postcode": "98663",
    "city": "Poppenhausen"
  },
  {
    "postcode": "98663",
    "city": "Hellingen"
  },
  {
    "postcode": "98663",
    "city": "Bad Colberg"
  },
  {
    "postcode": "98663",
    "city": "Holzhausen"
  },
  {
    "postcode": "98663",
    "city": "Haubinda"
  },
  {
    "postcode": "98666",
    "city": "Masserberg"
  },
  {
    "postcode": "98666",
    "city": "Hildburghausen"
  },
  {
    "postcode": "98666",
    "city": "Biberau"
  },
  {
    "postcode": "98666",
    "city": "Schleusegrund"
  },
  {
    "postcode": "98666",
    "city": "Biberschlag"
  },
  {
    "postcode": "98666",
    "city": "Engenstein"
  },
  {
    "postcode": "98666",
    "city": "Tellerhammer"
  },
  {
    "postcode": "98666",
    "city": "Lichtenau"
  },
  {
    "postcode": "98666",
    "city": "Schnett"
  },
  {
    "postcode": "98666",
    "city": "Fehrenbach"
  },
  {
    "postcode": "98666",
    "city": "Heubach"
  },
  {
    "postcode": "98666",
    "city": "Einsiedel"
  },
  {
    "postcode": "98667",
    "city": "Schleusegrund"
  },
  {
    "postcode": "98667",
    "city": "Hildburghausen"
  },
  {
    "postcode": "98667",
    "city": "Gießübel"
  },
  {
    "postcode": "98667",
    "city": "Langenbach"
  },
  {
    "postcode": "98667",
    "city": "Schönbrunn"
  },
  {
    "postcode": "98667",
    "city": "Steinbach"
  },
  {
    "postcode": "98669",
    "city": "Heßberg"
  },
  {
    "postcode": "98669",
    "city": "Schlechtsart"
  },
  {
    "postcode": "98669",
    "city": "Veilsdorf"
  },
  {
    "postcode": "98669",
    "city": "Hildburghausen"
  },
  {
    "postcode": "98669",
    "city": "Goßmannsrod"
  },
  {
    "postcode": "98669",
    "city": "Kloster Veilsdorf"
  },
  {
    "postcode": "98669",
    "city": "Schackendorf"
  },
  {
    "postcode": "98669",
    "city": "Hetschbach"
  },
  {
    "postcode": "98673",
    "city": "Auengrund"
  },
  {
    "postcode": "98673",
    "city": "Bockstadt"
  },
  {
    "postcode": "98673",
    "city": "Brünn / Thüringen"
  },
  {
    "postcode": "98673",
    "city": "Brünn"
  },
  {
    "postcode": "98673",
    "city": "Eisfeld"
  },
  {
    "postcode": "98673",
    "city": "Harras bei Eisfeld"
  },
  {
    "postcode": "98673",
    "city": "Heid"
  },
  {
    "postcode": "98673",
    "city": "Hirschendorf bei Eisfeld"
  },
  {
    "postcode": "98673",
    "city": "Steudach"
  },
  {
    "postcode": "98673",
    "city": "Waffenrod"
  },
  {
    "postcode": "98673",
    "city": "Hildburghausen"
  },
  {
    "postcode": "98673",
    "city": "Brattendorf"
  },
  {
    "postcode": "98673",
    "city": "Crock"
  },
  {
    "postcode": "98673",
    "city": "Schwarzbach"
  },
  {
    "postcode": "98673",
    "city": "Wiedersbach"
  },
  {
    "postcode": "98673",
    "city": "Oberwind"
  },
  {
    "postcode": "98673",
    "city": "Poppenwind"
  },
  {
    "postcode": "98673",
    "city": "Merbelsrod"
  },
  {
    "postcode": "98673",
    "city": "Harras"
  },
  {
    "postcode": "98673",
    "city": "Sachsenbrunn"
  },
  {
    "postcode": "98673",
    "city": "Schirnrod"
  },
  {
    "postcode": "98673",
    "city": "Hirschendorf"
  },
  {
    "postcode": "98673",
    "city": "Hinterrod"
  },
  {
    "postcode": "98673",
    "city": "Stelzen"
  },
  {
    "postcode": "98673",
    "city": "Herbartswind"
  },
  {
    "postcode": "98673",
    "city": "Saargrund"
  },
  {
    "postcode": "98673",
    "city": "Friedrichshöhe"
  },
  {
    "postcode": "98673",
    "city": "Tossenthal"
  },
  {
    "postcode": "98673",
    "city": "Weitesfeld"
  },
  {
    "postcode": "98678",
    "city": "Sachsenbrunn"
  },
  {
    "postcode": "98678",
    "city": "Hildburghausen"
  },
  {
    "postcode": "98693",
    "city": "Bücheloh"
  },
  {
    "postcode": "98693",
    "city": "Heyda"
  },
  {
    "postcode": "98693",
    "city": "Ilmenau Thüringen"
  },
  {
    "postcode": "98693",
    "city": "Ilmenau"
  },
  {
    "postcode": "98693",
    "city": "Manebach"
  },
  {
    "postcode": "98693",
    "city": "Martinroda bei Ilmenau"
  },
  {
    "postcode": "98693",
    "city": "Oberpörlitz"
  },
  {
    "postcode": "98693",
    "city": "Roda"
  },
  {
    "postcode": "98693",
    "city": "Unterpörlitz"
  },
  {
    "postcode": "98693",
    "city": "Ilm-Kreis"
  },
  {
    "postcode": "98693",
    "city": "Martinroda"
  },
  {
    "postcode": "98693",
    "city": "Gräfinau-Angstedt"
  },
  {
    "postcode": "98693",
    "city": "Langewiesen"
  },
  {
    "postcode": "98693",
    "city": "Oehrenstock"
  },
  {
    "postcode": "98693",
    "city": "Wümbach"
  },
  {
    "postcode": "98693",
    "city": "Möhrenbach"
  },
  {
    "postcode": "98693",
    "city": "Annawerk"
  },
  {
    "postcode": "98693",
    "city": "Gehren"
  },
  {
    "postcode": "98693",
    "city": "Lehmannsbrück"
  },
  {
    "postcode": "98701",
    "city": "Altenfeld bei Ilmenau Thüringen"
  },
  {
    "postcode": "98701",
    "city": "Altenfeld bei Ilmenau"
  },
  {
    "postcode": "98701",
    "city": "Böhlen Thüringen"
  },
  {
    "postcode": "98701",
    "city": "Böhlen"
  },
  {
    "postcode": "98701",
    "city": "Friedersdorf Thüringen"
  },
  {
    "postcode": "98701",
    "city": "Friedersdorf"
  },
  {
    "postcode": "98701",
    "city": "Gillersdorf"
  },
  {
    "postcode": "98701",
    "city": "Großbreitenbach"
  },
  {
    "postcode": "98701",
    "city": "Herschdorf"
  },
  {
    "postcode": "98701",
    "city": "Neustadt am Rennsteig"
  },
  {
    "postcode": "98701",
    "city": "Wildenspring"
  },
  {
    "postcode": "98701",
    "city": "Ilm-Kreis"
  },
  {
    "postcode": "98704",
    "city": "Gräfinau-Angstedt"
  },
  {
    "postcode": "98704",
    "city": "Langewiesen"
  },
  {
    "postcode": "98704",
    "city": "Oehrenstock"
  },
  {
    "postcode": "98704",
    "city": "Wolfsberg"
  },
  {
    "postcode": "98704",
    "city": "Wümbach"
  },
  {
    "postcode": "98704",
    "city": "Ilm-Kreis"
  },
  {
    "postcode": "98708",
    "city": "Gehren Thüringen"
  },
  {
    "postcode": "98708",
    "city": "Gehren"
  },
  {
    "postcode": "98708",
    "city": "Möhrenbach"
  },
  {
    "postcode": "98708",
    "city": "Pennewitz"
  },
  {
    "postcode": "98708",
    "city": "Ilm-Kreis"
  },
  {
    "postcode": "98711",
    "city": "Frauenwald"
  },
  {
    "postcode": "98711",
    "city": "Schmiedefeld am Rennsteig"
  },
  {
    "postcode": "98711",
    "city": "Ilm-Kreis"
  },
  {
    "postcode": "98714",
    "city": "Stützerbach"
  },
  {
    "postcode": "98714",
    "city": "Ilm-Kreis"
  },
  {
    "postcode": "98716",
    "city": "Elgersburg"
  },
  {
    "postcode": "98716",
    "city": "Geraberg"
  },
  {
    "postcode": "98716",
    "city": "Geschwenda"
  },
  {
    "postcode": "98716",
    "city": "Ilm-Kreis"
  },
  {
    "postcode": "98716",
    "city": "Geratal"
  },
  {
    "postcode": "98724",
    "city": "Lauscha"
  },
  {
    "postcode": "98724",
    "city": "Neuhaus am Rennweg"
  },
  {
    "postcode": "98724",
    "city": "Sonneberg"
  },
  {
    "postcode": "98724",
    "city": "Ernstthal"
  },
  {
    "postcode": "98724",
    "city": "Piesau"
  },
  {
    "postcode": "98724",
    "city": "Steinheid"
  },
  {
    "postcode": "98724",
    "city": "Siegmundsburg"
  },
  {
    "postcode": "98724",
    "city": "Limbach"
  },
  {
    "postcode": "98724",
    "city": "Scheibe-Alsbach"
  },
  {
    "postcode": "98724",
    "city": "Lichte"
  },
  {
    "postcode": "98724",
    "city": "Neuhaus"
  },
  {
    "postcode": "98739",
    "city": "Lichte"
  },
  {
    "postcode": "98739",
    "city": "Piesau"
  },
  {
    "postcode": "98739",
    "city": "Reichmannsdorf bei Neuhaus am Rennweg"
  },
  {
    "postcode": "98739",
    "city": "Schmiedefeld bei Neuhaus am Rennweg"
  },
  {
    "postcode": "98739",
    "city": "Saalfeld-Rudolstadt"
  },
  {
    "postcode": "98743",
    "city": "Gräfenthal"
  },
  {
    "postcode": "98743",
    "city": "Saalfeld-Rudolstadt"
  },
  {
    "postcode": "98743",
    "city": "Buchbach"
  },
  {
    "postcode": "98743",
    "city": "Creunitz"
  },
  {
    "postcode": "98743",
    "city": "Lichtenhain b Gräfenthal"
  },
  {
    "postcode": "98743",
    "city": "Gebersdorf"
  },
  {
    "postcode": "98743",
    "city": "Großneundorf"
  },
  {
    "postcode": "98743",
    "city": "Lippelsdorf"
  },
  {
    "postcode": "98743",
    "city": "Sommersdorf"
  },
  {
    "postcode": "98744",
    "city": "Cursdorf"
  },
  {
    "postcode": "98744",
    "city": "Deesbach"
  },
  {
    "postcode": "98744",
    "city": "Lichtenhain / Bergbahn"
  },
  {
    "postcode": "98744",
    "city": "Lichtenhain"
  },
  {
    "postcode": "98744",
    "city": "Meura"
  },
  {
    "postcode": "98744",
    "city": "Oberweißbach / Thüringer Wald"
  },
  {
    "postcode": "98744",
    "city": "Oberweißbach"
  },
  {
    "postcode": "98744",
    "city": "Unterweißbach"
  },
  {
    "postcode": "98744",
    "city": "Saalfeld-Rudolstadt"
  },
  {
    "postcode": "98744",
    "city": "Schwarzatal"
  },
  {
    "postcode": "98744",
    "city": "Lichtenhain Bergbahn"
  },
  {
    "postcode": "98744",
    "city": "Lichtenhain/Bergbahn"
  },
  {
    "postcode": "98744",
    "city": "Schwarzmühle"
  },
  {
    "postcode": "98744",
    "city": "Meuselbach"
  },
  {
    "postcode": "98744",
    "city": "Mellenbach-Glasbach"
  },
  {
    "postcode": "98744",
    "city": "Neu-Leibis"
  },
  {
    "postcode": "98746",
    "city": "Goldisthal"
  },
  {
    "postcode": "98746",
    "city": "Katzhütte"
  },
  {
    "postcode": "98746",
    "city": "Mellenbach-Glasbach"
  },
  {
    "postcode": "98746",
    "city": "Meuselbach-Schwarzmühle"
  },
  {
    "postcode": "98746",
    "city": "Saalfeld-Rudolstadt"
  },
  {
    "postcode": "98746",
    "city": "Oelze"
  },
  {
    "postcode": "98749",
    "city": "Scheibe-Alsbach"
  },
  {
    "postcode": "98749",
    "city": "Siegmundsburg"
  },
  {
    "postcode": "98749",
    "city": "Steinheid"
  },
  {
    "postcode": "98630",
    "city": "Hildburghausen"
  },
  {
    "postcode": "98630",
    "city": "Römhild"
  },
  {
    "postcode": "98630",
    "city": "Gleichamberg"
  },
  {
    "postcode": "98630",
    "city": "Milz"
  },
  {
    "postcode": "98630",
    "city": "Bedheim"
  },
  {
    "postcode": "98630",
    "city": "Mendhausen"
  },
  {
    "postcode": "98630",
    "city": "Westenfeld"
  },
  {
    "postcode": "98630",
    "city": "Haina"
  },
  {
    "postcode": "98630",
    "city": "Simmershausen"
  },
  {
    "postcode": "98630",
    "city": "Sülzdorf"
  },
  {
    "postcode": "98630",
    "city": "Eicha"
  },
  {
    "postcode": "98630",
    "city": "Roth"
  },
  {
    "postcode": "98630",
    "city": "Zeilfeld"
  },
  {
    "postcode": "98630",
    "city": "Hindfeld"
  },
  {
    "postcode": "98630",
    "city": "Gleicherwiesen"
  }
]