[
  {
    "postcode": "51061",
    "city": "Dünnwald"
  },
  {
    "postcode": "51061",
    "city": "Flittard"
  },
  {
    "postcode": "51061",
    "city": "Höhenhaus"
  },
  {
    "postcode": "51061",
    "city": "Köln"
  },
  {
    "postcode": "51061",
    "city": "Stammheim"
  },
  {
    "postcode": "51061",
    "city": "Mülheim"
  },
  {
    "postcode": "51063",
    "city": "Buchheim"
  },
  {
    "postcode": "51063",
    "city": "Köln"
  },
  {
    "postcode": "51063",
    "city": "Stammheim"
  },
  {
    "postcode": "51063",
    "city": "Mülheim"
  },
  {
    "postcode": "51065",
    "city": "Buchheim"
  },
  {
    "postcode": "51065",
    "city": "Köln"
  },
  {
    "postcode": "51065",
    "city": "Buchforst"
  },
  {
    "postcode": "51065",
    "city": "Mülheim"
  },
  {
    "postcode": "51065",
    "city": "Kalk"
  },
  {
    "postcode": "51065",
    "city": "Deutz"
  },
  {
    "postcode": "51067",
    "city": "Buchheim"
  },
  {
    "postcode": "51067",
    "city": "Dellbrück"
  },
  {
    "postcode": "51067",
    "city": "Holweide"
  },
  {
    "postcode": "51067",
    "city": "Köln"
  },
  {
    "postcode": "51069",
    "city": "Dellbrück"
  },
  {
    "postcode": "51069",
    "city": "Dünnwald"
  },
  {
    "postcode": "51069",
    "city": "Flittard"
  },
  {
    "postcode": "51069",
    "city": "Höhenhaus"
  },
  {
    "postcode": "51069",
    "city": "Köln"
  },
  {
    "postcode": "51069",
    "city": "Lindenthal"
  },
  {
    "postcode": "51069",
    "city": "Merheim"
  },
  {
    "postcode": "51103",
    "city": "Höhenberg"
  },
  {
    "postcode": "51103",
    "city": "Köln"
  },
  {
    "postcode": "51103",
    "city": "Merheim"
  },
  {
    "postcode": "51103",
    "city": "Kalk"
  },
  {
    "postcode": "51103",
    "city": "Vingst"
  },
  {
    "postcode": "51105",
    "city": "Köln"
  },
  {
    "postcode": "51105",
    "city": "Poll"
  },
  {
    "postcode": "51105",
    "city": "Humboldt-Gremberg"
  },
  {
    "postcode": "51105",
    "city": "Kalk"
  },
  {
    "postcode": "51105",
    "city": "Deutz"
  },
  {
    "postcode": "51107",
    "city": "Eil"
  },
  {
    "postcode": "51107",
    "city": "Gremberghoven"
  },
  {
    "postcode": "51107",
    "city": "Köln"
  },
  {
    "postcode": "51107",
    "city": "Ostheim"
  },
  {
    "postcode": "51107",
    "city": "Rath / Heumar"
  },
  {
    "postcode": "51107",
    "city": "Rath"
  },
  {
    "postcode": "51107",
    "city": "Rath/Heumar"
  },
  {
    "postcode": "51107",
    "city": "Vingst"
  },
  {
    "postcode": "51107",
    "city": "Humboldt-Gremberg"
  },
  {
    "postcode": "51107",
    "city": "Grengel"
  },
  {
    "postcode": "51107",
    "city": "Höhenberg"
  },
  {
    "postcode": "51109",
    "city": "Brück"
  },
  {
    "postcode": "51109",
    "city": "Köln"
  },
  {
    "postcode": "51109",
    "city": "Merheim"
  },
  {
    "postcode": "51109",
    "city": "Ostheim"
  },
  {
    "postcode": "51109",
    "city": "Neubrück"
  },
  {
    "postcode": "51143",
    "city": "Köln"
  },
  {
    "postcode": "51143",
    "city": "Langel"
  },
  {
    "postcode": "51143",
    "city": "Zündorf"
  },
  {
    "postcode": "51143",
    "city": "Porz"
  },
  {
    "postcode": "51145",
    "city": "Eil"
  },
  {
    "postcode": "51145",
    "city": "Elsdorf"
  },
  {
    "postcode": "51145",
    "city": "Köln"
  },
  {
    "postcode": "51145",
    "city": "Urbach"
  },
  {
    "postcode": "51145",
    "city": "Porz"
  },
  {
    "postcode": "51147",
    "city": "Eil"
  },
  {
    "postcode": "51147",
    "city": "Köln"
  },
  {
    "postcode": "51147",
    "city": "Libur"
  },
  {
    "postcode": "51147",
    "city": "Wahn"
  },
  {
    "postcode": "51147",
    "city": "Wahnheide"
  },
  {
    "postcode": "51147",
    "city": "Grengel"
  },
  {
    "postcode": "51147",
    "city": "Lind"
  },
  {
    "postcode": "51149",
    "city": "Eil"
  },
  {
    "postcode": "51149",
    "city": "Ensen"
  },
  {
    "postcode": "51149",
    "city": "Gremberghoven"
  },
  {
    "postcode": "51149",
    "city": "Köln"
  },
  {
    "postcode": "51149",
    "city": "Westhoven"
  },
  {
    "postcode": "51149",
    "city": "Porz"
  },
  {
    "postcode": "51371",
    "city": "Bürrig"
  },
  {
    "postcode": "51371",
    "city": "Hitdorf"
  },
  {
    "postcode": "51371",
    "city": "Leverkusen"
  },
  {
    "postcode": "51371",
    "city": "Rheindorf"
  },
  {
    "postcode": "51373",
    "city": "Leverkusen"
  },
  {
    "postcode": "51373",
    "city": "Wiesdorf"
  },
  {
    "postcode": "51373",
    "city": "Küppersteg"
  },
  {
    "postcode": "51373",
    "city": "Bürrig"
  },
  {
    "postcode": "51373",
    "city": "Rheindorf"
  },
  {
    "postcode": "51375",
    "city": "Leverkusen"
  },
  {
    "postcode": "51375",
    "city": "Schlebusch"
  },
  {
    "postcode": "51377",
    "city": "Leverkusen"
  },
  {
    "postcode": "51377",
    "city": "Manfort"
  },
  {
    "postcode": "51377",
    "city": "Steinbüchel"
  },
  {
    "postcode": "51377",
    "city": "Alkenrath"
  },
  {
    "postcode": "51379",
    "city": "Leverkusen"
  },
  {
    "postcode": "51379",
    "city": "Opladen"
  },
  {
    "postcode": "51381",
    "city": "Bergisch Neukirchen"
  },
  {
    "postcode": "51381",
    "city": "Leverkusen"
  },
  {
    "postcode": "51381",
    "city": "Lützenkirchen"
  },
  {
    "postcode": "51381",
    "city": "Quettingen"
  },
  {
    "postcode": "51399",
    "city": "Burscheid Rheinland"
  },
  {
    "postcode": "51399",
    "city": "Burscheid"
  },
  {
    "postcode": "51399",
    "city": "Hilgen"
  },
  {
    "postcode": "51399",
    "city": "Rheinisch-Bergischer Kreis"
  },
  {
    "postcode": "51427",
    "city": "Bergisch Gladbach"
  },
  {
    "postcode": "51427",
    "city": "Frankenforst"
  },
  {
    "postcode": "51427",
    "city": "Lustheide"
  },
  {
    "postcode": "51427",
    "city": "Refrath"
  },
  {
    "postcode": "51427",
    "city": "Rheinisch-Bergischer Kreis"
  },
  {
    "postcode": "51427",
    "city": "Alt-Refrath"
  },
  {
    "postcode": "51427",
    "city": "Kippekausen"
  },
  {
    "postcode": "51429",
    "city": "Asselborn"
  },
  {
    "postcode": "51429",
    "city": "Bärbroich"
  },
  {
    "postcode": "51429",
    "city": "Bensberg"
  },
  {
    "postcode": "51429",
    "city": "Bergisch Gladbach"
  },
  {
    "postcode": "51429",
    "city": "Herkenrath"
  },
  {
    "postcode": "51429",
    "city": "Herrenstrunden"
  },
  {
    "postcode": "51429",
    "city": "Lückerath"
  },
  {
    "postcode": "51429",
    "city": "Moitzfeld"
  },
  {
    "postcode": "51429",
    "city": "Strassen II"
  },
  {
    "postcode": "51429",
    "city": "Rheinisch-Bergischer Kreis"
  },
  {
    "postcode": "51429",
    "city": "Kaule"
  },
  {
    "postcode": "51429",
    "city": "Asselborner Hof"
  },
  {
    "postcode": "51429",
    "city": "Bockenberg"
  },
  {
    "postcode": "51429",
    "city": "Gronau"
  },
  {
    "postcode": "51429",
    "city": "Kippekausen"
  },
  {
    "postcode": "51465",
    "city": "Bergisch Gladbach"
  },
  {
    "postcode": "51465",
    "city": "Gladbach"
  },
  {
    "postcode": "51465",
    "city": "Hebborn"
  },
  {
    "postcode": "51465",
    "city": "Herrenstrunden"
  },
  {
    "postcode": "51465",
    "city": "Rommerscheid"
  },
  {
    "postcode": "51465",
    "city": "Sand"
  },
  {
    "postcode": "51465",
    "city": "Rheinisch-Bergischer Kreis"
  },
  {
    "postcode": "51465",
    "city": "Gronau"
  },
  {
    "postcode": "51465",
    "city": "Gemeinde Odenthal"
  },
  {
    "postcode": "51467",
    "city": "Bergisch Gladbach"
  },
  {
    "postcode": "51467",
    "city": "Dünnwald"
  },
  {
    "postcode": "51467",
    "city": "Gladbach"
  },
  {
    "postcode": "51467",
    "city": "Hebborn"
  },
  {
    "postcode": "51467",
    "city": "Katterbach"
  },
  {
    "postcode": "51467",
    "city": "Romaney"
  },
  {
    "postcode": "51467",
    "city": "Schildgen"
  },
  {
    "postcode": "51467",
    "city": "Rheinisch-Bergischer Kreis"
  },
  {
    "postcode": "51467",
    "city": "Köln"
  },
  {
    "postcode": "51467",
    "city": "Nußbaum"
  },
  {
    "postcode": "51467",
    "city": "Grube/Kley"
  },
  {
    "postcode": "51467",
    "city": "Grube"
  },
  {
    "postcode": "51469",
    "city": "Bergisch Gladbach"
  },
  {
    "postcode": "51469",
    "city": "Hand"
  },
  {
    "postcode": "51469",
    "city": "Lückerath"
  },
  {
    "postcode": "51469",
    "city": "Paffrath"
  },
  {
    "postcode": "51469",
    "city": "Rheinisch-Bergischer Kreis"
  },
  {
    "postcode": "51469",
    "city": "Heidkamp"
  },
  {
    "postcode": "51469",
    "city": "Gronau"
  },
  {
    "postcode": "51491",
    "city": "Breidenassel"
  },
  {
    "postcode": "51491",
    "city": "Burg"
  },
  {
    "postcode": "51491",
    "city": "Cyriax"
  },
  {
    "postcode": "51491",
    "city": "Halzemich"
  },
  {
    "postcode": "51491",
    "city": "Heiligenhaus Rheinisch Berg Kreis"
  },
  {
    "postcode": "51491",
    "city": "Heiligenhaus"
  },
  {
    "postcode": "51491",
    "city": "Immekeppel"
  },
  {
    "postcode": "51491",
    "city": "Lölsberg"
  },
  {
    "postcode": "51491",
    "city": "Marialinden"
  },
  {
    "postcode": "51491",
    "city": "Meesbalken"
  },
  {
    "postcode": "51491",
    "city": "Overath"
  },
  {
    "postcode": "51491",
    "city": "Overath Bergisches Land"
  },
  {
    "postcode": "51491",
    "city": "Steinenbrück"
  },
  {
    "postcode": "51491",
    "city": "Stich"
  },
  {
    "postcode": "51491",
    "city": "Untereschbach"
  },
  {
    "postcode": "51491",
    "city": "Vilkerath"
  },
  {
    "postcode": "51491",
    "city": "Warth"
  },
  {
    "postcode": "51491",
    "city": "Weberhöhe"
  },
  {
    "postcode": "51491",
    "city": "Rheinisch-Bergischer Kreis"
  },
  {
    "postcode": "51491",
    "city": "Brombach"
  },
  {
    "postcode": "51491",
    "city": "Leyenhaus"
  },
  {
    "postcode": "51503",
    "city": "Forsbach Rheinland"
  },
  {
    "postcode": "51503",
    "city": "Forsbach"
  },
  {
    "postcode": "51503",
    "city": "Hoffnungsthal"
  },
  {
    "postcode": "51503",
    "city": "Kleineichen Rheinland"
  },
  {
    "postcode": "51503",
    "city": "Kleineichen"
  },
  {
    "postcode": "51503",
    "city": "Rösrath"
  },
  {
    "postcode": "51503",
    "city": "Rheinisch-Bergischer Kreis"
  },
  {
    "postcode": "51515",
    "city": "Bechen Rheinland"
  },
  {
    "postcode": "51515",
    "city": "Bechen"
  },
  {
    "postcode": "51515",
    "city": "Biesfeld"
  },
  {
    "postcode": "51515",
    "city": "Bilstein"
  },
  {
    "postcode": "51515",
    "city": "Blissenbach"
  },
  {
    "postcode": "51515",
    "city": "Bornen"
  },
  {
    "postcode": "51515",
    "city": "Breibach"
  },
  {
    "postcode": "51515",
    "city": "Broch"
  },
  {
    "postcode": "51515",
    "city": "Broich"
  },
  {
    "postcode": "51515",
    "city": "Burgheim"
  },
  {
    "postcode": "51515",
    "city": "Delling"
  },
  {
    "postcode": "51515",
    "city": "Dhünnberg"
  },
  {
    "postcode": "51515",
    "city": "Dicke"
  },
  {
    "postcode": "51515",
    "city": "Dürscheid"
  },
  {
    "postcode": "51515",
    "city": "Engeldorf"
  },
  {
    "postcode": "51515",
    "city": "Forsten"
  },
  {
    "postcode": "51515",
    "city": "Häcksbilstein"
  },
  {
    "postcode": "51515",
    "city": "Hufe"
  },
  {
    "postcode": "51515",
    "city": "Johannesberg"
  },
  {
    "postcode": "51515",
    "city": "Kohlgrube"
  },
  {
    "postcode": "51515",
    "city": "Kürten"
  },
  {
    "postcode": "51515",
    "city": "Meiersberg"
  },
  {
    "postcode": "51515",
    "city": "Miebach"
  },
  {
    "postcode": "51515",
    "city": "Nassenstein"
  },
  {
    "postcode": "51515",
    "city": "Oberbörsch"
  },
  {
    "postcode": "51515",
    "city": "Oberselbach"
  },
  {
    "postcode": "51515",
    "city": "Offermannsberg"
  },
  {
    "postcode": "51515",
    "city": "Offermannsheide"
  },
  {
    "postcode": "51515",
    "city": "Olpe"
  },
  {
    "postcode": "51515",
    "city": "Petersberg"
  },
  {
    "postcode": "51515",
    "city": "Spitze"
  },
  {
    "postcode": "51515",
    "city": "Unterossenbach"
  },
  {
    "postcode": "51515",
    "city": "Waldmühle"
  },
  {
    "postcode": "51515",
    "city": "Weiden"
  },
  {
    "postcode": "51515",
    "city": "Rheinisch-Bergischer Kreis"
  },
  {
    "postcode": "51515",
    "city": "Neuensaal"
  },
  {
    "postcode": "51515",
    "city": "Eichhof"
  },
  {
    "postcode": "51515",
    "city": "Sülze"
  },
  {
    "postcode": "51515",
    "city": "Busch"
  },
  {
    "postcode": "51515",
    "city": "Herweg"
  },
  {
    "postcode": "51515",
    "city": "Sürth"
  },
  {
    "postcode": "51515",
    "city": "Hachenberg"
  },
  {
    "postcode": "51515",
    "city": "Hau"
  },
  {
    "postcode": "51515",
    "city": "Junkermühle"
  },
  {
    "postcode": "51515",
    "city": "Dörnchen"
  },
  {
    "postcode": "51515",
    "city": "Eisenkaul"
  },
  {
    "postcode": "51515",
    "city": "Herrscherthal"
  },
  {
    "postcode": "51515",
    "city": "Hutsherweg"
  },
  {
    "postcode": "51515",
    "city": "Laudenberg"
  },
  {
    "postcode": "51515",
    "city": "Schanze"
  },
  {
    "postcode": "51515",
    "city": "Wolfsorth"
  },
  {
    "postcode": "51515",
    "city": "Herrenstrunden"
  },
  {
    "postcode": "51515",
    "city": "Furth"
  },
  {
    "postcode": "51515",
    "city": "Tannenbaum"
  },
  {
    "postcode": "51519",
    "city": "Altehufe"
  },
  {
    "postcode": "51519",
    "city": "Altenberg Rheinland"
  },
  {
    "postcode": "51519",
    "city": "Altenberg"
  },
  {
    "postcode": "51519",
    "city": "Blecher"
  },
  {
    "postcode": "51519",
    "city": "Bömerich Rheinland"
  },
  {
    "postcode": "51519",
    "city": "Bömerich"
  },
  {
    "postcode": "51519",
    "city": "Bülsberg Rheinland"
  },
  {
    "postcode": "51519",
    "city": "Bülsberg"
  },
  {
    "postcode": "51519",
    "city": "Eikamp Rheinland"
  },
  {
    "postcode": "51519",
    "city": "Eikamp"
  },
  {
    "postcode": "51519",
    "city": "Erberich"
  },
  {
    "postcode": "51519",
    "city": "Glöbusch"
  },
  {
    "postcode": "51519",
    "city": "Grimberg Rheinland"
  },
  {
    "postcode": "51519",
    "city": "Grimberg"
  },
  {
    "postcode": "51519",
    "city": "Groß Grimberg"
  },
  {
    "postcode": "51519",
    "city": "Höffe"
  },
  {
    "postcode": "51519",
    "city": "Jungholz"
  },
  {
    "postcode": "51519",
    "city": "Klasmühle"
  },
  {
    "postcode": "51519",
    "city": "Kragau"
  },
  {
    "postcode": "51519",
    "city": "Küchenberg"
  },
  {
    "postcode": "51519",
    "city": "Neschen Rheinland"
  },
  {
    "postcode": "51519",
    "city": "Neschen"
  },
  {
    "postcode": "51519",
    "city": "Odenthal"
  },
  {
    "postcode": "51519",
    "city": "Osenau"
  },
  {
    "postcode": "51519",
    "city": "Schallemich Rheinland"
  },
  {
    "postcode": "51519",
    "city": "Schallemich"
  },
  {
    "postcode": "51519",
    "city": "Scheuren"
  },
  {
    "postcode": "51519",
    "city": "Schmeisig"
  },
  {
    "postcode": "51519",
    "city": "Steinhaus"
  },
  {
    "postcode": "51519",
    "city": "Voiswinkel"
  },
  {
    "postcode": "51519",
    "city": "Rheinisch-Bergischer Kreis"
  },
  {
    "postcode": "51519",
    "city": "Hahnenberg"
  },
  {
    "postcode": "51519",
    "city": "Durchmarsch"
  },
  {
    "postcode": "51519",
    "city": "Grünenbäumchen"
  },
  {
    "postcode": "51519",
    "city": "Kramerhof"
  },
  {
    "postcode": "51519",
    "city": "Menrath"
  },
  {
    "postcode": "51519",
    "city": "Holz"
  },
  {
    "postcode": "51519",
    "city": "Hüttchen"
  },
  {
    "postcode": "51519",
    "city": "Wiebershausen"
  },
  {
    "postcode": "51519",
    "city": "Funkenhof"
  },
  {
    "postcode": "51519",
    "city": "Busch"
  },
  {
    "postcode": "51519",
    "city": "Kümps"
  },
  {
    "postcode": "51519",
    "city": "Landwehr"
  },
  {
    "postcode": "51519",
    "city": "Oberborsbach"
  },
  {
    "postcode": "51519",
    "city": "Klev"
  },
  {
    "postcode": "51519",
    "city": "Rosenthal"
  },
  {
    "postcode": "51519",
    "city": "Scherf"
  },
  {
    "postcode": "51519",
    "city": "Hollandsmühle"
  },
  {
    "postcode": "51519",
    "city": "Pistershausen"
  },
  {
    "postcode": "51519",
    "city": "Hunger"
  },
  {
    "postcode": "51545",
    "city": "Baumen"
  },
  {
    "postcode": "51545",
    "city": "Bettenhagen Sieg"
  },
  {
    "postcode": "51545",
    "city": "Bettenhagen"
  },
  {
    "postcode": "51545",
    "city": "Bettingen Oberberg Kreis"
  },
  {
    "postcode": "51545",
    "city": "Bettingen"
  },
  {
    "postcode": "51545",
    "city": "Bladersbach"
  },
  {
    "postcode": "51545",
    "city": "Bohlenhagen"
  },
  {
    "postcode": "51545",
    "city": "Brenzingen"
  },
  {
    "postcode": "51545",
    "city": "Bröl Oberberg Kreis"
  },
  {
    "postcode": "51545",
    "city": "Bröl"
  },
  {
    "postcode": "51545",
    "city": "Bruchhausen"
  },
  {
    "postcode": "51545",
    "city": "Dickhausen Oberberg Kreis"
  },
  {
    "postcode": "51545",
    "city": "Dickhausen"
  },
  {
    "postcode": "51545",
    "city": "Drinhausen Oberberg Kreis"
  },
  {
    "postcode": "51545",
    "city": "Drinhausen"
  },
  {
    "postcode": "51545",
    "city": "Geilenkausen"
  },
  {
    "postcode": "51545",
    "city": "Geiningen Oberberg Kreis"
  },
  {
    "postcode": "51545",
    "city": "Geiningen"
  },
  {
    "postcode": "51545",
    "city": "Grünenbach Oberberg Kreis"
  },
  {
    "postcode": "51545",
    "city": "Grünenbach"
  },
  {
    "postcode": "51545",
    "city": "Happach"
  },
  {
    "postcode": "51545",
    "city": "Heide"
  },
  {
    "postcode": "51545",
    "city": "Helten"
  },
  {
    "postcode": "51545",
    "city": "Helzen Sieg"
  },
  {
    "postcode": "51545",
    "city": "Helzen"
  },
  {
    "postcode": "51545",
    "city": "Herfen"
  },
  {
    "postcode": "51545",
    "city": "Hermesdorf Oberberg Kreis"
  },
  {
    "postcode": "51545",
    "city": "Hermesdorf"
  },
  {
    "postcode": "51545",
    "city": "Hoff"
  },
  {
    "postcode": "51545",
    "city": "Hufen"
  },
  {
    "postcode": "51545",
    "city": "Krahwinkel"
  },
  {
    "postcode": "51545",
    "city": "Lützingen"
  },
  {
    "postcode": "51545",
    "city": "Niederhausen"
  },
  {
    "postcode": "51545",
    "city": "Puhl"
  },
  {
    "postcode": "51545",
    "city": "Rölefeld Oberberg Kreis"
  },
  {
    "postcode": "51545",
    "city": "Rölefeld"
  },
  {
    "postcode": "51545",
    "city": "Rossenbach"
  },
  {
    "postcode": "51545",
    "city": "Ruh"
  },
  {
    "postcode": "51545",
    "city": "Schnörringen"
  },
  {
    "postcode": "51545",
    "city": "Schönenbach"
  },
  {
    "postcode": "51545",
    "city": "Spurkenbach"
  },
  {
    "postcode": "51545",
    "city": "Waldbröl"
  },
  {
    "postcode": "51545",
    "city": "Wilkenroth Oberberg Kreis"
  },
  {
    "postcode": "51545",
    "city": "Wilkenroth"
  },
  {
    "postcode": "51545",
    "city": "Ziegenhardt"
  },
  {
    "postcode": "51545",
    "city": "Oberbergischer Kreis"
  },
  {
    "postcode": "51545",
    "city": "Alfenzingen"
  },
  {
    "postcode": "51545",
    "city": "Altehufen"
  },
  {
    "postcode": "51545",
    "city": "Biebelshof"
  },
  {
    "postcode": "51545",
    "city": "Seifen"
  },
  {
    "postcode": "51545",
    "city": "Escherhof"
  },
  {
    "postcode": "51545",
    "city": "Bech"
  },
  {
    "postcode": "51545",
    "city": "Benroth"
  },
  {
    "postcode": "51545",
    "city": "Brölerhütte"
  },
  {
    "postcode": "51545",
    "city": "Dahl"
  },
  {
    "postcode": "51545",
    "city": "Diepenthal"
  },
  {
    "postcode": "51545",
    "city": "Fahrenseifen"
  },
  {
    "postcode": "51545",
    "city": "Fort Ommeroth"
  },
  {
    "postcode": "51545",
    "city": "Großenseifen"
  },
  {
    "postcode": "51545",
    "city": "Grunewald"
  },
  {
    "postcode": "51545",
    "city": "Hahn"
  },
  {
    "postcode": "51545",
    "city": "Hecke"
  },
  {
    "postcode": "51545",
    "city": "Hillesmühle"
  },
  {
    "postcode": "51545",
    "city": "Hochwald"
  },
  {
    "postcode": "51545",
    "city": "Hof Langenbach"
  },
  {
    "postcode": "51545",
    "city": "Niederhof"
  },
  {
    "postcode": "51545",
    "city": "Thierseifen"
  },
  {
    "postcode": "51545",
    "city": "Mühlenbach"
  },
  {
    "postcode": "51545",
    "city": "Neuenhof"
  },
  {
    "postcode": "51545",
    "city": "Neuenhähnen"
  },
  {
    "postcode": "51545",
    "city": "Propach"
  },
  {
    "postcode": "51545",
    "city": "Pulvermühle"
  },
  {
    "postcode": "51545",
    "city": "Rottland"
  },
  {
    "postcode": "51545",
    "city": "Vierbuchen"
  },
  {
    "postcode": "51545",
    "city": "Vierbuchermühle"
  },
  {
    "postcode": "51545",
    "city": "Wehn"
  },
  {
    "postcode": "51545",
    "city": "Wies"
  },
  {
    "postcode": "51545",
    "city": "Wippenkausen"
  },
  {
    "postcode": "51570",
    "city": "Altenherfen"
  },
  {
    "postcode": "51570",
    "city": "Au Siegkreis"
  },
  {
    "postcode": "51570",
    "city": "Au"
  },
  {
    "postcode": "51570",
    "city": "Dattenfeld Siegkreis"
  },
  {
    "postcode": "51570",
    "city": "Dattenfeld"
  },
  {
    "postcode": "51570",
    "city": "Dreisel Siegkreis"
  },
  {
    "postcode": "51570",
    "city": "Dreisel"
  },
  {
    "postcode": "51570",
    "city": "Eulenbruch Sieg"
  },
  {
    "postcode": "51570",
    "city": "Eulenbruch"
  },
  {
    "postcode": "51570",
    "city": "Gerressen"
  },
  {
    "postcode": "51570",
    "city": "Gierzhagen Sieg"
  },
  {
    "postcode": "51570",
    "city": "Gierzhagen"
  },
  {
    "postcode": "51570",
    "city": "Gutmannseichen"
  },
  {
    "postcode": "51570",
    "city": "Halscheid"
  },
  {
    "postcode": "51570",
    "city": "Helpenstell Siegkreis"
  },
  {
    "postcode": "51570",
    "city": "Helpenstell"
  },
  {
    "postcode": "51570",
    "city": "Herchen"
  },
  {
    "postcode": "51570",
    "city": "Himmeroth"
  },
  {
    "postcode": "51570",
    "city": "Hoppengarten"
  },
  {
    "postcode": "51570",
    "city": "Hurst Siegkreis"
  },
  {
    "postcode": "51570",
    "city": "Hurst"
  },
  {
    "postcode": "51570",
    "city": "Kocherscheid"
  },
  {
    "postcode": "51570",
    "city": "Kohlberg Siegkreis"
  },
  {
    "postcode": "51570",
    "city": "Kohlberg"
  },
  {
    "postcode": "51570",
    "city": "Kuchhausen"
  },
  {
    "postcode": "51570",
    "city": "Langenberg Sieg"
  },
  {
    "postcode": "51570",
    "city": "Langenberg"
  },
  {
    "postcode": "51570",
    "city": "Leuscheid"
  },
  {
    "postcode": "51570",
    "city": "Locksiefen"
  },
  {
    "postcode": "51570",
    "city": "Lüttershausen"
  },
  {
    "postcode": "51570",
    "city": "Mauel Sieg"
  },
  {
    "postcode": "51570",
    "city": "Mauel"
  },
  {
    "postcode": "51570",
    "city": "Mittel Sieg"
  },
  {
    "postcode": "51570",
    "city": "Mittel"
  },
  {
    "postcode": "51570",
    "city": "Opperzau"
  },
  {
    "postcode": "51570",
    "city": "Öttershagen Sieg"
  },
  {
    "postcode": "51570",
    "city": "Öttershagen"
  },
  {
    "postcode": "51570",
    "city": "Perseifen Sieg"
  },
  {
    "postcode": "51570",
    "city": "Perseifen"
  },
  {
    "postcode": "51570",
    "city": "Röcklingen"
  },
  {
    "postcode": "51570",
    "city": "Rommen Sieg"
  },
  {
    "postcode": "51570",
    "city": "Rommen"
  },
  {
    "postcode": "51570",
    "city": "Rosbach Sieg"
  },
  {
    "postcode": "51570",
    "city": "Rosbach"
  },
  {
    "postcode": "51570",
    "city": "Rossel Siegkreis"
  },
  {
    "postcode": "51570",
    "city": "Rossel"
  },
  {
    "postcode": "51570",
    "city": "Sangerhof"
  },
  {
    "postcode": "51570",
    "city": "Schabernack"
  },
  {
    "postcode": "51570",
    "city": "Schladern Sieg"
  },
  {
    "postcode": "51570",
    "city": "Schladern"
  },
  {
    "postcode": "51570",
    "city": "Stromberg"
  },
  {
    "postcode": "51570",
    "city": "Werfen"
  },
  {
    "postcode": "51570",
    "city": "Wilberhofen Sieg"
  },
  {
    "postcode": "51570",
    "city": "Wilberhofen"
  },
  {
    "postcode": "51570",
    "city": "Windeck Sieg"
  },
  {
    "postcode": "51570",
    "city": "Windeck"
  },
  {
    "postcode": "51570",
    "city": "Rhein-Sieg-Kreis"
  },
  {
    "postcode": "51570",
    "city": "Rieferath"
  },
  {
    "postcode": "51570",
    "city": "Saal"
  },
  {
    "postcode": "51570",
    "city": "Geilhausen"
  },
  {
    "postcode": "51570",
    "city": "Imhausen"
  },
  {
    "postcode": "51570",
    "city": "Alsen"
  },
  {
    "postcode": "51570",
    "city": "Altwindeck"
  },
  {
    "postcode": "51570",
    "city": "Herchen-Bahnhof"
  },
  {
    "postcode": "51570",
    "city": "Irsen"
  },
  {
    "postcode": "51570",
    "city": "Bellingen"
  },
  {
    "postcode": "51570",
    "city": "Wiedenhof"
  },
  {
    "postcode": "51570",
    "city": "Eich"
  },
  {
    "postcode": "51570",
    "city": "Ehrenhausen"
  },
  {
    "postcode": "51570",
    "city": "Distelshausen"
  },
  {
    "postcode": "51570",
    "city": "Hönrath"
  },
  {
    "postcode": "51570",
    "city": "Hahnenbach"
  },
  {
    "postcode": "51570",
    "city": "Hau"
  },
  {
    "postcode": "51570",
    "city": "Igelshof"
  },
  {
    "postcode": "51570",
    "city": "Kaltbachmühle"
  },
  {
    "postcode": "51570",
    "city": "Löh"
  },
  {
    "postcode": "51570",
    "city": "Leidhecke"
  },
  {
    "postcode": "51570",
    "city": "Neuenhof"
  },
  {
    "postcode": "51570",
    "city": "Ohmbach"
  },
  {
    "postcode": "51570",
    "city": "Ommeroth"
  },
  {
    "postcode": "51570",
    "city": "Röhrigshof"
  },
  {
    "postcode": "51570",
    "city": "Entscheid"
  },
  {
    "postcode": "51570",
    "city": "Ringenstellen"
  },
  {
    "postcode": "51570",
    "city": "Roth"
  },
  {
    "postcode": "51570",
    "city": "Sommerhof"
  },
  {
    "postcode": "51570",
    "city": "Unkelmühle"
  },
  {
    "postcode": "51570",
    "city": "Werfermühle"
  },
  {
    "postcode": "51570",
    "city": "Wilhelmshöhe"
  },
  {
    "postcode": "51580",
    "city": "Allenbach"
  },
  {
    "postcode": "51580",
    "city": "Allinghausen"
  },
  {
    "postcode": "51580",
    "city": "Blankenbach"
  },
  {
    "postcode": "51580",
    "city": "Borner"
  },
  {
    "postcode": "51580",
    "city": "Breidenbach"
  },
  {
    "postcode": "51580",
    "city": "Brüchermühle"
  },
  {
    "postcode": "51580",
    "city": "Buchen"
  },
  {
    "postcode": "51580",
    "city": "Denklingen Oberberg Kreis"
  },
  {
    "postcode": "51580",
    "city": "Denklingen"
  },
  {
    "postcode": "51580",
    "city": "Dorn"
  },
  {
    "postcode": "51580",
    "city": "Dreschhausen"
  },
  {
    "postcode": "51580",
    "city": "Drespe"
  },
  {
    "postcode": "51580",
    "city": "Eckenhagen"
  },
  {
    "postcode": "51580",
    "city": "Eiershagen Oberberg Kreis"
  },
  {
    "postcode": "51580",
    "city": "Eiershagen"
  },
  {
    "postcode": "51580",
    "city": "Erdingen"
  },
  {
    "postcode": "51580",
    "city": "Ersbach"
  },
  {
    "postcode": "51580",
    "city": "Fahrenberg"
  },
  {
    "postcode": "51580",
    "city": "Feld"
  },
  {
    "postcode": "51580",
    "city": "Freckhausen"
  },
  {
    "postcode": "51580",
    "city": "Hahn"
  },
  {
    "postcode": "51580",
    "city": "Hahnbuche"
  },
  {
    "postcode": "51580",
    "city": "Halsterbach"
  },
  {
    "postcode": "51580",
    "city": "Hasbach"
  },
  {
    "postcode": "51580",
    "city": "Hasenbach Oberberg Kreis"
  },
  {
    "postcode": "51580",
    "city": "Hasenbach"
  },
  {
    "postcode": "51580",
    "city": "Heidberg"
  },
  {
    "postcode": "51580",
    "city": "Heienbach"
  },
  {
    "postcode": "51580",
    "city": "Heikausen"
  },
  {
    "postcode": "51580",
    "city": "Heischeid Oberberg Kreis"
  },
  {
    "postcode": "51580",
    "city": "Heischeid"
  },
  {
    "postcode": "51580",
    "city": "Heseln"
  },
  {
    "postcode": "51580",
    "city": "Hespert"
  },
  {
    "postcode": "51580",
    "city": "Hunsheim"
  },
  {
    "postcode": "51580",
    "city": "Kamp"
  },
  {
    "postcode": "51580",
    "city": "Komp"
  },
  {
    "postcode": "51580",
    "city": "Lepperhof"
  },
  {
    "postcode": "51580",
    "city": "Löffelsterz Oberberg Kreis"
  },
  {
    "postcode": "51580",
    "city": "Löffelsterz"
  },
  {
    "postcode": "51580",
    "city": "Lüsberg"
  },
  {
    "postcode": "51580",
    "city": "Mennkausen"
  },
  {
    "postcode": "51580",
    "city": "Mittelagger"
  },
  {
    "postcode": "51580",
    "city": "Nespen"
  },
  {
    "postcode": "51580",
    "city": "Niedersteimel"
  },
  {
    "postcode": "51580",
    "city": "Nosbach"
  },
  {
    "postcode": "51580",
    "city": "Nothausen"
  },
  {
    "postcode": "51580",
    "city": "Oberagger"
  },
  {
    "postcode": "51580",
    "city": "Odenspiel"
  },
  {
    "postcode": "51580",
    "city": "Ohlhagen"
  },
  {
    "postcode": "51580",
    "city": "Ösingen Oberberg Kreis"
  },
  {
    "postcode": "51580",
    "city": "Ösingen"
  },
  {
    "postcode": "51580",
    "city": "Pettseifen"
  },
  {
    "postcode": "51580",
    "city": "Reichshof"
  },
  {
    "postcode": "51580",
    "city": "Schalenbach Oberberg Kreis"
  },
  {
    "postcode": "51580",
    "city": "Schalenbach"
  },
  {
    "postcode": "51580",
    "city": "Schemmerhausen Oberberg Kreis"
  },
  {
    "postcode": "51580",
    "city": "Schemmerhausen"
  },
  {
    "postcode": "51580",
    "city": "Schneppenberg Oberberg Kreis"
  },
  {
    "postcode": "51580",
    "city": "Schneppenberg"
  },
  {
    "postcode": "51580",
    "city": "Schneppenhurth Oberberg Kreis"
  },
  {
    "postcode": "51580",
    "city": "Schneppenhurth"
  },
  {
    "postcode": "51580",
    "city": "Schönenbach"
  },
  {
    "postcode": "51580",
    "city": "Sinspert"
  },
  {
    "postcode": "51580",
    "city": "Sotterbach"
  },
  {
    "postcode": "51580",
    "city": "Sterzenbach Oberberg Kreis"
  },
  {
    "postcode": "51580",
    "city": "Sterzenbach"
  },
  {
    "postcode": "51580",
    "city": "Tillkausen"
  },
  {
    "postcode": "51580",
    "city": "Volkenrath"
  },
  {
    "postcode": "51580",
    "city": "Wald"
  },
  {
    "postcode": "51580",
    "city": "Wehnrath"
  },
  {
    "postcode": "51580",
    "city": "Welpe"
  },
  {
    "postcode": "51580",
    "city": "Wiedenhof"
  },
  {
    "postcode": "51580",
    "city": "Wiehl"
  },
  {
    "postcode": "51580",
    "city": "Wildberg bei Waldbröl"
  },
  {
    "postcode": "51580",
    "city": "Wildbergerhütte"
  },
  {
    "postcode": "51580",
    "city": "Zimmerseifen"
  },
  {
    "postcode": "51580",
    "city": "Oberbergischer Kreis"
  },
  {
    "postcode": "51580",
    "city": "Alpe"
  },
  {
    "postcode": "51580",
    "city": "Berghausen"
  },
  {
    "postcode": "51580",
    "city": "Wildberg"
  },
  {
    "postcode": "51580",
    "city": "Obersteimel"
  },
  {
    "postcode": "51580",
    "city": "Windfus"
  },
  {
    "postcode": "51580",
    "city": "Pochwerk"
  },
  {
    "postcode": "51580",
    "city": "Müllerheide"
  },
  {
    "postcode": "51580",
    "city": "Branscheid"
  },
  {
    "postcode": "51580",
    "city": "Wolfseifen"
  },
  {
    "postcode": "51580",
    "city": "Neumühle"
  },
  {
    "postcode": "51580",
    "city": "Burgmühle"
  },
  {
    "postcode": "51580",
    "city": "Eichholz"
  },
  {
    "postcode": "51580",
    "city": "Blockhaus"
  },
  {
    "postcode": "51580",
    "city": "Meiswinkel"
  },
  {
    "postcode": "51580",
    "city": "Hahnenseifen"
  },
  {
    "postcode": "51580",
    "city": "Wolfkammer"
  },
  {
    "postcode": "51580",
    "city": "Dreslingen"
  },
  {
    "postcode": "51580",
    "city": "Feldermühle"
  },
  {
    "postcode": "51580",
    "city": "Heide"
  },
  {
    "postcode": "51580",
    "city": "Hardt"
  },
  {
    "postcode": "51580",
    "city": "Hecke"
  },
  {
    "postcode": "51580",
    "city": "Grunewald"
  },
  {
    "postcode": "51580",
    "city": "Grünschlade"
  },
  {
    "postcode": "51580",
    "city": "Hassel"
  },
  {
    "postcode": "51580",
    "city": "Leienschlade"
  },
  {
    "postcode": "51580",
    "city": "Ulbert"
  },
  {
    "postcode": "51580",
    "city": "Blasseifen"
  },
  {
    "postcode": "51580",
    "city": "Hundhausen"
  },
  {
    "postcode": "51580",
    "city": "Schmittseifen"
  },
  {
    "postcode": "51580",
    "city": "Kalbertal"
  },
  {
    "postcode": "51580",
    "city": "Rabenschlade"
  },
  {
    "postcode": "51580",
    "city": "Mühlenschlade"
  },
  {
    "postcode": "51580",
    "city": "Nebelseifen"
  },
  {
    "postcode": "51580",
    "city": "Oberwehnrath"
  },
  {
    "postcode": "51580",
    "city": "Oesingen"
  },
  {
    "postcode": "51580",
    "city": "Hamig"
  },
  {
    "postcode": "51580",
    "city": "Singelbert"
  },
  {
    "postcode": "51580",
    "city": "Stein"
  },
  {
    "postcode": "51580",
    "city": "Hähnen"
  },
  {
    "postcode": "51580",
    "city": "Aggermühle"
  },
  {
    "postcode": "51588",
    "city": "Altennümbrecht"
  },
  {
    "postcode": "51588",
    "city": "Benroth"
  },
  {
    "postcode": "51588",
    "city": "Berkenroth"
  },
  {
    "postcode": "51588",
    "city": "Bierenbachtal"
  },
  {
    "postcode": "51588",
    "city": "Birkenbach Oberberg Kreis"
  },
  {
    "postcode": "51588",
    "city": "Birkenbach"
  },
  {
    "postcode": "51588",
    "city": "Bruch"
  },
  {
    "postcode": "51588",
    "city": "Distelkamp"
  },
  {
    "postcode": "51588",
    "city": "Drinsahl"
  },
  {
    "postcode": "51588",
    "city": "Elsenroth"
  },
  {
    "postcode": "51588",
    "city": "Gaderoth"
  },
  {
    "postcode": "51588",
    "city": "Gerhardsiefen"
  },
  {
    "postcode": "51588",
    "city": "Geringhausen"
  },
  {
    "postcode": "51588",
    "city": "Göpringhausen"
  },
  {
    "postcode": "51588",
    "city": "Grötzenberg"
  },
  {
    "postcode": "51588",
    "city": "Harscheid"
  },
  {
    "postcode": "51588",
    "city": "Heddinghausen Bröl"
  },
  {
    "postcode": "51588",
    "city": "Heddinghausen"
  },
  {
    "postcode": "51588",
    "city": "Heide"
  },
  {
    "postcode": "51588",
    "city": "Hochstraßen"
  },
  {
    "postcode": "51588",
    "city": "Höferhof"
  },
  {
    "postcode": "51588",
    "city": "Hömel"
  },
  {
    "postcode": "51588",
    "city": "Huppichteroth Bröl"
  },
  {
    "postcode": "51588",
    "city": "Huppichteroth"
  },
  {
    "postcode": "51588",
    "city": "Kurtenbach"
  },
  {
    "postcode": "51588",
    "city": "Langenbach"
  },
  {
    "postcode": "51588",
    "city": "Lindscheid"
  },
  {
    "postcode": "51588",
    "city": "Loch"
  },
  {
    "postcode": "51588",
    "city": "Malzhagen"
  },
  {
    "postcode": "51588",
    "city": "Marienberghausen"
  },
  {
    "postcode": "51588",
    "city": "Mildsiefen"
  },
  {
    "postcode": "51588",
    "city": "Nallingen"
  },
  {
    "postcode": "51588",
    "city": "Niederbreidenbach"
  },
  {
    "postcode": "51588",
    "city": "Niederbröl"
  },
  {
    "postcode": "51588",
    "city": "Niederelben"
  },
  {
    "postcode": "51588",
    "city": "Niederstaffelbach"
  },
  {
    "postcode": "51588",
    "city": "Nümbrecht"
  },
  {
    "postcode": "51588",
    "city": "Oberbierenbach"
  },
  {
    "postcode": "51588",
    "city": "Oberbreidenbach Oberberg Kreis"
  },
  {
    "postcode": "51588",
    "city": "Oberbreidenbach"
  },
  {
    "postcode": "51588",
    "city": "Oberelben"
  },
  {
    "postcode": "51588",
    "city": "Oedinghausen"
  },
  {
    "postcode": "51588",
    "city": "Prombach"
  },
  {
    "postcode": "51588",
    "city": "Rommelsdorf"
  },
  {
    "postcode": "51588",
    "city": "Röttgen"
  },
  {
    "postcode": "51588",
    "city": "Stockheim"
  },
  {
    "postcode": "51588",
    "city": "Überdorf"
  },
  {
    "postcode": "51588",
    "city": "Winterborn Rheinland"
  },
  {
    "postcode": "51588",
    "city": "Winterborn"
  },
  {
    "postcode": "51588",
    "city": "Wirtenbach"
  },
  {
    "postcode": "51588",
    "city": "Oberbergischer Kreis"
  },
  {
    "postcode": "51588",
    "city": "Abbenroth"
  },
  {
    "postcode": "51588",
    "city": "Ahebruch"
  },
  {
    "postcode": "51588",
    "city": "Ahlbusch"
  },
  {
    "postcode": "51588",
    "city": "Alsbach"
  },
  {
    "postcode": "51588",
    "city": "Breunfeld"
  },
  {
    "postcode": "51588",
    "city": "Homburg-Bröl"
  },
  {
    "postcode": "51588",
    "city": "Auf der Hardt"
  },
  {
    "postcode": "51588",
    "city": "Breitewiese"
  },
  {
    "postcode": "51588",
    "city": "Brünglinghausen"
  },
  {
    "postcode": "51588",
    "city": "Buch"
  },
  {
    "postcode": "51588",
    "city": "Büschhof"
  },
  {
    "postcode": "51588",
    "city": "Erlinghausen"
  },
  {
    "postcode": "51588",
    "city": "Friedenthal"
  },
  {
    "postcode": "51588",
    "city": "Geringhauser Mühle"
  },
  {
    "postcode": "51588",
    "city": "Grunewald"
  },
  {
    "postcode": "51588",
    "city": "Grünthal"
  },
  {
    "postcode": "51588",
    "city": "Guxmühlen"
  },
  {
    "postcode": "51588",
    "city": "Haan"
  },
  {
    "postcode": "51588",
    "city": "Hammermühle"
  },
  {
    "postcode": "51588",
    "city": "Hardt"
  },
  {
    "postcode": "51588",
    "city": "Hasenberg"
  },
  {
    "postcode": "51588",
    "city": "Heisterstock"
  },
  {
    "postcode": "51588",
    "city": "Hillenbach"
  },
  {
    "postcode": "51588",
    "city": "Homburger Papiermühle"
  },
  {
    "postcode": "51588",
    "city": "Kleinhöhe"
  },
  {
    "postcode": "51588",
    "city": "Krahm"
  },
  {
    "postcode": "51588",
    "city": "Löhe"
  },
  {
    "postcode": "51588",
    "city": "Linde"
  },
  {
    "postcode": "51588",
    "city": "Lindscheider Mühle"
  },
  {
    "postcode": "51588",
    "city": "Mühlenthal"
  },
  {
    "postcode": "51588",
    "city": "Nöchel"
  },
  {
    "postcode": "51588",
    "city": "Neuenberg"
  },
  {
    "postcode": "51588",
    "city": "Neuroth"
  },
  {
    "postcode": "51588",
    "city": "Oberbech"
  },
  {
    "postcode": "51588",
    "city": "Oberstaffelbach"
  },
  {
    "postcode": "51588",
    "city": "Riechenbach"
  },
  {
    "postcode": "51588",
    "city": "Rose"
  },
  {
    "postcode": "51588",
    "city": "Ödinghausen"
  },
  {
    "postcode": "51588",
    "city": "Schönhausen"
  },
  {
    "postcode": "51588",
    "city": "Schönthal"
  },
  {
    "postcode": "51588",
    "city": "Spreitgen"
  },
  {
    "postcode": "51588",
    "city": "Stranzenbach"
  },
  {
    "postcode": "51588",
    "city": "Straße"
  },
  {
    "postcode": "51588",
    "city": "Unter der Hardt"
  },
  {
    "postcode": "51588",
    "city": "Vorholz"
  },
  {
    "postcode": "51588",
    "city": "Windhausen"
  },
  {
    "postcode": "51588",
    "city": "Wolfsscharre"
  },
  {
    "postcode": "51597",
    "city": "Alzen Sieg"
  },
  {
    "postcode": "51597",
    "city": "Alzen"
  },
  {
    "postcode": "51597",
    "city": "Appenhagen"
  },
  {
    "postcode": "51597",
    "city": "Berghausen"
  },
  {
    "postcode": "51597",
    "city": "Birken"
  },
  {
    "postcode": "51597",
    "city": "Böcklingen Sieg"
  },
  {
    "postcode": "51597",
    "city": "Böcklingen"
  },
  {
    "postcode": "51597",
    "city": "Erblingen"
  },
  {
    "postcode": "51597",
    "city": "Euelsloch Sieg"
  },
  {
    "postcode": "51597",
    "city": "Euelsloch"
  },
  {
    "postcode": "51597",
    "city": "Hahn Sieg"
  },
  {
    "postcode": "51597",
    "city": "Hahn"
  },
  {
    "postcode": "51597",
    "city": "Halle Sieg"
  },
  {
    "postcode": "51597",
    "city": "Halle"
  },
  {
    "postcode": "51597",
    "city": "Katzenbach"
  },
  {
    "postcode": "51597",
    "city": "Korseifen Sieg"
  },
  {
    "postcode": "51597",
    "city": "Korseifen"
  },
  {
    "postcode": "51597",
    "city": "Lichtenberg bei Waldbröl"
  },
  {
    "postcode": "51597",
    "city": "Morsbach Sieg"
  },
  {
    "postcode": "51597",
    "city": "Morsbach"
  },
  {
    "postcode": "51597",
    "city": "Niederasbach Oberberg Kreis"
  },
  {
    "postcode": "51597",
    "city": "Niederasbach"
  },
  {
    "postcode": "51597",
    "city": "Niederwarnsbach Sieg"
  },
  {
    "postcode": "51597",
    "city": "Niederwarnsbach"
  },
  {
    "postcode": "51597",
    "city": "Oberasbach Oberberg Kreis"
  },
  {
    "postcode": "51597",
    "city": "Oberasbach"
  },
  {
    "postcode": "51597",
    "city": "Oberholpe"
  },
  {
    "postcode": "51597",
    "city": "Oberwarnsbach Sieg"
  },
  {
    "postcode": "51597",
    "city": "Oberwarnsbach"
  },
  {
    "postcode": "51597",
    "city": "Ortseifen Sieg"
  },
  {
    "postcode": "51597",
    "city": "Ortseifen"
  },
  {
    "postcode": "51597",
    "city": "Rhein Sieg"
  },
  {
    "postcode": "51597",
    "city": "Rhein"
  },
  {
    "postcode": "51597",
    "city": "Rolshagen"
  },
  {
    "postcode": "51597",
    "city": "Schlechtingen Sieg"
  },
  {
    "postcode": "51597",
    "city": "Schlechtingen"
  },
  {
    "postcode": "51597",
    "city": "Seifen Sieg"
  },
  {
    "postcode": "51597",
    "city": "Seifen"
  },
  {
    "postcode": "51597",
    "city": "Siedenberg Sieg"
  },
  {
    "postcode": "51597",
    "city": "Siedenberg"
  },
  {
    "postcode": "51597",
    "city": "Steimelhagen"
  },
  {
    "postcode": "51597",
    "city": "Stockshöhe Sieg"
  },
  {
    "postcode": "51597",
    "city": "Stockshöhe"
  },
  {
    "postcode": "51597",
    "city": "Straßerhof"
  },
  {
    "postcode": "51597",
    "city": "Strick Sieg"
  },
  {
    "postcode": "51597",
    "city": "Strick"
  },
  {
    "postcode": "51597",
    "city": "Überasbach Oberberg Kreis"
  },
  {
    "postcode": "51597",
    "city": "Überasbach"
  },
  {
    "postcode": "51597",
    "city": "Überholz Sieg"
  },
  {
    "postcode": "51597",
    "city": "Überholz"
  },
  {
    "postcode": "51597",
    "city": "Volperhausen Sieg"
  },
  {
    "postcode": "51597",
    "city": "Volperhausen"
  },
  {
    "postcode": "51597",
    "city": "Wallerhausen"
  },
  {
    "postcode": "51597",
    "city": "Wendershagen Sieg"
  },
  {
    "postcode": "51597",
    "city": "Wendershagen"
  },
  {
    "postcode": "51597",
    "city": "Wittershagen Sieg"
  },
  {
    "postcode": "51597",
    "city": "Wittershagen"
  },
  {
    "postcode": "51597",
    "city": "Oberbergischer Kreis"
  },
  {
    "postcode": "51597",
    "city": "Ellingen"
  },
  {
    "postcode": "51597",
    "city": "Lichtenberg"
  },
  {
    "postcode": "51597",
    "city": "Holpe"
  },
  {
    "postcode": "51597",
    "city": "Amberg"
  },
  {
    "postcode": "51597",
    "city": "Hülstert"
  },
  {
    "postcode": "51597",
    "city": "Birzel"
  },
  {
    "postcode": "51597",
    "city": "Bitze"
  },
  {
    "postcode": "51597",
    "city": "Breitgen"
  },
  {
    "postcode": "51597",
    "city": "Flockenberg"
  },
  {
    "postcode": "51597",
    "city": "Frankenthal"
  },
  {
    "postcode": "51597",
    "city": "Ritterseifen"
  },
  {
    "postcode": "51597",
    "city": "Höferhof"
  },
  {
    "postcode": "51597",
    "city": "Heide"
  },
  {
    "postcode": "51597",
    "city": "Hellerseifen"
  },
  {
    "postcode": "51597",
    "city": "Herbertshagen"
  },
  {
    "postcode": "51597",
    "city": "Oberzielenbach"
  },
  {
    "postcode": "51597",
    "city": "Rom"
  },
  {
    "postcode": "51597",
    "city": "Kömpel"
  },
  {
    "postcode": "51597",
    "city": "Ley"
  },
  {
    "postcode": "51597",
    "city": "Lützelseifen"
  },
  {
    "postcode": "51597",
    "city": "Neuhöfchen"
  },
  {
    "postcode": "51597",
    "city": "Niederdorf"
  },
  {
    "postcode": "51597",
    "city": "Niederzielenbach"
  },
  {
    "postcode": "51597",
    "city": "Reinshagen"
  },
  {
    "postcode": "51597",
    "city": "Rosengarten"
  },
  {
    "postcode": "51597",
    "city": "Rossenbach"
  },
  {
    "postcode": "51597",
    "city": "Ölmühle"
  },
  {
    "postcode": "51597",
    "city": "Solseifen"
  },
  {
    "postcode": "51597",
    "city": "Springe"
  },
  {
    "postcode": "51597",
    "city": "Stentenbach"
  },
  {
    "postcode": "51597",
    "city": "Eugenienthal"
  },
  {
    "postcode": "51597",
    "city": "Zinshardt"
  },
  {
    "postcode": "51598",
    "city": "Bockenbaum"
  },
  {
    "postcode": "51598",
    "city": "Eueln"
  },
  {
    "postcode": "51598",
    "city": "Friesenhagen"
  },
  {
    "postcode": "51598",
    "city": "Gerndorf"
  },
  {
    "postcode": "51598",
    "city": "Kappenstein Sieg"
  },
  {
    "postcode": "51598",
    "city": "Kappenstein"
  },
  {
    "postcode": "51598",
    "city": "Steeg bei Friesenhagen"
  },
  {
    "postcode": "51598",
    "city": "Wildenburg"
  },
  {
    "postcode": "51598",
    "city": "Altenkirchen"
  },
  {
    "postcode": "51598",
    "city": "Steegerhütte"
  },
  {
    "postcode": "51598",
    "city": "Altenhofen"
  },
  {
    "postcode": "51598",
    "city": "Steeg"
  },
  {
    "postcode": "51598",
    "city": "Bettorf"
  },
  {
    "postcode": "51598",
    "city": "Busenbach"
  },
  {
    "postcode": "51598",
    "city": "Busenhagen"
  },
  {
    "postcode": "51598",
    "city": "Krottorf"
  },
  {
    "postcode": "51598",
    "city": "Dernbach"
  },
  {
    "postcode": "51598",
    "city": "Engelshäuschen"
  },
  {
    "postcode": "51598",
    "city": "Erlenbruch"
  },
  {
    "postcode": "51598",
    "city": "Gösingen"
  },
  {
    "postcode": "51598",
    "city": "Gösingerhütte"
  },
  {
    "postcode": "51598",
    "city": "Götzen"
  },
  {
    "postcode": "51598",
    "city": "Gerndorferhöhe"
  },
  {
    "postcode": "51598",
    "city": "Girtseifen"
  },
  {
    "postcode": "51598",
    "city": "Grendel"
  },
  {
    "postcode": "51598",
    "city": "Großlangenbach"
  },
  {
    "postcode": "51598",
    "city": "Höfchen"
  },
  {
    "postcode": "51598",
    "city": "Höferhof"
  },
  {
    "postcode": "51598",
    "city": "Hammer"
  },
  {
    "postcode": "51598",
    "city": "Hammerhöhe"
  },
  {
    "postcode": "51598",
    "city": "Heiligenborn"
  },
  {
    "postcode": "51598",
    "city": "Helmert"
  },
  {
    "postcode": "51598",
    "city": "Hilchenbach"
  },
  {
    "postcode": "51598",
    "city": "Hohhäuschen"
  },
  {
    "postcode": "51598",
    "city": "Hollenseifen"
  },
  {
    "postcode": "51598",
    "city": "Hundscheidt"
  },
  {
    "postcode": "51598",
    "city": "Hühnerkamp"
  },
  {
    "postcode": "51598",
    "city": "Johannesberg"
  },
  {
    "postcode": "51598",
    "city": "Köppernöll"
  },
  {
    "postcode": "51598",
    "city": "Kuchenwald"
  },
  {
    "postcode": "51598",
    "city": "Kücheln"
  },
  {
    "postcode": "51598",
    "city": "Ritterwäldchen"
  },
  {
    "postcode": "51598",
    "city": "Küchelseifen"
  },
  {
    "postcode": "51598",
    "city": "Möhren"
  },
  {
    "postcode": "51598",
    "city": "Mittelsolbach"
  },
  {
    "postcode": "51598",
    "city": "Mohrenbach"
  },
  {
    "postcode": "51598",
    "city": "Mühlenseifen"
  },
  {
    "postcode": "51598",
    "city": "Neuhöhe"
  },
  {
    "postcode": "51598",
    "city": "Niedersolbach"
  },
  {
    "postcode": "51598",
    "city": "Oberhausen"
  },
  {
    "postcode": "51598",
    "city": "Obersolbach"
  },
  {
    "postcode": "51598",
    "city": "Wammesflöte"
  },
  {
    "postcode": "51598",
    "city": "Oberweidenbruch"
  },
  {
    "postcode": "51598",
    "city": "Wittershagen"
  },
  {
    "postcode": "51598",
    "city": "Quasthöhe"
  },
  {
    "postcode": "51598",
    "city": "Rübengarten"
  },
  {
    "postcode": "51598",
    "city": "Schönbach"
  },
  {
    "postcode": "51598",
    "city": "Schlade"
  },
  {
    "postcode": "51598",
    "city": "Schmalenbach"
  },
  {
    "postcode": "51598",
    "city": "Schmalenbachsmühle"
  },
  {
    "postcode": "51598",
    "city": "Sommerhof"
  },
  {
    "postcode": "51598",
    "city": "Staade"
  },
  {
    "postcode": "51598",
    "city": "Stausberg"
  },
  {
    "postcode": "51598",
    "city": "Truttenseifen"
  },
  {
    "postcode": "51598",
    "city": "Nädringen"
  },
  {
    "postcode": "51598",
    "city": "Unterweidenbruch"
  },
  {
    "postcode": "51598",
    "city": "Wöllenbach"
  },
  {
    "postcode": "51598",
    "city": "Wasserhof"
  },
  {
    "postcode": "51598",
    "city": "Weierseifen"
  },
  {
    "postcode": "51598",
    "city": "Westbach"
  },
  {
    "postcode": "51598",
    "city": "Wiesental"
  },
  {
    "postcode": "51598",
    "city": "Wildenburg Bahnhof"
  },
  {
    "postcode": "51598",
    "city": "Wippe"
  },
  {
    "postcode": "51598",
    "city": "Wippermühle"
  },
  {
    "postcode": "51598",
    "city": "Ziegenschlade"
  },
  {
    "postcode": "51643",
    "city": "Gummersbach"
  },
  {
    "postcode": "51643",
    "city": "Reininghausen"
  },
  {
    "postcode": "51643",
    "city": "Rospe"
  },
  {
    "postcode": "51643",
    "city": "Strombach"
  },
  {
    "postcode": "51643",
    "city": "Oberbergischer Kreis"
  },
  {
    "postcode": "51643",
    "city": "Karlskamp"
  },
  {
    "postcode": "51643",
    "city": "Hardt-Hanfgarten"
  },
  {
    "postcode": "51643",
    "city": "Steinenbrück"
  },
  {
    "postcode": "51645",
    "city": "Brunohl"
  },
  {
    "postcode": "51645",
    "city": "Bünghausen"
  },
  {
    "postcode": "51645",
    "city": "Derschlag"
  },
  {
    "postcode": "51645",
    "city": "Dieringhausen"
  },
  {
    "postcode": "51645",
    "city": "Dümmlinghausen"
  },
  {
    "postcode": "51645",
    "city": "Gummersbach"
  },
  {
    "postcode": "51645",
    "city": "Hömel"
  },
  {
    "postcode": "51645",
    "city": "Hunstig"
  },
  {
    "postcode": "51645",
    "city": "Liefenroth"
  },
  {
    "postcode": "51645",
    "city": "Lobscheid"
  },
  {
    "postcode": "51645",
    "city": "Mühle"
  },
  {
    "postcode": "51645",
    "city": "Niederseßmar"
  },
  {
    "postcode": "51645",
    "city": "Rebbelroth"
  },
  {
    "postcode": "51645",
    "city": "Remmelsohl"
  },
  {
    "postcode": "51645",
    "city": "Vollmerhausen"
  },
  {
    "postcode": "51645",
    "city": "Oberbergischer Kreis"
  },
  {
    "postcode": "51645",
    "city": "Schneppsiefen"
  },
  {
    "postcode": "51645",
    "city": "Erbland"
  },
  {
    "postcode": "51645",
    "city": "Schönenberg"
  },
  {
    "postcode": "51645",
    "city": "Höfen"
  },
  {
    "postcode": "51645",
    "city": "Luttersiefen"
  },
  {
    "postcode": "51645",
    "city": "Ohmig"
  },
  {
    "postcode": "51647",
    "city": "Becke bei Gummersbach"
  },
  {
    "postcode": "51647",
    "city": "Bernberg"
  },
  {
    "postcode": "51647",
    "city": "Bruch"
  },
  {
    "postcode": "51647",
    "city": "Deitenbach"
  },
  {
    "postcode": "51647",
    "city": "Drieberhausen"
  },
  {
    "postcode": "51647",
    "city": "Dümmlinghausen"
  },
  {
    "postcode": "51647",
    "city": "Elbach"
  },
  {
    "postcode": "51647",
    "city": "Erlenhagen"
  },
  {
    "postcode": "51647",
    "city": "Flaberg"
  },
  {
    "postcode": "51647",
    "city": "Frömmersbach"
  },
  {
    "postcode": "51647",
    "city": "Gummeroth"
  },
  {
    "postcode": "51647",
    "city": "Gummersbach"
  },
  {
    "postcode": "51647",
    "city": "Hagen bei Gimborn"
  },
  {
    "postcode": "51647",
    "city": "Helberg"
  },
  {
    "postcode": "51647",
    "city": "Herreshagen"
  },
  {
    "postcode": "51647",
    "city": "Hesselbach"
  },
  {
    "postcode": "51647",
    "city": "Hülsenbusch"
  },
  {
    "postcode": "51647",
    "city": "Lantenbach"
  },
  {
    "postcode": "51647",
    "city": "Lieberhausen"
  },
  {
    "postcode": "51647",
    "city": "Lützinghausen"
  },
  {
    "postcode": "51647",
    "city": "Neuenhaus"
  },
  {
    "postcode": "51647",
    "city": "Niedergelpe"
  },
  {
    "postcode": "51647",
    "city": "Niedernhagen bei Gummersbach"
  },
  {
    "postcode": "51647",
    "city": "Nochen"
  },
  {
    "postcode": "51647",
    "city": "Oberrengse"
  },
  {
    "postcode": "51647",
    "city": "Piene"
  },
  {
    "postcode": "51647",
    "city": "Recklinghausen"
  },
  {
    "postcode": "51647",
    "city": "Rodt"
  },
  {
    "postcode": "51647",
    "city": "Unnenberg"
  },
  {
    "postcode": "51647",
    "city": "Wasserfuhr"
  },
  {
    "postcode": "51647",
    "city": "Windhagen Rheinland"
  },
  {
    "postcode": "51647",
    "city": "Windhagen"
  },
  {
    "postcode": "51647",
    "city": "Würden"
  },
  {
    "postcode": "51647",
    "city": "Oberbergischer Kreis"
  },
  {
    "postcode": "51647",
    "city": "Bredenbruch"
  },
  {
    "postcode": "51647",
    "city": "Hardt"
  },
  {
    "postcode": "51647",
    "city": "Becke"
  },
  {
    "postcode": "51647",
    "city": "Berghausen"
  },
  {
    "postcode": "51647",
    "city": "Apfelbaum"
  },
  {
    "postcode": "51647",
    "city": "Sonnenberg"
  },
  {
    "postcode": "51647",
    "city": "Birnbaum"
  },
  {
    "postcode": "51647",
    "city": "Bracht"
  },
  {
    "postcode": "51647",
    "city": "Brink"
  },
  {
    "postcode": "51647",
    "city": "Kalkkuhl"
  },
  {
    "postcode": "51647",
    "city": "Peisel"
  },
  {
    "postcode": "51647",
    "city": "Grünenthal"
  },
  {
    "postcode": "51647",
    "city": "Hagen"
  },
  {
    "postcode": "51647",
    "city": "Niedernhagen"
  },
  {
    "postcode": "51647",
    "city": "Koverstein"
  },
  {
    "postcode": "51647",
    "city": "Neuenschmiede"
  },
  {
    "postcode": "51647",
    "city": "Schusterburg"
  },
  {
    "postcode": "51647",
    "city": "Straße"
  },
  {
    "postcode": "51647",
    "city": "Veste"
  },
  {
    "postcode": "51647",
    "city": "Wörde"
  },
  {
    "postcode": "51647",
    "city": "Waldesruh"
  },
  {
    "postcode": "51674",
    "city": "Alferzhagen"
  },
  {
    "postcode": "51674",
    "city": "Alperbrück"
  },
  {
    "postcode": "51674",
    "city": "Angfurten"
  },
  {
    "postcode": "51674",
    "city": "Bielstein Rheinland"
  },
  {
    "postcode": "51674",
    "city": "Bielstein"
  },
  {
    "postcode": "51674",
    "city": "Bomig"
  },
  {
    "postcode": "51674",
    "city": "Börnhausen Rheinland"
  },
  {
    "postcode": "51674",
    "city": "Börnhausen"
  },
  {
    "postcode": "51674",
    "city": "Büddelhagen"
  },
  {
    "postcode": "51674",
    "city": "Büttinghausen"
  },
  {
    "postcode": "51674",
    "city": "Dahl Rheinland"
  },
  {
    "postcode": "51674",
    "city": "Dahl"
  },
  {
    "postcode": "51674",
    "city": "Drabenderhöhe"
  },
  {
    "postcode": "51674",
    "city": "Dreisbach"
  },
  {
    "postcode": "51674",
    "city": "Faulmert Rheinland"
  },
  {
    "postcode": "51674",
    "city": "Faulmert"
  },
  {
    "postcode": "51674",
    "city": "Forst Rheinland"
  },
  {
    "postcode": "51674",
    "city": "Forst"
  },
  {
    "postcode": "51674",
    "city": "Großfischbach"
  },
  {
    "postcode": "51674",
    "city": "Hengstenberg Rheinland"
  },
  {
    "postcode": "51674",
    "city": "Hengstenberg"
  },
  {
    "postcode": "51674",
    "city": "Hillerscheid"
  },
  {
    "postcode": "51674",
    "city": "Hübender"
  },
  {
    "postcode": "51674",
    "city": "Hückhausen"
  },
  {
    "postcode": "51674",
    "city": "Immen Rheinland"
  },
  {
    "postcode": "51674",
    "city": "Immen"
  },
  {
    "postcode": "51674",
    "city": "Kleinfischbach"
  },
  {
    "postcode": "51674",
    "city": "Kurtensiefen"
  },
  {
    "postcode": "51674",
    "city": "Marienhagen Rheinland"
  },
  {
    "postcode": "51674",
    "city": "Marienhagen"
  },
  {
    "postcode": "51674",
    "city": "Merkausen"
  },
  {
    "postcode": "51674",
    "city": "Morkepütz"
  },
  {
    "postcode": "51674",
    "city": "Mühlen Rheinland"
  },
  {
    "postcode": "51674",
    "city": "Mühlen"
  },
  {
    "postcode": "51674",
    "city": "Niederbellinghausen"
  },
  {
    "postcode": "51674",
    "city": "Niederhof Rheinland"
  },
  {
    "postcode": "51674",
    "city": "Niederhof"
  },
  {
    "postcode": "51674",
    "city": "Oberbantenberg Rheinland"
  },
  {
    "postcode": "51674",
    "city": "Oberbantenberg"
  },
  {
    "postcode": "51674",
    "city": "Oberholzen"
  },
  {
    "postcode": "51674",
    "city": "Oberwiehl Rheinland"
  },
  {
    "postcode": "51674",
    "city": "Oberwiehl"
  },
  {
    "postcode": "51674",
    "city": "Remperg"
  },
  {
    "postcode": "51674",
    "city": "Verr"
  },
  {
    "postcode": "51674",
    "city": "Weiershagen"
  },
  {
    "postcode": "51674",
    "city": "Wiehl"
  },
  {
    "postcode": "51674",
    "city": "Oberbergischer Kreis"
  },
  {
    "postcode": "51674",
    "city": "Brächen"
  },
  {
    "postcode": "51674",
    "city": "Alpe"
  },
  {
    "postcode": "51674",
    "city": "Neuklef"
  },
  {
    "postcode": "51674",
    "city": "Jennecken"
  },
  {
    "postcode": "51674",
    "city": "Linden"
  },
  {
    "postcode": "51674",
    "city": "Mühlhausen"
  },
  {
    "postcode": "51674",
    "city": "Bieberstein"
  },
  {
    "postcode": "51674",
    "city": "Dahl bei Drabenderhöhe"
  },
  {
    "postcode": "51674",
    "city": "Drosselhardt"
  },
  {
    "postcode": "51674",
    "city": "Fahlenbruch"
  },
  {
    "postcode": "51674",
    "city": "Gassenhagen"
  },
  {
    "postcode": "51674",
    "city": "Hahn"
  },
  {
    "postcode": "51674",
    "city": "Hau"
  },
  {
    "postcode": "51674",
    "city": "Koppelweide"
  },
  {
    "postcode": "51674",
    "city": "Monsau"
  },
  {
    "postcode": "51674",
    "city": "Pfaffenberg"
  },
  {
    "postcode": "51674",
    "city": "Steinacker"
  },
  {
    "postcode": "51674",
    "city": "Wald"
  },
  {
    "postcode": "51674",
    "city": "Wiehlsiefen"
  },
  {
    "postcode": "51688",
    "city": "Agathaberg"
  },
  {
    "postcode": "51688",
    "city": "Berghof"
  },
  {
    "postcode": "51688",
    "city": "Dreine"
  },
  {
    "postcode": "51688",
    "city": "Egen"
  },
  {
    "postcode": "51688",
    "city": "Erlen bei Wipperfürth"
  },
  {
    "postcode": "51688",
    "city": "Grüterich"
  },
  {
    "postcode": "51688",
    "city": "Hämmern"
  },
  {
    "postcode": "51688",
    "city": "Holte"
  },
  {
    "postcode": "51688",
    "city": "Jostberg"
  },
  {
    "postcode": "51688",
    "city": "Kreuzberg bei Wipperfürth"
  },
  {
    "postcode": "51688",
    "city": "Münte"
  },
  {
    "postcode": "51688",
    "city": "Niederröttenscheid"
  },
  {
    "postcode": "51688",
    "city": "Niederscheveling"
  },
  {
    "postcode": "51688",
    "city": "Ritzenhaufe"
  },
  {
    "postcode": "51688",
    "city": "Sonnenschein"
  },
  {
    "postcode": "51688",
    "city": "Thier Rheinland"
  },
  {
    "postcode": "51688",
    "city": "Thier"
  },
  {
    "postcode": "51688",
    "city": "Voßkuhle"
  },
  {
    "postcode": "51688",
    "city": "Wipperfeld"
  },
  {
    "postcode": "51688",
    "city": "Wipperfürth"
  },
  {
    "postcode": "51688",
    "city": "Wipperhof"
  },
  {
    "postcode": "51688",
    "city": "Wüstemünte"
  },
  {
    "postcode": "51688",
    "city": "Oberbergischer Kreis"
  },
  {
    "postcode": "51688",
    "city": "Kreuzberg"
  },
  {
    "postcode": "51688",
    "city": "Ohl"
  },
  {
    "postcode": "51688",
    "city": "Neye"
  },
  {
    "postcode": "51688",
    "city": "Gemeinde Kürten"
  },
  {
    "postcode": "51688",
    "city": "Kupferberg"
  },
  {
    "postcode": "51702",
    "city": "Attenbach"
  },
  {
    "postcode": "51702",
    "city": "Baldenberg"
  },
  {
    "postcode": "51702",
    "city": "Bergneustadt"
  },
  {
    "postcode": "51702",
    "city": "Brelöh"
  },
  {
    "postcode": "51702",
    "city": "Hackenberg"
  },
  {
    "postcode": "51702",
    "city": "Hüngringhausen"
  },
  {
    "postcode": "51702",
    "city": "Immicke"
  },
  {
    "postcode": "51702",
    "city": "Leienbach"
  },
  {
    "postcode": "51702",
    "city": "Neuenothe"
  },
  {
    "postcode": "51702",
    "city": "Pernze"
  },
  {
    "postcode": "51702",
    "city": "Wiedenest"
  },
  {
    "postcode": "51702",
    "city": "Oberbergischer Kreis"
  },
  {
    "postcode": "51702",
    "city": "Belmicke"
  },
  {
    "postcode": "51709",
    "city": "Boinghausen bei Gimborn"
  },
  {
    "postcode": "51709",
    "city": "Börlinghausen"
  },
  {
    "postcode": "51709",
    "city": "Däinghausen Oberberg Kreis"
  },
  {
    "postcode": "51709",
    "city": "Däinghausen"
  },
  {
    "postcode": "51709",
    "city": "Dannenberg"
  },
  {
    "postcode": "51709",
    "city": "Dürhölzen bei Gimborn"
  },
  {
    "postcode": "51709",
    "city": "Eiringhausen"
  },
  {
    "postcode": "51709",
    "city": "Erlinghagen bei Gimborn"
  },
  {
    "postcode": "51709",
    "city": "Gimborn bei Gimborn"
  },
  {
    "postcode": "51709",
    "city": "Himmerkusen"
  },
  {
    "postcode": "51709",
    "city": "Höfel"
  },
  {
    "postcode": "51709",
    "city": "Holzwipper"
  },
  {
    "postcode": "51709",
    "city": "Hütte bei Gimborn"
  },
  {
    "postcode": "51709",
    "city": "Jedinghagen bei Gimborn"
  },
  {
    "postcode": "51709",
    "city": "Kalsbach"
  },
  {
    "postcode": "51709",
    "city": "Kattwinkel"
  },
  {
    "postcode": "51709",
    "city": "Kempershöhe"
  },
  {
    "postcode": "51709",
    "city": "Linge"
  },
  {
    "postcode": "51709",
    "city": "Marienheide"
  },
  {
    "postcode": "51709",
    "city": "Müllenbach bei Marienheide"
  },
  {
    "postcode": "51709",
    "city": "Niederwette"
  },
  {
    "postcode": "51709",
    "city": "Obernhagen"
  },
  {
    "postcode": "51709",
    "city": "Rodt bei Marienheide"
  },
  {
    "postcode": "51709",
    "city": "Schemmen"
  },
  {
    "postcode": "51709",
    "city": "Schmitzwipper"
  },
  {
    "postcode": "51709",
    "city": "Siemerkusen"
  },
  {
    "postcode": "51709",
    "city": "Stülinghausen"
  },
  {
    "postcode": "51709",
    "city": "Wilbringhausen"
  },
  {
    "postcode": "51709",
    "city": "Oberbergischer Kreis"
  },
  {
    "postcode": "51709",
    "city": "Kotthausen"
  },
  {
    "postcode": "51709",
    "city": "Jedinghagen"
  },
  {
    "postcode": "51709",
    "city": "Müllenbach"
  },
  {
    "postcode": "51709",
    "city": "Scharde"
  },
  {
    "postcode": "51709",
    "city": "Rodt"
  },
  {
    "postcode": "51709",
    "city": "Berghof"
  },
  {
    "postcode": "51709",
    "city": "Dahl"
  },
  {
    "postcode": "51709",
    "city": "Dürhölzen"
  },
  {
    "postcode": "51709",
    "city": "Hütte"
  },
  {
    "postcode": "51709",
    "city": "Eberg"
  },
  {
    "postcode": "51709",
    "city": "Erlinghagen"
  },
  {
    "postcode": "51709",
    "city": "Gervershagen"
  },
  {
    "postcode": "51709",
    "city": "Boinghausen"
  },
  {
    "postcode": "51709",
    "city": "Grunewald"
  },
  {
    "postcode": "51709",
    "city": "Königsheide"
  },
  {
    "postcode": "51709",
    "city": "Gogarten"
  },
  {
    "postcode": "51709",
    "city": "Kümmel"
  },
  {
    "postcode": "51709",
    "city": "Löh"
  },
  {
    "postcode": "51709",
    "city": "Lambach"
  },
  {
    "postcode": "51709",
    "city": "Lehmkuhl"
  },
  {
    "postcode": "51709",
    "city": "Leiberg"
  },
  {
    "postcode": "51709",
    "city": "Lienkamp"
  },
  {
    "postcode": "51709",
    "city": "Gimborn"
  },
  {
    "postcode": "51709",
    "city": "Obersiemeringhausen"
  },
  {
    "postcode": "51709",
    "city": "Schöneborn"
  },
  {
    "postcode": "51709",
    "city": "Krommenohl"
  },
  {
    "postcode": "51709",
    "city": "Schulzenkamp"
  },
  {
    "postcode": "51709",
    "city": "Siepen"
  },
  {
    "postcode": "51709",
    "city": "Späinghausen"
  },
  {
    "postcode": "51709",
    "city": "Wernscheid"
  },
  {
    "postcode": "51709",
    "city": "Straße"
  },
  {
    "postcode": "51709",
    "city": "Unterpentinghausen"
  },
  {
    "postcode": "51709",
    "city": "Winkel"
  },
  {
    "postcode": "51766",
    "city": "Bellingroth"
  },
  {
    "postcode": "51766",
    "city": "Bickenbach Oberberg Kreis"
  },
  {
    "postcode": "51766",
    "city": "Bickenbach"
  },
  {
    "postcode": "51766",
    "city": "Buschhausen"
  },
  {
    "postcode": "51766",
    "city": "Dörrenberg"
  },
  {
    "postcode": "51766",
    "city": "Engelskirchen"
  },
  {
    "postcode": "51766",
    "city": "Feckelsberg"
  },
  {
    "postcode": "51766",
    "city": "Hahn"
  },
  {
    "postcode": "51766",
    "city": "Hintersteimel"
  },
  {
    "postcode": "51766",
    "city": "Kaltenbach"
  },
  {
    "postcode": "51766",
    "city": "Kastor"
  },
  {
    "postcode": "51766",
    "city": "Müllensiefen"
  },
  {
    "postcode": "51766",
    "city": "Neuremscheid"
  },
  {
    "postcode": "51766",
    "city": "Oesinghausen"
  },
  {
    "postcode": "51766",
    "city": "Osberghausen"
  },
  {
    "postcode": "51766",
    "city": "Remerscheid"
  },
  {
    "postcode": "51766",
    "city": "Rommersberg"
  },
  {
    "postcode": "51766",
    "city": "Ründeroth"
  },
  {
    "postcode": "51766",
    "city": "Schnellenbach"
  },
  {
    "postcode": "51766",
    "city": "Thal"
  },
  {
    "postcode": "51766",
    "city": "Unterbüchel"
  },
  {
    "postcode": "51766",
    "city": "Unterschelmerath"
  },
  {
    "postcode": "51766",
    "city": "Wahlscheid"
  },
  {
    "postcode": "51766",
    "city": "Wallefeld"
  },
  {
    "postcode": "51766",
    "city": "Wiehlmünden"
  },
  {
    "postcode": "51766",
    "city": "Oberbergischer Kreis"
  },
  {
    "postcode": "51766",
    "city": "Engelskirchen-Loope"
  },
  {
    "postcode": "51766",
    "city": "Engelskirchen-Hardt"
  },
  {
    "postcode": "51766",
    "city": "Engelskirchen-Grünscheid"
  },
  {
    "postcode": "51766",
    "city": "Engelskirchen-Miebach"
  },
  {
    "postcode": "51766",
    "city": "Stiefelhagen"
  },
  {
    "postcode": "51766",
    "city": "Hollenberg"
  },
  {
    "postcode": "51766",
    "city": "Loope"
  },
  {
    "postcode": "51789",
    "city": "Bolzenbach"
  },
  {
    "postcode": "51789",
    "city": "Brochhagen"
  },
  {
    "postcode": "51789",
    "city": "Fenke"
  },
  {
    "postcode": "51789",
    "city": "Frielingsdorf"
  },
  {
    "postcode": "51789",
    "city": "Hartegasse"
  },
  {
    "postcode": "51789",
    "city": "Heibach"
  },
  {
    "postcode": "51789",
    "city": "Hoffstadt"
  },
  {
    "postcode": "51789",
    "city": "Hohkeppel"
  },
  {
    "postcode": "51789",
    "city": "Hommerich"
  },
  {
    "postcode": "51789",
    "city": "Horpe"
  },
  {
    "postcode": "51789",
    "city": "Kaiserau Rheinland"
  },
  {
    "postcode": "51789",
    "city": "Kaiserau"
  },
  {
    "postcode": "51789",
    "city": "Kapellensüng"
  },
  {
    "postcode": "51789",
    "city": "Kemmerich"
  },
  {
    "postcode": "51789",
    "city": "Köttingen"
  },
  {
    "postcode": "51789",
    "city": "Kuhlbach"
  },
  {
    "postcode": "51789",
    "city": "Kurtenbach"
  },
  {
    "postcode": "51789",
    "city": "Leienhöhe"
  },
  {
    "postcode": "51789",
    "city": "Lindlar"
  },
  {
    "postcode": "51789",
    "city": "Remshagen"
  },
  {
    "postcode": "51789",
    "city": "Scheel"
  },
  {
    "postcode": "51789",
    "city": "Schmitzhöhe"
  },
  {
    "postcode": "51789",
    "city": "Spich bei Lindlar"
  },
  {
    "postcode": "51789",
    "city": "Unterbergscheid"
  },
  {
    "postcode": "51789",
    "city": "Vellingen"
  },
  {
    "postcode": "51789",
    "city": "Vossbruch"
  },
  {
    "postcode": "51789",
    "city": "Oberbergischer Kreis"
  },
  {
    "postcode": "51789",
    "city": "Bolzenbach-Schümmerich"
  },
  {
    "postcode": "51789",
    "city": "Linde"
  },
  {
    "postcode": "51789",
    "city": "Altenrath-Böhl"
  },
  {
    "postcode": "51789",
    "city": "Eichholz"
  },
  {
    "postcode": "51789",
    "city": "Industriepark Klause"
  },
  {
    "postcode": "51789",
    "city": "Hönighausen"
  },
  {
    "postcode": "51789",
    "city": "Oberhabbach"
  },
  {
    "postcode": "51789",
    "city": "Obersülze"
  },
  {
    "postcode": "51789",
    "city": "Rehbach"
  },
  {
    "postcode": "51789",
    "city": "Schmitzhöhe-Holl"
  },
  {
    "postcode": "51789",
    "city": "Spich"
  },
  {
    "postcode": "51789",
    "city": "Stelberg"
  }
]