[
  {
    "postcode": "35037",
    "city": "Marburg"
  },
  {
    "postcode": "35037",
    "city": "Marburg / Lahn"
  },
  {
    "postcode": "35037",
    "city": "Marburg-Biedenkopf"
  },
  {
    "postcode": "35039",
    "city": "Marburg"
  },
  {
    "postcode": "35039",
    "city": "Marburg / Lahn"
  },
  {
    "postcode": "35039",
    "city": "Marburg-Biedenkopf"
  },
  {
    "postcode": "35041",
    "city": "Dagobertshausen Kreis Marburg an der Lahn"
  },
  {
    "postcode": "35041",
    "city": "Dagobertshausen"
  },
  {
    "postcode": "35041",
    "city": "Dilschhausen"
  },
  {
    "postcode": "35041",
    "city": "Elnhausen"
  },
  {
    "postcode": "35041",
    "city": "Haddamshausen"
  },
  {
    "postcode": "35041",
    "city": "Hermershausen"
  },
  {
    "postcode": "35041",
    "city": "Marbach Kreis Marburg an der Lahn"
  },
  {
    "postcode": "35041",
    "city": "Marbach"
  },
  {
    "postcode": "35041",
    "city": "Marburg / Lahn"
  },
  {
    "postcode": "35041",
    "city": "Marburg"
  },
  {
    "postcode": "35041",
    "city": "Michelbach Kreis Marburg an der Lahn"
  },
  {
    "postcode": "35041",
    "city": "Michelbach"
  },
  {
    "postcode": "35041",
    "city": "Neuhöfe an der Lahn"
  },
  {
    "postcode": "35041",
    "city": "Wehrda Kreis Marburg an der Lahn"
  },
  {
    "postcode": "35041",
    "city": "Wehrda"
  },
  {
    "postcode": "35041",
    "city": "Wehrshausen an der Lahn"
  },
  {
    "postcode": "35041",
    "city": "Marburg-Biedenkopf"
  },
  {
    "postcode": "35041",
    "city": "Wehrshausen"
  },
  {
    "postcode": "35041",
    "city": "Bauerbach"
  },
  {
    "postcode": "35043",
    "city": "Bauerbach Kreis Marburg an der Lahn"
  },
  {
    "postcode": "35043",
    "city": "Bauerbach"
  },
  {
    "postcode": "35043",
    "city": "Bortshausen Kreis Marburg an der Lahn"
  },
  {
    "postcode": "35043",
    "city": "Bortshausen"
  },
  {
    "postcode": "35043",
    "city": "Capelle Hof"
  },
  {
    "postcode": "35043",
    "city": "Capelle"
  },
  {
    "postcode": "35043",
    "city": "Cappel Kreis Marburg an der Lahn"
  },
  {
    "postcode": "35043",
    "city": "Cappel"
  },
  {
    "postcode": "35043",
    "city": "Cyriaxweimar an der Lahn"
  },
  {
    "postcode": "35043",
    "city": "Ginseldorf"
  },
  {
    "postcode": "35043",
    "city": "Gisselberg"
  },
  {
    "postcode": "35043",
    "city": "Marburg"
  },
  {
    "postcode": "35043",
    "city": "Marburg / Lahn"
  },
  {
    "postcode": "35043",
    "city": "Moischt"
  },
  {
    "postcode": "35043",
    "city": "Ronhausen Kreis Marburg an der Lahn"
  },
  {
    "postcode": "35043",
    "city": "Ronhausen"
  },
  {
    "postcode": "35043",
    "city": "Schröck"
  },
  {
    "postcode": "35043",
    "city": "Marburg-Biedenkopf"
  },
  {
    "postcode": "35043",
    "city": "Ebsdorfergrund"
  },
  {
    "postcode": "35043",
    "city": "Cyriaxweimar"
  },
  {
    "postcode": "35066",
    "city": "Dörnholzhausen"
  },
  {
    "postcode": "35066",
    "city": "Frankenberg"
  },
  {
    "postcode": "35066",
    "city": "Frankenberg (Eder)"
  },
  {
    "postcode": "35066",
    "city": "Friedrichshausen"
  },
  {
    "postcode": "35066",
    "city": "Geismar Kreis Frankenberg Eder"
  },
  {
    "postcode": "35066",
    "city": "Geismar"
  },
  {
    "postcode": "35066",
    "city": "Haubern"
  },
  {
    "postcode": "35066",
    "city": "Hommershausen"
  },
  {
    "postcode": "35066",
    "city": "Rengershausen Kreis Frankenberg Eder"
  },
  {
    "postcode": "35066",
    "city": "Rengershausen"
  },
  {
    "postcode": "35066",
    "city": "Röddenau"
  },
  {
    "postcode": "35066",
    "city": "Rodenbach Kreis Frankenberg Eder"
  },
  {
    "postcode": "35066",
    "city": "Rodenbach"
  },
  {
    "postcode": "35066",
    "city": "Schreufa"
  },
  {
    "postcode": "35066",
    "city": "Viermünden"
  },
  {
    "postcode": "35066",
    "city": "Wangershausen"
  },
  {
    "postcode": "35066",
    "city": "Willersdorf Kreis Frankenberg Eder"
  },
  {
    "postcode": "35066",
    "city": "Willersdorf"
  },
  {
    "postcode": "35066",
    "city": "Waldeck-Frankenberg"
  },
  {
    "postcode": "35075",
    "city": "Bellnhausen bei Gladenbach"
  },
  {
    "postcode": "35075",
    "city": "Diedenshausen"
  },
  {
    "postcode": "35075",
    "city": "Erdhausen"
  },
  {
    "postcode": "35075",
    "city": "Friebertshausen"
  },
  {
    "postcode": "35075",
    "city": "Frohnhausen bei Gladenbach"
  },
  {
    "postcode": "35075",
    "city": "Gladenbach"
  },
  {
    "postcode": "35075",
    "city": "Kehlnbach"
  },
  {
    "postcode": "35075",
    "city": "Mornshausen an der Salzböde"
  },
  {
    "postcode": "35075",
    "city": "Rachelshausen"
  },
  {
    "postcode": "35075",
    "city": "Römershausen bei Gladenbach"
  },
  {
    "postcode": "35075",
    "city": "Rüchenbach"
  },
  {
    "postcode": "35075",
    "city": "Runzhausen"
  },
  {
    "postcode": "35075",
    "city": "Sinkershausen"
  },
  {
    "postcode": "35075",
    "city": "Weidenhausen bei Gladenbach"
  },
  {
    "postcode": "35075",
    "city": "Weitershausen"
  },
  {
    "postcode": "35075",
    "city": "Marburg-Biedenkopf"
  },
  {
    "postcode": "35075",
    "city": "Mornshausen"
  },
  {
    "postcode": "35075",
    "city": "Römershausen"
  },
  {
    "postcode": "35075",
    "city": "Weidenhausen"
  },
  {
    "postcode": "35075",
    "city": "Bellnhausen"
  },
  {
    "postcode": "35075",
    "city": "Frohnhausen"
  },
  {
    "postcode": "35080",
    "city": "Bad Endbach"
  },
  {
    "postcode": "35080",
    "city": "Bottenhorn"
  },
  {
    "postcode": "35080",
    "city": "Dernbach Hessen"
  },
  {
    "postcode": "35080",
    "city": "Dernbach"
  },
  {
    "postcode": "35080",
    "city": "Günterod"
  },
  {
    "postcode": "35080",
    "city": "Hartenrod bei Gladenbach"
  },
  {
    "postcode": "35080",
    "city": "Hülshof"
  },
  {
    "postcode": "35080",
    "city": "Schlierbach bei Gladenbach"
  },
  {
    "postcode": "35080",
    "city": "Wommelshausen"
  },
  {
    "postcode": "35080",
    "city": "Marburg-Biedenkopf"
  },
  {
    "postcode": "35080",
    "city": "Hartenrod"
  },
  {
    "postcode": "35080",
    "city": "Schlierbach"
  },
  {
    "postcode": "35083",
    "city": "Amönau"
  },
  {
    "postcode": "35083",
    "city": "Mellnau Kreis Marburg an der Lahn"
  },
  {
    "postcode": "35083",
    "city": "Mellnau"
  },
  {
    "postcode": "35083",
    "city": "Niederwetter"
  },
  {
    "postcode": "35083",
    "city": "Oberndorf Kreis Marburg an der Lahn"
  },
  {
    "postcode": "35083",
    "city": "Oberndorf"
  },
  {
    "postcode": "35083",
    "city": "Oberrosphe"
  },
  {
    "postcode": "35083",
    "city": "Todenhausen Kreis Marburg an der Lahn"
  },
  {
    "postcode": "35083",
    "city": "Todenhausen"
  },
  {
    "postcode": "35083",
    "city": "Treisbach"
  },
  {
    "postcode": "35083",
    "city": "Unterrosphe"
  },
  {
    "postcode": "35083",
    "city": "Warzenbach"
  },
  {
    "postcode": "35083",
    "city": "Wetter"
  },
  {
    "postcode": "35083",
    "city": "Wetter (Hessen)"
  },
  {
    "postcode": "35083",
    "city": "Marburg-Biedenkopf"
  },
  {
    "postcode": "35085",
    "city": "Beltershausen"
  },
  {
    "postcode": "35085",
    "city": "Dreihausen Kreis Marburg an der Lahn"
  },
  {
    "postcode": "35085",
    "city": "Dreihausen"
  },
  {
    "postcode": "35085",
    "city": "Ebsdorf Kreis Marburg an der Lahn"
  },
  {
    "postcode": "35085",
    "city": "Ebsdorf"
  },
  {
    "postcode": "35085",
    "city": "Ebsdorfergrund"
  },
  {
    "postcode": "35085",
    "city": "Hachborn"
  },
  {
    "postcode": "35085",
    "city": "Heskem"
  },
  {
    "postcode": "35085",
    "city": "Ilschhausen"
  },
  {
    "postcode": "35085",
    "city": "Leidenhofen"
  },
  {
    "postcode": "35085",
    "city": "Mölln Kreis Marburg an der Lahn"
  },
  {
    "postcode": "35085",
    "city": "Mölln"
  },
  {
    "postcode": "35085",
    "city": "Rauischholzhausen"
  },
  {
    "postcode": "35085",
    "city": "Roßberg Kreis Marburg an der Lahn"
  },
  {
    "postcode": "35085",
    "city": "Roßberg"
  },
  {
    "postcode": "35085",
    "city": "Wermertshausen"
  },
  {
    "postcode": "35085",
    "city": "Wittelsberg"
  },
  {
    "postcode": "35085",
    "city": "Marburg-Biedenkopf"
  },
  {
    "postcode": "35085",
    "city": "Frauenberg"
  },
  {
    "postcode": "35088",
    "city": "Battenberg"
  },
  {
    "postcode": "35088",
    "city": "Battenberg (Eder)"
  },
  {
    "postcode": "35088",
    "city": "Berghofen Kreis Frankenberg Eder"
  },
  {
    "postcode": "35088",
    "city": "Berghofen"
  },
  {
    "postcode": "35088",
    "city": "Dodenau"
  },
  {
    "postcode": "35088",
    "city": "Frohnhausen Kreis Frankenberg Eder"
  },
  {
    "postcode": "35088",
    "city": "Frohnhausen"
  },
  {
    "postcode": "35088",
    "city": "Kröge Eder"
  },
  {
    "postcode": "35088",
    "city": "Kröge"
  },
  {
    "postcode": "35088",
    "city": "Laisa"
  },
  {
    "postcode": "35088",
    "city": "Waldeck-Frankenberg"
  },
  {
    "postcode": "35091",
    "city": "Bernsdorf Kreis Marburg an der Lahn"
  },
  {
    "postcode": "35091",
    "city": "Bernsdorf"
  },
  {
    "postcode": "35091",
    "city": "Bürgeln Kreis Marburg an der Lahn"
  },
  {
    "postcode": "35091",
    "city": "Bürgeln"
  },
  {
    "postcode": "35091",
    "city": "Cölbe"
  },
  {
    "postcode": "35091",
    "city": "Reddehausen"
  },
  {
    "postcode": "35091",
    "city": "Schönstadt"
  },
  {
    "postcode": "35091",
    "city": "Schwarzenborn Kreis Marburg an der Lahn"
  },
  {
    "postcode": "35091",
    "city": "Schwarzenborn"
  },
  {
    "postcode": "35091",
    "city": "Marburg-Biedenkopf"
  },
  {
    "postcode": "35094",
    "city": "Brungershausen Kreis Marburg an der Lahn"
  },
  {
    "postcode": "35094",
    "city": "Brungershausen"
  },
  {
    "postcode": "35094",
    "city": "Caldern Kreis Marburg an der Lahn"
  },
  {
    "postcode": "35094",
    "city": "Caldern"
  },
  {
    "postcode": "35094",
    "city": "Goßfelden"
  },
  {
    "postcode": "35094",
    "city": "Göttingen Kreis Marburg an der Lahn"
  },
  {
    "postcode": "35094",
    "city": "Göttingen"
  },
  {
    "postcode": "35094",
    "city": "Kernbach Kreis Marburg an der Lahn"
  },
  {
    "postcode": "35094",
    "city": "Kernbach"
  },
  {
    "postcode": "35094",
    "city": "Lahntal"
  },
  {
    "postcode": "35094",
    "city": "Sarnau"
  },
  {
    "postcode": "35094",
    "city": "Sterzhausen"
  },
  {
    "postcode": "35094",
    "city": "Marburg-Biedenkopf"
  },
  {
    "postcode": "35094",
    "city": "Michelbacher Mühle"
  },
  {
    "postcode": "35096",
    "city": "Allna"
  },
  {
    "postcode": "35096",
    "city": "Argenstein"
  },
  {
    "postcode": "35096",
    "city": "Kehna"
  },
  {
    "postcode": "35096",
    "city": "Nesselbrunn"
  },
  {
    "postcode": "35096",
    "city": "Niederwalgern"
  },
  {
    "postcode": "35096",
    "city": "Niederweimar"
  },
  {
    "postcode": "35096",
    "city": "Oberweimar"
  },
  {
    "postcode": "35096",
    "city": "Roth Kreis Marburg an der Lahn"
  },
  {
    "postcode": "35096",
    "city": "Roth"
  },
  {
    "postcode": "35096",
    "city": "Stedebach"
  },
  {
    "postcode": "35096",
    "city": "Weiershausen"
  },
  {
    "postcode": "35096",
    "city": "Weimar (Lahn)"
  },
  {
    "postcode": "35096",
    "city": "Weimar"
  },
  {
    "postcode": "35096",
    "city": "Wenkbach"
  },
  {
    "postcode": "35096",
    "city": "Wolfshausen"
  },
  {
    "postcode": "35096",
    "city": "Marburg-Biedenkopf"
  },
  {
    "postcode": "35099",
    "city": "Birkenbringhausen"
  },
  {
    "postcode": "35099",
    "city": "Bottendorf Kreis Frankenberg Eder"
  },
  {
    "postcode": "35099",
    "city": "Bottendorf"
  },
  {
    "postcode": "35099",
    "city": "Burgwald Eder"
  },
  {
    "postcode": "35099",
    "city": "Burgwald"
  },
  {
    "postcode": "35099",
    "city": "Ernsthausen Kreis Frankenberg Eder"
  },
  {
    "postcode": "35099",
    "city": "Ernsthausen"
  },
  {
    "postcode": "35099",
    "city": "Wiesenfeld Kreis Frankenberg Eder"
  },
  {
    "postcode": "35099",
    "city": "Wiesenfeld"
  },
  {
    "postcode": "35099",
    "city": "Waldeck-Frankenberg"
  },
  {
    "postcode": "35099",
    "city": "Frankenberg"
  },
  {
    "postcode": "35099",
    "city": "Frankenberg (Eder)"
  },
  {
    "postcode": "35102",
    "city": "Altenvers"
  },
  {
    "postcode": "35102",
    "city": "Damm bei Gladenbach"
  },
  {
    "postcode": "35102",
    "city": "Kirchvers"
  },
  {
    "postcode": "35102",
    "city": "Lohra"
  },
  {
    "postcode": "35102",
    "city": "Nanz-Willershausen"
  },
  {
    "postcode": "35102",
    "city": "Reimershausen"
  },
  {
    "postcode": "35102",
    "city": "Rodenhausen"
  },
  {
    "postcode": "35102",
    "city": "Rollshausen bei Gladenbach"
  },
  {
    "postcode": "35102",
    "city": "Seelbach bei Gladenbach"
  },
  {
    "postcode": "35102",
    "city": "Weipoltshausen bei Gladenbach"
  },
  {
    "postcode": "35102",
    "city": "Marburg-Biedenkopf"
  },
  {
    "postcode": "35102",
    "city": "Weipoltshausen"
  },
  {
    "postcode": "35102",
    "city": "Damm"
  },
  {
    "postcode": "35102",
    "city": "Rollshausen"
  },
  {
    "postcode": "35102",
    "city": "Seelbach"
  },
  {
    "postcode": "35104",
    "city": "Dalwigksthal Waldeck"
  },
  {
    "postcode": "35104",
    "city": "Dalwigksthal"
  },
  {
    "postcode": "35104",
    "city": "Fürstenberg Waldeck"
  },
  {
    "postcode": "35104",
    "city": "Fürstenberg"
  },
  {
    "postcode": "35104",
    "city": "Goddelsheim"
  },
  {
    "postcode": "35104",
    "city": "Immighausen"
  },
  {
    "postcode": "35104",
    "city": "Lichtenfels Hessen"
  },
  {
    "postcode": "35104",
    "city": "Lichtenfels"
  },
  {
    "postcode": "35104",
    "city": "Münden bei Frankenberg Eder"
  },
  {
    "postcode": "35104",
    "city": "Münden bei Frankenberg"
  },
  {
    "postcode": "35104",
    "city": "Neukirchen Waldeck"
  },
  {
    "postcode": "35104",
    "city": "Neukirchen"
  },
  {
    "postcode": "35104",
    "city": "Rhadern"
  },
  {
    "postcode": "35104",
    "city": "Sachsenberg Waldeck"
  },
  {
    "postcode": "35104",
    "city": "Sachsenberg"
  },
  {
    "postcode": "35104",
    "city": "Waldeck-Frankenberg"
  },
  {
    "postcode": "35104",
    "city": "Münden"
  },
  {
    "postcode": "35108",
    "city": "Allendorf"
  },
  {
    "postcode": "35108",
    "city": "Allendorf (Eder)"
  },
  {
    "postcode": "35108",
    "city": "Battenfeld Kreis Frankenberg Eder"
  },
  {
    "postcode": "35108",
    "city": "Battenfeld"
  },
  {
    "postcode": "35108",
    "city": "Haine"
  },
  {
    "postcode": "35108",
    "city": "Osterfeld Eder"
  },
  {
    "postcode": "35108",
    "city": "Osterfeld"
  },
  {
    "postcode": "35108",
    "city": "Rennertehausen"
  },
  {
    "postcode": "35108",
    "city": "Waldeck-Frankenberg"
  },
  {
    "postcode": "35110",
    "city": "Allendorf"
  },
  {
    "postcode": "35110",
    "city": "Altenlotheim"
  },
  {
    "postcode": "35110",
    "city": "Dainrode"
  },
  {
    "postcode": "35110",
    "city": "Ellershausen Kreis Frankenberg Eder"
  },
  {
    "postcode": "35110",
    "city": "Ellershausen"
  },
  {
    "postcode": "35110",
    "city": "Frankenau"
  },
  {
    "postcode": "35110",
    "city": "Frankenau Hessen"
  },
  {
    "postcode": "35110",
    "city": "Louisendorf Kreis Frankenberg Eder"
  },
  {
    "postcode": "35110",
    "city": "Louisendorf"
  },
  {
    "postcode": "35110",
    "city": "Waldeck-Frankenberg"
  },
  {
    "postcode": "35112",
    "city": "Bellnhausen Kreis Marburg an der Lahn"
  },
  {
    "postcode": "35112",
    "city": "Bellnhausen"
  },
  {
    "postcode": "35112",
    "city": "Erbenhausen Kreis Marburg an der Lahn"
  },
  {
    "postcode": "35112",
    "city": "Erbenhausen"
  },
  {
    "postcode": "35112",
    "city": "Fronhausen"
  },
  {
    "postcode": "35112",
    "city": "Fronhausen Lahn"
  },
  {
    "postcode": "35112",
    "city": "Hassenhausen Kreis Marburg an der Lahn"
  },
  {
    "postcode": "35112",
    "city": "Hassenhausen"
  },
  {
    "postcode": "35112",
    "city": "Holzhausen Kreis Marburg an der Lahn"
  },
  {
    "postcode": "35112",
    "city": "Holzhausen"
  },
  {
    "postcode": "35112",
    "city": "Oberwalgern Lahn"
  },
  {
    "postcode": "35112",
    "city": "Oberwalgern"
  },
  {
    "postcode": "35112",
    "city": "Sichertshausen"
  },
  {
    "postcode": "35112",
    "city": "Marburg-Biedenkopf"
  },
  {
    "postcode": "35114",
    "city": "Altenhaina"
  },
  {
    "postcode": "35114",
    "city": "Battenhausen"
  },
  {
    "postcode": "35114",
    "city": "Bockendorf Kreis Frankenberg Eder"
  },
  {
    "postcode": "35114",
    "city": "Bockendorf"
  },
  {
    "postcode": "35114",
    "city": "Dodenhausen"
  },
  {
    "postcode": "35114",
    "city": "Haddenberg"
  },
  {
    "postcode": "35114",
    "city": "Haina"
  },
  {
    "postcode": "35114",
    "city": "Haina (Kloster)"
  },
  {
    "postcode": "35114",
    "city": "Halgehausen"
  },
  {
    "postcode": "35114",
    "city": "Hüttenrode Hessen"
  },
  {
    "postcode": "35114",
    "city": "Hüttenrode"
  },
  {
    "postcode": "35114",
    "city": "Löhlbach"
  },
  {
    "postcode": "35114",
    "city": "Mohnhausen"
  },
  {
    "postcode": "35114",
    "city": "Oberholzhausen Kreis Frankenberg Eder"
  },
  {
    "postcode": "35114",
    "city": "Oberholzhausen"
  },
  {
    "postcode": "35114",
    "city": "Römershausen Eder"
  },
  {
    "postcode": "35114",
    "city": "Römershausen"
  },
  {
    "postcode": "35114",
    "city": "Waldeck-Frankenberg"
  },
  {
    "postcode": "35116",
    "city": "Biebighausen Eder"
  },
  {
    "postcode": "35116",
    "city": "Biebighausen"
  },
  {
    "postcode": "35116",
    "city": "Eifa Kreis Frankenberg Eder"
  },
  {
    "postcode": "35116",
    "city": "Eifa"
  },
  {
    "postcode": "35116",
    "city": "Hatzfeld"
  },
  {
    "postcode": "35116",
    "city": "Hatzfeld (Eder)"
  },
  {
    "postcode": "35116",
    "city": "Holzhausen Eder"
  },
  {
    "postcode": "35116",
    "city": "Holzhausen"
  },
  {
    "postcode": "35116",
    "city": "Lindenhof Eder"
  },
  {
    "postcode": "35116",
    "city": "Lindenhof"
  },
  {
    "postcode": "35116",
    "city": "Reddighausen"
  },
  {
    "postcode": "35116",
    "city": "Waldeck-Frankenberg"
  },
  {
    "postcode": "35117",
    "city": "Münchhausen am Christenberg"
  },
  {
    "postcode": "35117",
    "city": "Niederasphe"
  },
  {
    "postcode": "35117",
    "city": "Oberasphe"
  },
  {
    "postcode": "35117",
    "city": "Simtshausen"
  },
  {
    "postcode": "35117",
    "city": "Wollmar"
  },
  {
    "postcode": "35117",
    "city": "Marburg-Biedenkopf"
  },
  {
    "postcode": "35117",
    "city": "Münchhausen"
  },
  {
    "postcode": "35119",
    "city": "Roda Hessen"
  },
  {
    "postcode": "35119",
    "city": "Roda"
  },
  {
    "postcode": "35119",
    "city": "Rosenthal Hessen"
  },
  {
    "postcode": "35119",
    "city": "Rosenthal"
  },
  {
    "postcode": "35119",
    "city": "Willershausen Hessen"
  },
  {
    "postcode": "35119",
    "city": "Willershausen"
  },
  {
    "postcode": "35119",
    "city": "Waldeck-Frankenberg"
  },
  {
    "postcode": "35119",
    "city": "Gemeinde Rauschenberg"
  },
  {
    "postcode": "35216",
    "city": "Biedenkopf"
  },
  {
    "postcode": "35216",
    "city": "Breidenstein"
  },
  {
    "postcode": "35216",
    "city": "Dexbach"
  },
  {
    "postcode": "35216",
    "city": "Eckelshausen Hessen"
  },
  {
    "postcode": "35216",
    "city": "Eckelshausen"
  },
  {
    "postcode": "35216",
    "city": "Engelbach"
  },
  {
    "postcode": "35216",
    "city": "Katzenbach"
  },
  {
    "postcode": "35216",
    "city": "Kombach"
  },
  {
    "postcode": "35216",
    "city": "Wallau Lahn"
  },
  {
    "postcode": "35216",
    "city": "Wallau"
  },
  {
    "postcode": "35216",
    "city": "Weifenbach"
  },
  {
    "postcode": "35216",
    "city": "Marburg-Biedenkopf"
  },
  {
    "postcode": "35232",
    "city": "Allendorf am Hohenfels"
  },
  {
    "postcode": "35232",
    "city": "Buchenau Lahn"
  },
  {
    "postcode": "35232",
    "city": "Buchenau"
  },
  {
    "postcode": "35232",
    "city": "Damshausen"
  },
  {
    "postcode": "35232",
    "city": "Dautphe"
  },
  {
    "postcode": "35232",
    "city": "Dautphetal"
  },
  {
    "postcode": "35232",
    "city": "Elmshausen Kreis Biedenkopf"
  },
  {
    "postcode": "35232",
    "city": "Elmshausen"
  },
  {
    "postcode": "35232",
    "city": "Friedensdorf Kreis Biedenkopf"
  },
  {
    "postcode": "35232",
    "city": "Friedensdorf"
  },
  {
    "postcode": "35232",
    "city": "Herzhausen bei Gladenbach"
  },
  {
    "postcode": "35232",
    "city": "Holzhausen am Hünstein"
  },
  {
    "postcode": "35232",
    "city": "Hommertshausen"
  },
  {
    "postcode": "35232",
    "city": "Mornshausen an der Dautphe"
  },
  {
    "postcode": "35232",
    "city": "Silberg Kreis Biedenkopf"
  },
  {
    "postcode": "35232",
    "city": "Silberg"
  },
  {
    "postcode": "35232",
    "city": "Wolfgruben Kreis Biedenkopf"
  },
  {
    "postcode": "35232",
    "city": "Wolfgruben"
  },
  {
    "postcode": "35232",
    "city": "Marburg-Biedenkopf"
  },
  {
    "postcode": "35232",
    "city": "Holzhausen"
  },
  {
    "postcode": "35232",
    "city": "Mornshausen"
  },
  {
    "postcode": "35232",
    "city": "Herzhausen"
  },
  {
    "postcode": "35232",
    "city": "Allendorf"
  },
  {
    "postcode": "35236",
    "city": "Achenbach Kreis Biedenkopf"
  },
  {
    "postcode": "35236",
    "city": "Achenbach"
  },
  {
    "postcode": "35236",
    "city": "Breidenbach"
  },
  {
    "postcode": "35236",
    "city": "Breidenbach bei Biedenkopf"
  },
  {
    "postcode": "35236",
    "city": "Kleingladenbach"
  },
  {
    "postcode": "35236",
    "city": "Niederdieten"
  },
  {
    "postcode": "35236",
    "city": "Oberdieten"
  },
  {
    "postcode": "35236",
    "city": "Wiesenbach Kreis Biedenkopf"
  },
  {
    "postcode": "35236",
    "city": "Wiesenbach"
  },
  {
    "postcode": "35236",
    "city": "Wolzhausen"
  },
  {
    "postcode": "35236",
    "city": "Marburg-Biedenkopf"
  },
  {
    "postcode": "35239",
    "city": "Niedereisenhausen"
  },
  {
    "postcode": "35239",
    "city": "Niederhörlen"
  },
  {
    "postcode": "35239",
    "city": "Obereisenhausen"
  },
  {
    "postcode": "35239",
    "city": "Oberhörlen"
  },
  {
    "postcode": "35239",
    "city": "Quotshausen"
  },
  {
    "postcode": "35239",
    "city": "Steffenberg"
  },
  {
    "postcode": "35239",
    "city": "Steinperf Kreis Biedenkopf"
  },
  {
    "postcode": "35239",
    "city": "Steinperf"
  },
  {
    "postcode": "35239",
    "city": "Marburg-Biedenkopf"
  },
  {
    "postcode": "35260",
    "city": "Erksdorf"
  },
  {
    "postcode": "35260",
    "city": "Hatzbach"
  },
  {
    "postcode": "35260",
    "city": "Niederklein"
  },
  {
    "postcode": "35260",
    "city": "Schweinsberg"
  },
  {
    "postcode": "35260",
    "city": "Stadtallendorf"
  },
  {
    "postcode": "35260",
    "city": "Wolferode Hessen"
  },
  {
    "postcode": "35260",
    "city": "Wolferode"
  },
  {
    "postcode": "35260",
    "city": "Marburg-Biedenkopf"
  },
  {
    "postcode": "35260",
    "city": "Stadt Neustadt"
  },
  {
    "postcode": "35274",
    "city": "Anzefahr"
  },
  {
    "postcode": "35274",
    "city": "Betziesdorf"
  },
  {
    "postcode": "35274",
    "city": "Burgholz"
  },
  {
    "postcode": "35274",
    "city": "Emsdorf"
  },
  {
    "postcode": "35274",
    "city": "Großseelheim"
  },
  {
    "postcode": "35274",
    "city": "Himmelsberg Hessen"
  },
  {
    "postcode": "35274",
    "city": "Himmelsberg"
  },
  {
    "postcode": "35274",
    "city": "Kirchhain"
  },
  {
    "postcode": "35274",
    "city": "Kleinseelheim"
  },
  {
    "postcode": "35274",
    "city": "Langenstein Hessen"
  },
  {
    "postcode": "35274",
    "city": "Langenstein"
  },
  {
    "postcode": "35274",
    "city": "Niederwald Hessen"
  },
  {
    "postcode": "35274",
    "city": "Niederwald"
  },
  {
    "postcode": "35274",
    "city": "Schönbach bei Kirchhain Hessen"
  },
  {
    "postcode": "35274",
    "city": "Schönbach bei Kirchhain"
  },
  {
    "postcode": "35274",
    "city": "Sindersfeld"
  },
  {
    "postcode": "35274",
    "city": "Stausebach"
  },
  {
    "postcode": "35274",
    "city": "Marburg-Biedenkopf"
  },
  {
    "postcode": "35274",
    "city": "Schönbach"
  },
  {
    "postcode": "35279",
    "city": "Mengsberg"
  },
  {
    "postcode": "35279",
    "city": "Momberg"
  },
  {
    "postcode": "35279",
    "city": "Neustadt (Hessen)"
  },
  {
    "postcode": "35279",
    "city": "Neustadt"
  },
  {
    "postcode": "35279",
    "city": "Speckswinkel"
  },
  {
    "postcode": "35279",
    "city": "Marburg-Biedenkopf"
  },
  {
    "postcode": "35282",
    "city": "Albshausen bei Kirchhain Hessen"
  },
  {
    "postcode": "35282",
    "city": "Albshausen bei Kirchhain"
  },
  {
    "postcode": "35282",
    "city": "Bracht Kreis Marburg an der Lahn"
  },
  {
    "postcode": "35282",
    "city": "Bracht"
  },
  {
    "postcode": "35282",
    "city": "Ernsthausen bei Kirchhain Hessen"
  },
  {
    "postcode": "35282",
    "city": "Ernsthausen bei Kirchhain"
  },
  {
    "postcode": "35282",
    "city": "Josbach"
  },
  {
    "postcode": "35282",
    "city": "Rauschenberg"
  },
  {
    "postcode": "35282",
    "city": "Rauschenberg Hessen"
  },
  {
    "postcode": "35282",
    "city": "Schwabendorf Hessen"
  },
  {
    "postcode": "35282",
    "city": "Schwabendorf"
  },
  {
    "postcode": "35282",
    "city": "Wolfskaute Hessen"
  },
  {
    "postcode": "35282",
    "city": "Wolfskaute"
  },
  {
    "postcode": "35282",
    "city": "Marburg-Biedenkopf"
  },
  {
    "postcode": "35282",
    "city": "Ernsthausen"
  },
  {
    "postcode": "35282",
    "city": "Albshausen"
  },
  {
    "postcode": "35285",
    "city": "Ellnrode"
  },
  {
    "postcode": "35285",
    "city": "Gemünden"
  },
  {
    "postcode": "35285",
    "city": "Gemünden (Wohra)"
  },
  {
    "postcode": "35285",
    "city": "Grüsen"
  },
  {
    "postcode": "35285",
    "city": "Herbelhausen"
  },
  {
    "postcode": "35285",
    "city": "Lehnhausen Forsthaus"
  },
  {
    "postcode": "35285",
    "city": "Lehnhausen"
  },
  {
    "postcode": "35285",
    "city": "Schiffelbach"
  },
  {
    "postcode": "35285",
    "city": "Sehlen Kreis Frankenberg Eder"
  },
  {
    "postcode": "35285",
    "city": "Sehlen"
  },
  {
    "postcode": "35285",
    "city": "Waldeck-Frankenberg"
  },
  {
    "postcode": "35287",
    "city": "Amöneburg"
  },
  {
    "postcode": "35287",
    "city": "Erfurtshausen"
  },
  {
    "postcode": "35287",
    "city": "Mardorf bei Kirchhain Hessen"
  },
  {
    "postcode": "35287",
    "city": "Mardorf bei Kirchhain"
  },
  {
    "postcode": "35287",
    "city": "Roßdorf bei Kirchhain Hessen"
  },
  {
    "postcode": "35287",
    "city": "Roßdorf bei Kirchhain"
  },
  {
    "postcode": "35287",
    "city": "Rüdigheim bei Kirchhain"
  },
  {
    "postcode": "35287",
    "city": "Marburg-Biedenkopf"
  },
  {
    "postcode": "35287",
    "city": "Rüdigheim"
  },
  {
    "postcode": "35287",
    "city": "Roßdorf"
  },
  {
    "postcode": "35287",
    "city": "Mardorf"
  },
  {
    "postcode": "35288",
    "city": "Halsdorf Wohra"
  },
  {
    "postcode": "35288",
    "city": "Halsdorf"
  },
  {
    "postcode": "35288",
    "city": "Hertingshausen bei Kirchhain Hessen"
  },
  {
    "postcode": "35288",
    "city": "Hertingshausen bei Kirchhain"
  },
  {
    "postcode": "35288",
    "city": "Langendorf Hessen"
  },
  {
    "postcode": "35288",
    "city": "Langendorf"
  },
  {
    "postcode": "35288",
    "city": "Wohra"
  },
  {
    "postcode": "35288",
    "city": "Wohratal"
  },
  {
    "postcode": "35288",
    "city": "Marburg-Biedenkopf"
  },
  {
    "postcode": "35288",
    "city": "Hertingshausen"
  },
  {
    "postcode": "35305",
    "city": "Beltershain"
  },
  {
    "postcode": "35305",
    "city": "Göbelnrod"
  },
  {
    "postcode": "35305",
    "city": "Grünberg / Hessen"
  },
  {
    "postcode": "35305",
    "city": "Grünberg"
  },
  {
    "postcode": "35305",
    "city": "Harbach Kreis Gießen"
  },
  {
    "postcode": "35305",
    "city": "Harbach"
  },
  {
    "postcode": "35305",
    "city": "Klein-Eichen"
  },
  {
    "postcode": "35305",
    "city": "Lardenbach"
  },
  {
    "postcode": "35305",
    "city": "Lehnheim"
  },
  {
    "postcode": "35305",
    "city": "Lumda"
  },
  {
    "postcode": "35305",
    "city": "Queckborn Hessen"
  },
  {
    "postcode": "35305",
    "city": "Queckborn"
  },
  {
    "postcode": "35305",
    "city": "Reinhardshain"
  },
  {
    "postcode": "35305",
    "city": "Stangenrod Hessen"
  },
  {
    "postcode": "35305",
    "city": "Stangenrod"
  },
  {
    "postcode": "35305",
    "city": "Stockhausen bei Grünberg Hessen"
  },
  {
    "postcode": "35305",
    "city": "Stockhausen bei Grünberg"
  },
  {
    "postcode": "35305",
    "city": "Weickartshain Bahnhof"
  },
  {
    "postcode": "35305",
    "city": "Weickartshain"
  },
  {
    "postcode": "35305",
    "city": "Weitershain"
  },
  {
    "postcode": "35305",
    "city": "Gießen"
  },
  {
    "postcode": "35305",
    "city": "Stockhausen"
  },
  {
    "postcode": "35305",
    "city": "Seenbrücke"
  },
  {
    "postcode": "35315",
    "city": "Appenrod"
  },
  {
    "postcode": "35315",
    "city": "Bleidenrod"
  },
  {
    "postcode": "35315",
    "city": "Büßfeld"
  },
  {
    "postcode": "35315",
    "city": "Dannenrod"
  },
  {
    "postcode": "35315",
    "city": "Deckenbach"
  },
  {
    "postcode": "35315",
    "city": "Erbenhausen Kreis Alsfeld"
  },
  {
    "postcode": "35315",
    "city": "Erbenhausen"
  },
  {
    "postcode": "35315",
    "city": "Gontershausen Hessen"
  },
  {
    "postcode": "35315",
    "city": "Gontershausen"
  },
  {
    "postcode": "35315",
    "city": "Haarhausen bei Kirchhain Hessen"
  },
  {
    "postcode": "35315",
    "city": "Haarhausen bei Kirchhain"
  },
  {
    "postcode": "35315",
    "city": "Höingen Hessen"
  },
  {
    "postcode": "35315",
    "city": "Höingen"
  },
  {
    "postcode": "35315",
    "city": "Homberg"
  },
  {
    "postcode": "35315",
    "city": "Homberg (Ohm)"
  },
  {
    "postcode": "35315",
    "city": "Maulbach Hessen"
  },
  {
    "postcode": "35315",
    "city": "Maulbach"
  },
  {
    "postcode": "35315",
    "city": "Nieder-Ofleiden"
  },
  {
    "postcode": "35315",
    "city": "Schadenbach"
  },
  {
    "postcode": "35315",
    "city": "Vogelsbergkreis"
  },
  {
    "postcode": "35315",
    "city": "Ober-Ofleiden"
  },
  {
    "postcode": "35315",
    "city": "Haarhausen"
  },
  {
    "postcode": "35321",
    "city": "Altenhain bei Grünberg Hessen"
  },
  {
    "postcode": "35321",
    "city": "Altenhain bei Grünberg"
  },
  {
    "postcode": "35321",
    "city": "Freienseen Hessen"
  },
  {
    "postcode": "35321",
    "city": "Freienseen"
  },
  {
    "postcode": "35321",
    "city": "Gonterskirchen"
  },
  {
    "postcode": "35321",
    "city": "Laubach"
  },
  {
    "postcode": "35321",
    "city": "Laubach Hessen"
  },
  {
    "postcode": "35321",
    "city": "Lauter Hessen"
  },
  {
    "postcode": "35321",
    "city": "Lauter"
  },
  {
    "postcode": "35321",
    "city": "Münster bei Grünberg Hessen"
  },
  {
    "postcode": "35321",
    "city": "Münster bei Grünberg"
  },
  {
    "postcode": "35321",
    "city": "Röthges"
  },
  {
    "postcode": "35321",
    "city": "Ruppertsburg"
  },
  {
    "postcode": "35321",
    "city": "Wetterfeld über Grünberg Hessen"
  },
  {
    "postcode": "35321",
    "city": "Wetterfeld über Grünberg"
  },
  {
    "postcode": "35321",
    "city": "Gießen"
  },
  {
    "postcode": "35321",
    "city": "Altenhain"
  },
  {
    "postcode": "35321",
    "city": "Münster"
  },
  {
    "postcode": "35321",
    "city": "Wetterfeld"
  },
  {
    "postcode": "35325",
    "city": "Atzenhain"
  },
  {
    "postcode": "35325",
    "city": "Bernsfeld"
  },
  {
    "postcode": "35325",
    "city": "Flensungen Hessen"
  },
  {
    "postcode": "35325",
    "city": "Flensungen"
  },
  {
    "postcode": "35325",
    "city": "Groß-Eichen"
  },
  {
    "postcode": "35325",
    "city": "Höckersdorf"
  },
  {
    "postcode": "35325",
    "city": "Ilsdorf"
  },
  {
    "postcode": "35325",
    "city": "Kirschgarten Hessen"
  },
  {
    "postcode": "35325",
    "city": "Kirschgarten"
  },
  {
    "postcode": "35325",
    "city": "Merlau"
  },
  {
    "postcode": "35325",
    "city": "Mücke"
  },
  {
    "postcode": "35325",
    "city": "Ruppertenrod"
  },
  {
    "postcode": "35325",
    "city": "Sellnrod"
  },
  {
    "postcode": "35325",
    "city": "Wettsaasen"
  },
  {
    "postcode": "35325",
    "city": "Vogelsbergkreis"
  },
  {
    "postcode": "35325",
    "city": "Nieder-Ohmen"
  },
  {
    "postcode": "35325",
    "city": "Ober-Ohmen"
  },
  {
    "postcode": "35327",
    "city": "Bobenhausen II"
  },
  {
    "postcode": "35327",
    "city": "Bobenhausen II"
  },
  {
    "postcode": "35327",
    "city": "Feldkrücken"
  },
  {
    "postcode": "35327",
    "city": "Helpershain"
  },
  {
    "postcode": "35327",
    "city": "Kölzenhain"
  },
  {
    "postcode": "35327",
    "city": "Langwasser"
  },
  {
    "postcode": "35327",
    "city": "Rebgeshain"
  },
  {
    "postcode": "35327",
    "city": "Ulrichstein"
  },
  {
    "postcode": "35327",
    "city": "Wohnfeld"
  },
  {
    "postcode": "35327",
    "city": "Vogelsbergkreis"
  },
  {
    "postcode": "35327",
    "city": "Ober-Seibertenrod"
  },
  {
    "postcode": "35327",
    "city": "Bobenhausen II"
  },
  {
    "postcode": "35327",
    "city": "Unter-Seibertenrod"
  },
  {
    "postcode": "35329",
    "city": "Burg-Gemünden"
  },
  {
    "postcode": "35329",
    "city": "Ehringshausen Kreis Alsfeld"
  },
  {
    "postcode": "35329",
    "city": "Ehringshausen"
  },
  {
    "postcode": "35329",
    "city": "Elpenrod"
  },
  {
    "postcode": "35329",
    "city": "Gemünden (Felda)"
  },
  {
    "postcode": "35329",
    "city": "Gemünden"
  },
  {
    "postcode": "35329",
    "city": "Hainbach Hessen"
  },
  {
    "postcode": "35329",
    "city": "Hainbach"
  },
  {
    "postcode": "35329",
    "city": "Otterbach Hessen"
  },
  {
    "postcode": "35329",
    "city": "Otterbach"
  },
  {
    "postcode": "35329",
    "city": "Rülfenrod"
  },
  {
    "postcode": "35329",
    "city": "Vogelsbergkreis"
  },
  {
    "postcode": "35329",
    "city": "Nieder-Gemünden"
  },
  {
    "postcode": "35390",
    "city": "Gießen"
  },
  {
    "postcode": "35390",
    "city": "Gießen Lahn"
  },
  {
    "postcode": "35392",
    "city": "Gießen"
  },
  {
    "postcode": "35392",
    "city": "Gießen Lahn"
  },
  {
    "postcode": "35394",
    "city": "Gießen"
  },
  {
    "postcode": "35394",
    "city": "Gießen Lahn"
  },
  {
    "postcode": "35394",
    "city": "Rödgen Kreis Gießen"
  },
  {
    "postcode": "35394",
    "city": "Rödgen"
  },
  {
    "postcode": "35394",
    "city": "Wieseck"
  },
  {
    "postcode": "35396",
    "city": "Gießen"
  },
  {
    "postcode": "35396",
    "city": "Gießen Lahn"
  },
  {
    "postcode": "35396",
    "city": "Wieseck"
  },
  {
    "postcode": "35398",
    "city": "Allendorf"
  },
  {
    "postcode": "35398",
    "city": "Gießen"
  },
  {
    "postcode": "35398",
    "city": "Gießen Lahn"
  },
  {
    "postcode": "35398",
    "city": "Lützellinden"
  },
  {
    "postcode": "35398",
    "city": "Kleinlinden"
  },
  {
    "postcode": "35410",
    "city": "Bellersheim"
  },
  {
    "postcode": "35410",
    "city": "Hungen"
  },
  {
    "postcode": "35410",
    "city": "Inheiden"
  },
  {
    "postcode": "35410",
    "city": "Langd"
  },
  {
    "postcode": "35410",
    "city": "Nonnenroth"
  },
  {
    "postcode": "35410",
    "city": "Obbornhofen"
  },
  {
    "postcode": "35410",
    "city": "Rabertshausen"
  },
  {
    "postcode": "35410",
    "city": "Rodheim Horloff"
  },
  {
    "postcode": "35410",
    "city": "Rodheim"
  },
  {
    "postcode": "35410",
    "city": "Steinheim bei Nidda"
  },
  {
    "postcode": "35410",
    "city": "Trais-Horloff"
  },
  {
    "postcode": "35410",
    "city": "Utphe"
  },
  {
    "postcode": "35410",
    "city": "Villingen Kreis Gießen"
  },
  {
    "postcode": "35410",
    "city": "Villingen"
  },
  {
    "postcode": "35410",
    "city": "Gießen"
  },
  {
    "postcode": "35410",
    "city": "Steinheim"
  },
  {
    "postcode": "35415",
    "city": "Dorf-Güll"
  },
  {
    "postcode": "35415",
    "city": "Garbenteich"
  },
  {
    "postcode": "35415",
    "city": "Grüningen Kreis Gießen"
  },
  {
    "postcode": "35415",
    "city": "Grüningen"
  },
  {
    "postcode": "35415",
    "city": "Holzheim Kreis Gießen"
  },
  {
    "postcode": "35415",
    "city": "Holzheim"
  },
  {
    "postcode": "35415",
    "city": "Pohlheim"
  },
  {
    "postcode": "35415",
    "city": "Watzenborn-Steinberg"
  },
  {
    "postcode": "35415",
    "city": "Gießen"
  },
  {
    "postcode": "35415",
    "city": "Hausen"
  },
  {
    "postcode": "35418",
    "city": "Alten-Buseck"
  },
  {
    "postcode": "35418",
    "city": "Beuern Hessen"
  },
  {
    "postcode": "35418",
    "city": "Beuern"
  },
  {
    "postcode": "35418",
    "city": "Buseck"
  },
  {
    "postcode": "35418",
    "city": "Großen-Buseck"
  },
  {
    "postcode": "35418",
    "city": "Oppenrod"
  },
  {
    "postcode": "35418",
    "city": "Trohe"
  },
  {
    "postcode": "35418",
    "city": "Gießen"
  },
  {
    "postcode": "35418",
    "city": "Gemeinde Reiskirchen"
  },
  {
    "postcode": "35423",
    "city": "Arnsburg Hessen"
  },
  {
    "postcode": "35423",
    "city": "Arnsburg"
  },
  {
    "postcode": "35423",
    "city": "Bettenhausen Kreis Gießen"
  },
  {
    "postcode": "35423",
    "city": "Bettenhausen"
  },
  {
    "postcode": "35423",
    "city": "Birklar"
  },
  {
    "postcode": "35423",
    "city": "Eberstadt Kreis Gießen"
  },
  {
    "postcode": "35423",
    "city": "Eberstadt"
  },
  {
    "postcode": "35423",
    "city": "Langsdorf Kreis Gießen"
  },
  {
    "postcode": "35423",
    "city": "Langsdorf"
  },
  {
    "postcode": "35423",
    "city": "Lich"
  },
  {
    "postcode": "35423",
    "city": "Lich Hessen"
  },
  {
    "postcode": "35423",
    "city": "Muschenheim"
  },
  {
    "postcode": "35423",
    "city": "Nieder-Bessingen"
  },
  {
    "postcode": "35423",
    "city": "Gießen"
  },
  {
    "postcode": "35423",
    "city": "Ober-Bessingen"
  },
  {
    "postcode": "35428",
    "city": "Cleeberg Hessen"
  },
  {
    "postcode": "35428",
    "city": "Cleeberg"
  },
  {
    "postcode": "35428",
    "city": "Dornholzhausen Kreis Wetzlar"
  },
  {
    "postcode": "35428",
    "city": "Dornholzhausen"
  },
  {
    "postcode": "35428",
    "city": "Espa Hessen"
  },
  {
    "postcode": "35428",
    "city": "Espa"
  },
  {
    "postcode": "35428",
    "city": "Langgöns"
  },
  {
    "postcode": "35428",
    "city": "Niederkleen"
  },
  {
    "postcode": "35428",
    "city": "Oberkleen"
  },
  {
    "postcode": "35428",
    "city": "Gießen"
  },
  {
    "postcode": "35435",
    "city": "Krofdorf-Gleiberg"
  },
  {
    "postcode": "35435",
    "city": "Launsbach"
  },
  {
    "postcode": "35435",
    "city": "Wettenberg Hessen"
  },
  {
    "postcode": "35435",
    "city": "Wettenberg"
  },
  {
    "postcode": "35435",
    "city": "Wißmar Hessen"
  },
  {
    "postcode": "35435",
    "city": "Wißmar"
  },
  {
    "postcode": "35435",
    "city": "Gießen"
  },
  {
    "postcode": "35440",
    "city": "Leihgestern"
  },
  {
    "postcode": "35440",
    "city": "Linden Hessen"
  },
  {
    "postcode": "35440",
    "city": "Linden"
  },
  {
    "postcode": "35440",
    "city": "Gießen"
  },
  {
    "postcode": "35440",
    "city": "Großen-Linden"
  },
  {
    "postcode": "35440",
    "city": "Oberhof"
  },
  {
    "postcode": "35444",
    "city": "Biebertal Hessenen"
  },
  {
    "postcode": "35444",
    "city": "Biebertal"
  },
  {
    "postcode": "35444",
    "city": "Fellingshausen Hessen"
  },
  {
    "postcode": "35444",
    "city": "Fellingshausen"
  },
  {
    "postcode": "35444",
    "city": "Frankenbach Kreis Wetzlar"
  },
  {
    "postcode": "35444",
    "city": "Frankenbach"
  },
  {
    "postcode": "35444",
    "city": "Königsberg Kreis Wetzlar"
  },
  {
    "postcode": "35444",
    "city": "Königsberg"
  },
  {
    "postcode": "35444",
    "city": "Krumbach bei Gießen"
  },
  {
    "postcode": "35444",
    "city": "Rodheim-Bieber"
  },
  {
    "postcode": "35444",
    "city": "Vetzberg"
  },
  {
    "postcode": "35444",
    "city": "Gießen"
  },
  {
    "postcode": "35444",
    "city": "Krumbach"
  },
  {
    "postcode": "35447",
    "city": "Bersrod"
  },
  {
    "postcode": "35447",
    "city": "Burkhardsfelden"
  },
  {
    "postcode": "35447",
    "city": "Hattenrod"
  },
  {
    "postcode": "35447",
    "city": "Lindenstruth"
  },
  {
    "postcode": "35447",
    "city": "Reiskirchen"
  },
  {
    "postcode": "35447",
    "city": "Reiskirchen Wieseck"
  },
  {
    "postcode": "35447",
    "city": "Saasen Kreis Gießen"
  },
  {
    "postcode": "35447",
    "city": "Saasen"
  },
  {
    "postcode": "35447",
    "city": "Veitsberg Kreis Gießen"
  },
  {
    "postcode": "35447",
    "city": "Veitsberg"
  },
  {
    "postcode": "35447",
    "city": "Winnerod"
  },
  {
    "postcode": "35447",
    "city": "Wirberg Kreis Gießen"
  },
  {
    "postcode": "35447",
    "city": "Wirberg"
  },
  {
    "postcode": "35447",
    "city": "Gießen"
  },
  {
    "postcode": "35447",
    "city": "Ettingshausen"
  },
  {
    "postcode": "35452",
    "city": "Heuchelheim"
  },
  {
    "postcode": "35452",
    "city": "Heuchelheim Kreis Gießen"
  },
  {
    "postcode": "35452",
    "city": "Kinzenbach"
  },
  {
    "postcode": "35452",
    "city": "Gießen"
  },
  {
    "postcode": "35457",
    "city": "Lollar"
  },
  {
    "postcode": "35457",
    "city": "Odenhausen"
  },
  {
    "postcode": "35457",
    "city": "Ruttershausen"
  },
  {
    "postcode": "35457",
    "city": "Salzböden"
  },
  {
    "postcode": "35457",
    "city": "Gießen"
  },
  {
    "postcode": "35457",
    "city": "Salzböden Schmelz"
  },
  {
    "postcode": "35460",
    "city": "Daubringen"
  },
  {
    "postcode": "35460",
    "city": "Mainzlar"
  },
  {
    "postcode": "35460",
    "city": "Staufenberg"
  },
  {
    "postcode": "35460",
    "city": "Staufenberg Hessen"
  },
  {
    "postcode": "35460",
    "city": "Treis an der Lumda"
  },
  {
    "postcode": "35460",
    "city": "Gießen"
  },
  {
    "postcode": "35460",
    "city": "Treis"
  },
  {
    "postcode": "35463",
    "city": "Albach"
  },
  {
    "postcode": "35463",
    "city": "Annerod"
  },
  {
    "postcode": "35463",
    "city": "Fernwald"
  },
  {
    "postcode": "35463",
    "city": "Steinbach Kreis Gießen"
  },
  {
    "postcode": "35463",
    "city": "Steinbach"
  },
  {
    "postcode": "35463",
    "city": "Gießen"
  },
  {
    "postcode": "35466",
    "city": "Allertshausen Kreis Gießen"
  },
  {
    "postcode": "35466",
    "city": "Allertshausen"
  },
  {
    "postcode": "35466",
    "city": "Geilshausen"
  },
  {
    "postcode": "35466",
    "city": "Kesselbach Kreis Gießen"
  },
  {
    "postcode": "35466",
    "city": "Kesselbach"
  },
  {
    "postcode": "35466",
    "city": "Londorf Kreis Gießen"
  },
  {
    "postcode": "35466",
    "city": "Londorf"
  },
  {
    "postcode": "35466",
    "city": "Odenhausen"
  },
  {
    "postcode": "35466",
    "city": "Rabenau Hessen"
  },
  {
    "postcode": "35466",
    "city": "Rabenau"
  },
  {
    "postcode": "35466",
    "city": "Rüddingshausen"
  },
  {
    "postcode": "35466",
    "city": "Gießen"
  },
  {
    "postcode": "35469",
    "city": "Allendorf"
  },
  {
    "postcode": "35469",
    "city": "Allendorf (Lumda)"
  },
  {
    "postcode": "35469",
    "city": "Climbach Kreis Gießen"
  },
  {
    "postcode": "35469",
    "city": "Climbach"
  },
  {
    "postcode": "35469",
    "city": "Nordeck"
  },
  {
    "postcode": "35469",
    "city": "Winnen"
  },
  {
    "postcode": "35469",
    "city": "Gießen"
  },
  {
    "postcode": "35510",
    "city": "Bodenrod"
  },
  {
    "postcode": "35510",
    "city": "Butzbach"
  },
  {
    "postcode": "35510",
    "city": "Ebersgöns"
  },
  {
    "postcode": "35510",
    "city": "Fauerbach vor der Höhe"
  },
  {
    "postcode": "35510",
    "city": "Griedel"
  },
  {
    "postcode": "35510",
    "city": "Hausen-Oes"
  },
  {
    "postcode": "35510",
    "city": "Hoch-Weisel"
  },
  {
    "postcode": "35510",
    "city": "Maibach Hessen"
  },
  {
    "postcode": "35510",
    "city": "Maibach"
  },
  {
    "postcode": "35510",
    "city": "Münster bei Butzbach"
  },
  {
    "postcode": "35510",
    "city": "Ostheim bei Butzbach"
  },
  {
    "postcode": "35510",
    "city": "Wiesental Hessen"
  },
  {
    "postcode": "35510",
    "city": "Wiesental"
  },
  {
    "postcode": "35510",
    "city": "Wetteraukreis"
  },
  {
    "postcode": "35510",
    "city": "Nieder-Weisel"
  },
  {
    "postcode": "35510",
    "city": "Fauerbach"
  },
  {
    "postcode": "35510",
    "city": "Pohl-Göns"
  },
  {
    "postcode": "35510",
    "city": "Ostheim"
  },
  {
    "postcode": "35510",
    "city": "Kirch-Göns"
  },
  {
    "postcode": "35510",
    "city": "Münster"
  },
  {
    "postcode": "35516",
    "city": "Gambach Hessen"
  },
  {
    "postcode": "35516",
    "city": "Gambach"
  },
  {
    "postcode": "35516",
    "city": "Münzenberg"
  },
  {
    "postcode": "35516",
    "city": "Wetteraukreis"
  },
  {
    "postcode": "35516",
    "city": "Ober-Hörgern"
  },
  {
    "postcode": "35516",
    "city": "Trais"
  },
  {
    "postcode": "35519",
    "city": "Oppershofen Hessen"
  },
  {
    "postcode": "35519",
    "city": "Oppershofen"
  },
  {
    "postcode": "35519",
    "city": "Rockenberg"
  },
  {
    "postcode": "35519",
    "city": "Wetteraukreis"
  },
  {
    "postcode": "35576",
    "city": "Hermannstein"
  },
  {
    "postcode": "35576",
    "city": "Naunheim Kreis Wetzlar"
  },
  {
    "postcode": "35576",
    "city": "Naunheim"
  },
  {
    "postcode": "35576",
    "city": "Wetzlar"
  },
  {
    "postcode": "35576",
    "city": "Lahn-Dill-Kreis"
  },
  {
    "postcode": "35578",
    "city": "Nauborn"
  },
  {
    "postcode": "35578",
    "city": "Steindorf Kreis Wetzlar"
  },
  {
    "postcode": "35578",
    "city": "Steindorf"
  },
  {
    "postcode": "35578",
    "city": "Wetzlar"
  },
  {
    "postcode": "35578",
    "city": "Lahn-Dill-Kreis"
  },
  {
    "postcode": "35579",
    "city": "Steindorf Kreis Wetzlar"
  },
  {
    "postcode": "35579",
    "city": "Steindorf"
  },
  {
    "postcode": "35579",
    "city": "Wetzlar"
  },
  {
    "postcode": "35579",
    "city": "Lahn-Dill-Kreis"
  },
  {
    "postcode": "35580",
    "city": "Nauborn"
  },
  {
    "postcode": "35580",
    "city": "Wetzlar"
  },
  {
    "postcode": "35580",
    "city": "Lahn-Dill-Kreis"
  },
  {
    "postcode": "35580",
    "city": "Gemeinde Hüttenberg"
  },
  {
    "postcode": "35581",
    "city": "Münchholzhausen"
  },
  {
    "postcode": "35581",
    "city": "Wetzlar"
  },
  {
    "postcode": "35581",
    "city": "Lahn-Dill-Kreis"
  },
  {
    "postcode": "35582",
    "city": "Dutenhofen Kreis Wetzlar"
  },
  {
    "postcode": "35582",
    "city": "Dutenhofen"
  },
  {
    "postcode": "35582",
    "city": "Wetzlar"
  },
  {
    "postcode": "35582",
    "city": "Lahn-Dill-Kreis"
  },
  {
    "postcode": "35583",
    "city": "Garbenheim"
  },
  {
    "postcode": "35583",
    "city": "Wetzlar"
  },
  {
    "postcode": "35583",
    "city": "Lahn-Dill-Kreis"
  },
  {
    "postcode": "35584",
    "city": "Naunheim Kreis Wetzlar"
  },
  {
    "postcode": "35584",
    "city": "Naunheim"
  },
  {
    "postcode": "35584",
    "city": "Wetzlar"
  },
  {
    "postcode": "35584",
    "city": "Lahn-Dill-Kreis"
  },
  {
    "postcode": "35585",
    "city": "Blasbach"
  },
  {
    "postcode": "35585",
    "city": "Wetzlar"
  },
  {
    "postcode": "35585",
    "city": "Lahn-Dill-Kreis"
  },
  {
    "postcode": "35586",
    "city": "Hermannstein"
  },
  {
    "postcode": "35586",
    "city": "Wetzlar"
  },
  {
    "postcode": "35586",
    "city": "Lahn-Dill-Kreis"
  },
  {
    "postcode": "35606",
    "city": "Albshausen Kreis Wetzlar"
  },
  {
    "postcode": "35606",
    "city": "Albshausen"
  },
  {
    "postcode": "35606",
    "city": "Burgsolms"
  },
  {
    "postcode": "35606",
    "city": "Niederbiel"
  },
  {
    "postcode": "35606",
    "city": "Oberbiel"
  },
  {
    "postcode": "35606",
    "city": "Oberndorf Kreis Wetzlar"
  },
  {
    "postcode": "35606",
    "city": "Oberndorf"
  },
  {
    "postcode": "35606",
    "city": "Solms Lahn"
  },
  {
    "postcode": "35606",
    "city": "Solms"
  },
  {
    "postcode": "35606",
    "city": "Lahn-Dill-Kreis"
  },
  {
    "postcode": "35614",
    "city": "Aßlar"
  },
  {
    "postcode": "35614",
    "city": "Bechlingen"
  },
  {
    "postcode": "35614",
    "city": "Berghausen Kreis Wetzlar"
  },
  {
    "postcode": "35614",
    "city": "Berghausen"
  },
  {
    "postcode": "35614",
    "city": "Bermoll"
  },
  {
    "postcode": "35614",
    "city": "Oberlemp"
  },
  {
    "postcode": "35614",
    "city": "Werdorf"
  },
  {
    "postcode": "35614",
    "city": "Lahn-Dill-Kreis"
  },
  {
    "postcode": "35619",
    "city": "Altenkirchen Oberlahnkreis"
  },
  {
    "postcode": "35619",
    "city": "Altenkirchen"
  },
  {
    "postcode": "35619",
    "city": "Bonbaden"
  },
  {
    "postcode": "35619",
    "city": "Braunfels"
  },
  {
    "postcode": "35619",
    "city": "Neukirchen Kreis Wetzlar"
  },
  {
    "postcode": "35619",
    "city": "Neukirchen"
  },
  {
    "postcode": "35619",
    "city": "Philippstein Oberlahnkreis"
  },
  {
    "postcode": "35619",
    "city": "Philippstein"
  },
  {
    "postcode": "35619",
    "city": "Tiefenbach Kreis Wetzlar"
  },
  {
    "postcode": "35619",
    "city": "Tiefenbach"
  },
  {
    "postcode": "35619",
    "city": "Lahn-Dill-Kreis"
  },
  {
    "postcode": "35625",
    "city": "Hochelheim"
  },
  {
    "postcode": "35625",
    "city": "Hörnsheim"
  },
  {
    "postcode": "35625",
    "city": "Hüttenberg Hessen"
  },
  {
    "postcode": "35625",
    "city": "Hüttenberg"
  },
  {
    "postcode": "35625",
    "city": "Reiskirchen Kreis Wetzlar"
  },
  {
    "postcode": "35625",
    "city": "Reiskirchen"
  },
  {
    "postcode": "35625",
    "city": "Vollnkirchen"
  },
  {
    "postcode": "35625",
    "city": "Volpertshausen"
  },
  {
    "postcode": "35625",
    "city": "Weidenhausen Kreis Wetzlar"
  },
  {
    "postcode": "35625",
    "city": "Weidenhausen"
  },
  {
    "postcode": "35625",
    "city": "Lahn-Dill-Kreis"
  },
  {
    "postcode": "35625",
    "city": "Rechtenbach"
  },
  {
    "postcode": "35630",
    "city": "Breitenbach Kreis Wetzlar"
  },
  {
    "postcode": "35630",
    "city": "Breitenbach"
  },
  {
    "postcode": "35630",
    "city": "Daubhausen"
  },
  {
    "postcode": "35630",
    "city": "Dillheim Kreis Wetzlar"
  },
  {
    "postcode": "35630",
    "city": "Dillheim"
  },
  {
    "postcode": "35630",
    "city": "Dreisbach Kreis Wetzlar"
  },
  {
    "postcode": "35630",
    "city": "Dreisbach"
  },
  {
    "postcode": "35630",
    "city": "Ehringshausen"
  },
  {
    "postcode": "35630",
    "city": "Ehringshausen Dill"
  },
  {
    "postcode": "35630",
    "city": "Greifenthal"
  },
  {
    "postcode": "35630",
    "city": "Katzenfurt"
  },
  {
    "postcode": "35630",
    "city": "Kölschhausen"
  },
  {
    "postcode": "35630",
    "city": "Niederlemp"
  },
  {
    "postcode": "35630",
    "city": "Lahn-Dill-Kreis"
  },
  {
    "postcode": "35630",
    "city": "Heinrichsegen"
  },
  {
    "postcode": "35633",
    "city": "Atzbach Hessen"
  },
  {
    "postcode": "35633",
    "city": "Atzbach"
  },
  {
    "postcode": "35633",
    "city": "Dorlar bei Gießen"
  },
  {
    "postcode": "35633",
    "city": "Lahnau"
  },
  {
    "postcode": "35633",
    "city": "Waldgirmes"
  },
  {
    "postcode": "35633",
    "city": "Lahn-Dill-Kreis"
  },
  {
    "postcode": "35633",
    "city": "Dorlar"
  },
  {
    "postcode": "35638",
    "city": "Biskirchen Kreis Wetzlar"
  },
  {
    "postcode": "35638",
    "city": "Biskirchen"
  },
  {
    "postcode": "35638",
    "city": "Bissenberg"
  },
  {
    "postcode": "35638",
    "city": "Leun"
  },
  {
    "postcode": "35638",
    "city": "Leun Lahn"
  },
  {
    "postcode": "35638",
    "city": "Stockhausen Kreis Wetzlar"
  },
  {
    "postcode": "35638",
    "city": "Stockhausen"
  },
  {
    "postcode": "35638",
    "city": "Lahn-Dill-Kreis"
  },
  {
    "postcode": "35638",
    "city": "Lahnbahnhof"
  },
  {
    "postcode": "35638",
    "city": "Stadt Braunfels"
  },
  {
    "postcode": "35641",
    "city": "Laufdorf"
  },
  {
    "postcode": "35641",
    "city": "Niederquembach"
  },
  {
    "postcode": "35641",
    "city": "Niederwetz"
  },
  {
    "postcode": "35641",
    "city": "Oberquembach"
  },
  {
    "postcode": "35641",
    "city": "Oberwetz"
  },
  {
    "postcode": "35641",
    "city": "Schöffengrund"
  },
  {
    "postcode": "35641",
    "city": "Schwalbach Kreis Wetzlar"
  },
  {
    "postcode": "35641",
    "city": "Schwalbach"
  },
  {
    "postcode": "35641",
    "city": "Lahn-Dill-Kreis"
  },
  {
    "postcode": "35644",
    "city": "Ahrdt"
  },
  {
    "postcode": "35644",
    "city": "Altenkirchen Kreis Wetzlar"
  },
  {
    "postcode": "35644",
    "city": "Altenkirchen"
  },
  {
    "postcode": "35644",
    "city": "Erda"
  },
  {
    "postcode": "35644",
    "city": "Großaltenstädten"
  },
  {
    "postcode": "35644",
    "city": "Hohenahr"
  },
  {
    "postcode": "35644",
    "city": "Hohensolms"
  },
  {
    "postcode": "35644",
    "city": "Mudersbach Kreis Wetzlar"
  },
  {
    "postcode": "35644",
    "city": "Mudersbach"
  },
  {
    "postcode": "35644",
    "city": "Lahn-Dill-Kreis"
  },
  {
    "postcode": "35647",
    "city": "Brandoberndorf"
  },
  {
    "postcode": "35647",
    "city": "Griedelbach"
  },
  {
    "postcode": "35647",
    "city": "Hasselborn"
  },
  {
    "postcode": "35647",
    "city": "Kraftsolms"
  },
  {
    "postcode": "35647",
    "city": "Kröffelbach"
  },
  {
    "postcode": "35647",
    "city": "Waldsolms"
  },
  {
    "postcode": "35647",
    "city": "Weiperfelden"
  },
  {
    "postcode": "35647",
    "city": "Lahn-Dill-Kreis"
  },
  {
    "postcode": "35649",
    "city": "Bischoffen"
  },
  {
    "postcode": "35649",
    "city": "Niederweidbach"
  },
  {
    "postcode": "35649",
    "city": "Oberweidbach"
  },
  {
    "postcode": "35649",
    "city": "Roßbach bei Niederweidbach"
  },
  {
    "postcode": "35649",
    "city": "Wilsbach"
  },
  {
    "postcode": "35649",
    "city": "Lahn-Dill-Kreis"
  },
  {
    "postcode": "35649",
    "city": "Roßbach"
  },
  {
    "postcode": "35683",
    "city": "Dillenburg"
  },
  {
    "postcode": "35683",
    "city": "Lahn-Dill-Kreis"
  },
  {
    "postcode": "35684",
    "city": "Dillenburg"
  },
  {
    "postcode": "35684",
    "city": "Frohnhausen Dillkreis"
  },
  {
    "postcode": "35684",
    "city": "Frohnhausen"
  },
  {
    "postcode": "35684",
    "city": "Lahn-Dill-Kreis"
  },
  {
    "postcode": "35685",
    "city": "Dillenburg"
  },
  {
    "postcode": "35685",
    "city": "Manderbach"
  },
  {
    "postcode": "35685",
    "city": "Lahn-Dill-Kreis"
  },
  {
    "postcode": "35686",
    "city": "Dillenburg"
  },
  {
    "postcode": "35686",
    "city": "Donsbach"
  },
  {
    "postcode": "35686",
    "city": "Lahn-Dill-Kreis"
  },
  {
    "postcode": "35687",
    "city": "Dillenburg"
  },
  {
    "postcode": "35687",
    "city": "Niederscheld Dillkreis"
  },
  {
    "postcode": "35687",
    "city": "Niederscheld"
  },
  {
    "postcode": "35687",
    "city": "Lahn-Dill-Kreis"
  },
  {
    "postcode": "35688",
    "city": "Dillenburg"
  },
  {
    "postcode": "35688",
    "city": "Oberscheld Dillkreis"
  },
  {
    "postcode": "35688",
    "city": "Oberscheld"
  },
  {
    "postcode": "35688",
    "city": "Lahn-Dill-Kreis"
  },
  {
    "postcode": "35689",
    "city": "Dillenburg"
  },
  {
    "postcode": "35689",
    "city": "Eibach Dillkreis"
  },
  {
    "postcode": "35689",
    "city": "Eibach"
  },
  {
    "postcode": "35689",
    "city": "Lahn-Dill-Kreis"
  },
  {
    "postcode": "35690",
    "city": "Dillenburg"
  },
  {
    "postcode": "35690",
    "city": "Nanzenbach"
  },
  {
    "postcode": "35690",
    "city": "Lahn-Dill-Kreis"
  },
  {
    "postcode": "35708",
    "city": "Allendorf Dillkreis"
  },
  {
    "postcode": "35708",
    "city": "Allendorf"
  },
  {
    "postcode": "35708",
    "city": "Dillbrecht"
  },
  {
    "postcode": "35708",
    "city": "Fellerdilln"
  },
  {
    "postcode": "35708",
    "city": "Flammersbach Dillkreis"
  },
  {
    "postcode": "35708",
    "city": "Flammersbach"
  },
  {
    "postcode": "35708",
    "city": "Haiger"
  },
  {
    "postcode": "35708",
    "city": "Langenaubach"
  },
  {
    "postcode": "35708",
    "city": "Offdilln"
  },
  {
    "postcode": "35708",
    "city": "Rodenbach Dillkreis"
  },
  {
    "postcode": "35708",
    "city": "Rodenbach"
  },
  {
    "postcode": "35708",
    "city": "Sechshelden"
  },
  {
    "postcode": "35708",
    "city": "Steinbach Dillkreis"
  },
  {
    "postcode": "35708",
    "city": "Steinbach"
  },
  {
    "postcode": "35708",
    "city": "Weidelbach Dillkreis"
  },
  {
    "postcode": "35708",
    "city": "Weidelbach"
  },
  {
    "postcode": "35708",
    "city": "Lahn-Dill-Kreis"
  },
  {
    "postcode": "35708",
    "city": "Seelbach"
  },
  {
    "postcode": "35708",
    "city": "Niederroßbach"
  },
  {
    "postcode": "35708",
    "city": "Oberroßbach"
  },
  {
    "postcode": "35708",
    "city": "Kalteiche"
  },
  {
    "postcode": "35713",
    "city": "Eibelshausen"
  },
  {
    "postcode": "35713",
    "city": "Eiershausen"
  },
  {
    "postcode": "35713",
    "city": "Eschenburg"
  },
  {
    "postcode": "35713",
    "city": "Roth bei Dillenburg"
  },
  {
    "postcode": "35713",
    "city": "Simmersbach bei Dillenburg"
  },
  {
    "postcode": "35713",
    "city": "Wissenbach Dillkreis"
  },
  {
    "postcode": "35713",
    "city": "Wissenbach"
  },
  {
    "postcode": "35713",
    "city": "Lahn-Dill-Kreis"
  },
  {
    "postcode": "35713",
    "city": "Roth"
  },
  {
    "postcode": "35713",
    "city": "Simmersbach"
  },
  {
    "postcode": "35713",
    "city": "Hirzenhain-Ort"
  },
  {
    "postcode": "35713",
    "city": "Hirzenhain-Bahnhof"
  },
  {
    "postcode": "35716",
    "city": "Dietzhölztal"
  },
  {
    "postcode": "35716",
    "city": "Ewersbach Dillkreis"
  },
  {
    "postcode": "35716",
    "city": "Ewersbach"
  },
  {
    "postcode": "35716",
    "city": "Mandeln Dillkreis"
  },
  {
    "postcode": "35716",
    "city": "Mandeln"
  },
  {
    "postcode": "35716",
    "city": "Rittershausen Dillkreis"
  },
  {
    "postcode": "35716",
    "city": "Rittershausen"
  },
  {
    "postcode": "35716",
    "city": "Steinbrücken Dillkreis"
  },
  {
    "postcode": "35716",
    "city": "Steinbrücken"
  },
  {
    "postcode": "35716",
    "city": "Lahn-Dill-Kreis"
  },
  {
    "postcode": "35719",
    "city": "Angelburg Hessen"
  },
  {
    "postcode": "35719",
    "city": "Angelburg"
  },
  {
    "postcode": "35719",
    "city": "Frechenhausen"
  },
  {
    "postcode": "35719",
    "city": "Gönnern"
  },
  {
    "postcode": "35719",
    "city": "Lixfeld"
  },
  {
    "postcode": "35719",
    "city": "Marburg-Biedenkopf"
  },
  {
    "postcode": "35745",
    "city": "Amdorf Dillkreis"
  },
  {
    "postcode": "35745",
    "city": "Amdorf"
  },
  {
    "postcode": "35745",
    "city": "Burg Dillkreis"
  },
  {
    "postcode": "35745",
    "city": "Burg"
  },
  {
    "postcode": "35745",
    "city": "Guntersdorf Dillkreis"
  },
  {
    "postcode": "35745",
    "city": "Guntersdorf"
  },
  {
    "postcode": "35745",
    "city": "Herborn"
  },
  {
    "postcode": "35745",
    "city": "Herborn Hessen"
  },
  {
    "postcode": "35745",
    "city": "Hirschberg Dillkreis"
  },
  {
    "postcode": "35745",
    "city": "Hirschberg"
  },
  {
    "postcode": "35745",
    "city": "Hörbach Dillkreis"
  },
  {
    "postcode": "35745",
    "city": "Hörbach"
  },
  {
    "postcode": "35745",
    "city": "Merkenbach"
  },
  {
    "postcode": "35745",
    "city": "Schönbach Dillkreis"
  },
  {
    "postcode": "35745",
    "city": "Schönbach"
  },
  {
    "postcode": "35745",
    "city": "Uckersdorf Dillkreis"
  },
  {
    "postcode": "35745",
    "city": "Uckersdorf"
  },
  {
    "postcode": "35745",
    "city": "Lahn-Dill-Kreis"
  },
  {
    "postcode": "35745",
    "city": "Seelbach"
  },
  {
    "postcode": "35745",
    "city": "Stadt Dillenburg"
  },
  {
    "postcode": "35753",
    "city": "Allendorf"
  },
  {
    "postcode": "35753",
    "city": "Arborn"
  },
  {
    "postcode": "35753",
    "city": "Greifenstein"
  },
  {
    "postcode": "35753",
    "city": "Greifenstein Hessen"
  },
  {
    "postcode": "35753",
    "city": "Holzhausen Kreis Wetzlar"
  },
  {
    "postcode": "35753",
    "city": "Holzhausen"
  },
  {
    "postcode": "35753",
    "city": "Nenderoth Dillkreis"
  },
  {
    "postcode": "35753",
    "city": "Nenderoth"
  },
  {
    "postcode": "35753",
    "city": "Odersberg"
  },
  {
    "postcode": "35753",
    "city": "Rodenberg Dillkreis"
  },
  {
    "postcode": "35753",
    "city": "Rodenberg"
  },
  {
    "postcode": "35753",
    "city": "Rodenroth"
  },
  {
    "postcode": "35753",
    "city": "Ulm Kreis Wetzlar"
  },
  {
    "postcode": "35753",
    "city": "Ulm"
  },
  {
    "postcode": "35753",
    "city": "Lahn-Dill-Kreis"
  },
  {
    "postcode": "35753",
    "city": "Beilstein"
  },
  {
    "postcode": "35756",
    "city": "Ballersbach"
  },
  {
    "postcode": "35756",
    "city": "Bellersdorf"
  },
  {
    "postcode": "35756",
    "city": "Mittenaar"
  },
  {
    "postcode": "35756",
    "city": "Offenbach Dillkreis"
  },
  {
    "postcode": "35756",
    "city": "Offenbach"
  },
  {
    "postcode": "35756",
    "city": "Lahn-Dill-Kreis"
  },
  {
    "postcode": "35756",
    "city": "Bicken"
  },
  {
    "postcode": "35759",
    "city": "Driedorf"
  },
  {
    "postcode": "35759",
    "city": "Heiligenborn Dillkreis"
  },
  {
    "postcode": "35759",
    "city": "Heiligenborn"
  },
  {
    "postcode": "35759",
    "city": "Heisterberg Dillkreis"
  },
  {
    "postcode": "35759",
    "city": "Heisterberg"
  },
  {
    "postcode": "35759",
    "city": "Hohenroth Dillkreis"
  },
  {
    "postcode": "35759",
    "city": "Hohenroth"
  },
  {
    "postcode": "35759",
    "city": "Mademühlen"
  },
  {
    "postcode": "35759",
    "city": "Münchhausen Dillkreis"
  },
  {
    "postcode": "35759",
    "city": "Münchhausen"
  },
  {
    "postcode": "35759",
    "city": "Roth Dillkreis"
  },
  {
    "postcode": "35759",
    "city": "Roth"
  },
  {
    "postcode": "35759",
    "city": "Seilhofen"
  },
  {
    "postcode": "35759",
    "city": "Waldaubach"
  },
  {
    "postcode": "35759",
    "city": "Lahn-Dill-Kreis"
  },
  {
    "postcode": "35764",
    "city": "Edingen Hessen"
  },
  {
    "postcode": "35764",
    "city": "Edingen"
  },
  {
    "postcode": "35764",
    "city": "Fleisbach"
  },
  {
    "postcode": "35764",
    "city": "Sinn"
  },
  {
    "postcode": "35764",
    "city": "Sinn Hessen"
  },
  {
    "postcode": "35764",
    "city": "Lahn-Dill-Kreis"
  },
  {
    "postcode": "35767",
    "city": "Breitscheid"
  },
  {
    "postcode": "35767",
    "city": "Breitscheid Hessen"
  },
  {
    "postcode": "35767",
    "city": "Erdbach Dillkreis"
  },
  {
    "postcode": "35767",
    "city": "Erdbach"
  },
  {
    "postcode": "35767",
    "city": "Gusternhain"
  },
  {
    "postcode": "35767",
    "city": "Medenbach Dillkreis"
  },
  {
    "postcode": "35767",
    "city": "Medenbach"
  },
  {
    "postcode": "35767",
    "city": "Rabenscheid"
  },
  {
    "postcode": "35767",
    "city": "Lahn-Dill-Kreis"
  },
  {
    "postcode": "35768",
    "city": "Eisemroth"
  },
  {
    "postcode": "35768",
    "city": "Oberndorf Dillkreis"
  },
  {
    "postcode": "35768",
    "city": "Oberndorf"
  },
  {
    "postcode": "35768",
    "city": "Siegbach"
  },
  {
    "postcode": "35768",
    "city": "Tringenstein"
  },
  {
    "postcode": "35768",
    "city": "Übernthal"
  },
  {
    "postcode": "35768",
    "city": "Wallenfels Dillkreis"
  },
  {
    "postcode": "35768",
    "city": "Wallenfels"
  },
  {
    "postcode": "35768",
    "city": "Lahn-Dill-Kreis"
  },
  {
    "postcode": "35781",
    "city": "Ahausen Oberlahnkreis"
  },
  {
    "postcode": "35781",
    "city": "Ahausen"
  },
  {
    "postcode": "35781",
    "city": "Bermbach Oberlahnkreis"
  },
  {
    "postcode": "35781",
    "city": "Bermbach"
  },
  {
    "postcode": "35781",
    "city": "Drommershausen"
  },
  {
    "postcode": "35781",
    "city": "Gaudernbach"
  },
  {
    "postcode": "35781",
    "city": "Hasselbach Oberlahnkreis"
  },
  {
    "postcode": "35781",
    "city": "Hasselbach"
  },
  {
    "postcode": "35781",
    "city": "Hirschhausen Oberlahnkreis"
  },
  {
    "postcode": "35781",
    "city": "Hirschhausen"
  },
  {
    "postcode": "35781",
    "city": "Kirschhofen Oberlahnkreis"
  },
  {
    "postcode": "35781",
    "city": "Kirschhofen"
  },
  {
    "postcode": "35781",
    "city": "Kubach"
  },
  {
    "postcode": "35781",
    "city": "Odersbach"
  },
  {
    "postcode": "35781",
    "city": "Waldhausen Oberlahnkreis"
  },
  {
    "postcode": "35781",
    "city": "Waldhausen"
  },
  {
    "postcode": "35781",
    "city": "Weilburg"
  },
  {
    "postcode": "35781",
    "city": "Limburg-Weilburg"
  },
  {
    "postcode": "35789",
    "city": "Aulenhausen"
  },
  {
    "postcode": "35789",
    "city": "Dietenhausen Oberlahnkreis"
  },
  {
    "postcode": "35789",
    "city": "Dietenhausen"
  },
  {
    "postcode": "35789",
    "city": "Ernsthausen Oberlahnkreis"
  },
  {
    "postcode": "35789",
    "city": "Ernsthausen"
  },
  {
    "postcode": "35789",
    "city": "Essershausen"
  },
  {
    "postcode": "35789",
    "city": "Laimbach Oberlahnkreis"
  },
  {
    "postcode": "35789",
    "city": "Laimbach"
  },
  {
    "postcode": "35789",
    "city": "Langenbach Oberlahnkreis"
  },
  {
    "postcode": "35789",
    "city": "Langenbach"
  },
  {
    "postcode": "35789",
    "city": "Laubuseschbach"
  },
  {
    "postcode": "35789",
    "city": "Lützendorf"
  },
  {
    "postcode": "35789",
    "city": "Möttau"
  },
  {
    "postcode": "35789",
    "city": "Rohnstadt"
  },
  {
    "postcode": "35789",
    "city": "Weilmünster"
  },
  {
    "postcode": "35789",
    "city": "Wolfenhausen Oberlahnkreis"
  },
  {
    "postcode": "35789",
    "city": "Wolfenhausen"
  },
  {
    "postcode": "35789",
    "city": "Limburg-Weilburg"
  },
  {
    "postcode": "35792",
    "city": "Löhnberg"
  },
  {
    "postcode": "35792",
    "city": "Niedershausen"
  },
  {
    "postcode": "35792",
    "city": "Obershausen"
  },
  {
    "postcode": "35792",
    "city": "Selters Oberlahnkreis"
  },
  {
    "postcode": "35792",
    "city": "Selters"
  },
  {
    "postcode": "35792",
    "city": "Limburg-Weilburg"
  },
  {
    "postcode": "35792",
    "city": "Stadt Weilburg"
  },
  {
    "postcode": "35794",
    "city": "Dillhausen"
  },
  {
    "postcode": "35794",
    "city": "Mengerskirchen"
  },
  {
    "postcode": "35794",
    "city": "Probbach"
  },
  {
    "postcode": "35794",
    "city": "Waldernbach"
  },
  {
    "postcode": "35794",
    "city": "Winkels Oberlahnkreis"
  },
  {
    "postcode": "35794",
    "city": "Winkels"
  },
  {
    "postcode": "35794",
    "city": "Limburg-Weilburg"
  },
  {
    "postcode": "35796",
    "city": "Blessenbach"
  },
  {
    "postcode": "35796",
    "city": "Edelsberg"
  },
  {
    "postcode": "35796",
    "city": "Elkerhausen Oberlahnkreis"
  },
  {
    "postcode": "35796",
    "city": "Elkerhausen"
  },
  {
    "postcode": "35796",
    "city": "Freienfels Oberlahnkreis"
  },
  {
    "postcode": "35796",
    "city": "Freienfels"
  },
  {
    "postcode": "35796",
    "city": "Fürfurt Oberlahnkreis"
  },
  {
    "postcode": "35796",
    "city": "Fürfurt"
  },
  {
    "postcode": "35796",
    "city": "Gräveneck Lahn"
  },
  {
    "postcode": "35796",
    "city": "Gräveneck"
  },
  {
    "postcode": "35796",
    "city": "Weinbach"
  },
  {
    "postcode": "35796",
    "city": "Limburg-Weilburg"
  },
  {
    "postcode": "35799",
    "city": "Allendorf bei Weilburg"
  },
  {
    "postcode": "35799",
    "city": "Barig-Selbenhausen"
  },
  {
    "postcode": "35799",
    "city": "Merenberg"
  },
  {
    "postcode": "35799",
    "city": "Reichenborn"
  },
  {
    "postcode": "35799",
    "city": "Rückershausen Oberlahnkreis"
  },
  {
    "postcode": "35799",
    "city": "Rückershausen"
  },
  {
    "postcode": "35799",
    "city": "Limburg-Weilburg"
  },
  {
    "postcode": "35799",
    "city": "Allendorf"
  }
]