[
  {
    "postcode": "4509",
    "city": "Delitzsch"
  },
  {
    "postcode": "4509",
    "city": "Döbernitz"
  },
  {
    "postcode": "4509",
    "city": "Krostitz"
  },
  {
    "postcode": "4509",
    "city": "Löbnitz bei Delitzsch"
  },
  {
    "postcode": "4509",
    "city": "Neukyhna"
  },
  {
    "postcode": "4509",
    "city": "Rackwitz"
  },
  {
    "postcode": "4509",
    "city": "Schönwölkau"
  },
  {
    "postcode": "4509",
    "city": "Wiedemar"
  },
  {
    "postcode": "4509",
    "city": "Zschortau"
  },
  {
    "postcode": "4509",
    "city": "Zwochau bei Delitzsch"
  },
  {
    "postcode": "4509",
    "city": "Nordsachsen"
  },
  {
    "postcode": "4509",
    "city": "Löbnitz"
  },
  {
    "postcode": "4509",
    "city": "Rödgen"
  },
  {
    "postcode": "4509",
    "city": "Spröda"
  },
  {
    "postcode": "4509",
    "city": "Schenkenberg"
  },
  {
    "postcode": "4509",
    "city": "Zschepen"
  },
  {
    "postcode": "4509",
    "city": "Kertitz"
  },
  {
    "postcode": "4509",
    "city": "Benndorf"
  },
  {
    "postcode": "4509",
    "city": "Brodau"
  },
  {
    "postcode": "4509",
    "city": "Beerendorf"
  },
  {
    "postcode": "4509",
    "city": "Storkwitz"
  },
  {
    "postcode": "4509",
    "city": "Selben"
  },
  {
    "postcode": "4509",
    "city": "Laue"
  },
  {
    "postcode": "4509",
    "city": "Beerendorf-Ost"
  },
  {
    "postcode": "4509",
    "city": "Werben"
  },
  {
    "postcode": "4509",
    "city": "Poßdorf"
  },
  {
    "postcode": "4509",
    "city": "Priester"
  },
  {
    "postcode": "4509",
    "city": "Kletzen"
  },
  {
    "postcode": "4509",
    "city": "Zschölkau"
  },
  {
    "postcode": "4509",
    "city": "Krensitz"
  },
  {
    "postcode": "4509",
    "city": "Niederossig"
  },
  {
    "postcode": "4509",
    "city": "Kupsal"
  },
  {
    "postcode": "4509",
    "city": "Hohenossig"
  },
  {
    "postcode": "4509",
    "city": "Pröttitz"
  },
  {
    "postcode": "4509",
    "city": "Beuden"
  },
  {
    "postcode": "4509",
    "city": "Mutschlena"
  },
  {
    "postcode": "4509",
    "city": "Lehelitz"
  },
  {
    "postcode": "4509",
    "city": "Roitzschjora"
  },
  {
    "postcode": "4509",
    "city": "Reibitz"
  },
  {
    "postcode": "4509",
    "city": "Sausedlitz"
  },
  {
    "postcode": "4509",
    "city": "Hohenroda"
  },
  {
    "postcode": "4509",
    "city": "Mocherwitz"
  },
  {
    "postcode": "4509",
    "city": "Lindenhayn"
  },
  {
    "postcode": "4509",
    "city": "Wölkau"
  },
  {
    "postcode": "4509",
    "city": "Gollmenz"
  },
  {
    "postcode": "4509",
    "city": "Brinnis"
  },
  {
    "postcode": "4509",
    "city": "Badrina"
  },
  {
    "postcode": "4509",
    "city": "Scholitz"
  },
  {
    "postcode": "4509",
    "city": "Göritz"
  },
  {
    "postcode": "4509",
    "city": "Luckowehna"
  },
  {
    "postcode": "4509",
    "city": "Boyda"
  },
  {
    "postcode": "4509",
    "city": "Wannewitz"
  },
  {
    "postcode": "4509",
    "city": "Peterwitz"
  },
  {
    "postcode": "4509",
    "city": "Zaasch"
  },
  {
    "postcode": "4509",
    "city": "Lissa"
  },
  {
    "postcode": "4509",
    "city": "Kölsa"
  },
  {
    "postcode": "4509",
    "city": "Kyhna"
  },
  {
    "postcode": "4509",
    "city": "Klitschmar"
  },
  {
    "postcode": "4509",
    "city": "Pohritzsch"
  },
  {
    "postcode": "4509",
    "city": "Wiesenena"
  },
  {
    "postcode": "4509",
    "city": "Zschernitz"
  },
  {
    "postcode": "4509",
    "city": "Zwochau"
  },
  {
    "postcode": "4509",
    "city": "Serbitz"
  },
  {
    "postcode": "4509",
    "city": "Grebehna"
  },
  {
    "postcode": "4509",
    "city": "Doberstau"
  },
  {
    "postcode": "4509",
    "city": "Quering"
  },
  {
    "postcode": "4509",
    "city": "Rabutz"
  },
  {
    "postcode": "4509",
    "city": "Werlitzsch"
  },
  {
    "postcode": "4519",
    "city": "Rackwitz"
  },
  {
    "postcode": "4519",
    "city": "Zschortau"
  },
  {
    "postcode": "4519",
    "city": "Nordsachsen"
  },
  {
    "postcode": "4519",
    "city": "Lemsel"
  },
  {
    "postcode": "4519",
    "city": "Brodenaundorf"
  },
  {
    "postcode": "4519",
    "city": "Podelwitz"
  },
  {
    "postcode": "4519",
    "city": "Biesen"
  },
  {
    "postcode": "4519",
    "city": "Kreuma"
  },
  {
    "postcode": "4523",
    "city": "Elstertrebnitz"
  },
  {
    "postcode": "4523",
    "city": "Pegau"
  },
  {
    "postcode": "4523",
    "city": "Leipzig"
  },
  {
    "postcode": "4523",
    "city": "Eisdorf"
  },
  {
    "postcode": "4523",
    "city": "Peißen"
  },
  {
    "postcode": "4523",
    "city": "Wiederau"
  },
  {
    "postcode": "4523",
    "city": "Sittel"
  },
  {
    "postcode": "4523",
    "city": "Weideroda"
  },
  {
    "postcode": "4523",
    "city": "Seegel"
  },
  {
    "postcode": "4523",
    "city": "Kitzen"
  },
  {
    "postcode": "4523",
    "city": "Thesau"
  },
  {
    "postcode": "4523",
    "city": "Scheidens"
  },
  {
    "postcode": "4523",
    "city": "Großschkorlopp"
  },
  {
    "postcode": "4523",
    "city": "Kleinschkorlopp"
  },
  {
    "postcode": "4523",
    "city": "Großstorkwitz"
  },
  {
    "postcode": "4523",
    "city": "Löben"
  },
  {
    "postcode": "4523",
    "city": "Werben"
  },
  {
    "postcode": "4539",
    "city": "Groitzsch bei Pegau"
  },
  {
    "postcode": "4539",
    "city": "Leipzig"
  },
  {
    "postcode": "4539",
    "city": "Groitzsch"
  },
  {
    "postcode": "4539",
    "city": "Brösen"
  },
  {
    "postcode": "4539",
    "city": "Wischstauden"
  },
  {
    "postcode": "4539",
    "city": "Großpriesligk"
  },
  {
    "postcode": "4539",
    "city": "Pödelwitz"
  },
  {
    "postcode": "4539",
    "city": "Audigast"
  },
  {
    "postcode": "4539",
    "city": "Auligk"
  },
  {
    "postcode": "4539",
    "city": "Berndorf"
  },
  {
    "postcode": "4539",
    "city": "Cöllnitz"
  },
  {
    "postcode": "4539",
    "city": "Droßkau"
  },
  {
    "postcode": "4539",
    "city": "Gatzen"
  },
  {
    "postcode": "4539",
    "city": "Großstolpen"
  },
  {
    "postcode": "4539",
    "city": "Hemmendorf"
  },
  {
    "postcode": "4539",
    "city": "Hohendorf"
  },
  {
    "postcode": "4539",
    "city": "Kleinhermsdorf"
  },
  {
    "postcode": "4539",
    "city": "Kleinprießligk"
  },
  {
    "postcode": "4539",
    "city": "Kobschütz"
  },
  {
    "postcode": "4539",
    "city": "Löbnitz-Bennewitz"
  },
  {
    "postcode": "4539",
    "city": "Langenhain"
  },
  {
    "postcode": "4539",
    "city": "Maltitz"
  },
  {
    "postcode": "4539",
    "city": "Methewitz"
  },
  {
    "postcode": "4539",
    "city": "Michelwitz"
  },
  {
    "postcode": "4539",
    "city": "Nöthnitz"
  },
  {
    "postcode": "4539",
    "city": "Nehmitz"
  },
  {
    "postcode": "4539",
    "city": "Obertitz"
  },
  {
    "postcode": "4539",
    "city": "Pautzsch"
  },
  {
    "postcode": "4539",
    "city": "Oellschütz"
  },
  {
    "postcode": "4539",
    "city": "Saasdorf"
  },
  {
    "postcode": "4539",
    "city": "Altengroitzsch"
  },
  {
    "postcode": "4539",
    "city": "Schnaudertrebnitz"
  },
  {
    "postcode": "4552",
    "city": "Borna bei Leipzig"
  },
  {
    "postcode": "4552",
    "city": "Lobstädt"
  },
  {
    "postcode": "4552",
    "city": "Wyhratal"
  },
  {
    "postcode": "4552",
    "city": "Leipzig"
  },
  {
    "postcode": "4552",
    "city": "Borna"
  },
  {
    "postcode": "4552",
    "city": "Neukirchen"
  },
  {
    "postcode": "4552",
    "city": "Thräna"
  },
  {
    "postcode": "4552",
    "city": "Wyhra"
  },
  {
    "postcode": "4552",
    "city": "Zedtlitz"
  },
  {
    "postcode": "4552",
    "city": "Gestewitz"
  },
  {
    "postcode": "4552",
    "city": "Eula"
  },
  {
    "postcode": "4552",
    "city": "Haubitz"
  },
  {
    "postcode": "4552",
    "city": "Kesselshain"
  },
  {
    "postcode": "4552",
    "city": "Goldener Born"
  },
  {
    "postcode": "4564",
    "city": "Böhlen bei Leipzig"
  },
  {
    "postcode": "4564",
    "city": "Leipzig"
  },
  {
    "postcode": "4564",
    "city": "Böhlen"
  },
  {
    "postcode": "4564",
    "city": "Gaulis"
  },
  {
    "postcode": "4564",
    "city": "Großdeuben"
  },
  {
    "postcode": "4565",
    "city": "Regis-Breitingen"
  },
  {
    "postcode": "4565",
    "city": "Leipzig"
  },
  {
    "postcode": "4565",
    "city": "Ramsdorf"
  },
  {
    "postcode": "4565",
    "city": "Hagenest"
  },
  {
    "postcode": "4565",
    "city": "Heuersdorf"
  },
  {
    "postcode": "4565",
    "city": "Wildenhain"
  },
  {
    "postcode": "4567",
    "city": "Kitzscher"
  },
  {
    "postcode": "4567",
    "city": "Leipzig"
  },
  {
    "postcode": "4567",
    "city": "Hainichen"
  },
  {
    "postcode": "4567",
    "city": "Trages"
  },
  {
    "postcode": "4567",
    "city": "Dittmannsdorf"
  },
  {
    "postcode": "4567",
    "city": "Braußwig"
  },
  {
    "postcode": "4567",
    "city": "Thierbach"
  },
  {
    "postcode": "4571",
    "city": "Rötha"
  },
  {
    "postcode": "4571",
    "city": "Leipzig"
  },
  {
    "postcode": "4571",
    "city": "Espenhain"
  },
  {
    "postcode": "4571",
    "city": "Oelzschau"
  },
  {
    "postcode": "4571",
    "city": "Pötzschau"
  },
  {
    "postcode": "4571",
    "city": "Mölbis"
  },
  {
    "postcode": "4574",
    "city": "Deutzen"
  },
  {
    "postcode": "4574",
    "city": "Heuersdorf"
  },
  {
    "postcode": "4575",
    "city": "Neukieritzsch"
  },
  {
    "postcode": "4575",
    "city": "Leipzig"
  },
  {
    "postcode": "4575",
    "city": "Lobstädt"
  },
  {
    "postcode": "4575",
    "city": "Deutzen"
  },
  {
    "postcode": "4575",
    "city": "Lippendorf"
  },
  {
    "postcode": "4575",
    "city": "Kahnsdorf"
  },
  {
    "postcode": "4575",
    "city": "Großzössen"
  },
  {
    "postcode": "4575",
    "city": "Kieritzsch"
  },
  {
    "postcode": "4575",
    "city": "Breunsdorf"
  },
  {
    "postcode": "4579",
    "city": "Espenhain"
  },
  {
    "postcode": "45127",
    "city": "Essen Ruhr"
  },
  {
    "postcode": "45127",
    "city": "Essen"
  },
  {
    "postcode": "45127",
    "city": "Stadtkern"
  },
  {
    "postcode": "45127",
    "city": "Westviertel"
  },
  {
    "postcode": "45127",
    "city": "Ostviertel"
  },
  {
    "postcode": "45127",
    "city": "Altendorf"
  },
  {
    "postcode": "45127",
    "city": "Südviertel"
  },
  {
    "postcode": "45128",
    "city": "Essen Ruhr"
  },
  {
    "postcode": "45128",
    "city": "Essen"
  },
  {
    "postcode": "45128",
    "city": "Südviertel"
  },
  {
    "postcode": "45128",
    "city": "Westviertel"
  },
  {
    "postcode": "45128",
    "city": "Südostviertel"
  },
  {
    "postcode": "45130",
    "city": "Essen Ruhr"
  },
  {
    "postcode": "45130",
    "city": "Essen"
  },
  {
    "postcode": "45130",
    "city": "Rüttenscheid"
  },
  {
    "postcode": "45130",
    "city": "Südviertel"
  },
  {
    "postcode": "45131",
    "city": "Essen Ruhr"
  },
  {
    "postcode": "45131",
    "city": "Essen"
  },
  {
    "postcode": "45131",
    "city": "Rüttenscheid"
  },
  {
    "postcode": "45133",
    "city": "Bredeney"
  },
  {
    "postcode": "45133",
    "city": "Essen Ruhr"
  },
  {
    "postcode": "45133",
    "city": "Essen"
  },
  {
    "postcode": "45133",
    "city": "Schuir"
  },
  {
    "postcode": "45133",
    "city": "Stadtwald"
  },
  {
    "postcode": "45133",
    "city": "Rüttenscheid"
  },
  {
    "postcode": "45134",
    "city": "Bergerhausen"
  },
  {
    "postcode": "45134",
    "city": "Bredeney"
  },
  {
    "postcode": "45134",
    "city": "Essen Ruhr"
  },
  {
    "postcode": "45134",
    "city": "Essen"
  },
  {
    "postcode": "45134",
    "city": "Rellinghausen"
  },
  {
    "postcode": "45134",
    "city": "Stadtwald"
  },
  {
    "postcode": "45136",
    "city": "Bergerhausen"
  },
  {
    "postcode": "45136",
    "city": "Essen Ruhr"
  },
  {
    "postcode": "45136",
    "city": "Essen"
  },
  {
    "postcode": "45136",
    "city": "Huttrop"
  },
  {
    "postcode": "45136",
    "city": "Rüttenscheid"
  },
  {
    "postcode": "45138",
    "city": "Essen Ruhr"
  },
  {
    "postcode": "45138",
    "city": "Essen"
  },
  {
    "postcode": "45138",
    "city": "Huttrop"
  },
  {
    "postcode": "45138",
    "city": "Südostviertel"
  },
  {
    "postcode": "45139",
    "city": "Essen Ruhr"
  },
  {
    "postcode": "45139",
    "city": "Essen"
  },
  {
    "postcode": "45139",
    "city": "Frillendorf"
  },
  {
    "postcode": "45139",
    "city": "Huttrop"
  },
  {
    "postcode": "45139",
    "city": "Südostviertel"
  },
  {
    "postcode": "45139",
    "city": "Ostviertel"
  },
  {
    "postcode": "45141",
    "city": "Essen Ruhr"
  },
  {
    "postcode": "45141",
    "city": "Essen"
  },
  {
    "postcode": "45141",
    "city": "Frillendorf"
  },
  {
    "postcode": "45141",
    "city": "Stoppenberg"
  },
  {
    "postcode": "45141",
    "city": "Nordviertel"
  },
  {
    "postcode": "45143",
    "city": "Bochold"
  },
  {
    "postcode": "45143",
    "city": "Essen Ruhr"
  },
  {
    "postcode": "45143",
    "city": "Essen"
  },
  {
    "postcode": "45143",
    "city": "Altendorf"
  },
  {
    "postcode": "45143",
    "city": "Westviertel"
  },
  {
    "postcode": "45143",
    "city": "Nordviertel"
  },
  {
    "postcode": "45144",
    "city": "Essen Ruhr"
  },
  {
    "postcode": "45144",
    "city": "Essen"
  },
  {
    "postcode": "45144",
    "city": "Frohnhausen"
  },
  {
    "postcode": "45145",
    "city": "Essen Ruhr"
  },
  {
    "postcode": "45145",
    "city": "Essen"
  },
  {
    "postcode": "45145",
    "city": "Frohnhausen"
  },
  {
    "postcode": "45145",
    "city": "Holsterhausen"
  },
  {
    "postcode": "45147",
    "city": "Essen Ruhr"
  },
  {
    "postcode": "45147",
    "city": "Essen"
  },
  {
    "postcode": "45147",
    "city": "Frohnhausen"
  },
  {
    "postcode": "45147",
    "city": "Holsterhausen"
  },
  {
    "postcode": "45147",
    "city": "Rüttenscheid"
  },
  {
    "postcode": "45149",
    "city": "Essen Ruhr"
  },
  {
    "postcode": "45149",
    "city": "Essen"
  },
  {
    "postcode": "45149",
    "city": "Fulerum"
  },
  {
    "postcode": "45149",
    "city": "Haarzopf"
  },
  {
    "postcode": "45149",
    "city": "Margarethenhöhe"
  },
  {
    "postcode": "45149",
    "city": "Bredeney"
  },
  {
    "postcode": "45219",
    "city": "Essen Ruhr"
  },
  {
    "postcode": "45219",
    "city": "Essen"
  },
  {
    "postcode": "45219",
    "city": "Kettwig"
  },
  {
    "postcode": "45239",
    "city": "Bredeney"
  },
  {
    "postcode": "45239",
    "city": "Essen Ruhr"
  },
  {
    "postcode": "45239",
    "city": "Essen"
  },
  {
    "postcode": "45239",
    "city": "Fischlaken"
  },
  {
    "postcode": "45239",
    "city": "Heidhausen"
  },
  {
    "postcode": "45239",
    "city": "Schuir"
  },
  {
    "postcode": "45239",
    "city": "Stadt Velbert"
  },
  {
    "postcode": "45239",
    "city": "Velbert"
  },
  {
    "postcode": "45239",
    "city": "Werden"
  },
  {
    "postcode": "45257",
    "city": "Byfang"
  },
  {
    "postcode": "45257",
    "city": "Essen Ruhr"
  },
  {
    "postcode": "45257",
    "city": "Essen"
  },
  {
    "postcode": "45257",
    "city": "Fischlaken"
  },
  {
    "postcode": "45257",
    "city": "Kupferdreh"
  },
  {
    "postcode": "45259",
    "city": "Essen Ruhr"
  },
  {
    "postcode": "45259",
    "city": "Essen"
  },
  {
    "postcode": "45259",
    "city": "Heisingen"
  },
  {
    "postcode": "45276",
    "city": "Essen Ruhr"
  },
  {
    "postcode": "45276",
    "city": "Essen"
  },
  {
    "postcode": "45276",
    "city": "Steele"
  },
  {
    "postcode": "45277",
    "city": "Essen Ruhr"
  },
  {
    "postcode": "45277",
    "city": "Essen"
  },
  {
    "postcode": "45277",
    "city": "Überruhr-Hinsel"
  },
  {
    "postcode": "45277",
    "city": "Überruhr-Holthausen"
  },
  {
    "postcode": "45279",
    "city": "Essen Ruhr"
  },
  {
    "postcode": "45279",
    "city": "Essen"
  },
  {
    "postcode": "45279",
    "city": "Freisenbruch"
  },
  {
    "postcode": "45279",
    "city": "Horst"
  },
  {
    "postcode": "45289",
    "city": "Burgaltendorf"
  },
  {
    "postcode": "45289",
    "city": "Essen Ruhr"
  },
  {
    "postcode": "45289",
    "city": "Essen"
  },
  {
    "postcode": "45307",
    "city": "Essen Ruhr"
  },
  {
    "postcode": "45307",
    "city": "Essen"
  },
  {
    "postcode": "45307",
    "city": "Kray"
  },
  {
    "postcode": "45307",
    "city": "Leithe"
  },
  {
    "postcode": "45309",
    "city": "Essen Ruhr"
  },
  {
    "postcode": "45309",
    "city": "Essen"
  },
  {
    "postcode": "45309",
    "city": "Kray"
  },
  {
    "postcode": "45309",
    "city": "Schonnebeck"
  },
  {
    "postcode": "45326",
    "city": "Essen Ruhr"
  },
  {
    "postcode": "45326",
    "city": "Essen"
  },
  {
    "postcode": "45326",
    "city": "Altenessen-Süd"
  },
  {
    "postcode": "45326",
    "city": "Altenessen-Nord"
  },
  {
    "postcode": "45327",
    "city": "Essen Ruhr"
  },
  {
    "postcode": "45327",
    "city": "Essen"
  },
  {
    "postcode": "45327",
    "city": "Katernberg"
  },
  {
    "postcode": "45327",
    "city": "Stoppenberg"
  },
  {
    "postcode": "45329",
    "city": "Essen Ruhr"
  },
  {
    "postcode": "45329",
    "city": "Essen"
  },
  {
    "postcode": "45329",
    "city": "Karnap"
  },
  {
    "postcode": "45329",
    "city": "Vogelheim"
  },
  {
    "postcode": "45329",
    "city": "Altenessen-Nord"
  },
  {
    "postcode": "45355",
    "city": "Bochold"
  },
  {
    "postcode": "45355",
    "city": "Essen Ruhr"
  },
  {
    "postcode": "45355",
    "city": "Essen"
  },
  {
    "postcode": "45355",
    "city": "Borbeck-Mitte"
  },
  {
    "postcode": "45355",
    "city": "Bergeborbeck"
  },
  {
    "postcode": "45356",
    "city": "Bochold"
  },
  {
    "postcode": "45356",
    "city": "Dellwig"
  },
  {
    "postcode": "45356",
    "city": "Essen Ruhr"
  },
  {
    "postcode": "45356",
    "city": "Essen"
  },
  {
    "postcode": "45356",
    "city": "Vogelheim"
  },
  {
    "postcode": "45356",
    "city": "Bergeborbeck"
  },
  {
    "postcode": "45356",
    "city": "Borbeck-Mitte"
  },
  {
    "postcode": "45356",
    "city": "Gerschede"
  },
  {
    "postcode": "45357",
    "city": "Bedingrade"
  },
  {
    "postcode": "45357",
    "city": "Dellwig"
  },
  {
    "postcode": "45357",
    "city": "Essen Ruhr"
  },
  {
    "postcode": "45357",
    "city": "Essen"
  },
  {
    "postcode": "45357",
    "city": "Frintrop"
  },
  {
    "postcode": "45357",
    "city": "Gerschede"
  },
  {
    "postcode": "45357",
    "city": "Borbeck-Mitte"
  },
  {
    "postcode": "45359",
    "city": "Bedingrade"
  },
  {
    "postcode": "45359",
    "city": "Essen Ruhr"
  },
  {
    "postcode": "45359",
    "city": "Essen"
  },
  {
    "postcode": "45359",
    "city": "Frintrop"
  },
  {
    "postcode": "45359",
    "city": "Schönebeck"
  },
  {
    "postcode": "45403",
    "city": "Mülheim an der Ruhr"
  },
  {
    "postcode": "45468",
    "city": "Holthausen"
  },
  {
    "postcode": "45468",
    "city": "Mülheim an der Ruhr"
  },
  {
    "postcode": "45468",
    "city": "Mitte"
  },
  {
    "postcode": "45468",
    "city": "Eppinghofen"
  },
  {
    "postcode": "45468",
    "city": "Mitte-Ost"
  },
  {
    "postcode": "45468",
    "city": "Broich"
  },
  {
    "postcode": "45470",
    "city": "Holthausen"
  },
  {
    "postcode": "45470",
    "city": "Menden / Ickten"
  },
  {
    "postcode": "45470",
    "city": "Menden"
  },
  {
    "postcode": "45470",
    "city": "Mülheim an der Ruhr"
  },
  {
    "postcode": "45470",
    "city": "Raadt"
  },
  {
    "postcode": "45470",
    "city": "Mitte-Ost"
  },
  {
    "postcode": "45470",
    "city": "Menden/Ickten"
  },
  {
    "postcode": "45470",
    "city": "Mitte"
  },
  {
    "postcode": "45470",
    "city": "Heißen-Fulerum"
  },
  {
    "postcode": "45470",
    "city": "Winkhausen"
  },
  {
    "postcode": "45472",
    "city": "Heißen"
  },
  {
    "postcode": "45472",
    "city": "Holthausen"
  },
  {
    "postcode": "45472",
    "city": "Mülheim an der Ruhr"
  },
  {
    "postcode": "45472",
    "city": "Heißen-Fulerum"
  },
  {
    "postcode": "45472",
    "city": "Winkhausen"
  },
  {
    "postcode": "45472",
    "city": "Mitte-Ost"
  },
  {
    "postcode": "45473",
    "city": "Dümpten"
  },
  {
    "postcode": "45473",
    "city": "Mülheim an der Ruhr"
  },
  {
    "postcode": "45473",
    "city": "Eppinghofen"
  },
  {
    "postcode": "45473",
    "city": "Mitte"
  },
  {
    "postcode": "45473",
    "city": "Mitte-Ost"
  },
  {
    "postcode": "45473",
    "city": "Winkhausen"
  },
  {
    "postcode": "45473",
    "city": "Mellinghofen"
  },
  {
    "postcode": "45473",
    "city": "Styrum"
  },
  {
    "postcode": "45475",
    "city": "Dümpten"
  },
  {
    "postcode": "45475",
    "city": "Mülheim an der Ruhr"
  },
  {
    "postcode": "45475",
    "city": "Mellinghofen"
  },
  {
    "postcode": "45475",
    "city": "Mitte-Ost"
  },
  {
    "postcode": "45476",
    "city": "Mülheim an der Ruhr"
  },
  {
    "postcode": "45476",
    "city": "Styrum"
  },
  {
    "postcode": "45478",
    "city": "Broich"
  },
  {
    "postcode": "45478",
    "city": "Mülheim an der Ruhr"
  },
  {
    "postcode": "45478",
    "city": "Speldorf"
  },
  {
    "postcode": "45479",
    "city": "Broich"
  },
  {
    "postcode": "45479",
    "city": "Mülheim an der Ruhr"
  },
  {
    "postcode": "45479",
    "city": "Saarn"
  },
  {
    "postcode": "45479",
    "city": "Saarn / Mintard"
  },
  {
    "postcode": "45479",
    "city": "Speldorf"
  },
  {
    "postcode": "45479",
    "city": "Saarn/Mintard"
  },
  {
    "postcode": "45481",
    "city": "Broich"
  },
  {
    "postcode": "45481",
    "city": "Mülheim an der Ruhr"
  },
  {
    "postcode": "45481",
    "city": "Saarn"
  },
  {
    "postcode": "45481",
    "city": "Saarn / Mintard"
  },
  {
    "postcode": "45481",
    "city": "Saarn / Selbeck"
  },
  {
    "postcode": "45481",
    "city": "Saarn/Mintard"
  },
  {
    "postcode": "45481",
    "city": "Saarn/Selbeck"
  },
  {
    "postcode": "45481",
    "city": "Selbeck"
  },
  {
    "postcode": "45525",
    "city": "Hattingen"
  },
  {
    "postcode": "45525",
    "city": "Hattingen an der Ruhr"
  },
  {
    "postcode": "45525",
    "city": "Ennepe-Ruhr-Kreis"
  },
  {
    "postcode": "45527",
    "city": "Blankenstein Ruhr"
  },
  {
    "postcode": "45527",
    "city": "Blankenstein"
  },
  {
    "postcode": "45527",
    "city": "Hattingen"
  },
  {
    "postcode": "45527",
    "city": "Hattingen an der Ruhr"
  },
  {
    "postcode": "45527",
    "city": "Welper"
  },
  {
    "postcode": "45527",
    "city": "Ennepe-Ruhr-Kreis"
  },
  {
    "postcode": "45527",
    "city": "Holthausen"
  },
  {
    "postcode": "45527",
    "city": "Bredenscheid-Stüter"
  },
  {
    "postcode": "45527",
    "city": "Oberstüter"
  },
  {
    "postcode": "45527",
    "city": "Bredenscheid"
  },
  {
    "postcode": "45529",
    "city": "Hattingen"
  },
  {
    "postcode": "45529",
    "city": "Hattingen an der Ruhr"
  },
  {
    "postcode": "45529",
    "city": "Niederbonsfeld"
  },
  {
    "postcode": "45529",
    "city": "Niederelfringhausen"
  },
  {
    "postcode": "45529",
    "city": "Niederwenigern"
  },
  {
    "postcode": "45529",
    "city": "Oberelfringhausen"
  },
  {
    "postcode": "45529",
    "city": "Ennepe-Ruhr-Kreis"
  },
  {
    "postcode": "45529",
    "city": "Bochum"
  },
  {
    "postcode": "45529",
    "city": "Velbert"
  },
  {
    "postcode": "45529",
    "city": "Bredenscheid-Stüter"
  },
  {
    "postcode": "45529",
    "city": "Winz-Baak"
  },
  {
    "postcode": "45529",
    "city": "Baak"
  },
  {
    "postcode": "45549",
    "city": "Gennebreck"
  },
  {
    "postcode": "45549",
    "city": "Haßlinghausen"
  },
  {
    "postcode": "45549",
    "city": "Herzkamp"
  },
  {
    "postcode": "45549",
    "city": "Hiddinghausen über Gevelsberg"
  },
  {
    "postcode": "45549",
    "city": "Niedersprockhövel"
  },
  {
    "postcode": "45549",
    "city": "Niederstüter"
  },
  {
    "postcode": "45549",
    "city": "Obersprockhövel"
  },
  {
    "postcode": "45549",
    "city": "Sprockhövel"
  },
  {
    "postcode": "45549",
    "city": "Wetter"
  },
  {
    "postcode": "45549",
    "city": "Ennepe-Ruhr-Kreis"
  },
  {
    "postcode": "45549",
    "city": "Hiddinghausen"
  },
  {
    "postcode": "45549",
    "city": "Dellwig"
  },
  {
    "postcode": "45657",
    "city": "Recklinghausen"
  },
  {
    "postcode": "45657",
    "city": "Recklinghausen Westfalen"
  },
  {
    "postcode": "45657",
    "city": "Stadtmitte"
  },
  {
    "postcode": "45657",
    "city": "Ost"
  },
  {
    "postcode": "45659",
    "city": "Hochlar"
  },
  {
    "postcode": "45659",
    "city": "Recklinghausen Westfalen"
  },
  {
    "postcode": "45659",
    "city": "Recklinghausen"
  },
  {
    "postcode": "45659",
    "city": "Speckhorn"
  },
  {
    "postcode": "45659",
    "city": "Stuckenbusch"
  },
  {
    "postcode": "45659",
    "city": "Stadtmitte"
  },
  {
    "postcode": "45659",
    "city": "Hillerheide"
  },
  {
    "postcode": "45659",
    "city": "Bockholt"
  },
  {
    "postcode": "45661",
    "city": "Hochlarmark"
  },
  {
    "postcode": "45661",
    "city": "Recklinghausen Westfalen"
  },
  {
    "postcode": "45661",
    "city": "Recklinghausen"
  },
  {
    "postcode": "45661",
    "city": "Süd"
  },
  {
    "postcode": "45663",
    "city": "Recklinghausen Westfalen"
  },
  {
    "postcode": "45663",
    "city": "Recklinghausen"
  },
  {
    "postcode": "45663",
    "city": "Röllinghausen"
  },
  {
    "postcode": "45663",
    "city": "König-Ludwig"
  },
  {
    "postcode": "45663",
    "city": "Süd"
  },
  {
    "postcode": "45665",
    "city": "Recklinghausen Westfalen"
  },
  {
    "postcode": "45665",
    "city": "Recklinghausen"
  },
  {
    "postcode": "45665",
    "city": "Röllinghausen"
  },
  {
    "postcode": "45665",
    "city": "Suderwich"
  },
  {
    "postcode": "45665",
    "city": "Ost"
  },
  {
    "postcode": "45665",
    "city": "Hillerheide"
  },
  {
    "postcode": "45665",
    "city": "Stadtmitte"
  },
  {
    "postcode": "45699",
    "city": "Bertlich Kreis Recklinghausen"
  },
  {
    "postcode": "45699",
    "city": "Bertlich"
  },
  {
    "postcode": "45699",
    "city": "Disteln Westfalen"
  },
  {
    "postcode": "45699",
    "city": "Disteln"
  },
  {
    "postcode": "45699",
    "city": "Herten Westfalen"
  },
  {
    "postcode": "45699",
    "city": "Herten"
  },
  {
    "postcode": "45699",
    "city": "Langenbochum Westfalen"
  },
  {
    "postcode": "45699",
    "city": "Langenbochum"
  },
  {
    "postcode": "45699",
    "city": "Recklinghausen"
  },
  {
    "postcode": "45699",
    "city": "Stadtmitte"
  },
  {
    "postcode": "45699",
    "city": "Süd"
  },
  {
    "postcode": "45701",
    "city": "Bertlich Kreis Recklinghausen"
  },
  {
    "postcode": "45701",
    "city": "Bertlich"
  },
  {
    "postcode": "45701",
    "city": "Disteln Westfalen"
  },
  {
    "postcode": "45701",
    "city": "Disteln"
  },
  {
    "postcode": "45701",
    "city": "Herten Westfalen"
  },
  {
    "postcode": "45701",
    "city": "Herten"
  },
  {
    "postcode": "45701",
    "city": "Langenbochum Westfalen"
  },
  {
    "postcode": "45701",
    "city": "Langenbochum"
  },
  {
    "postcode": "45701",
    "city": "Scherlebeck Westfalen"
  },
  {
    "postcode": "45701",
    "city": "Scherlebeck"
  },
  {
    "postcode": "45701",
    "city": "Westerholt Kreis Recklinghausen"
  },
  {
    "postcode": "45701",
    "city": "Westerholt"
  },
  {
    "postcode": "45701",
    "city": "Recklinghausen"
  },
  {
    "postcode": "45701",
    "city": "Stadtmitte"
  },
  {
    "postcode": "45711",
    "city": "Ahsen Kreis Recklinghausen"
  },
  {
    "postcode": "45711",
    "city": "Ahsen"
  },
  {
    "postcode": "45711",
    "city": "Datteln"
  },
  {
    "postcode": "45711",
    "city": "Horneburg Westfalen"
  },
  {
    "postcode": "45711",
    "city": "Horneburg"
  },
  {
    "postcode": "45711",
    "city": "Meckinghoven"
  },
  {
    "postcode": "45711",
    "city": "Recklinghausen"
  },
  {
    "postcode": "45711",
    "city": "Hötting"
  },
  {
    "postcode": "45721",
    "city": "Bergbossendorf Westfalen"
  },
  {
    "postcode": "45721",
    "city": "Bergbossendorf"
  },
  {
    "postcode": "45721",
    "city": "Flaesheim"
  },
  {
    "postcode": "45721",
    "city": "Haltern am See"
  },
  {
    "postcode": "45721",
    "city": "Haltern Westfalen"
  },
  {
    "postcode": "45721",
    "city": "Haltern"
  },
  {
    "postcode": "45721",
    "city": "Holtwick Westfalen"
  },
  {
    "postcode": "45721",
    "city": "Holtwick"
  },
  {
    "postcode": "45721",
    "city": "Hullern"
  },
  {
    "postcode": "45721",
    "city": "Lavesum"
  },
  {
    "postcode": "45721",
    "city": "Lippramsdorf"
  },
  {
    "postcode": "45721",
    "city": "Sythen"
  },
  {
    "postcode": "45721",
    "city": "Recklinghausen"
  },
  {
    "postcode": "45721",
    "city": "Hamm-Bossendorf"
  },
  {
    "postcode": "45721",
    "city": "Freiheit"
  },
  {
    "postcode": "45721",
    "city": "Lehmbraken"
  },
  {
    "postcode": "45731",
    "city": "Oberwiese"
  },
  {
    "postcode": "45731",
    "city": "Waltrop"
  },
  {
    "postcode": "45731",
    "city": "Recklinghausen"
  },
  {
    "postcode": "45739",
    "city": "Oer"
  },
  {
    "postcode": "45739",
    "city": "Oer-Erkenschwick"
  },
  {
    "postcode": "45739",
    "city": "Rapen"
  },
  {
    "postcode": "45739",
    "city": "Recklinghausen"
  },
  {
    "postcode": "45739",
    "city": "Klein-Erkenschwick"
  },
  {
    "postcode": "45739",
    "city": "Groß-Erkenschwick"
  },
  {
    "postcode": "45739",
    "city": "Honermannsiedlung"
  },
  {
    "postcode": "45768",
    "city": "Brassert Westfalen"
  },
  {
    "postcode": "45768",
    "city": "Brassert"
  },
  {
    "postcode": "45768",
    "city": "Hamm bei Marl Westfalen"
  },
  {
    "postcode": "45768",
    "city": "Hamm bei Marl"
  },
  {
    "postcode": "45768",
    "city": "Marl"
  },
  {
    "postcode": "45768",
    "city": "Marl Westfalen"
  },
  {
    "postcode": "45768",
    "city": "Polsum"
  },
  {
    "postcode": "45768",
    "city": "Recklinghausen"
  },
  {
    "postcode": "45768",
    "city": "Alt-Marl"
  },
  {
    "postcode": "45768",
    "city": "Hüls"
  },
  {
    "postcode": "45768",
    "city": "Hamm"
  },
  {
    "postcode": "45768",
    "city": "Drewer"
  },
  {
    "postcode": "45770",
    "city": "Hüls"
  },
  {
    "postcode": "45770",
    "city": "Marl"
  },
  {
    "postcode": "45770",
    "city": "Marl Westfalen"
  },
  {
    "postcode": "45770",
    "city": "Polsum"
  },
  {
    "postcode": "45770",
    "city": "Recklinghausen"
  },
  {
    "postcode": "45770",
    "city": "Sinsen-Lenkerbeck"
  },
  {
    "postcode": "45770",
    "city": "Drewer"
  },
  {
    "postcode": "45770",
    "city": "Alt-Marl"
  },
  {
    "postcode": "45772",
    "city": "Brassert Westfalen"
  },
  {
    "postcode": "45772",
    "city": "Brassert"
  },
  {
    "postcode": "45772",
    "city": "Hamm bei Marl Westfalen"
  },
  {
    "postcode": "45772",
    "city": "Hamm bei Marl"
  },
  {
    "postcode": "45772",
    "city": "Hüls"
  },
  {
    "postcode": "45772",
    "city": "Marl Westfalen"
  },
  {
    "postcode": "45772",
    "city": "Marl"
  },
  {
    "postcode": "45772",
    "city": "Sickingmühle Westfalen"
  },
  {
    "postcode": "45772",
    "city": "Sickingmühle"
  },
  {
    "postcode": "45772",
    "city": "Recklinghausen"
  },
  {
    "postcode": "45772",
    "city": "Hamm"
  },
  {
    "postcode": "45772",
    "city": "Drewer"
  },
  {
    "postcode": "45772",
    "city": "Sinsen-Lenkerbeck"
  },
  {
    "postcode": "45879",
    "city": "Gelsenkirchen"
  },
  {
    "postcode": "45879",
    "city": "Altstadt"
  },
  {
    "postcode": "45879",
    "city": "Neustadt"
  },
  {
    "postcode": "45881",
    "city": "Gelsenkirchen"
  },
  {
    "postcode": "45881",
    "city": "Schalke"
  },
  {
    "postcode": "45881",
    "city": "Schalke-Nord"
  },
  {
    "postcode": "45881",
    "city": "Bismarck"
  },
  {
    "postcode": "45883",
    "city": "Gelsenkirchen"
  },
  {
    "postcode": "45883",
    "city": "Heßler"
  },
  {
    "postcode": "45883",
    "city": "Feldmark"
  },
  {
    "postcode": "45884",
    "city": "Gelsenkirchen"
  },
  {
    "postcode": "45884",
    "city": "Rotthausen"
  },
  {
    "postcode": "45886",
    "city": "Gelsenkirchen"
  },
  {
    "postcode": "45886",
    "city": "Ückendorf"
  },
  {
    "postcode": "45888",
    "city": "Gelsenkirchen"
  },
  {
    "postcode": "45888",
    "city": "Bulmke-Hüllen"
  },
  {
    "postcode": "45889",
    "city": "Bismarck"
  },
  {
    "postcode": "45889",
    "city": "Gelsenkirchen"
  },
  {
    "postcode": "45891",
    "city": "Erle"
  },
  {
    "postcode": "45891",
    "city": "Gelsenkirchen"
  },
  {
    "postcode": "45891",
    "city": "Beckhausen"
  },
  {
    "postcode": "45892",
    "city": "Gelsenkirchen"
  },
  {
    "postcode": "45892",
    "city": "Resse"
  },
  {
    "postcode": "45892",
    "city": "Resser-Mark"
  },
  {
    "postcode": "45894",
    "city": "Buer"
  },
  {
    "postcode": "45894",
    "city": "Gelsenkirchen"
  },
  {
    "postcode": "45894",
    "city": "Buer-Mitte"
  },
  {
    "postcode": "45894",
    "city": "Erle"
  },
  {
    "postcode": "45896",
    "city": "Gelsenkirchen"
  },
  {
    "postcode": "45896",
    "city": "Hassel"
  },
  {
    "postcode": "45896",
    "city": "Scholven"
  },
  {
    "postcode": "45897",
    "city": "Beckhausen"
  },
  {
    "postcode": "45897",
    "city": "Buer"
  },
  {
    "postcode": "45897",
    "city": "Gelsenkirchen"
  },
  {
    "postcode": "45897",
    "city": "Horst"
  },
  {
    "postcode": "45897",
    "city": "Buer-Mitte"
  },
  {
    "postcode": "45897",
    "city": "Erle"
  },
  {
    "postcode": "45899",
    "city": "Beckhausen"
  },
  {
    "postcode": "45899",
    "city": "Gelsenkirchen"
  },
  {
    "postcode": "45899",
    "city": "Heßler"
  },
  {
    "postcode": "45899",
    "city": "Horst"
  },
  {
    "postcode": "45964",
    "city": "Ellinghorst"
  },
  {
    "postcode": "45964",
    "city": "Gladbeck"
  },
  {
    "postcode": "45964",
    "city": "Recklinghausen"
  },
  {
    "postcode": "45964",
    "city": "Mitte"
  },
  {
    "postcode": "45964",
    "city": "Gladbeck-Mitte"
  },
  {
    "postcode": "45966",
    "city": "Gladbeck"
  },
  {
    "postcode": "45966",
    "city": "Kirchhellen"
  },
  {
    "postcode": "45966",
    "city": "Rentfort"
  },
  {
    "postcode": "45966",
    "city": "Zweckel"
  },
  {
    "postcode": "45966",
    "city": "Recklinghausen"
  },
  {
    "postcode": "45966",
    "city": "Schultendorf"
  },
  {
    "postcode": "45966",
    "city": "Alt-Rentfort"
  },
  {
    "postcode": "45966",
    "city": "Rentfort-Nord"
  },
  {
    "postcode": "45968",
    "city": "Butendorf"
  },
  {
    "postcode": "45968",
    "city": "Gladbeck"
  },
  {
    "postcode": "45968",
    "city": "Recklinghausen"
  },
  {
    "postcode": "45968",
    "city": "Brauck"
  },
  {
    "postcode": "45968",
    "city": "Rosenhügel"
  }
]