[
  {
    "postcode": "1809",
    "city": "Dohna Sachsen"
  },
  {
    "postcode": "1809",
    "city": "Dohna"
  },
  {
    "postcode": "1809",
    "city": "Heidenau Sachsen"
  },
  {
    "postcode": "1809",
    "city": "Heidenau"
  },
  {
    "postcode": "1809",
    "city": "Müglitztal"
  },
  {
    "postcode": "1809",
    "city": "Sächsische Schweiz-Osterzgebirge"
  },
  {
    "postcode": "1809",
    "city": "Meusegast"
  },
  {
    "postcode": "1809",
    "city": "Röhrsdorf"
  },
  {
    "postcode": "1809",
    "city": "Borthen"
  },
  {
    "postcode": "1809",
    "city": "Burgstädtel"
  },
  {
    "postcode": "1809",
    "city": "Bosewitz"
  },
  {
    "postcode": "1809",
    "city": "Gamig"
  },
  {
    "postcode": "1809",
    "city": "Gorknitz"
  },
  {
    "postcode": "1809",
    "city": "Köttewitz"
  },
  {
    "postcode": "1809",
    "city": "Krebs"
  },
  {
    "postcode": "1809",
    "city": "Sürßen"
  },
  {
    "postcode": "1809",
    "city": "Tronitz"
  },
  {
    "postcode": "1809",
    "city": "Weesenstein"
  },
  {
    "postcode": "1809",
    "city": "Burkhardswalde"
  },
  {
    "postcode": "1809",
    "city": "Mühlbach"
  },
  {
    "postcode": "1809",
    "city": "Maxen"
  },
  {
    "postcode": "1809",
    "city": "Crotta"
  },
  {
    "postcode": "1809",
    "city": "Falkenhain"
  },
  {
    "postcode": "1809",
    "city": "Schmorsdorf"
  },
  {
    "postcode": "1814",
    "city": "Bad Schandau"
  },
  {
    "postcode": "1814",
    "city": "Porschdorf"
  },
  {
    "postcode": "1814",
    "city": "Rathmannsdorf bei Pirna"
  },
  {
    "postcode": "1814",
    "city": "Reinhardtsdorf-Schöna"
  },
  {
    "postcode": "1814",
    "city": "Sächsische Schweiz-Osterzgebirge"
  },
  {
    "postcode": "1814",
    "city": "Kleingießhübel"
  },
  {
    "postcode": "1814",
    "city": "Rathmannsdorf"
  },
  {
    "postcode": "1814",
    "city": "Reinhardtsdorf"
  },
  {
    "postcode": "1814",
    "city": "Schöna"
  },
  {
    "postcode": "1814",
    "city": "Ostrau"
  },
  {
    "postcode": "1814",
    "city": "Krippen"
  },
  {
    "postcode": "1814",
    "city": "Prossen"
  },
  {
    "postcode": "1814",
    "city": "Postelwitz"
  },
  {
    "postcode": "1814",
    "city": "Waltersdorf"
  },
  {
    "postcode": "1814",
    "city": "Schmilka"
  },
  {
    "postcode": "1814",
    "city": "Zauke"
  },
  {
    "postcode": "1816",
    "city": "Bad Gottleuba-Berggießhübel"
  },
  {
    "postcode": "1816",
    "city": "Sächsische Schweiz-Osterzgebirge"
  },
  {
    "postcode": "1816",
    "city": "Kurort Berggießhübel"
  },
  {
    "postcode": "1816",
    "city": "Hellendorf"
  },
  {
    "postcode": "1816",
    "city": "Bad Gottleuba"
  },
  {
    "postcode": "1816",
    "city": "Markersbach"
  },
  {
    "postcode": "1816",
    "city": "Langenhennersdorf"
  },
  {
    "postcode": "1816",
    "city": "Bahra"
  },
  {
    "postcode": "1816",
    "city": "Zwiesel"
  },
  {
    "postcode": "1816",
    "city": "Börnersdorf"
  },
  {
    "postcode": "1816",
    "city": "Oelsen"
  },
  {
    "postcode": "1816",
    "city": "Breitenau"
  },
  {
    "postcode": "1816",
    "city": "Bahratal"
  },
  {
    "postcode": "1816",
    "city": "Forsthaus"
  },
  {
    "postcode": "1816",
    "city": "Hennersbach"
  },
  {
    "postcode": "1819",
    "city": "Bahretal"
  },
  {
    "postcode": "1819",
    "city": "Sächsische Schweiz-Osterzgebirge"
  },
  {
    "postcode": "1819",
    "city": "Göppersdorf"
  },
  {
    "postcode": "1819",
    "city": "Nentmannsdorf"
  },
  {
    "postcode": "1819",
    "city": "Friedrichswalde"
  },
  {
    "postcode": "1819",
    "city": "Borna"
  },
  {
    "postcode": "1819",
    "city": "Gersdorf"
  },
  {
    "postcode": "1819",
    "city": "Niederseidewitz"
  },
  {
    "postcode": "1819",
    "city": "Ottendorf"
  },
  {
    "postcode": "1819",
    "city": "Wingendorf"
  },
  {
    "postcode": "1824",
    "city": "Gohrisch"
  },
  {
    "postcode": "1824",
    "city": "Königstein / Sächsische Schweiz"
  },
  {
    "postcode": "1824",
    "city": "Königstein"
  },
  {
    "postcode": "1824",
    "city": "Kurort Rathen Sachsen"
  },
  {
    "postcode": "1824",
    "city": "Kurort Rathen"
  },
  {
    "postcode": "1824",
    "city": "Rosenthal-Bielatal"
  },
  {
    "postcode": "1824",
    "city": "Sächsische Schweiz-Osterzgebirge"
  },
  {
    "postcode": "1824",
    "city": "Königstein/Sächs. Schw."
  },
  {
    "postcode": "1824",
    "city": "Kurort Gohrisch"
  },
  {
    "postcode": "1824",
    "city": "Papstdorf"
  },
  {
    "postcode": "1824",
    "city": "Cunnersdorf"
  },
  {
    "postcode": "1824",
    "city": "Kleinhennersdorf"
  },
  {
    "postcode": "1824",
    "city": "Pfaffendorf"
  },
  {
    "postcode": "1824",
    "city": "Leupoldishain"
  },
  {
    "postcode": "1824",
    "city": "Rosenthal"
  },
  {
    "postcode": "1824",
    "city": "Bielatal"
  },
  {
    "postcode": "1824",
    "city": "Raum"
  },
  {
    "postcode": "1825",
    "city": "Liebstadt"
  },
  {
    "postcode": "1825",
    "city": "Sächsische Schweiz-Osterzgebirge"
  },
  {
    "postcode": "1825",
    "city": "Berthelsdorf"
  },
  {
    "postcode": "1825",
    "city": "Biensdorf"
  },
  {
    "postcode": "1825",
    "city": "Döbra"
  },
  {
    "postcode": "1825",
    "city": "Großröhrsdorf"
  },
  {
    "postcode": "1825",
    "city": "Herbergen"
  },
  {
    "postcode": "1825",
    "city": "Seitenhain"
  },
  {
    "postcode": "1825",
    "city": "Waltersdorf"
  },
  {
    "postcode": "1829",
    "city": "Wehlen"
  },
  {
    "postcode": "1829",
    "city": "Sächsische Schweiz-Osterzgebirge"
  },
  {
    "postcode": "1829",
    "city": "Lohmen"
  },
  {
    "postcode": "1829",
    "city": "Stadt Wehlen"
  },
  {
    "postcode": "1829",
    "city": "Pötzscha"
  },
  {
    "postcode": "1829",
    "city": "Dorf Wehlen"
  },
  {
    "postcode": "1829",
    "city": "Zeichen"
  },
  {
    "postcode": "1833",
    "city": "Dürrröhrsdorf-Dittersbach"
  },
  {
    "postcode": "1833",
    "city": "Stolpen"
  },
  {
    "postcode": "1833",
    "city": "Sächsische Schweiz-Osterzgebirge"
  },
  {
    "postcode": "1833",
    "city": "Wilschdorf"
  },
  {
    "postcode": "1833",
    "city": "Dobra"
  },
  {
    "postcode": "1833",
    "city": "Elbersdorf"
  },
  {
    "postcode": "1833",
    "city": "Porschendorf"
  },
  {
    "postcode": "1833",
    "city": "Stürza"
  },
  {
    "postcode": "1833",
    "city": "Wünschendorf"
  },
  {
    "postcode": "1833",
    "city": "Rennersdorf-Neudörfel"
  },
  {
    "postcode": "1833",
    "city": "Langenwolmsdorf"
  },
  {
    "postcode": "1833",
    "city": "Heeselicht"
  },
  {
    "postcode": "1833",
    "city": "Lauterbach"
  },
  {
    "postcode": "1833",
    "city": "Helmsdorf"
  },
  {
    "postcode": "1844",
    "city": "Hohwald"
  },
  {
    "postcode": "1844",
    "city": "Neustadt in Sachsen"
  },
  {
    "postcode": "1844",
    "city": "Sächsische Schweiz-Osterzgebirge"
  },
  {
    "postcode": "1844",
    "city": "Neustadt"
  },
  {
    "postcode": "1844",
    "city": "Niederottendorf"
  },
  {
    "postcode": "1844",
    "city": "Oberottendorf"
  },
  {
    "postcode": "1844",
    "city": "Krumhermsdorf"
  },
  {
    "postcode": "1844",
    "city": "Rugiswalde"
  },
  {
    "postcode": "1844",
    "city": "Polenz"
  },
  {
    "postcode": "1844",
    "city": "Berthelsdorf"
  },
  {
    "postcode": "1844",
    "city": "Langburkersdorf"
  },
  {
    "postcode": "1844",
    "city": "Rückersdorf"
  },
  {
    "postcode": "1847",
    "city": "Lohmen Sachsen"
  },
  {
    "postcode": "1847",
    "city": "Lohmen"
  },
  {
    "postcode": "1847",
    "city": "Sächsische Schweiz-Osterzgebirge"
  },
  {
    "postcode": "1847",
    "city": "Mühlsdorf"
  },
  {
    "postcode": "1847",
    "city": "Uttewalde"
  },
  {
    "postcode": "1847",
    "city": "Doberzeit"
  },
  {
    "postcode": "1847",
    "city": "Daube"
  },
  {
    "postcode": "1848",
    "city": "Hohnstein"
  },
  {
    "postcode": "1848",
    "city": "Sächsische Schweiz-Osterzgebirge"
  },
  {
    "postcode": "1848",
    "city": "Ulbersdorf"
  },
  {
    "postcode": "1848",
    "city": "Goßdorf"
  },
  {
    "postcode": "1848",
    "city": "Zeschnig"
  },
  {
    "postcode": "1848",
    "city": "Rathewalde"
  },
  {
    "postcode": "1848",
    "city": "Kohlmühle"
  },
  {
    "postcode": "1848",
    "city": "Lohsdorf"
  },
  {
    "postcode": "1848",
    "city": "Cunnersdorf"
  },
  {
    "postcode": "1848",
    "city": "Waitzdorf"
  },
  {
    "postcode": "1848",
    "city": "Hohburkersdorf"
  },
  {
    "postcode": "1848",
    "city": "Ehrenberg"
  },
  {
    "postcode": "1855",
    "city": "Kirnitzschtal"
  },
  {
    "postcode": "1855",
    "city": "Sebnitz"
  },
  {
    "postcode": "1855",
    "city": "Sächsische Schweiz-Osterzgebirge"
  },
  {
    "postcode": "1855",
    "city": "Altendorf"
  },
  {
    "postcode": "1855",
    "city": "Hinterhermsdorf"
  },
  {
    "postcode": "1855",
    "city": "Lichtenhain"
  },
  {
    "postcode": "1855",
    "city": "Mittelndorf"
  },
  {
    "postcode": "1855",
    "city": "Ottendorf"
  },
  {
    "postcode": "1855",
    "city": "Saupsdorf"
  },
  {
    "postcode": "1855",
    "city": "Amtshainersdorf"
  },
  {
    "postcode": "1855",
    "city": "Schönbach"
  },
  {
    "postcode": "1855",
    "city": "Hofhainersdorf"
  },
  {
    "postcode": "1855",
    "city": "Hertigswalde"
  },
  {
    "postcode": "1855",
    "city": "Siedlung"
  },
  {
    "postcode": "1877",
    "city": "Bischofswerda"
  },
  {
    "postcode": "1877",
    "city": "Demitz-Thumitz"
  },
  {
    "postcode": "1877",
    "city": "Doberschau-Gaußig"
  },
  {
    "postcode": "1877",
    "city": "Rammenau"
  },
  {
    "postcode": "1877",
    "city": "Schmölln-Putzkau"
  },
  {
    "postcode": "1877",
    "city": "Bautzen"
  },
  {
    "postcode": "1877",
    "city": "Naundorf"
  },
  {
    "postcode": "1877",
    "city": "Schönbrunn"
  },
  {
    "postcode": "1877",
    "city": "Belmsdorf"
  },
  {
    "postcode": "1877",
    "city": "Weickersdorf"
  },
  {
    "postcode": "1877",
    "city": "Großdrebnitz"
  },
  {
    "postcode": "1877",
    "city": "Kynitzsch"
  },
  {
    "postcode": "1877",
    "city": "Hunger"
  },
  {
    "postcode": "1877",
    "city": "Goldbach"
  },
  {
    "postcode": "1877",
    "city": "Geißmannsdorf"
  },
  {
    "postcode": "1877",
    "city": "Neuschönbrunn"
  },
  {
    "postcode": "1877",
    "city": "Wölkau"
  },
  {
    "postcode": "1877",
    "city": "Rothnaußlitz"
  },
  {
    "postcode": "1877",
    "city": "Pohla"
  },
  {
    "postcode": "1877",
    "city": "Cannewitz"
  },
  {
    "postcode": "1877",
    "city": "Karlsdorf"
  },
  {
    "postcode": "1877",
    "city": "Stacha"
  },
  {
    "postcode": "1877",
    "city": "Pottschapplitz"
  },
  {
    "postcode": "1877",
    "city": "Medewitz"
  },
  {
    "postcode": "1877",
    "city": "Cossern"
  },
  {
    "postcode": "1877",
    "city": "Schaudorf"
  },
  {
    "postcode": "1877",
    "city": "Putzkau"
  },
  {
    "postcode": "1877",
    "city": "Schmölln"
  },
  {
    "postcode": "1877",
    "city": "Tröbigau"
  },
  {
    "postcode": "1877",
    "city": "Neuschmölln"
  },
  {
    "postcode": "1896",
    "city": "Lichtenberg bei Bischofswerda"
  },
  {
    "postcode": "1896",
    "city": "Ohorn"
  },
  {
    "postcode": "1896",
    "city": "Pulsnitz"
  },
  {
    "postcode": "1896",
    "city": "Röderhäuser"
  },
  {
    "postcode": "1896",
    "city": "Bautzen"
  },
  {
    "postcode": "1896",
    "city": "Lichtenberg"
  },
  {
    "postcode": "1896",
    "city": "Kleindittmannsdorf"
  },
  {
    "postcode": "1896",
    "city": "Oberlichtenau"
  },
  {
    "postcode": "1896",
    "city": "Friedersdorf"
  },
  {
    "postcode": "1896",
    "city": "Friedersdorf Siedlung"
  },
  {
    "postcode": "18055",
    "city": "Kassebohm"
  },
  {
    "postcode": "18055",
    "city": "Rostock"
  },
  {
    "postcode": "18055",
    "city": "Stadtmitte"
  },
  {
    "postcode": "18055",
    "city": "Brinckmansdorf"
  },
  {
    "postcode": "18055",
    "city": "Kröpeliner Tor-Vorstadt"
  },
  {
    "postcode": "18057",
    "city": "Rostock"
  },
  {
    "postcode": "18057",
    "city": "Kröpeliner Tor-Vorstadt"
  },
  {
    "postcode": "18057",
    "city": "Gartenstadt/Stadtweide"
  },
  {
    "postcode": "18057",
    "city": "Hansaviertel"
  },
  {
    "postcode": "18057",
    "city": "Stadtmitte"
  },
  {
    "postcode": "18057",
    "city": "Gartenstadt"
  },
  {
    "postcode": "18059",
    "city": "Biestow"
  },
  {
    "postcode": "18059",
    "city": "Gragetopshof"
  },
  {
    "postcode": "18059",
    "city": "Groß Stove"
  },
  {
    "postcode": "18059",
    "city": "Huckstorf"
  },
  {
    "postcode": "18059",
    "city": "Nienhusen"
  },
  {
    "postcode": "18059",
    "city": "Papendorf bei Rostock"
  },
  {
    "postcode": "18059",
    "city": "Pölchow"
  },
  {
    "postcode": "18059",
    "city": "Rostock"
  },
  {
    "postcode": "18059",
    "city": "Sildemow"
  },
  {
    "postcode": "18059",
    "city": "Ziesendorf"
  },
  {
    "postcode": "18059",
    "city": "Papendorf"
  },
  {
    "postcode": "18059",
    "city": "Wahrstorf"
  },
  {
    "postcode": "18059",
    "city": "Niendorf"
  },
  {
    "postcode": "18059",
    "city": "Gartenstadt/Stadtweide"
  },
  {
    "postcode": "18059",
    "city": "Südstadt"
  },
  {
    "postcode": "18059",
    "city": "Hansaviertel"
  },
  {
    "postcode": "18059",
    "city": "Stadtmitte"
  },
  {
    "postcode": "18059",
    "city": "Fahrenholz"
  },
  {
    "postcode": "18059",
    "city": "Buchholz-Heide"
  },
  {
    "postcode": "18059",
    "city": "Buchholz"
  },
  {
    "postcode": "18059",
    "city": "Gartenstadt"
  },
  {
    "postcode": "18069",
    "city": "Allershagen"
  },
  {
    "postcode": "18069",
    "city": "Evershagen"
  },
  {
    "postcode": "18069",
    "city": "Lambrechtshagen"
  },
  {
    "postcode": "18069",
    "city": "Rostock"
  },
  {
    "postcode": "18069",
    "city": "Schmarl"
  },
  {
    "postcode": "18069",
    "city": "Sievershagen"
  },
  {
    "postcode": "18069",
    "city": "Vorweden-Mönkweden"
  },
  {
    "postcode": "18069",
    "city": "Reutershagen"
  },
  {
    "postcode": "18069",
    "city": "Kröpeliner Tor-Vorstadt"
  },
  {
    "postcode": "18069",
    "city": "Gartenstadt/Stadtweide"
  },
  {
    "postcode": "18069",
    "city": "Gartenstadt"
  },
  {
    "postcode": "18106",
    "city": "Evershagen"
  },
  {
    "postcode": "18106",
    "city": "Rostock"
  },
  {
    "postcode": "18106",
    "city": "Schmarl"
  },
  {
    "postcode": "18107",
    "city": "Elmenhorst / Lichtenhagen"
  },
  {
    "postcode": "18107",
    "city": "Elmenhorst"
  },
  {
    "postcode": "18107",
    "city": "Lütten Klein"
  },
  {
    "postcode": "18107",
    "city": "Rostock"
  },
  {
    "postcode": "18107",
    "city": "Elmenhorst/Lichtenhagen"
  },
  {
    "postcode": "18107",
    "city": "Lichtenhagen"
  },
  {
    "postcode": "18109",
    "city": "Lütten Klein"
  },
  {
    "postcode": "18109",
    "city": "Rostock"
  },
  {
    "postcode": "18109",
    "city": "Groß Klein"
  },
  {
    "postcode": "18109",
    "city": "Lichtenhagen"
  },
  {
    "postcode": "18119",
    "city": "Rostock"
  },
  {
    "postcode": "18119",
    "city": "Warnemünde"
  },
  {
    "postcode": "18119",
    "city": "Seebad Warnemünde"
  },
  {
    "postcode": "18119",
    "city": "Hohe Düne"
  },
  {
    "postcode": "18119",
    "city": "Diedrichshagen"
  },
  {
    "postcode": "18119",
    "city": "Markgrafenheide"
  },
  {
    "postcode": "18146",
    "city": "Peez"
  },
  {
    "postcode": "18146",
    "city": "Rostock"
  },
  {
    "postcode": "18146",
    "city": "Stuthof"
  },
  {
    "postcode": "18146",
    "city": "Toitenwinkel"
  },
  {
    "postcode": "18146",
    "city": "Dierkow-Ost"
  },
  {
    "postcode": "18146",
    "city": "Markgrafenheide"
  },
  {
    "postcode": "18146",
    "city": "Brinckmansdorf"
  },
  {
    "postcode": "18146",
    "city": "Dierkow"
  },
  {
    "postcode": "18146",
    "city": "Nienhagen"
  },
  {
    "postcode": "18146",
    "city": "Hinrichshagen"
  },
  {
    "postcode": "18146",
    "city": "Dierkow-Neu"
  },
  {
    "postcode": "18146",
    "city": "Dierkow-West"
  },
  {
    "postcode": "18146",
    "city": "Hinrichsdorf"
  },
  {
    "postcode": "18146",
    "city": "Jürgeshof"
  },
  {
    "postcode": "18146",
    "city": "Torfbrücke"
  },
  {
    "postcode": "18147",
    "city": "Krummendorf"
  },
  {
    "postcode": "18147",
    "city": "Peez"
  },
  {
    "postcode": "18147",
    "city": "Rostock"
  },
  {
    "postcode": "18147",
    "city": "Toitenwinkel"
  },
  {
    "postcode": "18147",
    "city": "Gehlsdorf"
  },
  {
    "postcode": "18147",
    "city": "Stuthof"
  },
  {
    "postcode": "18147",
    "city": "Hinrichsdorf"
  },
  {
    "postcode": "18147",
    "city": "Groß Klein"
  },
  {
    "postcode": "18147",
    "city": "Hafen Rostock"
  },
  {
    "postcode": "18147",
    "city": "Dierkow-Neu"
  },
  {
    "postcode": "18181",
    "city": "Seeheilbad Graal-Müritz"
  },
  {
    "postcode": "18181",
    "city": "Rostock"
  },
  {
    "postcode": "18181",
    "city": "Graal-Müritz"
  },
  {
    "postcode": "18181",
    "city": "Torfbrücke"
  },
  {
    "postcode": "18182",
    "city": "Bentwisch bei Rostock"
  },
  {
    "postcode": "18182",
    "city": "Blankenhagen bei Rövershagen"
  },
  {
    "postcode": "18182",
    "city": "Gelbensande"
  },
  {
    "postcode": "18182",
    "city": "Goorstorf"
  },
  {
    "postcode": "18182",
    "city": "Häschendorf"
  },
  {
    "postcode": "18182",
    "city": "Klein Bartelstorf"
  },
  {
    "postcode": "18182",
    "city": "Klein Bentwisch"
  },
  {
    "postcode": "18182",
    "city": "Mönchhagen"
  },
  {
    "postcode": "18182",
    "city": "Neu Bartelstorf"
  },
  {
    "postcode": "18182",
    "city": "Purkshof"
  },
  {
    "postcode": "18182",
    "city": "Rostock"
  },
  {
    "postcode": "18182",
    "city": "Rövershagen"
  },
  {
    "postcode": "18182",
    "city": "Wiethagen"
  },
  {
    "postcode": "18182",
    "city": "Willershagen"
  },
  {
    "postcode": "18182",
    "city": "Bentwisch"
  },
  {
    "postcode": "18182",
    "city": "Blankenhagen"
  },
  {
    "postcode": "18182",
    "city": "Albertsdorf"
  },
  {
    "postcode": "18182",
    "city": "Klein Kussewitz"
  },
  {
    "postcode": "18182",
    "city": "Groß Kussewitz"
  },
  {
    "postcode": "18182",
    "city": "Harmstorf"
  },
  {
    "postcode": "18182",
    "city": "Volkenshagen"
  },
  {
    "postcode": "18182",
    "city": "Klein Bartelsdorf"
  },
  {
    "postcode": "18182",
    "city": "Neu Bartelsdorf"
  },
  {
    "postcode": "18182",
    "city": "Neu Harmstorf"
  },
  {
    "postcode": "18182",
    "city": "Mandelshagen"
  },
  {
    "postcode": "18182",
    "city": "Billenhagen"
  },
  {
    "postcode": "18182",
    "city": "Cordshagen"
  },
  {
    "postcode": "18182",
    "city": "Behnkenhagen"
  },
  {
    "postcode": "18182",
    "city": "Niederhagen"
  },
  {
    "postcode": "18182",
    "city": "Oberhagen"
  },
  {
    "postcode": "18184",
    "city": "Billenhagen"
  },
  {
    "postcode": "18184",
    "city": "Broderstorf"
  },
  {
    "postcode": "18184",
    "city": "Bussewitz"
  },
  {
    "postcode": "18184",
    "city": "Fienstorf"
  },
  {
    "postcode": "18184",
    "city": "Groß Kussewitz"
  },
  {
    "postcode": "18184",
    "city": "Hohenfelde bei Bad Doberan"
  },
  {
    "postcode": "18184",
    "city": "Ikendorf"
  },
  {
    "postcode": "18184",
    "city": "Klein Kussewitz"
  },
  {
    "postcode": "18184",
    "city": "Klein Lüsewitz"
  },
  {
    "postcode": "18184",
    "city": "Kösterbeck"
  },
  {
    "postcode": "18184",
    "city": "Mandelshagen"
  },
  {
    "postcode": "18184",
    "city": "Neu Broderstorf"
  },
  {
    "postcode": "18184",
    "city": "Öftenhäven"
  },
  {
    "postcode": "18184",
    "city": "Pastow"
  },
  {
    "postcode": "18184",
    "city": "Poppendorf bei Rostock"
  },
  {
    "postcode": "18184",
    "city": "Roggentin bei Rostock"
  },
  {
    "postcode": "18184",
    "city": "Rothbeck bei Rostock"
  },
  {
    "postcode": "18184",
    "city": "Steinfeld bei Rostock"
  },
  {
    "postcode": "18184",
    "city": "Thulendorf"
  },
  {
    "postcode": "18184",
    "city": "Vogtshagen"
  },
  {
    "postcode": "18184",
    "city": "Rostock"
  },
  {
    "postcode": "18184",
    "city": "Poppendorf"
  },
  {
    "postcode": "18184",
    "city": "Roggentin"
  },
  {
    "postcode": "18184",
    "city": "Neuendorf"
  },
  {
    "postcode": "18184",
    "city": "Neu Roggentin"
  },
  {
    "postcode": "18184",
    "city": "Steinfeld"
  },
  {
    "postcode": "18184",
    "city": "Teschendorf"
  },
  {
    "postcode": "18184",
    "city": "Ikendorf-Ausbau"
  },
  {
    "postcode": "18184",
    "city": "Neu Pastow"
  },
  {
    "postcode": "18184",
    "city": "Rothbeck"
  },
  {
    "postcode": "18184",
    "city": "Fresendorf"
  },
  {
    "postcode": "18184",
    "city": "Neu Fienstorf"
  },
  {
    "postcode": "18184",
    "city": "Neu Thulendorf"
  },
  {
    "postcode": "18184",
    "city": "Hohenfelde"
  },
  {
    "postcode": "18184",
    "city": "Sagerheide"
  },
  {
    "postcode": "18190",
    "city": "Groß Freienholz"
  },
  {
    "postcode": "18190",
    "city": "Klein Freienholz"
  },
  {
    "postcode": "18190",
    "city": "Klein Wehnendorf"
  },
  {
    "postcode": "18190",
    "city": "Neu Wendorf"
  },
  {
    "postcode": "18190",
    "city": "Sanitz bei Rostock"
  },
  {
    "postcode": "18190",
    "city": "Rostock"
  },
  {
    "postcode": "18190",
    "city": "Sanitz"
  },
  {
    "postcode": "18190",
    "city": "Gubkow"
  },
  {
    "postcode": "18190",
    "city": "Horst"
  },
  {
    "postcode": "18190",
    "city": "Groß Lüsewitz"
  },
  {
    "postcode": "18190",
    "city": "Vietow"
  },
  {
    "postcode": "18190",
    "city": "Niekrenz"
  },
  {
    "postcode": "18190",
    "city": "Hohen Gubkow"
  },
  {
    "postcode": "18190",
    "city": "Oberhof"
  },
  {
    "postcode": "18190",
    "city": "Wendorf"
  },
  {
    "postcode": "18190",
    "city": "Reppelin"
  },
  {
    "postcode": "18190",
    "city": "Neu Kokendorf"
  },
  {
    "postcode": "18190",
    "city": "Teutendorf"
  },
  {
    "postcode": "18190",
    "city": "Wendfeld"
  },
  {
    "postcode": "18195",
    "city": "Alt Stassow"
  },
  {
    "postcode": "18195",
    "city": "Barkvieren"
  },
  {
    "postcode": "18195",
    "city": "Cammin bei Rostock"
  },
  {
    "postcode": "18195",
    "city": "Drüsewitz"
  },
  {
    "postcode": "18195",
    "city": "Ehmkendorf"
  },
  {
    "postcode": "18195",
    "city": "Gnewitz bei Rostock"
  },
  {
    "postcode": "18195",
    "city": "Grammow"
  },
  {
    "postcode": "18195",
    "city": "Kowalz"
  },
  {
    "postcode": "18195",
    "city": "Neu Stassow"
  },
  {
    "postcode": "18195",
    "city": "Nustrow"
  },
  {
    "postcode": "18195",
    "city": "Prangendorf"
  },
  {
    "postcode": "18195",
    "city": "Reddershof"
  },
  {
    "postcode": "18195",
    "city": "Selpin"
  },
  {
    "postcode": "18195",
    "city": "Stormstorf"
  },
  {
    "postcode": "18195",
    "city": "Stubbendorf bei Rostock"
  },
  {
    "postcode": "18195",
    "city": "Tessin bei Rostock"
  },
  {
    "postcode": "18195",
    "city": "Thelkow"
  },
  {
    "postcode": "18195",
    "city": "Vilz"
  },
  {
    "postcode": "18195",
    "city": "Wesselstorf"
  },
  {
    "postcode": "18195",
    "city": "Woltow"
  },
  {
    "postcode": "18195",
    "city": "Zarnewanz"
  },
  {
    "postcode": "18195",
    "city": "Rostock"
  },
  {
    "postcode": "18195",
    "city": "Cammin"
  },
  {
    "postcode": "18195",
    "city": "Gnewitz"
  },
  {
    "postcode": "18195",
    "city": "Stubbendorf"
  },
  {
    "postcode": "18195",
    "city": "Tessin"
  },
  {
    "postcode": "18195",
    "city": "Eickhof"
  },
  {
    "postcode": "18195",
    "city": "Weitendorf"
  },
  {
    "postcode": "18195",
    "city": "Wohrenstorf"
  },
  {
    "postcode": "18195",
    "city": "Neuhof"
  },
  {
    "postcode": "18195",
    "city": "Vogelsang"
  },
  {
    "postcode": "18195",
    "city": "Liepen"
  },
  {
    "postcode": "18195",
    "city": "Starkow"
  },
  {
    "postcode": "18196",
    "city": "Bandelstorf"
  },
  {
    "postcode": "18196",
    "city": "Beselin"
  },
  {
    "postcode": "18196",
    "city": "Damm bei Rostock"
  },
  {
    "postcode": "18196",
    "city": "Dummerstorf"
  },
  {
    "postcode": "18196",
    "city": "Griebnitz"
  },
  {
    "postcode": "18196",
    "city": "Groß Potrems"
  },
  {
    "postcode": "18196",
    "city": "Groß Viegeln"
  },
  {
    "postcode": "18196",
    "city": "Hohen Schwarfs"
  },
  {
    "postcode": "18196",
    "city": "Kavelstorf"
  },
  {
    "postcode": "18196",
    "city": "Kessin bei Rostock"
  },
  {
    "postcode": "18196",
    "city": "Klein Schwarfs"
  },
  {
    "postcode": "18196",
    "city": "Klingendorf"
  },
  {
    "postcode": "18196",
    "city": "Lieblingshof"
  },
  {
    "postcode": "18196",
    "city": "Niex"
  },
  {
    "postcode": "18196",
    "city": "Pankelow"
  },
  {
    "postcode": "18196",
    "city": "Petschow"
  },
  {
    "postcode": "18196",
    "city": "Prisannewitz"
  },
  {
    "postcode": "18196",
    "city": "Reez"
  },
  {
    "postcode": "18196",
    "city": "Scharstorf bei Rostock"
  },
  {
    "postcode": "18196",
    "city": "Schlage bei Rostock"
  },
  {
    "postcode": "18196",
    "city": "Rostock"
  },
  {
    "postcode": "18196",
    "city": "Kessin"
  },
  {
    "postcode": "18196",
    "city": "Scharstorf"
  },
  {
    "postcode": "18196",
    "city": "Göldenitz"
  },
  {
    "postcode": "18196",
    "city": "Wendorf"
  },
  {
    "postcode": "18196",
    "city": "Damm"
  },
  {
    "postcode": "18196",
    "city": "Wolfsberg"
  },
  {
    "postcode": "18196",
    "city": "Godow"
  },
  {
    "postcode": "18196",
    "city": "Schlage"
  },
  {
    "postcode": "18196",
    "city": "Dishley"
  },
  {
    "postcode": "18196",
    "city": "Waldeck"
  },
  {
    "postcode": "18196",
    "city": "Klein Viegeln"
  },
  {
    "postcode": "18196",
    "city": "Klein Potrems"
  },
  {
    "postcode": "18198",
    "city": "Bliesekow"
  },
  {
    "postcode": "18198",
    "city": "Groß Schwaß"
  },
  {
    "postcode": "18198",
    "city": "Klein Schwaß"
  },
  {
    "postcode": "18198",
    "city": "Klein Stove"
  },
  {
    "postcode": "18198",
    "city": "Kritzmow"
  },
  {
    "postcode": "18198",
    "city": "Stäbelow"
  },
  {
    "postcode": "18198",
    "city": "Rostock"
  },
  {
    "postcode": "18198",
    "city": "Wilsen"
  },
  {
    "postcode": "18209",
    "city": "Bad Doberan"
  },
  {
    "postcode": "18209",
    "city": "Bartenshagen-Parkentin"
  },
  {
    "postcode": "18209",
    "city": "Hinter Bollhagen"
  },
  {
    "postcode": "18209",
    "city": "Hohenfelde bei Bad Doberan"
  },
  {
    "postcode": "18209",
    "city": "Klein Bollhagen"
  },
  {
    "postcode": "18209",
    "city": "Reddelich"
  },
  {
    "postcode": "18209",
    "city": "Retschow"
  },
  {
    "postcode": "18209",
    "city": "Steffenshagen bei Bad Doberan"
  },
  {
    "postcode": "18209",
    "city": "Wittenbeck"
  },
  {
    "postcode": "18209",
    "city": "Rostock"
  },
  {
    "postcode": "18209",
    "city": "Hohenfelde"
  },
  {
    "postcode": "18209",
    "city": "Neu Hohenfelde"
  },
  {
    "postcode": "18209",
    "city": "Steffenshagen"
  },
  {
    "postcode": "18209",
    "city": "Althof"
  },
  {
    "postcode": "18209",
    "city": "Vorder Bollhagen"
  },
  {
    "postcode": "18209",
    "city": "Heiligendamm"
  },
  {
    "postcode": "18209",
    "city": "Hütten"
  },
  {
    "postcode": "18209",
    "city": "Parkentin"
  },
  {
    "postcode": "18209",
    "city": "Bartenshagen"
  },
  {
    "postcode": "18209",
    "city": "Bollbrücke"
  },
  {
    "postcode": "18209",
    "city": "Neuhof"
  },
  {
    "postcode": "18209",
    "city": "Brodhagen"
  },
  {
    "postcode": "18211",
    "city": "Admannshagen"
  },
  {
    "postcode": "18211",
    "city": "Admannshagen-Bargeshagen"
  },
  {
    "postcode": "18211",
    "city": "Börgerende-Rethwisch"
  },
  {
    "postcode": "18211",
    "city": "Neu Rethwisch"
  },
  {
    "postcode": "18211",
    "city": "Ostseebad Nienhagen"
  },
  {
    "postcode": "18211",
    "city": "Retschow"
  },
  {
    "postcode": "18211",
    "city": "Rostock"
  },
  {
    "postcode": "18211",
    "city": "Börgerende"
  },
  {
    "postcode": "18211",
    "city": "Bahrenhorst"
  },
  {
    "postcode": "18211",
    "city": "Hohenfelde"
  },
  {
    "postcode": "18211",
    "city": "Ivendorf"
  },
  {
    "postcode": "18211",
    "city": "Rethwisch"
  },
  {
    "postcode": "18211",
    "city": "Bargeshagen"
  },
  {
    "postcode": "18211",
    "city": "Rabenhorst"
  },
  {
    "postcode": "18211",
    "city": "Steinbeck"
  },
  {
    "postcode": "18211",
    "city": "Admannshagen Ausbau"
  },
  {
    "postcode": "18211",
    "city": "Glashagen"
  },
  {
    "postcode": "18211",
    "city": "Stülow"
  },
  {
    "postcode": "18211",
    "city": "Fulgenkoppel"
  },
  {
    "postcode": "18225",
    "city": "Kühlungsborn Ostseebad"
  },
  {
    "postcode": "18225",
    "city": "Kühlungsborn"
  },
  {
    "postcode": "18225",
    "city": "Rostock"
  },
  {
    "postcode": "18230",
    "city": "Bastorf"
  },
  {
    "postcode": "18230",
    "city": "Biendorf bei Bad Doberan"
  },
  {
    "postcode": "18230",
    "city": "Boldenshagen"
  },
  {
    "postcode": "18230",
    "city": "Jennewitz"
  },
  {
    "postcode": "18230",
    "city": "Kröpelin"
  },
  {
    "postcode": "18230",
    "city": "Ostseebad Rerik"
  },
  {
    "postcode": "18230",
    "city": "Rostock"
  },
  {
    "postcode": "18230",
    "city": "Biendorf"
  },
  {
    "postcode": "18230",
    "city": "Hohen Niendorf"
  },
  {
    "postcode": "18230",
    "city": "Kägsdorf"
  },
  {
    "postcode": "18230",
    "city": "Mechelsdorf"
  },
  {
    "postcode": "18230",
    "city": "Wendelstorf"
  },
  {
    "postcode": "18230",
    "city": "Westhof"
  },
  {
    "postcode": "18230",
    "city": "Zweedorf"
  },
  {
    "postcode": "18230",
    "city": "Wischuer"
  },
  {
    "postcode": "18230",
    "city": "Parchow"
  },
  {
    "postcode": "18230",
    "city": "Dorf Jörnstorf"
  },
  {
    "postcode": "18230",
    "city": "Gersdorf"
  },
  {
    "postcode": "18230",
    "city": "Sandhagen"
  },
  {
    "postcode": "18230",
    "city": "Hof Jörnstorf"
  },
  {
    "postcode": "18230",
    "city": "Westenbrügge"
  },
  {
    "postcode": "18230",
    "city": "Jörnstorf"
  },
  {
    "postcode": "18230",
    "city": "Uhlenbrook"
  },
  {
    "postcode": "18230",
    "city": "Körchow"
  },
  {
    "postcode": "18230",
    "city": "Büttelkow"
  },
  {
    "postcode": "18230",
    "city": "Lehnenhof"
  },
  {
    "postcode": "18230",
    "city": "Roggow"
  },
  {
    "postcode": "18230",
    "city": "Rerik"
  },
  {
    "postcode": "18230",
    "city": "Russow"
  },
  {
    "postcode": "18230",
    "city": "Blengow"
  },
  {
    "postcode": "18230",
    "city": "Garvsmühlen"
  },
  {
    "postcode": "18230",
    "city": "Gaarzer Hof"
  },
  {
    "postcode": "18230",
    "city": "Meschendorf"
  },
  {
    "postcode": "18230",
    "city": "Ostseebad Rerik Zeltplatz"
  },
  {
    "postcode": "18231",
    "city": "Neubukow"
  },
  {
    "postcode": "18233",
    "city": "Alt Bukow"
  },
  {
    "postcode": "18233",
    "city": "Am Salzhaff"
  },
  {
    "postcode": "18233",
    "city": "Biendorf bei Bad Doberan"
  },
  {
    "postcode": "18233",
    "city": "Buschmühlen"
  },
  {
    "postcode": "18233",
    "city": "Carinerland"
  },
  {
    "postcode": "18233",
    "city": "Kamin"
  },
  {
    "postcode": "18233",
    "city": "Karin"
  },
  {
    "postcode": "18233",
    "city": "Kirch Mulsow"
  },
  {
    "postcode": "18233",
    "city": "Krempin"
  },
  {
    "postcode": "18233",
    "city": "Neubukow"
  },
  {
    "postcode": "18233",
    "city": "Panzow"
  },
  {
    "postcode": "18233",
    "city": "Pepelow Zeltplatz"
  },
  {
    "postcode": "18233",
    "city": "Rakow bei Neubukow"
  },
  {
    "postcode": "18233",
    "city": "Ravensberg bei Neubukow"
  },
  {
    "postcode": "18233",
    "city": "Spriehusen"
  },
  {
    "postcode": "18233",
    "city": "Westenbrügge"
  },
  {
    "postcode": "18233",
    "city": "Rostock"
  },
  {
    "postcode": "18233",
    "city": "Biendorf"
  },
  {
    "postcode": "18233",
    "city": "Bolland"
  },
  {
    "postcode": "18233",
    "city": "Ravensberg"
  },
  {
    "postcode": "18233",
    "city": "Zarfzow"
  },
  {
    "postcode": "18233",
    "city": "Questin"
  },
  {
    "postcode": "18233",
    "city": "Neu Teschow"
  },
  {
    "postcode": "18233",
    "city": "Teschow"
  },
  {
    "postcode": "18233",
    "city": "Bantow"
  },
  {
    "postcode": "18233",
    "city": "Pepelow"
  },
  {
    "postcode": "18233",
    "city": "Teßmannsdorf"
  },
  {
    "postcode": "18233",
    "city": "Klein Strömkendorf"
  },
  {
    "postcode": "18233",
    "city": "Rakow"
  },
  {
    "postcode": "18233",
    "city": "Moitin"
  },
  {
    "postcode": "18233",
    "city": "Klein Mulsow"
  },
  {
    "postcode": "18233",
    "city": "Garvensdorf"
  },
  {
    "postcode": "18233",
    "city": "Clausdorf"
  },
  {
    "postcode": "18233",
    "city": "Steinhagen"
  },
  {
    "postcode": "18233",
    "city": "Malpendorf"
  },
  {
    "postcode": "18233",
    "city": "Steinbrink"
  },
  {
    "postcode": "18236",
    "city": "Altenhagen bei Bad Doberan"
  },
  {
    "postcode": "18236",
    "city": "Brusow"
  },
  {
    "postcode": "18236",
    "city": "Carinerland"
  },
  {
    "postcode": "18236",
    "city": "Karin"
  },
  {
    "postcode": "18236",
    "city": "Klein Nienhagen"
  },
  {
    "postcode": "18236",
    "city": "Klein Siemen"
  },
  {
    "postcode": "18236",
    "city": "Kröpelin"
  },
  {
    "postcode": "18236",
    "city": "Schmadebeck"
  },
  {
    "postcode": "18236",
    "city": "Rostock"
  },
  {
    "postcode": "18236",
    "city": "Alt Karin"
  },
  {
    "postcode": "18236",
    "city": "Danneborth"
  },
  {
    "postcode": "18236",
    "city": "Neu Karin"
  },
  {
    "postcode": "18236",
    "city": "Altenhagen"
  },
  {
    "postcode": "18236",
    "city": "Wichmannsdorf"
  },
  {
    "postcode": "18236",
    "city": "Boldenshagen"
  },
  {
    "postcode": "18236",
    "city": "Parchow Ausbau"
  },
  {
    "postcode": "18236",
    "city": "Jennewitz"
  },
  {
    "postcode": "18236",
    "city": "Detershagen"
  },
  {
    "postcode": "18236",
    "city": "Hanshagen"
  },
  {
    "postcode": "18236",
    "city": "Diedrichshagen"
  },
  {
    "postcode": "18236",
    "city": "Groß Siemen"
  },
  {
    "postcode": "18236",
    "city": "Horst"
  },
  {
    "postcode": "18236",
    "city": "Hundehagen"
  },
  {
    "postcode": "18236",
    "city": "Einhusen"
  },
  {
    "postcode": "18239",
    "city": "Bölkow"
  },
  {
    "postcode": "18239",
    "city": "Hanstorf bei Bad Doberan"
  },
  {
    "postcode": "18239",
    "city": "Heiligenhagen"
  },
  {
    "postcode": "18239",
    "city": "Radegast bei Bad Doberan"
  },
  {
    "postcode": "18239",
    "city": "Reinshagen bei Bad Doberan"
  },
  {
    "postcode": "18239",
    "city": "Satow (Möritz)"
  },
  {
    "postcode": "18239",
    "city": "Satow"
  },
  {
    "postcode": "18239",
    "city": "Satow bei Bad Doberan"
  },
  {
    "postcode": "18239",
    "city": "Rostock"
  },
  {
    "postcode": "18239",
    "city": "Pustohl"
  },
  {
    "postcode": "18239",
    "city": "Groß Bölkow"
  },
  {
    "postcode": "18239",
    "city": "Hanstorf"
  },
  {
    "postcode": "18239",
    "city": "Steinhagen"
  },
  {
    "postcode": "18239",
    "city": "Miekenhagen"
  },
  {
    "postcode": "18239",
    "city": "Püschow"
  },
  {
    "postcode": "18239",
    "city": "Clausdorf"
  },
  {
    "postcode": "18239",
    "city": "Radegast"
  },
  {
    "postcode": "18239",
    "city": "Rederank"
  },
  {
    "postcode": "18239",
    "city": "Reinshagen"
  },
  {
    "postcode": "18239",
    "city": "Dolglas"
  },
  {
    "postcode": "18239",
    "city": "Anna Luisenhof"
  },
  {
    "postcode": "18239",
    "city": "Gorow"
  },
  {
    "postcode": "18239",
    "city": "Klein Bölkow"
  },
  {
    "postcode": "18239",
    "city": "Sophienholz"
  },
  {
    "postcode": "18239",
    "city": "Matersen"
  },
  {
    "postcode": "18239",
    "city": "Hohen Luckow"
  },
  {
    "postcode": "18239",
    "city": "Berendshagen"
  },
  {
    "postcode": "18239",
    "city": "Lüningshagen"
  },
  {
    "postcode": "18239",
    "city": "Konow"
  },
  {
    "postcode": "18239",
    "city": "Horst"
  },
  {
    "postcode": "18239",
    "city": "Gerdshagen"
  },
  {
    "postcode": "18239",
    "city": "Hastorf"
  },
  {
    "postcode": "18239",
    "city": "Rosenhagen"
  },
  {
    "postcode": "18239",
    "city": "Groß Nienhagen"
  },
  {
    "postcode": "18246",
    "city": "Baumgarten bei Bützow"
  },
  {
    "postcode": "18246",
    "city": "Bernitt"
  },
  {
    "postcode": "18246",
    "city": "Boldenstorf"
  },
  {
    "postcode": "18246",
    "city": "Bützow"
  },
  {
    "postcode": "18246",
    "city": "Groß Gischow"
  },
  {
    "postcode": "18246",
    "city": "Jürgenshagen bei Bützow"
  },
  {
    "postcode": "18246",
    "city": "Klein Belitz"
  },
  {
    "postcode": "18246",
    "city": "Klein Gischow"
  },
  {
    "postcode": "18246",
    "city": "Klein Gnemern"
  },
  {
    "postcode": "18246",
    "city": "Neuendorf bei Bützow"
  },
  {
    "postcode": "18246",
    "city": "Parkow"
  },
  {
    "postcode": "18246",
    "city": "Passin"
  },
  {
    "postcode": "18246",
    "city": "Rühn"
  },
  {
    "postcode": "18246",
    "city": "Schependorf"
  },
  {
    "postcode": "18246",
    "city": "Steinhagen bei Bützow"
  },
  {
    "postcode": "18246",
    "city": "Zepelin"
  },
  {
    "postcode": "18246",
    "city": "Rostock"
  },
  {
    "postcode": "18246",
    "city": "Baumgarten"
  },
  {
    "postcode": "18246",
    "city": "Friedrichshof"
  },
  {
    "postcode": "18246",
    "city": "Göllin"
  },
  {
    "postcode": "18246",
    "city": "Glambeck"
  },
  {
    "postcode": "18246",
    "city": "Gnemern"
  },
  {
    "postcode": "18246",
    "city": "Groß Belitz"
  },
  {
    "postcode": "18246",
    "city": "Jabelitz"
  },
  {
    "postcode": "18246",
    "city": "Jürgenshagen"
  },
  {
    "postcode": "18246",
    "city": "Klein Sien"
  },
  {
    "postcode": "18246",
    "city": "Krugland"
  },
  {
    "postcode": "18246",
    "city": "Kurzen Trechow"
  },
  {
    "postcode": "18246",
    "city": "Käterhagen"
  },
  {
    "postcode": "18246",
    "city": "Langen Trechow"
  },
  {
    "postcode": "18246",
    "city": "Moisall"
  },
  {
    "postcode": "18246",
    "city": "Moltenow"
  },
  {
    "postcode": "18246",
    "city": "Neu Käterhagen"
  },
  {
    "postcode": "18246",
    "city": "Neuendorf"
  },
  {
    "postcode": "18246",
    "city": "Neukirchen"
  },
  {
    "postcode": "18246",
    "city": "Oettelin"
  },
  {
    "postcode": "18246",
    "city": "Reinstorf"
  },
  {
    "postcode": "18246",
    "city": "Selow"
  },
  {
    "postcode": "18246",
    "city": "Steinhagen"
  },
  {
    "postcode": "18246",
    "city": "Ulrikenhof"
  },
  {
    "postcode": "18246",
    "city": "Wokrent"
  },
  {
    "postcode": "18246",
    "city": "Wendorf"
  },
  {
    "postcode": "18246",
    "city": "Horst"
  },
  {
    "postcode": "18246",
    "city": "Wolken"
  },
  {
    "postcode": "18246",
    "city": "Hermannshagen"
  },
  {
    "postcode": "18246",
    "city": "Hof Rühn"
  },
  {
    "postcode": "18249",
    "city": "Baumgarten bei Bützow"
  },
  {
    "postcode": "18249",
    "city": "Bernitt"
  },
  {
    "postcode": "18249",
    "city": "Diedrichshof"
  },
  {
    "postcode": "18249",
    "city": "Dreetz bei Bützow"
  },
  {
    "postcode": "18249",
    "city": "Grünenhagen"
  },
  {
    "postcode": "18249",
    "city": "Neu Bernitt"
  },
  {
    "postcode": "18249",
    "city": "Penzin bei Bützow"
  },
  {
    "postcode": "18249",
    "city": "Tarnow bei Bützow"
  },
  {
    "postcode": "18249",
    "city": "Warnow bei Bützow"
  },
  {
    "postcode": "18249",
    "city": "Zibühl"
  },
  {
    "postcode": "18249",
    "city": "Rostock"
  },
  {
    "postcode": "18249",
    "city": "Baumgarten"
  },
  {
    "postcode": "18249",
    "city": "Boitin"
  },
  {
    "postcode": "18249",
    "city": "Buchenhof"
  },
  {
    "postcode": "18249",
    "city": "Dreetz"
  },
  {
    "postcode": "18249",
    "city": "Eickelberg"
  },
  {
    "postcode": "18249",
    "city": "Eickhof"
  },
  {
    "postcode": "18249",
    "city": "Katelbogen"
  },
  {
    "postcode": "18249",
    "city": "Klein Raden"
  },
  {
    "postcode": "18249",
    "city": "Laase"
  },
  {
    "postcode": "18249",
    "city": "Lübzin-Rosenow"
  },
  {
    "postcode": "18249",
    "city": "Penzin"
  },
  {
    "postcode": "18249",
    "city": "Qualitz"
  },
  {
    "postcode": "18249",
    "city": "Schlemmin"
  },
  {
    "postcode": "18249",
    "city": "Schlockow"
  },
  {
    "postcode": "18249",
    "city": "Tarnow"
  },
  {
    "postcode": "18249",
    "city": "Viezen"
  },
  {
    "postcode": "18249",
    "city": "Warnow"
  },
  {
    "postcode": "18249",
    "city": "Zernin"
  },
  {
    "postcode": "18249",
    "city": "Peetsch"
  },
  {
    "postcode": "18249",
    "city": "Gralow"
  },
  {
    "postcode": "18249",
    "city": "Lübzin"
  },
  {
    "postcode": "18249",
    "city": "Rosenow"
  },
  {
    "postcode": "18258",
    "city": "Benitz bei Schwaan"
  },
  {
    "postcode": "18258",
    "city": "Bröbberow"
  },
  {
    "postcode": "18258",
    "city": "Groß Grenz"
  },
  {
    "postcode": "18258",
    "city": "Kassow"
  },
  {
    "postcode": "18258",
    "city": "Klein Grenz"
  },
  {
    "postcode": "18258",
    "city": "Letschow"
  },
  {
    "postcode": "18258",
    "city": "Rukieten"
  },
  {
    "postcode": "18258",
    "city": "Schwaan"
  },
  {
    "postcode": "18258",
    "city": "Vorbeck bei Bützow"
  },
  {
    "postcode": "18258",
    "city": "Wiendorf bei Bützow"
  },
  {
    "postcode": "18258",
    "city": "Zeez"
  },
  {
    "postcode": "18258",
    "city": "Rostock"
  },
  {
    "postcode": "18258",
    "city": "Benitz"
  },
  {
    "postcode": "18258",
    "city": "Vorbeck"
  },
  {
    "postcode": "18258",
    "city": "Wiendorf"
  },
  {
    "postcode": "18258",
    "city": "Brookhusen"
  },
  {
    "postcode": "18258",
    "city": "Werle"
  },
  {
    "postcode": "18258",
    "city": "Göldenitz"
  },
  {
    "postcode": "18258",
    "city": "Hof Tatschow"
  },
  {
    "postcode": "18258",
    "city": "Bandow"
  },
  {
    "postcode": "18258",
    "city": "Kambs"
  },
  {
    "postcode": "18258",
    "city": "Neu Wiendorf"
  },
  {
    "postcode": "18258",
    "city": "Niendorf"
  },
  {
    "postcode": "18273",
    "city": "Güstrow"
  },
  {
    "postcode": "18273",
    "city": "Klueß"
  },
  {
    "postcode": "18273",
    "city": "Rostock"
  },
  {
    "postcode": "18273",
    "city": "Suckow"
  },
  {
    "postcode": "18273",
    "city": "Primerburg"
  },
  {
    "postcode": "18273",
    "city": "Neu Strenz"
  },
  {
    "postcode": "18276",
    "city": "Augustenruh"
  },
  {
    "postcode": "18276",
    "city": "Badendiek"
  },
  {
    "postcode": "18276",
    "city": "Bölkow"
  },
  {
    "postcode": "18276",
    "city": "Bülow bei Güstrow"
  },
  {
    "postcode": "18276",
    "city": "Dehmen"
  },
  {
    "postcode": "18276",
    "city": "Ganschow"
  },
  {
    "postcode": "18276",
    "city": "Glasewitz"
  },
  {
    "postcode": "18276",
    "city": "Goldewin"
  },
  {
    "postcode": "18276",
    "city": "Groß Schwiesow"
  },
  {
    "postcode": "18276",
    "city": "Gülzow bei Güstrow"
  },
  {
    "postcode": "18276",
    "city": "Gülzow-Prüzen"
  },
  {
    "postcode": "18276",
    "city": "Gutow"
  },
  {
    "postcode": "18276",
    "city": "Klein Breesen"
  },
  {
    "postcode": "18276",
    "city": "Klein Schwiesow"
  },
  {
    "postcode": "18276",
    "city": "Klein Upahl"
  },
  {
    "postcode": "18276",
    "city": "Knegendorf"
  },
  {
    "postcode": "18276",
    "city": "Kuhs"
  },
  {
    "postcode": "18276",
    "city": "Lohmen bei Güstrow"
  },
  {
    "postcode": "18276",
    "city": "Lüssow bei Güstrow"
  },
  {
    "postcode": "18276",
    "city": "Mierendorf"
  },
  {
    "postcode": "18276",
    "city": "Mistorf"
  },
  {
    "postcode": "18276",
    "city": "Mühl Rosin"
  },
  {
    "postcode": "18276",
    "city": "Oldenstorf"
  },
  {
    "postcode": "18276",
    "city": "Plaaz"
  },
  {
    "postcode": "18276",
    "city": "Prüzen"
  },
  {
    "postcode": "18276",
    "city": "Recknitz"
  },
  {
    "postcode": "18276",
    "city": "Reimershagen"
  },
  {
    "postcode": "18276",
    "city": "Rum Kogel"
  },
  {
    "postcode": "18276",
    "city": "Sarmstorf bei Güstrow"
  },
  {
    "postcode": "18276",
    "city": "Siemitz"
  },
  {
    "postcode": "18276",
    "city": "Strenz"
  },
  {
    "postcode": "18276",
    "city": "Suckwitz"
  },
  {
    "postcode": "18276",
    "city": "Zapkendorf"
  },
  {
    "postcode": "18276",
    "city": "Zehna"
  },
  {
    "postcode": "18276",
    "city": "Rostock"
  },
  {
    "postcode": "18276",
    "city": "Lohmen"
  },
  {
    "postcode": "18276",
    "city": "Lüssow"
  },
  {
    "postcode": "18276",
    "city": "Sarmstorf"
  },
  {
    "postcode": "18276",
    "city": "Kussow"
  },
  {
    "postcode": "18276",
    "city": "Bülower Burg"
  },
  {
    "postcode": "18276",
    "city": "Schönwolde"
  },
  {
    "postcode": "18276",
    "city": "Bülow"
  },
  {
    "postcode": "18276",
    "city": "Mühlengeez"
  },
  {
    "postcode": "18276",
    "city": "Tieplitz"
  },
  {
    "postcode": "18276",
    "city": "Karcheez"
  },
  {
    "postcode": "18276",
    "city": "Boldebuck"
  },
  {
    "postcode": "18276",
    "city": "Gülzow"
  },
  {
    "postcode": "18276",
    "city": "Groß Upahl"
  },
  {
    "postcode": "18276",
    "city": "Wilhelminenhof"
  },
  {
    "postcode": "18276",
    "city": "Hägerfelde"
  },
  {
    "postcode": "18276",
    "city": "Parum"
  },
  {
    "postcode": "18276",
    "city": "Langensee"
  },
  {
    "postcode": "18276",
    "city": "Zehlendorf"
  },
  {
    "postcode": "18276",
    "city": "Altenhagen"
  },
  {
    "postcode": "18276",
    "city": "Garden"
  },
  {
    "postcode": "18276",
    "city": "Gerdshagen"
  },
  {
    "postcode": "18276",
    "city": "Lähnwitz"
  },
  {
    "postcode": "18276",
    "city": "Nienhagen"
  },
  {
    "postcode": "18276",
    "city": "Rothbeck"
  },
  {
    "postcode": "18276",
    "city": "Karow"
  },
  {
    "postcode": "18276",
    "city": "Käselow"
  },
  {
    "postcode": "18276",
    "city": "Kirch Rosin"
  },
  {
    "postcode": "18276",
    "city": "Spoitgendorf"
  },
  {
    "postcode": "18276",
    "city": "Wendorf"
  },
  {
    "postcode": "18276",
    "city": "Bredentin"
  },
  {
    "postcode": "18276",
    "city": "Braunsberg"
  },
  {
    "postcode": "18276",
    "city": "Groß Breesen"
  },
  {
    "postcode": "18276",
    "city": "Neuhof"
  },
  {
    "postcode": "18279",
    "city": "Bansow"
  },
  {
    "postcode": "18279",
    "city": "Dersentin"
  },
  {
    "postcode": "18279",
    "city": "Gremmelin"
  },
  {
    "postcode": "18279",
    "city": "Klaber"
  },
  {
    "postcode": "18279",
    "city": "Krevtsee"
  },
  {
    "postcode": "18279",
    "city": "Lalendorf"
  },
  {
    "postcode": "18279",
    "city": "Langhagen bei Güstrow"
  },
  {
    "postcode": "18279",
    "city": "Plaaz"
  },
  {
    "postcode": "18279",
    "city": "Rothspalk"
  },
  {
    "postcode": "18279",
    "city": "Wattmannshagen"
  },
  {
    "postcode": "18279",
    "city": "Rostock"
  },
  {
    "postcode": "18279",
    "city": "Alt Krassow"
  },
  {
    "postcode": "18279",
    "city": "Langhagen"
  },
  {
    "postcode": "18279",
    "city": "Roggow"
  },
  {
    "postcode": "18279",
    "city": "Raden"
  },
  {
    "postcode": "18279",
    "city": "Schlieffenberg"
  },
  {
    "postcode": "18279",
    "city": "Mamerow"
  },
  {
    "postcode": "18279",
    "city": "Lübsee"
  },
  {
    "postcode": "18279",
    "city": "Bergfeld"
  },
  {
    "postcode": "18279",
    "city": "Carlsdorf"
  },
  {
    "postcode": "18279",
    "city": "Friedrichshagen"
  },
  {
    "postcode": "18279",
    "city": "Tolzin"
  },
  {
    "postcode": "18279",
    "city": "Vietgest"
  },
  {
    "postcode": "18279",
    "city": "Niegleve"
  },
  {
    "postcode": "18279",
    "city": "Reinshagen"
  },
  {
    "postcode": "18279",
    "city": "Vogelsang"
  },
  {
    "postcode": "18279",
    "city": "Neu Krassow"
  },
  {
    "postcode": "18279",
    "city": "Nienhagen"
  },
  {
    "postcode": "18292",
    "city": "Bellin bei Güstrow"
  },
  {
    "postcode": "18292",
    "city": "Dobbin bei Güstrow"
  },
  {
    "postcode": "18292",
    "city": "Dobbin-Linstow"
  },
  {
    "postcode": "18292",
    "city": "Glave"
  },
  {
    "postcode": "18292",
    "city": "Groß Bäbelin"
  },
  {
    "postcode": "18292",
    "city": "Groß Grabow"
  },
  {
    "postcode": "18292",
    "city": "Hinzenhagen"
  },
  {
    "postcode": "18292",
    "city": "Hoppenrade bei Güstrow"
  },
  {
    "postcode": "18292",
    "city": "Klein Bäbelin"
  },
  {
    "postcode": "18292",
    "city": "Koppelow"
  },
  {
    "postcode": "18292",
    "city": "Krakow am See"
  },
  {
    "postcode": "18292",
    "city": "Kuchelmiß"
  },
  {
    "postcode": "18292",
    "city": "Schwiggerow"
  },
  {
    "postcode": "18292",
    "city": "Serrahn bei Güstrow"
  },
  {
    "postcode": "18292",
    "city": "Striggow"
  },
  {
    "postcode": "18292",
    "city": "Rostock"
  },
  {
    "postcode": "18292",
    "city": "Hoppenrade"
  },
  {
    "postcode": "18292",
    "city": "Zietlitz"
  },
  {
    "postcode": "18292",
    "city": "Linstow"
  },
  {
    "postcode": "18292",
    "city": "Dobbin"
  },
  {
    "postcode": "18292",
    "city": "Kölln"
  },
  {
    "postcode": "18292",
    "city": "Lüdershagen"
  },
  {
    "postcode": "18292",
    "city": "Möllen"
  },
  {
    "postcode": "18292",
    "city": "Krakow"
  },
  {
    "postcode": "18292",
    "city": "Bellin"
  },
  {
    "postcode": "18292",
    "city": "Bossow"
  },
  {
    "postcode": "18292",
    "city": "Steinbeck"
  },
  {
    "postcode": "18292",
    "city": "Alt Sammit"
  },
  {
    "postcode": "18292",
    "city": "Charlottenthal"
  },
  {
    "postcode": "18292",
    "city": "Marienhof"
  },
  {
    "postcode": "18292",
    "city": "Klein Grabow"
  },
  {
    "postcode": "18292",
    "city": "Neu Sammit"
  },
  {
    "postcode": "18292",
    "city": "Serrahn"
  },
  {
    "postcode": "18292",
    "city": "Ahrenshagen"
  },
  {
    "postcode": "18292",
    "city": "Seegrube"
  },
  {
    "postcode": "18292",
    "city": "Wilsen"
  },
  {
    "postcode": "18299",
    "city": "Alt Kätwin"
  },
  {
    "postcode": "18299",
    "city": "Diekhof bei Laage"
  },
  {
    "postcode": "18299",
    "city": "Dolgen am See"
  },
  {
    "postcode": "18299",
    "city": "Drölitz"
  },
  {
    "postcode": "18299",
    "city": "Groß Lantow"
  },
  {
    "postcode": "18299",
    "city": "Groß Ridsenow"
  },
  {
    "postcode": "18299",
    "city": "Hohen Sprenz"
  },
  {
    "postcode": "18299",
    "city": "Kankel"
  },
  {
    "postcode": "18299",
    "city": "Klein Lantow"
  },
  {
    "postcode": "18299",
    "city": "Klein Ridsenow"
  },
  {
    "postcode": "18299",
    "city": "Klein Sprenz"
  },
  {
    "postcode": "18299",
    "city": "Knegendorf"
  },
  {
    "postcode": "18299",
    "city": "Laage"
  },
  {
    "postcode": "18299",
    "city": "Liessow bei Güstrow"
  },
  {
    "postcode": "18299",
    "city": "Pölitz bei Güstrow"
  },
  {
    "postcode": "18299",
    "city": "Schweez"
  },
  {
    "postcode": "18299",
    "city": "Spotendorf"
  },
  {
    "postcode": "18299",
    "city": "Striesdorf"
  },
  {
    "postcode": "18299",
    "city": "Wardow"
  },
  {
    "postcode": "18299",
    "city": "Weitendorf bei Güstrow"
  },
  {
    "postcode": "18299",
    "city": "Wozeten"
  },
  {
    "postcode": "18299",
    "city": "Rostock"
  },
  {
    "postcode": "18299",
    "city": "Dolgen"
  },
  {
    "postcode": "18299",
    "city": "Friedrichshof"
  },
  {
    "postcode": "18299",
    "city": "Sabel"
  },
  {
    "postcode": "18299",
    "city": "Dudinghausen"
  },
  {
    "postcode": "18299",
    "city": "Woland"
  },
  {
    "postcode": "18299",
    "city": "Kronskamp"
  },
  {
    "postcode": "18299",
    "city": "Liessow"
  },
  {
    "postcode": "18299",
    "city": "Pölitz"
  },
  {
    "postcode": "18299",
    "city": "Striesenow"
  },
  {
    "postcode": "18299",
    "city": "Diekhof"
  },
  {
    "postcode": "18299",
    "city": "Weitendorf"
  },
  {
    "postcode": "18299",
    "city": "Alt Diekhof"
  },
  {
    "postcode": "18299",
    "city": "Kritzkow"
  },
  {
    "postcode": "18299",
    "city": "Breesen"
  },
  {
    "postcode": "18299",
    "city": "Lüningsdorf"
  },
  {
    "postcode": "18299",
    "city": "Korleput"
  },
  {
    "postcode": "18299",
    "city": "Jahmen"
  },
  {
    "postcode": "18299",
    "city": "Lissow"
  },
  {
    "postcode": "18299",
    "city": "Lissow-Bau"
  },
  {
    "postcode": "18299",
    "city": "Pinnow"
  },
  {
    "postcode": "18299",
    "city": "Rossewitz"
  },
  {
    "postcode": "18299",
    "city": "Subzin"
  },
  {
    "postcode": "18299",
    "city": "Kobrow"
  },
  {
    "postcode": "18299",
    "city": "Kossow"
  },
  {
    "postcode": "18299",
    "city": "Goritz"
  },
  {
    "postcode": "18299",
    "city": "Teschow"
  },
  {
    "postcode": "18299",
    "city": "Polchow"
  },
  {
    "postcode": "18299",
    "city": "Neu Kätwin"
  },
  {
    "postcode": "18299",
    "city": "Vipernitz"
  },
  {
    "postcode": "18311",
    "city": "Altheide"
  },
  {
    "postcode": "18311",
    "city": "Beiershagen"
  },
  {
    "postcode": "18311",
    "city": "Damgarten"
  },
  {
    "postcode": "18311",
    "city": "Dechowshof"
  },
  {
    "postcode": "18311",
    "city": "Hirschburg"
  },
  {
    "postcode": "18311",
    "city": "Klockenhagen"
  },
  {
    "postcode": "18311",
    "city": "Pütnitz"
  },
  {
    "postcode": "18311",
    "city": "Ribnitz-Damgarten"
  },
  {
    "postcode": "18311",
    "city": "Tempel"
  },
  {
    "postcode": "18311",
    "city": "Vorpommern-Rügen"
  },
  {
    "postcode": "18311",
    "city": "Ribnitz"
  },
  {
    "postcode": "18311",
    "city": "Petersdorf"
  },
  {
    "postcode": "18311",
    "city": "Langendamm"
  },
  {
    "postcode": "18311",
    "city": "Körkwitz"
  },
  {
    "postcode": "18311",
    "city": "Freudenberg"
  },
  {
    "postcode": "18311",
    "city": "Neuhof"
  },
  {
    "postcode": "18311",
    "city": "Borg"
  },
  {
    "postcode": "18311",
    "city": "Klein-Müritz"
  },
  {
    "postcode": "18311",
    "city": "Neuheide"
  },
  {
    "postcode": "18311",
    "city": "Wilmshagen"
  },
  {
    "postcode": "18314",
    "city": "Bartelshagen II bei Barth"
  },
  {
    "postcode": "18314",
    "city": "Dabitz"
  },
  {
    "postcode": "18314",
    "city": "Divitz"
  },
  {
    "postcode": "18314",
    "city": "Divitz-Spoldershagen"
  },
  {
    "postcode": "18314",
    "city": "Kenz"
  },
  {
    "postcode": "18314",
    "city": "Kenz-Küstrow"
  },
  {
    "postcode": "18314",
    "city": "Küstrow"
  },
  {
    "postcode": "18314",
    "city": "Löbnitz bei Ribnitz-Damgarten"
  },
  {
    "postcode": "18314",
    "city": "Lüdershagen bei Ribnitz-Damgarten"
  },
  {
    "postcode": "18314",
    "city": "Martenshagen"
  },
  {
    "postcode": "18314",
    "city": "Spoldershagen"
  },
  {
    "postcode": "18314",
    "city": "Wobbelkow"
  },
  {
    "postcode": "18314",
    "city": "Zipke"
  },
  {
    "postcode": "18314",
    "city": "Vorpommern-Rügen"
  },
  {
    "postcode": "18314",
    "city": "Löbnitz"
  },
  {
    "postcode": "18314",
    "city": "Lüdershagen"
  },
  {
    "postcode": "18314",
    "city": "Frauendorf"
  },
  {
    "postcode": "18314",
    "city": "Gäthkenhagen"
  },
  {
    "postcode": "18314",
    "city": "Rubitz"
  },
  {
    "postcode": "18314",
    "city": "Saatel"
  },
  {
    "postcode": "18314",
    "city": "Kindshagen"
  },
  {
    "postcode": "18314",
    "city": "Buchenhorst"
  },
  {
    "postcode": "18314",
    "city": "Redebas"
  },
  {
    "postcode": "18314",
    "city": "Heidberg"
  },
  {
    "postcode": "18314",
    "city": "Lüdershagen Heide"
  },
  {
    "postcode": "18314",
    "city": "Kronsberg"
  },
  {
    "postcode": "18317",
    "city": "Hessenburg"
  },
  {
    "postcode": "18317",
    "city": "Kückenshagen"
  },
  {
    "postcode": "18317",
    "city": "Saal bei Ribnitz-Damgarten"
  },
  {
    "postcode": "18317",
    "city": "Vorpommern-Rügen"
  },
  {
    "postcode": "18317",
    "city": "Saal"
  },
  {
    "postcode": "18317",
    "city": "Hermannshagen Dorf"
  },
  {
    "postcode": "18317",
    "city": "Hermannshof"
  },
  {
    "postcode": "18317",
    "city": "Bartelshagen II"
  },
  {
    "postcode": "18317",
    "city": "Hermannshagen-Heide"
  },
  {
    "postcode": "18317",
    "city": "Neuendorf"
  },
  {
    "postcode": "18317",
    "city": "Neuendorf Heide"
  },
  {
    "postcode": "18317",
    "city": "Neuhof"
  },
  {
    "postcode": "18320",
    "city": "Ahrenshagen-Daskow"
  },
  {
    "postcode": "18320",
    "city": "Altenwillershagen"
  },
  {
    "postcode": "18320",
    "city": "Behrenshagen"
  },
  {
    "postcode": "18320",
    "city": "Dettmannsdorf bei Bad Sülze"
  },
  {
    "postcode": "18320",
    "city": "Gruel"
  },
  {
    "postcode": "18320",
    "city": "Pantlitz"
  },
  {
    "postcode": "18320",
    "city": "Plummendorf"
  },
  {
    "postcode": "18320",
    "city": "Prusdorf"
  },
  {
    "postcode": "18320",
    "city": "Schlemmin bei Ribnitz-Damgarten"
  },
  {
    "postcode": "18320",
    "city": "Tribohm"
  },
  {
    "postcode": "18320",
    "city": "Trinwillershagen"
  },
  {
    "postcode": "18320",
    "city": "Vorpommern-Rügen"
  },
  {
    "postcode": "18320",
    "city": "Schlemmin"
  },
  {
    "postcode": "18320",
    "city": "Daskow"
  },
  {
    "postcode": "18320",
    "city": "Ahrenshagen"
  },
  {
    "postcode": "18320",
    "city": "Eickhof"
  },
  {
    "postcode": "18320",
    "city": "Neuenrost"
  },
  {
    "postcode": "18320",
    "city": "Langenhanshagen"
  },
  {
    "postcode": "18320",
    "city": "Wiepkenhagen"
  },
  {
    "postcode": "18320",
    "city": "Neuenlübke"
  },
  {
    "postcode": "18320",
    "city": "Balkenkoppel"
  },
  {
    "postcode": "18334",
    "city": "Bad Sülze"
  },
  {
    "postcode": "18334",
    "city": "Böhlendorf"
  },
  {
    "postcode": "18334",
    "city": "Breesen bei Ribnitz-Damgarten"
  },
  {
    "postcode": "18334",
    "city": "Dammerstorf"
  },
  {
    "postcode": "18334",
    "city": "Dettmannsdorf bei Bad Sülze"
  },
  {
    "postcode": "18334",
    "city": "Dudendorf"
  },
  {
    "postcode": "18334",
    "city": "Eixen"
  },
  {
    "postcode": "18334",
    "city": "Forkenbeck"
  },
  {
    "postcode": "18334",
    "city": "Kavelsdorf"
  },
  {
    "postcode": "18334",
    "city": "Kölzow"
  },
  {
    "postcode": "18334",
    "city": "Langsdorf bei Bad Sülze"
  },
  {
    "postcode": "18334",
    "city": "Leplow"
  },
  {
    "postcode": "18334",
    "city": "Lindholz"
  },
  {
    "postcode": "18334",
    "city": "Marlow bei Ribnitz-Damgarten"
  },
  {
    "postcode": "18334",
    "city": "Palmzin"
  },
  {
    "postcode": "18334",
    "city": "Plennin"
  },
  {
    "postcode": "18334",
    "city": "Ravenhorst"
  },
  {
    "postcode": "18334",
    "city": "Redderstorf"
  },
  {
    "postcode": "18334",
    "city": "Schulenberg bei Ribnitz-Damgarten"
  },
  {
    "postcode": "18334",
    "city": "Semlow"
  },
  {
    "postcode": "18334",
    "city": "Stormsdorf"
  },
  {
    "postcode": "18334",
    "city": "Wohsen"
  },
  {
    "postcode": "18334",
    "city": "Wöpkendorf"
  },
  {
    "postcode": "18334",
    "city": "Zornow"
  },
  {
    "postcode": "18334",
    "city": "Vorpommern-Rügen"
  },
  {
    "postcode": "18334",
    "city": "Dettmannsdorf"
  },
  {
    "postcode": "18334",
    "city": "Dettmannsdorf-Kölzow"
  },
  {
    "postcode": "18334",
    "city": "Kucksdorf"
  },
  {
    "postcode": "18334",
    "city": "Spiekersdorf"
  },
  {
    "postcode": "18334",
    "city": "Bisdorf"
  },
  {
    "postcode": "18334",
    "city": "Tangrim"
  },
  {
    "postcode": "18334",
    "city": "Nütschow"
  },
  {
    "postcode": "18334",
    "city": "Breesen"
  },
  {
    "postcode": "18334",
    "city": "Schabow"
  },
  {
    "postcode": "18334",
    "city": "Langsdorf"
  },
  {
    "postcode": "18334",
    "city": "Carlsthal"
  },
  {
    "postcode": "18334",
    "city": "Camitz"
  },
  {
    "postcode": "18334",
    "city": "Karlshof"
  },
  {
    "postcode": "18337",
    "city": "Allerstorf"
  },
  {
    "postcode": "18337",
    "city": "Carlewitz"
  },
  {
    "postcode": "18337",
    "city": "Dänschenburg"
  },
  {
    "postcode": "18337",
    "city": "Ehmkenhagen"
  },
  {
    "postcode": "18337",
    "city": "Gresenhorst"
  },
  {
    "postcode": "18337",
    "city": "Jahnkendorf"
  },
  {
    "postcode": "18337",
    "city": "Marlow bei Ribnitz-Damgarten"
  },
  {
    "postcode": "18337",
    "city": "Schulenberg bei Ribnitz-Damgarten"
  },
  {
    "postcode": "18337",
    "city": "Tressentin"
  },
  {
    "postcode": "18337",
    "city": "Vorpommern-Rügen"
  },
  {
    "postcode": "18337",
    "city": "Marlow"
  },
  {
    "postcode": "18337",
    "city": "Bartelshagen I"
  },
  {
    "postcode": "18337",
    "city": "Kloster Wulfshagen"
  },
  {
    "postcode": "18337",
    "city": "Kneese"
  },
  {
    "postcode": "18337",
    "city": "Brünkendorf"
  },
  {
    "postcode": "18337",
    "city": "Alt Guthendorf"
  },
  {
    "postcode": "18337",
    "city": "Poppendorf"
  },
  {
    "postcode": "18337",
    "city": "Neu Poppendorf"
  },
  {
    "postcode": "18337",
    "city": "Bookhorst"
  },
  {
    "postcode": "18337",
    "city": "Völkshagen"
  },
  {
    "postcode": "18337",
    "city": "Schulenberg"
  },
  {
    "postcode": "18337",
    "city": "Fahrenhaupt"
  },
  {
    "postcode": "18337",
    "city": "Kuhlrade"
  },
  {
    "postcode": "18337",
    "city": "Brunstorf"
  },
  {
    "postcode": "18337",
    "city": "Rostocker Wulfshagen"
  },
  {
    "postcode": "18337",
    "city": "Neu Steinhorst"
  },
  {
    "postcode": "18337",
    "city": "Neu Guthendorf"
  },
  {
    "postcode": "18337",
    "city": "Alt Steinhorst"
  },
  {
    "postcode": "18337",
    "city": "Carlsruhe"
  },
  {
    "postcode": "18347",
    "city": "Dändorf"
  },
  {
    "postcode": "18347",
    "city": "Dierhagen Ostseebad"
  },
  {
    "postcode": "18347",
    "city": "Dierhagen"
  },
  {
    "postcode": "18347",
    "city": "Ostseebad Ahrenshoop"
  },
  {
    "postcode": "18347",
    "city": "Ostseebad Wustrow"
  },
  {
    "postcode": "18347",
    "city": "Vorpommern-Rügen"
  },
  {
    "postcode": "18347",
    "city": "Dierhagen Strand"
  },
  {
    "postcode": "18347",
    "city": "Dierhagen Dorf"
  },
  {
    "postcode": "18347",
    "city": "Dierhagen Ost"
  },
  {
    "postcode": "18347",
    "city": "Neuhaus"
  },
  {
    "postcode": "18347",
    "city": "Dierhagen Neuhaus"
  },
  {
    "postcode": "18347",
    "city": "Körkwitz Hof"
  },
  {
    "postcode": "18347",
    "city": "Althagen"
  },
  {
    "postcode": "18347",
    "city": "Ahrenshoop"
  },
  {
    "postcode": "18347",
    "city": "Niehagen"
  },
  {
    "postcode": "18356",
    "city": "Barth"
  },
  {
    "postcode": "18356",
    "city": "Bodstedt"
  },
  {
    "postcode": "18356",
    "city": "Fahrenkamp bei Barth"
  },
  {
    "postcode": "18356",
    "city": "Fuhlendorf Darß"
  },
  {
    "postcode": "18356",
    "city": "Fuhlendorf"
  },
  {
    "postcode": "18356",
    "city": "Kenz-Küstrow"
  },
  {
    "postcode": "18356",
    "city": "Löbnitz bei Ribnitz-Damgarten"
  },
  {
    "postcode": "18356",
    "city": "Pruchten"
  },
  {
    "postcode": "18356",
    "city": "Vorpommern-Rügen"
  },
  {
    "postcode": "18356",
    "city": "Michaelsdorf"
  },
  {
    "postcode": "18356",
    "city": "Gut Glück"
  },
  {
    "postcode": "18356",
    "city": "Bresewitz"
  },
  {
    "postcode": "18374",
    "city": "Zingst Ostseebad"
  },
  {
    "postcode": "18374",
    "city": "Zingst"
  },
  {
    "postcode": "18374",
    "city": "Vorpommern-Rügen"
  },
  {
    "postcode": "18374",
    "city": "Müggenburg"
  },
  {
    "postcode": "18375",
    "city": "Born auf dem Darß"
  },
  {
    "postcode": "18375",
    "city": "Ostseebad Prerow"
  },
  {
    "postcode": "18375",
    "city": "Wieck auf dem Darß"
  },
  {
    "postcode": "18375",
    "city": "Vorpommern-Rügen"
  },
  {
    "postcode": "18375",
    "city": "Born a. Darß"
  },
  {
    "postcode": "18375",
    "city": "Wieck a Darß"
  },
  {
    "postcode": "18435",
    "city": "Knieper"
  },
  {
    "postcode": "18435",
    "city": "Knieper Nord"
  },
  {
    "postcode": "18435",
    "city": "Knieper West"
  },
  {
    "postcode": "18435",
    "city": "Kniepervorstadt"
  },
  {
    "postcode": "18435",
    "city": "Stralsund"
  },
  {
    "postcode": "18435",
    "city": "Vorpommern-Rügen"
  },
  {
    "postcode": "18437",
    "city": "Am Lüssower Berg"
  },
  {
    "postcode": "18437",
    "city": "Am Umspannwerk"
  },
  {
    "postcode": "18437",
    "city": "Freienlande"
  },
  {
    "postcode": "18437",
    "city": "Grünhufe"
  },
  {
    "postcode": "18437",
    "city": "Grünthal-Viermorgen"
  },
  {
    "postcode": "18437",
    "city": "Kniepervorstadt"
  },
  {
    "postcode": "18437",
    "city": "Langendorfer Berg"
  },
  {
    "postcode": "18437",
    "city": "Stralsund"
  },
  {
    "postcode": "18437",
    "city": "Tribseer"
  },
  {
    "postcode": "18437",
    "city": "Tribseer Siedlung"
  },
  {
    "postcode": "18437",
    "city": "Tribseer Vorstadt"
  },
  {
    "postcode": "18437",
    "city": "Tribseer Wiesen"
  },
  {
    "postcode": "18437",
    "city": "Vogelsang"
  },
  {
    "postcode": "18437",
    "city": "Vorpommern-Rügen"
  },
  {
    "postcode": "18437",
    "city": "Stadtkoppel"
  },
  {
    "postcode": "18439",
    "city": "Andershof"
  },
  {
    "postcode": "18439",
    "city": "Bastionengürtel"
  },
  {
    "postcode": "18439",
    "city": "Dänholm"
  },
  {
    "postcode": "18439",
    "city": "Devin"
  },
  {
    "postcode": "18439",
    "city": "Franken"
  },
  {
    "postcode": "18439",
    "city": "Franken Mitte"
  },
  {
    "postcode": "18439",
    "city": "Frankensiedlung"
  },
  {
    "postcode": "18439",
    "city": "Frankenvorstadt"
  },
  {
    "postcode": "18439",
    "city": "Hafeninsel"
  },
  {
    "postcode": "18439",
    "city": "Kniepervorstadt"
  },
  {
    "postcode": "18439",
    "city": "Stralsund"
  },
  {
    "postcode": "18439",
    "city": "Voigdehagen"
  },
  {
    "postcode": "18439",
    "city": "Vorpommern-Rügen"
  },
  {
    "postcode": "18439",
    "city": "Altstadt"
  },
  {
    "postcode": "18442",
    "city": "Buschenhagen"
  },
  {
    "postcode": "18442",
    "city": "Flemendorf"
  },
  {
    "postcode": "18442",
    "city": "Groß Kordshagen"
  },
  {
    "postcode": "18442",
    "city": "Groß Lüdershagen"
  },
  {
    "postcode": "18442",
    "city": "Grün Kordshagen"
  },
  {
    "postcode": "18442",
    "city": "Jakobsdorf bei Stralsund"
  },
  {
    "postcode": "18442",
    "city": "Klein Kordshagen"
  },
  {
    "postcode": "18442",
    "city": "Krummenhagen"
  },
  {
    "postcode": "18442",
    "city": "Kummerow bei Stralsund"
  },
  {
    "postcode": "18442",
    "city": "Lassentin"
  },
  {
    "postcode": "18442",
    "city": "Lüssow bei Stralsund"
  },
  {
    "postcode": "18442",
    "city": "Neu Bartelshagen"
  },
  {
    "postcode": "18442",
    "city": "Niepars"
  },
  {
    "postcode": "18442",
    "city": "Pantelitz"
  },
  {
    "postcode": "18442",
    "city": "Pütte"
  },
  {
    "postcode": "18442",
    "city": "Steinhagen bei Stralsund"
  },
  {
    "postcode": "18442",
    "city": "Viersdorf"
  },
  {
    "postcode": "18442",
    "city": "Wendorf bei Stralsund"
  },
  {
    "postcode": "18442",
    "city": "Wüstenhagen"
  },
  {
    "postcode": "18442",
    "city": "Zimkendorf"
  },
  {
    "postcode": "18442",
    "city": "Zitterpenningshagen"
  },
  {
    "postcode": "18442",
    "city": "Vorpommern-Rügen"
  },
  {
    "postcode": "18442",
    "city": "Jakobsdorf"
  },
  {
    "postcode": "18442",
    "city": "Lüssow"
  },
  {
    "postcode": "18442",
    "city": "Steinhagen"
  },
  {
    "postcode": "18442",
    "city": "Wendorf"
  },
  {
    "postcode": "18442",
    "city": "Berthke"
  },
  {
    "postcode": "18442",
    "city": "Nienhagen"
  },
  {
    "postcode": "18442",
    "city": "Langendorf"
  },
  {
    "postcode": "18442",
    "city": "Obermützkow"
  },
  {
    "postcode": "18442",
    "city": "Zansebuhr"
  },
  {
    "postcode": "18442",
    "city": "Martensdorf"
  },
  {
    "postcode": "18442",
    "city": "Kummerow"
  },
  {
    "postcode": "18442",
    "city": "Zühlendorf"
  },
  {
    "postcode": "18442",
    "city": "Duvendiek"
  },
  {
    "postcode": "18442",
    "city": "Kummerow Heide"
  },
  {
    "postcode": "18442",
    "city": "Negast"
  },
  {
    "postcode": "18442",
    "city": "Teschenhagen"
  },
  {
    "postcode": "18442",
    "city": "Neu Lüdershagen"
  },
  {
    "postcode": "18445",
    "city": "Altenpleen"
  },
  {
    "postcode": "18445",
    "city": "Groß Damitz"
  },
  {
    "postcode": "18445",
    "city": "Groß Kedingshagen"
  },
  {
    "postcode": "18445",
    "city": "Groß Mohrdorf"
  },
  {
    "postcode": "18445",
    "city": "Klausdorf bei Stralsund"
  },
  {
    "postcode": "18445",
    "city": "Klein Kedingshagen"
  },
  {
    "postcode": "18445",
    "city": "Kramerhof bei Stralsund"
  },
  {
    "postcode": "18445",
    "city": "Krönnevitz"
  },
  {
    "postcode": "18445",
    "city": "Neuenpleen"
  },
  {
    "postcode": "18445",
    "city": "Nisdorf"
  },
  {
    "postcode": "18445",
    "city": "Parow"
  },
  {
    "postcode": "18445",
    "city": "Preetz bei Stralsund"
  },
  {
    "postcode": "18445",
    "city": "Prohn"
  },
  {
    "postcode": "18445",
    "city": "Schmedshagen"
  },
  {
    "postcode": "18445",
    "city": "Vorpommern-Rügen"
  },
  {
    "postcode": "18445",
    "city": "Klausdorf"
  },
  {
    "postcode": "18445",
    "city": "Kramerhof"
  },
  {
    "postcode": "18445",
    "city": "Preetz"
  },
  {
    "postcode": "18445",
    "city": "Günz"
  },
  {
    "postcode": "18445",
    "city": "Hohendorf"
  },
  {
    "postcode": "18445",
    "city": "Batevitz"
  },
  {
    "postcode": "18445",
    "city": "Wendisch Langendorf"
  },
  {
    "postcode": "18445",
    "city": "Kinnbackenhagen"
  },
  {
    "postcode": "18445",
    "city": "Bisdorf"
  },
  {
    "postcode": "18445",
    "city": "Klein Mohrdorf"
  },
  {
    "postcode": "18445",
    "city": "Barhöft"
  },
  {
    "postcode": "18445",
    "city": "Solkendorf"
  },
  {
    "postcode": "18445",
    "city": "Vogelsang"
  },
  {
    "postcode": "18445",
    "city": "Oldendorf"
  },
  {
    "postcode": "18445",
    "city": "Muuks"
  },
  {
    "postcode": "18445",
    "city": "Sommerfeld"
  },
  {
    "postcode": "18461",
    "city": "Behrenwalde"
  },
  {
    "postcode": "18461",
    "city": "Franzburg"
  },
  {
    "postcode": "18461",
    "city": "Gersdin"
  },
  {
    "postcode": "18461",
    "city": "Gremersdorf-Buchholz"
  },
  {
    "postcode": "18461",
    "city": "Grenzin"
  },
  {
    "postcode": "18461",
    "city": "Millienhagen-Oebelitz"
  },
  {
    "postcode": "18461",
    "city": "Müggenhall"
  },
  {
    "postcode": "18461",
    "city": "Pöglitz"
  },
  {
    "postcode": "18461",
    "city": "Richtenberg"
  },
  {
    "postcode": "18461",
    "city": "Weitenhagen bei Franzburg"
  },
  {
    "postcode": "18461",
    "city": "Zandershagen"
  },
  {
    "postcode": "18461",
    "city": "Vorpommern-Rügen"
  },
  {
    "postcode": "18461",
    "city": "Weitenhagen"
  },
  {
    "postcode": "18461",
    "city": "Neubauhof"
  },
  {
    "postcode": "18461",
    "city": "Hohenbarnekow"
  },
  {
    "postcode": "18461",
    "city": "Neumühl"
  },
  {
    "postcode": "18461",
    "city": "Gremersdorf"
  },
  {
    "postcode": "18461",
    "city": "Angerode"
  },
  {
    "postcode": "18461",
    "city": "Buchholz"
  },
  {
    "postcode": "18461",
    "city": "Wolfsdorf"
  },
  {
    "postcode": "18461",
    "city": "Eichholz"
  },
  {
    "postcode": "18461",
    "city": "Dolgen"
  },
  {
    "postcode": "18461",
    "city": "Millienhagen"
  },
  {
    "postcode": "18461",
    "city": "Oebelitz"
  },
  {
    "postcode": "18461",
    "city": "Wolfshagen"
  },
  {
    "postcode": "18461",
    "city": "Steinfeld"
  },
  {
    "postcode": "18461",
    "city": "Koitenhagen"
  },
  {
    "postcode": "18465",
    "city": "Drechow"
  },
  {
    "postcode": "18465",
    "city": "Hugoldsdorf"
  },
  {
    "postcode": "18465",
    "city": "Katzenow"
  },
  {
    "postcode": "18465",
    "city": "Landsdorf"
  },
  {
    "postcode": "18465",
    "city": "Rekentin"
  },
  {
    "postcode": "18465",
    "city": "Rönkendorf"
  },
  {
    "postcode": "18465",
    "city": "Siemersdorf"
  },
  {
    "postcode": "18465",
    "city": "Stremlow"
  },
  {
    "postcode": "18465",
    "city": "Tribsees"
  },
  {
    "postcode": "18465",
    "city": "Vorpommern-Rügen"
  },
  {
    "postcode": "18465",
    "city": "Krakow"
  },
  {
    "postcode": "18465",
    "city": "Werder"
  },
  {
    "postcode": "18469",
    "city": "Bussin"
  },
  {
    "postcode": "18469",
    "city": "Karnin bei Stralsund"
  },
  {
    "postcode": "18469",
    "city": "Lendershagen"
  },
  {
    "postcode": "18469",
    "city": "Manschenhagen"
  },
  {
    "postcode": "18469",
    "city": "Schuenhagen"
  },
  {
    "postcode": "18469",
    "city": "Velgast"
  },
  {
    "postcode": "18469",
    "city": "Vorpommern-Rügen"
  },
  {
    "postcode": "18469",
    "city": "Karnin"
  },
  {
    "postcode": "18469",
    "city": "Friedrichshof"
  },
  {
    "postcode": "18469",
    "city": "Hoevet"
  },
  {
    "postcode": "18469",
    "city": "Starkow"
  },
  {
    "postcode": "18469",
    "city": "Altenhagen"
  },
  {
    "postcode": "18469",
    "city": "Neu Seehagen"
  },
  {
    "postcode": "18507",
    "city": "Grellenberg"
  },
  {
    "postcode": "18507",
    "city": "Grimmen"
  },
  {
    "postcode": "18507",
    "city": "Jessin"
  },
  {
    "postcode": "18507",
    "city": "Stoltenhagen"
  },
  {
    "postcode": "18507",
    "city": "Vietlipp"
  },
  {
    "postcode": "18507",
    "city": "Vorpommern-Rügen"
  },
  {
    "postcode": "18507",
    "city": "Appelshof"
  },
  {
    "postcode": "18507",
    "city": "Groß Lehmhagen"
  },
  {
    "postcode": "18507",
    "city": "Heidebrink"
  },
  {
    "postcode": "18507",
    "city": "Hohenwarth"
  },
  {
    "postcode": "18507",
    "city": "Hohenwieden"
  },
  {
    "postcode": "18507",
    "city": "Klein Lehmhagen"
  },
  {
    "postcode": "18507",
    "city": "Gerlachsruh"
  },
  {
    "postcode": "18510",
    "city": "Abtshagen"
  },
  {
    "postcode": "18510",
    "city": "Ahrendsee"
  },
  {
    "postcode": "18510",
    "city": "Behnkendorf"
  },
  {
    "postcode": "18510",
    "city": "Bookhagen"
  },
  {
    "postcode": "18510",
    "city": "Elmenhorst Vorpommern"
  },
  {
    "postcode": "18510",
    "city": "Elmenhorst"
  },
  {
    "postcode": "18510",
    "city": "Grimmen"
  },
  {
    "postcode": "18510",
    "city": "Hoikenhagen"
  },
  {
    "postcode": "18510",
    "city": "Kakernehl"
  },
  {
    "postcode": "18510",
    "city": "Papenhagen bei Grimmen"
  },
  {
    "postcode": "18510",
    "city": "Schönenwalde"
  },
  {
    "postcode": "18510",
    "city": "Sievertshagen"
  },
  {
    "postcode": "18510",
    "city": "Stoltenhagen"
  },
  {
    "postcode": "18510",
    "city": "Ungnade"
  },
  {
    "postcode": "18510",
    "city": "Windebrak"
  },
  {
    "postcode": "18510",
    "city": "Wittenhagen bei Grimmen"
  },
  {
    "postcode": "18510",
    "city": "Zarrendorf"
  },
  {
    "postcode": "18510",
    "city": "Vorpommern-Rügen"
  },
  {
    "postcode": "18510",
    "city": "Papenhagen"
  },
  {
    "postcode": "18510",
    "city": "Wittenhagen"
  },
  {
    "postcode": "18510",
    "city": "Rolofshagen"
  },
  {
    "postcode": "18510",
    "city": "Glashagen"
  },
  {
    "postcode": "18513",
    "city": "Bassendorf"
  },
  {
    "postcode": "18513",
    "city": "Bassin"
  },
  {
    "postcode": "18513",
    "city": "Deyelsdorf"
  },
  {
    "postcode": "18513",
    "city": "Dorow"
  },
  {
    "postcode": "18513",
    "city": "Glewitz bei Grimmen"
  },
  {
    "postcode": "18513",
    "city": "Grammendorf"
  },
  {
    "postcode": "18513",
    "city": "Gransebieth"
  },
  {
    "postcode": "18513",
    "city": "Holthof"
  },
  {
    "postcode": "18513",
    "city": "Jahnkow"
  },
  {
    "postcode": "18513",
    "city": "Leyerhof"
  },
  {
    "postcode": "18513",
    "city": "Müggenwalde"
  },
  {
    "postcode": "18513",
    "city": "Nehringen"
  },
  {
    "postcode": "18513",
    "city": "Quitzin"
  },
  {
    "postcode": "18513",
    "city": "Splietsdorf"
  },
  {
    "postcode": "18513",
    "city": "Strelow"
  },
  {
    "postcode": "18513",
    "city": "Techlin"
  },
  {
    "postcode": "18513",
    "city": "Turow"
  },
  {
    "postcode": "18513",
    "city": "Vorland"
  },
  {
    "postcode": "18513",
    "city": "Wendisch Baggendorf"
  },
  {
    "postcode": "18513",
    "city": "Wolthof"
  },
  {
    "postcode": "18513",
    "city": "Vorpommern-Rügen"
  },
  {
    "postcode": "18513",
    "city": "Glewitz"
  },
  {
    "postcode": "18513",
    "city": "Fäsekow"
  },
  {
    "postcode": "18513",
    "city": "Stubbendorf"
  },
  {
    "postcode": "18513",
    "city": "Langenfelde"
  },
  {
    "postcode": "18513",
    "city": "Voigtsdorf"
  },
  {
    "postcode": "18513",
    "city": "Zarnekow"
  },
  {
    "postcode": "18513",
    "city": "Keffenbrink"
  },
  {
    "postcode": "18513",
    "city": "Rodde"
  },
  {
    "postcode": "18513",
    "city": "Brönkow"
  },
  {
    "postcode": "18513",
    "city": "Kirch Baggendorf"
  },
  {
    "postcode": "18513",
    "city": "Zarrentin"
  },
  {
    "postcode": "18513",
    "city": "Borgstedt"
  },
  {
    "postcode": "18516",
    "city": "Bartmannshagen"
  },
  {
    "postcode": "18516",
    "city": "Boltenhagen bei Grimmen"
  },
  {
    "postcode": "18516",
    "city": "Bretwisch"
  },
  {
    "postcode": "18516",
    "city": "Dönnie"
  },
  {
    "postcode": "18516",
    "city": "Griebenow"
  },
  {
    "postcode": "18516",
    "city": "Kandelin"
  },
  {
    "postcode": "18516",
    "city": "Kaschow"
  },
  {
    "postcode": "18516",
    "city": "Klevenow"
  },
  {
    "postcode": "18516",
    "city": "Poggendorf"
  },
  {
    "postcode": "18516",
    "city": "Prützmannshagen"
  },
  {
    "postcode": "18516",
    "city": "Schmietkow"
  },
  {
    "postcode": "18516",
    "city": "Süderholz Vorpommern"
  },
  {
    "postcode": "18516",
    "city": "Süderholz"
  },
  {
    "postcode": "18516",
    "city": "Willerswalde"
  },
  {
    "postcode": "18516",
    "city": "Wüstenbilow"
  },
  {
    "postcode": "18516",
    "city": "Wüsteney"
  },
  {
    "postcode": "18516",
    "city": "Vorpommern-Rügen"
  },
  {
    "postcode": "18516",
    "city": "Barkow"
  },
  {
    "postcode": "18516",
    "city": "Neuendorf"
  },
  {
    "postcode": "18516",
    "city": "Lüssow"
  },
  {
    "postcode": "18516",
    "city": "Zarnewanz"
  },
  {
    "postcode": "18516",
    "city": "Kreutzmannshagen"
  },
  {
    "postcode": "18516",
    "city": "Wüst Eldena"
  },
  {
    "postcode": "18516",
    "city": "Grischow"
  },
  {
    "postcode": "18516",
    "city": "Groß Bisdorf"
  },
  {
    "postcode": "18516",
    "city": "Rakow"
  },
  {
    "postcode": "18516",
    "city": "Boltenhagen"
  },
  {
    "postcode": "18516",
    "city": "Grabow"
  },
  {
    "postcode": "18516",
    "city": "Gülzow Dorf"
  },
  {
    "postcode": "18516",
    "city": "Klein Bisdorf"
  },
  {
    "postcode": "18516",
    "city": "Behnkenhagen"
  },
  {
    "postcode": "18516",
    "city": "Willershusen"
  },
  {
    "postcode": "18519",
    "city": "Brandshagen"
  },
  {
    "postcode": "18519",
    "city": "Dömitzow"
  },
  {
    "postcode": "18519",
    "city": "Engelswacht"
  },
  {
    "postcode": "18519",
    "city": "Gerdeswalde"
  },
  {
    "postcode": "18519",
    "city": "Hankenhagen"
  },
  {
    "postcode": "18519",
    "city": "Horst bei Grimmen"
  },
  {
    "postcode": "18519",
    "city": "Jager"
  },
  {
    "postcode": "18519",
    "city": "Jeeser"
  },
  {
    "postcode": "18519",
    "city": "Kirchdorf bei Grimmen"
  },
  {
    "postcode": "18519",
    "city": "Miltzow"
  },
  {
    "postcode": "18519",
    "city": "Reinberg bei Grimmen"
  },
  {
    "postcode": "18519",
    "city": "Segebadenhau"
  },
  {
    "postcode": "18519",
    "city": "Stahlbrode"
  },
  {
    "postcode": "18519",
    "city": "Tremt"
  },
  {
    "postcode": "18519",
    "city": "Wilmshagen bei Grimmen"
  },
  {
    "postcode": "18519",
    "city": "Vorpommern-Rügen"
  },
  {
    "postcode": "18519",
    "city": "Sundhagen"
  },
  {
    "postcode": "18519",
    "city": "Reinberg"
  },
  {
    "postcode": "18519",
    "city": "Ahrendsee"
  },
  {
    "postcode": "18519",
    "city": "Reinkenhagen"
  },
  {
    "postcode": "18519",
    "city": "Altenhagen"
  },
  {
    "postcode": "18519",
    "city": "Behnkendorf"
  },
  {
    "postcode": "18519",
    "city": "Wilmshagen"
  },
  {
    "postcode": "18519",
    "city": "Neuhof"
  },
  {
    "postcode": "18519",
    "city": "Mannhagen"
  },
  {
    "postcode": "18519",
    "city": "Klein Miltzow"
  },
  {
    "postcode": "18519",
    "city": "Kirchdorf"
  },
  {
    "postcode": "18519",
    "city": "Oberhinrichshagen"
  },
  {
    "postcode": "18519",
    "city": "Bremerhagen"
  },
  {
    "postcode": "18519",
    "city": "Horst"
  },
  {
    "postcode": "18519",
    "city": "Falkenhagen"
  },
  {
    "postcode": "18519",
    "city": "Groß Behnkenhagen"
  },
  {
    "postcode": "18519",
    "city": "Groß Miltzow"
  },
  {
    "postcode": "18519",
    "city": "Hildebrandshagen"
  },
  {
    "postcode": "18519",
    "city": "Klein Behnkenhagen"
  },
  {
    "postcode": "18519",
    "city": "Middelhagen"
  },
  {
    "postcode": "18519",
    "city": "Niederhof"
  },
  {
    "postcode": "18519",
    "city": "Schönhof"
  },
  {
    "postcode": "18519",
    "city": "Wendorf"
  },
  {
    "postcode": "18519",
    "city": "Wüstenfelde"
  },
  {
    "postcode": "18528",
    "city": "Alt Sassitz"
  },
  {
    "postcode": "18528",
    "city": "Alt Süllitz"
  },
  {
    "postcode": "18528",
    "city": "Bergen auf Rügen"
  },
  {
    "postcode": "18528",
    "city": "Boldevitz"
  },
  {
    "postcode": "18528",
    "city": "Borchtitz"
  },
  {
    "postcode": "18528",
    "city": "Buschvitz"
  },
  {
    "postcode": "18528",
    "city": "Dalkvitz"
  },
  {
    "postcode": "18528",
    "city": "Dumsevitz"
  },
  {
    "postcode": "18528",
    "city": "Gademow"
  },
  {
    "postcode": "18528",
    "city": "Gnies"
  },
  {
    "postcode": "18528",
    "city": "Groß Banzelvitz"
  },
  {
    "postcode": "18528",
    "city": "Groß Kubbelkow"
  },
  {
    "postcode": "18528",
    "city": "Jarnitz"
  },
  {
    "postcode": "18528",
    "city": "Kaiseritz"
  },
  {
    "postcode": "18528",
    "city": "Karow"
  },
  {
    "postcode": "18528",
    "city": "Kartzitz"
  },
  {
    "postcode": "18528",
    "city": "Kiekut"
  },
  {
    "postcode": "18528",
    "city": "Klein Kubbelkow"
  },
  {
    "postcode": "18528",
    "city": "Kluptow"
  },
  {
    "postcode": "18528",
    "city": "Lietzow Rügen"
  },
  {
    "postcode": "18528",
    "city": "Lietzow"
  },
  {
    "postcode": "18528",
    "city": "Lipsitz"
  },
  {
    "postcode": "18528",
    "city": "Lupkow"
  },
  {
    "postcode": "18528",
    "city": "Moisselbritz"
  },
  {
    "postcode": "18528",
    "city": "Mölln-Medow"
  },
  {
    "postcode": "18528",
    "city": "Neklade"
  },
  {
    "postcode": "18528",
    "city": "Neu Sassitz"
  },
  {
    "postcode": "18528",
    "city": "Nistelitz"
  },
  {
    "postcode": "18528",
    "city": "Pantow"
  },
  {
    "postcode": "18528",
    "city": "Parchtitz"
  },
  {
    "postcode": "18528",
    "city": "Patzig"
  },
  {
    "postcode": "18528",
    "city": "Platvitz"
  },
  {
    "postcode": "18528",
    "city": "Prisvitz"
  },
  {
    "postcode": "18528",
    "city": "Ralswiek"
  },
  {
    "postcode": "18528",
    "city": "Ramitz"
  },
  {
    "postcode": "18528",
    "city": "Rappin"
  },
  {
    "postcode": "18528",
    "city": "Reischvitz"
  },
  {
    "postcode": "18528",
    "city": "Schmacht"
  },
  {
    "postcode": "18528",
    "city": "Sehlen Rügen"
  },
  {
    "postcode": "18528",
    "city": "Sehlen"
  },
  {
    "postcode": "18528",
    "city": "Serams"
  },
  {
    "postcode": "18528",
    "city": "Siggermow"
  },
  {
    "postcode": "18528",
    "city": "Silvitz"
  },
  {
    "postcode": "18528",
    "city": "Stedar"
  },
  {
    "postcode": "18528",
    "city": "Streu"
  },
  {
    "postcode": "18528",
    "city": "Strüßendorf"
  },
  {
    "postcode": "18528",
    "city": "Tetzitz"
  },
  {
    "postcode": "18528",
    "city": "Thesenvitz"
  },
  {
    "postcode": "18528",
    "city": "Tilzow"
  },
  {
    "postcode": "18528",
    "city": "Trips"
  },
  {
    "postcode": "18528",
    "city": "Veikvitz"
  },
  {
    "postcode": "18528",
    "city": "Zirkow"
  },
  {
    "postcode": "18528",
    "city": "Zirmoisel"
  },
  {
    "postcode": "18528",
    "city": "Zirsevitz"
  },
  {
    "postcode": "18528",
    "city": "Zittvitz"
  },
  {
    "postcode": "18528",
    "city": "Vorpommern-Rügen"
  },
  {
    "postcode": "18528",
    "city": "Bergen"
  },
  {
    "postcode": "18528",
    "city": "Fabrik"
  },
  {
    "postcode": "18528",
    "city": "Krakow"
  },
  {
    "postcode": "18528",
    "city": "Lubkow"
  },
  {
    "postcode": "18528",
    "city": "Ramitz-Siedlung"
  },
  {
    "postcode": "18528",
    "city": "Dramvitz"
  },
  {
    "postcode": "18528",
    "city": "Stadthof"
  },
  {
    "postcode": "18528",
    "city": "Semper"
  },
  {
    "postcode": "18528",
    "city": "Muglitz"
  },
  {
    "postcode": "18528",
    "city": "Neuendorf"
  },
  {
    "postcode": "18528",
    "city": "Volkshagen"
  },
  {
    "postcode": "18528",
    "city": "Willihof"
  },
  {
    "postcode": "18528",
    "city": "Woorke"
  },
  {
    "postcode": "18528",
    "city": "Augustenhof"
  },
  {
    "postcode": "18528",
    "city": "Bubkevitz"
  },
  {
    "postcode": "18528",
    "city": "Neu Kartzitz"
  },
  {
    "postcode": "18528",
    "city": "Helle"
  },
  {
    "postcode": "18528",
    "city": "Lüßmitz"
  },
  {
    "postcode": "18528",
    "city": "Teschenhagen"
  },
  {
    "postcode": "18528",
    "city": "Tegel"
  },
  {
    "postcode": "18528",
    "city": "Viervitz"
  },
  {
    "postcode": "18546",
    "city": "Blieschow"
  },
  {
    "postcode": "18546",
    "city": "Buddenhagen"
  },
  {
    "postcode": "18546",
    "city": "Dargast"
  },
  {
    "postcode": "18546",
    "city": "Drosevitz"
  },
  {
    "postcode": "18546",
    "city": "Dubnitz"
  },
  {
    "postcode": "18546",
    "city": "Klementelvitz"
  },
  {
    "postcode": "18546",
    "city": "Mukran"
  },
  {
    "postcode": "18546",
    "city": "Neu Mukran"
  },
  {
    "postcode": "18546",
    "city": "Rusewase"
  },
  {
    "postcode": "18546",
    "city": "Sassnitz"
  },
  {
    "postcode": "18546",
    "city": "Staphel"
  },
  {
    "postcode": "18546",
    "city": "Stubbenkammer"
  },
  {
    "postcode": "18546",
    "city": "Werder"
  },
  {
    "postcode": "18546",
    "city": "Wostevitz"
  },
  {
    "postcode": "18546",
    "city": "Vorpommern-Rügen"
  },
  {
    "postcode": "18551",
    "city": "Bisdamitz"
  },
  {
    "postcode": "18551",
    "city": "Blandow"
  },
  {
    "postcode": "18551",
    "city": "Glowe Rügen"
  },
  {
    "postcode": "18551",
    "city": "Glowe"
  },
  {
    "postcode": "18551",
    "city": "Lohme Rügen"
  },
  {
    "postcode": "18551",
    "city": "Lohme"
  },
  {
    "postcode": "18551",
    "city": "Nardevitz"
  },
  {
    "postcode": "18551",
    "city": "Neddesitz"
  },
  {
    "postcode": "18551",
    "city": "Nipmerow"
  },
  {
    "postcode": "18551",
    "city": "Polkvitz"
  },
  {
    "postcode": "18551",
    "city": "Promoisel"
  },
  {
    "postcode": "18551",
    "city": "Ruschvitz"
  },
  {
    "postcode": "18551",
    "city": "Sagard"
  },
  {
    "postcode": "18551",
    "city": "Vietzke"
  },
  {
    "postcode": "18551",
    "city": "Vorpommern-Rügen"
  },
  {
    "postcode": "18551",
    "city": "Spycker"
  },
  {
    "postcode": "18551",
    "city": "Polchow"
  },
  {
    "postcode": "18551",
    "city": "Bobbin"
  },
  {
    "postcode": "18551",
    "city": "Hagen"
  },
  {
    "postcode": "18551",
    "city": "Ranzow"
  },
  {
    "postcode": "18551",
    "city": "Groß Volksitz"
  },
  {
    "postcode": "18551",
    "city": "Gummanz"
  },
  {
    "postcode": "18551",
    "city": "Neuhof"
  },
  {
    "postcode": "18551",
    "city": "Quatzendorf"
  },
  {
    "postcode": "18551",
    "city": "Vorwerk"
  },
  {
    "postcode": "18556",
    "city": "Altenkirchen Rügen"
  },
  {
    "postcode": "18556",
    "city": "Altenkirchen"
  },
  {
    "postcode": "18556",
    "city": "Breege"
  },
  {
    "postcode": "18556",
    "city": "Dranske"
  },
  {
    "postcode": "18556",
    "city": "Fernlüttkevitz"
  },
  {
    "postcode": "18556",
    "city": "Goor"
  },
  {
    "postcode": "18556",
    "city": "Gudderitz"
  },
  {
    "postcode": "18556",
    "city": "Lanckensburg"
  },
  {
    "postcode": "18556",
    "city": "Lobkevitz"
  },
  {
    "postcode": "18556",
    "city": "Lüttkevitz"
  },
  {
    "postcode": "18556",
    "city": "Mattchow"
  },
  {
    "postcode": "18556",
    "city": "Nonnevitz"
  },
  {
    "postcode": "18556",
    "city": "Presenske"
  },
  {
    "postcode": "18556",
    "city": "Putgarten"
  },
  {
    "postcode": "18556",
    "city": "Schwarbe"
  },
  {
    "postcode": "18556",
    "city": "Starrvitz"
  },
  {
    "postcode": "18556",
    "city": "Varnkevitz"
  },
  {
    "postcode": "18556",
    "city": "Vitt"
  },
  {
    "postcode": "18556",
    "city": "Wiek"
  },
  {
    "postcode": "18556",
    "city": "Zühlitz"
  },
  {
    "postcode": "18556",
    "city": "Vorpommern-Rügen"
  },
  {
    "postcode": "18556",
    "city": "Drewoldke"
  },
  {
    "postcode": "18556",
    "city": "Juliusruh"
  },
  {
    "postcode": "18556",
    "city": "Schmantevitz-Kammin"
  },
  {
    "postcode": "18556",
    "city": "Lancken"
  },
  {
    "postcode": "18556",
    "city": "Dranske Hof"
  },
  {
    "postcode": "18556",
    "city": "Gramtitz"
  },
  {
    "postcode": "18556",
    "city": "Kreptitz"
  },
  {
    "postcode": "18556",
    "city": "Kuhle"
  },
  {
    "postcode": "18556",
    "city": "Arkona"
  },
  {
    "postcode": "18556",
    "city": "Bischofsdorf"
  },
  {
    "postcode": "18556",
    "city": "Bohlendorf"
  },
  {
    "postcode": "18556",
    "city": "Fährhof"
  },
  {
    "postcode": "18556",
    "city": "Parchow"
  },
  {
    "postcode": "18556",
    "city": "Wittower Fähre"
  },
  {
    "postcode": "18556",
    "city": "Woldenitz"
  },
  {
    "postcode": "18565",
    "city": "Insel Hiddensee"
  },
  {
    "postcode": "18565",
    "city": "Vorpommern-Rügen"
  },
  {
    "postcode": "18565",
    "city": "Vitte Hiddensee"
  },
  {
    "postcode": "18565",
    "city": "Kloster Hiddensee"
  },
  {
    "postcode": "18565",
    "city": "Neuendorf Hiddensee"
  },
  {
    "postcode": "18565",
    "city": "Grieben Hiddensee"
  },
  {
    "postcode": "18569",
    "city": "Dubkevitz"
  },
  {
    "postcode": "18569",
    "city": "Freesen"
  },
  {
    "postcode": "18569",
    "city": "Freesenort"
  },
  {
    "postcode": "18569",
    "city": "Gagern"
  },
  {
    "postcode": "18569",
    "city": "Gingst"
  },
  {
    "postcode": "18569",
    "city": "Granskevitz"
  },
  {
    "postcode": "18569",
    "city": "Groß Kubitz"
  },
  {
    "postcode": "18569",
    "city": "Grosow"
  },
  {
    "postcode": "18569",
    "city": "Grubnow"
  },
  {
    "postcode": "18569",
    "city": "Güstin"
  },
  {
    "postcode": "18569",
    "city": "Klein Kubitz"
  },
  {
    "postcode": "18569",
    "city": "Kluis"
  },
  {
    "postcode": "18569",
    "city": "Libnitz"
  },
  {
    "postcode": "18569",
    "city": "Liddow"
  },
  {
    "postcode": "18569",
    "city": "Lieschow"
  },
  {
    "postcode": "18569",
    "city": "Lüßvitz"
  },
  {
    "postcode": "18569",
    "city": "Moordorf"
  },
  {
    "postcode": "18569",
    "city": "Mursewiek"
  },
  {
    "postcode": "18569",
    "city": "Neuenkirchen Rügen"
  },
  {
    "postcode": "18569",
    "city": "Neuenkirchen"
  },
  {
    "postcode": "18569",
    "city": "Pansevitz"
  },
  {
    "postcode": "18569",
    "city": "Poggenhof"
  },
  {
    "postcode": "18569",
    "city": "Presnitz"
  },
  {
    "postcode": "18569",
    "city": "Schaprode"
  },
  {
    "postcode": "18569",
    "city": "Schweikvitz"
  },
  {
    "postcode": "18569",
    "city": "Silenz"
  },
  {
    "postcode": "18569",
    "city": "Suhrendorf"
  },
  {
    "postcode": "18569",
    "city": "Tankow"
  },
  {
    "postcode": "18569",
    "city": "Teschvitz"
  },
  {
    "postcode": "18569",
    "city": "Trent Rügen"
  },
  {
    "postcode": "18569",
    "city": "Trent"
  },
  {
    "postcode": "18569",
    "city": "Tribbevitz"
  },
  {
    "postcode": "18569",
    "city": "Tribkevitz"
  },
  {
    "postcode": "18569",
    "city": "Udars"
  },
  {
    "postcode": "18569",
    "city": "Ummanz"
  },
  {
    "postcode": "18569",
    "city": "Unrow"
  },
  {
    "postcode": "18569",
    "city": "Varbelvitz"
  },
  {
    "postcode": "18569",
    "city": "Vaschvitz"
  },
  {
    "postcode": "18569",
    "city": "Venz"
  },
  {
    "postcode": "18569",
    "city": "Vieregge"
  },
  {
    "postcode": "18569",
    "city": "Waase"
  },
  {
    "postcode": "18569",
    "city": "Wusse"
  },
  {
    "postcode": "18569",
    "city": "Zubzow"
  },
  {
    "postcode": "18569",
    "city": "Vorpommern-Rügen"
  },
  {
    "postcode": "18569",
    "city": "Haidhof"
  },
  {
    "postcode": "18569",
    "city": "Kapelle"
  },
  {
    "postcode": "18569",
    "city": "Volsvitz"
  },
  {
    "postcode": "18569",
    "city": "Breetz"
  },
  {
    "postcode": "18569",
    "city": "Laase"
  },
  {
    "postcode": "18569",
    "city": "Lebbin"
  },
  {
    "postcode": "18569",
    "city": "Moritzhagen"
  },
  {
    "postcode": "18569",
    "city": "Neuendorf"
  },
  {
    "postcode": "18569",
    "city": "Reetz"
  },
  {
    "postcode": "18569",
    "city": "Sylvin"
  },
  {
    "postcode": "18569",
    "city": "Zessin"
  },
  {
    "postcode": "18569",
    "city": "Dwarsdorf"
  },
  {
    "postcode": "18569",
    "city": "Lehsten"
  },
  {
    "postcode": "18569",
    "city": "Neuholstein"
  },
  {
    "postcode": "18569",
    "city": "Seehof"
  },
  {
    "postcode": "18569",
    "city": "Streu"
  },
  {
    "postcode": "18569",
    "city": "Ganschwitz"
  },
  {
    "postcode": "18569",
    "city": "Holstenhagen"
  },
  {
    "postcode": "18569",
    "city": "Jabelitz"
  },
  {
    "postcode": "18569",
    "city": "Haide"
  },
  {
    "postcode": "18573",
    "city": "Altefähr"
  },
  {
    "postcode": "18573",
    "city": "Barnkevitz"
  },
  {
    "postcode": "18573",
    "city": "Berglase"
  },
  {
    "postcode": "18573",
    "city": "Bessin"
  },
  {
    "postcode": "18573",
    "city": "Bußvitz"
  },
  {
    "postcode": "18573",
    "city": "Drammendorf"
  },
  {
    "postcode": "18573",
    "city": "Dreschvitz"
  },
  {
    "postcode": "18573",
    "city": "Dußvitz"
  },
  {
    "postcode": "18573",
    "city": "Götemitz"
  },
  {
    "postcode": "18573",
    "city": "Grahlhof"
  },
  {
    "postcode": "18573",
    "city": "Güttin"
  },
  {
    "postcode": "18573",
    "city": "Jarkvitz"
  },
  {
    "postcode": "18573",
    "city": "Kasselvitz"
  },
  {
    "postcode": "18573",
    "city": "Klein Bandelvitz"
  },
  {
    "postcode": "18573",
    "city": "Kransdorf"
  },
  {
    "postcode": "18573",
    "city": "Landow"
  },
  {
    "postcode": "18573",
    "city": "Ralow"
  },
  {
    "postcode": "18573",
    "city": "Rambin"
  },
  {
    "postcode": "18573",
    "city": "Samtens"
  },
  {
    "postcode": "18573",
    "city": "Scharpitz"
  },
  {
    "postcode": "18573",
    "city": "Sehrow"
  },
  {
    "postcode": "18573",
    "city": "Sellentin"
  },
  {
    "postcode": "18573",
    "city": "Vorpommern-Rügen"
  },
  {
    "postcode": "18573",
    "city": "Groß Bandelvitz"
  },
  {
    "postcode": "18573",
    "city": "Gustrowerhöfen"
  },
  {
    "postcode": "18573",
    "city": "Poppelvitz"
  },
  {
    "postcode": "18573",
    "city": "Mölln"
  },
  {
    "postcode": "18573",
    "city": "Rugenhof"
  },
  {
    "postcode": "18573",
    "city": "Breesen"
  },
  {
    "postcode": "18573",
    "city": "Grabitz"
  },
  {
    "postcode": "18573",
    "city": "Rothenkirchen"
  },
  {
    "postcode": "18574",
    "city": "Benz"
  },
  {
    "postcode": "18574",
    "city": "Bietegast"
  },
  {
    "postcode": "18574",
    "city": "Buhse"
  },
  {
    "postcode": "18574",
    "city": "Datzow"
  },
  {
    "postcode": "18574",
    "city": "Drigge"
  },
  {
    "postcode": "18574",
    "city": "Dumsevitz"
  },
  {
    "postcode": "18574",
    "city": "Garz/Rügen"
  },
  {
    "postcode": "18574",
    "city": "Garz"
  },
  {
    "postcode": "18574",
    "city": "Glewitz"
  },
  {
    "postcode": "18574",
    "city": "Glutzow Hof"
  },
  {
    "postcode": "18574",
    "city": "Glutzow Siedlung"
  },
  {
    "postcode": "18574",
    "city": "Grabow"
  },
  {
    "postcode": "18574",
    "city": "Groß Schoritz"
  },
  {
    "postcode": "18574",
    "city": "Groß Stubben"
  },
  {
    "postcode": "18574",
    "city": "Gustow"
  },
  {
    "postcode": "18574",
    "city": "Gützlaffshagen"
  },
  {
    "postcode": "18574",
    "city": "Karnitz Rügen"
  },
  {
    "postcode": "18574",
    "city": "Karnitz"
  },
  {
    "postcode": "18574",
    "city": "Klein Stubben"
  },
  {
    "postcode": "18574",
    "city": "Kniepow"
  },
  {
    "postcode": "18574",
    "city": "Koldevitz"
  },
  {
    "postcode": "18574",
    "city": "Kowall"
  },
  {
    "postcode": "18574",
    "city": "Losentitz"
  },
  {
    "postcode": "18574",
    "city": "Luppath"
  },
  {
    "postcode": "18574",
    "city": "Maltzien"
  },
  {
    "postcode": "18574",
    "city": "Mellnitz"
  },
  {
    "postcode": "18574",
    "city": "Neparmitz"
  },
  {
    "postcode": "18574",
    "city": "Nesebanz"
  },
  {
    "postcode": "18574",
    "city": "Poppelvitz"
  },
  {
    "postcode": "18574",
    "city": "Poseritz"
  },
  {
    "postcode": "18574",
    "city": "Prosnitz"
  },
  {
    "postcode": "18574",
    "city": "Puddemin"
  },
  {
    "postcode": "18574",
    "city": "Renz"
  },
  {
    "postcode": "18574",
    "city": "Saalkow"
  },
  {
    "postcode": "18574",
    "city": "Schabernack"
  },
  {
    "postcode": "18574",
    "city": "Silmenitz"
  },
  {
    "postcode": "18574",
    "city": "Sissow"
  },
  {
    "postcode": "18574",
    "city": "Swantow"
  },
  {
    "postcode": "18574",
    "city": "Swine"
  },
  {
    "postcode": "18574",
    "city": "Tangnitz"
  },
  {
    "postcode": "18574",
    "city": "Üselitz"
  },
  {
    "postcode": "18574",
    "city": "Venzvitz"
  },
  {
    "postcode": "18574",
    "city": "Warksow"
  },
  {
    "postcode": "18574",
    "city": "Zeiten"
  },
  {
    "postcode": "18574",
    "city": "Zicker"
  },
  {
    "postcode": "18574",
    "city": "Zudar"
  },
  {
    "postcode": "18574",
    "city": "Vorpommern-Rügen"
  },
  {
    "postcode": "18574",
    "city": "Freudenberg"
  },
  {
    "postcode": "18574",
    "city": "Palmer Ort"
  },
  {
    "postcode": "18574",
    "city": "Poltenbusch"
  },
  {
    "postcode": "18574",
    "city": "Rosengarten"
  },
  {
    "postcode": "18574",
    "city": "Smitershagen"
  },
  {
    "postcode": "18574",
    "city": "Wendorf"
  },
  {
    "postcode": "18574",
    "city": "Mellnitz Siedlung"
  },
  {
    "postcode": "18581",
    "city": "Altkamp"
  },
  {
    "postcode": "18581",
    "city": "Beuchow"
  },
  {
    "postcode": "18581",
    "city": "Darsband"
  },
  {
    "postcode": "18581",
    "city": "Dolgemost"
  },
  {
    "postcode": "18581",
    "city": "Dumgenevitz"
  },
  {
    "postcode": "18581",
    "city": "Groß Stresow"
  },
  {
    "postcode": "18581",
    "city": "Güstelitz"
  },
  {
    "postcode": "18581",
    "city": "Kasnevitz"
  },
  {
    "postcode": "18581",
    "city": "Ketelshagen"
  },
  {
    "postcode": "18581",
    "city": "Klein Stresow"
  },
  {
    "postcode": "18581",
    "city": "Krakvitz"
  },
  {
    "postcode": "18581",
    "city": "Kransevitz"
  },
  {
    "postcode": "18581",
    "city": "Lauterbach (Rügen)"
  },
  {
    "postcode": "18581",
    "city": "Lauterbach"
  },
  {
    "postcode": "18581",
    "city": "Lonvitz"
  },
  {
    "postcode": "18581",
    "city": "Muglitz"
  },
  {
    "postcode": "18581",
    "city": "Nadelitz"
  },
  {
    "postcode": "18581",
    "city": "Posewald"
  },
  {
    "postcode": "18581",
    "city": "Putbus"
  },
  {
    "postcode": "18581",
    "city": "Strachtitz"
  },
  {
    "postcode": "18581",
    "city": "Vilmnitz"
  },
  {
    "postcode": "18581",
    "city": "Wobbanz"
  },
  {
    "postcode": "18581",
    "city": "Wreechen"
  },
  {
    "postcode": "18581",
    "city": "Vorpommern-Rügen"
  },
  {
    "postcode": "18581",
    "city": "Alt Lanschvitz"
  },
  {
    "postcode": "18581",
    "city": "Pastitz"
  },
  {
    "postcode": "18581",
    "city": "Freetz"
  },
  {
    "postcode": "18581",
    "city": "Gremmin"
  },
  {
    "postcode": "18581",
    "city": "Insel Vilm"
  },
  {
    "postcode": "18581",
    "city": "Krimvitz"
  },
  {
    "postcode": "18581",
    "city": "Neu Lanschvitz"
  },
  {
    "postcode": "18581",
    "city": "Neuendorf"
  },
  {
    "postcode": "18581",
    "city": "Neukamp"
  },
  {
    "postcode": "18586",
    "city": "Alt Reddevitz"
  },
  {
    "postcode": "18586",
    "city": "Altensien"
  },
  {
    "postcode": "18586",
    "city": "Baabe Ostseebad"
  },
  {
    "postcode": "18586",
    "city": "Baabe"
  },
  {
    "postcode": "18586",
    "city": "Gager"
  },
  {
    "postcode": "18586",
    "city": "Garftitz"
  },
  {
    "postcode": "18586",
    "city": "Gobbin"
  },
  {
    "postcode": "18586",
    "city": "Göhren Rügen"
  },
  {
    "postcode": "18586",
    "city": "Göhren"
  },
  {
    "postcode": "18586",
    "city": "Lancken-Granitz"
  },
  {
    "postcode": "18586",
    "city": "Lobbe"
  },
  {
    "postcode": "18586",
    "city": "Middelhagen Rügen"
  },
  {
    "postcode": "18586",
    "city": "Middelhagen"
  },
  {
    "postcode": "18586",
    "city": "Neu Reddevitz"
  },
  {
    "postcode": "18586",
    "city": "Neuensien"
  },
  {
    "postcode": "18586",
    "city": "Sellin Ostseebad"
  },
  {
    "postcode": "18586",
    "city": "Sellin"
  },
  {
    "postcode": "18586",
    "city": "Thiessow"
  },
  {
    "postcode": "18586",
    "city": "Vorpommern-Rügen"
  },
  {
    "postcode": "18586",
    "city": "Mönchgut"
  },
  {
    "postcode": "18586",
    "city": "Blieschow"
  },
  {
    "postcode": "18586",
    "city": "Burtevitz"
  },
  {
    "postcode": "18586",
    "city": "Dummertevitz"
  },
  {
    "postcode": "18586",
    "city": "Preetz"
  },
  {
    "postcode": "18586",
    "city": "Groß Zicker"
  },
  {
    "postcode": "18586",
    "city": "Klein Zicker"
  },
  {
    "postcode": "18586",
    "city": "Mariendorf"
  },
  {
    "postcode": "18586",
    "city": "Moritzdorf"
  },
  {
    "postcode": "18586",
    "city": "Seedorf"
  },
  {
    "postcode": "18609",
    "city": "Ostseebad Binz"
  },
  {
    "postcode": "18609",
    "city": "Prora"
  },
  {
    "postcode": "18609",
    "city": "Vorpommern-Rügen"
  },
  {
    "postcode": "18609",
    "city": "Binz"
  }
]