[
  {
    "postcode": "8606",
    "city": "Bösenbrunn"
  },
  {
    "postcode": "8606",
    "city": "Mühlental"
  },
  {
    "postcode": "8606",
    "city": "Oelsnitz (Vogtland)"
  },
  {
    "postcode": "8606",
    "city": "Oelsnitz"
  },
  {
    "postcode": "8606",
    "city": "Tirpersdorf"
  },
  {
    "postcode": "8606",
    "city": "Triebel / Vogtland"
  },
  {
    "postcode": "8606",
    "city": "Triebel"
  },
  {
    "postcode": "8606",
    "city": "Vogtlandkreis"
  },
  {
    "postcode": "8606",
    "city": "Bobenneukirchen"
  },
  {
    "postcode": "8606",
    "city": "Droßdorf"
  },
  {
    "postcode": "8606",
    "city": "Lottengrün"
  },
  {
    "postcode": "8606",
    "city": "Oelsnitz/Vogtl."
  },
  {
    "postcode": "8606",
    "city": "Ottengrün"
  },
  {
    "postcode": "8606",
    "city": "Planschwitz"
  },
  {
    "postcode": "8606",
    "city": "Posseck"
  },
  {
    "postcode": "8606",
    "city": "Sachsgrün"
  },
  {
    "postcode": "8606",
    "city": "Schönbrunn"
  },
  {
    "postcode": "8606",
    "city": "Tirschendorf"
  },
  {
    "postcode": "8606",
    "city": "Triebel/Vogtl."
  },
  {
    "postcode": "8606",
    "city": "Willitzgrün"
  },
  {
    "postcode": "8606",
    "city": "Oberhermsgrün"
  },
  {
    "postcode": "8606",
    "city": "Unterhermsgrün"
  },
  {
    "postcode": "8606",
    "city": "Hartmannsgrün"
  },
  {
    "postcode": "8606",
    "city": "Brotenfeld"
  },
  {
    "postcode": "8626",
    "city": "Adorf Vogtland"
  },
  {
    "postcode": "8626",
    "city": "Adorf"
  },
  {
    "postcode": "8626",
    "city": "Eichigt"
  },
  {
    "postcode": "8626",
    "city": "Freiberg"
  },
  {
    "postcode": "8626",
    "city": "Mühlental"
  },
  {
    "postcode": "8626",
    "city": "Vogtlandkreis"
  },
  {
    "postcode": "8626",
    "city": "Adorf/Vogtl."
  },
  {
    "postcode": "8626",
    "city": "Hermsgrün"
  },
  {
    "postcode": "8626",
    "city": "Marieney"
  },
  {
    "postcode": "8626",
    "city": "Unterwürschnitz"
  },
  {
    "postcode": "8626",
    "city": "Wohlbach"
  },
  {
    "postcode": "8626",
    "city": "Arnsgrün"
  },
  {
    "postcode": "8626",
    "city": "Rebersreuth"
  },
  {
    "postcode": "8626",
    "city": "Leubetha"
  },
  {
    "postcode": "8626",
    "city": "Gettengrün"
  },
  {
    "postcode": "8626",
    "city": "Bethanien"
  },
  {
    "postcode": "8626",
    "city": "Jugelsburg"
  },
  {
    "postcode": "8626",
    "city": "Remtengrün"
  },
  {
    "postcode": "8626",
    "city": "Ebmath"
  },
  {
    "postcode": "8626",
    "city": "Pabstleithen"
  },
  {
    "postcode": "8626",
    "city": "Ebersbach"
  },
  {
    "postcode": "8626",
    "city": "Bergen"
  },
  {
    "postcode": "8626",
    "city": "Hundsgrün"
  },
  {
    "postcode": "8626",
    "city": "Birkigt"
  },
  {
    "postcode": "8626",
    "city": "Tiefenbrunn"
  },
  {
    "postcode": "8626",
    "city": "Kugelreuth"
  },
  {
    "postcode": "8626",
    "city": "Süßebach"
  },
  {
    "postcode": "8626",
    "city": "Elstertal"
  },
  {
    "postcode": "8626",
    "city": "Oberwürschnitz"
  },
  {
    "postcode": "8645",
    "city": "Bad Elster"
  },
  {
    "postcode": "8645",
    "city": "Vogtlandkreis"
  },
  {
    "postcode": "8645",
    "city": "Sohl"
  },
  {
    "postcode": "8645",
    "city": "Mühlhausen"
  },
  {
    "postcode": "8648",
    "city": "Bad Brambach"
  },
  {
    "postcode": "8648",
    "city": "Vogtlandkreis"
  },
  {
    "postcode": "8648",
    "city": "Schönberg"
  },
  {
    "postcode": "8648",
    "city": "Gürth"
  },
  {
    "postcode": "8648",
    "city": "Hohendorf"
  },
  {
    "postcode": "8648",
    "city": "Oberbrambach"
  },
  {
    "postcode": "8648",
    "city": "Raun"
  },
  {
    "postcode": "8648",
    "city": "Bärendorf"
  },
  {
    "postcode": "8648",
    "city": "Rohrbach"
  },
  {
    "postcode": "8648",
    "city": "Raunergrund"
  },
  {
    "postcode": "86150",
    "city": "Augsburg Bayern"
  },
  {
    "postcode": "86150",
    "city": "Augsburg"
  },
  {
    "postcode": "86150",
    "city": "Innenstadt"
  },
  {
    "postcode": "86152",
    "city": "Augsburg Bayern"
  },
  {
    "postcode": "86152",
    "city": "Augsburg"
  },
  {
    "postcode": "86152",
    "city": "Innenstadt"
  },
  {
    "postcode": "86153",
    "city": "Augsburg Bayern"
  },
  {
    "postcode": "86153",
    "city": "Augsburg"
  },
  {
    "postcode": "86153",
    "city": "Innenstadt"
  },
  {
    "postcode": "86154",
    "city": "Augsburg Bayern"
  },
  {
    "postcode": "86154",
    "city": "Augsburg"
  },
  {
    "postcode": "86154",
    "city": "Oberhausen"
  },
  {
    "postcode": "86156",
    "city": "Augsburg Bayern"
  },
  {
    "postcode": "86156",
    "city": "Augsburg"
  },
  {
    "postcode": "86156",
    "city": "Bärenkeller"
  },
  {
    "postcode": "86156",
    "city": "Kriegshaber"
  },
  {
    "postcode": "86156",
    "city": "Oberhausen"
  },
  {
    "postcode": "86156",
    "city": "Pfersee"
  },
  {
    "postcode": "86157",
    "city": "Augsburg Bayern"
  },
  {
    "postcode": "86157",
    "city": "Augsburg"
  },
  {
    "postcode": "86157",
    "city": "Kriegshaber"
  },
  {
    "postcode": "86157",
    "city": "Pfersee"
  },
  {
    "postcode": "86159",
    "city": "Augsburg Bayern"
  },
  {
    "postcode": "86159",
    "city": "Augsburg"
  },
  {
    "postcode": "86159",
    "city": "Universitätsviertel"
  },
  {
    "postcode": "86159",
    "city": "Antonsviertel"
  },
  {
    "postcode": "86159",
    "city": "Innenstadt"
  },
  {
    "postcode": "86159",
    "city": "Hochfeld"
  },
  {
    "postcode": "86161",
    "city": "Augsburg Bayern"
  },
  {
    "postcode": "86161",
    "city": "Augsburg"
  },
  {
    "postcode": "86161",
    "city": "Herrenbach"
  },
  {
    "postcode": "86161",
    "city": "Spickel"
  },
  {
    "postcode": "86161",
    "city": "Hochfeld"
  },
  {
    "postcode": "86161",
    "city": "Universitätsviertel"
  },
  {
    "postcode": "86161",
    "city": "Innenstadt"
  },
  {
    "postcode": "86163",
    "city": "Augsburg Bayern"
  },
  {
    "postcode": "86163",
    "city": "Augsburg"
  },
  {
    "postcode": "86163",
    "city": "Hochzoll"
  },
  {
    "postcode": "86165",
    "city": "Augsburg Bayern"
  },
  {
    "postcode": "86165",
    "city": "Augsburg"
  },
  {
    "postcode": "86165",
    "city": "Lechhausen"
  },
  {
    "postcode": "86167",
    "city": "Augsburg Bayern"
  },
  {
    "postcode": "86167",
    "city": "Augsburg"
  },
  {
    "postcode": "86167",
    "city": "Lechhausen"
  },
  {
    "postcode": "86169",
    "city": "Augsburg Bayern"
  },
  {
    "postcode": "86169",
    "city": "Augsburg"
  },
  {
    "postcode": "86169",
    "city": "Firnhaberau"
  },
  {
    "postcode": "86169",
    "city": "Hammerschmiede"
  },
  {
    "postcode": "86169",
    "city": "Lechhausen"
  },
  {
    "postcode": "86179",
    "city": "Augsburg Bayern"
  },
  {
    "postcode": "86179",
    "city": "Augsburg"
  },
  {
    "postcode": "86179",
    "city": "Haunstetten Kreis Augsburg"
  },
  {
    "postcode": "86179",
    "city": "Haunstetten"
  },
  {
    "postcode": "86179",
    "city": "Siebenbrunn"
  },
  {
    "postcode": "86179",
    "city": "Universitätsviertel"
  },
  {
    "postcode": "86199",
    "city": "Augsburg Bayern"
  },
  {
    "postcode": "86199",
    "city": "Augsburg"
  },
  {
    "postcode": "86199",
    "city": "Bergheim Kreis Augsburg"
  },
  {
    "postcode": "86199",
    "city": "Bergheim"
  },
  {
    "postcode": "86199",
    "city": "Göggingen Bayern"
  },
  {
    "postcode": "86199",
    "city": "Göggingen"
  },
  {
    "postcode": "86199",
    "city": "Haunstetten Kreis Augsburg"
  },
  {
    "postcode": "86199",
    "city": "Haunstetten"
  },
  {
    "postcode": "86199",
    "city": "Inningen"
  },
  {
    "postcode": "86316",
    "city": "Bachern Kreis Friedberg Bayern"
  },
  {
    "postcode": "86316",
    "city": "Bachern"
  },
  {
    "postcode": "86316",
    "city": "Derching"
  },
  {
    "postcode": "86316",
    "city": "Dickelsmoor"
  },
  {
    "postcode": "86316",
    "city": "Friedberg"
  },
  {
    "postcode": "86316",
    "city": "Friedberg Bayern"
  },
  {
    "postcode": "86316",
    "city": "Haberskirch"
  },
  {
    "postcode": "86316",
    "city": "Harthausen bei Friedberg Bayern"
  },
  {
    "postcode": "86316",
    "city": "Harthausen bei Friedberg"
  },
  {
    "postcode": "86316",
    "city": "Heimatshausen Bayern"
  },
  {
    "postcode": "86316",
    "city": "Heimatshausen"
  },
  {
    "postcode": "86316",
    "city": "Hügelshart Bayern"
  },
  {
    "postcode": "86316",
    "city": "Hügelshart"
  },
  {
    "postcode": "86316",
    "city": "Ottmaring bei Friedberg Bayern"
  },
  {
    "postcode": "86316",
    "city": "Ottmaring bei Friedberg"
  },
  {
    "postcode": "86316",
    "city": "Paar Kreis Friedberg Bayern"
  },
  {
    "postcode": "86316",
    "city": "Paar"
  },
  {
    "postcode": "86316",
    "city": "Rederzhausen Bayern"
  },
  {
    "postcode": "86316",
    "city": "Rederzhausen"
  },
  {
    "postcode": "86316",
    "city": "Rinnenthal Bayern"
  },
  {
    "postcode": "86316",
    "city": "Rinnenthal"
  },
  {
    "postcode": "86316",
    "city": "Rohrbach Kreis Friedberg Bayern"
  },
  {
    "postcode": "86316",
    "city": "Rohrbach"
  },
  {
    "postcode": "86316",
    "city": "Stätzling"
  },
  {
    "postcode": "86316",
    "city": "Wiffertshausen Bayern"
  },
  {
    "postcode": "86316",
    "city": "Wiffertshausen"
  },
  {
    "postcode": "86316",
    "city": "Wulfertshausen"
  },
  {
    "postcode": "86316",
    "city": "Aichach-Friedberg"
  },
  {
    "postcode": "86316",
    "city": "Ottmaring"
  },
  {
    "postcode": "86316",
    "city": "Harthausen"
  },
  {
    "postcode": "86343",
    "city": "Königsbrunn bei Augsburg"
  },
  {
    "postcode": "86343",
    "city": "Augsburg"
  },
  {
    "postcode": "86343",
    "city": "Königsbrunn"
  },
  {
    "postcode": "86356",
    "city": "Hainhofen Kreis Augsburg"
  },
  {
    "postcode": "86356",
    "city": "Hainhofen"
  },
  {
    "postcode": "86356",
    "city": "Hammel Kreis Augsburg"
  },
  {
    "postcode": "86356",
    "city": "Hammel"
  },
  {
    "postcode": "86356",
    "city": "Neusäß"
  },
  {
    "postcode": "86356",
    "city": "Ottmarshausen"
  },
  {
    "postcode": "86356",
    "city": "Schlipsheim"
  },
  {
    "postcode": "86356",
    "city": "Steppach bei Augsburg"
  },
  {
    "postcode": "86356",
    "city": "Täfertingen Kreis Augsburg"
  },
  {
    "postcode": "86356",
    "city": "Täfertingen"
  },
  {
    "postcode": "86356",
    "city": "Westheim bei Augsburg"
  },
  {
    "postcode": "86356",
    "city": "Augsburg"
  },
  {
    "postcode": "86356",
    "city": "Westheim b.Augsburg"
  },
  {
    "postcode": "86356",
    "city": "Steppach b.Augsburg"
  },
  {
    "postcode": "86356",
    "city": "Vogelsang"
  },
  {
    "postcode": "86356",
    "city": "Kreppen"
  },
  {
    "postcode": "86368",
    "city": "Batzenhofen"
  },
  {
    "postcode": "86368",
    "city": "Edenbergen"
  },
  {
    "postcode": "86368",
    "city": "Gailenbach"
  },
  {
    "postcode": "86368",
    "city": "Gersthofen"
  },
  {
    "postcode": "86368",
    "city": "Hirblingen"
  },
  {
    "postcode": "86368",
    "city": "Rettenbergen"
  },
  {
    "postcode": "86368",
    "city": "Augsburg"
  },
  {
    "postcode": "86368",
    "city": "Gailenbacher Mühle"
  },
  {
    "postcode": "86381",
    "city": "Attenhausen Schwaben"
  },
  {
    "postcode": "86381",
    "city": "Attenhausen"
  },
  {
    "postcode": "86381",
    "city": "Billenhausen"
  },
  {
    "postcode": "86381",
    "city": "Edenhausen Schwaben"
  },
  {
    "postcode": "86381",
    "city": "Edenhausen"
  },
  {
    "postcode": "86381",
    "city": "Hohenraunau"
  },
  {
    "postcode": "86381",
    "city": "Krumbach"
  },
  {
    "postcode": "86381",
    "city": "Krumbach (Schwaben)"
  },
  {
    "postcode": "86381",
    "city": "Niederraunau"
  },
  {
    "postcode": "86381",
    "city": "Günzburg"
  },
  {
    "postcode": "86391",
    "city": "Deuringen"
  },
  {
    "postcode": "86391",
    "city": "Leitershofen"
  },
  {
    "postcode": "86391",
    "city": "Stadtbergen"
  },
  {
    "postcode": "86391",
    "city": "Augsburg"
  },
  {
    "postcode": "86399",
    "city": "Bobingen"
  },
  {
    "postcode": "86399",
    "city": "Burgwalden"
  },
  {
    "postcode": "86399",
    "city": "Kreuzanger Kreis Augsburg"
  },
  {
    "postcode": "86399",
    "city": "Kreuzanger"
  },
  {
    "postcode": "86399",
    "city": "Reinhartshausen"
  },
  {
    "postcode": "86399",
    "city": "Straßberg bei Bobingen"
  },
  {
    "postcode": "86399",
    "city": "Waldberg bei Augsburg"
  },
  {
    "postcode": "86399",
    "city": "Augsburg"
  },
  {
    "postcode": "86399",
    "city": "Straßberg"
  },
  {
    "postcode": "86399",
    "city": "Waldberg"
  },
  {
    "postcode": "86405",
    "city": "Erlingen Lech"
  },
  {
    "postcode": "86405",
    "city": "Erlingen"
  },
  {
    "postcode": "86405",
    "city": "Herbertshofen Lech"
  },
  {
    "postcode": "86405",
    "city": "Herbertshofen"
  },
  {
    "postcode": "86405",
    "city": "Langenreichen"
  },
  {
    "postcode": "86405",
    "city": "Meitingen"
  },
  {
    "postcode": "86405",
    "city": "Ostendorf Schwaben"
  },
  {
    "postcode": "86405",
    "city": "Ostendorf"
  },
  {
    "postcode": "86405",
    "city": "Waltershofen"
  },
  {
    "postcode": "86405",
    "city": "Augsburg"
  },
  {
    "postcode": "86415",
    "city": "Baierberg Schwaben"
  },
  {
    "postcode": "86415",
    "city": "Baierberg"
  },
  {
    "postcode": "86415",
    "city": "Mering"
  },
  {
    "postcode": "86415",
    "city": "Mering Schwaben"
  },
  {
    "postcode": "86415",
    "city": "Meringerzell Schwaben"
  },
  {
    "postcode": "86415",
    "city": "Meringerzell"
  },
  {
    "postcode": "86415",
    "city": "Reifersbrunn Schwaben"
  },
  {
    "postcode": "86415",
    "city": "Reifersbrunn"
  },
  {
    "postcode": "86415",
    "city": "Sankt Afra"
  },
  {
    "postcode": "86415",
    "city": "Aichach-Friedberg"
  },
  {
    "postcode": "86415",
    "city": "Harthof"
  },
  {
    "postcode": "86420",
    "city": "Anhausen bei Augsburg"
  },
  {
    "postcode": "86420",
    "city": "Biburg bei Augsburg"
  },
  {
    "postcode": "86420",
    "city": "Diedorf (Schwaben)"
  },
  {
    "postcode": "86420",
    "city": "Diedorf"
  },
  {
    "postcode": "86420",
    "city": "Hausen bei Augsburg"
  },
  {
    "postcode": "86420",
    "city": "Kreppen bei Augsburg"
  },
  {
    "postcode": "86420",
    "city": "Oggenhof Kreis Augsburg"
  },
  {
    "postcode": "86420",
    "city": "Oggenhof"
  },
  {
    "postcode": "86420",
    "city": "Willishausen bei Augsburg"
  },
  {
    "postcode": "86420",
    "city": "Augsburg"
  },
  {
    "postcode": "86420",
    "city": "Anhausen"
  },
  {
    "postcode": "86420",
    "city": "Biburg"
  },
  {
    "postcode": "86420",
    "city": "Lettenbach"
  },
  {
    "postcode": "86420",
    "city": "Kreppen"
  },
  {
    "postcode": "86420",
    "city": "Willishausen"
  },
  {
    "postcode": "86420",
    "city": "Vogelsang"
  },
  {
    "postcode": "86420",
    "city": "Hausen"
  },
  {
    "postcode": "86420",
    "city": "Diedorf Markt"
  },
  {
    "postcode": "86424",
    "city": "Anried"
  },
  {
    "postcode": "86424",
    "city": "Au Kreis Augsburg"
  },
  {
    "postcode": "86424",
    "city": "Au"
  },
  {
    "postcode": "86424",
    "city": "Breitenbronn bei Augsburg"
  },
  {
    "postcode": "86424",
    "city": "Dinkelscherben"
  },
  {
    "postcode": "86424",
    "city": "Engertshofen"
  },
  {
    "postcode": "86424",
    "city": "Ettelried"
  },
  {
    "postcode": "86424",
    "city": "Fleinhausen"
  },
  {
    "postcode": "86424",
    "city": "Grünenbaindt"
  },
  {
    "postcode": "86424",
    "city": "Häder"
  },
  {
    "postcode": "86424",
    "city": "Holzara bei Augsburg"
  },
  {
    "postcode": "86424",
    "city": "Lindach bei Augsburg"
  },
  {
    "postcode": "86424",
    "city": "Oberschöneberg"
  },
  {
    "postcode": "86424",
    "city": "Reischenau"
  },
  {
    "postcode": "86424",
    "city": "Ried Kreis Augsburg"
  },
  {
    "postcode": "86424",
    "city": "Ried"
  },
  {
    "postcode": "86424",
    "city": "Saulach"
  },
  {
    "postcode": "86424",
    "city": "Schempach"
  },
  {
    "postcode": "86424",
    "city": "Siefenwang"
  },
  {
    "postcode": "86424",
    "city": "Stadel"
  },
  {
    "postcode": "86424",
    "city": "Augsburg"
  },
  {
    "postcode": "86424",
    "city": "Breitenbronn"
  },
  {
    "postcode": "86424",
    "city": "Lindach"
  },
  {
    "postcode": "86424",
    "city": "Holzara"
  },
  {
    "postcode": "86438",
    "city": "Kissing"
  },
  {
    "postcode": "86438",
    "city": "Mergenthau"
  },
  {
    "postcode": "86438",
    "city": "Aichach-Friedberg"
  },
  {
    "postcode": "86441",
    "city": "Gabelbach"
  },
  {
    "postcode": "86441",
    "city": "Gabelbachergreut"
  },
  {
    "postcode": "86441",
    "city": "Kleinried"
  },
  {
    "postcode": "86441",
    "city": "Salenbach"
  },
  {
    "postcode": "86441",
    "city": "Steinekirch"
  },
  {
    "postcode": "86441",
    "city": "Streitheim"
  },
  {
    "postcode": "86441",
    "city": "Vallried"
  },
  {
    "postcode": "86441",
    "city": "Wollbach"
  },
  {
    "postcode": "86441",
    "city": "Wörleschwang"
  },
  {
    "postcode": "86441",
    "city": "Zusmarshausen"
  },
  {
    "postcode": "86441",
    "city": "Augsburg"
  },
  {
    "postcode": "86441",
    "city": "Friedensdorf"
  },
  {
    "postcode": "86444",
    "city": "Affing"
  },
  {
    "postcode": "86444",
    "city": "Anwalting"
  },
  {
    "postcode": "86444",
    "city": "Aulzhausen"
  },
  {
    "postcode": "86444",
    "city": "Bergen"
  },
  {
    "postcode": "86444",
    "city": "Frechholzhausen"
  },
  {
    "postcode": "86444",
    "city": "Gebenhofen"
  },
  {
    "postcode": "86444",
    "city": "Haunswies"
  },
  {
    "postcode": "86444",
    "city": "Katzenthal"
  },
  {
    "postcode": "86444",
    "city": "Miedering"
  },
  {
    "postcode": "86444",
    "city": "Mühlhausen"
  },
  {
    "postcode": "86444",
    "city": "Pfaffenzell"
  },
  {
    "postcode": "86444",
    "city": "Aichach-Friedberg"
  },
  {
    "postcode": "86447",
    "city": "Aindling"
  },
  {
    "postcode": "86447",
    "city": "Arnhofen"
  },
  {
    "postcode": "86447",
    "city": "Bach"
  },
  {
    "postcode": "86447",
    "city": "Binnenbach"
  },
  {
    "postcode": "86447",
    "city": "Edenhausen"
  },
  {
    "postcode": "86447",
    "city": "Gaulzhofen"
  },
  {
    "postcode": "86447",
    "city": "Neßlach"
  },
  {
    "postcode": "86447",
    "city": "Pichl"
  },
  {
    "postcode": "86447",
    "city": "Sand"
  },
  {
    "postcode": "86447",
    "city": "Stotzard"
  },
  {
    "postcode": "86447",
    "city": "Todtenweis"
  },
  {
    "postcode": "86447",
    "city": "Weichenberg"
  },
  {
    "postcode": "86447",
    "city": "Aichach-Friedberg"
  },
  {
    "postcode": "86447",
    "city": "Hausen"
  },
  {
    "postcode": "86447",
    "city": "Eisingerdorf"
  },
  {
    "postcode": "86450",
    "city": "Altenmünster"
  },
  {
    "postcode": "86450",
    "city": "Altenmünster Schwaben"
  },
  {
    "postcode": "86450",
    "city": "Baiershofen Schwaben"
  },
  {
    "postcode": "86450",
    "city": "Baiershofen"
  },
  {
    "postcode": "86450",
    "city": "Eppishofen Schwaben"
  },
  {
    "postcode": "86450",
    "city": "Eppishofen"
  },
  {
    "postcode": "86450",
    "city": "Hegnenbach"
  },
  {
    "postcode": "86450",
    "city": "Hennhofen Schwaben"
  },
  {
    "postcode": "86450",
    "city": "Hennhofen"
  },
  {
    "postcode": "86450",
    "city": "Neumünster"
  },
  {
    "postcode": "86450",
    "city": "Unterschöneberg"
  },
  {
    "postcode": "86450",
    "city": "Violau"
  },
  {
    "postcode": "86450",
    "city": "Zusamzell"
  },
  {
    "postcode": "86450",
    "city": "Augsburg"
  },
  {
    "postcode": "86453",
    "city": "Bitzenhofen"
  },
  {
    "postcode": "86453",
    "city": "Dasing"
  },
  {
    "postcode": "86453",
    "city": "Höbstl"
  },
  {
    "postcode": "86453",
    "city": "Laimering"
  },
  {
    "postcode": "86453",
    "city": "Latzenhausen"
  },
  {
    "postcode": "86453",
    "city": "Lindl"
  },
  {
    "postcode": "86453",
    "city": "Malzhausen"
  },
  {
    "postcode": "86453",
    "city": "Oberzell"
  },
  {
    "postcode": "86453",
    "city": "Rieden"
  },
  {
    "postcode": "86453",
    "city": "Sankt Franziskus"
  },
  {
    "postcode": "86453",
    "city": "Taiting"
  },
  {
    "postcode": "86453",
    "city": "Tattenhausen"
  },
  {
    "postcode": "86453",
    "city": "Unterzell"
  },
  {
    "postcode": "86453",
    "city": "Wessiszell"
  },
  {
    "postcode": "86453",
    "city": "Zieglbach"
  },
  {
    "postcode": "86453",
    "city": "Aichach-Friedberg"
  },
  {
    "postcode": "86453",
    "city": "St. Franziskus"
  },
  {
    "postcode": "86453",
    "city": "Hinterholz"
  },
  {
    "postcode": "86453",
    "city": "Hohleneich"
  },
  {
    "postcode": "86453",
    "city": "Kreit"
  },
  {
    "postcode": "86453",
    "city": "Neulwirth"
  },
  {
    "postcode": "86453",
    "city": "Vorderheimat"
  },
  {
    "postcode": "86456",
    "city": "Gablingen"
  },
  {
    "postcode": "86456",
    "city": "Holzhausen"
  },
  {
    "postcode": "86456",
    "city": "Lützelburg"
  },
  {
    "postcode": "86456",
    "city": "Muttershofen"
  },
  {
    "postcode": "86456",
    "city": "Peterhof bei Gersthofen"
  },
  {
    "postcode": "86456",
    "city": "Augsburg"
  },
  {
    "postcode": "86456",
    "city": "Gablingen-Siedlung"
  },
  {
    "postcode": "86456",
    "city": "Am Flugplatz"
  },
  {
    "postcode": "86459",
    "city": "Deubach"
  },
  {
    "postcode": "86459",
    "city": "Dietkirch"
  },
  {
    "postcode": "86459",
    "city": "Döpshofen"
  },
  {
    "postcode": "86459",
    "city": "Gessertshausen"
  },
  {
    "postcode": "86459",
    "city": "Margertshausen"
  },
  {
    "postcode": "86459",
    "city": "Oberschönenfeld"
  },
  {
    "postcode": "86459",
    "city": "Wollishausen"
  },
  {
    "postcode": "86459",
    "city": "Augsburg"
  },
  {
    "postcode": "86459",
    "city": "Weiherhof"
  },
  {
    "postcode": "86459",
    "city": "Engelshof"
  },
  {
    "postcode": "86462",
    "city": "Achsheim"
  },
  {
    "postcode": "86462",
    "city": "Langweid"
  },
  {
    "postcode": "86462",
    "city": "Langweid am Lech"
  },
  {
    "postcode": "86462",
    "city": "Stettenhofen Kreis Augsburg"
  },
  {
    "postcode": "86462",
    "city": "Stettenhofen"
  },
  {
    "postcode": "86462",
    "city": "Augsburg"
  },
  {
    "postcode": "86462",
    "city": "Langweid a. Lech"
  },
  {
    "postcode": "86462",
    "city": "Foret"
  },
  {
    "postcode": "86465",
    "city": "Heretsried"
  },
  {
    "postcode": "86465",
    "city": "Lauterbrunn"
  },
  {
    "postcode": "86465",
    "city": "Monburg"
  },
  {
    "postcode": "86465",
    "city": "Reutern bei Augsburg"
  },
  {
    "postcode": "86465",
    "city": "Welden"
  },
  {
    "postcode": "86465",
    "city": "Welden bei Augsburg"
  },
  {
    "postcode": "86465",
    "city": "Augsburg"
  },
  {
    "postcode": "86465",
    "city": "Reutern"
  },
  {
    "postcode": "86465",
    "city": "Ehegatten"
  },
  {
    "postcode": "86470",
    "city": "Burg Schwaben"
  },
  {
    "postcode": "86470",
    "city": "Burg"
  },
  {
    "postcode": "86470",
    "city": "Nettershausen Schwaben"
  },
  {
    "postcode": "86470",
    "city": "Nettershausen"
  },
  {
    "postcode": "86470",
    "city": "Thannhausen"
  },
  {
    "postcode": "86470",
    "city": "Thannhausen Schwaben"
  },
  {
    "postcode": "86470",
    "city": "Günzburg"
  },
  {
    "postcode": "86473",
    "city": "Bauhofen"
  },
  {
    "postcode": "86473",
    "city": "Hellersberg Schwaben"
  },
  {
    "postcode": "86473",
    "city": "Hellersberg"
  },
  {
    "postcode": "86473",
    "city": "Hinterschellenbach"
  },
  {
    "postcode": "86473",
    "city": "Lauterbach Schwaben"
  },
  {
    "postcode": "86473",
    "city": "Lauterbach"
  },
  {
    "postcode": "86473",
    "city": "Muttershofen"
  },
  {
    "postcode": "86473",
    "city": "Schönebach bei Augsburg"
  },
  {
    "postcode": "86473",
    "city": "Uttenhofen bei Augsburg"
  },
  {
    "postcode": "86473",
    "city": "Vorderschellenbach"
  },
  {
    "postcode": "86473",
    "city": "Ziemetshausen"
  },
  {
    "postcode": "86473",
    "city": "Günzburg"
  },
  {
    "postcode": "86473",
    "city": "Schönebach"
  },
  {
    "postcode": "86473",
    "city": "Uttenhofen"
  },
  {
    "postcode": "86473",
    "city": "Roppeltshausen"
  },
  {
    "postcode": "86473",
    "city": "Maria Vesperbild"
  },
  {
    "postcode": "86476",
    "city": "Edelstetten"
  },
  {
    "postcode": "86476",
    "city": "Erisweiler Schwaben"
  },
  {
    "postcode": "86476",
    "city": "Erisweiler"
  },
  {
    "postcode": "86476",
    "city": "Halbertshofen an der Kammel"
  },
  {
    "postcode": "86476",
    "city": "Höselhurst bei Krumbach Schwaben"
  },
  {
    "postcode": "86476",
    "city": "Höselhurst bei Krumbach"
  },
  {
    "postcode": "86476",
    "city": "Langenhaslach"
  },
  {
    "postcode": "86476",
    "city": "Neuburg an der Kammel"
  },
  {
    "postcode": "86476",
    "city": "Wattenweiler bei Krumbach Schwaben"
  },
  {
    "postcode": "86476",
    "city": "Wattenweiler bei Krumbach"
  },
  {
    "postcode": "86476",
    "city": "Günzburg"
  },
  {
    "postcode": "86476",
    "city": "Neuburg a.d.Kammel"
  },
  {
    "postcode": "86476",
    "city": "Neuburg"
  },
  {
    "postcode": "86476",
    "city": "Wattenweiler"
  },
  {
    "postcode": "86476",
    "city": "Höselhurst"
  },
  {
    "postcode": "86476",
    "city": "Marbach"
  },
  {
    "postcode": "86476",
    "city": "Halbertshofen"
  },
  {
    "postcode": "86477",
    "city": "Adelsried"
  },
  {
    "postcode": "86477",
    "city": "Adelsried bei Augsburg"
  },
  {
    "postcode": "86477",
    "city": "Kruichen"
  },
  {
    "postcode": "86477",
    "city": "Augsburg"
  },
  {
    "postcode": "86479",
    "city": "Aichen"
  },
  {
    "postcode": "86479",
    "city": "Aichen Schwaben"
  },
  {
    "postcode": "86479",
    "city": "Bernbach Kreis Krumbach Schwaben"
  },
  {
    "postcode": "86479",
    "city": "Bernbach"
  },
  {
    "postcode": "86479",
    "city": "Memmenhausen"
  },
  {
    "postcode": "86479",
    "city": "Nachstetten"
  },
  {
    "postcode": "86479",
    "city": "Obergessertshausen"
  },
  {
    "postcode": "86479",
    "city": "Ruhfelden Kreis Krumbach Schwaben"
  },
  {
    "postcode": "86479",
    "city": "Ruhfelden"
  },
  {
    "postcode": "86479",
    "city": "Günzburg"
  },
  {
    "postcode": "86480",
    "city": "Aletshausen"
  },
  {
    "postcode": "86480",
    "city": "Geismarkt"
  },
  {
    "postcode": "86480",
    "city": "Hairenbuch Schwaben"
  },
  {
    "postcode": "86480",
    "city": "Hairenbuch"
  },
  {
    "postcode": "86480",
    "city": "Haupeltshofen"
  },
  {
    "postcode": "86480",
    "city": "Waltenhausen"
  },
  {
    "postcode": "86480",
    "city": "Wasserberg"
  },
  {
    "postcode": "86480",
    "city": "Weiler"
  },
  {
    "postcode": "86480",
    "city": "Winzer bei Krumbach Schwaben"
  },
  {
    "postcode": "86480",
    "city": "Winzer bei Krumbach"
  },
  {
    "postcode": "86480",
    "city": "Günzburg"
  },
  {
    "postcode": "86480",
    "city": "Winzer"
  },
  {
    "postcode": "86480",
    "city": "Gaismarkt"
  },
  {
    "postcode": "86482",
    "city": "Aystetten"
  },
  {
    "postcode": "86482",
    "city": "Louisenruh"
  },
  {
    "postcode": "86482",
    "city": "Augsburg"
  },
  {
    "postcode": "86483",
    "city": "Balzhausen"
  },
  {
    "postcode": "86483",
    "city": "Balzhausen bei Krumbach Schwaben"
  },
  {
    "postcode": "86483",
    "city": "Balzhausen bei Krumbach"
  },
  {
    "postcode": "86483",
    "city": "Kirrberg bei Krumbach Schwaben"
  },
  {
    "postcode": "86483",
    "city": "Kirrberg bei Krumbach"
  },
  {
    "postcode": "86483",
    "city": "Günzburg"
  },
  {
    "postcode": "86483",
    "city": "Kirrberg"
  },
  {
    "postcode": "86485",
    "city": "Affaltern"
  },
  {
    "postcode": "86485",
    "city": "Albertshofen Schwaben"
  },
  {
    "postcode": "86485",
    "city": "Albertshofen"
  },
  {
    "postcode": "86485",
    "city": "Biberbach"
  },
  {
    "postcode": "86485",
    "city": "Biberbach Schwaben"
  },
  {
    "postcode": "86485",
    "city": "Eisenbrechtshofen Schwaben"
  },
  {
    "postcode": "86485",
    "city": "Eisenbrechtshofen"
  },
  {
    "postcode": "86485",
    "city": "Feigenhofen"
  },
  {
    "postcode": "86485",
    "city": "Markt Schwaben"
  },
  {
    "postcode": "86485",
    "city": "Markt"
  },
  {
    "postcode": "86485",
    "city": "Augsburg"
  },
  {
    "postcode": "86486",
    "city": "Bonstetten bei Augsburg"
  },
  {
    "postcode": "86486",
    "city": "Augsburg"
  },
  {
    "postcode": "86486",
    "city": "Bonstetten"
  },
  {
    "postcode": "86488",
    "city": "Breitenthal"
  },
  {
    "postcode": "86488",
    "city": "Breitenthal bei Krumbach Schwaben"
  },
  {
    "postcode": "86488",
    "city": "Breitenthal bei Krumbach"
  },
  {
    "postcode": "86488",
    "city": "Nattenhausen"
  },
  {
    "postcode": "86488",
    "city": "Oberried Kreis Krumbach Schwaben"
  },
  {
    "postcode": "86488",
    "city": "Oberried"
  },
  {
    "postcode": "86488",
    "city": "Günzburg"
  },
  {
    "postcode": "86489",
    "city": "Deisenhausen"
  },
  {
    "postcode": "86489",
    "city": "Nordhofen"
  },
  {
    "postcode": "86489",
    "city": "Oberbleichen"
  },
  {
    "postcode": "86489",
    "city": "Unterbleichen"
  },
  {
    "postcode": "86489",
    "city": "Günzburg"
  },
  {
    "postcode": "86489",
    "city": "Egathof"
  },
  {
    "postcode": "86491",
    "city": "Ebershausen"
  },
  {
    "postcode": "86491",
    "city": "Ebershausen Schwaben"
  },
  {
    "postcode": "86491",
    "city": "Seifertshofen Schwaben"
  },
  {
    "postcode": "86491",
    "city": "Seifertshofen"
  },
  {
    "postcode": "86491",
    "city": "Waltenberg Schwaben"
  },
  {
    "postcode": "86491",
    "city": "Waltenberg"
  },
  {
    "postcode": "86491",
    "city": "Günzburg"
  },
  {
    "postcode": "86492",
    "city": "Egling"
  },
  {
    "postcode": "86492",
    "city": "Egling an der Paar"
  },
  {
    "postcode": "86492",
    "city": "Hattenhofen an der Paar"
  },
  {
    "postcode": "86492",
    "city": "Heinrichshofen an der Paar"
  },
  {
    "postcode": "86492",
    "city": "Landsberg am Lech"
  },
  {
    "postcode": "86492",
    "city": "Egling a.d.Paar"
  },
  {
    "postcode": "86492",
    "city": "Heinrichshofen"
  },
  {
    "postcode": "86492",
    "city": "Hattenhofen"
  },
  {
    "postcode": "86494",
    "city": "Emersacker"
  },
  {
    "postcode": "86494",
    "city": "Augsburg"
  },
  {
    "postcode": "86495",
    "city": "Brugger"
  },
  {
    "postcode": "86495",
    "city": "Eurasburg"
  },
  {
    "postcode": "86495",
    "city": "Eurasburg bei Friedberg Bayern"
  },
  {
    "postcode": "86495",
    "city": "Eurasburg bei Friedberg"
  },
  {
    "postcode": "86495",
    "city": "Freienried Kreis Friedberg Bayern"
  },
  {
    "postcode": "86495",
    "city": "Freienried"
  },
  {
    "postcode": "86495",
    "city": "Ganswies Kreis Friedberg Bayern"
  },
  {
    "postcode": "86495",
    "city": "Ganswies"
  },
  {
    "postcode": "86495",
    "city": "Hergertswiesen Kreis Friedberg Bayern"
  },
  {
    "postcode": "86495",
    "city": "Hergertswiesen"
  },
  {
    "postcode": "86495",
    "city": "Kalteneck Kreis Friedberg Bayern"
  },
  {
    "postcode": "86495",
    "city": "Kalteneck"
  },
  {
    "postcode": "86495",
    "city": "Pfandlaich Kreis Friedberg Bayern"
  },
  {
    "postcode": "86495",
    "city": "Pfandlaich"
  },
  {
    "postcode": "86495",
    "city": "Rehrosbach Kreis Friedberg Bayern"
  },
  {
    "postcode": "86495",
    "city": "Rehrosbach"
  },
  {
    "postcode": "86495",
    "city": "Aichach-Friedberg"
  },
  {
    "postcode": "86495",
    "city": "Hinterholz"
  },
  {
    "postcode": "86495",
    "city": "Brand"
  },
  {
    "postcode": "86495",
    "city": "Habermühl"
  },
  {
    "postcode": "86495",
    "city": "Hergetswiesen"
  },
  {
    "postcode": "86497",
    "city": "Bieselbach"
  },
  {
    "postcode": "86497",
    "city": "Herpfenried"
  },
  {
    "postcode": "86497",
    "city": "Horgau"
  },
  {
    "postcode": "86497",
    "city": "Horgauergreut Kreis Augsburg"
  },
  {
    "postcode": "86497",
    "city": "Horgauergreut"
  },
  {
    "postcode": "86497",
    "city": "Lindgraben Kreis Augsburg"
  },
  {
    "postcode": "86497",
    "city": "Lindgraben"
  },
  {
    "postcode": "86497",
    "city": "Schäfstoß Kreis Augsburg"
  },
  {
    "postcode": "86497",
    "city": "Schäfstoß"
  },
  {
    "postcode": "86497",
    "city": "Augsburg"
  },
  {
    "postcode": "86497",
    "city": "Auerbach"
  },
  {
    "postcode": "86497",
    "city": "Schäfstoss"
  },
  {
    "postcode": "86497",
    "city": "Ziegelhauserhof"
  },
  {
    "postcode": "86498",
    "city": "Bebenhausen"
  },
  {
    "postcode": "86498",
    "city": "Flüssen"
  },
  {
    "postcode": "86498",
    "city": "Kettershausen"
  },
  {
    "postcode": "86498",
    "city": "Mohrenhausen"
  },
  {
    "postcode": "86498",
    "city": "Tafertshofen"
  },
  {
    "postcode": "86498",
    "city": "Zaiertshofen"
  },
  {
    "postcode": "86498",
    "city": "Unterallgäu"
  },
  {
    "postcode": "86498",
    "city": "Gangwalden"
  },
  {
    "postcode": "86500",
    "city": "Agawang"
  },
  {
    "postcode": "86500",
    "city": "Buch"
  },
  {
    "postcode": "86500",
    "city": "Katzenlohe Kreis Augsburg"
  },
  {
    "postcode": "86500",
    "city": "Katzenlohe"
  },
  {
    "postcode": "86500",
    "city": "Kutzenhausen"
  },
  {
    "postcode": "86500",
    "city": "Kutzenhausen Kreis Augsburg"
  },
  {
    "postcode": "86500",
    "city": "Maingründel"
  },
  {
    "postcode": "86500",
    "city": "Obernefsried"
  },
  {
    "postcode": "86500",
    "city": "Rommelsried"
  },
  {
    "postcode": "86500",
    "city": "Unternefsried"
  },
  {
    "postcode": "86500",
    "city": "Augsburg"
  },
  {
    "postcode": "86500",
    "city": "Boschhorn"
  },
  {
    "postcode": "86500",
    "city": "Brunnenmühle"
  },
  {
    "postcode": "86502",
    "city": "Asbach"
  },
  {
    "postcode": "86502",
    "city": "Bocksberg"
  },
  {
    "postcode": "86502",
    "city": "Hinterbuch"
  },
  {
    "postcode": "86502",
    "city": "Kaag"
  },
  {
    "postcode": "86502",
    "city": "Laugna"
  },
  {
    "postcode": "86502",
    "city": "Modelshausen"
  },
  {
    "postcode": "86502",
    "city": "Osterbuch"
  },
  {
    "postcode": "86502",
    "city": "Dillingen an der Donau"
  },
  {
    "postcode": "86504",
    "city": "Brunnen"
  },
  {
    "postcode": "86504",
    "city": "Hochdorf"
  },
  {
    "postcode": "86504",
    "city": "Merching"
  },
  {
    "postcode": "86504",
    "city": "Steinach bei Mering Schwaben"
  },
  {
    "postcode": "86504",
    "city": "Steinach bei Mering"
  },
  {
    "postcode": "86504",
    "city": "Aichach-Friedberg"
  },
  {
    "postcode": "86504",
    "city": "Steinach"
  },
  {
    "postcode": "86505",
    "city": "Hagenried"
  },
  {
    "postcode": "86505",
    "city": "Häuserhof"
  },
  {
    "postcode": "86505",
    "city": "Münsterhausen"
  },
  {
    "postcode": "86505",
    "city": "Reichertsried"
  },
  {
    "postcode": "86505",
    "city": "Günzburg"
  },
  {
    "postcode": "86505",
    "city": "Oberhagenried"
  },
  {
    "postcode": "86507",
    "city": "Kleinaitingen"
  },
  {
    "postcode": "86507",
    "city": "Oberottmarshausen"
  },
  {
    "postcode": "86507",
    "city": "Augsburg"
  },
  {
    "postcode": "86508",
    "city": "Allmering Oberbayern"
  },
  {
    "postcode": "86508",
    "city": "Allmering"
  },
  {
    "postcode": "86508",
    "city": "Au"
  },
  {
    "postcode": "86508",
    "city": "Oberach Oberbayern"
  },
  {
    "postcode": "86508",
    "city": "Oberach"
  },
  {
    "postcode": "86508",
    "city": "Rehling"
  },
  {
    "postcode": "86508",
    "city": "Sankt Stephan"
  },
  {
    "postcode": "86508",
    "city": "Scherneck Oberbayern"
  },
  {
    "postcode": "86508",
    "city": "Scherneck"
  },
  {
    "postcode": "86508",
    "city": "Unterach Oberbayern"
  },
  {
    "postcode": "86508",
    "city": "Unterach"
  },
  {
    "postcode": "86508",
    "city": "Aichach-Friedberg"
  },
  {
    "postcode": "86508",
    "city": "Gamling"
  },
  {
    "postcode": "86508",
    "city": "Kagering"
  },
  {
    "postcode": "86508",
    "city": "Rohrbach"
  },
  {
    "postcode": "86508",
    "city": "Sägmühl"
  },
  {
    "postcode": "86510",
    "city": "Asbach Kreis Friedberg Bayern"
  },
  {
    "postcode": "86510",
    "city": "Asbach"
  },
  {
    "postcode": "86510",
    "city": "Baindlkirch"
  },
  {
    "postcode": "86510",
    "city": "Burgstall bei Mering Schwaben"
  },
  {
    "postcode": "86510",
    "city": "Burgstall bei Mering"
  },
  {
    "postcode": "86510",
    "city": "Eismannsberg bei Friedberg Bayern"
  },
  {
    "postcode": "86510",
    "city": "Eismannsberg bei Friedberg"
  },
  {
    "postcode": "86510",
    "city": "Glon"
  },
  {
    "postcode": "86510",
    "city": "Holzburg bei Friedberg Bayern"
  },
  {
    "postcode": "86510",
    "city": "Holzburg bei Friedberg"
  },
  {
    "postcode": "86510",
    "city": "Hörmannsberg"
  },
  {
    "postcode": "86510",
    "city": "Rettenbach"
  },
  {
    "postcode": "86510",
    "city": "Ried bei Mering"
  },
  {
    "postcode": "86510",
    "city": "Riedhof"
  },
  {
    "postcode": "86510",
    "city": "Sirchenried Kreis Friedberg Bayern"
  },
  {
    "postcode": "86510",
    "city": "Sirchenried"
  },
  {
    "postcode": "86510",
    "city": "Zillenberg"
  },
  {
    "postcode": "86510",
    "city": "Aichach-Friedberg"
  },
  {
    "postcode": "86510",
    "city": "Ried"
  },
  {
    "postcode": "86510",
    "city": "Eismannsberg"
  },
  {
    "postcode": "86510",
    "city": "Holzburg"
  },
  {
    "postcode": "86510",
    "city": "Mooshaus"
  },
  {
    "postcode": "86510",
    "city": "Neuried"
  },
  {
    "postcode": "86511",
    "city": "Schmiechen"
  },
  {
    "postcode": "86511",
    "city": "Schmiechen Bayern"
  },
  {
    "postcode": "86511",
    "city": "Unterbergen Schwaben"
  },
  {
    "postcode": "86511",
    "city": "Unterbergen"
  },
  {
    "postcode": "86511",
    "city": "Aichach-Friedberg"
  },
  {
    "postcode": "86513",
    "city": "Bayersried"
  },
  {
    "postcode": "86513",
    "city": "Mindelzell"
  },
  {
    "postcode": "86513",
    "city": "Oberrohr"
  },
  {
    "postcode": "86513",
    "city": "Premach"
  },
  {
    "postcode": "86513",
    "city": "Ursberg"
  },
  {
    "postcode": "86513",
    "city": "Günzburg"
  },
  {
    "postcode": "86514",
    "city": "Baschenegg"
  },
  {
    "postcode": "86514",
    "city": "Mödishofen"
  },
  {
    "postcode": "86514",
    "city": "Osterkühbach Kreis Augsburg"
  },
  {
    "postcode": "86514",
    "city": "Osterkühbach"
  },
  {
    "postcode": "86514",
    "city": "Ustersbach"
  },
  {
    "postcode": "86514",
    "city": "Augsburg"
  },
  {
    "postcode": "86517",
    "city": "Wehringen"
  },
  {
    "postcode": "86517",
    "city": "Augsburg"
  },
  {
    "postcode": "86519",
    "city": "Oberegg"
  },
  {
    "postcode": "86519",
    "city": "Oberwiesenbach"
  },
  {
    "postcode": "86519",
    "city": "Unterwiesenbach"
  },
  {
    "postcode": "86519",
    "city": "Wiesenbach Schwaben"
  },
  {
    "postcode": "86519",
    "city": "Wiesenbach"
  },
  {
    "postcode": "86519",
    "city": "Günzburg"
  },
  {
    "postcode": "86519",
    "city": "Sausenthal"
  },
  {
    "postcode": "86529",
    "city": "Altenfurt"
  },
  {
    "postcode": "86529",
    "city": "Edelshausen"
  },
  {
    "postcode": "86529",
    "city": "Gollingkreut"
  },
  {
    "postcode": "86529",
    "city": "Halsbach"
  },
  {
    "postcode": "86529",
    "city": "Högenau"
  },
  {
    "postcode": "86529",
    "city": "Hörzhausen"
  },
  {
    "postcode": "86529",
    "city": "Königslachen"
  },
  {
    "postcode": "86529",
    "city": "Linden"
  },
  {
    "postcode": "86529",
    "city": "Mantelberg"
  },
  {
    "postcode": "86529",
    "city": "Mühlried"
  },
  {
    "postcode": "86529",
    "city": "Öd"
  },
  {
    "postcode": "86529",
    "city": "Ried"
  },
  {
    "postcode": "86529",
    "city": "Rinderhof"
  },
  {
    "postcode": "86529",
    "city": "Sandhof"
  },
  {
    "postcode": "86529",
    "city": "Sandizell"
  },
  {
    "postcode": "86529",
    "city": "Schrobenhausen"
  },
  {
    "postcode": "86529",
    "city": "Steingriff"
  },
  {
    "postcode": "86529",
    "city": "Weil"
  },
  {
    "postcode": "86529",
    "city": "Neuburg-Schrobenhausen"
  },
  {
    "postcode": "86529",
    "city": "Aumühle"
  },
  {
    "postcode": "86529",
    "city": "Sandhofsiedlung"
  },
  {
    "postcode": "86529",
    "city": "Sommerau"
  },
  {
    "postcode": "86551",
    "city": "Aichach"
  },
  {
    "postcode": "86551",
    "city": "Aichach an der Paar"
  },
  {
    "postcode": "86551",
    "city": "Blumenthal bei Aichach"
  },
  {
    "postcode": "86551",
    "city": "Ecknach"
  },
  {
    "postcode": "86551",
    "city": "Edenried"
  },
  {
    "postcode": "86551",
    "city": "Eitershofen"
  },
  {
    "postcode": "86551",
    "city": "Froschham"
  },
  {
    "postcode": "86551",
    "city": "Gallenbach"
  },
  {
    "postcode": "86551",
    "city": "Griesbeckerzell"
  },
  {
    "postcode": "86551",
    "city": "Hiesling"
  },
  {
    "postcode": "86551",
    "city": "Ippertshausen"
  },
  {
    "postcode": "86551",
    "city": "Klingen bei Aichach"
  },
  {
    "postcode": "86551",
    "city": "Matzenberg"
  },
  {
    "postcode": "86551",
    "city": "Nisselsbach"
  },
  {
    "postcode": "86551",
    "city": "Oberbernbach"
  },
  {
    "postcode": "86551",
    "city": "Obermauerbach"
  },
  {
    "postcode": "86551",
    "city": "Oberschneitbach"
  },
  {
    "postcode": "86551",
    "city": "Oberwittelsbach"
  },
  {
    "postcode": "86551",
    "city": "Röckerszell"
  },
  {
    "postcode": "86551",
    "city": "Sulzbach Kreis Aichach"
  },
  {
    "postcode": "86551",
    "city": "Sulzbach"
  },
  {
    "postcode": "86551",
    "city": "Untergriesbach Kreis Aichach"
  },
  {
    "postcode": "86551",
    "city": "Untergriesbach"
  },
  {
    "postcode": "86551",
    "city": "Untermauerbach"
  },
  {
    "postcode": "86551",
    "city": "Unterschneitbach"
  },
  {
    "postcode": "86551",
    "city": "Unterwittelsbach"
  },
  {
    "postcode": "86551",
    "city": "Walchshofen"
  },
  {
    "postcode": "86551",
    "city": "Aichach-Friedberg"
  },
  {
    "postcode": "86551",
    "city": "Algertshausen"
  },
  {
    "postcode": "86551",
    "city": "Andersbach"
  },
  {
    "postcode": "86551",
    "city": "Klingen"
  },
  {
    "postcode": "86551",
    "city": "Blumenthal"
  },
  {
    "postcode": "86551",
    "city": "Gansbach"
  },
  {
    "postcode": "86551",
    "city": "Knottenried"
  },
  {
    "postcode": "86551",
    "city": "Neuhausen"
  },
  {
    "postcode": "86551",
    "city": "Neumühle"
  },
  {
    "postcode": "86551",
    "city": "Oberneul"
  },
  {
    "postcode": "86551",
    "city": "Tränk"
  },
  {
    "postcode": "86551",
    "city": "Unterneul"
  },
  {
    "postcode": "86551",
    "city": "Wilpersberg"
  },
  {
    "postcode": "86554",
    "city": "Au"
  },
  {
    "postcode": "86554",
    "city": "Dieß"
  },
  {
    "postcode": "86554",
    "city": "Ebenried bei Aichach"
  },
  {
    "postcode": "86554",
    "city": "Echsheim"
  },
  {
    "postcode": "86554",
    "city": "Eiselsried"
  },
  {
    "postcode": "86554",
    "city": "Grimolzhausen"
  },
  {
    "postcode": "86554",
    "city": "Gumppenberg"
  },
  {
    "postcode": "86554",
    "city": "Gundelsdorf bei Aichach"
  },
  {
    "postcode": "86554",
    "city": "Handzell"
  },
  {
    "postcode": "86554",
    "city": "Immendorf"
  },
  {
    "postcode": "86554",
    "city": "Koppenzell bei Aichach"
  },
  {
    "postcode": "86554",
    "city": "Kühnhausen Schwaben"
  },
  {
    "postcode": "86554",
    "city": "Kühnhausen"
  },
  {
    "postcode": "86554",
    "city": "Mandlach"
  },
  {
    "postcode": "86554",
    "city": "Osterzhausen"
  },
  {
    "postcode": "86554",
    "city": "Pertenau"
  },
  {
    "postcode": "86554",
    "city": "Pöttmes"
  },
  {
    "postcode": "86554",
    "city": "Reicherstein"
  },
  {
    "postcode": "86554",
    "city": "Schnellmannskreuth"
  },
  {
    "postcode": "86554",
    "city": "Schorn"
  },
  {
    "postcode": "86554",
    "city": "Sedlbrunn"
  },
  {
    "postcode": "86554",
    "city": "Stuben bei Aichach"
  },
  {
    "postcode": "86554",
    "city": "Wagesenberg"
  },
  {
    "postcode": "86554",
    "city": "Wiesenbach"
  },
  {
    "postcode": "86554",
    "city": "Aichach-Friedberg"
  },
  {
    "postcode": "86554",
    "city": "Abenberg"
  },
  {
    "postcode": "86554",
    "city": "Aumühle"
  },
  {
    "postcode": "86554",
    "city": "Gundelsdorf"
  },
  {
    "postcode": "86554",
    "city": "Batzmühle"
  },
  {
    "postcode": "86554",
    "city": "Bleitzhof"
  },
  {
    "postcode": "86554",
    "city": "Ebenried"
  },
  {
    "postcode": "86554",
    "city": "Holzgraf"
  },
  {
    "postcode": "86554",
    "city": "Koppenzell"
  },
  {
    "postcode": "86554",
    "city": "Meiermühle"
  },
  {
    "postcode": "86554",
    "city": "Neumühle"
  },
  {
    "postcode": "86554",
    "city": "Obermühle"
  },
  {
    "postcode": "86554",
    "city": "Seeanger"
  },
  {
    "postcode": "86554",
    "city": "Siegersberg"
  },
  {
    "postcode": "86554",
    "city": "St. Ottmar"
  },
  {
    "postcode": "86554",
    "city": "Stuben"
  },
  {
    "postcode": "86556",
    "city": "Großhausen"
  },
  {
    "postcode": "86556",
    "city": "Haslangkreit"
  },
  {
    "postcode": "86556",
    "city": "Kühbach"
  },
  {
    "postcode": "86556",
    "city": "Kühbach Schwaben"
  },
  {
    "postcode": "86556",
    "city": "Mittelham"
  },
  {
    "postcode": "86556",
    "city": "Oberschönbach"
  },
  {
    "postcode": "86556",
    "city": "Paar"
  },
  {
    "postcode": "86556",
    "city": "Radersdorf"
  },
  {
    "postcode": "86556",
    "city": "Rettenbach"
  },
  {
    "postcode": "86556",
    "city": "Stockensau"
  },
  {
    "postcode": "86556",
    "city": "Unterschönbach"
  },
  {
    "postcode": "86556",
    "city": "Winden"
  },
  {
    "postcode": "86556",
    "city": "Aichach-Friedberg"
  },
  {
    "postcode": "86556",
    "city": "Abtismühle"
  },
  {
    "postcode": "86556",
    "city": "Unterbernbach"
  },
  {
    "postcode": "86556",
    "city": "Berghof"
  },
  {
    "postcode": "86556",
    "city": "Mangelsdorf"
  },
  {
    "postcode": "86556",
    "city": "Sedlhof"
  },
  {
    "postcode": "86558",
    "city": "Deimhausen Paar"
  },
  {
    "postcode": "86558",
    "city": "Deimhausen"
  },
  {
    "postcode": "86558",
    "city": "Ellenbach Oberbayern"
  },
  {
    "postcode": "86558",
    "city": "Ellenbach"
  },
  {
    "postcode": "86558",
    "city": "Englmannsberg Oberbayern"
  },
  {
    "postcode": "86558",
    "city": "Englmannsberg"
  },
  {
    "postcode": "86558",
    "city": "Englmannszell Paar"
  },
  {
    "postcode": "86558",
    "city": "Englmannszell"
  },
  {
    "postcode": "86558",
    "city": "Eulenried Paar"
  },
  {
    "postcode": "86558",
    "city": "Eulenried"
  },
  {
    "postcode": "86558",
    "city": "Freinhausen Oberbayern"
  },
  {
    "postcode": "86558",
    "city": "Freinhausen"
  },
  {
    "postcode": "86558",
    "city": "Hardt Paar"
  },
  {
    "postcode": "86558",
    "city": "Hardt"
  },
  {
    "postcode": "86558",
    "city": "Hohenwart"
  },
  {
    "postcode": "86558",
    "city": "Hohenwart Paar"
  },
  {
    "postcode": "86558",
    "city": "Koppenbach Oberbayern"
  },
  {
    "postcode": "86558",
    "city": "Koppenbach"
  },
  {
    "postcode": "86558",
    "city": "Lindach Paar"
  },
  {
    "postcode": "86558",
    "city": "Lindach"
  },
  {
    "postcode": "86558",
    "city": "Loch Kreis Schrobenhausen"
  },
  {
    "postcode": "86558",
    "city": "Loch"
  },
  {
    "postcode": "86558",
    "city": "Schlott Paar"
  },
  {
    "postcode": "86558",
    "city": "Schlott"
  },
  {
    "postcode": "86558",
    "city": "Seibersdorf Paar"
  },
  {
    "postcode": "86558",
    "city": "Seibersdorf"
  },
  {
    "postcode": "86558",
    "city": "Steinerskirchen Oberbayern"
  },
  {
    "postcode": "86558",
    "city": "Steinerskirchen"
  },
  {
    "postcode": "86558",
    "city": "Thierham Paar"
  },
  {
    "postcode": "86558",
    "city": "Thierham"
  },
  {
    "postcode": "86558",
    "city": "Weichenried Paar"
  },
  {
    "postcode": "86558",
    "city": "Weichenried"
  },
  {
    "postcode": "86558",
    "city": "Wolfshof Kreis Schrobenhausen"
  },
  {
    "postcode": "86558",
    "city": "Wolfshof"
  },
  {
    "postcode": "86558",
    "city": "Pfaffenhofen an der Ilm"
  },
  {
    "postcode": "86558",
    "city": "Klosterberg"
  },
  {
    "postcode": "86558",
    "city": "Beuern"
  },
  {
    "postcode": "86558",
    "city": "Hochstattmühle"
  },
  {
    "postcode": "86558",
    "city": "Merxmühle"
  },
  {
    "postcode": "86558",
    "city": "Rothof"
  },
  {
    "postcode": "86558",
    "city": "Schwaig"
  },
  {
    "postcode": "86559",
    "city": "Adelzhausen"
  },
  {
    "postcode": "86559",
    "city": "Burgadelzhausen"
  },
  {
    "postcode": "86559",
    "city": "Haunsried"
  },
  {
    "postcode": "86559",
    "city": "Heretshausen"
  },
  {
    "postcode": "86559",
    "city": "Irschenhofen"
  },
  {
    "postcode": "86559",
    "city": "Landmannsdorf Kreis Friedberg Bayern"
  },
  {
    "postcode": "86559",
    "city": "Landmannsdorf"
  },
  {
    "postcode": "86559",
    "city": "Michelau"
  },
  {
    "postcode": "86559",
    "city": "Tremmel Kreis Aichach"
  },
  {
    "postcode": "86559",
    "city": "Tremmel"
  },
  {
    "postcode": "86559",
    "city": "Aichach-Friedberg"
  },
  {
    "postcode": "86559",
    "city": "Brandbauer"
  },
  {
    "postcode": "86559",
    "city": "Brandfischer"
  },
  {
    "postcode": "86559",
    "city": "Holzschuster"
  },
  {
    "postcode": "86559",
    "city": "Weinsbach"
  },
  {
    "postcode": "86561",
    "city": "Aresing"
  },
  {
    "postcode": "86561",
    "city": "Aresing Oberbayern"
  },
  {
    "postcode": "86561",
    "city": "Autenzell"
  },
  {
    "postcode": "86561",
    "city": "Niederdorf Kreis Schrobenhausen"
  },
  {
    "postcode": "86561",
    "city": "Niederdorf"
  },
  {
    "postcode": "86561",
    "city": "Oberlauterbach Kreis Schrobenhausen"
  },
  {
    "postcode": "86561",
    "city": "Oberlauterbach"
  },
  {
    "postcode": "86561",
    "city": "Oberweilenbach"
  },
  {
    "postcode": "86561",
    "city": "Rettenbach"
  },
  {
    "postcode": "86561",
    "city": "Unterweilenbach"
  },
  {
    "postcode": "86561",
    "city": "Neuburg-Schrobenhausen"
  },
  {
    "postcode": "86561",
    "city": "Rosensteig"
  },
  {
    "postcode": "86561",
    "city": "Auf der Hub"
  },
  {
    "postcode": "86562",
    "city": "Alteneich im Gau"
  },
  {
    "postcode": "86562",
    "city": "Berg im Gau"
  },
  {
    "postcode": "86562",
    "city": "Dettenhofen im Gau"
  },
  {
    "postcode": "86562",
    "city": "Dirschhofen im Gau"
  },
  {
    "postcode": "86562",
    "city": "Eppertshofen im Gau"
  },
  {
    "postcode": "86562",
    "city": "Lampertshofen im Gau"
  },
  {
    "postcode": "86562",
    "city": "Oberarnbach im Gau"
  },
  {
    "postcode": "86562",
    "city": "Siefhofen im Gau"
  },
  {
    "postcode": "86562",
    "city": "Neuburg-Schrobenhausen"
  },
  {
    "postcode": "86562",
    "city": "Siefhofen"
  },
  {
    "postcode": "86562",
    "city": "Alteneich"
  },
  {
    "postcode": "86562",
    "city": "Oberarnbach"
  },
  {
    "postcode": "86562",
    "city": "Eppertshofen"
  },
  {
    "postcode": "86562",
    "city": "Dettenhofen"
  },
  {
    "postcode": "86562",
    "city": "Dirschhofen"
  },
  {
    "postcode": "86562",
    "city": "Lampertshofen"
  },
  {
    "postcode": "86564",
    "city": "Brunnen"
  },
  {
    "postcode": "86564",
    "city": "Brunnen bei Schrobenhausen"
  },
  {
    "postcode": "86564",
    "city": "Gerstetten bei Schrobenhausen"
  },
  {
    "postcode": "86564",
    "city": "Hohenried bei Schrobenhausen"
  },
  {
    "postcode": "86564",
    "city": "Hönighausen"
  },
  {
    "postcode": "86564",
    "city": "Kaltenherberg bei Schrobenhausen"
  },
  {
    "postcode": "86564",
    "city": "Kaltenthal Kreis Schrobenhausen"
  },
  {
    "postcode": "86564",
    "city": "Kaltenthal"
  },
  {
    "postcode": "86564",
    "city": "Niederarnbach"
  },
  {
    "postcode": "86564",
    "city": "Schachhof Kreis Schrobenhausen"
  },
  {
    "postcode": "86564",
    "city": "Schachhof"
  },
  {
    "postcode": "86564",
    "city": "Neuburg-Schrobenhausen"
  },
  {
    "postcode": "86564",
    "city": "Hohenried"
  },
  {
    "postcode": "86564",
    "city": "Kaltenherberg"
  },
  {
    "postcode": "86564",
    "city": "Gadenhof"
  },
  {
    "postcode": "86564",
    "city": "Gerstetten"
  },
  {
    "postcode": "86565",
    "city": "Birglbach"
  },
  {
    "postcode": "86565",
    "city": "Gachenbach"
  },
  {
    "postcode": "86565",
    "city": "Habertshausen"
  },
  {
    "postcode": "86565",
    "city": "Hardt"
  },
  {
    "postcode": "86565",
    "city": "Labersdorf"
  },
  {
    "postcode": "86565",
    "city": "Osterham"
  },
  {
    "postcode": "86565",
    "city": "Peutenhausen"
  },
  {
    "postcode": "86565",
    "city": "Ried"
  },
  {
    "postcode": "86565",
    "city": "Sattelberg"
  },
  {
    "postcode": "86565",
    "city": "Weilach"
  },
  {
    "postcode": "86565",
    "city": "Westerham"
  },
  {
    "postcode": "86565",
    "city": "Neuburg-Schrobenhausen"
  },
  {
    "postcode": "86565",
    "city": "Biberfarm"
  },
  {
    "postcode": "86565",
    "city": "Etzlberg"
  },
  {
    "postcode": "86565",
    "city": "Flammensbach"
  },
  {
    "postcode": "86565",
    "city": "Maria Beinberg"
  },
  {
    "postcode": "86565",
    "city": "Spitalmühle"
  },
  {
    "postcode": "86565",
    "city": "Weng"
  },
  {
    "postcode": "86567",
    "city": "Buxberg"
  },
  {
    "postcode": "86567",
    "city": "Eichenried"
  },
  {
    "postcode": "86567",
    "city": "Gartelsried"
  },
  {
    "postcode": "86567",
    "city": "Gumpersdorf Ilm"
  },
  {
    "postcode": "86567",
    "city": "Gumpersdorf"
  },
  {
    "postcode": "86567",
    "city": "Hilgertshausen-Tandern"
  },
  {
    "postcode": "86567",
    "city": "Mannried Ilm"
  },
  {
    "postcode": "86567",
    "city": "Mannried"
  },
  {
    "postcode": "86567",
    "city": "Michelskirchen Ilm"
  },
  {
    "postcode": "86567",
    "city": "Michelskirchen"
  },
  {
    "postcode": "86567",
    "city": "Niederdorf"
  },
  {
    "postcode": "86567",
    "city": "Oberdorf"
  },
  {
    "postcode": "86567",
    "city": "Obertsloh"
  },
  {
    "postcode": "86567",
    "city": "Pirket Ilm"
  },
  {
    "postcode": "86567",
    "city": "Pirket"
  },
  {
    "postcode": "86567",
    "city": "Stadelham Ilm"
  },
  {
    "postcode": "86567",
    "city": "Stadelham"
  },
  {
    "postcode": "86567",
    "city": "Tandern"
  },
  {
    "postcode": "86567",
    "city": "Thalmannsdorf Ilm"
  },
  {
    "postcode": "86567",
    "city": "Thalmannsdorf"
  },
  {
    "postcode": "86567",
    "city": "Weitenwinterried"
  },
  {
    "postcode": "86567",
    "city": "Dachau"
  },
  {
    "postcode": "86567",
    "city": "Gumpmühle"
  },
  {
    "postcode": "86567",
    "city": "Hilgertshausen"
  },
  {
    "postcode": "86567",
    "city": "Ed"
  },
  {
    "postcode": "86567",
    "city": "Ferlhof"
  },
  {
    "postcode": "86567",
    "city": "Hollerschlag"
  },
  {
    "postcode": "86567",
    "city": "Neßlholz"
  },
  {
    "postcode": "86567",
    "city": "Oberdinkelhof"
  },
  {
    "postcode": "86567",
    "city": "Pranst"
  },
  {
    "postcode": "86567",
    "city": "Reichel"
  },
  {
    "postcode": "86567",
    "city": "Thalhof"
  },
  {
    "postcode": "86567",
    "city": "Thonhof"
  },
  {
    "postcode": "86567",
    "city": "Unterdinkelhof"
  },
  {
    "postcode": "86567",
    "city": "Weiherhaus"
  },
  {
    "postcode": "86567",
    "city": "Winterried"
  },
  {
    "postcode": "86568",
    "city": "Hirschbach Kreis Aichach"
  },
  {
    "postcode": "86568",
    "city": "Hirschbach"
  },
  {
    "postcode": "86568",
    "city": "Hollenbach bei Aichach"
  },
  {
    "postcode": "86568",
    "city": "Igenhausen"
  },
  {
    "postcode": "86568",
    "city": "Mainbach Kreis Aichach"
  },
  {
    "postcode": "86568",
    "city": "Mainbach"
  },
  {
    "postcode": "86568",
    "city": "Motzenhofen Kreis Aichach"
  },
  {
    "postcode": "86568",
    "city": "Motzenhofen"
  },
  {
    "postcode": "86568",
    "city": "Schönbach Kreis Aichach"
  },
  {
    "postcode": "86568",
    "city": "Schönbach"
  },
  {
    "postcode": "86568",
    "city": "Aichach-Friedberg"
  },
  {
    "postcode": "86568",
    "city": "Hollenbach"
  },
  {
    "postcode": "86570",
    "city": "Arnhofen"
  },
  {
    "postcode": "86570",
    "city": "Inchenhofen"
  },
  {
    "postcode": "86570",
    "city": "Ingstetten"
  },
  {
    "postcode": "86570",
    "city": "Oberbachern"
  },
  {
    "postcode": "86570",
    "city": "Reifersdorf"
  },
  {
    "postcode": "86570",
    "city": "Ried"
  },
  {
    "postcode": "86570",
    "city": "Sainbach"
  },
  {
    "postcode": "86570",
    "city": "Schönau"
  },
  {
    "postcode": "86570",
    "city": "Taxberg"
  },
  {
    "postcode": "86570",
    "city": "Unterbachern"
  },
  {
    "postcode": "86570",
    "city": "Aichach-Friedberg"
  },
  {
    "postcode": "86570",
    "city": "Ainertshofen"
  },
  {
    "postcode": "86570",
    "city": "Pulverhof"
  },
  {
    "postcode": "86571",
    "city": "Langenmosen"
  },
  {
    "postcode": "86571",
    "city": "Malzhausen"
  },
  {
    "postcode": "86571",
    "city": "Winkelhausen"
  },
  {
    "postcode": "86571",
    "city": "Neuburg-Schrobenhausen"
  },
  {
    "postcode": "86571",
    "city": "Grabmühle"
  },
  {
    "postcode": "86573",
    "city": "Obergriesbach"
  },
  {
    "postcode": "86573",
    "city": "Zahling"
  },
  {
    "postcode": "86573",
    "city": "Aichach-Friedberg"
  },
  {
    "postcode": "86573",
    "city": "Weidach"
  },
  {
    "postcode": "86574",
    "city": "Alsmoos bei Aichach"
  },
  {
    "postcode": "86574",
    "city": "Appertshausen"
  },
  {
    "postcode": "86574",
    "city": "Axtbrunn Kreis Aichach"
  },
  {
    "postcode": "86574",
    "city": "Axtbrunn"
  },
  {
    "postcode": "86574",
    "city": "Gebersdorf bei Aichach"
  },
  {
    "postcode": "86574",
    "city": "Hohenried Kreis Aichach"
  },
  {
    "postcode": "86574",
    "city": "Hohenried"
  },
  {
    "postcode": "86574",
    "city": "Petersdorf bei Aichach"
  },
  {
    "postcode": "86574",
    "city": "Schönleiten bei Aichach"
  },
  {
    "postcode": "86574",
    "city": "Willprechtszell bei Aichach"
  },
  {
    "postcode": "86574",
    "city": "Aichach-Friedberg"
  },
  {
    "postcode": "86574",
    "city": "Petersdorf"
  },
  {
    "postcode": "86574",
    "city": "Alsmoos"
  },
  {
    "postcode": "86574",
    "city": "Willprechtszell"
  },
  {
    "postcode": "86574",
    "city": "Schönleiten"
  },
  {
    "postcode": "86574",
    "city": "Gebersdorf"
  },
  {
    "postcode": "86574",
    "city": "Indersdorf"
  },
  {
    "postcode": "86576",
    "city": "Allenberg"
  },
  {
    "postcode": "86576",
    "city": "Aufhausen"
  },
  {
    "postcode": "86576",
    "city": "Bergen"
  },
  {
    "postcode": "86576",
    "city": "Gundertshausen"
  },
  {
    "postcode": "86576",
    "city": "Höfarten"
  },
  {
    "postcode": "86576",
    "city": "Holzhausen"
  },
  {
    "postcode": "86576",
    "city": "Kemnat"
  },
  {
    "postcode": "86576",
    "city": "Kühnhausen"
  },
  {
    "postcode": "86576",
    "city": "Metzenried"
  },
  {
    "postcode": "86576",
    "city": "Rapperzell"
  },
  {
    "postcode": "86576",
    "city": "Ruppertszell"
  },
  {
    "postcode": "86576",
    "city": "Schiltberg"
  },
  {
    "postcode": "86576",
    "city": "Wundersdorf"
  },
  {
    "postcode": "86576",
    "city": "Aichach-Friedberg"
  },
  {
    "postcode": "86576",
    "city": "Bsuchhof"
  },
  {
    "postcode": "86576",
    "city": "Frankenzell"
  },
  {
    "postcode": "86576",
    "city": "Kolleich"
  },
  {
    "postcode": "86576",
    "city": "Pranst"
  },
  {
    "postcode": "86576",
    "city": "Thalhof"
  },
  {
    "postcode": "86577",
    "city": "Gollenhof"
  },
  {
    "postcode": "86577",
    "city": "Heilbach"
  },
  {
    "postcode": "86577",
    "city": "Holzgrub"
  },
  {
    "postcode": "86577",
    "city": "Morabach"
  },
  {
    "postcode": "86577",
    "city": "Oberhaslach"
  },
  {
    "postcode": "86577",
    "city": "Raderstetten bei Aichach"
  },
  {
    "postcode": "86577",
    "city": "Sielenbach"
  },
  {
    "postcode": "86577",
    "city": "Tödtenried"
  },
  {
    "postcode": "86577",
    "city": "Unterhaslach"
  },
  {
    "postcode": "86577",
    "city": "Aichach-Friedberg"
  },
  {
    "postcode": "86577",
    "city": "Raderstetten"
  },
  {
    "postcode": "86577",
    "city": "Schönberg"
  },
  {
    "postcode": "86577",
    "city": "Schafhausen"
  },
  {
    "postcode": "86577",
    "city": "Unterschröttenloh"
  },
  {
    "postcode": "86579",
    "city": "Diepoltshofen"
  },
  {
    "postcode": "86579",
    "city": "Gröbern Oberbayern"
  },
  {
    "postcode": "86579",
    "city": "Gröbern"
  },
  {
    "postcode": "86579",
    "city": "Kaifeck"
  },
  {
    "postcode": "86579",
    "city": "Laag Kreis Schrobenhausen"
  },
  {
    "postcode": "86579",
    "city": "Laag"
  },
  {
    "postcode": "86579",
    "city": "Rachelsbach Kreis Schrobenhausen"
  },
  {
    "postcode": "86579",
    "city": "Rachelsbach"
  },
  {
    "postcode": "86579",
    "city": "Schenkenau Paar"
  },
  {
    "postcode": "86579",
    "city": "Schenkenau"
  },
  {
    "postcode": "86579",
    "city": "Stadel Kreis Schrobenhausen"
  },
  {
    "postcode": "86579",
    "city": "Stadel"
  },
  {
    "postcode": "86579",
    "city": "Waidhofen"
  },
  {
    "postcode": "86579",
    "city": "Waidhofen Oberbayern"
  },
  {
    "postcode": "86579",
    "city": "Waizenried Kreis Schrobenhausen"
  },
  {
    "postcode": "86579",
    "city": "Waizenried"
  },
  {
    "postcode": "86579",
    "city": "Wangen Paar"
  },
  {
    "postcode": "86579",
    "city": "Wangen"
  },
  {
    "postcode": "86579",
    "city": "Westerbach"
  },
  {
    "postcode": "86579",
    "city": "Neuburg-Schrobenhausen"
  },
  {
    "postcode": "86579",
    "city": "Altenburg"
  },
  {
    "postcode": "86579",
    "city": "Ammersberg"
  },
  {
    "postcode": "86579",
    "city": "Haid am Rain"
  },
  {
    "postcode": "86579",
    "city": "Mergertsmühle"
  },
  {
    "postcode": "86579",
    "city": "Schenkengrub"
  },
  {
    "postcode": "86579",
    "city": "Seelhof"
  },
  {
    "postcode": "86609",
    "city": "Auchsesheim"
  },
  {
    "postcode": "86609",
    "city": "Berg"
  },
  {
    "postcode": "86609",
    "city": "Binsberg"
  },
  {
    "postcode": "86609",
    "city": "Donauwörth"
  },
  {
    "postcode": "86609",
    "city": "Felsheim"
  },
  {
    "postcode": "86609",
    "city": "Huttenbach"
  },
  {
    "postcode": "86609",
    "city": "Kreuzhof"
  },
  {
    "postcode": "86609",
    "city": "Lederstatt"
  },
  {
    "postcode": "86609",
    "city": "Nordheim Kreis Donauwörth"
  },
  {
    "postcode": "86609",
    "city": "Nordheim"
  },
  {
    "postcode": "86609",
    "city": "Ramhof"
  },
  {
    "postcode": "86609",
    "city": "Riedlingen Kreis Donauwörth"
  },
  {
    "postcode": "86609",
    "city": "Riedlingen"
  },
  {
    "postcode": "86609",
    "city": "Schäfstall"
  },
  {
    "postcode": "86609",
    "city": "Wörnitzstein"
  },
  {
    "postcode": "86609",
    "city": "Zirgesheim"
  },
  {
    "postcode": "86609",
    "city": "Donau-Ries"
  },
  {
    "postcode": "86609",
    "city": "Zusum"
  },
  {
    "postcode": "86609",
    "city": "Karweiserhof"
  },
  {
    "postcode": "86633",
    "city": "Altmannstetten"
  },
  {
    "postcode": "86633",
    "city": "Bergen"
  },
  {
    "postcode": "86633",
    "city": "Bittenbrunn"
  },
  {
    "postcode": "86633",
    "city": "Bruck bei Neuburg an der Donau"
  },
  {
    "postcode": "86633",
    "city": "Feldkirchen Donau"
  },
  {
    "postcode": "86633",
    "city": "Feldkirchen"
  },
  {
    "postcode": "86633",
    "city": "Gietlhausen"
  },
  {
    "postcode": "86633",
    "city": "Gnadenfeld Donau"
  },
  {
    "postcode": "86633",
    "city": "Gnadenfeld"
  },
  {
    "postcode": "86633",
    "city": "Hardt"
  },
  {
    "postcode": "86633",
    "city": "Heinrichsheim"
  },
  {
    "postcode": "86633",
    "city": "Hessellohe an der Donau"
  },
  {
    "postcode": "86633",
    "city": "Joshofen"
  },
  {
    "postcode": "86633",
    "city": "Laisacker"
  },
  {
    "postcode": "86633",
    "city": "Marienheim"
  },
  {
    "postcode": "86633",
    "city": "Maxweiler Kreis Neuburg an der Donau"
  },
  {
    "postcode": "86633",
    "city": "Maxweiler"
  },
  {
    "postcode": "86633",
    "city": "Neuburg an der Donau"
  },
  {
    "postcode": "86633",
    "city": "Ried an der Donau"
  },
  {
    "postcode": "86633",
    "city": "Rohrenfeld Kreis Neuburg an der Donau"
  },
  {
    "postcode": "86633",
    "city": "Rohrenfeld"
  },
  {
    "postcode": "86633",
    "city": "Sehensand Donau"
  },
  {
    "postcode": "86633",
    "city": "Sehensand"
  },
  {
    "postcode": "86633",
    "city": "Zell bei Neuburg an der Donau"
  },
  {
    "postcode": "86633",
    "city": "Neuburg-Schrobenhausen"
  },
  {
    "postcode": "86633",
    "city": "Neuburg a.d.Donau"
  },
  {
    "postcode": "86633",
    "city": "Neuburg"
  },
  {
    "postcode": "86633",
    "city": "Zell"
  },
  {
    "postcode": "86633",
    "city": "Herrenwörth"
  },
  {
    "postcode": "86633",
    "city": "Rödenhof"
  },
  {
    "postcode": "86633",
    "city": "Ried"
  },
  {
    "postcode": "86633",
    "city": "Hessellohe"
  },
  {
    "postcode": "86633",
    "city": "Bruck"
  },
  {
    "postcode": "86633",
    "city": "Fleischnershausen"
  },
  {
    "postcode": "86633",
    "city": "Grünau"
  },
  {
    "postcode": "86633",
    "city": "Rothheim"
  },
  {
    "postcode": "86637",
    "city": "Binswangen bei Dillingen an der Donau"
  },
  {
    "postcode": "86637",
    "city": "Bliensbach"
  },
  {
    "postcode": "86637",
    "city": "Geratshofen"
  },
  {
    "postcode": "86637",
    "city": "Gottmannshofen"
  },
  {
    "postcode": "86637",
    "city": "Hausen"
  },
  {
    "postcode": "86637",
    "city": "Hettlingen"
  },
  {
    "postcode": "86637",
    "city": "Hirschbach Schwaben"
  },
  {
    "postcode": "86637",
    "city": "Hirschbach"
  },
  {
    "postcode": "86637",
    "city": "Hohenreichen"
  },
  {
    "postcode": "86637",
    "city": "Marzelstetten"
  },
  {
    "postcode": "86637",
    "city": "Possenried"
  },
  {
    "postcode": "86637",
    "city": "Prettelshofen"
  },
  {
    "postcode": "86637",
    "city": "Reatshofen"
  },
  {
    "postcode": "86637",
    "city": "Reutenhof"
  },
  {
    "postcode": "86637",
    "city": "Rieblingen"
  },
  {
    "postcode": "86637",
    "city": "Riedsend bei Dillingen an der Donau"
  },
  {
    "postcode": "86637",
    "city": "Rischgau"
  },
  {
    "postcode": "86637",
    "city": "Roggden"
  },
  {
    "postcode": "86637",
    "city": "Sontheim"
  },
  {
    "postcode": "86637",
    "city": "Villenbach"
  },
  {
    "postcode": "86637",
    "city": "Wengen bei Dillingen an der Donau"
  },
  {
    "postcode": "86637",
    "city": "Wertingen"
  },
  {
    "postcode": "86637",
    "city": "Zusamaltheim"
  },
  {
    "postcode": "86637",
    "city": "Dillingen an der Donau"
  },
  {
    "postcode": "86637",
    "city": "Binswangen"
  },
  {
    "postcode": "86637",
    "city": "Wengen"
  },
  {
    "postcode": "86637",
    "city": "Riedsend"
  },
  {
    "postcode": "86637",
    "city": "Beuren"
  },
  {
    "postcode": "86637",
    "city": "Demhart"
  },
  {
    "postcode": "86641",
    "city": "Bayerdilling"
  },
  {
    "postcode": "86641",
    "city": "Etting bei Neuburg an der Donau"
  },
  {
    "postcode": "86641",
    "city": "Gempfing"
  },
  {
    "postcode": "86641",
    "city": "Hagenheim Schwaben"
  },
  {
    "postcode": "86641",
    "city": "Hagenheim"
  },
  {
    "postcode": "86641",
    "city": "Mittelstetten Lech"
  },
  {
    "postcode": "86641",
    "city": "Mittelstetten"
  },
  {
    "postcode": "86641",
    "city": "Neuhof Lech"
  },
  {
    "postcode": "86641",
    "city": "Neuhof"
  },
  {
    "postcode": "86641",
    "city": "Oberpeiching Lech"
  },
  {
    "postcode": "86641",
    "city": "Oberpeiching"
  },
  {
    "postcode": "86641",
    "city": "Rain"
  },
  {
    "postcode": "86641",
    "city": "Rain Lech"
  },
  {
    "postcode": "86641",
    "city": "Sallach"
  },
  {
    "postcode": "86641",
    "city": "Staudheim"
  },
  {
    "postcode": "86641",
    "city": "Überacker"
  },
  {
    "postcode": "86641",
    "city": "Unterpeiching Lech"
  },
  {
    "postcode": "86641",
    "city": "Unterpeiching"
  },
  {
    "postcode": "86641",
    "city": "Wächtering"
  },
  {
    "postcode": "86641",
    "city": "Wallerdorf Schwaben"
  },
  {
    "postcode": "86641",
    "city": "Wallerdorf"
  },
  {
    "postcode": "86641",
    "city": "Donau-Ries"
  },
  {
    "postcode": "86641",
    "city": "Etting"
  },
  {
    "postcode": "86643",
    "city": "Altstetten"
  },
  {
    "postcode": "86643",
    "city": "Ammerfeld"
  },
  {
    "postcode": "86643",
    "city": "Asbrunn"
  },
  {
    "postcode": "86643",
    "city": "Bertoldsheim"
  },
  {
    "postcode": "86643",
    "city": "Dittenfeld"
  },
  {
    "postcode": "86643",
    "city": "Ellenbrunn bei Neuburg an der Donau"
  },
  {
    "postcode": "86643",
    "city": "Emskeim"
  },
  {
    "postcode": "86643",
    "city": "Erlbach"
  },
  {
    "postcode": "86643",
    "city": "Hatzenhofen Kreis Neuburg an der Donau"
  },
  {
    "postcode": "86643",
    "city": "Hatzenhofen"
  },
  {
    "postcode": "86643",
    "city": "Hütting bei Neuburg an der Donau"
  },
  {
    "postcode": "86643",
    "city": "Mauern bei Neuburg an der Donau"
  },
  {
    "postcode": "86643",
    "city": "Rennertshofen"
  },
  {
    "postcode": "86643",
    "city": "Rennertshofen Oberbayern"
  },
  {
    "postcode": "86643",
    "city": "Riedensheim"
  },
  {
    "postcode": "86643",
    "city": "Rohrbach bei Neuburg an der Donau"
  },
  {
    "postcode": "86643",
    "city": "Siglohe Kreis Neuburg an der Donau"
  },
  {
    "postcode": "86643",
    "city": "Siglohe"
  },
  {
    "postcode": "86643",
    "city": "Stepperg"
  },
  {
    "postcode": "86643",
    "city": "Treidelheim Kreis Neuburg an der Donau"
  },
  {
    "postcode": "86643",
    "city": "Treidelheim"
  },
  {
    "postcode": "86643",
    "city": "Trugenhofen bei Neuburg an der Donau"
  },
  {
    "postcode": "86643",
    "city": "Neuburg-Schrobenhausen"
  },
  {
    "postcode": "86643",
    "city": "Hütting"
  },
  {
    "postcode": "86643",
    "city": "Trugenhofen"
  },
  {
    "postcode": "86643",
    "city": "Rohrbach"
  },
  {
    "postcode": "86643",
    "city": "Kienberg"
  },
  {
    "postcode": "86643",
    "city": "Ellenbrunn"
  },
  {
    "postcode": "86643",
    "city": "Feldmühle"
  },
  {
    "postcode": "86643",
    "city": "Giglberg"
  },
  {
    "postcode": "86643",
    "city": "Mauern"
  },
  {
    "postcode": "86643",
    "city": "Störzelmühle"
  },
  {
    "postcode": "86643",
    "city": "Gallenmühle"
  },
  {
    "postcode": "86643",
    "city": "Waldau"
  },
  {
    "postcode": "86643",
    "city": "Wolpertsau"
  },
  {
    "postcode": "86647",
    "city": "Buttenwiesen"
  },
  {
    "postcode": "86647",
    "city": "Feldbach"
  },
  {
    "postcode": "86647",
    "city": "Frauenstetten"
  },
  {
    "postcode": "86647",
    "city": "Greggenhof"
  },
  {
    "postcode": "86647",
    "city": "Hinterried"
  },
  {
    "postcode": "86647",
    "city": "Illemad"
  },
  {
    "postcode": "86647",
    "city": "Lauterbach Zusam"
  },
  {
    "postcode": "86647",
    "city": "Lauterbach"
  },
  {
    "postcode": "86647",
    "city": "Neuweiler"
  },
  {
    "postcode": "86647",
    "city": "Oberthürheim"
  },
  {
    "postcode": "86647",
    "city": "Pfaffenhofen an der Zusam"
  },
  {
    "postcode": "86647",
    "city": "Unterthürheim"
  },
  {
    "postcode": "86647",
    "city": "Vorderried"
  },
  {
    "postcode": "86647",
    "city": "Wortelstetten"
  },
  {
    "postcode": "86647",
    "city": "Dillingen an der Donau"
  },
  {
    "postcode": "86647",
    "city": "Pfaffenhofen a.d.Zusam"
  },
  {
    "postcode": "86650",
    "city": "Amerbach"
  },
  {
    "postcode": "86650",
    "city": "Wemding"
  },
  {
    "postcode": "86650",
    "city": "Donau-Ries"
  },
  {
    "postcode": "86653",
    "city": "Daiting"
  },
  {
    "postcode": "86653",
    "city": "Flotzheim Schwaben"
  },
  {
    "postcode": "86653",
    "city": "Flotzheim"
  },
  {
    "postcode": "86653",
    "city": "Hagenbuch Schwaben"
  },
  {
    "postcode": "86653",
    "city": "Hagenbuch"
  },
  {
    "postcode": "86653",
    "city": "Hochfeld Kreis Donauwörth"
  },
  {
    "postcode": "86653",
    "city": "Hochfeld"
  },
  {
    "postcode": "86653",
    "city": "Itzing Schwaben"
  },
  {
    "postcode": "86653",
    "city": "Itzing"
  },
  {
    "postcode": "86653",
    "city": "Kölburg Schwaben"
  },
  {
    "postcode": "86653",
    "city": "Kölburg"
  },
  {
    "postcode": "86653",
    "city": "Kreut Schwaben"
  },
  {
    "postcode": "86653",
    "city": "Kreut"
  },
  {
    "postcode": "86653",
    "city": "Liederberg Kreis Donauwörth"
  },
  {
    "postcode": "86653",
    "city": "Liederberg"
  },
  {
    "postcode": "86653",
    "city": "Monheim"
  },
  {
    "postcode": "86653",
    "city": "Monheim Schwaben"
  },
  {
    "postcode": "86653",
    "city": "Natterholz Schwaben"
  },
  {
    "postcode": "86653",
    "city": "Natterholz"
  },
  {
    "postcode": "86653",
    "city": "Rehau Kreis Donauwörth"
  },
  {
    "postcode": "86653",
    "city": "Rehau"
  },
  {
    "postcode": "86653",
    "city": "Reichertswies Kreis Donauwörth"
  },
  {
    "postcode": "86653",
    "city": "Reichertswies"
  },
  {
    "postcode": "86653",
    "city": "Ried"
  },
  {
    "postcode": "86653",
    "city": "Rothenberg Kreis Donauwörth"
  },
  {
    "postcode": "86653",
    "city": "Rothenberg"
  },
  {
    "postcode": "86653",
    "city": "Unterbuch Kreis Donauwörth"
  },
  {
    "postcode": "86653",
    "city": "Unterbuch"
  },
  {
    "postcode": "86653",
    "city": "Warching Schwaben"
  },
  {
    "postcode": "86653",
    "city": "Warching"
  },
  {
    "postcode": "86653",
    "city": "Weilheim bei Donauwörth"
  },
  {
    "postcode": "86653",
    "city": "Wittesheim Schwaben"
  },
  {
    "postcode": "86653",
    "city": "Wittesheim"
  },
  {
    "postcode": "86653",
    "city": "Donau-Ries"
  },
  {
    "postcode": "86653",
    "city": "Weilheim"
  },
  {
    "postcode": "86655",
    "city": "Brünsee Schwaben"
  },
  {
    "postcode": "86655",
    "city": "Brünsee"
  },
  {
    "postcode": "86655",
    "city": "Bühlhof Schwaben"
  },
  {
    "postcode": "86655",
    "city": "Bühlhof"
  },
  {
    "postcode": "86655",
    "city": "Ebermergen"
  },
  {
    "postcode": "86655",
    "city": "Großsorheim"
  },
  {
    "postcode": "86655",
    "city": "Harburg"
  },
  {
    "postcode": "86655",
    "city": "Harburg (Schwaben)"
  },
  {
    "postcode": "86655",
    "city": "Harthof"
  },
  {
    "postcode": "86655",
    "city": "Heroldingen"
  },
  {
    "postcode": "86655",
    "city": "Hoppingen"
  },
  {
    "postcode": "86655",
    "city": "Katzenstein"
  },
  {
    "postcode": "86655",
    "city": "Kratzhof Schwaben"
  },
  {
    "postcode": "86655",
    "city": "Kratzhof"
  },
  {
    "postcode": "86655",
    "city": "Listhof Schwaben"
  },
  {
    "postcode": "86655",
    "city": "Listhof"
  },
  {
    "postcode": "86655",
    "city": "Marbach Schwaben"
  },
  {
    "postcode": "86655",
    "city": "Marbach"
  },
  {
    "postcode": "86655",
    "city": "Mauren bei Donauwörth"
  },
  {
    "postcode": "86655",
    "city": "Möggingen"
  },
  {
    "postcode": "86655",
    "city": "Mündling"
  },
  {
    "postcode": "86655",
    "city": "Ronheim Schwaben"
  },
  {
    "postcode": "86655",
    "city": "Ronheim"
  },
  {
    "postcode": "86655",
    "city": "Schrattenhofen"
  },
  {
    "postcode": "86655",
    "city": "Spielberg Schwaben"
  },
  {
    "postcode": "86655",
    "city": "Spielberg"
  },
  {
    "postcode": "86655",
    "city": "Donau-Ries"
  },
  {
    "postcode": "86655",
    "city": "Mauren"
  },
  {
    "postcode": "86655",
    "city": "Olachmühle"
  },
  {
    "postcode": "86655",
    "city": "Salchhof"
  },
  {
    "postcode": "86655",
    "city": "Sonderhof"
  },
  {
    "postcode": "86657",
    "city": "Bissingen"
  },
  {
    "postcode": "86657",
    "city": "Bissingen Schwaben"
  },
  {
    "postcode": "86657",
    "city": "Buch am Rannenberg"
  },
  {
    "postcode": "86657",
    "city": "Buggenhofen Schwaben"
  },
  {
    "postcode": "86657",
    "city": "Buggenhofen"
  },
  {
    "postcode": "86657",
    "city": "Burgmagerbein"
  },
  {
    "postcode": "86657",
    "city": "Diemantstein"
  },
  {
    "postcode": "86657",
    "city": "Fronhofen Schwaben"
  },
  {
    "postcode": "86657",
    "city": "Fronhofen"
  },
  {
    "postcode": "86657",
    "city": "Gaishardt Schwaben"
  },
  {
    "postcode": "86657",
    "city": "Gaishardt"
  },
  {
    "postcode": "86657",
    "city": "Göllingen Schwaben"
  },
  {
    "postcode": "86657",
    "city": "Göllingen"
  },
  {
    "postcode": "86657",
    "city": "Hochstein Schwaben"
  },
  {
    "postcode": "86657",
    "city": "Hochstein"
  },
  {
    "postcode": "86657",
    "city": "Kesselostheim Schwaben"
  },
  {
    "postcode": "86657",
    "city": "Kesselostheim"
  },
  {
    "postcode": "86657",
    "city": "Leiheim"
  },
  {
    "postcode": "86657",
    "city": "Oberliezheim"
  },
  {
    "postcode": "86657",
    "city": "Oberringingen"
  },
  {
    "postcode": "86657",
    "city": "Reimertshof"
  },
  {
    "postcode": "86657",
    "city": "Stillnau Schwaben"
  },
  {
    "postcode": "86657",
    "city": "Stillnau"
  },
  {
    "postcode": "86657",
    "city": "Thalheim"
  },
  {
    "postcode": "86657",
    "city": "Unterbissingen Schwaben"
  },
  {
    "postcode": "86657",
    "city": "Unterbissingen"
  },
  {
    "postcode": "86657",
    "city": "Unterringingen Schwaben"
  },
  {
    "postcode": "86657",
    "city": "Unterringingen"
  },
  {
    "postcode": "86657",
    "city": "Warnhofen"
  },
  {
    "postcode": "86657",
    "city": "Zoltingen"
  },
  {
    "postcode": "86657",
    "city": "Dillingen an der Donau"
  },
  {
    "postcode": "86657",
    "city": "Buch"
  },
  {
    "postcode": "86660",
    "city": "Brachstadt"
  },
  {
    "postcode": "86660",
    "city": "Donaumünster"
  },
  {
    "postcode": "86660",
    "city": "Erlingshofen"
  },
  {
    "postcode": "86660",
    "city": "Oppertshofen"
  },
  {
    "postcode": "86660",
    "city": "Rettingen"
  },
  {
    "postcode": "86660",
    "city": "Tapfheim"
  },
  {
    "postcode": "86660",
    "city": "Donau-Ries"
  },
  {
    "postcode": "86663",
    "city": "Asbach-Bäumenheim"
  },
  {
    "postcode": "86663",
    "city": "Hamlar"
  },
  {
    "postcode": "86663",
    "city": "Donau-Ries"
  },
  {
    "postcode": "86666",
    "city": "Biding"
  },
  {
    "postcode": "86666",
    "city": "Burgheim"
  },
  {
    "postcode": "86666",
    "city": "Burgheim Oberbayern"
  },
  {
    "postcode": "86666",
    "city": "Dezenacker"
  },
  {
    "postcode": "86666",
    "city": "Eschling Kreis Neuburg an der Donau"
  },
  {
    "postcode": "86666",
    "city": "Eschling"
  },
  {
    "postcode": "86666",
    "city": "Illdorf"
  },
  {
    "postcode": "86666",
    "city": "Kunding"
  },
  {
    "postcode": "86666",
    "city": "Längloh"
  },
  {
    "postcode": "86666",
    "city": "Leidling"
  },
  {
    "postcode": "86666",
    "city": "Moos Kreis Neuburg an der Donau"
  },
  {
    "postcode": "86666",
    "city": "Moos"
  },
  {
    "postcode": "86666",
    "city": "Ortlfing Kreis Neuburg an der Donau"
  },
  {
    "postcode": "86666",
    "city": "Ortlfing"
  },
  {
    "postcode": "86666",
    "city": "Straß Kreis Neuburg an der Donau"
  },
  {
    "postcode": "86666",
    "city": "Straß"
  },
  {
    "postcode": "86666",
    "city": "Wengen Kreis Neuburg an der Donau"
  },
  {
    "postcode": "86666",
    "city": "Wengen"
  },
  {
    "postcode": "86666",
    "city": "Neuburg-Schrobenhausen"
  },
  {
    "postcode": "86666",
    "city": "Grasmühle"
  },
  {
    "postcode": "86666",
    "city": "Hirst"
  },
  {
    "postcode": "86666",
    "city": "Langwiedmühle"
  },
  {
    "postcode": "86666",
    "city": "Oggermühle"
  },
  {
    "postcode": "86666",
    "city": "Schnödhof"
  },
  {
    "postcode": "86668",
    "city": "Grasheim"
  },
  {
    "postcode": "86668",
    "city": "Karlshuld"
  },
  {
    "postcode": "86668",
    "city": "Kleinhohenried"
  },
  {
    "postcode": "86668",
    "city": "Kochheim"
  },
  {
    "postcode": "86668",
    "city": "Neuschwetzingen"
  },
  {
    "postcode": "86668",
    "city": "Neuburg-Schrobenhausen"
  },
  {
    "postcode": "86668",
    "city": "Nazibühl"
  },
  {
    "postcode": "86669",
    "city": "Klingsmoos"
  },
  {
    "postcode": "86669",
    "city": "Königsmoos"
  },
  {
    "postcode": "86669",
    "city": "Ludwigsmoos"
  },
  {
    "postcode": "86669",
    "city": "Obergrasheim"
  },
  {
    "postcode": "86669",
    "city": "Obermaxfeld"
  },
  {
    "postcode": "86669",
    "city": "Rosing an der Donau"
  },
  {
    "postcode": "86669",
    "city": "Stengelheim"
  },
  {
    "postcode": "86669",
    "city": "Untermaxfeld"
  },
  {
    "postcode": "86669",
    "city": "Neuburg-Schrobenhausen"
  },
  {
    "postcode": "86669",
    "city": "Achhäuser"
  },
  {
    "postcode": "86669",
    "city": "Rosing"
  },
  {
    "postcode": "86669",
    "city": "Zitzelsheim"
  },
  {
    "postcode": "86672",
    "city": "Altenbach"
  },
  {
    "postcode": "86672",
    "city": "Baar (Schwaben)"
  },
  {
    "postcode": "86672",
    "city": "Baar"
  },
  {
    "postcode": "86672",
    "city": "Hölzlarn bei Thierhaupten"
  },
  {
    "postcode": "86672",
    "city": "Neukirchen bei Thierhaupten"
  },
  {
    "postcode": "86672",
    "city": "Ötz"
  },
  {
    "postcode": "86672",
    "city": "Thierhaupten"
  },
  {
    "postcode": "86672",
    "city": "Weiden bei Thierhaupten"
  },
  {
    "postcode": "86672",
    "city": "Aichach-Friedberg"
  },
  {
    "postcode": "86672",
    "city": "Neukirchen"
  },
  {
    "postcode": "86672",
    "city": "Hölzlarn"
  },
  {
    "postcode": "86672",
    "city": "Königsbrunn"
  },
  {
    "postcode": "86672",
    "city": "Weiden"
  },
  {
    "postcode": "86673",
    "city": "Attenfeld"
  },
  {
    "postcode": "86673",
    "city": "Bergheim"
  },
  {
    "postcode": "86673",
    "city": "Bergheim bei Neuburg an der Donau"
  },
  {
    "postcode": "86673",
    "city": "Unterstall"
  },
  {
    "postcode": "86673",
    "city": "Neuburg-Schrobenhausen"
  },
  {
    "postcode": "86673",
    "city": "Hennenweidach"
  },
  {
    "postcode": "86673",
    "city": "Igstetterhof"
  },
  {
    "postcode": "86673",
    "city": "Straßwirt"
  },
  {
    "postcode": "86674",
    "city": "Baar (Schwaben)"
  },
  {
    "postcode": "86674",
    "city": "Baar"
  },
  {
    "postcode": "86674",
    "city": "Heimpersdorf Schwaben"
  },
  {
    "postcode": "86674",
    "city": "Heimpersdorf"
  },
  {
    "postcode": "86674",
    "city": "Lechlingszell"
  },
  {
    "postcode": "86674",
    "city": "Oberbaar"
  },
  {
    "postcode": "86674",
    "city": "Unterbaar"
  },
  {
    "postcode": "86674",
    "city": "Aichach-Friedberg"
  },
  {
    "postcode": "86675",
    "city": "Baierfeld"
  },
  {
    "postcode": "86675",
    "city": "Buchdorf"
  },
  {
    "postcode": "86675",
    "city": "Donau-Ries"
  },
  {
    "postcode": "86676",
    "city": "Ambach bei Neuburg an der Donau"
  },
  {
    "postcode": "86676",
    "city": "Auhof Schwaben"
  },
  {
    "postcode": "86676",
    "city": "Auhof"
  },
  {
    "postcode": "86676",
    "city": "Bonsal Oberbayern"
  },
  {
    "postcode": "86676",
    "city": "Bonsal"
  },
  {
    "postcode": "86676",
    "city": "Buch Kreis Neuburg an der Donau"
  },
  {
    "postcode": "86676",
    "city": "Buch"
  },
  {
    "postcode": "86676",
    "city": "Dinkelshausen"
  },
  {
    "postcode": "86676",
    "city": "Ehekirchen"
  },
  {
    "postcode": "86676",
    "city": "Ehekirchen Oberbayern"
  },
  {
    "postcode": "86676",
    "city": "Fernmittenhausen"
  },
  {
    "postcode": "86676",
    "city": "Haselbach bei Neuburg an der Donau"
  },
  {
    "postcode": "86676",
    "city": "Hollenbach Oberbayern"
  },
  {
    "postcode": "86676",
    "city": "Hollenbach"
  },
  {
    "postcode": "86676",
    "city": "Holzkirchen Kreis Neuburg an der Donau"
  },
  {
    "postcode": "86676",
    "city": "Holzkirchen"
  },
  {
    "postcode": "86676",
    "city": "Kagerhof bei Neuburg an der Donau"
  },
  {
    "postcode": "86676",
    "city": "Kehrhof"
  },
  {
    "postcode": "86676",
    "city": "Nähermittenhausen"
  },
  {
    "postcode": "86676",
    "city": "Ried"
  },
  {
    "postcode": "86676",
    "city": "Schainbach Schwaben"
  },
  {
    "postcode": "86676",
    "city": "Schainbach"
  },
  {
    "postcode": "86676",
    "city": "Schönesberg"
  },
  {
    "postcode": "86676",
    "city": "Seiboldsdorf"
  },
  {
    "postcode": "86676",
    "city": "Walda Schwaben"
  },
  {
    "postcode": "86676",
    "city": "Walda"
  },
  {
    "postcode": "86676",
    "city": "Wallertshofen"
  },
  {
    "postcode": "86676",
    "city": "Weidorf"
  },
  {
    "postcode": "86676",
    "city": "Neuburg-Schrobenhausen"
  },
  {
    "postcode": "86676",
    "city": "Ambach"
  },
  {
    "postcode": "86676",
    "city": "Anderhof"
  },
  {
    "postcode": "86676",
    "city": "Aumühle"
  },
  {
    "postcode": "86676",
    "city": "Haselbach"
  },
  {
    "postcode": "86676",
    "city": "Kagerhof"
  },
  {
    "postcode": "86676",
    "city": "Mochenbach"
  },
  {
    "postcode": "86678",
    "city": "Ehingen"
  },
  {
    "postcode": "86678",
    "city": "Ehingen bei Wertingen"
  },
  {
    "postcode": "86678",
    "city": "Ortlfingen"
  },
  {
    "postcode": "86678",
    "city": "Augsburg"
  },
  {
    "postcode": "86679",
    "city": "Ellgau"
  },
  {
    "postcode": "86679",
    "city": "Herrlehof"
  },
  {
    "postcode": "86679",
    "city": "Augsburg"
  },
  {
    "postcode": "86681",
    "city": "Asbacherhof"
  },
  {
    "postcode": "86681",
    "city": "Fünfstetten"
  },
  {
    "postcode": "86681",
    "city": "Heidmersbrunn"
  },
  {
    "postcode": "86681",
    "city": "Ingershof"
  },
  {
    "postcode": "86681",
    "city": "Nußbühl"
  },
  {
    "postcode": "86681",
    "city": "Donau-Ries"
  },
  {
    "postcode": "86681",
    "city": "Biberhof"
  },
  {
    "postcode": "86681",
    "city": "Mittelwegerhof"
  },
  {
    "postcode": "86681",
    "city": "Obere Beutmühle"
  },
  {
    "postcode": "86681",
    "city": "Rothenbergerhof"
  },
  {
    "postcode": "86681",
    "city": "Untere Beutmühle"
  },
  {
    "postcode": "86682",
    "city": "Breitwangerhof"
  },
  {
    "postcode": "86682",
    "city": "Genderkingen"
  },
  {
    "postcode": "86682",
    "city": "Urfahrhof"
  },
  {
    "postcode": "86682",
    "city": "Donau-Ries"
  },
  {
    "postcode": "86682",
    "city": "Feldheim"
  },
  {
    "postcode": "86684",
    "city": "Bergendorf bei Rain Lech"
  },
  {
    "postcode": "86684",
    "city": "Bergendorf bei Rain"
  },
  {
    "postcode": "86684",
    "city": "Holzheim"
  },
  {
    "postcode": "86684",
    "city": "Holzheim bei Rain Lech"
  },
  {
    "postcode": "86684",
    "city": "Holzheim bei Rain"
  },
  {
    "postcode": "86684",
    "city": "Pessenburgheim bei Rain Lech"
  },
  {
    "postcode": "86684",
    "city": "Pessenburgheim bei Rain"
  },
  {
    "postcode": "86684",
    "city": "Riedheim bei Rain Lech"
  },
  {
    "postcode": "86684",
    "city": "Riedheim bei Rain"
  },
  {
    "postcode": "86684",
    "city": "Stadel bei Rain Lech"
  },
  {
    "postcode": "86684",
    "city": "Stadel bei Rain"
  },
  {
    "postcode": "86684",
    "city": "Donau-Ries"
  },
  {
    "postcode": "86684",
    "city": "Riedheim"
  },
  {
    "postcode": "86684",
    "city": "Stadel"
  },
  {
    "postcode": "86684",
    "city": "Pessenburgheim"
  },
  {
    "postcode": "86684",
    "city": "Bergendorf"
  },
  {
    "postcode": "86685",
    "city": "Gosheim bei Donauwörth"
  },
  {
    "postcode": "86685",
    "city": "Huisheim"
  },
  {
    "postcode": "86685",
    "city": "Lommersheim Kreis Donauwörth"
  },
  {
    "postcode": "86685",
    "city": "Lommersheim"
  },
  {
    "postcode": "86685",
    "city": "Donau-Ries"
  },
  {
    "postcode": "86685",
    "city": "Gosheim"
  },
  {
    "postcode": "86687",
    "city": "Altisheim"
  },
  {
    "postcode": "86687",
    "city": "Bergstetten"
  },
  {
    "postcode": "86687",
    "city": "Gunzenheim Kreis Donauwörth"
  },
  {
    "postcode": "86687",
    "city": "Gunzenheim"
  },
  {
    "postcode": "86687",
    "city": "Hafenreut Kreis Donauwörth"
  },
  {
    "postcode": "86687",
    "city": "Hafenreut"
  },
  {
    "postcode": "86687",
    "city": "Kaisheim"
  },
  {
    "postcode": "86687",
    "city": "Leitheim"
  },
  {
    "postcode": "86687",
    "city": "Neuhof Kreis Donauwörth"
  },
  {
    "postcode": "86687",
    "city": "Neuhof"
  },
  {
    "postcode": "86687",
    "city": "Sulzdorf Kreis Donauwörth"
  },
  {
    "postcode": "86687",
    "city": "Sulzdorf"
  },
  {
    "postcode": "86687",
    "city": "Donau-Ries"
  },
  {
    "postcode": "86688",
    "city": "Bruck"
  },
  {
    "postcode": "86688",
    "city": "Burgmannshofen"
  },
  {
    "postcode": "86688",
    "city": "Gansheim"
  },
  {
    "postcode": "86688",
    "city": "Graisbach"
  },
  {
    "postcode": "86688",
    "city": "Lechsend"
  },
  {
    "postcode": "86688",
    "city": "Marxheim"
  },
  {
    "postcode": "86688",
    "city": "Neuhausen"
  },
  {
    "postcode": "86688",
    "city": "Schweinspoint"
  },
  {
    "postcode": "86688",
    "city": "Donau-Ries"
  },
  {
    "postcode": "86688",
    "city": "Übersfeld"
  },
  {
    "postcode": "86690",
    "city": "Burghöfe"
  },
  {
    "postcode": "86690",
    "city": "Druisheim"
  },
  {
    "postcode": "86690",
    "city": "Heißesheim"
  },
  {
    "postcode": "86690",
    "city": "Mertingen"
  },
  {
    "postcode": "86690",
    "city": "Donau-Ries"
  },
  {
    "postcode": "86692",
    "city": "Hemerten Lech"
  },
  {
    "postcode": "86692",
    "city": "Hemerten"
  },
  {
    "postcode": "86692",
    "city": "Münster / Lech"
  },
  {
    "postcode": "86692",
    "city": "Münster"
  },
  {
    "postcode": "86692",
    "city": "Sulz Lech"
  },
  {
    "postcode": "86692",
    "city": "Sulz"
  },
  {
    "postcode": "86692",
    "city": "Donau-Ries"
  },
  {
    "postcode": "86692",
    "city": "Gut Hemerten"
  },
  {
    "postcode": "86692",
    "city": "Gut Sulz"
  },
  {
    "postcode": "86694",
    "city": "Feldheim Schwaben"
  },
  {
    "postcode": "86694",
    "city": "Feldheim"
  },
  {
    "postcode": "86694",
    "city": "Niederschönenfeld"
  },
  {
    "postcode": "86694",
    "city": "Donau-Ries"
  },
  {
    "postcode": "86695",
    "city": "Allmannshofen"
  },
  {
    "postcode": "86695",
    "city": "Blankenburg"
  },
  {
    "postcode": "86695",
    "city": "Holzen Schwaben"
  },
  {
    "postcode": "86695",
    "city": "Holzen"
  },
  {
    "postcode": "86695",
    "city": "Nordendorf"
  },
  {
    "postcode": "86695",
    "city": "Augsburg"
  },
  {
    "postcode": "86695",
    "city": "Klause"
  },
  {
    "postcode": "86695",
    "city": "Schwaighof"
  },
  {
    "postcode": "86697",
    "city": "Kreut Kreis Neuburg an der Donau"
  },
  {
    "postcode": "86697",
    "city": "Kreut"
  },
  {
    "postcode": "86697",
    "city": "Oberhausen"
  },
  {
    "postcode": "86697",
    "city": "Oberhausen bei Neuburg an der Donau"
  },
  {
    "postcode": "86697",
    "city": "Sinning Schwaben"
  },
  {
    "postcode": "86697",
    "city": "Sinning"
  },
  {
    "postcode": "86697",
    "city": "Stelzhof Schwaben"
  },
  {
    "postcode": "86697",
    "city": "Stelzhof"
  },
  {
    "postcode": "86697",
    "city": "Unterhausen Donau"
  },
  {
    "postcode": "86697",
    "city": "Unterhausen"
  },
  {
    "postcode": "86697",
    "city": "Neuburg-Schrobenhausen"
  },
  {
    "postcode": "86697",
    "city": "Beuthmühle"
  },
  {
    "postcode": "86697",
    "city": "Höfelhof"
  },
  {
    "postcode": "86697",
    "city": "Kastlmühle"
  },
  {
    "postcode": "86697",
    "city": "St. Wolfgang"
  },
  {
    "postcode": "86698",
    "city": "Eggelstetten"
  },
  {
    "postcode": "86698",
    "city": "Flein"
  },
  {
    "postcode": "86698",
    "city": "Oberndorf"
  },
  {
    "postcode": "86698",
    "city": "Oberndorf am Lech"
  },
  {
    "postcode": "86698",
    "city": "Donau-Ries"
  },
  {
    "postcode": "86698",
    "city": "Oberndorf a. Lech"
  },
  {
    "postcode": "86700",
    "city": "Dattenbrunn bei Donauwörth"
  },
  {
    "postcode": "86700",
    "city": "Henthalhof bei Donauwörth"
  },
  {
    "postcode": "86700",
    "city": "Otting"
  },
  {
    "postcode": "86700",
    "city": "Otting bei Donauwörth"
  },
  {
    "postcode": "86700",
    "city": "Weilheimerbach Kreis Donauwörth"
  },
  {
    "postcode": "86700",
    "city": "Weilheimerbach"
  },
  {
    "postcode": "86700",
    "city": "Donau-Ries"
  },
  {
    "postcode": "86700",
    "city": "Dattenbrunn"
  },
  {
    "postcode": "86701",
    "city": "Baiern"
  },
  {
    "postcode": "86701",
    "city": "Ballersdorf"
  },
  {
    "postcode": "86701",
    "city": "Doferhof"
  },
  {
    "postcode": "86701",
    "city": "Ergertshausen"
  },
  {
    "postcode": "86701",
    "city": "Isenhofen"
  },
  {
    "postcode": "86701",
    "city": "Neustetten"
  },
  {
    "postcode": "86701",
    "city": "Rohrenfels"
  },
  {
    "postcode": "86701",
    "city": "Wagenhofen"
  },
  {
    "postcode": "86701",
    "city": "Neuburg-Schrobenhausen"
  },
  {
    "postcode": "86701",
    "city": "Waldeslust"
  },
  {
    "postcode": "86703",
    "city": "Rögling Schwaben"
  },
  {
    "postcode": "86703",
    "city": "Rögling"
  },
  {
    "postcode": "86703",
    "city": "Donau-Ries"
  },
  {
    "postcode": "86704",
    "city": "Blossenau Schwaben"
  },
  {
    "postcode": "86704",
    "city": "Blossenau"
  },
  {
    "postcode": "86704",
    "city": "Tagmersheim"
  },
  {
    "postcode": "86704",
    "city": "Donau-Ries"
  },
  {
    "postcode": "86706",
    "city": "Lichtenau bei Ingolstadt Donau"
  },
  {
    "postcode": "86706",
    "city": "Lichtenau bei Ingolstadt"
  },
  {
    "postcode": "86706",
    "city": "Weichering"
  },
  {
    "postcode": "86706",
    "city": "Neuburg-Schrobenhausen"
  },
  {
    "postcode": "86706",
    "city": "Lichtenau"
  },
  {
    "postcode": "86706",
    "city": "Osterfeldsiedlung"
  },
  {
    "postcode": "86706",
    "city": "Bofzheim"
  },
  {
    "postcode": "86706",
    "city": "Obermühle"
  },
  {
    "postcode": "86706",
    "city": "Lichtenheim"
  },
  {
    "postcode": "86706",
    "city": "Oberschwaig"
  },
  {
    "postcode": "86706",
    "city": "Rosenschwaig"
  },
  {
    "postcode": "86706",
    "city": "Schornreut"
  },
  {
    "postcode": "86707",
    "city": "Anzenhof"
  },
  {
    "postcode": "86707",
    "city": "Fertingen"
  },
  {
    "postcode": "86707",
    "city": "Kühlenthal"
  },
  {
    "postcode": "86707",
    "city": "Westendorf bei Donauwörth"
  },
  {
    "postcode": "86707",
    "city": "Augsburg"
  },
  {
    "postcode": "86707",
    "city": "Westendorf"
  },
  {
    "postcode": "86707",
    "city": "Ahlingen"
  },
  {
    "postcode": "86709",
    "city": "Hagau"
  },
  {
    "postcode": "86709",
    "city": "Rothenberg"
  },
  {
    "postcode": "86709",
    "city": "Steinbühl"
  },
  {
    "postcode": "86709",
    "city": "Waldstetten"
  },
  {
    "postcode": "86709",
    "city": "Wolferstadt"
  },
  {
    "postcode": "86709",
    "city": "Zwerchstraß"
  },
  {
    "postcode": "86709",
    "city": "Donau-Ries"
  },
  {
    "postcode": "86720",
    "city": "Baldingen bei Nördlingen"
  },
  {
    "postcode": "86720",
    "city": "Dürrenzimmern"
  },
  {
    "postcode": "86720",
    "city": "Großelfingen bei Nördlingen"
  },
  {
    "postcode": "86720",
    "city": "Herkheim"
  },
  {
    "postcode": "86720",
    "city": "Holheim"
  },
  {
    "postcode": "86720",
    "city": "Kleinerdlingen"
  },
  {
    "postcode": "86720",
    "city": "Löpsingen"
  },
  {
    "postcode": "86720",
    "city": "Nähermemmingen"
  },
  {
    "postcode": "86720",
    "city": "Nördlingen"
  },
  {
    "postcode": "86720",
    "city": "Pfäfflingen"
  },
  {
    "postcode": "86720",
    "city": "Schmähingen"
  },
  {
    "postcode": "86720",
    "city": "Donau-Ries"
  },
  {
    "postcode": "86720",
    "city": "Grosselfingen"
  },
  {
    "postcode": "86720",
    "city": "Baldingen"
  },
  {
    "postcode": "86732",
    "city": "Bettendorf in Bayern"
  },
  {
    "postcode": "86732",
    "city": "Breitenlohe Kreis Nördlingen"
  },
  {
    "postcode": "86732",
    "city": "Breitenlohe"
  },
  {
    "postcode": "86732",
    "city": "Erlbach Kreis Nördlingen"
  },
  {
    "postcode": "86732",
    "city": "Erlbach"
  },
  {
    "postcode": "86732",
    "city": "Heuberg bei Nördlingen"
  },
  {
    "postcode": "86732",
    "city": "Lehmingen in Bayern"
  },
  {
    "postcode": "86732",
    "city": "Lohe in Bayern"
  },
  {
    "postcode": "86732",
    "city": "Niederhofen Kreis Nördlingen"
  },
  {
    "postcode": "86732",
    "city": "Niederhofen"
  },
  {
    "postcode": "86732",
    "city": "Nittingen in Bayern"
  },
  {
    "postcode": "86732",
    "city": "Oettingen"
  },
  {
    "postcode": "86732",
    "city": "Oettingen in Bayern"
  },
  {
    "postcode": "86732",
    "city": "Seehof in Bayern"
  },
  {
    "postcode": "86732",
    "city": "Siegenhofen in Bayern"
  },
  {
    "postcode": "86732",
    "city": "Donau-Ries"
  },
  {
    "postcode": "86732",
    "city": "Oettingen i.Bay."
  },
  {
    "postcode": "86732",
    "city": "Lehmingen"
  },
  {
    "postcode": "86732",
    "city": "Heuberg"
  },
  {
    "postcode": "86732",
    "city": "Bettendorf"
  },
  {
    "postcode": "86732",
    "city": "Lohe"
  },
  {
    "postcode": "86732",
    "city": "Nittingen"
  },
  {
    "postcode": "86732",
    "city": "Siegenhofen"
  },
  {
    "postcode": "86733",
    "city": "Alerheim"
  },
  {
    "postcode": "86733",
    "city": "Anhauserhöfe"
  },
  {
    "postcode": "86733",
    "city": "Bühl im Ries"
  },
  {
    "postcode": "86733",
    "city": "Rudelstetten"
  },
  {
    "postcode": "86733",
    "city": "Wörnitzostheim"
  },
  {
    "postcode": "86733",
    "city": "Donau-Ries"
  },
  {
    "postcode": "86733",
    "city": "Bühl i. Ries"
  },
  {
    "postcode": "86735",
    "city": "Amerdingen"
  },
  {
    "postcode": "86735",
    "city": "Aufhausen"
  },
  {
    "postcode": "86735",
    "city": "Bollstadt"
  },
  {
    "postcode": "86735",
    "city": "Forheim"
  },
  {
    "postcode": "86735",
    "city": "Seelbronn"
  },
  {
    "postcode": "86735",
    "city": "Donau-Ries"
  },
  {
    "postcode": "86735",
    "city": "Sternbach"
  },
  {
    "postcode": "86736",
    "city": "Auhausen"
  },
  {
    "postcode": "86736",
    "city": "Auhausen Schwaben"
  },
  {
    "postcode": "86736",
    "city": "Dornstadt bei Nördlingen"
  },
  {
    "postcode": "86736",
    "city": "Heuhof"
  },
  {
    "postcode": "86736",
    "city": "Lochenbach in Bayern"
  },
  {
    "postcode": "86736",
    "city": "Wachfeld"
  },
  {
    "postcode": "86736",
    "city": "Zirndorf"
  },
  {
    "postcode": "86736",
    "city": "Donau-Ries"
  },
  {
    "postcode": "86736",
    "city": "Dornstadt"
  },
  {
    "postcode": "86736",
    "city": "Lochenbach"
  },
  {
    "postcode": "86736",
    "city": "Pfeifhof"
  },
  {
    "postcode": "86738",
    "city": "Deiningen"
  },
  {
    "postcode": "86738",
    "city": "Klosterzimmern"
  },
  {
    "postcode": "86738",
    "city": "Möderhof"
  },
  {
    "postcode": "86738",
    "city": "Donau-Ries"
  },
  {
    "postcode": "86739",
    "city": "Anhausen"
  },
  {
    "postcode": "86739",
    "city": "Christgarten"
  },
  {
    "postcode": "86739",
    "city": "Ederheim"
  },
  {
    "postcode": "86739",
    "city": "Hürnheim"
  },
  {
    "postcode": "86739",
    "city": "Karlshof bei Ederheim"
  },
  {
    "postcode": "86739",
    "city": "Donau-Ries"
  },
  {
    "postcode": "86739",
    "city": "Karlshof"
  },
  {
    "postcode": "86741",
    "city": "Belzheim"
  },
  {
    "postcode": "86741",
    "city": "Ehingen"
  },
  {
    "postcode": "86741",
    "city": "Ehingen am Ries"
  },
  {
    "postcode": "86741",
    "city": "Donau-Ries"
  },
  {
    "postcode": "86741",
    "city": "Ehingen a. Ries"
  },
  {
    "postcode": "86741",
    "city": "Ehingen a Ries"
  },
  {
    "postcode": "86742",
    "city": "Bühlingen"
  },
  {
    "postcode": "86742",
    "city": "Eitersberg bei Nördlingen"
  },
  {
    "postcode": "86742",
    "city": "Enslingen"
  },
  {
    "postcode": "86742",
    "city": "Fremdingen"
  },
  {
    "postcode": "86742",
    "city": "Hausen bei Nördlingen"
  },
  {
    "postcode": "86742",
    "city": "Herblingen"
  },
  {
    "postcode": "86742",
    "city": "Hochaltingen"
  },
  {
    "postcode": "86742",
    "city": "Hochstadt bei Nördlingen"
  },
  {
    "postcode": "86742",
    "city": "Raustetten"
  },
  {
    "postcode": "86742",
    "city": "Schopflohe"
  },
  {
    "postcode": "86742",
    "city": "Seglohe bei Nördlingen"
  },
  {
    "postcode": "86742",
    "city": "Uttenstetten"
  },
  {
    "postcode": "86742",
    "city": "Donau-Ries"
  },
  {
    "postcode": "86742",
    "city": "Hausen"
  },
  {
    "postcode": "86742",
    "city": "Eitersberg"
  },
  {
    "postcode": "86742",
    "city": "Seglohe"
  },
  {
    "postcode": "86742",
    "city": "Hochstadt"
  },
  {
    "postcode": "86744",
    "city": "Hainsfarth"
  },
  {
    "postcode": "86744",
    "city": "Steinhart Schwaben"
  },
  {
    "postcode": "86744",
    "city": "Steinhart"
  },
  {
    "postcode": "86744",
    "city": "Donau-Ries"
  },
  {
    "postcode": "86745",
    "city": "Forsthaus"
  },
  {
    "postcode": "86745",
    "city": "Frohnmühle"
  },
  {
    "postcode": "86745",
    "city": "Hohenaltheim"
  },
  {
    "postcode": "86745",
    "city": "Mühlauhof"
  },
  {
    "postcode": "86745",
    "city": "Niederaltheim"
  },
  {
    "postcode": "86745",
    "city": "Donau-Ries"
  },
  {
    "postcode": "86747",
    "city": "Maihingen"
  },
  {
    "postcode": "86747",
    "city": "Utzwingen"
  },
  {
    "postcode": "86747",
    "city": "Donau-Ries"
  },
  {
    "postcode": "86748",
    "city": "Marktoffingen"
  },
  {
    "postcode": "86748",
    "city": "Minderoffingen"
  },
  {
    "postcode": "86748",
    "city": "Wengenhausen"
  },
  {
    "postcode": "86748",
    "city": "Donau-Ries"
  },
  {
    "postcode": "86750",
    "city": "Lerchenbühl"
  },
  {
    "postcode": "86750",
    "city": "Megesheim"
  },
  {
    "postcode": "86750",
    "city": "Donau-Ries"
  },
  {
    "postcode": "86750",
    "city": "Unterappenberg"
  },
  {
    "postcode": "86751",
    "city": "Merzingen"
  },
  {
    "postcode": "86751",
    "city": "Mönchsdeggingen"
  },
  {
    "postcode": "86751",
    "city": "Rohrbach"
  },
  {
    "postcode": "86751",
    "city": "Schaffhausen Schwaben"
  },
  {
    "postcode": "86751",
    "city": "Schaffhausen"
  },
  {
    "postcode": "86751",
    "city": "Thurneck"
  },
  {
    "postcode": "86751",
    "city": "Untermagerbein"
  },
  {
    "postcode": "86751",
    "city": "Ziswingen"
  },
  {
    "postcode": "86751",
    "city": "Donau-Ries"
  },
  {
    "postcode": "86753",
    "city": "Appetshofen Kreis Nördlingen"
  },
  {
    "postcode": "86753",
    "city": "Appetshofen"
  },
  {
    "postcode": "86753",
    "city": "Balgheim"
  },
  {
    "postcode": "86753",
    "city": "Enkingen bei Nördlingen"
  },
  {
    "postcode": "86753",
    "city": "Kleinsorheim"
  },
  {
    "postcode": "86753",
    "city": "Lierheim"
  },
  {
    "postcode": "86753",
    "city": "Möttingen"
  },
  {
    "postcode": "86753",
    "city": "Donau-Ries"
  },
  {
    "postcode": "86753",
    "city": "Enkingen"
  },
  {
    "postcode": "86754",
    "city": "Laub bei Nördlingen"
  },
  {
    "postcode": "86754",
    "city": "Munningen"
  },
  {
    "postcode": "86754",
    "city": "Schwörsheim"
  },
  {
    "postcode": "86754",
    "city": "Donau-Ries"
  },
  {
    "postcode": "86754",
    "city": "Laub"
  },
  {
    "postcode": "86756",
    "city": "Reimlingen"
  },
  {
    "postcode": "86756",
    "city": "Donau-Ries"
  },
  {
    "postcode": "86757",
    "city": "Birkhausen"
  },
  {
    "postcode": "86757",
    "city": "Ehringen"
  },
  {
    "postcode": "86757",
    "city": "Munzingen"
  },
  {
    "postcode": "86757",
    "city": "Wallerstein"
  },
  {
    "postcode": "86757",
    "city": "Donau-Ries"
  },
  {
    "postcode": "86759",
    "city": "Fessenheim"
  },
  {
    "postcode": "86759",
    "city": "Holzkirchen bei Nördlingen"
  },
  {
    "postcode": "86759",
    "city": "Wechingen"
  },
  {
    "postcode": "86759",
    "city": "Donau-Ries"
  },
  {
    "postcode": "86759",
    "city": "Holzkirchen"
  },
  {
    "postcode": "86807",
    "city": "Buchloe"
  },
  {
    "postcode": "86807",
    "city": "Hausen"
  },
  {
    "postcode": "86807",
    "city": "Honsolgen"
  },
  {
    "postcode": "86807",
    "city": "Lindenberg bei Buchloe"
  },
  {
    "postcode": "86807",
    "city": "Ostallgäu"
  },
  {
    "postcode": "86807",
    "city": "Lindenberg"
  },
  {
    "postcode": "86807",
    "city": "Sinkelmühle"
  },
  {
    "postcode": "86825",
    "city": "Bad Wörishofen"
  },
  {
    "postcode": "86825",
    "city": "Dorschhausen"
  },
  {
    "postcode": "86825",
    "city": "Frankenhofen"
  },
  {
    "postcode": "86825",
    "city": "Hartenthal"
  },
  {
    "postcode": "86825",
    "city": "Kirchdorf bei Mindelheim"
  },
  {
    "postcode": "86825",
    "city": "Obergammenried"
  },
  {
    "postcode": "86825",
    "city": "Schlingen"
  },
  {
    "postcode": "86825",
    "city": "Schöneschach"
  },
  {
    "postcode": "86825",
    "city": "Stockheim Schwaben"
  },
  {
    "postcode": "86825",
    "city": "Stockheim"
  },
  {
    "postcode": "86825",
    "city": "Untergammenried"
  },
  {
    "postcode": "86825",
    "city": "Unterallgäu"
  },
  {
    "postcode": "86825",
    "city": "Gartenstadt"
  },
  {
    "postcode": "86825",
    "city": "Kirchdorf"
  },
  {
    "postcode": "86830",
    "city": "Birkach"
  },
  {
    "postcode": "86830",
    "city": "Guggenberg"
  },
  {
    "postcode": "86830",
    "city": "Klimmach"
  },
  {
    "postcode": "86830",
    "city": "Königshausen"
  },
  {
    "postcode": "86830",
    "city": "Leuthau"
  },
  {
    "postcode": "86830",
    "city": "Mittelstetten"
  },
  {
    "postcode": "86830",
    "city": "Schwabmünchen"
  },
  {
    "postcode": "86830",
    "city": "Augsburg"
  },
  {
    "postcode": "86830",
    "city": "Schwabegg"
  },
  {
    "postcode": "86833",
    "city": "Aletshofen"
  },
  {
    "postcode": "86833",
    "city": "Ettringen"
  },
  {
    "postcode": "86833",
    "city": "Ettringen Wertach"
  },
  {
    "postcode": "86833",
    "city": "Forsthofen"
  },
  {
    "postcode": "86833",
    "city": "Höfen"
  },
  {
    "postcode": "86833",
    "city": "Siebnach"
  },
  {
    "postcode": "86833",
    "city": "Traunried"
  },
  {
    "postcode": "86833",
    "city": "Unterallgäu"
  },
  {
    "postcode": "86833",
    "city": "Oberhöfen"
  },
  {
    "postcode": "86836",
    "city": "Graben Lechfeld"
  },
  {
    "postcode": "86836",
    "city": "Graben"
  },
  {
    "postcode": "86836",
    "city": "Klosterlechfeld"
  },
  {
    "postcode": "86836",
    "city": "Obermeitingen"
  },
  {
    "postcode": "86836",
    "city": "Schwabstadl"
  },
  {
    "postcode": "86836",
    "city": "Untermeitingen"
  },
  {
    "postcode": "86836",
    "city": "Augsburg"
  },
  {
    "postcode": "86836",
    "city": "Lagerlechfeld"
  },
  {
    "postcode": "86836",
    "city": "Kolonie"
  },
  {
    "postcode": "86836",
    "city": "Kinosiedlung"
  },
  {
    "postcode": "86842",
    "city": "Berg Wertach"
  },
  {
    "postcode": "86842",
    "city": "Berg"
  },
  {
    "postcode": "86842",
    "city": "Irsingen Schwaben"
  },
  {
    "postcode": "86842",
    "city": "Irsingen"
  },
  {
    "postcode": "86842",
    "city": "Ludwigsberg Wertach"
  },
  {
    "postcode": "86842",
    "city": "Ludwigsberg"
  },
  {
    "postcode": "86842",
    "city": "Türkheim"
  },
  {
    "postcode": "86842",
    "city": "Türkheim Wertach"
  },
  {
    "postcode": "86842",
    "city": "Unterallgäu"
  },
  {
    "postcode": "86842",
    "city": "Türkheim Bahnhof"
  },
  {
    "postcode": "86845",
    "city": "Großaitingen"
  },
  {
    "postcode": "86845",
    "city": "Hardt"
  },
  {
    "postcode": "86845",
    "city": "Reinhartshofen"
  },
  {
    "postcode": "86845",
    "city": "Augsburg"
  },
  {
    "postcode": "86845",
    "city": "Am Bahnhof"
  },
  {
    "postcode": "86845",
    "city": "Gnadental"
  },
  {
    "postcode": "86850",
    "city": "Aretsried"
  },
  {
    "postcode": "86850",
    "city": "Elmischwang"
  },
  {
    "postcode": "86850",
    "city": "Fischach"
  },
  {
    "postcode": "86850",
    "city": "Fischach Schwaben"
  },
  {
    "postcode": "86850",
    "city": "Heimberg"
  },
  {
    "postcode": "86850",
    "city": "Itzlishofen Schwaben"
  },
  {
    "postcode": "86850",
    "city": "Itzlishofen"
  },
  {
    "postcode": "86850",
    "city": "Reitenbuch"
  },
  {
    "postcode": "86850",
    "city": "Siegertshofen bei Schwabmünchen"
  },
  {
    "postcode": "86850",
    "city": "Tronetshofen Schwaben"
  },
  {
    "postcode": "86850",
    "city": "Tronetshofen"
  },
  {
    "postcode": "86850",
    "city": "Willmatshofen"
  },
  {
    "postcode": "86850",
    "city": "Wollmetshofen"
  },
  {
    "postcode": "86850",
    "city": "Augsburg"
  },
  {
    "postcode": "86850",
    "city": "Siegertshofen"
  },
  {
    "postcode": "86853",
    "city": "Falkenberg"
  },
  {
    "postcode": "86853",
    "city": "Gennach"
  },
  {
    "postcode": "86853",
    "city": "Langerringen"
  },
  {
    "postcode": "86853",
    "city": "Schwabaich"
  },
  {
    "postcode": "86853",
    "city": "Schwabmühlhausen"
  },
  {
    "postcode": "86853",
    "city": "Westerringen"
  },
  {
    "postcode": "86853",
    "city": "Augsburg"
  },
  {
    "postcode": "86854",
    "city": "Amberg bei Buchloe"
  },
  {
    "postcode": "86854",
    "city": "Unterallgäu"
  },
  {
    "postcode": "86854",
    "city": "Amberg"
  },
  {
    "postcode": "86856",
    "city": "Hiltenfingen"
  },
  {
    "postcode": "86856",
    "city": "Augsburg"
  },
  {
    "postcode": "86857",
    "city": "Hurlach Oberbayern"
  },
  {
    "postcode": "86857",
    "city": "Hurlach"
  },
  {
    "postcode": "86857",
    "city": "Landsberg am Lech"
  },
  {
    "postcode": "86859",
    "city": "Holzhausen bei Buchloe"
  },
  {
    "postcode": "86859",
    "city": "Igling"
  },
  {
    "postcode": "86859",
    "city": "Oberigling"
  },
  {
    "postcode": "86859",
    "city": "Stoffersberg am Lech"
  },
  {
    "postcode": "86859",
    "city": "Unterigling"
  },
  {
    "postcode": "86859",
    "city": "Landsberg am Lech"
  },
  {
    "postcode": "86859",
    "city": "Holzhausen"
  },
  {
    "postcode": "86860",
    "city": "Beckstetten"
  },
  {
    "postcode": "86860",
    "city": "Eurishofen"
  },
  {
    "postcode": "86860",
    "city": "Jengen"
  },
  {
    "postcode": "86860",
    "city": "Koneberg"
  },
  {
    "postcode": "86860",
    "city": "Ummenhofen"
  },
  {
    "postcode": "86860",
    "city": "Weicht"
  },
  {
    "postcode": "86860",
    "city": "Weinhausen"
  },
  {
    "postcode": "86860",
    "city": "Ostallgäu"
  },
  {
    "postcode": "86862",
    "city": "Dillishausen"
  },
  {
    "postcode": "86862",
    "city": "Großkitzighofen"
  },
  {
    "postcode": "86862",
    "city": "Kleinkitzighofen"
  },
  {
    "postcode": "86862",
    "city": "Lamerdingen"
  },
  {
    "postcode": "86862",
    "city": "Ostallgäu"
  },
  {
    "postcode": "86863",
    "city": "Habertsweiler"
  },
  {
    "postcode": "86863",
    "city": "Langenneufnach"
  },
  {
    "postcode": "86863",
    "city": "Unterrothan"
  },
  {
    "postcode": "86863",
    "city": "Augsburg"
  },
  {
    "postcode": "86865",
    "city": "Anhofen"
  },
  {
    "postcode": "86865",
    "city": "Bürgle"
  },
  {
    "postcode": "86865",
    "city": "Immelstetten"
  },
  {
    "postcode": "86865",
    "city": "Markt Wald"
  },
  {
    "postcode": "86865",
    "city": "Oberneufnach"
  },
  {
    "postcode": "86865",
    "city": "Schnerzhofen"
  },
  {
    "postcode": "86865",
    "city": "Steinekirch"
  },
  {
    "postcode": "86865",
    "city": "Unterallgäu"
  },
  {
    "postcode": "86866",
    "city": "Grimoldsried"
  },
  {
    "postcode": "86866",
    "city": "Laiber"
  },
  {
    "postcode": "86866",
    "city": "Mickhausen"
  },
  {
    "postcode": "86866",
    "city": "Münster bei Schwabmünchen"
  },
  {
    "postcode": "86866",
    "city": "Rielhofen Kreis Schwabmünchen"
  },
  {
    "postcode": "86866",
    "city": "Rielhofen"
  },
  {
    "postcode": "86866",
    "city": "Augsburg"
  },
  {
    "postcode": "86866",
    "city": "Münster"
  },
  {
    "postcode": "86866",
    "city": "Kelchsried"
  },
  {
    "postcode": "86868",
    "city": "Buchhof"
  },
  {
    "postcode": "86868",
    "city": "Mittelneufnach"
  },
  {
    "postcode": "86868",
    "city": "Reichertshofen bei Schwabmünchen"
  },
  {
    "postcode": "86868",
    "city": "Augsburg"
  },
  {
    "postcode": "86868",
    "city": "Reichertshofen"
  },
  {
    "postcode": "86869",
    "city": "Gutenberg Schwaben"
  },
  {
    "postcode": "86869",
    "city": "Gutenberg"
  },
  {
    "postcode": "86869",
    "city": "Lengenfeld"
  },
  {
    "postcode": "86869",
    "city": "Oberostendorf"
  },
  {
    "postcode": "86869",
    "city": "Unterostendorf"
  },
  {
    "postcode": "86869",
    "city": "Ostallgäu"
  },
  {
    "postcode": "86869",
    "city": "Krämoos"
  },
  {
    "postcode": "86871",
    "city": "Rammingen Schwaben"
  },
  {
    "postcode": "86871",
    "city": "Rammingen"
  },
  {
    "postcode": "86871",
    "city": "Unterallgäu"
  },
  {
    "postcode": "86872",
    "city": "Berghöfe"
  },
  {
    "postcode": "86872",
    "city": "Erkhausen"
  },
  {
    "postcode": "86872",
    "city": "Konradshofen"
  },
  {
    "postcode": "86872",
    "city": "Scherstetten"
  },
  {
    "postcode": "86872",
    "city": "Augsburg"
  },
  {
    "postcode": "86874",
    "city": "Mattsies"
  },
  {
    "postcode": "86874",
    "city": "Tussenhausen"
  },
  {
    "postcode": "86874",
    "city": "Zaisertshofen"
  },
  {
    "postcode": "86874",
    "city": "Unterallgäu"
  },
  {
    "postcode": "86875",
    "city": "Bronnen Schwaben"
  },
  {
    "postcode": "86875",
    "city": "Bronnen"
  },
  {
    "postcode": "86875",
    "city": "Emmenhausen Schwaben"
  },
  {
    "postcode": "86875",
    "city": "Emmenhausen"
  },
  {
    "postcode": "86875",
    "city": "Waal"
  },
  {
    "postcode": "86875",
    "city": "Waal Schwaben"
  },
  {
    "postcode": "86875",
    "city": "Waalhaupten Schwaben"
  },
  {
    "postcode": "86875",
    "city": "Waalhaupten"
  },
  {
    "postcode": "86875",
    "city": "Ostallgäu"
  },
  {
    "postcode": "86875",
    "city": "Sägmühle"
  },
  {
    "postcode": "86877",
    "city": "Gumpenweiler bei Schwabmünchen"
  },
  {
    "postcode": "86877",
    "city": "Hölden Kreis Schwabmünchen"
  },
  {
    "postcode": "86877",
    "city": "Hölden"
  },
  {
    "postcode": "86877",
    "city": "Oberrothan Kreis Schwabmünchen"
  },
  {
    "postcode": "86877",
    "city": "Oberrothan"
  },
  {
    "postcode": "86877",
    "city": "Walkertshofen"
  },
  {
    "postcode": "86877",
    "city": "Walkertshofen bei Schwabmünchen"
  },
  {
    "postcode": "86877",
    "city": "Augsburg"
  },
  {
    "postcode": "86877",
    "city": "Gumpenweiler"
  },
  {
    "postcode": "86879",
    "city": "Wiedergeltingen"
  },
  {
    "postcode": "86879",
    "city": "Unterallgäu"
  },
  {
    "postcode": "86899",
    "city": "Ellighofen"
  },
  {
    "postcode": "86899",
    "city": "Erpfting"
  },
  {
    "postcode": "86899",
    "city": "Friedheim am Lech"
  },
  {
    "postcode": "86899",
    "city": "Landsberg"
  },
  {
    "postcode": "86899",
    "city": "Landsberg am Lech"
  },
  {
    "postcode": "86899",
    "city": "Mittelstetten am Lech"
  },
  {
    "postcode": "86899",
    "city": "Pitzling Kreis Landsberg am Lech"
  },
  {
    "postcode": "86899",
    "city": "Pitzling"
  },
  {
    "postcode": "86899",
    "city": "Reisch"
  },
  {
    "postcode": "86899",
    "city": "Mittelstetten"
  },
  {
    "postcode": "86899",
    "city": "Lechalpe"
  },
  {
    "postcode": "86911",
    "city": "Bierdorf Ammersee"
  },
  {
    "postcode": "86911",
    "city": "Bierdorf"
  },
  {
    "postcode": "86911",
    "city": "Bischofsried am Ammersee"
  },
  {
    "postcode": "86911",
    "city": "Dettenhofen"
  },
  {
    "postcode": "86911",
    "city": "Dettenschwang"
  },
  {
    "postcode": "86911",
    "city": "Dießen"
  },
  {
    "postcode": "86911",
    "city": "Dießen am Ammersee"
  },
  {
    "postcode": "86911",
    "city": "Hübschenried Ammersee"
  },
  {
    "postcode": "86911",
    "city": "Hübschenried"
  },
  {
    "postcode": "86911",
    "city": "Lachen am Ammersee"
  },
  {
    "postcode": "86911",
    "city": "Oberbeuern"
  },
  {
    "postcode": "86911",
    "city": "Oberhausen"
  },
  {
    "postcode": "86911",
    "city": "Obermühlhausen"
  },
  {
    "postcode": "86911",
    "city": "Pitzeshofen"
  },
  {
    "postcode": "86911",
    "city": "Rieden am Ammersee"
  },
  {
    "postcode": "86911",
    "city": "Riederau Ammersee"
  },
  {
    "postcode": "86911",
    "city": "Riederau"
  },
  {
    "postcode": "86911",
    "city": "Sankt Alban am Ammersee"
  },
  {
    "postcode": "86911",
    "city": "Sankt Georgen"
  },
  {
    "postcode": "86911",
    "city": "Unterbeuern"
  },
  {
    "postcode": "86911",
    "city": "Unterhausen"
  },
  {
    "postcode": "86911",
    "city": "Wengen am Ammersee"
  },
  {
    "postcode": "86911",
    "city": "Wolfgrub"
  },
  {
    "postcode": "86911",
    "city": "Ziegelstadl am Ammersee"
  },
  {
    "postcode": "86911",
    "city": "Landsberg am Lech"
  },
  {
    "postcode": "86911",
    "city": "St. Georgen"
  },
  {
    "postcode": "86911",
    "city": "Lachen"
  },
  {
    "postcode": "86911",
    "city": "Tannenhof"
  },
  {
    "postcode": "86916",
    "city": "Kaufering"
  },
  {
    "postcode": "86916",
    "city": "Landsberg am Lech"
  },
  {
    "postcode": "86919",
    "city": "Achselschwang am Ammersee"
  },
  {
    "postcode": "86919",
    "city": "Holzhausen am Ammersee"
  },
  {
    "postcode": "86919",
    "city": "Utting"
  },
  {
    "postcode": "86919",
    "city": "Utting am Ammersee"
  },
  {
    "postcode": "86919",
    "city": "Landsberg am Lech"
  },
  {
    "postcode": "86919",
    "city": "Achselschwang"
  },
  {
    "postcode": "86919",
    "city": "Holzhausen"
  },
  {
    "postcode": "86920",
    "city": "Denklingen"
  },
  {
    "postcode": "86920",
    "city": "Denklingen Oberbayern"
  },
  {
    "postcode": "86920",
    "city": "Dienhausen Schwaben"
  },
  {
    "postcode": "86920",
    "city": "Dienhausen"
  },
  {
    "postcode": "86920",
    "city": "Epfach Gemeinde Denklingen"
  },
  {
    "postcode": "86920",
    "city": "Epfach"
  },
  {
    "postcode": "86920",
    "city": "Menhofen Schwaben"
  },
  {
    "postcode": "86920",
    "city": "Menhofen"
  },
  {
    "postcode": "86920",
    "city": "Römerau"
  },
  {
    "postcode": "86920",
    "city": "Landsberg am Lech"
  },
  {
    "postcode": "86922",
    "city": "Eresing"
  },
  {
    "postcode": "86922",
    "city": "Sankt Ottilien"
  },
  {
    "postcode": "86922",
    "city": "Landsberg am Lech"
  },
  {
    "postcode": "86923",
    "city": "Entraching Oberbayern"
  },
  {
    "postcode": "86923",
    "city": "Entraching"
  },
  {
    "postcode": "86923",
    "city": "Finning"
  },
  {
    "postcode": "86923",
    "city": "Hängeberg Oberbayern"
  },
  {
    "postcode": "86923",
    "city": "Hängeberg"
  },
  {
    "postcode": "86923",
    "city": "Hartmannshausen Oberbayern"
  },
  {
    "postcode": "86923",
    "city": "Hartmannshausen"
  },
  {
    "postcode": "86923",
    "city": "Laich Oberbayern"
  },
  {
    "postcode": "86923",
    "city": "Laich"
  },
  {
    "postcode": "86923",
    "city": "Oberfinning Oberbayern"
  },
  {
    "postcode": "86923",
    "city": "Oberfinning"
  },
  {
    "postcode": "86923",
    "city": "Unterfinning"
  },
  {
    "postcode": "86923",
    "city": "Westerschondorf"
  },
  {
    "postcode": "86923",
    "city": "Landsberg am Lech"
  },
  {
    "postcode": "86925",
    "city": "Asch Oberbayern"
  },
  {
    "postcode": "86925",
    "city": "Asch"
  },
  {
    "postcode": "86925",
    "city": "Aschthal"
  },
  {
    "postcode": "86925",
    "city": "Fuchstal bei Landsberg am Lech"
  },
  {
    "postcode": "86925",
    "city": "Lechmühlen"
  },
  {
    "postcode": "86925",
    "city": "Leeder"
  },
  {
    "postcode": "86925",
    "city": "Römerkessel"
  },
  {
    "postcode": "86925",
    "city": "Seestall"
  },
  {
    "postcode": "86925",
    "city": "Welden"
  },
  {
    "postcode": "86925",
    "city": "Landsberg am Lech"
  },
  {
    "postcode": "86925",
    "city": "Fuchstal"
  },
  {
    "postcode": "86926",
    "city": "Algertshausen bei Greifenberg Ammersee"
  },
  {
    "postcode": "86926",
    "city": "Algertshausen bei Greifenberg"
  },
  {
    "postcode": "86926",
    "city": "Beuern Ammersee"
  },
  {
    "postcode": "86926",
    "city": "Beuern"
  },
  {
    "postcode": "86926",
    "city": "Greifenberg"
  },
  {
    "postcode": "86926",
    "city": "Greifenberg Ammersee"
  },
  {
    "postcode": "86926",
    "city": "Painhofen Ammersee"
  },
  {
    "postcode": "86926",
    "city": "Painhofen"
  },
  {
    "postcode": "86926",
    "city": "Pflaumdorf"
  },
  {
    "postcode": "86926",
    "city": "Theresienbad Ammersee"
  },
  {
    "postcode": "86926",
    "city": "Theresienbad"
  },
  {
    "postcode": "86926",
    "city": "Landsberg am Lech"
  },
  {
    "postcode": "86926",
    "city": "Algertshausen"
  },
  {
    "postcode": "86928",
    "city": "Hagenheim"
  },
  {
    "postcode": "86928",
    "city": "Hofstetten"
  },
  {
    "postcode": "86928",
    "city": "Hofstetten Kreis Landsberg am Lech"
  },
  {
    "postcode": "86928",
    "city": "Landsberg am Lech"
  },
  {
    "postcode": "86929",
    "city": "Epfenhausen"
  },
  {
    "postcode": "86929",
    "city": "Oberbergen Kreis Landsberg am Lech"
  },
  {
    "postcode": "86929",
    "city": "Oberbergen"
  },
  {
    "postcode": "86929",
    "city": "Penzing"
  },
  {
    "postcode": "86929",
    "city": "Penzing im Auerbergland"
  },
  {
    "postcode": "86929",
    "city": "Ramsach"
  },
  {
    "postcode": "86929",
    "city": "Stillern Kreis Landsberg am Lech"
  },
  {
    "postcode": "86929",
    "city": "Stillern"
  },
  {
    "postcode": "86929",
    "city": "Untermühlhausen"
  },
  {
    "postcode": "86929",
    "city": "Landsberg am Lech"
  },
  {
    "postcode": "86931",
    "city": "Prittriching"
  },
  {
    "postcode": "86931",
    "city": "Winkl Kreis Landsberg am Lech"
  },
  {
    "postcode": "86931",
    "city": "Winkl"
  },
  {
    "postcode": "86931",
    "city": "Landsberg am Lech"
  },
  {
    "postcode": "86932",
    "city": "Lengenfeld Kreis Landsberg am Lech"
  },
  {
    "postcode": "86932",
    "city": "Lengenfeld"
  },
  {
    "postcode": "86932",
    "city": "Pürgen"
  },
  {
    "postcode": "86932",
    "city": "Stoffen"
  },
  {
    "postcode": "86932",
    "city": "Ummendorf"
  },
  {
    "postcode": "86932",
    "city": "Landsberg am Lech"
  },
  {
    "postcode": "86932",
    "city": "Thalhofen"
  },
  {
    "postcode": "86932",
    "city": "Streicherhof"
  },
  {
    "postcode": "86934",
    "city": "Gimmenhausen"
  },
  {
    "postcode": "86934",
    "city": "Ludenhausen"
  },
  {
    "postcode": "86934",
    "city": "Reichling"
  },
  {
    "postcode": "86934",
    "city": "Reichling Oberbayern"
  },
  {
    "postcode": "86934",
    "city": "Reichlingsried"
  },
  {
    "postcode": "86934",
    "city": "Landsberg am Lech"
  },
  {
    "postcode": "86934",
    "city": "Hirschau"
  },
  {
    "postcode": "86934",
    "city": "Waldhof"
  },
  {
    "postcode": "86935",
    "city": "Pessenhausen Lech"
  },
  {
    "postcode": "86935",
    "city": "Pessenhausen"
  },
  {
    "postcode": "86935",
    "city": "Rott"
  },
  {
    "postcode": "86935",
    "city": "Rott Lech"
  },
  {
    "postcode": "86935",
    "city": "Landsberg am Lech"
  },
  {
    "postcode": "86935",
    "city": "Seehäusl"
  },
  {
    "postcode": "86935",
    "city": "Irmenhof"
  },
  {
    "postcode": "86935",
    "city": "Radlswies"
  },
  {
    "postcode": "86935",
    "city": "Riedhof"
  },
  {
    "postcode": "86935",
    "city": "Straußhof"
  },
  {
    "postcode": "86937",
    "city": "Haltenberg"
  },
  {
    "postcode": "86937",
    "city": "Lichtenberg"
  },
  {
    "postcode": "86937",
    "city": "Scheuring"
  },
  {
    "postcode": "86937",
    "city": "Landsberg am Lech"
  },
  {
    "postcode": "86937",
    "city": "Zollhaus"
  },
  {
    "postcode": "86938",
    "city": "Oberschondorf"
  },
  {
    "postcode": "86938",
    "city": "Schondorf"
  },
  {
    "postcode": "86938",
    "city": "Schondorf am Ammersee"
  },
  {
    "postcode": "86938",
    "city": "Unterschondorf Ammersee"
  },
  {
    "postcode": "86938",
    "city": "Unterschondorf"
  },
  {
    "postcode": "86938",
    "city": "Landsberg am Lech"
  },
  {
    "postcode": "86940",
    "city": "Schwifting"
  },
  {
    "postcode": "86940",
    "city": "Landsberg am Lech"
  },
  {
    "postcode": "86941",
    "city": "Sankt Ottilien"
  },
  {
    "postcode": "86941",
    "city": "Landsberg am Lech"
  },
  {
    "postcode": "86941",
    "city": "St. Ottilien"
  },
  {
    "postcode": "86943",
    "city": "Thaining"
  },
  {
    "postcode": "86943",
    "city": "Landsberg am Lech"
  },
  {
    "postcode": "86943",
    "city": "Ziegelstadel"
  },
  {
    "postcode": "86944",
    "city": "Dornstetten"
  },
  {
    "postcode": "86944",
    "city": "Oberdießen"
  },
  {
    "postcode": "86944",
    "city": "Unterdießen"
  },
  {
    "postcode": "86944",
    "city": "Landsberg am Lech"
  },
  {
    "postcode": "86946",
    "city": "Issing"
  },
  {
    "postcode": "86946",
    "city": "Mundraching Kreis Landsberg am Lech"
  },
  {
    "postcode": "86946",
    "city": "Mundraching"
  },
  {
    "postcode": "86946",
    "city": "Pflugdorf"
  },
  {
    "postcode": "86946",
    "city": "Stadl Kreis Landsberg am Lech"
  },
  {
    "postcode": "86946",
    "city": "Stadl"
  },
  {
    "postcode": "86946",
    "city": "Vilgertshofen"
  },
  {
    "postcode": "86946",
    "city": "Landsberg am Lech"
  },
  {
    "postcode": "86946",
    "city": "Frauenwies"
  },
  {
    "postcode": "86946",
    "city": "Hochreiten"
  },
  {
    "postcode": "86946",
    "city": "Ziegelstadel"
  },
  {
    "postcode": "86947",
    "city": "Adelshausen Kreis Landsberg a Lech"
  },
  {
    "postcode": "86947",
    "city": "Adelshausen"
  },
  {
    "postcode": "86947",
    "city": "Beuerbach Kreis Landsberg am Lech"
  },
  {
    "postcode": "86947",
    "city": "Beuerbach"
  },
  {
    "postcode": "86947",
    "city": "Geretshausen"
  },
  {
    "postcode": "86947",
    "city": "Machelberg bei Landsberg am Lech"
  },
  {
    "postcode": "86947",
    "city": "Pestenacker"
  },
  {
    "postcode": "86947",
    "city": "Petzenhausen"
  },
  {
    "postcode": "86947",
    "city": "Schwabhausen bei Landsberg am Lech"
  },
  {
    "postcode": "86947",
    "city": "Weil"
  },
  {
    "postcode": "86947",
    "city": "Weil Kreis Landsberg am Lech"
  },
  {
    "postcode": "86947",
    "city": "Landsberg am Lech"
  },
  {
    "postcode": "86947",
    "city": "Schwabhausen"
  },
  {
    "postcode": "86949",
    "city": "Dürrhansl"
  },
  {
    "postcode": "86949",
    "city": "Hechenwang"
  },
  {
    "postcode": "86949",
    "city": "Oberwindach Kreis Landsberg am Lech"
  },
  {
    "postcode": "86949",
    "city": "Oberwindach"
  },
  {
    "postcode": "86949",
    "city": "Schöffelding"
  },
  {
    "postcode": "86949",
    "city": "Steinebach"
  },
  {
    "postcode": "86949",
    "city": "Windach"
  },
  {
    "postcode": "86949",
    "city": "Windach Kreis Landsberg am Lech"
  },
  {
    "postcode": "86949",
    "city": "Landsberg am Lech"
  },
  {
    "postcode": "86956",
    "city": "Dornau"
  },
  {
    "postcode": "86956",
    "city": "Schongau"
  },
  {
    "postcode": "86956",
    "city": "Weilheim-Schongau"
  },
  {
    "postcode": "86971",
    "city": "Aich"
  },
  {
    "postcode": "86971",
    "city": "Aichen"
  },
  {
    "postcode": "86971",
    "city": "Berg"
  },
  {
    "postcode": "86971",
    "city": "Birkland Oberbayern"
  },
  {
    "postcode": "86971",
    "city": "Birkland"
  },
  {
    "postcode": "86971",
    "city": "Eselsberg"
  },
  {
    "postcode": "86971",
    "city": "Hausen"
  },
  {
    "postcode": "86971",
    "city": "Herzogsägmühle"
  },
  {
    "postcode": "86971",
    "city": "Hofen"
  },
  {
    "postcode": "86971",
    "city": "Höfle"
  },
  {
    "postcode": "86971",
    "city": "Kreut"
  },
  {
    "postcode": "86971",
    "city": "Kurzenried"
  },
  {
    "postcode": "86971",
    "city": "Lamprecht"
  },
  {
    "postcode": "86971",
    "city": "Langenried"
  },
  {
    "postcode": "86971",
    "city": "Luttenbach"
  },
  {
    "postcode": "86971",
    "city": "Oedenhof"
  },
  {
    "postcode": "86971",
    "city": "Peiting"
  },
  {
    "postcode": "86971",
    "city": "Ramsau"
  },
  {
    "postcode": "86971",
    "city": "Rettenbach"
  },
  {
    "postcode": "86971",
    "city": "Weilheim-Schongau"
  },
  {
    "postcode": "86971",
    "city": "Bühlach"
  },
  {
    "postcode": "86971",
    "city": "Finsterau"
  },
  {
    "postcode": "86971",
    "city": "Grabhof"
  },
  {
    "postcode": "86971",
    "city": "Grub"
  },
  {
    "postcode": "86971",
    "city": "Hohenbrand"
  },
  {
    "postcode": "86971",
    "city": "Lexe"
  },
  {
    "postcode": "86971",
    "city": "Moosegg"
  },
  {
    "postcode": "86971",
    "city": "Niederwies"
  },
  {
    "postcode": "86971",
    "city": "Odi"
  },
  {
    "postcode": "86971",
    "city": "Riedhof"
  },
  {
    "postcode": "86971",
    "city": "Ödenhof"
  },
  {
    "postcode": "86971",
    "city": "Sedlhof"
  },
  {
    "postcode": "86971",
    "city": "Winterleiten"
  },
  {
    "postcode": "86972",
    "city": "Altenstadt"
  },
  {
    "postcode": "86972",
    "city": "Altenstadt bei Schongau"
  },
  {
    "postcode": "86972",
    "city": "Schwabniederhofen"
  },
  {
    "postcode": "86972",
    "city": "Weilheim-Schongau"
  },
  {
    "postcode": "86974",
    "city": "Apfeldorf"
  },
  {
    "postcode": "86974",
    "city": "Apfeldorfhausen"
  },
  {
    "postcode": "86974",
    "city": "Oberapfeldorf"
  },
  {
    "postcode": "86974",
    "city": "Unterapfeldorf"
  },
  {
    "postcode": "86974",
    "city": "Landsberg am Lech"
  },
  {
    "postcode": "86974",
    "city": "Brand"
  },
  {
    "postcode": "86974",
    "city": "Grubmühle"
  },
  {
    "postcode": "86974",
    "city": "Hohenbrand"
  },
  {
    "postcode": "86974",
    "city": "Klafthof"
  },
  {
    "postcode": "86974",
    "city": "Wies"
  },
  {
    "postcode": "86974",
    "city": "Rauhenlechsberg"
  },
  {
    "postcode": "86975",
    "city": "Auerberg"
  },
  {
    "postcode": "86975",
    "city": "Bernbeuren"
  },
  {
    "postcode": "86975",
    "city": "Brunnhof"
  },
  {
    "postcode": "86975",
    "city": "Buchenberg am Auerberg"
  },
  {
    "postcode": "86975",
    "city": "Echerschwang"
  },
  {
    "postcode": "86975",
    "city": "Ellensberg"
  },
  {
    "postcode": "86975",
    "city": "Eschach"
  },
  {
    "postcode": "86975",
    "city": "Grönenbach"
  },
  {
    "postcode": "86975",
    "city": "Gruiwang"
  },
  {
    "postcode": "86975",
    "city": "Hafegg"
  },
  {
    "postcode": "86975",
    "city": "Hinterholz"
  },
  {
    "postcode": "86975",
    "city": "Hof"
  },
  {
    "postcode": "86975",
    "city": "Loxhub"
  },
  {
    "postcode": "86975",
    "city": "Nachsee"
  },
  {
    "postcode": "86975",
    "city": "Prachtsried"
  },
  {
    "postcode": "86975",
    "city": "Reisgang"
  },
  {
    "postcode": "86975",
    "city": "Ried"
  },
  {
    "postcode": "86975",
    "city": "Riedhof"
  },
  {
    "postcode": "86975",
    "city": "Stenz"
  },
  {
    "postcode": "86975",
    "city": "Straß"
  },
  {
    "postcode": "86975",
    "city": "Voglegg"
  },
  {
    "postcode": "86975",
    "city": "Weilheim-Schongau"
  },
  {
    "postcode": "86975",
    "city": "Am Tanneneck"
  },
  {
    "postcode": "86975",
    "city": "Angerhof"
  },
  {
    "postcode": "86975",
    "city": "Böllenburg"
  },
  {
    "postcode": "86975",
    "city": "Badwerk"
  },
  {
    "postcode": "86975",
    "city": "Berk"
  },
  {
    "postcode": "86975",
    "city": "Buchenberg"
  },
  {
    "postcode": "86975",
    "city": "Bürstenstiel"
  },
  {
    "postcode": "86975",
    "city": "Egghof"
  },
  {
    "postcode": "86975",
    "city": "Feldhof"
  },
  {
    "postcode": "86975",
    "city": "Goldstein"
  },
  {
    "postcode": "86975",
    "city": "Greuwang"
  },
  {
    "postcode": "86975",
    "city": "Grundelsberg"
  },
  {
    "postcode": "86975",
    "city": "Günther"
  },
  {
    "postcode": "86975",
    "city": "Helmer"
  },
  {
    "postcode": "86975",
    "city": "Hinterklausmen"
  },
  {
    "postcode": "86975",
    "city": "Hinterlangegg"
  },
  {
    "postcode": "86975",
    "city": "Hintertharren"
  },
  {
    "postcode": "86975",
    "city": "Hohenösch"
  },
  {
    "postcode": "86975",
    "city": "Holz"
  },
  {
    "postcode": "86975",
    "city": "Honeleshof"
  },
  {
    "postcode": "86975",
    "city": "Kienberg"
  },
  {
    "postcode": "86975",
    "city": "Kinsegg"
  },
  {
    "postcode": "86975",
    "city": "Kollmannshof"
  },
  {
    "postcode": "86975",
    "city": "Kremelsmoos"
  },
  {
    "postcode": "86975",
    "city": "Langegg"
  },
  {
    "postcode": "86975",
    "city": "Lehen"
  },
  {
    "postcode": "86975",
    "city": "Mark"
  },
  {
    "postcode": "86975",
    "city": "Oberelmenau"
  },
  {
    "postcode": "86975",
    "city": "Oberhof"
  },
  {
    "postcode": "86975",
    "city": "Oberlinden"
  },
  {
    "postcode": "86975",
    "city": "Osterberg"
  },
  {
    "postcode": "86975",
    "city": "Schlögelsberg"
  },
  {
    "postcode": "86975",
    "city": "Seemühle"
  },
  {
    "postcode": "86975",
    "city": "Sennhof"
  },
  {
    "postcode": "86975",
    "city": "Senthub"
  },
  {
    "postcode": "86975",
    "city": "Thalhof"
  },
  {
    "postcode": "86975",
    "city": "Unterelmenau"
  },
  {
    "postcode": "86975",
    "city": "Unterleithen"
  },
  {
    "postcode": "86975",
    "city": "Unterlinden"
  },
  {
    "postcode": "86975",
    "city": "Vordertharren"
  },
  {
    "postcode": "86975",
    "city": "Wendelinshof"
  },
  {
    "postcode": "86975",
    "city": "Westerhof"
  },
  {
    "postcode": "86975",
    "city": "Wiesbichl"
  },
  {
    "postcode": "86975",
    "city": "Wieshof"
  },
  {
    "postcode": "86975",
    "city": "Wildenberg"
  },
  {
    "postcode": "86977",
    "city": "Burggen"
  },
  {
    "postcode": "86977",
    "city": "Haslach"
  },
  {
    "postcode": "86977",
    "city": "Tannenberg"
  },
  {
    "postcode": "86977",
    "city": "Weilheim-Schongau"
  },
  {
    "postcode": "86977",
    "city": "Bernried"
  },
  {
    "postcode": "86977",
    "city": "Borzenwinkel"
  },
  {
    "postcode": "86977",
    "city": "Dessau"
  },
  {
    "postcode": "86977",
    "city": "Engenwies"
  },
  {
    "postcode": "86977",
    "city": "Forchenmühl"
  },
  {
    "postcode": "86977",
    "city": "Hausenried"
  },
  {
    "postcode": "86977",
    "city": "Rossau"
  },
  {
    "postcode": "86977",
    "city": "Steig"
  },
  {
    "postcode": "86977",
    "city": "Ziegler"
  },
  {
    "postcode": "86978",
    "city": "Hohenfurch"
  },
  {
    "postcode": "86978",
    "city": "Weilheim-Schongau"
  },
  {
    "postcode": "86980",
    "city": "Erbenschwang bei Schongau"
  },
  {
    "postcode": "86980",
    "city": "Huttenried bei Schongau"
  },
  {
    "postcode": "86980",
    "city": "Ingenried"
  },
  {
    "postcode": "86980",
    "city": "Ingenried bei Schongau"
  },
  {
    "postcode": "86980",
    "city": "Krottenhill bei Schongau"
  },
  {
    "postcode": "86980",
    "city": "Weilheim-Schongau"
  },
  {
    "postcode": "86980",
    "city": "Erbenschwang"
  },
  {
    "postcode": "86980",
    "city": "Huttenried"
  },
  {
    "postcode": "86980",
    "city": "Krottenhill"
  },
  {
    "postcode": "86981",
    "city": "Kinsau"
  },
  {
    "postcode": "86981",
    "city": "Landsberg am Lech"
  },
  {
    "postcode": "86983",
    "city": "Helmenstein"
  },
  {
    "postcode": "86983",
    "city": "Klausmen"
  },
  {
    "postcode": "86983",
    "city": "Lechbruck"
  },
  {
    "postcode": "86983",
    "city": "Lechbruck am See"
  },
  {
    "postcode": "86983",
    "city": "Ostallgäu"
  },
  {
    "postcode": "86983",
    "city": "Dieswang"
  },
  {
    "postcode": "86983",
    "city": "Forsthof"
  },
  {
    "postcode": "86983",
    "city": "Furth"
  },
  {
    "postcode": "86983",
    "city": "Geisenmoos"
  },
  {
    "postcode": "86983",
    "city": "Kurzenhof"
  },
  {
    "postcode": "86983",
    "city": "Leibenberg"
  },
  {
    "postcode": "86983",
    "city": "Oberschlicht"
  },
  {
    "postcode": "86983",
    "city": "Rehle"
  },
  {
    "postcode": "86983",
    "city": "Reuthen"
  },
  {
    "postcode": "86983",
    "city": "Riesen"
  },
  {
    "postcode": "86983",
    "city": "Söld"
  },
  {
    "postcode": "86983",
    "city": "Schlüsselhub"
  },
  {
    "postcode": "86983",
    "city": "Stolzhub"
  },
  {
    "postcode": "86983",
    "city": "Unterschlicht"
  },
  {
    "postcode": "86983",
    "city": "Wagegg"
  },
  {
    "postcode": "86984",
    "city": "Gründl"
  },
  {
    "postcode": "86984",
    "city": "Karlsebene"
  },
  {
    "postcode": "86984",
    "city": "Moosreiten Oberbayern"
  },
  {
    "postcode": "86984",
    "city": "Moosreiten"
  },
  {
    "postcode": "86984",
    "city": "Prem"
  },
  {
    "postcode": "86984",
    "city": "Prem Oberbayern"
  },
  {
    "postcode": "86984",
    "city": "Unterried Oberbayern"
  },
  {
    "postcode": "86984",
    "city": "Unterried"
  },
  {
    "postcode": "86984",
    "city": "Vorderholz Oberbayern"
  },
  {
    "postcode": "86984",
    "city": "Vorderholz"
  },
  {
    "postcode": "86984",
    "city": "Weilheim-Schongau"
  },
  {
    "postcode": "86984",
    "city": "Aumühle"
  },
  {
    "postcode": "86984",
    "city": "Hachegg"
  },
  {
    "postcode": "86984",
    "city": "Helmau"
  },
  {
    "postcode": "86984",
    "city": "Oberaumühle"
  },
  {
    "postcode": "86984",
    "city": "Sauwald"
  },
  {
    "postcode": "86984",
    "city": "Schlögl"
  },
  {
    "postcode": "86984",
    "city": "Schwerblmühle"
  },
  {
    "postcode": "86984",
    "city": "Steinwies"
  },
  {
    "postcode": "86986",
    "city": "Schwabbruck im Auerbergland"
  },
  {
    "postcode": "86986",
    "city": "Weilheim-Schongau"
  },
  {
    "postcode": "86986",
    "city": "Schwabbruck"
  },
  {
    "postcode": "86987",
    "city": "Sachsenried bei Schongau"
  },
  {
    "postcode": "86987",
    "city": "Schwabsoien"
  },
  {
    "postcode": "86987",
    "city": "Weilheim-Schongau"
  },
  {
    "postcode": "86987",
    "city": "Sachsenried"
  },
  {
    "postcode": "86989",
    "city": "Boschach Oberbayern"
  },
  {
    "postcode": "86989",
    "city": "Boschach"
  },
  {
    "postcode": "86989",
    "city": "Butzau"
  },
  {
    "postcode": "86989",
    "city": "Fronreiten Oberbayern"
  },
  {
    "postcode": "86989",
    "city": "Fronreiten"
  },
  {
    "postcode": "86989",
    "city": "Gogel Oberbayern"
  },
  {
    "postcode": "86989",
    "city": "Gogel"
  },
  {
    "postcode": "86989",
    "city": "Graben"
  },
  {
    "postcode": "86989",
    "city": "Hiebler Oberbayern"
  },
  {
    "postcode": "86989",
    "city": "Hiebler"
  },
  {
    "postcode": "86989",
    "city": "Illach Oberbayern"
  },
  {
    "postcode": "86989",
    "city": "Illach"
  },
  {
    "postcode": "86989",
    "city": "Kellershof"
  },
  {
    "postcode": "86989",
    "city": "Kreuzberg Oberbayern"
  },
  {
    "postcode": "86989",
    "city": "Kreuzberg"
  },
  {
    "postcode": "86989",
    "city": "Lauterbach"
  },
  {
    "postcode": "86989",
    "city": "Lindegg Oberbayern"
  },
  {
    "postcode": "86989",
    "city": "Lindegg"
  },
  {
    "postcode": "86989",
    "city": "Litzau Oberbayern"
  },
  {
    "postcode": "86989",
    "city": "Litzau"
  },
  {
    "postcode": "86989",
    "city": "Moos"
  },
  {
    "postcode": "86989",
    "city": "Reitersau Oberbayern"
  },
  {
    "postcode": "86989",
    "city": "Reitersau"
  },
  {
    "postcode": "86989",
    "city": "Resle Oberbayern"
  },
  {
    "postcode": "86989",
    "city": "Resle"
  },
  {
    "postcode": "86989",
    "city": "Riesen"
  },
  {
    "postcode": "86989",
    "city": "Sandgraben Oberbayern"
  },
  {
    "postcode": "86989",
    "city": "Sandgraben"
  },
  {
    "postcode": "86989",
    "city": "Staltannen Oberbayern"
  },
  {
    "postcode": "86989",
    "city": "Staltannen"
  },
  {
    "postcode": "86989",
    "city": "Steingädele Oberbayern"
  },
  {
    "postcode": "86989",
    "city": "Steingädele"
  },
  {
    "postcode": "86989",
    "city": "Steingaden"
  },
  {
    "postcode": "86989",
    "city": "Steingaden Oberbayern"
  },
  {
    "postcode": "86989",
    "city": "Thal"
  },
  {
    "postcode": "86989",
    "city": "Urspring Oberbayern"
  },
  {
    "postcode": "86989",
    "city": "Urspring"
  },
  {
    "postcode": "86989",
    "city": "Vordergründl Oberbayern"
  },
  {
    "postcode": "86989",
    "city": "Vordergründl"
  },
  {
    "postcode": "86989",
    "city": "Wies"
  },
  {
    "postcode": "86989",
    "city": "Weilheim-Schongau"
  },
  {
    "postcode": "86989",
    "city": "Biberschwöll"
  },
  {
    "postcode": "86989",
    "city": "Bichl"
  },
  {
    "postcode": "86989",
    "city": "Brandach"
  },
  {
    "postcode": "86989",
    "city": "Brandstatt"
  },
  {
    "postcode": "86989",
    "city": "Deutenhof"
  },
  {
    "postcode": "86989",
    "city": "Deutenried"
  },
  {
    "postcode": "86989",
    "city": "Deutensee"
  },
  {
    "postcode": "86989",
    "city": "Egart"
  },
  {
    "postcode": "86989",
    "city": "Engen"
  },
  {
    "postcode": "86989",
    "city": "Gagras"
  },
  {
    "postcode": "86989",
    "city": "Gmeind"
  },
  {
    "postcode": "86989",
    "city": "Hirschau"
  },
  {
    "postcode": "86989",
    "city": "Ilberg"
  },
  {
    "postcode": "86989",
    "city": "Ilgen"
  },
  {
    "postcode": "86989",
    "city": "Jagdberg"
  },
  {
    "postcode": "86989",
    "city": "Karlsebene"
  },
  {
    "postcode": "86989",
    "city": "Kohlhofen"
  },
  {
    "postcode": "86989",
    "city": "Kreisten"
  },
  {
    "postcode": "86989",
    "city": "Kuchen"
  },
  {
    "postcode": "86989",
    "city": "Langau"
  },
  {
    "postcode": "86989",
    "city": "Lechen"
  },
  {
    "postcode": "86989",
    "city": "Maderbichl"
  },
  {
    "postcode": "86989",
    "city": "Oberengen"
  },
  {
    "postcode": "86989",
    "city": "Schlatt"
  },
  {
    "postcode": "86989",
    "city": "Schlauch"
  },
  {
    "postcode": "86989",
    "city": "Schwarzenbach"
  },
  {
    "postcode": "86989",
    "city": "Tal"
  },
  {
    "postcode": "86989",
    "city": "Unterengen"
  },
  {
    "postcode": "86989",
    "city": "Wiesle"
  },
  {
    "postcode": "86989",
    "city": "Zöpfhalden"
  }
]