[
  {
    "postcode": "50126",
    "city": "Bergheim"
  },
  {
    "postcode": "50126",
    "city": "Bergheim Erft"
  },
  {
    "postcode": "50126",
    "city": "Glesch"
  },
  {
    "postcode": "50126",
    "city": "Kenten Erft"
  },
  {
    "postcode": "50126",
    "city": "Kenten"
  },
  {
    "postcode": "50126",
    "city": "Paffendorf Kreis Bergheim Erft"
  },
  {
    "postcode": "50126",
    "city": "Paffendorf"
  },
  {
    "postcode": "50126",
    "city": "Thorr"
  },
  {
    "postcode": "50126",
    "city": "Zieverich Erft"
  },
  {
    "postcode": "50126",
    "city": "Zieverich"
  },
  {
    "postcode": "50126",
    "city": "Rhein-Erft-Kreis"
  },
  {
    "postcode": "50127",
    "city": "Ahe bei Horrem"
  },
  {
    "postcode": "50127",
    "city": "Bergheim Erft"
  },
  {
    "postcode": "50127",
    "city": "Bergheim"
  },
  {
    "postcode": "50127",
    "city": "Kenten Erft"
  },
  {
    "postcode": "50127",
    "city": "Kenten"
  },
  {
    "postcode": "50127",
    "city": "Oberaußem"
  },
  {
    "postcode": "50127",
    "city": "Quadrath-Ichendorf"
  },
  {
    "postcode": "50127",
    "city": "Thorr"
  },
  {
    "postcode": "50127",
    "city": "Rhein-Erft-Kreis"
  },
  {
    "postcode": "50127",
    "city": "Ahe"
  },
  {
    "postcode": "50129",
    "city": "Auenheim Kreis Bergheim Erft"
  },
  {
    "postcode": "50129",
    "city": "Auenheim"
  },
  {
    "postcode": "50129",
    "city": "Bergheim"
  },
  {
    "postcode": "50129",
    "city": "Bergheim Erft"
  },
  {
    "postcode": "50129",
    "city": "Büsdorf"
  },
  {
    "postcode": "50129",
    "city": "Fliesteden"
  },
  {
    "postcode": "50129",
    "city": "Glessen"
  },
  {
    "postcode": "50129",
    "city": "Hüchelhoven Kreis Bergheim Erft"
  },
  {
    "postcode": "50129",
    "city": "Hüchelhoven"
  },
  {
    "postcode": "50129",
    "city": "Niederaußem"
  },
  {
    "postcode": "50129",
    "city": "Oberaußem"
  },
  {
    "postcode": "50129",
    "city": "Rheidt Kreis Bergheim Erft"
  },
  {
    "postcode": "50129",
    "city": "Rheidt"
  },
  {
    "postcode": "50129",
    "city": "Rhein-Erft-Kreis"
  },
  {
    "postcode": "50169",
    "city": "Balkhausen"
  },
  {
    "postcode": "50169",
    "city": "Brüggen Erft"
  },
  {
    "postcode": "50169",
    "city": "Brüggen"
  },
  {
    "postcode": "50169",
    "city": "Horrem"
  },
  {
    "postcode": "50169",
    "city": "Kerpen Rheinland"
  },
  {
    "postcode": "50169",
    "city": "Kerpen"
  },
  {
    "postcode": "50169",
    "city": "Türnich"
  },
  {
    "postcode": "50169",
    "city": "Rhein-Erft-Kreis"
  },
  {
    "postcode": "50169",
    "city": "Neu-Bottenbroich"
  },
  {
    "postcode": "50170",
    "city": "Buir Rheinland"
  },
  {
    "postcode": "50170",
    "city": "Buir"
  },
  {
    "postcode": "50170",
    "city": "Kerpen Rheinland"
  },
  {
    "postcode": "50170",
    "city": "Kerpen"
  },
  {
    "postcode": "50170",
    "city": "Manheim bei Horrem"
  },
  {
    "postcode": "50170",
    "city": "Sindorf"
  },
  {
    "postcode": "50170",
    "city": "Rhein-Erft-Kreis"
  },
  {
    "postcode": "50170",
    "city": "Manheim"
  },
  {
    "postcode": "50171",
    "city": "Bergerhausen"
  },
  {
    "postcode": "50171",
    "city": "Blatzheim"
  },
  {
    "postcode": "50171",
    "city": "Kerpen"
  },
  {
    "postcode": "50171",
    "city": "Kerpen Rheinland"
  },
  {
    "postcode": "50171",
    "city": "Mödrath"
  },
  {
    "postcode": "50171",
    "city": "Niederbolheim"
  },
  {
    "postcode": "50171",
    "city": "Rhein-Erft-Kreis"
  },
  {
    "postcode": "50171",
    "city": "Manheim-neu"
  },
  {
    "postcode": "50181",
    "city": "Bedburg"
  },
  {
    "postcode": "50181",
    "city": "Bedburg Erft"
  },
  {
    "postcode": "50181",
    "city": "Blerichen Kreis Bergheim Erft"
  },
  {
    "postcode": "50181",
    "city": "Blerichen"
  },
  {
    "postcode": "50181",
    "city": "Grottenherten"
  },
  {
    "postcode": "50181",
    "city": "Kaster"
  },
  {
    "postcode": "50181",
    "city": "Kirchherten"
  },
  {
    "postcode": "50181",
    "city": "Kirchtroisdorf"
  },
  {
    "postcode": "50181",
    "city": "Kirdorf"
  },
  {
    "postcode": "50181",
    "city": "Kleintroisdorf"
  },
  {
    "postcode": "50181",
    "city": "Königshoven Kreis Bergheim Erft"
  },
  {
    "postcode": "50181",
    "city": "Königshoven"
  },
  {
    "postcode": "50181",
    "city": "Lipp Kreis Berghein Erft"
  },
  {
    "postcode": "50181",
    "city": "Lipp"
  },
  {
    "postcode": "50181",
    "city": "Millendorf"
  },
  {
    "postcode": "50181",
    "city": "Oppendorf Kreis Bergheim Erft"
  },
  {
    "postcode": "50181",
    "city": "Oppendorf"
  },
  {
    "postcode": "50181",
    "city": "Pütz"
  },
  {
    "postcode": "50181",
    "city": "Rath"
  },
  {
    "postcode": "50181",
    "city": "Rhein-Erft-Kreis"
  },
  {
    "postcode": "50181",
    "city": "Broich"
  },
  {
    "postcode": "50181",
    "city": "Industriepark Mühlenerft"
  },
  {
    "postcode": "50181",
    "city": "Weiler-Hohenholz"
  },
  {
    "postcode": "50189",
    "city": "Angelsdorf"
  },
  {
    "postcode": "50189",
    "city": "Berrendorf"
  },
  {
    "postcode": "50189",
    "city": "Elsdorf Rheinland"
  },
  {
    "postcode": "50189",
    "city": "Elsdorf"
  },
  {
    "postcode": "50189",
    "city": "Esch Kreis Bergheim Erft"
  },
  {
    "postcode": "50189",
    "city": "Esch"
  },
  {
    "postcode": "50189",
    "city": "Etzweiler"
  },
  {
    "postcode": "50189",
    "city": "Frankeshoven"
  },
  {
    "postcode": "50189",
    "city": "Giesendorf"
  },
  {
    "postcode": "50189",
    "city": "Grouven"
  },
  {
    "postcode": "50189",
    "city": "Heppendorf"
  },
  {
    "postcode": "50189",
    "city": "Niederembt"
  },
  {
    "postcode": "50189",
    "city": "Oberembt"
  },
  {
    "postcode": "50189",
    "city": "Tollhausen Kreis Bergheim Erft"
  },
  {
    "postcode": "50189",
    "city": "Tollhausen"
  },
  {
    "postcode": "50189",
    "city": "Widdendorf"
  },
  {
    "postcode": "50189",
    "city": "Rhein-Erft-Kreis"
  },
  {
    "postcode": "50189",
    "city": "Neu-Etzweiler"
  },
  {
    "postcode": "50226",
    "city": "Bachem"
  },
  {
    "postcode": "50226",
    "city": "Benzelrath"
  },
  {
    "postcode": "50226",
    "city": "Buschbell"
  },
  {
    "postcode": "50226",
    "city": "Frechen"
  },
  {
    "postcode": "50226",
    "city": "Grefrath bei Horrem"
  },
  {
    "postcode": "50226",
    "city": "Habbelrath"
  },
  {
    "postcode": "50226",
    "city": "Königsdorf"
  },
  {
    "postcode": "50226",
    "city": "Rhein-Erft-Kreis"
  },
  {
    "postcode": "50226",
    "city": "Grefrath"
  },
  {
    "postcode": "50226",
    "city": "Hücheln"
  },
  {
    "postcode": "50226",
    "city": "Grube Carl"
  },
  {
    "postcode": "50259",
    "city": "Brauweiler Rheinland"
  },
  {
    "postcode": "50259",
    "city": "Brauweiler"
  },
  {
    "postcode": "50259",
    "city": "Dansweiler Rheinland"
  },
  {
    "postcode": "50259",
    "city": "Dansweiler"
  },
  {
    "postcode": "50259",
    "city": "Freimersdorf Rheinland"
  },
  {
    "postcode": "50259",
    "city": "Freimersdorf"
  },
  {
    "postcode": "50259",
    "city": "Geyen"
  },
  {
    "postcode": "50259",
    "city": "Ingendorf"
  },
  {
    "postcode": "50259",
    "city": "Manstedten"
  },
  {
    "postcode": "50259",
    "city": "Orr"
  },
  {
    "postcode": "50259",
    "city": "Pulheim"
  },
  {
    "postcode": "50259",
    "city": "Sinnersdorf Rheinland"
  },
  {
    "postcode": "50259",
    "city": "Sinnersdorf"
  },
  {
    "postcode": "50259",
    "city": "Sinthern"
  },
  {
    "postcode": "50259",
    "city": "Stommelerbusch"
  },
  {
    "postcode": "50259",
    "city": "Stommeln"
  },
  {
    "postcode": "50259",
    "city": "Rhein-Erft-Kreis"
  },
  {
    "postcode": "50321",
    "city": "Badorf"
  },
  {
    "postcode": "50321",
    "city": "Brühl"
  },
  {
    "postcode": "50321",
    "city": "Brühl Rheinland"
  },
  {
    "postcode": "50321",
    "city": "Eckdorf"
  },
  {
    "postcode": "50321",
    "city": "Kierberg"
  },
  {
    "postcode": "50321",
    "city": "Pingsdorf"
  },
  {
    "postcode": "50321",
    "city": "Schwadorf"
  },
  {
    "postcode": "50321",
    "city": "Vochem"
  },
  {
    "postcode": "50321",
    "city": "Rhein-Erft-Kreis"
  },
  {
    "postcode": "50321",
    "city": "Heide"
  },
  {
    "postcode": "50354",
    "city": "Alstädten / Burbach"
  },
  {
    "postcode": "50354",
    "city": "Alstädten"
  },
  {
    "postcode": "50354",
    "city": "Berrenrath"
  },
  {
    "postcode": "50354",
    "city": "Efferen"
  },
  {
    "postcode": "50354",
    "city": "Fischenich"
  },
  {
    "postcode": "50354",
    "city": "Gleuel"
  },
  {
    "postcode": "50354",
    "city": "Hermülheim"
  },
  {
    "postcode": "50354",
    "city": "Hürth Rheinland"
  },
  {
    "postcode": "50354",
    "city": "Hürth"
  },
  {
    "postcode": "50354",
    "city": "Kalscheuren"
  },
  {
    "postcode": "50354",
    "city": "Kendenich"
  },
  {
    "postcode": "50354",
    "city": "Knapsack"
  },
  {
    "postcode": "50354",
    "city": "Sielsdorf"
  },
  {
    "postcode": "50354",
    "city": "Stotzheim bei Hermülheim"
  },
  {
    "postcode": "50354",
    "city": "Rhein-Erft-Kreis"
  },
  {
    "postcode": "50354",
    "city": "Stotzheim"
  },
  {
    "postcode": "50354",
    "city": "Alstädten/Burbach"
  },
  {
    "postcode": "50354",
    "city": "Alt-Hürth"
  },
  {
    "postcode": "50374",
    "city": "Ahrem"
  },
  {
    "postcode": "50374",
    "city": "Blessem"
  },
  {
    "postcode": "50374",
    "city": "Bliesheim"
  },
  {
    "postcode": "50374",
    "city": "Borr"
  },
  {
    "postcode": "50374",
    "city": "Dirmerzheim"
  },
  {
    "postcode": "50374",
    "city": "Erftstadt"
  },
  {
    "postcode": "50374",
    "city": "Erp Rheinland"
  },
  {
    "postcode": "50374",
    "city": "Erp"
  },
  {
    "postcode": "50374",
    "city": "Frauenthal"
  },
  {
    "postcode": "50374",
    "city": "Friesheim Rheinland"
  },
  {
    "postcode": "50374",
    "city": "Friesheim"
  },
  {
    "postcode": "50374",
    "city": "Gymnich"
  },
  {
    "postcode": "50374",
    "city": "Herrig"
  },
  {
    "postcode": "50374",
    "city": "Kierdorf bei Brühl Rheinland"
  },
  {
    "postcode": "50374",
    "city": "Kierdorf bei Brühl"
  },
  {
    "postcode": "50374",
    "city": "Konradsheim"
  },
  {
    "postcode": "50374",
    "city": "Köttingen bei Brühl Rheinland"
  },
  {
    "postcode": "50374",
    "city": "Köttingen bei Brühl"
  },
  {
    "postcode": "50374",
    "city": "Lechenich"
  },
  {
    "postcode": "50374",
    "city": "Liblar"
  },
  {
    "postcode": "50374",
    "city": "Niederberg"
  },
  {
    "postcode": "50374",
    "city": "Rhein-Erft-Kreis"
  },
  {
    "postcode": "50374",
    "city": "Köttingen"
  },
  {
    "postcode": "50374",
    "city": "Scheuren"
  },
  {
    "postcode": "50374",
    "city": "Kierdorf"
  },
  {
    "postcode": "50389",
    "city": "Berzdorf"
  },
  {
    "postcode": "50389",
    "city": "Keldenich"
  },
  {
    "postcode": "50389",
    "city": "Urfeld Kreis Bonn"
  },
  {
    "postcode": "50389",
    "city": "Urfeld"
  },
  {
    "postcode": "50389",
    "city": "Wesseling"
  },
  {
    "postcode": "50389",
    "city": "Wesseling Rheinland"
  },
  {
    "postcode": "50389",
    "city": "Rhein-Erft-Kreis"
  },
  {
    "postcode": "50667",
    "city": "Köln"
  },
  {
    "postcode": "50667",
    "city": "Altstadt-Nord"
  },
  {
    "postcode": "50667",
    "city": "Innenstadt"
  },
  {
    "postcode": "50667",
    "city": "Altstadt-Süd"
  },
  {
    "postcode": "50667",
    "city": "Poll"
  },
  {
    "postcode": "50668",
    "city": "Köln"
  },
  {
    "postcode": "50668",
    "city": "Neustadt-Nord"
  },
  {
    "postcode": "50668",
    "city": "Altstadt-Nord"
  },
  {
    "postcode": "50668",
    "city": "Innenstadt"
  },
  {
    "postcode": "50670",
    "city": "Köln"
  },
  {
    "postcode": "50670",
    "city": "Altstadt-Nord"
  },
  {
    "postcode": "50670",
    "city": "Neustadt-Nord"
  },
  {
    "postcode": "50670",
    "city": "Innenstadt"
  },
  {
    "postcode": "50672",
    "city": "Köln"
  },
  {
    "postcode": "50672",
    "city": "Neustadt-Nord"
  },
  {
    "postcode": "50672",
    "city": "Altstadt-Nord"
  },
  {
    "postcode": "50672",
    "city": "Innenstadt"
  },
  {
    "postcode": "50674",
    "city": "Köln"
  },
  {
    "postcode": "50674",
    "city": "Merkenich"
  },
  {
    "postcode": "50674",
    "city": "Neustadt-Nord"
  },
  {
    "postcode": "50674",
    "city": "Neustadt-Süd"
  },
  {
    "postcode": "50674",
    "city": "Innenstadt"
  },
  {
    "postcode": "50674",
    "city": "Altstadt-Süd"
  },
  {
    "postcode": "50676",
    "city": "Köln"
  },
  {
    "postcode": "50676",
    "city": "Altstadt-Süd"
  },
  {
    "postcode": "50676",
    "city": "Innenstadt"
  },
  {
    "postcode": "50677",
    "city": "Köln"
  },
  {
    "postcode": "50677",
    "city": "Neustadt-Süd"
  },
  {
    "postcode": "50677",
    "city": "Altstadt-Süd"
  },
  {
    "postcode": "50677",
    "city": "Innenstadt"
  },
  {
    "postcode": "50678",
    "city": "Köln"
  },
  {
    "postcode": "50678",
    "city": "Altstadt-Süd"
  },
  {
    "postcode": "50678",
    "city": "Neustadt-Süd"
  },
  {
    "postcode": "50678",
    "city": "Innenstadt"
  },
  {
    "postcode": "50679",
    "city": "Deutz"
  },
  {
    "postcode": "50679",
    "city": "Köln"
  },
  {
    "postcode": "50679",
    "city": "Mülheim"
  },
  {
    "postcode": "50679",
    "city": "Dellbrück"
  },
  {
    "postcode": "50733",
    "city": "Köln"
  },
  {
    "postcode": "50733",
    "city": "Nippes"
  },
  {
    "postcode": "50733",
    "city": "Weidenpesch"
  },
  {
    "postcode": "50733",
    "city": "Riehl"
  },
  {
    "postcode": "50735",
    "city": "Köln"
  },
  {
    "postcode": "50735",
    "city": "Niehl"
  },
  {
    "postcode": "50735",
    "city": "Riehl"
  },
  {
    "postcode": "50735",
    "city": "Weidenpesch"
  },
  {
    "postcode": "50735",
    "city": "Mülheim"
  },
  {
    "postcode": "50737",
    "city": "Bocklemünd / Mengenich"
  },
  {
    "postcode": "50737",
    "city": "Bocklemünd"
  },
  {
    "postcode": "50737",
    "city": "Köln"
  },
  {
    "postcode": "50737",
    "city": "Longerich"
  },
  {
    "postcode": "50737",
    "city": "Weidenpesch"
  },
  {
    "postcode": "50737",
    "city": "Wahnheide"
  },
  {
    "postcode": "50739",
    "city": "Köln"
  },
  {
    "postcode": "50739",
    "city": "Longerich"
  },
  {
    "postcode": "50739",
    "city": "Mauenheim"
  },
  {
    "postcode": "50739",
    "city": "Bilderstöckchen"
  },
  {
    "postcode": "50739",
    "city": "Weidenpesch"
  },
  {
    "postcode": "50765",
    "city": "Esch bei Frechen"
  },
  {
    "postcode": "50765",
    "city": "Köln"
  },
  {
    "postcode": "50765",
    "city": "Volkhoven / Weiler"
  },
  {
    "postcode": "50765",
    "city": "Volkhoven"
  },
  {
    "postcode": "50765",
    "city": "Esch/Auweiler"
  },
  {
    "postcode": "50765",
    "city": "Chorweiler"
  },
  {
    "postcode": "50765",
    "city": "Blumenberg"
  },
  {
    "postcode": "50765",
    "city": "Volkhoven/Weiler"
  },
  {
    "postcode": "50765",
    "city": "Bocklemünd/Mengenich"
  },
  {
    "postcode": "50765",
    "city": "Pesch"
  },
  {
    "postcode": "50765",
    "city": "Heimersdorf"
  },
  {
    "postcode": "50765",
    "city": "Esch"
  },
  {
    "postcode": "50765",
    "city": "Bocklemünd"
  },
  {
    "postcode": "50767",
    "city": "Köln"
  },
  {
    "postcode": "50767",
    "city": "Lindweiler"
  },
  {
    "postcode": "50767",
    "city": "Pesch Kreis Köln"
  },
  {
    "postcode": "50767",
    "city": "Pesch"
  },
  {
    "postcode": "50767",
    "city": "Volkhoven / Weiler"
  },
  {
    "postcode": "50767",
    "city": "Volkhoven"
  },
  {
    "postcode": "50767",
    "city": "Heimersdorf"
  },
  {
    "postcode": "50767",
    "city": "Esch/Auweiler"
  },
  {
    "postcode": "50767",
    "city": "Esch"
  },
  {
    "postcode": "50769",
    "city": "Fühlingen"
  },
  {
    "postcode": "50769",
    "city": "Köln"
  },
  {
    "postcode": "50769",
    "city": "Merkenich"
  },
  {
    "postcode": "50769",
    "city": "Worringen"
  },
  {
    "postcode": "50769",
    "city": "Seeberg"
  },
  {
    "postcode": "50769",
    "city": "Roggendorf/Thenhoven"
  },
  {
    "postcode": "50769",
    "city": "Feldkassel"
  },
  {
    "postcode": "50769",
    "city": "Rheinkassel"
  },
  {
    "postcode": "50769",
    "city": "Zündorf"
  },
  {
    "postcode": "50769",
    "city": "Roggendorf"
  },
  {
    "postcode": "50823",
    "city": "Köln"
  },
  {
    "postcode": "50823",
    "city": "Neuehrenfeld"
  },
  {
    "postcode": "50823",
    "city": "Ehrenfeld"
  },
  {
    "postcode": "50825",
    "city": "Bickendorf"
  },
  {
    "postcode": "50825",
    "city": "Köln"
  },
  {
    "postcode": "50825",
    "city": "Ossendorf"
  },
  {
    "postcode": "50825",
    "city": "Ehrenfeld"
  },
  {
    "postcode": "50825",
    "city": "Neuehrenfeld"
  },
  {
    "postcode": "50827",
    "city": "Bickendorf"
  },
  {
    "postcode": "50827",
    "city": "Köln"
  },
  {
    "postcode": "50827",
    "city": "Ossendorf"
  },
  {
    "postcode": "50827",
    "city": "Ehrenfeld"
  },
  {
    "postcode": "50827",
    "city": "Neuehrenfeld"
  },
  {
    "postcode": "50829",
    "city": "Bocklemünd / Mengenich"
  },
  {
    "postcode": "50829",
    "city": "Bocklemünd"
  },
  {
    "postcode": "50829",
    "city": "Köln"
  },
  {
    "postcode": "50829",
    "city": "Ossendorf"
  },
  {
    "postcode": "50829",
    "city": "Vogelsang"
  },
  {
    "postcode": "50829",
    "city": "Bocklemünd/Mengenich"
  },
  {
    "postcode": "50829",
    "city": "Widdersdorf"
  },
  {
    "postcode": "50829",
    "city": "Müngersdorf"
  },
  {
    "postcode": "50858",
    "city": "Junkersdorf Rheinland"
  },
  {
    "postcode": "50858",
    "city": "Junkersdorf"
  },
  {
    "postcode": "50858",
    "city": "Köln"
  },
  {
    "postcode": "50858",
    "city": "Weiden Rheinland"
  },
  {
    "postcode": "50858",
    "city": "Weiden"
  },
  {
    "postcode": "50858",
    "city": "Müngersdorf"
  },
  {
    "postcode": "50859",
    "city": "Köln"
  },
  {
    "postcode": "50859",
    "city": "Lövenich bei Frechen"
  },
  {
    "postcode": "50859",
    "city": "Weiden Rheinland"
  },
  {
    "postcode": "50859",
    "city": "Weiden"
  },
  {
    "postcode": "50859",
    "city": "Widdersdorf Rheinland"
  },
  {
    "postcode": "50859",
    "city": "Widdersdorf"
  },
  {
    "postcode": "50859",
    "city": "Lövenich"
  },
  {
    "postcode": "50859",
    "city": "Grengel"
  },
  {
    "postcode": "50859",
    "city": "Wahn"
  },
  {
    "postcode": "50931",
    "city": "Köln"
  },
  {
    "postcode": "50931",
    "city": "Lindenthal"
  },
  {
    "postcode": "50933",
    "city": "Braunsfeld"
  },
  {
    "postcode": "50933",
    "city": "Köln"
  },
  {
    "postcode": "50933",
    "city": "Müngersdorf"
  },
  {
    "postcode": "50933",
    "city": "Junkersdorf"
  },
  {
    "postcode": "50933",
    "city": "Lindenthal"
  },
  {
    "postcode": "50933",
    "city": "Bocklemünd/Mengenich"
  },
  {
    "postcode": "50933",
    "city": "Bocklemünd"
  },
  {
    "postcode": "50935",
    "city": "Köln"
  },
  {
    "postcode": "50935",
    "city": "Sülz"
  },
  {
    "postcode": "50935",
    "city": "Lindenthal"
  },
  {
    "postcode": "50935",
    "city": "Junkersdorf"
  },
  {
    "postcode": "50937",
    "city": "Klettenberg"
  },
  {
    "postcode": "50937",
    "city": "Köln"
  },
  {
    "postcode": "50937",
    "city": "Sülz"
  },
  {
    "postcode": "50937",
    "city": "Lindenthal"
  },
  {
    "postcode": "50939",
    "city": "Klettenberg"
  },
  {
    "postcode": "50939",
    "city": "Köln"
  },
  {
    "postcode": "50939",
    "city": "Sülz"
  },
  {
    "postcode": "50968",
    "city": "Bayenthal"
  },
  {
    "postcode": "50968",
    "city": "Köln"
  },
  {
    "postcode": "50968",
    "city": "Marienburg"
  },
  {
    "postcode": "50968",
    "city": "Raderberg"
  },
  {
    "postcode": "50968",
    "city": "Raderthal"
  },
  {
    "postcode": "50968",
    "city": "Zollstock"
  },
  {
    "postcode": "50968",
    "city": "Wahnheide"
  },
  {
    "postcode": "50969",
    "city": "Köln"
  },
  {
    "postcode": "50969",
    "city": "Raderberg"
  },
  {
    "postcode": "50969",
    "city": "Zollstock"
  },
  {
    "postcode": "50969",
    "city": "Neustadt-Süd"
  },
  {
    "postcode": "50996",
    "city": "Hahnwald Bezirk Köln"
  },
  {
    "postcode": "50996",
    "city": "Hahnwald"
  },
  {
    "postcode": "50996",
    "city": "Köln"
  },
  {
    "postcode": "50996",
    "city": "Marienburg"
  },
  {
    "postcode": "50996",
    "city": "Weiß Rheinland"
  },
  {
    "postcode": "50996",
    "city": "Weiß"
  },
  {
    "postcode": "50996",
    "city": "Rodenkirchen"
  },
  {
    "postcode": "50996",
    "city": "Wahnheide"
  },
  {
    "postcode": "50997",
    "city": "Godorf"
  },
  {
    "postcode": "50997",
    "city": "Immendorf bei Rodenkirchen Bezirk Köln"
  },
  {
    "postcode": "50997",
    "city": "Immendorf bei Rodenkirchen"
  },
  {
    "postcode": "50997",
    "city": "Köln"
  },
  {
    "postcode": "50997",
    "city": "Meschenich"
  },
  {
    "postcode": "50997",
    "city": "Raderthal"
  },
  {
    "postcode": "50997",
    "city": "Rondorf Rheinland"
  },
  {
    "postcode": "50997",
    "city": "Rondorf"
  },
  {
    "postcode": "50997",
    "city": "Sürth"
  },
  {
    "postcode": "50997",
    "city": "Immendorf"
  },
  {
    "postcode": "50997",
    "city": "Höningen"
  },
  {
    "postcode": "50997",
    "city": "Wahnheide"
  },
  {
    "postcode": "50999",
    "city": "Hahnwald Bezirk Köln"
  },
  {
    "postcode": "50999",
    "city": "Hahnwald"
  },
  {
    "postcode": "50999",
    "city": "Köln"
  },
  {
    "postcode": "50999",
    "city": "Sürth"
  },
  {
    "postcode": "50999",
    "city": "Weiß Rheinland"
  },
  {
    "postcode": "50999",
    "city": "Weiß"
  },
  {
    "postcode": "50999",
    "city": "Rodenkirchen"
  }
]