[
  {
    "postcode": "1705",
    "city": "Freital"
  },
  {
    "postcode": "1705",
    "city": "Sächsische Schweiz-Osterzgebirge"
  },
  {
    "postcode": "1705",
    "city": "Pesterwitz"
  },
  {
    "postcode": "1705",
    "city": "Wurgwitz"
  },
  {
    "postcode": "1705",
    "city": "Kleinnaundorf"
  },
  {
    "postcode": "1705",
    "city": "Somsdorf"
  },
  {
    "postcode": "1705",
    "city": "Weißig"
  },
  {
    "postcode": "1705",
    "city": "Saalhausen"
  },
  {
    "postcode": "1705",
    "city": "Zauckerode"
  },
  {
    "postcode": "1723",
    "city": "Wilsdruff"
  },
  {
    "postcode": "1723",
    "city": "Sächsische Schweiz-Osterzgebirge"
  },
  {
    "postcode": "1723",
    "city": "Grumbach"
  },
  {
    "postcode": "1723",
    "city": "Helbigsdorf-Blankenstein"
  },
  {
    "postcode": "1723",
    "city": "Kesselsdorf"
  },
  {
    "postcode": "1723",
    "city": "Mohorn"
  },
  {
    "postcode": "1723",
    "city": "Blankenstein"
  },
  {
    "postcode": "1723",
    "city": "Helbigsdorf"
  },
  {
    "postcode": "1723",
    "city": "Grund"
  },
  {
    "postcode": "1723",
    "city": "Herzogswalde"
  },
  {
    "postcode": "1723",
    "city": "Birkenhain"
  },
  {
    "postcode": "1723",
    "city": "Limbach"
  },
  {
    "postcode": "1723",
    "city": "Kaufbach"
  },
  {
    "postcode": "1728",
    "city": "Bannewitz"
  },
  {
    "postcode": "1728",
    "city": "Sächsische Schweiz-Osterzgebirge"
  },
  {
    "postcode": "1728",
    "city": "Wilmsdorf"
  },
  {
    "postcode": "1728",
    "city": "Possendorf"
  },
  {
    "postcode": "1728",
    "city": "Hänichen"
  },
  {
    "postcode": "1728",
    "city": "Rippien"
  },
  {
    "postcode": "1728",
    "city": "Welschhufe"
  },
  {
    "postcode": "1728",
    "city": "Börnchen"
  },
  {
    "postcode": "1728",
    "city": "Gaustritz"
  },
  {
    "postcode": "1728",
    "city": "Goppeln"
  },
  {
    "postcode": "1728",
    "city": "Cunnersdorf"
  },
  {
    "postcode": "1728",
    "city": "Boderitz"
  },
  {
    "postcode": "1728",
    "city": "Rundteil"
  },
  {
    "postcode": "1728",
    "city": "Hornschänke"
  },
  {
    "postcode": "1728",
    "city": "Golberode"
  },
  {
    "postcode": "1731",
    "city": "Kreischa bei Dresden"
  },
  {
    "postcode": "1731",
    "city": "Sächsische Schweiz-Osterzgebirge"
  },
  {
    "postcode": "1731",
    "city": "Kreischa"
  },
  {
    "postcode": "1731",
    "city": "Gombsen"
  },
  {
    "postcode": "1731",
    "city": "Kleincarsdorf"
  },
  {
    "postcode": "1731",
    "city": "Babisnau"
  },
  {
    "postcode": "1731",
    "city": "Sobrigau"
  },
  {
    "postcode": "1731",
    "city": "Lungkwitz"
  },
  {
    "postcode": "1731",
    "city": "Bärenklause"
  },
  {
    "postcode": "1731",
    "city": "Quohren"
  },
  {
    "postcode": "1731",
    "city": "Brösgen"
  },
  {
    "postcode": "1731",
    "city": "Theisewitz"
  },
  {
    "postcode": "1731",
    "city": "Kautzsch"
  },
  {
    "postcode": "1731",
    "city": "Saida"
  },
  {
    "postcode": "1731",
    "city": "Kleba"
  },
  {
    "postcode": "1731",
    "city": "Wittgensdorf"
  },
  {
    "postcode": "1731",
    "city": "Zscheckwitz"
  },
  {
    "postcode": "1734",
    "city": "Rabenau Sachsen"
  },
  {
    "postcode": "1734",
    "city": "Rabenau"
  },
  {
    "postcode": "1734",
    "city": "Sächsische Schweiz-Osterzgebirge"
  },
  {
    "postcode": "1734",
    "city": "Oelsa"
  },
  {
    "postcode": "1734",
    "city": "Spechtritz"
  },
  {
    "postcode": "1734",
    "city": "Karsdorf"
  },
  {
    "postcode": "1734",
    "city": "Lübau"
  },
  {
    "postcode": "1734",
    "city": "Obernaundorf"
  },
  {
    "postcode": "1737",
    "city": "Tharandt"
  },
  {
    "postcode": "1737",
    "city": "Sächsische Schweiz-Osterzgebirge"
  },
  {
    "postcode": "1737",
    "city": "Braunsdorf"
  },
  {
    "postcode": "1737",
    "city": "Kleinopitz"
  },
  {
    "postcode": "1737",
    "city": "Kurort Hartha"
  },
  {
    "postcode": "1737",
    "city": "Oberhermsdorf"
  },
  {
    "postcode": "1737",
    "city": "Pohrsdorf"
  },
  {
    "postcode": "1737",
    "city": "Fördergersdorf"
  },
  {
    "postcode": "1737",
    "city": "Spechtshausen"
  },
  {
    "postcode": "1737",
    "city": "Grillenburg"
  },
  {
    "postcode": "1737",
    "city": "Großopitz"
  },
  {
    "postcode": "1738",
    "city": "Dorfhain"
  },
  {
    "postcode": "1738",
    "city": "Sächsische Schweiz-Osterzgebirge"
  },
  {
    "postcode": "1744",
    "city": "Dippoldiswalde"
  },
  {
    "postcode": "1744",
    "city": "Malter"
  },
  {
    "postcode": "1744",
    "city": "Sächsische Schweiz-Osterzgebirge"
  },
  {
    "postcode": "1744",
    "city": "Schmiedeberg"
  },
  {
    "postcode": "1744",
    "city": "Seifersdorf"
  },
  {
    "postcode": "1744",
    "city": "Reinholdshain"
  },
  {
    "postcode": "1744",
    "city": "Ulberndorf"
  },
  {
    "postcode": "1744",
    "city": "Paulsdorf"
  },
  {
    "postcode": "1744",
    "city": "Reichstädt"
  },
  {
    "postcode": "1744",
    "city": "Oberhäslich"
  },
  {
    "postcode": "1744",
    "city": "Ammelsdorf"
  },
  {
    "postcode": "1744",
    "city": "Dönschten"
  },
  {
    "postcode": "1744",
    "city": "Berreuth"
  },
  {
    "postcode": "1744",
    "city": "Obercarsdorf"
  },
  {
    "postcode": "1744",
    "city": "Sadisdorf"
  },
  {
    "postcode": "1744",
    "city": "Naundorf"
  },
  {
    "postcode": "1744",
    "city": "Hennersdorf"
  },
  {
    "postcode": "1744",
    "city": "Elend"
  },
  {
    "postcode": "1744",
    "city": "Oberpöbel"
  },
  {
    "postcode": "1744",
    "city": "Reinberg"
  },
  {
    "postcode": "1744",
    "city": "Schönfeld"
  },
  {
    "postcode": "1762",
    "city": "Hartmannsdorf-Reichenau"
  },
  {
    "postcode": "1762",
    "city": "Schmiedeberg Osterzgebirge"
  },
  {
    "postcode": "1762",
    "city": "Schmiedeberg"
  },
  {
    "postcode": "1762",
    "city": "Sächsische Schweiz-Osterzgebirge"
  },
  {
    "postcode": "1762",
    "city": "Reichenau"
  },
  {
    "postcode": "1762",
    "city": "Hartmannsdorf"
  },
  {
    "postcode": "1768",
    "city": "Altenberg Erzgebirge"
  },
  {
    "postcode": "1768",
    "city": "Altenberg"
  },
  {
    "postcode": "1768",
    "city": "Bärenstein Osterzgebirge"
  },
  {
    "postcode": "1768",
    "city": "Bärenstein"
  },
  {
    "postcode": "1768",
    "city": "Glashütte Sachsen"
  },
  {
    "postcode": "1768",
    "city": "Glashütte"
  },
  {
    "postcode": "1768",
    "city": "Reinhardtsgrimma"
  },
  {
    "postcode": "1768",
    "city": "Sächsische Schweiz-Osterzgebirge"
  },
  {
    "postcode": "1768",
    "city": "Johnsbach"
  },
  {
    "postcode": "1768",
    "city": "Hirschbach"
  },
  {
    "postcode": "1768",
    "city": "Hausdorf"
  },
  {
    "postcode": "1768",
    "city": "Oberfrauendorf"
  },
  {
    "postcode": "1768",
    "city": "Cunnersdorf"
  },
  {
    "postcode": "1768",
    "city": "Hermsdorf"
  },
  {
    "postcode": "1768",
    "city": "Schlottwitz"
  },
  {
    "postcode": "1768",
    "city": "Börnchen"
  },
  {
    "postcode": "1768",
    "city": "Bärenhecke"
  },
  {
    "postcode": "1768",
    "city": "Luchau"
  },
  {
    "postcode": "1768",
    "city": "Niederfrauendorf"
  },
  {
    "postcode": "1768",
    "city": "Dittersdorf"
  },
  {
    "postcode": "1768",
    "city": "Neudörfel"
  },
  {
    "postcode": "1768",
    "city": "Rückenhain"
  },
  {
    "postcode": "1773",
    "city": "Altenberg Erzgebirge"
  },
  {
    "postcode": "1773",
    "city": "Altenberg"
  },
  {
    "postcode": "1773",
    "city": "Bärenstein Osterzgebirge"
  },
  {
    "postcode": "1773",
    "city": "Bärenstein"
  },
  {
    "postcode": "1773",
    "city": "Sächsische Schweiz-Osterzgebirge"
  },
  {
    "postcode": "1773",
    "city": "Oberbärenburg"
  },
  {
    "postcode": "1773",
    "city": "Rehefeld-Zaunhaus"
  },
  {
    "postcode": "1773",
    "city": "Bärenfels"
  },
  {
    "postcode": "1773",
    "city": "Neuhermsdorf"
  },
  {
    "postcode": "1773",
    "city": "Hirschsprung"
  },
  {
    "postcode": "1773",
    "city": "Waldbärenburg"
  },
  {
    "postcode": "1773",
    "city": "Schellerhau"
  },
  {
    "postcode": "1773",
    "city": "Kipsdorf"
  },
  {
    "postcode": "1773",
    "city": "Waldidylle"
  },
  {
    "postcode": "1773",
    "city": "Zinnwald-Georgenfeld"
  },
  {
    "postcode": "1773",
    "city": "Neu-Rehefeld"
  },
  {
    "postcode": "1773",
    "city": "Falkenhain"
  },
  {
    "postcode": "1774",
    "city": "Höckendorf bei Dippoldiswalde"
  },
  {
    "postcode": "1774",
    "city": "Pretzschendorf"
  },
  {
    "postcode": "1774",
    "city": "Sächsische Schweiz-Osterzgebirge"
  },
  {
    "postcode": "1774",
    "city": "Klingenberg"
  },
  {
    "postcode": "1774",
    "city": "Colmnitz"
  },
  {
    "postcode": "1774",
    "city": "Röthenbach"
  },
  {
    "postcode": "1774",
    "city": "Ruppendorf"
  },
  {
    "postcode": "1774",
    "city": "Höckendorf"
  },
  {
    "postcode": "1774",
    "city": "Friedersdorf"
  },
  {
    "postcode": "1774",
    "city": "Obercunnersdorf"
  },
  {
    "postcode": "1774",
    "city": "Borlas"
  },
  {
    "postcode": "1774",
    "city": "Beerwalde"
  },
  {
    "postcode": "1774",
    "city": "Paulshain"
  },
  {
    "postcode": "1776",
    "city": "Hermsdorf / Osterzgebirge"
  },
  {
    "postcode": "1776",
    "city": "Hermsdorf"
  },
  {
    "postcode": "1776",
    "city": "Sächsische Schweiz-Osterzgebirge"
  },
  {
    "postcode": "1776",
    "city": "Hermsdorf-Seyde"
  },
  {
    "postcode": "1776",
    "city": "Hermsdorf/Erzgeb."
  },
  {
    "postcode": "1778",
    "city": "Geising"
  },
  {
    "postcode": "1778",
    "city": "Sächsische Schweiz-Osterzgebirge"
  },
  {
    "postcode": "1778",
    "city": "Altenberg"
  },
  {
    "postcode": "1778",
    "city": "Fürstenau"
  },
  {
    "postcode": "1778",
    "city": "Fürstenwalde"
  },
  {
    "postcode": "1778",
    "city": "Lauenstein"
  },
  {
    "postcode": "1778",
    "city": "Liebenau"
  },
  {
    "postcode": "1778",
    "city": "Müglitz"
  },
  {
    "postcode": "1778",
    "city": "Gottgetreu"
  },
  {
    "postcode": "1778",
    "city": "Geising-Löwenhain"
  },
  {
    "postcode": "1796",
    "city": "Dohma"
  },
  {
    "postcode": "1796",
    "city": "Neundorf"
  },
  {
    "postcode": "1796",
    "city": "Pirna"
  },
  {
    "postcode": "1796",
    "city": "Struppen"
  },
  {
    "postcode": "1796",
    "city": "Sächsische Schweiz-Osterzgebirge"
  },
  {
    "postcode": "1796",
    "city": "Goes"
  },
  {
    "postcode": "1796",
    "city": "Cotta"
  },
  {
    "postcode": "1796",
    "city": "Birkwitz"
  },
  {
    "postcode": "1796",
    "city": "Graupa"
  },
  {
    "postcode": "1796",
    "city": "Bonnewitz"
  },
  {
    "postcode": "1796",
    "city": "Pratzschwitz"
  },
  {
    "postcode": "1796",
    "city": "Jessen"
  },
  {
    "postcode": "1796",
    "city": "Copitz"
  },
  {
    "postcode": "1796",
    "city": "Liebethal"
  },
  {
    "postcode": "1796",
    "city": "Mockethal"
  },
  {
    "postcode": "1796",
    "city": "Krietzschwitz"
  },
  {
    "postcode": "1796",
    "city": "Rottwerndorf"
  },
  {
    "postcode": "1796",
    "city": "Obervogelgesang"
  },
  {
    "postcode": "1796",
    "city": "Naundorf"
  },
  {
    "postcode": "1796",
    "city": "Thürmsdorf"
  },
  {
    "postcode": "1796",
    "city": "Struppen-Siedlung"
  },
  {
    "postcode": "1796",
    "city": "Ebenheit"
  },
  {
    "postcode": "1796",
    "city": "Strand"
  },
  {
    "postcode": "1796",
    "city": "Weißig"
  },
  {
    "postcode": "17033",
    "city": "Broda"
  },
  {
    "postcode": "17033",
    "city": "Neubrandenburg Mecklenburg"
  },
  {
    "postcode": "17033",
    "city": "Neubrandenburg"
  },
  {
    "postcode": "17033",
    "city": "Mecklenburgische Seenplatte"
  },
  {
    "postcode": "17033",
    "city": "Katharinenviertel"
  },
  {
    "postcode": "17033",
    "city": "Lindenberg"
  },
  {
    "postcode": "17033",
    "city": "Tannenkrug"
  },
  {
    "postcode": "17033",
    "city": "Weitin"
  },
  {
    "postcode": "17033",
    "city": "Innenstadt"
  },
  {
    "postcode": "17033",
    "city": "Südstadt"
  },
  {
    "postcode": "17033",
    "city": "Stadtgebiet West"
  },
  {
    "postcode": "17033",
    "city": "Am Oberbach"
  },
  {
    "postcode": "17033",
    "city": "Jahnviertel"
  },
  {
    "postcode": "17033",
    "city": "Bethanienberg"
  },
  {
    "postcode": "17033",
    "city": "Reitbahnviertel"
  },
  {
    "postcode": "17033",
    "city": "Lindetal"
  },
  {
    "postcode": "17033",
    "city": "Kulturpark"
  },
  {
    "postcode": "17034",
    "city": "Neubrandenburg Mecklenburg"
  },
  {
    "postcode": "17034",
    "city": "Neubrandenburg"
  },
  {
    "postcode": "17034",
    "city": "Mecklenburgische Seenplatte"
  },
  {
    "postcode": "17034",
    "city": "Ihlenfelder Vorstadt"
  },
  {
    "postcode": "17034",
    "city": "Vogelviertel"
  },
  {
    "postcode": "17034",
    "city": "Datzeberg"
  },
  {
    "postcode": "17034",
    "city": "Brauereiviertel"
  },
  {
    "postcode": "17034",
    "city": "Industriegelände"
  },
  {
    "postcode": "17034",
    "city": "Eschengrund"
  },
  {
    "postcode": "17034",
    "city": "Reitbahnviertel"
  },
  {
    "postcode": "17034",
    "city": "Monckeshof"
  },
  {
    "postcode": "17034",
    "city": "Industrieviertel"
  },
  {
    "postcode": "17034",
    "city": "Burgholz"
  },
  {
    "postcode": "17036",
    "city": "Neubrandenburg Mecklenburg"
  },
  {
    "postcode": "17036",
    "city": "Neubrandenburg"
  },
  {
    "postcode": "17036",
    "city": "Mecklenburgische Seenplatte"
  },
  {
    "postcode": "17036",
    "city": "Fritscheshof"
  },
  {
    "postcode": "17036",
    "city": "Oststadt"
  },
  {
    "postcode": "17036",
    "city": "Küssow"
  },
  {
    "postcode": "17036",
    "city": "Carlshöhe"
  },
  {
    "postcode": "17039",
    "city": "Beseritz"
  },
  {
    "postcode": "17039",
    "city": "Blankenhof"
  },
  {
    "postcode": "17039",
    "city": "Brunn bei Neubrandenburg"
  },
  {
    "postcode": "17039",
    "city": "Ganzkow"
  },
  {
    "postcode": "17039",
    "city": "Gevezin"
  },
  {
    "postcode": "17039",
    "city": "Glocksin"
  },
  {
    "postcode": "17039",
    "city": "Hohenmin"
  },
  {
    "postcode": "17039",
    "city": "Ihlenfeld"
  },
  {
    "postcode": "17039",
    "city": "Neddemin"
  },
  {
    "postcode": "17039",
    "city": "Neu Rhäse"
  },
  {
    "postcode": "17039",
    "city": "Neuenkirchen bei Neubrandenburg"
  },
  {
    "postcode": "17039",
    "city": "Neverin"
  },
  {
    "postcode": "17039",
    "city": "Podewall"
  },
  {
    "postcode": "17039",
    "city": "Roggenhagen"
  },
  {
    "postcode": "17039",
    "city": "Sponholz"
  },
  {
    "postcode": "17039",
    "city": "Staven"
  },
  {
    "postcode": "17039",
    "city": "Trollenhagen"
  },
  {
    "postcode": "17039",
    "city": "Warlin"
  },
  {
    "postcode": "17039",
    "city": "Woggersin"
  },
  {
    "postcode": "17039",
    "city": "Wulkenzin"
  },
  {
    "postcode": "17039",
    "city": "Zirzow"
  },
  {
    "postcode": "17039",
    "city": "Mecklenburgische Seenplatte"
  },
  {
    "postcode": "17039",
    "city": "Brunn"
  },
  {
    "postcode": "17039",
    "city": "Neuenkirchen"
  },
  {
    "postcode": "17039",
    "city": "Chemnitz"
  },
  {
    "postcode": "17039",
    "city": "Chemnitz Ausbau"
  },
  {
    "postcode": "17039",
    "city": "Dahlen"
  },
  {
    "postcode": "17039",
    "city": "Magdalenenhöh"
  },
  {
    "postcode": "17039",
    "city": "Rühlow"
  },
  {
    "postcode": "17039",
    "city": "Rossow"
  },
  {
    "postcode": "17039",
    "city": "Buchhof"
  },
  {
    "postcode": "17039",
    "city": "Neuendorf"
  },
  {
    "postcode": "17087",
    "city": "Altentreptow"
  },
  {
    "postcode": "17087",
    "city": "Buchar"
  },
  {
    "postcode": "17087",
    "city": "Klatzow"
  },
  {
    "postcode": "17087",
    "city": "Loickenzin"
  },
  {
    "postcode": "17087",
    "city": "Rosemarsow"
  },
  {
    "postcode": "17087",
    "city": "Mecklenburgische Seenplatte"
  },
  {
    "postcode": "17087",
    "city": "Friedrichshof"
  },
  {
    "postcode": "17087",
    "city": "Thalberg"
  },
  {
    "postcode": "17087",
    "city": "Trostfelde"
  },
  {
    "postcode": "17089",
    "city": "Bartow"
  },
  {
    "postcode": "17089",
    "city": "Breest"
  },
  {
    "postcode": "17089",
    "city": "Burow bei Altentreptow"
  },
  {
    "postcode": "17089",
    "city": "Gnevkow"
  },
  {
    "postcode": "17089",
    "city": "Golchen bei Altentreptow"
  },
  {
    "postcode": "17089",
    "city": "Grapzow"
  },
  {
    "postcode": "17089",
    "city": "Grischow bei Altentreptow"
  },
  {
    "postcode": "17089",
    "city": "Groß Below"
  },
  {
    "postcode": "17089",
    "city": "Gültz"
  },
  {
    "postcode": "17089",
    "city": "Klempenow"
  },
  {
    "postcode": "17089",
    "city": "Letzin"
  },
  {
    "postcode": "17089",
    "city": "Mühlenhagen"
  },
  {
    "postcode": "17089",
    "city": "Pritzenow"
  },
  {
    "postcode": "17089",
    "city": "Prützen"
  },
  {
    "postcode": "17089",
    "city": "Seltz"
  },
  {
    "postcode": "17089",
    "city": "Siedenbollentin"
  },
  {
    "postcode": "17089",
    "city": "Weltzin"
  },
  {
    "postcode": "17089",
    "city": "Werder bei Altentreptow"
  },
  {
    "postcode": "17089",
    "city": "Wodarg"
  },
  {
    "postcode": "17089",
    "city": "Mecklenburgische Seenplatte"
  },
  {
    "postcode": "17089",
    "city": "Burow"
  },
  {
    "postcode": "17089",
    "city": "Golchen"
  },
  {
    "postcode": "17089",
    "city": "Grischow"
  },
  {
    "postcode": "17089",
    "city": "Werder"
  },
  {
    "postcode": "17089",
    "city": "Bittersberg"
  },
  {
    "postcode": "17089",
    "city": "Letzin/Siedlung"
  },
  {
    "postcode": "17089",
    "city": "Marienhöhe"
  },
  {
    "postcode": "17089",
    "city": "Ludwigshöhe"
  },
  {
    "postcode": "17089",
    "city": "Rohrsoll"
  },
  {
    "postcode": "17089",
    "city": "Tückhude"
  },
  {
    "postcode": "17089",
    "city": "Kessin"
  },
  {
    "postcode": "17089",
    "city": "Hermannshöhe"
  },
  {
    "postcode": "17089",
    "city": "Seltz-Pflegeheim"
  },
  {
    "postcode": "17089",
    "city": "Kölln"
  },
  {
    "postcode": "17091",
    "city": "Altenhagen bei Altentreptow"
  },
  {
    "postcode": "17091",
    "city": "Breesen bei Neubrandenburg"
  },
  {
    "postcode": "17091",
    "city": "Fouquettin"
  },
  {
    "postcode": "17091",
    "city": "Groß Helle"
  },
  {
    "postcode": "17091",
    "city": "Groß Teetzleben"
  },
  {
    "postcode": "17091",
    "city": "Japzow"
  },
  {
    "postcode": "17091",
    "city": "Kleeth"
  },
  {
    "postcode": "17091",
    "city": "Klein Helle"
  },
  {
    "postcode": "17091",
    "city": "Knorrendorf"
  },
  {
    "postcode": "17091",
    "city": "Kriesow"
  },
  {
    "postcode": "17091",
    "city": "Lüdershof"
  },
  {
    "postcode": "17091",
    "city": "Luplow"
  },
  {
    "postcode": "17091",
    "city": "Miltitzwalde"
  },
  {
    "postcode": "17091",
    "city": "Mölln bei Altentreptow"
  },
  {
    "postcode": "17091",
    "city": "Philippshof"
  },
  {
    "postcode": "17091",
    "city": "Pripsleben"
  },
  {
    "postcode": "17091",
    "city": "Röckwitz"
  },
  {
    "postcode": "17091",
    "city": "Rosenow bei Altentreptow"
  },
  {
    "postcode": "17091",
    "city": "Schmiedenfelde"
  },
  {
    "postcode": "17091",
    "city": "Schossow"
  },
  {
    "postcode": "17091",
    "city": "Schwandt"
  },
  {
    "postcode": "17091",
    "city": "Tützpatz"
  },
  {
    "postcode": "17091",
    "city": "Voßfeld"
  },
  {
    "postcode": "17091",
    "city": "Wildberg bei Altentreptow"
  },
  {
    "postcode": "17091",
    "city": "Wolde bei Altentreptow"
  },
  {
    "postcode": "17091",
    "city": "Zwiedorf"
  },
  {
    "postcode": "17091",
    "city": "Mecklenburgische Seenplatte"
  },
  {
    "postcode": "17091",
    "city": "Altenhagen"
  },
  {
    "postcode": "17091",
    "city": "Breesen"
  },
  {
    "postcode": "17091",
    "city": "Mölln"
  },
  {
    "postcode": "17091",
    "city": "Rosenow"
  },
  {
    "postcode": "17091",
    "city": "Wildberg"
  },
  {
    "postcode": "17091",
    "city": "Wolde"
  },
  {
    "postcode": "17091",
    "city": "Wrodow"
  },
  {
    "postcode": "17091",
    "city": "Neuenhagen"
  },
  {
    "postcode": "17091",
    "city": "Kalübbe"
  },
  {
    "postcode": "17091",
    "city": "Pinnow"
  },
  {
    "postcode": "17091",
    "city": "Lebbin"
  },
  {
    "postcode": "17091",
    "city": "Kaluberhof"
  },
  {
    "postcode": "17091",
    "city": "Klein Teetzleben"
  },
  {
    "postcode": "17091",
    "city": "Rottenhof"
  },
  {
    "postcode": "17091",
    "city": "Kastorf"
  },
  {
    "postcode": "17091",
    "city": "Friedrichsruh"
  },
  {
    "postcode": "17091",
    "city": "Gädebehn"
  },
  {
    "postcode": "17091",
    "city": "Borgfeld"
  },
  {
    "postcode": "17091",
    "city": "Tüzen"
  },
  {
    "postcode": "17091",
    "city": "Fahrenholz"
  },
  {
    "postcode": "17091",
    "city": "Buchholz"
  },
  {
    "postcode": "17091",
    "city": "Barkow"
  },
  {
    "postcode": "17091",
    "city": "Neuwalde"
  },
  {
    "postcode": "17091",
    "city": "Gützkow"
  },
  {
    "postcode": "17091",
    "city": "Adamshof"
  },
  {
    "postcode": "17091",
    "city": "Tarnow"
  },
  {
    "postcode": "17091",
    "city": "Karlshof"
  },
  {
    "postcode": "17091",
    "city": "Idashof"
  },
  {
    "postcode": "17091",
    "city": "Wolkow"
  },
  {
    "postcode": "17091",
    "city": "Wischershausen"
  },
  {
    "postcode": "17091",
    "city": "Reinberg"
  },
  {
    "postcode": "17091",
    "city": "Marienhof"
  },
  {
    "postcode": "17094",
    "city": "Ballwitz"
  },
  {
    "postcode": "17094",
    "city": "Bargensdorf"
  },
  {
    "postcode": "17094",
    "city": "Burg Stargard"
  },
  {
    "postcode": "17094",
    "city": "Cammin bei Neubrandenburg"
  },
  {
    "postcode": "17094",
    "city": "Cölpin"
  },
  {
    "postcode": "17094",
    "city": "Georgendorf"
  },
  {
    "postcode": "17094",
    "city": "Godenswege"
  },
  {
    "postcode": "17094",
    "city": "Gramelow"
  },
  {
    "postcode": "17094",
    "city": "Groß Nemerow"
  },
  {
    "postcode": "17094",
    "city": "Holldorf"
  },
  {
    "postcode": "17094",
    "city": "Klein Nemerow"
  },
  {
    "postcode": "17094",
    "city": "Krickow"
  },
  {
    "postcode": "17094",
    "city": "Lindetal"
  },
  {
    "postcode": "17094",
    "city": "Neu Käbelich"
  },
  {
    "postcode": "17094",
    "city": "Pragsdorf"
  },
  {
    "postcode": "17094",
    "city": "Quastenberg"
  },
  {
    "postcode": "17094",
    "city": "Riepke"
  },
  {
    "postcode": "17094",
    "city": "Rowa"
  },
  {
    "postcode": "17094",
    "city": "Teschendorf bei Neubrandenburg"
  },
  {
    "postcode": "17094",
    "city": "Mecklenburgische Seenplatte"
  },
  {
    "postcode": "17094",
    "city": "Cammin"
  },
  {
    "postcode": "17094",
    "city": "Teschendorf"
  },
  {
    "postcode": "17094",
    "city": "Kreuzbruchhof"
  },
  {
    "postcode": "17094",
    "city": "Lindenhof"
  },
  {
    "postcode": "17094",
    "city": "Loitz"
  },
  {
    "postcode": "17094",
    "city": "Sabel"
  },
  {
    "postcode": "17094",
    "city": "Hochkamp"
  },
  {
    "postcode": "17094",
    "city": "Tollenseheim"
  },
  {
    "postcode": "17094",
    "city": "Zachow"
  },
  {
    "postcode": "17098",
    "city": "Brohm"
  },
  {
    "postcode": "17098",
    "city": "Friedland bei Neubrandenburg"
  },
  {
    "postcode": "17098",
    "city": "Schwanbeck bei Neubrandenburg"
  },
  {
    "postcode": "17098",
    "city": "Mecklenburgische Seenplatte"
  },
  {
    "postcode": "17098",
    "city": "Friedland"
  },
  {
    "postcode": "17098",
    "city": "Eichhorst"
  },
  {
    "postcode": "17098",
    "city": "Jatzke"
  },
  {
    "postcode": "17098",
    "city": "Genzkow"
  },
  {
    "postcode": "17098",
    "city": "Glienke"
  },
  {
    "postcode": "17098",
    "city": "Cosa"
  },
  {
    "postcode": "17098",
    "city": "Schwanbeck"
  },
  {
    "postcode": "17098",
    "city": "Heinrichswalde"
  },
  {
    "postcode": "17098",
    "city": "Bresewitz"
  },
  {
    "postcode": "17098",
    "city": "Ramelow"
  },
  {
    "postcode": "17098",
    "city": "Dishley"
  },
  {
    "postcode": "17098",
    "city": "Liepen"
  },
  {
    "postcode": "17098",
    "city": "Hohenstein"
  },
  {
    "postcode": "17099",
    "city": "Bassow"
  },
  {
    "postcode": "17099",
    "city": "Brohm"
  },
  {
    "postcode": "17099",
    "city": "Datzetal"
  },
  {
    "postcode": "17099",
    "city": "Eichhorst bei Neubrandenburg"
  },
  {
    "postcode": "17099",
    "city": "Friedland bei Neubrandenburg"
  },
  {
    "postcode": "17099",
    "city": "Galenbeck bei Schönhausen Mecklenburg"
  },
  {
    "postcode": "17099",
    "city": "Galenbeck bei Schönhausen"
  },
  {
    "postcode": "17099",
    "city": "Genzkow"
  },
  {
    "postcode": "17099",
    "city": "Glienke"
  },
  {
    "postcode": "17099",
    "city": "Jatzke"
  },
  {
    "postcode": "17099",
    "city": "Kotelow"
  },
  {
    "postcode": "17099",
    "city": "Pleetz"
  },
  {
    "postcode": "17099",
    "city": "Roga"
  },
  {
    "postcode": "17099",
    "city": "Sadelkow"
  },
  {
    "postcode": "17099",
    "city": "Salow"
  },
  {
    "postcode": "17099",
    "city": "Schwanbeck bei Neubrandenburg"
  },
  {
    "postcode": "17099",
    "city": "Mecklenburgische Seenplatte"
  },
  {
    "postcode": "17099",
    "city": "Galenbeck"
  },
  {
    "postcode": "17099",
    "city": "Wittenborn"
  },
  {
    "postcode": "17099",
    "city": "Lübbersdorf"
  },
  {
    "postcode": "17099",
    "city": "Klockow"
  },
  {
    "postcode": "17099",
    "city": "Sandhagen"
  },
  {
    "postcode": "17099",
    "city": "Schwichtenberg"
  },
  {
    "postcode": "17099",
    "city": "Rohrkrug"
  },
  {
    "postcode": "17099",
    "city": "Friedrichshof"
  },
  {
    "postcode": "17109",
    "city": "Demmin"
  },
  {
    "postcode": "17109",
    "city": "Demmin Hansestadt"
  },
  {
    "postcode": "17109",
    "city": "Wotenick"
  },
  {
    "postcode": "17109",
    "city": "Mecklenburgische Seenplatte"
  },
  {
    "postcode": "17109",
    "city": "Deven"
  },
  {
    "postcode": "17109",
    "city": "Drönnewitz"
  },
  {
    "postcode": "17109",
    "city": "Erdmannshöhe"
  },
  {
    "postcode": "17109",
    "city": "Karlshof"
  },
  {
    "postcode": "17109",
    "city": "Lindenfelde"
  },
  {
    "postcode": "17109",
    "city": "Randow"
  },
  {
    "postcode": "17109",
    "city": "Seedorf"
  },
  {
    "postcode": "17109",
    "city": "Siebeneichen"
  },
  {
    "postcode": "17109",
    "city": "Waldberg"
  },
  {
    "postcode": "17111",
    "city": "Beestland"
  },
  {
    "postcode": "17111",
    "city": "Beggerow"
  },
  {
    "postcode": "17111",
    "city": "Borrentin"
  },
  {
    "postcode": "17111",
    "city": "Buschmühl"
  },
  {
    "postcode": "17111",
    "city": "Ganschendorf"
  },
  {
    "postcode": "17111",
    "city": "Gatschow"
  },
  {
    "postcode": "17111",
    "city": "Gehmkow"
  },
  {
    "postcode": "17111",
    "city": "Glendelin"
  },
  {
    "postcode": "17111",
    "city": "Gnevezow"
  },
  {
    "postcode": "17111",
    "city": "Hasseldorf"
  },
  {
    "postcode": "17111",
    "city": "Hohenbollentin"
  },
  {
    "postcode": "17111",
    "city": "Hohenbrünzow"
  },
  {
    "postcode": "17111",
    "city": "Hohenmocker"
  },
  {
    "postcode": "17111",
    "city": "Kaslin"
  },
  {
    "postcode": "17111",
    "city": "Kentzlin"
  },
  {
    "postcode": "17111",
    "city": "Kletzin"
  },
  {
    "postcode": "17111",
    "city": "Krusemarkshagen"
  },
  {
    "postcode": "17111",
    "city": "Lindenberg Vorpommern"
  },
  {
    "postcode": "17111",
    "city": "Lindenberg"
  },
  {
    "postcode": "17111",
    "city": "Medrow"
  },
  {
    "postcode": "17111",
    "city": "Meesiger"
  },
  {
    "postcode": "17111",
    "city": "Metschow"
  },
  {
    "postcode": "17111",
    "city": "Nossendorf"
  },
  {
    "postcode": "17111",
    "city": "Quitzerow"
  },
  {
    "postcode": "17111",
    "city": "Sanzkow"
  },
  {
    "postcode": "17111",
    "city": "Sarow"
  },
  {
    "postcode": "17111",
    "city": "Schönfeld bei Demmin"
  },
  {
    "postcode": "17111",
    "city": "Siedenbrünzow"
  },
  {
    "postcode": "17111",
    "city": "Sommersdorf bei Demmin"
  },
  {
    "postcode": "17111",
    "city": "Teusin"
  },
  {
    "postcode": "17111",
    "city": "Toitz"
  },
  {
    "postcode": "17111",
    "city": "Törpin"
  },
  {
    "postcode": "17111",
    "city": "Upost"
  },
  {
    "postcode": "17111",
    "city": "Utzedel"
  },
  {
    "postcode": "17111",
    "city": "Verchen"
  },
  {
    "postcode": "17111",
    "city": "Warrenzin"
  },
  {
    "postcode": "17111",
    "city": "Mecklenburgische Seenplatte"
  },
  {
    "postcode": "17111",
    "city": "Schönfeld"
  },
  {
    "postcode": "17111",
    "city": "Sommersdorf"
  },
  {
    "postcode": "17111",
    "city": "Johannenhöhe"
  },
  {
    "postcode": "17111",
    "city": "Pentz"
  },
  {
    "postcode": "17111",
    "city": "Tentzerow"
  },
  {
    "postcode": "17111",
    "city": "Peeselin"
  },
  {
    "postcode": "17111",
    "city": "Sternfeld"
  },
  {
    "postcode": "17111",
    "city": "Strehlow"
  },
  {
    "postcode": "17111",
    "city": "Alt-Kentzlin"
  },
  {
    "postcode": "17111",
    "city": "Neu-Kentzlin"
  },
  {
    "postcode": "17111",
    "city": "Ückeritz"
  },
  {
    "postcode": "17111",
    "city": "Pensin"
  },
  {
    "postcode": "17111",
    "city": "Volksdorf"
  },
  {
    "postcode": "17111",
    "city": "Annenhof"
  },
  {
    "postcode": "17111",
    "city": "Klenz"
  },
  {
    "postcode": "17111",
    "city": "Trittelwitz"
  },
  {
    "postcode": "17111",
    "city": "Vanselow"
  },
  {
    "postcode": "17111",
    "city": "Eugenienberg"
  },
  {
    "postcode": "17111",
    "city": "Leppin"
  },
  {
    "postcode": "17111",
    "city": "Zachariae"
  },
  {
    "postcode": "17111",
    "city": "Neu Sommersdorf"
  },
  {
    "postcode": "17111",
    "city": "Leistenow"
  },
  {
    "postcode": "17111",
    "city": "Dorotheenhof"
  },
  {
    "postcode": "17111",
    "city": "Roidin"
  },
  {
    "postcode": "17111",
    "city": "Wolkow"
  },
  {
    "postcode": "17121",
    "city": "Düvier"
  },
  {
    "postcode": "17121",
    "city": "Görmin"
  },
  {
    "postcode": "17121",
    "city": "Göslow"
  },
  {
    "postcode": "17121",
    "city": "Groß Zastrow"
  },
  {
    "postcode": "17121",
    "city": "Gülzowshof"
  },
  {
    "postcode": "17121",
    "city": "Loitz bei Demmin"
  },
  {
    "postcode": "17121",
    "city": "Nielitz"
  },
  {
    "postcode": "17121",
    "city": "Sassen Vorpommern"
  },
  {
    "postcode": "17121",
    "city": "Sassen"
  },
  {
    "postcode": "17121",
    "city": "Sassen-Trantow"
  },
  {
    "postcode": "17121",
    "city": "Trantow"
  },
  {
    "postcode": "17121",
    "city": "Trissow"
  },
  {
    "postcode": "17121",
    "city": "Wüstenfelde bei Loitz bei Demmin"
  },
  {
    "postcode": "17121",
    "city": "Zarnekla"
  },
  {
    "postcode": "17121",
    "city": "Vorpommern-Greifswald"
  },
  {
    "postcode": "17121",
    "city": "Loitz"
  },
  {
    "postcode": "17121",
    "city": "Passow"
  },
  {
    "postcode": "17121",
    "city": "Neu Jargenow"
  },
  {
    "postcode": "17121",
    "city": "Böken"
  },
  {
    "postcode": "17121",
    "city": "Alt Jargenow"
  },
  {
    "postcode": "17121",
    "city": "Sophienhof"
  },
  {
    "postcode": "17121",
    "city": "Rustow"
  },
  {
    "postcode": "17121",
    "city": "Schwinge"
  },
  {
    "postcode": "17121",
    "city": "Zeitlow"
  },
  {
    "postcode": "17121",
    "city": "Wüstenfelde"
  },
  {
    "postcode": "17121",
    "city": "Vorbein"
  },
  {
    "postcode": "17121",
    "city": "Zarrentin Siedlung"
  },
  {
    "postcode": "17121",
    "city": "Zarrentin Dorf"
  },
  {
    "postcode": "17121",
    "city": "Klein Zetelvitz"
  },
  {
    "postcode": "17121",
    "city": "Groß Zetelvitz"
  },
  {
    "postcode": "17121",
    "city": "Pustow"
  },
  {
    "postcode": "17121",
    "city": "Vierow"
  },
  {
    "postcode": "17121",
    "city": "Treuen"
  },
  {
    "postcode": "17121",
    "city": "Mühlenkamp"
  },
  {
    "postcode": "17126",
    "city": "Jarmen"
  },
  {
    "postcode": "17126",
    "city": "Müssentin"
  },
  {
    "postcode": "17126",
    "city": "Vorpommern-Greifswald"
  },
  {
    "postcode": "17126",
    "city": "Groß-Toitin"
  },
  {
    "postcode": "17126",
    "city": "Klein-Toitin"
  },
  {
    "postcode": "17126",
    "city": "Kronsberg"
  },
  {
    "postcode": "17126",
    "city": "Neu Plötz"
  },
  {
    "postcode": "17126",
    "city": "Plötz"
  },
  {
    "postcode": "17126",
    "city": "Wilhelminenthal"
  },
  {
    "postcode": "17129",
    "city": "Alt Tellin"
  },
  {
    "postcode": "17129",
    "city": "Bentzin"
  },
  {
    "postcode": "17129",
    "city": "Daberkow"
  },
  {
    "postcode": "17129",
    "city": "Hohenbüssow"
  },
  {
    "postcode": "17129",
    "city": "Jagetzow"
  },
  {
    "postcode": "17129",
    "city": "Jarmen"
  },
  {
    "postcode": "17129",
    "city": "Kruckow Vorpommern"
  },
  {
    "postcode": "17129",
    "city": "Kruckow"
  },
  {
    "postcode": "17129",
    "city": "Neu Tellin"
  },
  {
    "postcode": "17129",
    "city": "Plötz bei Demmin"
  },
  {
    "postcode": "17129",
    "city": "Schmarsow Vorpommern"
  },
  {
    "postcode": "17129",
    "city": "Schmarsow"
  },
  {
    "postcode": "17129",
    "city": "Siedenbüssow"
  },
  {
    "postcode": "17129",
    "city": "Tutow"
  },
  {
    "postcode": "17129",
    "city": "Unnode"
  },
  {
    "postcode": "17129",
    "city": "Völschow"
  },
  {
    "postcode": "17129",
    "city": "Wietzow"
  },
  {
    "postcode": "17129",
    "city": "Zemmin"
  },
  {
    "postcode": "17129",
    "city": "Vorpommern-Greifswald"
  },
  {
    "postcode": "17129",
    "city": "Broock"
  },
  {
    "postcode": "17129",
    "city": "Buchholz"
  },
  {
    "postcode": "17129",
    "city": "Neu Buchholz"
  },
  {
    "postcode": "17129",
    "city": "Alt Plestlin"
  },
  {
    "postcode": "17129",
    "city": "Leussin"
  },
  {
    "postcode": "17129",
    "city": "Neu Plestlin"
  },
  {
    "postcode": "17129",
    "city": "Zarrenthin"
  },
  {
    "postcode": "17129",
    "city": "Hedwigshof"
  },
  {
    "postcode": "17129",
    "city": "Borgwall"
  },
  {
    "postcode": "17129",
    "city": "Kartlow"
  },
  {
    "postcode": "17129",
    "city": "Heydenhof"
  },
  {
    "postcode": "17129",
    "city": "Marienfelde"
  },
  {
    "postcode": "17129",
    "city": "Tutow Dorf"
  },
  {
    "postcode": "17129",
    "city": "Kadow"
  },
  {
    "postcode": "17129",
    "city": "Völschow-Ausbau"
  },
  {
    "postcode": "17139",
    "city": "Alt Panstorf"
  },
  {
    "postcode": "17139",
    "city": "Axelshof"
  },
  {
    "postcode": "17139",
    "city": "Basedow bei Teterow"
  },
  {
    "postcode": "17139",
    "city": "Christinenhof"
  },
  {
    "postcode": "17139",
    "city": "Demzin"
  },
  {
    "postcode": "17139",
    "city": "Duckow"
  },
  {
    "postcode": "17139",
    "city": "Faulenrost"
  },
  {
    "postcode": "17139",
    "city": "Gielow"
  },
  {
    "postcode": "17139",
    "city": "Gorschendorf"
  },
  {
    "postcode": "17139",
    "city": "Hagensruhm"
  },
  {
    "postcode": "17139",
    "city": "Kummerow bei Malchin"
  },
  {
    "postcode": "17139",
    "city": "Leuschentin"
  },
  {
    "postcode": "17139",
    "city": "Malchin"
  },
  {
    "postcode": "17139",
    "city": "Neu Panstorf"
  },
  {
    "postcode": "17139",
    "city": "Remplin"
  },
  {
    "postcode": "17139",
    "city": "Rittermannshagen"
  },
  {
    "postcode": "17139",
    "city": "Scharpzow"
  },
  {
    "postcode": "17139",
    "city": "Schwinkendorf"
  },
  {
    "postcode": "17139",
    "city": "Wendischhagen"
  },
  {
    "postcode": "17139",
    "city": "Mecklenburgische Seenplatte"
  },
  {
    "postcode": "17139",
    "city": "Basedow"
  },
  {
    "postcode": "17139",
    "city": "Kummerow"
  },
  {
    "postcode": "17139",
    "city": "Basedow-Höhe"
  },
  {
    "postcode": "17139",
    "city": "Seedorf"
  },
  {
    "postcode": "17139",
    "city": "Gessin"
  },
  {
    "postcode": "17139",
    "city": "Neu Basedow"
  },
  {
    "postcode": "17139",
    "city": "Neuhäuser"
  },
  {
    "postcode": "17139",
    "city": "Stöckersoll"
  },
  {
    "postcode": "17139",
    "city": "Teerofen"
  },
  {
    "postcode": "17139",
    "city": "Hungerstorf"
  },
  {
    "postcode": "17139",
    "city": "Rittermannshagen Hof"
  },
  {
    "postcode": "17139",
    "city": "Schwabendorf"
  },
  {
    "postcode": "17139",
    "city": "Gielow-Ausbau"
  },
  {
    "postcode": "17139",
    "city": "Gielow-Mühle"
  },
  {
    "postcode": "17139",
    "city": "Hinrichsfelde"
  },
  {
    "postcode": "17139",
    "city": "Liepen"
  },
  {
    "postcode": "17139",
    "city": "Peenhäuser"
  },
  {
    "postcode": "17139",
    "city": "Maxfelde"
  },
  {
    "postcode": "17139",
    "city": "Salem"
  },
  {
    "postcode": "17139",
    "city": "Retzow"
  },
  {
    "postcode": "17139",
    "city": "Gülitz"
  },
  {
    "postcode": "17139",
    "city": "Jettchenshof"
  },
  {
    "postcode": "17139",
    "city": "Pinnow"
  },
  {
    "postcode": "17139",
    "city": "Pisede"
  },
  {
    "postcode": "17139",
    "city": "Viezenhof"
  },
  {
    "postcode": "17153",
    "city": "Basepohl"
  },
  {
    "postcode": "17153",
    "city": "Bredenfelde bei Malchin"
  },
  {
    "postcode": "17153",
    "city": "Briggow"
  },
  {
    "postcode": "17153",
    "city": "Grammentin"
  },
  {
    "postcode": "17153",
    "city": "Gülzow bei Malchin"
  },
  {
    "postcode": "17153",
    "city": "Ivenack"
  },
  {
    "postcode": "17153",
    "city": "Jürgenstorf bei Reuterstadt Stavenhagen"
  },
  {
    "postcode": "17153",
    "city": "Kittendorf"
  },
  {
    "postcode": "17153",
    "city": "Klockow-Dorf"
  },
  {
    "postcode": "17153",
    "city": "Kölpin"
  },
  {
    "postcode": "17153",
    "city": "Neubauhof"
  },
  {
    "postcode": "17153",
    "city": "Pribbenow"
  },
  {
    "postcode": "17153",
    "city": "Ritzerow"
  },
  {
    "postcode": "17153",
    "city": "Rottmannshagen"
  },
  {
    "postcode": "17153",
    "city": "Rützenfelde"
  },
  {
    "postcode": "17153",
    "city": "Stavenhagen Reuterstadt"
  },
  {
    "postcode": "17153",
    "city": "Stavenhagen"
  },
  {
    "postcode": "17153",
    "city": "Stavenhof bei Stavenhagen"
  },
  {
    "postcode": "17153",
    "city": "Wüstgrabow"
  },
  {
    "postcode": "17153",
    "city": "Zettemin"
  },
  {
    "postcode": "17153",
    "city": "Zolkendorf"
  },
  {
    "postcode": "17153",
    "city": "Mecklenburgische Seenplatte"
  },
  {
    "postcode": "17153",
    "city": "Bredenfelde"
  },
  {
    "postcode": "17153",
    "city": "Galenbeck"
  },
  {
    "postcode": "17153",
    "city": "Gülzow"
  },
  {
    "postcode": "17153",
    "city": "Jürgenstorf"
  },
  {
    "postcode": "17153",
    "city": "Wackerow"
  },
  {
    "postcode": "17153",
    "city": "Sülten"
  },
  {
    "postcode": "17153",
    "city": "Sülten Hof"
  },
  {
    "postcode": "17153",
    "city": "Grischow"
  },
  {
    "postcode": "17153",
    "city": "Weitendorf"
  },
  {
    "postcode": "17153",
    "city": "Goddin"
  },
  {
    "postcode": "17153",
    "city": "Markow"
  },
  {
    "postcode": "17153",
    "city": "Krummsee"
  },
  {
    "postcode": "17153",
    "city": "Voßhagen"
  },
  {
    "postcode": "17153",
    "city": "Clausdorf"
  },
  {
    "postcode": "17153",
    "city": "Mittelhof"
  },
  {
    "postcode": "17153",
    "city": "Oevelgünde"
  },
  {
    "postcode": "17153",
    "city": "Klockow"
  },
  {
    "postcode": "17153",
    "city": "Carlsruhe"
  },
  {
    "postcode": "17154",
    "city": "Neukalen"
  },
  {
    "postcode": "17154",
    "city": "Schlakendorf"
  },
  {
    "postcode": "17154",
    "city": "Schönkamp"
  },
  {
    "postcode": "17154",
    "city": "Schorrentin"
  },
  {
    "postcode": "17154",
    "city": "Mecklenburgische Seenplatte"
  },
  {
    "postcode": "17154",
    "city": "Karnitz"
  },
  {
    "postcode": "17154",
    "city": "Warsow"
  },
  {
    "postcode": "17159",
    "city": "Altbauhof bei Dargun"
  },
  {
    "postcode": "17159",
    "city": "Barlin bei Dargun"
  },
  {
    "postcode": "17159",
    "city": "Brudersdorf"
  },
  {
    "postcode": "17159",
    "city": "Darbein bei Dargun"
  },
  {
    "postcode": "17159",
    "city": "Dargun"
  },
  {
    "postcode": "17159",
    "city": "Dörgelin bei Dargun"
  },
  {
    "postcode": "17159",
    "city": "Glasow bei Dargun"
  },
  {
    "postcode": "17159",
    "city": "Groß Methling"
  },
  {
    "postcode": "17159",
    "city": "Klein Methling"
  },
  {
    "postcode": "17159",
    "city": "Küzerhof bei Wagun"
  },
  {
    "postcode": "17159",
    "city": "Lehnenhof"
  },
  {
    "postcode": "17159",
    "city": "Levin bei Zarnekow"
  },
  {
    "postcode": "17159",
    "city": "Neubauhof bei Dargun"
  },
  {
    "postcode": "17159",
    "city": "Schwarzenhof bei Wagun"
  },
  {
    "postcode": "17159",
    "city": "Stubbendorf"
  },
  {
    "postcode": "17159",
    "city": "Wagun"
  },
  {
    "postcode": "17159",
    "city": "Zarnekow"
  },
  {
    "postcode": "17159",
    "city": "Mecklenburgische Seenplatte"
  },
  {
    "postcode": "17166",
    "city": "Alt Sührkow"
  },
  {
    "postcode": "17166",
    "city": "Appelhagen"
  },
  {
    "postcode": "17166",
    "city": "Barz"
  },
  {
    "postcode": "17166",
    "city": "Bristow"
  },
  {
    "postcode": "17166",
    "city": "Bülow bei Teterow"
  },
  {
    "postcode": "17166",
    "city": "Dahmen"
  },
  {
    "postcode": "17166",
    "city": "Dalkendorf"
  },
  {
    "postcode": "17166",
    "city": "Görzhausen"
  },
  {
    "postcode": "17166",
    "city": "Grambzow"
  },
  {
    "postcode": "17166",
    "city": "Groß Köthel"
  },
  {
    "postcode": "17166",
    "city": "Groß Roge"
  },
  {
    "postcode": "17166",
    "city": "Groß Wokern"
  },
  {
    "postcode": "17166",
    "city": "Hohen Demzin"
  },
  {
    "postcode": "17166",
    "city": "Hohen Mistorf"
  },
  {
    "postcode": "17166",
    "city": "Klein Köthel"
  },
  {
    "postcode": "17166",
    "city": "Klein Wokern"
  },
  {
    "postcode": "17166",
    "city": "Mieckow"
  },
  {
    "postcode": "17166",
    "city": "Neu Sührkow"
  },
  {
    "postcode": "17166",
    "city": "Rachow"
  },
  {
    "postcode": "17166",
    "city": "Schorssow"
  },
  {
    "postcode": "17166",
    "city": "Teterow"
  },
  {
    "postcode": "17166",
    "city": "Wotrum"
  },
  {
    "postcode": "17166",
    "city": "Ziddorf"
  },
  {
    "postcode": "17166",
    "city": "Zierstorf"
  },
  {
    "postcode": "17166",
    "city": "Rostock"
  },
  {
    "postcode": "17166",
    "city": "Bukow"
  },
  {
    "postcode": "17166",
    "city": "Pohnstorf"
  },
  {
    "postcode": "17166",
    "city": "Rothenmoor"
  },
  {
    "postcode": "17166",
    "city": "Bockholt"
  },
  {
    "postcode": "17166",
    "city": "Großen Luckow"
  },
  {
    "postcode": "17166",
    "city": "Hüttenkoppel"
  },
  {
    "postcode": "17166",
    "city": "Neu Ziddorf"
  },
  {
    "postcode": "17166",
    "city": "Amalienhof"
  },
  {
    "postcode": "17166",
    "city": "Bartelshagen"
  },
  {
    "postcode": "17166",
    "city": "Neu Rachow"
  },
  {
    "postcode": "17166",
    "city": "Klein Roge"
  },
  {
    "postcode": "17166",
    "city": "Neu Wokern"
  },
  {
    "postcode": "17166",
    "city": "Nienhagen"
  },
  {
    "postcode": "17166",
    "city": "Uhlenhof"
  },
  {
    "postcode": "17166",
    "city": "Waldschmidt"
  },
  {
    "postcode": "17166",
    "city": "Burg Schlitz"
  },
  {
    "postcode": "17166",
    "city": "Karstorf"
  },
  {
    "postcode": "17166",
    "city": "Tessenow"
  },
  {
    "postcode": "17166",
    "city": "Bülow"
  },
  {
    "postcode": "17166",
    "city": "Carlshof"
  },
  {
    "postcode": "17166",
    "city": "Glasow"
  },
  {
    "postcode": "17166",
    "city": "Grube"
  },
  {
    "postcode": "17166",
    "city": "Neu Tessenow"
  },
  {
    "postcode": "17166",
    "city": "Teschow"
  },
  {
    "postcode": "17166",
    "city": "Niendorf"
  },
  {
    "postcode": "17166",
    "city": "Pampow"
  },
  {
    "postcode": "17168",
    "city": "Gehmkendorf"
  },
  {
    "postcode": "17168",
    "city": "Groß Markow"
  },
  {
    "postcode": "17168",
    "city": "Groß Wüstenfelde"
  },
  {
    "postcode": "17168",
    "city": "Jördenstorf"
  },
  {
    "postcode": "17168",
    "city": "Klein Markow"
  },
  {
    "postcode": "17168",
    "city": "Klein Wüstenfelde"
  },
  {
    "postcode": "17168",
    "city": "Klenz bei Teterow"
  },
  {
    "postcode": "17168",
    "city": "Küsserow"
  },
  {
    "postcode": "17168",
    "city": "Lelkendorf"
  },
  {
    "postcode": "17168",
    "city": "Levitzow"
  },
  {
    "postcode": "17168",
    "city": "Marienhof"
  },
  {
    "postcode": "17168",
    "city": "Matgendorf"
  },
  {
    "postcode": "17168",
    "city": "Neu Heinde"
  },
  {
    "postcode": "17168",
    "city": "Perow"
  },
  {
    "postcode": "17168",
    "city": "Poggelow"
  },
  {
    "postcode": "17168",
    "city": "Prebberede"
  },
  {
    "postcode": "17168",
    "city": "Remlin"
  },
  {
    "postcode": "17168",
    "city": "Rey"
  },
  {
    "postcode": "17168",
    "city": "Schrödershof"
  },
  {
    "postcode": "17168",
    "city": "Schwasdorf"
  },
  {
    "postcode": "17168",
    "city": "Schwetzin"
  },
  {
    "postcode": "17168",
    "city": "Sukow-Levitzow"
  },
  {
    "postcode": "17168",
    "city": "Tellow"
  },
  {
    "postcode": "17168",
    "city": "Tenze"
  },
  {
    "postcode": "17168",
    "city": "Thürkow"
  },
  {
    "postcode": "17168",
    "city": "Vietschow"
  },
  {
    "postcode": "17168",
    "city": "Warnkenhagen bei Teterow"
  },
  {
    "postcode": "17168",
    "city": "Rostock"
  },
  {
    "postcode": "17168",
    "city": "Warnkenhagen"
  },
  {
    "postcode": "17168",
    "city": "Klenz"
  },
  {
    "postcode": "17168",
    "city": "Gehmkendorf Ausbau"
  },
  {
    "postcode": "17168",
    "city": "Sarmstorf"
  },
  {
    "postcode": "17168",
    "city": "Küsserow Hof"
  },
  {
    "postcode": "17168",
    "city": "Ludwigsdorf"
  },
  {
    "postcode": "17168",
    "city": "Seeland"
  },
  {
    "postcode": "17168",
    "city": "Sperlingshof"
  },
  {
    "postcode": "17168",
    "city": "Rensow"
  },
  {
    "postcode": "17168",
    "city": "Belitz"
  },
  {
    "postcode": "17168",
    "city": "Schwiessel"
  },
  {
    "postcode": "17168",
    "city": "Groß Bützin"
  },
  {
    "postcode": "17168",
    "city": "Grieve"
  },
  {
    "postcode": "17168",
    "city": "Rabenhorst"
  },
  {
    "postcode": "17168",
    "city": "Neu Remlin"
  },
  {
    "postcode": "17168",
    "city": "Stierow"
  },
  {
    "postcode": "17168",
    "city": "Sukow-Marienhof"
  },
  {
    "postcode": "17168",
    "city": "Sukow"
  },
  {
    "postcode": "17168",
    "city": "Pohnstorf"
  },
  {
    "postcode": "17168",
    "city": "Todendorf"
  },
  {
    "postcode": "17168",
    "city": "Gottin"
  },
  {
    "postcode": "17179",
    "city": "Alt Pannekow"
  },
  {
    "postcode": "17179",
    "city": "Alt Vorwerk"
  },
  {
    "postcode": "17179",
    "city": "Altkalen"
  },
  {
    "postcode": "17179",
    "city": "Bäbelitz"
  },
  {
    "postcode": "17179",
    "city": "Behren-Lübchin"
  },
  {
    "postcode": "17179",
    "city": "Boddin bei Teterow"
  },
  {
    "postcode": "17179",
    "city": "Dalwitz"
  },
  {
    "postcode": "17179",
    "city": "Duckwitz"
  },
  {
    "postcode": "17179",
    "city": "Finkenthal"
  },
  {
    "postcode": "17179",
    "city": "Fürstenhof"
  },
  {
    "postcode": "17179",
    "city": "Gnoien"
  },
  {
    "postcode": "17179",
    "city": "Groß Lunow"
  },
  {
    "postcode": "17179",
    "city": "Klein Lunow"
  },
  {
    "postcode": "17179",
    "city": "Klein Nieköhr"
  },
  {
    "postcode": "17179",
    "city": "Lühburg"
  },
  {
    "postcode": "17179",
    "city": "Neu Nieköhr"
  },
  {
    "postcode": "17179",
    "city": "Neu Pannekow"
  },
  {
    "postcode": "17179",
    "city": "Neu Vorwerk"
  },
  {
    "postcode": "17179",
    "city": "Repnitz"
  },
  {
    "postcode": "17179",
    "city": "Samow"
  },
  {
    "postcode": "17179",
    "city": "Schlutow"
  },
  {
    "postcode": "17179",
    "city": "Viecheln"
  },
  {
    "postcode": "17179",
    "city": "Walkendorf"
  },
  {
    "postcode": "17179",
    "city": "Warbelow"
  },
  {
    "postcode": "17179",
    "city": "Wasdow"
  },
  {
    "postcode": "17179",
    "city": "Rostock"
  },
  {
    "postcode": "17179",
    "city": "Damm"
  },
  {
    "postcode": "17179",
    "city": "Kleverhof"
  },
  {
    "postcode": "17179",
    "city": "Granzow"
  },
  {
    "postcode": "17179",
    "city": "Kämmerich"
  },
  {
    "postcode": "17179",
    "city": "Lüchow"
  },
  {
    "postcode": "17179",
    "city": "Rey"
  },
  {
    "postcode": "17179",
    "city": "Alt Quitzenow"
  },
  {
    "postcode": "17179",
    "city": "Bobbin"
  },
  {
    "postcode": "17179",
    "city": "Friedrichshof"
  },
  {
    "postcode": "17179",
    "city": "Groß Nieköhr"
  },
  {
    "postcode": "17179",
    "city": "Neu Quitzenow"
  },
  {
    "postcode": "17179",
    "city": "Trebelhof"
  },
  {
    "postcode": "17179",
    "city": "Dölitz"
  },
  {
    "postcode": "17179",
    "city": "Eschenhörn"
  },
  {
    "postcode": "17179",
    "city": "Kranichshof"
  },
  {
    "postcode": "17179",
    "city": "Boddin"
  },
  {
    "postcode": "17179",
    "city": "Basse"
  },
  {
    "postcode": "17179",
    "city": "Gottesgabe"
  },
  {
    "postcode": "17179",
    "city": "Neu Boddin"
  },
  {
    "postcode": "17179",
    "city": "Stechow"
  },
  {
    "postcode": "17179",
    "city": "Strietfeld"
  },
  {
    "postcode": "17192",
    "city": "Alt Falkenhagen"
  },
  {
    "postcode": "17192",
    "city": "Alt Schönau"
  },
  {
    "postcode": "17192",
    "city": "Federow"
  },
  {
    "postcode": "17192",
    "city": "Grabenitz"
  },
  {
    "postcode": "17192",
    "city": "Groß Dratow"
  },
  {
    "postcode": "17192",
    "city": "Groß Gievitz"
  },
  {
    "postcode": "17192",
    "city": "Groß Plasten"
  },
  {
    "postcode": "17192",
    "city": "Kargow"
  },
  {
    "postcode": "17192",
    "city": "Klein Dratow"
  },
  {
    "postcode": "17192",
    "city": "Klein Gievitz"
  },
  {
    "postcode": "17192",
    "city": "Klein Plasten"
  },
  {
    "postcode": "17192",
    "city": "Klink bei Waren"
  },
  {
    "postcode": "17192",
    "city": "Lansen"
  },
  {
    "postcode": "17192",
    "city": "Lansen-Schönau"
  },
  {
    "postcode": "17192",
    "city": "Minenhof"
  },
  {
    "postcode": "17192",
    "city": "Rügeband"
  },
  {
    "postcode": "17192",
    "city": "Schloen"
  },
  {
    "postcode": "17192",
    "city": "Schwastorf"
  },
  {
    "postcode": "17192",
    "city": "Schwenzin"
  },
  {
    "postcode": "17192",
    "city": "Sembzin"
  },
  {
    "postcode": "17192",
    "city": "Sorgenlos"
  },
  {
    "postcode": "17192",
    "city": "Torgelow am See"
  },
  {
    "postcode": "17192",
    "city": "Varchentin"
  },
  {
    "postcode": "17192",
    "city": "Waren"
  },
  {
    "postcode": "17192",
    "city": "Waren (Müritz)"
  },
  {
    "postcode": "17192",
    "city": "Warenshof"
  },
  {
    "postcode": "17192",
    "city": "Mecklenburgische Seenplatte"
  },
  {
    "postcode": "17192",
    "city": "Klink"
  },
  {
    "postcode": "17192",
    "city": "Neu Schloen"
  },
  {
    "postcode": "17192",
    "city": "Peenehagen"
  },
  {
    "postcode": "17192",
    "city": "Beckenkrug"
  },
  {
    "postcode": "17192",
    "city": "Carolinenhof"
  },
  {
    "postcode": "17192",
    "city": "Deven"
  },
  {
    "postcode": "17192",
    "city": "Damerow"
  },
  {
    "postcode": "17192",
    "city": "Godow"
  },
  {
    "postcode": "17192",
    "city": "Rehhof"
  },
  {
    "postcode": "17192",
    "city": "Schwarzenhof"
  },
  {
    "postcode": "17192",
    "city": "Speck"
  },
  {
    "postcode": "17192",
    "city": "Eldenburg"
  },
  {
    "postcode": "17192",
    "city": "Neu Schönau"
  },
  {
    "postcode": "17192",
    "city": "Carlsruh"
  },
  {
    "postcode": "17192",
    "city": "Forsthof"
  },
  {
    "postcode": "17192",
    "city": "Hinrichshagen"
  },
  {
    "postcode": "17192",
    "city": "Levenstorf"
  },
  {
    "postcode": "17192",
    "city": "Johannshof"
  },
  {
    "postcode": "17192",
    "city": "Schloen-Dratow"
  },
  {
    "postcode": "17192",
    "city": "Schmachthagen"
  },
  {
    "postcode": "17192",
    "city": "Meierei"
  },
  {
    "postcode": "17192",
    "city": "Jägerhof"
  },
  {
    "postcode": "17192",
    "city": "Neu Falkenhagen"
  },
  {
    "postcode": "17194",
    "city": "Beckenkrug"
  },
  {
    "postcode": "17194",
    "city": "Grabowhöfe"
  },
  {
    "postcode": "17194",
    "city": "Hinrichshagen bei Waren"
  },
  {
    "postcode": "17194",
    "city": "Hohen Wangelin"
  },
  {
    "postcode": "17194",
    "city": "Jabel bei Waren"
  },
  {
    "postcode": "17194",
    "city": "Klocksin"
  },
  {
    "postcode": "17194",
    "city": "Loppin"
  },
  {
    "postcode": "17194",
    "city": "Lupendorf"
  },
  {
    "postcode": "17194",
    "city": "Lütgendorf"
  },
  {
    "postcode": "17194",
    "city": "Marxhagen"
  },
  {
    "postcode": "17194",
    "city": "Moltzow"
  },
  {
    "postcode": "17194",
    "city": "Neu Gaarz bei Waren"
  },
  {
    "postcode": "17194",
    "city": "Panschenhagen"
  },
  {
    "postcode": "17194",
    "city": "Schwinkendorf"
  },
  {
    "postcode": "17194",
    "city": "Sommerstorf"
  },
  {
    "postcode": "17194",
    "city": "Vielist"
  },
  {
    "postcode": "17194",
    "city": "Vollrathsruhe"
  },
  {
    "postcode": "17194",
    "city": "Mecklenburgische Seenplatte"
  },
  {
    "postcode": "17194",
    "city": "Jabel"
  },
  {
    "postcode": "17194",
    "city": "Sophienhof"
  },
  {
    "postcode": "17194",
    "city": "Baumgarten"
  },
  {
    "postcode": "17194",
    "city": "Louisenfeld"
  },
  {
    "postcode": "17194",
    "city": "Cramon"
  },
  {
    "postcode": "17194",
    "city": "Malkwitz"
  },
  {
    "postcode": "17194",
    "city": "Kniep"
  },
  {
    "postcode": "17194",
    "city": "Liepen"
  },
  {
    "postcode": "17194",
    "city": "Damerow"
  },
  {
    "postcode": "17194",
    "city": "Neu Gaarz"
  },
  {
    "postcode": "17194",
    "city": "Alt Gaarz"
  },
  {
    "postcode": "17194",
    "city": "Blücherhof"
  },
  {
    "postcode": "17194",
    "city": "Neuhof"
  },
  {
    "postcode": "17194",
    "city": "Sapshagen"
  },
  {
    "postcode": "17194",
    "city": "Tressow"
  },
  {
    "postcode": "17194",
    "city": "Rambow"
  },
  {
    "postcode": "17194",
    "city": "Langwitz"
  },
  {
    "postcode": "17194",
    "city": "Ulrichshusen"
  },
  {
    "postcode": "17194",
    "city": "Schloß Grubenhagen"
  },
  {
    "postcode": "17194",
    "city": "Klein Rehberg"
  },
  {
    "postcode": "17194",
    "city": "Hallalit"
  },
  {
    "postcode": "17194",
    "city": "Klein Luckow"
  },
  {
    "postcode": "17194",
    "city": "Groß Rehberg"
  },
  {
    "postcode": "17194",
    "city": "Kirch Grubenhagen"
  },
  {
    "postcode": "17207",
    "city": "Bollewick"
  },
  {
    "postcode": "17207",
    "city": "Gneve"
  },
  {
    "postcode": "17207",
    "city": "Gotthun"
  },
  {
    "postcode": "17207",
    "city": "Groß Kelle"
  },
  {
    "postcode": "17207",
    "city": "Kambs bei Röbel"
  },
  {
    "postcode": "17207",
    "city": "Ludorf"
  },
  {
    "postcode": "17207",
    "city": "Röbel / Müritz"
  },
  {
    "postcode": "17207",
    "city": "Röbel"
  },
  {
    "postcode": "17207",
    "city": "Sietow"
  },
  {
    "postcode": "17207",
    "city": "Spitzkuhn"
  },
  {
    "postcode": "17207",
    "city": "Zielow"
  },
  {
    "postcode": "17207",
    "city": "Mecklenburgische Seenplatte"
  },
  {
    "postcode": "17207",
    "city": "Röbel/Müritz"
  },
  {
    "postcode": "17207",
    "city": "Südmüritz"
  },
  {
    "postcode": "17207",
    "city": "Kambs"
  },
  {
    "postcode": "17207",
    "city": "Wildkuhl"
  },
  {
    "postcode": "17207",
    "city": "Marienfelde"
  },
  {
    "postcode": "17207",
    "city": "Vipperow"
  },
  {
    "postcode": "17207",
    "city": "Solzow"
  },
  {
    "postcode": "17209",
    "city": "Altenhof bei Röbel"
  },
  {
    "postcode": "17209",
    "city": "Buchholz bei Röbel"
  },
  {
    "postcode": "17209",
    "city": "Bütow"
  },
  {
    "postcode": "17209",
    "city": "Dammwolde"
  },
  {
    "postcode": "17209",
    "city": "Fincken"
  },
  {
    "postcode": "17209",
    "city": "Grabow-Below"
  },
  {
    "postcode": "17209",
    "city": "Hinrichsberg"
  },
  {
    "postcode": "17209",
    "city": "Jaebetz"
  },
  {
    "postcode": "17209",
    "city": "Kaeselin"
  },
  {
    "postcode": "17209",
    "city": "Kieve"
  },
  {
    "postcode": "17209",
    "city": "Knüppeldamm"
  },
  {
    "postcode": "17209",
    "city": "Leizen"
  },
  {
    "postcode": "17209",
    "city": "Massow"
  },
  {
    "postcode": "17209",
    "city": "Melz"
  },
  {
    "postcode": "17209",
    "city": "Minzow"
  },
  {
    "postcode": "17209",
    "city": "Neu Stuer"
  },
  {
    "postcode": "17209",
    "city": "Priborn"
  },
  {
    "postcode": "17209",
    "city": "Rogeez"
  },
  {
    "postcode": "17209",
    "city": "Satow bei Röbel"
  },
  {
    "postcode": "17209",
    "city": "Sietow"
  },
  {
    "postcode": "17209",
    "city": "Solzow"
  },
  {
    "postcode": "17209",
    "city": "Stuer"
  },
  {
    "postcode": "17209",
    "city": "Vipperow"
  },
  {
    "postcode": "17209",
    "city": "Walow"
  },
  {
    "postcode": "17209",
    "city": "Wredenhagen"
  },
  {
    "postcode": "17209",
    "city": "Zepkow"
  },
  {
    "postcode": "17209",
    "city": "Zislow"
  },
  {
    "postcode": "17209",
    "city": "Mecklenburgische Seenplatte"
  },
  {
    "postcode": "17209",
    "city": "Altenhof"
  },
  {
    "postcode": "17209",
    "city": "Buchholz"
  },
  {
    "postcode": "17209",
    "city": "Eldetal"
  },
  {
    "postcode": "17209",
    "city": "Südmüritz"
  },
  {
    "postcode": "17209",
    "city": "Wittstock/Dosse"
  },
  {
    "postcode": "17209",
    "city": "Darze"
  },
  {
    "postcode": "17209",
    "city": "Dambeck"
  },
  {
    "postcode": "17209",
    "city": "Karchow"
  },
  {
    "postcode": "17209",
    "city": "Wackstow"
  },
  {
    "postcode": "17209",
    "city": "Erlenkamp"
  },
  {
    "postcode": "17209",
    "city": "Neukrug"
  },
  {
    "postcode": "17209",
    "city": "Evchensruh"
  },
  {
    "postcode": "17209",
    "city": "Marienhof"
  },
  {
    "postcode": "17209",
    "city": "Woldzegarten"
  },
  {
    "postcode": "17209",
    "city": "Karbow"
  },
  {
    "postcode": "17209",
    "city": "Friedrichshof"
  },
  {
    "postcode": "17209",
    "city": "Augusthof"
  },
  {
    "postcode": "17209",
    "city": "Sietow-Dorf"
  },
  {
    "postcode": "17209",
    "city": "Zierzow"
  },
  {
    "postcode": "17209",
    "city": "Bad Stuer"
  },
  {
    "postcode": "17209",
    "city": "Stuer Vorwerk"
  },
  {
    "postcode": "17209",
    "city": "Lexow"
  },
  {
    "postcode": "17209",
    "city": "Strietfeld"
  },
  {
    "postcode": "17209",
    "city": "Suckow"
  },
  {
    "postcode": "17209",
    "city": "Wittstock"
  },
  {
    "postcode": "17213",
    "city": "Adamshoffnung"
  },
  {
    "postcode": "17213",
    "city": "Fünfseen"
  },
  {
    "postcode": "17213",
    "city": "Göhren-Lebbin"
  },
  {
    "postcode": "17213",
    "city": "Grüssow bei Malchow"
  },
  {
    "postcode": "17213",
    "city": "Kisserow"
  },
  {
    "postcode": "17213",
    "city": "Kogel bei Röbel"
  },
  {
    "postcode": "17213",
    "city": "Lexow"
  },
  {
    "postcode": "17213",
    "city": "Malchow Mecklenburg"
  },
  {
    "postcode": "17213",
    "city": "Malchow"
  },
  {
    "postcode": "17213",
    "city": "Penkow"
  },
  {
    "postcode": "17213",
    "city": "Poppentin"
  },
  {
    "postcode": "17213",
    "city": "Roez"
  },
  {
    "postcode": "17213",
    "city": "Rogeez"
  },
  {
    "postcode": "17213",
    "city": "Wendhof"
  },
  {
    "postcode": "17213",
    "city": "Mecklenburgische Seenplatte"
  },
  {
    "postcode": "17213",
    "city": "Kogel"
  },
  {
    "postcode": "17213",
    "city": "Satow"
  },
  {
    "postcode": "17213",
    "city": "Petersdorf"
  },
  {
    "postcode": "17213",
    "city": "Lenz-Süd"
  },
  {
    "postcode": "17213",
    "city": "Grüssow"
  },
  {
    "postcode": "17213",
    "city": "Neu Grüssow"
  },
  {
    "postcode": "17213",
    "city": "Satow Hütte"
  },
  {
    "postcode": "17213",
    "city": "Untergöhren"
  },
  {
    "postcode": "17214",
    "city": "Alt Schwerin"
  },
  {
    "postcode": "17214",
    "city": "Jürgenshof"
  },
  {
    "postcode": "17214",
    "city": "Nossentin"
  },
  {
    "postcode": "17214",
    "city": "Nossentiner Hütte"
  },
  {
    "postcode": "17214",
    "city": "Silz Mecklenburg"
  },
  {
    "postcode": "17214",
    "city": "Silz"
  },
  {
    "postcode": "17214",
    "city": "Sparow"
  },
  {
    "postcode": "17214",
    "city": "Mecklenburgische Seenplatte"
  },
  {
    "postcode": "17214",
    "city": "Ortkrug"
  },
  {
    "postcode": "17214",
    "city": "Glashütte"
  },
  {
    "postcode": "17214",
    "city": "Drewitz"
  },
  {
    "postcode": "17217",
    "city": "Alt Rehse"
  },
  {
    "postcode": "17217",
    "city": "Ave"
  },
  {
    "postcode": "17217",
    "city": "Groß Lukow"
  },
  {
    "postcode": "17217",
    "city": "Groß Vielen"
  },
  {
    "postcode": "17217",
    "city": "Klein Lukow"
  },
  {
    "postcode": "17217",
    "city": "Krukow Mecklenburg"
  },
  {
    "postcode": "17217",
    "city": "Krukow"
  },
  {
    "postcode": "17217",
    "city": "Lapitz"
  },
  {
    "postcode": "17217",
    "city": "Mallin"
  },
  {
    "postcode": "17217",
    "city": "Mollenstorf"
  },
  {
    "postcode": "17217",
    "city": "Passentin"
  },
  {
    "postcode": "17217",
    "city": "Penzlin bei Waren"
  },
  {
    "postcode": "17217",
    "city": "Puchow"
  },
  {
    "postcode": "17217",
    "city": "Mecklenburgische Seenplatte"
  },
  {
    "postcode": "17217",
    "city": "Kuckssee"
  },
  {
    "postcode": "17217",
    "city": "Penzlin"
  },
  {
    "postcode": "17217",
    "city": "Rahnenfelde"
  },
  {
    "postcode": "17217",
    "city": "Marihn"
  },
  {
    "postcode": "17217",
    "city": "Groß Flotow"
  },
  {
    "postcode": "17217",
    "city": "Zahren"
  },
  {
    "postcode": "17217",
    "city": "Wustrow"
  },
  {
    "postcode": "17217",
    "city": "Carlstein"
  },
  {
    "postcode": "17217",
    "city": "Werder"
  },
  {
    "postcode": "17217",
    "city": "Lübkow"
  },
  {
    "postcode": "17217",
    "city": "Neuhof"
  },
  {
    "postcode": "17217",
    "city": "Siehdichum"
  },
  {
    "postcode": "17219",
    "city": "Ankershagen"
  },
  {
    "postcode": "17219",
    "city": "Bocksee"
  },
  {
    "postcode": "17219",
    "city": "Groß Flotow"
  },
  {
    "postcode": "17219",
    "city": "Groß Varchow"
  },
  {
    "postcode": "17219",
    "city": "Kraase"
  },
  {
    "postcode": "17219",
    "city": "Marihn"
  },
  {
    "postcode": "17219",
    "city": "Möllenhagen"
  },
  {
    "postcode": "17219",
    "city": "Rockow"
  },
  {
    "postcode": "17219",
    "city": "Rumpshagen"
  },
  {
    "postcode": "17219",
    "city": "Mecklenburgische Seenplatte"
  },
  {
    "postcode": "17219",
    "city": "Klockow"
  },
  {
    "postcode": "17219",
    "city": "Bornhof"
  },
  {
    "postcode": "17219",
    "city": "Friedrichsfelde"
  },
  {
    "postcode": "17219",
    "city": "Wendorf"
  },
  {
    "postcode": "17219",
    "city": "Lehsten"
  },
  {
    "postcode": "17235",
    "city": "Fürstensee"
  },
  {
    "postcode": "17235",
    "city": "Neustrelitz"
  },
  {
    "postcode": "17235",
    "city": "Mecklenburgische Seenplatte"
  },
  {
    "postcode": "17235",
    "city": "Stadtmitte"
  },
  {
    "postcode": "17235",
    "city": "Kiefernheide"
  },
  {
    "postcode": "17235",
    "city": "Klein Trebbow"
  },
  {
    "postcode": "17235",
    "city": "Strelitz-Alt"
  },
  {
    "postcode": "17237",
    "city": "Blankensee bei Neustrelitz"
  },
  {
    "postcode": "17237",
    "city": "Blumenholz"
  },
  {
    "postcode": "17237",
    "city": "Brustorf"
  },
  {
    "postcode": "17237",
    "city": "Carpin"
  },
  {
    "postcode": "17237",
    "city": "Dabelow"
  },
  {
    "postcode": "17237",
    "city": "Godendorf bei Neustrelitz"
  },
  {
    "postcode": "17237",
    "city": "Groß Quassow"
  },
  {
    "postcode": "17237",
    "city": "Groß Schönfeld"
  },
  {
    "postcode": "17237",
    "city": "Grünow bei Neustrelitz"
  },
  {
    "postcode": "17237",
    "city": "Hohenzieritz"
  },
  {
    "postcode": "17237",
    "city": "Klein Vielen"
  },
  {
    "postcode": "17237",
    "city": "Kratzeburg"
  },
  {
    "postcode": "17237",
    "city": "Möllenbeck bei Neustrelitz"
  },
  {
    "postcode": "17237",
    "city": "Prillwitz"
  },
  {
    "postcode": "17237",
    "city": "Quadenschönfeld"
  },
  {
    "postcode": "17237",
    "city": "Usadel"
  },
  {
    "postcode": "17237",
    "city": "Userin"
  },
  {
    "postcode": "17237",
    "city": "Watzkendorf"
  },
  {
    "postcode": "17237",
    "city": "Wokuhl"
  },
  {
    "postcode": "17237",
    "city": "Wokuhl-Dabelow"
  },
  {
    "postcode": "17237",
    "city": "Zippelow"
  },
  {
    "postcode": "17237",
    "city": "Mecklenburgische Seenplatte"
  },
  {
    "postcode": "17237",
    "city": "Blankensee"
  },
  {
    "postcode": "17237",
    "city": "Godendorf"
  },
  {
    "postcode": "17237",
    "city": "Grünow"
  },
  {
    "postcode": "17237",
    "city": "Möllenbeck"
  },
  {
    "postcode": "17237",
    "city": "Wanzka"
  },
  {
    "postcode": "17237",
    "city": "Rödlin"
  },
  {
    "postcode": "17237",
    "city": "Rollenhagen"
  },
  {
    "postcode": "17237",
    "city": "Neuhof"
  },
  {
    "postcode": "17237",
    "city": "Weisdin"
  },
  {
    "postcode": "17237",
    "city": "Blumenhagen"
  },
  {
    "postcode": "17237",
    "city": "Bergfeld"
  },
  {
    "postcode": "17237",
    "city": "Thurow"
  },
  {
    "postcode": "17237",
    "city": "Düsterförde"
  },
  {
    "postcode": "17237",
    "city": "Godendorfer Papiermühle"
  },
  {
    "postcode": "17237",
    "city": "Teerofen"
  },
  {
    "postcode": "17237",
    "city": "Ollendorf"
  },
  {
    "postcode": "17237",
    "city": "Hartwigsdorf"
  },
  {
    "postcode": "17237",
    "city": "Dalmsdorf"
  },
  {
    "postcode": "17237",
    "city": "Dambeck"
  },
  {
    "postcode": "17237",
    "city": "Granzin"
  },
  {
    "postcode": "17237",
    "city": "Krienke"
  },
  {
    "postcode": "17237",
    "city": "Pieverstorf"
  },
  {
    "postcode": "17237",
    "city": "Stolpe"
  },
  {
    "postcode": "17237",
    "city": "Warbende"
  },
  {
    "postcode": "17237",
    "city": "Zwenzow"
  },
  {
    "postcode": "17237",
    "city": "Comthurey"
  },
  {
    "postcode": "17237",
    "city": "Herzwolde"
  },
  {
    "postcode": "17237",
    "city": "Grammertin"
  },
  {
    "postcode": "17237",
    "city": "Wutschendorf"
  },
  {
    "postcode": "17237",
    "city": "Carolinenhof"
  },
  {
    "postcode": "17237",
    "city": "Neubrück"
  },
  {
    "postcode": "17248",
    "city": "Lärz"
  },
  {
    "postcode": "17248",
    "city": "Rechlin"
  },
  {
    "postcode": "17248",
    "city": "Zartwitz"
  },
  {
    "postcode": "17248",
    "city": "Mecklenburgische Seenplatte"
  },
  {
    "postcode": "17248",
    "city": "Alt Gaarz"
  },
  {
    "postcode": "17248",
    "city": "Ichlim"
  },
  {
    "postcode": "17248",
    "city": "Krümmel"
  },
  {
    "postcode": "17248",
    "city": "Neu Gaarz"
  },
  {
    "postcode": "17248",
    "city": "Troja"
  },
  {
    "postcode": "17248",
    "city": "Boek"
  },
  {
    "postcode": "17248",
    "city": "Retzow"
  },
  {
    "postcode": "17252",
    "city": "Blankenförde"
  },
  {
    "postcode": "17252",
    "city": "Diemitz bei Mirow"
  },
  {
    "postcode": "17252",
    "city": "Mirow Mecklenburg"
  },
  {
    "postcode": "17252",
    "city": "Mirow"
  },
  {
    "postcode": "17252",
    "city": "Roggentin bei Neustrelitz"
  },
  {
    "postcode": "17252",
    "city": "Schwarz bei Neustrelitz"
  },
  {
    "postcode": "17252",
    "city": "Starsow"
  },
  {
    "postcode": "17252",
    "city": "Mecklenburgische Seenplatte"
  },
  {
    "postcode": "17252",
    "city": "Schwarz"
  },
  {
    "postcode": "17252",
    "city": "Wesenberg"
  },
  {
    "postcode": "17252",
    "city": "Granzow"
  },
  {
    "postcode": "17252",
    "city": "Leussow"
  },
  {
    "postcode": "17252",
    "city": "Fleeth"
  },
  {
    "postcode": "17252",
    "city": "Diemitz"
  },
  {
    "postcode": "17252",
    "city": "Qualzow"
  },
  {
    "postcode": "17252",
    "city": "Babke"
  },
  {
    "postcode": "17252",
    "city": "Roggentin"
  },
  {
    "postcode": "17252",
    "city": "Schillersdorf"
  },
  {
    "postcode": "17252",
    "city": "Peetsch"
  },
  {
    "postcode": "17252",
    "city": "Diemitzer Schleuse"
  },
  {
    "postcode": "17252",
    "city": "Zirtow"
  },
  {
    "postcode": "17255",
    "city": "Canow"
  },
  {
    "postcode": "17255",
    "city": "Priepert"
  },
  {
    "postcode": "17255",
    "city": "Strasen"
  },
  {
    "postcode": "17255",
    "city": "Wesenberg Mecklenburg"
  },
  {
    "postcode": "17255",
    "city": "Wesenberg"
  },
  {
    "postcode": "17255",
    "city": "Wustrow bei Wesenberg"
  },
  {
    "postcode": "17255",
    "city": "Zirtow"
  },
  {
    "postcode": "17255",
    "city": "Mecklenburgische Seenplatte"
  },
  {
    "postcode": "17255",
    "city": "Wustrow"
  },
  {
    "postcode": "17255",
    "city": "Radensee"
  },
  {
    "postcode": "17255",
    "city": "Ahrensberg"
  },
  {
    "postcode": "17255",
    "city": "Below"
  },
  {
    "postcode": "17255",
    "city": "Klein Quassow"
  },
  {
    "postcode": "17255",
    "city": "Hartenland"
  },
  {
    "postcode": "17255",
    "city": "Pelzkuhl"
  },
  {
    "postcode": "17255",
    "city": "Drosedow"
  },
  {
    "postcode": "17255",
    "city": "Grünplan"
  },
  {
    "postcode": "17255",
    "city": "Pälitzhof"
  },
  {
    "postcode": "17255",
    "city": "Neu Canow"
  },
  {
    "postcode": "17255",
    "city": "Neu Drosedow"
  },
  {
    "postcode": "17255",
    "city": "Seewalde"
  },
  {
    "postcode": "17258",
    "city": "Beenz"
  },
  {
    "postcode": "17258",
    "city": "Cantnitz bei Neustrelitz"
  },
  {
    "postcode": "17258",
    "city": "Carwitz"
  },
  {
    "postcode": "17258",
    "city": "Feldberger Seenlandschaft"
  },
  {
    "postcode": "17258",
    "city": "Hasselförde"
  },
  {
    "postcode": "17258",
    "city": "Koldenhof"
  },
  {
    "postcode": "17258",
    "city": "Laeven"
  },
  {
    "postcode": "17258",
    "city": "Lüttenhagen"
  },
  {
    "postcode": "17258",
    "city": "Neugarten"
  },
  {
    "postcode": "17258",
    "city": "Tornowhof"
  },
  {
    "postcode": "17258",
    "city": "Triepkendorf"
  },
  {
    "postcode": "17258",
    "city": "Wrechen"
  },
  {
    "postcode": "17258",
    "city": "Mecklenburgische Seenplatte"
  },
  {
    "postcode": "17258",
    "city": "Feldberg"
  },
  {
    "postcode": "17258",
    "city": "Fürstenhagen"
  },
  {
    "postcode": "17258",
    "city": "Conow"
  },
  {
    "postcode": "17258",
    "city": "Weitendorf"
  },
  {
    "postcode": "17258",
    "city": "Lichtenberg"
  },
  {
    "postcode": "17258",
    "city": "Cantnitz"
  },
  {
    "postcode": "17258",
    "city": "Krumbeck"
  },
  {
    "postcode": "17258",
    "city": "Schönhof"
  },
  {
    "postcode": "17258",
    "city": "Waldsee"
  },
  {
    "postcode": "17258",
    "city": "Dolgen"
  },
  {
    "postcode": "17258",
    "city": "Schlicht"
  },
  {
    "postcode": "17258",
    "city": "Mechow"
  },
  {
    "postcode": "17258",
    "city": "Wittenhagen"
  },
  {
    "postcode": "17258",
    "city": "Labee"
  },
  {
    "postcode": "17258",
    "city": "Neuhof"
  },
  {
    "postcode": "17258",
    "city": "Wendorf"
  },
  {
    "postcode": "17258",
    "city": "Siedlung Dolgen"
  },
  {
    "postcode": "17258",
    "city": "Gräpkenteich"
  },
  {
    "postcode": "17258",
    "city": "Gnewitz"
  },
  {
    "postcode": "17259",
    "city": "Feldberger Seenlandschaft"
  },
  {
    "postcode": "17268",
    "city": "Berkholz bei Prenzlau"
  },
  {
    "postcode": "17268",
    "city": "Beutel"
  },
  {
    "postcode": "17268",
    "city": "Boitzenburg"
  },
  {
    "postcode": "17268",
    "city": "Boitzenburger Land"
  },
  {
    "postcode": "17268",
    "city": "Buchenhain bei Templin"
  },
  {
    "postcode": "17268",
    "city": "Densow"
  },
  {
    "postcode": "17268",
    "city": "Flieth"
  },
  {
    "postcode": "17268",
    "city": "Flieth-Stegelitz"
  },
  {
    "postcode": "17268",
    "city": "Friedenfelde"
  },
  {
    "postcode": "17268",
    "city": "Funkenhagen"
  },
  {
    "postcode": "17268",
    "city": "Gandenitz"
  },
  {
    "postcode": "17268",
    "city": "Gerswalde"
  },
  {
    "postcode": "17268",
    "city": "Gollin"
  },
  {
    "postcode": "17268",
    "city": "Groß Dölln"
  },
  {
    "postcode": "17268",
    "city": "Groß Fredenwalde"
  },
  {
    "postcode": "17268",
    "city": "Groß Kölpin"
  },
  {
    "postcode": "17268",
    "city": "Grunewald Uckermark"
  },
  {
    "postcode": "17268",
    "city": "Grunewald"
  },
  {
    "postcode": "17268",
    "city": "Hammelspring"
  },
  {
    "postcode": "17268",
    "city": "Hardenbeck"
  },
  {
    "postcode": "17268",
    "city": "Haßleben bei Prenzlau"
  },
  {
    "postcode": "17268",
    "city": "Herzfelde bei Templin"
  },
  {
    "postcode": "17268",
    "city": "Jakobshagen"
  },
  {
    "postcode": "17268",
    "city": "Kaakstedt"
  },
  {
    "postcode": "17268",
    "city": "Klaushagen"
  },
  {
    "postcode": "17268",
    "city": "Klosterwalde"
  },
  {
    "postcode": "17268",
    "city": "Krohnhorst"
  },
  {
    "postcode": "17268",
    "city": "Milmersdorf"
  },
  {
    "postcode": "17268",
    "city": "Mittenwalde bei Templin"
  },
  {
    "postcode": "17268",
    "city": "Petznick"
  },
  {
    "postcode": "17268",
    "city": "Ringenwalde bei Templin"
  },
  {
    "postcode": "17268",
    "city": "Röddelin"
  },
  {
    "postcode": "17268",
    "city": "Stegelitz bei Templin"
  },
  {
    "postcode": "17268",
    "city": "Storkow bei Templin"
  },
  {
    "postcode": "17268",
    "city": "Temmen"
  },
  {
    "postcode": "17268",
    "city": "Temmen-Ringenwalde"
  },
  {
    "postcode": "17268",
    "city": "Templin"
  },
  {
    "postcode": "17268",
    "city": "Vietmannsdorf"
  },
  {
    "postcode": "17268",
    "city": "Warthe bei Templin"
  },
  {
    "postcode": "17268",
    "city": "Wichmannsdorf Uckermark"
  },
  {
    "postcode": "17268",
    "city": "Wichmannsdorf"
  },
  {
    "postcode": "17268",
    "city": "Uckermark"
  },
  {
    "postcode": "17268",
    "city": "Friedrichswalde"
  },
  {
    "postcode": "17268",
    "city": "Mittenwalde"
  },
  {
    "postcode": "17268",
    "city": "Haßleben"
  },
  {
    "postcode": "17268",
    "city": "Berkholz"
  },
  {
    "postcode": "17268",
    "city": "Warthe"
  },
  {
    "postcode": "17268",
    "city": "Boisterfelde"
  },
  {
    "postcode": "17268",
    "city": "Buchenhain"
  },
  {
    "postcode": "17268",
    "city": "Egarsee"
  },
  {
    "postcode": "17268",
    "city": "Fürstenau"
  },
  {
    "postcode": "17268",
    "city": "Götzkendorf"
  },
  {
    "postcode": "17268",
    "city": "Kuhz"
  },
  {
    "postcode": "17268",
    "city": "Karolinenhof"
  },
  {
    "postcode": "17268",
    "city": "Rosenow"
  },
  {
    "postcode": "17268",
    "city": "Mathildenhof"
  },
  {
    "postcode": "17268",
    "city": "Mellenau"
  },
  {
    "postcode": "17268",
    "city": "Thomsdorf"
  },
  {
    "postcode": "17268",
    "city": "Steinrode"
  },
  {
    "postcode": "17268",
    "city": "Ahlimbsmühle"
  },
  {
    "postcode": "17268",
    "city": "Blankensee"
  },
  {
    "postcode": "17268",
    "city": "Ahrensdorf"
  },
  {
    "postcode": "17268",
    "city": "Hindenburg"
  },
  {
    "postcode": "17268",
    "city": "Herzfelde"
  },
  {
    "postcode": "17268",
    "city": "Storkow"
  },
  {
    "postcode": "17279",
    "city": "Lychen"
  },
  {
    "postcode": "17279",
    "city": "Retzow"
  },
  {
    "postcode": "17279",
    "city": "Rutenberg"
  },
  {
    "postcode": "17279",
    "city": "Uckermark"
  },
  {
    "postcode": "17279",
    "city": "Beenz"
  },
  {
    "postcode": "17279",
    "city": "Küstrinchen"
  },
  {
    "postcode": "17279",
    "city": "Tangersdorf"
  },
  {
    "postcode": "17279",
    "city": "Türkshof"
  },
  {
    "postcode": "17291",
    "city": "Arendsee"
  },
  {
    "postcode": "17291",
    "city": "Beenz bei Prenzlau"
  },
  {
    "postcode": "17291",
    "city": "Berkholz bei Prenzlau"
  },
  {
    "postcode": "17291",
    "city": "Bertikow"
  },
  {
    "postcode": "17291",
    "city": "Bietikow"
  },
  {
    "postcode": "17291",
    "city": "Blankenburg bei Prenzlau"
  },
  {
    "postcode": "17291",
    "city": "Blindow"
  },
  {
    "postcode": "17291",
    "city": "Boitzenburger Land"
  },
  {
    "postcode": "17291",
    "city": "Carmzow"
  },
  {
    "postcode": "17291",
    "city": "Carmzow-Wallmow"
  },
  {
    "postcode": "17291",
    "city": "Damme bei Prenzlau"
  },
  {
    "postcode": "17291",
    "city": "Dauer"
  },
  {
    "postcode": "17291",
    "city": "Dedelow"
  },
  {
    "postcode": "17291",
    "city": "Drense"
  },
  {
    "postcode": "17291",
    "city": "Eickstedt"
  },
  {
    "postcode": "17291",
    "city": "Falkenhagen"
  },
  {
    "postcode": "17291",
    "city": "Falkenwalde"
  },
  {
    "postcode": "17291",
    "city": "Ferdinandshorst"
  },
  {
    "postcode": "17291",
    "city": "Fürstenwerder"
  },
  {
    "postcode": "17291",
    "city": "Gollmitz"
  },
  {
    "postcode": "17291",
    "city": "Göritz bei Prenzlau"
  },
  {
    "postcode": "17291",
    "city": "Gramzow Uckermark"
  },
  {
    "postcode": "17291",
    "city": "Gramzow"
  },
  {
    "postcode": "17291",
    "city": "Grenz"
  },
  {
    "postcode": "17291",
    "city": "Grünow bei Prenzlau"
  },
  {
    "postcode": "17291",
    "city": "Güstow Uckermark"
  },
  {
    "postcode": "17291",
    "city": "Güstow"
  },
  {
    "postcode": "17291",
    "city": "Haßleben bei Prenzlau"
  },
  {
    "postcode": "17291",
    "city": "Hohengüstow"
  },
  {
    "postcode": "17291",
    "city": "Holzendorf"
  },
  {
    "postcode": "17291",
    "city": "Klinkow"
  },
  {
    "postcode": "17291",
    "city": "Kraatz"
  },
  {
    "postcode": "17291",
    "city": "Ludwigsburg bei Prenzlau"
  },
  {
    "postcode": "17291",
    "city": "Lützlow"
  },
  {
    "postcode": "17291",
    "city": "Meichow"
  },
  {
    "postcode": "17291",
    "city": "Naugarten"
  },
  {
    "postcode": "17291",
    "city": "Nordwestuckermark"
  },
  {
    "postcode": "17291",
    "city": "Oberuckersee"
  },
  {
    "postcode": "17291",
    "city": "Parmen-Weggun"
  },
  {
    "postcode": "17291",
    "city": "Polßen"
  },
  {
    "postcode": "17291",
    "city": "Potzlow"
  },
  {
    "postcode": "17291",
    "city": "Prenzlau"
  },
  {
    "postcode": "17291",
    "city": "Randowtal"
  },
  {
    "postcode": "17291",
    "city": "Röpersdorf"
  },
  {
    "postcode": "17291",
    "city": "Röpersdorf / Sternhagen"
  },
  {
    "postcode": "17291",
    "city": "Schapow"
  },
  {
    "postcode": "17291",
    "city": "Schenkenberg bei Prenzlau"
  },
  {
    "postcode": "17291",
    "city": "Schmölln bei Prenzlau"
  },
  {
    "postcode": "17291",
    "city": "Schönermark bei Prenzlau"
  },
  {
    "postcode": "17291",
    "city": "Schönfeld bei Prenzlau"
  },
  {
    "postcode": "17291",
    "city": "Schönwerder"
  },
  {
    "postcode": "17291",
    "city": "Seehausen bei Prenzlau"
  },
  {
    "postcode": "17291",
    "city": "Seelübbe"
  },
  {
    "postcode": "17291",
    "city": "Sternhagen"
  },
  {
    "postcode": "17291",
    "city": "Uckerfelde"
  },
  {
    "postcode": "17291",
    "city": "Wallmow"
  },
  {
    "postcode": "17291",
    "city": "Warnitz Uckermark"
  },
  {
    "postcode": "17291",
    "city": "Warnitz"
  },
  {
    "postcode": "17291",
    "city": "Weggun"
  },
  {
    "postcode": "17291",
    "city": "Wichmannsdorf Uckermark"
  },
  {
    "postcode": "17291",
    "city": "Wichmannsdorf"
  },
  {
    "postcode": "17291",
    "city": "Ziemkendorf"
  },
  {
    "postcode": "17291",
    "city": "Uckermark"
  },
  {
    "postcode": "17291",
    "city": "Göritz"
  },
  {
    "postcode": "17291",
    "city": "Grünow"
  },
  {
    "postcode": "17291",
    "city": "Schönfeld"
  },
  {
    "postcode": "17291",
    "city": "Schenkenberg"
  },
  {
    "postcode": "17291",
    "city": "Malchow"
  },
  {
    "postcode": "17291",
    "city": "Tornow"
  },
  {
    "postcode": "17291",
    "city": "Zehnebeck"
  },
  {
    "postcode": "17291",
    "city": "Neumeichow"
  },
  {
    "postcode": "17291",
    "city": "Neumeichow/Ausbau"
  },
  {
    "postcode": "17291",
    "city": "Karlshof"
  },
  {
    "postcode": "17291",
    "city": "Damme"
  },
  {
    "postcode": "17291",
    "city": "Dreesch"
  },
  {
    "postcode": "17291",
    "city": "Mönchehof"
  },
  {
    "postcode": "17291",
    "city": "Augustfelde"
  },
  {
    "postcode": "17291",
    "city": "Rittgarten"
  },
  {
    "postcode": "17291",
    "city": "Schönermark"
  },
  {
    "postcode": "17291",
    "city": "Groß Sperrenwalde"
  },
  {
    "postcode": "17291",
    "city": "Bülowssiege"
  },
  {
    "postcode": "17291",
    "city": "Wittstock"
  },
  {
    "postcode": "17291",
    "city": "Klein Sperrenwalde"
  },
  {
    "postcode": "17291",
    "city": "Warbende"
  },
  {
    "postcode": "17291",
    "city": "Wilhelmshof"
  },
  {
    "postcode": "17291",
    "city": "Parmen"
  },
  {
    "postcode": "17291",
    "city": "Fibigershof"
  },
  {
    "postcode": "17291",
    "city": "Kröchlendorff"
  },
  {
    "postcode": "17291",
    "city": "Lindenhagen"
  },
  {
    "postcode": "17291",
    "city": "Zollchow"
  },
  {
    "postcode": "17291",
    "city": "Raakow"
  },
  {
    "postcode": "17291",
    "city": "Wilhelmshayn"
  },
  {
    "postcode": "17291",
    "city": "Beenz"
  },
  {
    "postcode": "17291",
    "city": "Schmachtenhagen"
  },
  {
    "postcode": "17291",
    "city": "Horst"
  },
  {
    "postcode": "17291",
    "city": "Zernikow"
  },
  {
    "postcode": "17291",
    "city": "Ferdinandshof"
  },
  {
    "postcode": "17291",
    "city": "Christianenhof"
  },
  {
    "postcode": "17291",
    "city": "Damerow"
  },
  {
    "postcode": "17291",
    "city": "Schulzenhof"
  },
  {
    "postcode": "17291",
    "city": "Blankenburg"
  },
  {
    "postcode": "17291",
    "city": "Seehausen"
  },
  {
    "postcode": "17291",
    "city": "Grünheide"
  },
  {
    "postcode": "17291",
    "city": "Strehlow"
  },
  {
    "postcode": "17291",
    "city": "Melzow"
  },
  {
    "postcode": "17291",
    "city": "Alexanderhof"
  },
  {
    "postcode": "17291",
    "city": "Basedow"
  },
  {
    "postcode": "17291",
    "city": "Augustenfelde"
  },
  {
    "postcode": "17291",
    "city": "Bündigershof"
  },
  {
    "postcode": "17291",
    "city": "Dreyershof"
  },
  {
    "postcode": "17291",
    "city": "Ellingen"
  },
  {
    "postcode": "17291",
    "city": "Ewaldshof"
  },
  {
    "postcode": "17291",
    "city": "Magnushof"
  },
  {
    "postcode": "17291",
    "city": "Stegemannshof"
  },
  {
    "postcode": "17291",
    "city": "Steinfurth"
  },
  {
    "postcode": "17291",
    "city": "Wollenthin"
  },
  {
    "postcode": "17291",
    "city": "Mühlhof"
  },
  {
    "postcode": "17291",
    "city": "Schmölln"
  },
  {
    "postcode": "17291",
    "city": "Wollin"
  },
  {
    "postcode": "17291",
    "city": "Klockow"
  },
  {
    "postcode": "17291",
    "city": "Neuenfeld"
  },
  {
    "postcode": "17291",
    "city": "Kleinow"
  },
  {
    "postcode": "17291",
    "city": "Neu-Kleinow"
  },
  {
    "postcode": "17291",
    "city": "Weselitz"
  },
  {
    "postcode": "17309",
    "city": "Belling"
  },
  {
    "postcode": "17309",
    "city": "Brietzig"
  },
  {
    "postcode": "17309",
    "city": "Bröllin"
  },
  {
    "postcode": "17309",
    "city": "Damerow bei Pasewalk"
  },
  {
    "postcode": "17309",
    "city": "Dargitz"
  },
  {
    "postcode": "17309",
    "city": "Fahrenwalde"
  },
  {
    "postcode": "17309",
    "city": "Jatznick"
  },
  {
    "postcode": "17309",
    "city": "Koblentz"
  },
  {
    "postcode": "17309",
    "city": "Krugsdorf"
  },
  {
    "postcode": "17309",
    "city": "Marienthal Vorpommern"
  },
  {
    "postcode": "17309",
    "city": "Marienthal"
  },
  {
    "postcode": "17309",
    "city": "Nechlin"
  },
  {
    "postcode": "17309",
    "city": "Nieden"
  },
  {
    "postcode": "17309",
    "city": "Papendorf bei Pasewalk"
  },
  {
    "postcode": "17309",
    "city": "Pasewalk"
  },
  {
    "postcode": "17309",
    "city": "Polzow Vorpommern"
  },
  {
    "postcode": "17309",
    "city": "Polzow"
  },
  {
    "postcode": "17309",
    "city": "Rollwitz"
  },
  {
    "postcode": "17309",
    "city": "Sandförde"
  },
  {
    "postcode": "17309",
    "city": "Schönwalde Vorpommern"
  },
  {
    "postcode": "17309",
    "city": "Schönwalde"
  },
  {
    "postcode": "17309",
    "city": "Stolzenburg"
  },
  {
    "postcode": "17309",
    "city": "Viereck"
  },
  {
    "postcode": "17309",
    "city": "Waldeshöhe"
  },
  {
    "postcode": "17309",
    "city": "Zerrenthin"
  },
  {
    "postcode": "17309",
    "city": "Züsedom"
  },
  {
    "postcode": "17309",
    "city": "Vorpommern-Greifswald"
  },
  {
    "postcode": "17309",
    "city": "Papendorf"
  },
  {
    "postcode": "17309",
    "city": "Starkshof"
  },
  {
    "postcode": "17309",
    "city": "Broellin"
  },
  {
    "postcode": "17309",
    "city": "Friedrichshof"
  },
  {
    "postcode": "17309",
    "city": "Karlsruh"
  },
  {
    "postcode": "17309",
    "city": "Am Bahnhof"
  },
  {
    "postcode": "17309",
    "city": "Groß Spiegelberg"
  },
  {
    "postcode": "17309",
    "city": "Blumenhagen"
  },
  {
    "postcode": "17309",
    "city": "Klein Luckow"
  },
  {
    "postcode": "17309",
    "city": "Breitenstein"
  },
  {
    "postcode": "17309",
    "city": "Peterswalde"
  },
  {
    "postcode": "17309",
    "city": "Rothenburg"
  },
  {
    "postcode": "17309",
    "city": "Franzfelde"
  },
  {
    "postcode": "17309",
    "city": "Friedberg"
  },
  {
    "postcode": "17309",
    "city": "Gehege"
  },
  {
    "postcode": "17309",
    "city": "Marienhof"
  },
  {
    "postcode": "17309",
    "city": "Papenbeck"
  },
  {
    "postcode": "17309",
    "city": "Steinbrink"
  },
  {
    "postcode": "17309",
    "city": "Stiftshof"
  },
  {
    "postcode": "17309",
    "city": "Neu Polzow"
  },
  {
    "postcode": "17309",
    "city": "Roggow"
  },
  {
    "postcode": "17309",
    "city": "Schmarsow"
  },
  {
    "postcode": "17309",
    "city": "Damerow"
  },
  {
    "postcode": "17309",
    "city": "Sandkrug"
  },
  {
    "postcode": "17309",
    "city": "Borken"
  },
  {
    "postcode": "17309",
    "city": "Uhlenkrug"
  },
  {
    "postcode": "17309",
    "city": "Ernst-Thälmann-Siedlung"
  },
  {
    "postcode": "17309",
    "city": "Stallberg"
  },
  {
    "postcode": "17309",
    "city": "Rödershorst"
  },
  {
    "postcode": "17309",
    "city": "Riesenbrück"
  },
  {
    "postcode": "17309",
    "city": "Waldfrieden"
  },
  {
    "postcode": "17321",
    "city": "Bergholz bei Pasewalk"
  },
  {
    "postcode": "17321",
    "city": "Caselow"
  },
  {
    "postcode": "17321",
    "city": "Glashütte bei Pasewalk"
  },
  {
    "postcode": "17321",
    "city": "Gorkow"
  },
  {
    "postcode": "17321",
    "city": "Grambow bei Pasewalk"
  },
  {
    "postcode": "17321",
    "city": "Löcknitz Vorpommern"
  },
  {
    "postcode": "17321",
    "city": "Löcknitz"
  },
  {
    "postcode": "17321",
    "city": "Plöwen"
  },
  {
    "postcode": "17321",
    "city": "Ramin"
  },
  {
    "postcode": "17321",
    "city": "Rossow bei Pasewalk"
  },
  {
    "postcode": "17321",
    "city": "Rothenklempenow"
  },
  {
    "postcode": "17321",
    "city": "Vorpommern-Greifswald"
  },
  {
    "postcode": "17321",
    "city": "Bergholz"
  },
  {
    "postcode": "17321",
    "city": "Wilhelmshof"
  },
  {
    "postcode": "17321",
    "city": "Bismark"
  },
  {
    "postcode": "17321",
    "city": "Retzin"
  },
  {
    "postcode": "17321",
    "city": "Gellin"
  },
  {
    "postcode": "17321",
    "city": "Hohenfelde"
  },
  {
    "postcode": "17321",
    "city": "Linken"
  },
  {
    "postcode": "17321",
    "city": "Schmagerow"
  },
  {
    "postcode": "17321",
    "city": "Mewegen"
  },
  {
    "postcode": "17321",
    "city": "Glashütte"
  },
  {
    "postcode": "17321",
    "city": "Dorotheenwalde"
  },
  {
    "postcode": "17321",
    "city": "Grünhof"
  },
  {
    "postcode": "17322",
    "city": "Bismark bei Pasewalk"
  },
  {
    "postcode": "17322",
    "city": "Blankensee Vorpommern"
  },
  {
    "postcode": "17322",
    "city": "Blankensee"
  },
  {
    "postcode": "17322",
    "city": "Boock Vorpommern"
  },
  {
    "postcode": "17322",
    "city": "Boock"
  },
  {
    "postcode": "17322",
    "city": "Glasow Vorpommern"
  },
  {
    "postcode": "17322",
    "city": "Glasow"
  },
  {
    "postcode": "17322",
    "city": "Grambow bei Pasewalk"
  },
  {
    "postcode": "17322",
    "city": "Krackow"
  },
  {
    "postcode": "17322",
    "city": "Lebehn"
  },
  {
    "postcode": "17322",
    "city": "Mewegen bei Pasewalk"
  },
  {
    "postcode": "17322",
    "city": "Pampow bei Pasewalk"
  },
  {
    "postcode": "17322",
    "city": "Ramin"
  },
  {
    "postcode": "17322",
    "city": "Rossow bei Pasewalk"
  },
  {
    "postcode": "17322",
    "city": "Schwennenz"
  },
  {
    "postcode": "17322",
    "city": "Wetzenow"
  },
  {
    "postcode": "17322",
    "city": "Vorpommern-Greifswald"
  },
  {
    "postcode": "17322",
    "city": "Grambow"
  },
  {
    "postcode": "17322",
    "city": "Rossow"
  },
  {
    "postcode": "17322",
    "city": "Freienstein"
  },
  {
    "postcode": "17322",
    "city": "Pampow"
  },
  {
    "postcode": "17322",
    "city": "Streithof"
  },
  {
    "postcode": "17322",
    "city": "Neu-Grambow"
  },
  {
    "postcode": "17322",
    "city": "Sonnenberg"
  },
  {
    "postcode": "17322",
    "city": "Ladenthin"
  },
  {
    "postcode": "17322",
    "city": "Kyritz"
  },
  {
    "postcode": "17326",
    "city": "Bagemühl"
  },
  {
    "postcode": "17326",
    "city": "Brüssow Uckermark"
  },
  {
    "postcode": "17326",
    "city": "Brüssow"
  },
  {
    "postcode": "17326",
    "city": "Grünberg bei Pasewalk"
  },
  {
    "postcode": "17326",
    "city": "Menkin"
  },
  {
    "postcode": "17326",
    "city": "Woddow"
  },
  {
    "postcode": "17326",
    "city": "Wollschow"
  },
  {
    "postcode": "17326",
    "city": "Uckermark"
  },
  {
    "postcode": "17326",
    "city": "Grünberg"
  },
  {
    "postcode": "17328",
    "city": "Büssow"
  },
  {
    "postcode": "17328",
    "city": "Friedefeld"
  },
  {
    "postcode": "17328",
    "city": "Krackow"
  },
  {
    "postcode": "17328",
    "city": "Penkun"
  },
  {
    "postcode": "17328",
    "city": "Wollin Vorpommern"
  },
  {
    "postcode": "17328",
    "city": "Wollin"
  },
  {
    "postcode": "17328",
    "city": "Vorpommern-Greifswald"
  },
  {
    "postcode": "17328",
    "city": "Battinsthal"
  },
  {
    "postcode": "17328",
    "city": "Schuckmannshöhe"
  },
  {
    "postcode": "17328",
    "city": "Sommersdorf"
  },
  {
    "postcode": "17328",
    "city": "Grünz"
  },
  {
    "postcode": "17328",
    "city": "Radewitz"
  },
  {
    "postcode": "17328",
    "city": "Neuhof"
  },
  {
    "postcode": "17329",
    "city": "Krackow"
  },
  {
    "postcode": "17329",
    "city": "Ladenthin"
  },
  {
    "postcode": "17329",
    "city": "Nadrensee"
  },
  {
    "postcode": "17329",
    "city": "Pomellen"
  },
  {
    "postcode": "17329",
    "city": "Vorpommern-Greifswald"
  },
  {
    "postcode": "17329",
    "city": "Grambow"
  },
  {
    "postcode": "17329",
    "city": "Battinsthal"
  },
  {
    "postcode": "17329",
    "city": "Hohenholz"
  },
  {
    "postcode": "17335",
    "city": "Güterberg"
  },
  {
    "postcode": "17335",
    "city": "Neuensund"
  },
  {
    "postcode": "17335",
    "city": "Strasburg"
  },
  {
    "postcode": "17335",
    "city": "Strasburg (Uckermark)"
  },
  {
    "postcode": "17335",
    "city": "Wismar bei Strasburg"
  },
  {
    "postcode": "17335",
    "city": "Wolfshagen bei Strasburg"
  },
  {
    "postcode": "17335",
    "city": "Vorpommern-Greifswald"
  },
  {
    "postcode": "17335",
    "city": "Boldshof"
  },
  {
    "postcode": "17335",
    "city": "Gehren"
  },
  {
    "postcode": "17335",
    "city": "Glantzhof"
  },
  {
    "postcode": "17335",
    "city": "Köhnshof"
  },
  {
    "postcode": "17335",
    "city": "Karlsburg"
  },
  {
    "postcode": "17335",
    "city": "Karlsfelde"
  },
  {
    "postcode": "17335",
    "city": "Lauenhagen"
  },
  {
    "postcode": "17335",
    "city": "Linchenshöh"
  },
  {
    "postcode": "17335",
    "city": "Louisenfelde"
  },
  {
    "postcode": "17335",
    "city": "Ludwigsthal"
  },
  {
    "postcode": "17335",
    "city": "Luisenburg"
  },
  {
    "postcode": "17335",
    "city": "Marienfelde"
  },
  {
    "postcode": "17335",
    "city": "Muchowshof"
  },
  {
    "postcode": "17335",
    "city": "Ottilienau"
  },
  {
    "postcode": "17335",
    "city": "Ravensmühle"
  },
  {
    "postcode": "17335",
    "city": "Rosenthal"
  },
  {
    "postcode": "17335",
    "city": "Schönburg"
  },
  {
    "postcode": "17335",
    "city": "Schneidershof"
  },
  {
    "postcode": "17335",
    "city": "Schwarzensee"
  },
  {
    "postcode": "17335",
    "city": "Wilhelmsburg"
  },
  {
    "postcode": "17335",
    "city": "Wilhelmslust"
  },
  {
    "postcode": "17337",
    "city": "Blumenhagen bei Strasburg"
  },
  {
    "postcode": "17337",
    "city": "Fahrenholz bei Strasburg"
  },
  {
    "postcode": "17337",
    "city": "Galenbeck bei Schönhausen Mecklenburg"
  },
  {
    "postcode": "17337",
    "city": "Galenbeck bei Schönhausen"
  },
  {
    "postcode": "17337",
    "city": "Groß Luckow"
  },
  {
    "postcode": "17337",
    "city": "Güterberg"
  },
  {
    "postcode": "17337",
    "city": "Hetzdorf bei Strasburg"
  },
  {
    "postcode": "17337",
    "city": "Jagow"
  },
  {
    "postcode": "17337",
    "city": "Klein Luckow bei Strasburg"
  },
  {
    "postcode": "17337",
    "city": "Lübbenow"
  },
  {
    "postcode": "17337",
    "city": "Milow bei Strasburg"
  },
  {
    "postcode": "17337",
    "city": "Nechlin"
  },
  {
    "postcode": "17337",
    "city": "Schönhausen Mecklenburg"
  },
  {
    "postcode": "17337",
    "city": "Schönhausen"
  },
  {
    "postcode": "17337",
    "city": "Trebenow"
  },
  {
    "postcode": "17337",
    "city": "Uckerland"
  },
  {
    "postcode": "17337",
    "city": "Wilsickow"
  },
  {
    "postcode": "17337",
    "city": "Wismar bei Strasburg"
  },
  {
    "postcode": "17337",
    "city": "Wolfshagen bei Strasburg"
  },
  {
    "postcode": "17337",
    "city": "Mecklenburgische Seenplatte"
  },
  {
    "postcode": "17337",
    "city": "Wolfshagen"
  },
  {
    "postcode": "17337",
    "city": "Amalienhof"
  },
  {
    "postcode": "17337",
    "city": "Bandelow"
  },
  {
    "postcode": "17337",
    "city": "Dolgen"
  },
  {
    "postcode": "17337",
    "city": "Fahrenholz"
  },
  {
    "postcode": "17337",
    "city": "Gneisenau"
  },
  {
    "postcode": "17337",
    "city": "Wismar"
  },
  {
    "postcode": "17337",
    "city": "Hetzdorf"
  },
  {
    "postcode": "17337",
    "city": "Jahnkeshof"
  },
  {
    "postcode": "17337",
    "city": "Karlstein"
  },
  {
    "postcode": "17337",
    "city": "Kleisthöhe"
  },
  {
    "postcode": "17337",
    "city": "Kutzerow"
  },
  {
    "postcode": "17337",
    "city": "Lauenhof"
  },
  {
    "postcode": "17337",
    "city": "Lemmersdorf"
  },
  {
    "postcode": "17337",
    "city": "Lindhorst"
  },
  {
    "postcode": "17337",
    "city": "Milow"
  },
  {
    "postcode": "17337",
    "city": "Neumannshof"
  },
  {
    "postcode": "17337",
    "city": "Ottenhagen"
  },
  {
    "postcode": "17337",
    "city": "Schlepkow"
  },
  {
    "postcode": "17337",
    "city": "Taschenberg"
  },
  {
    "postcode": "17337",
    "city": "Uhlenhof"
  },
  {
    "postcode": "17337",
    "city": "Werbelow"
  },
  {
    "postcode": "17348",
    "city": "Georginenau"
  },
  {
    "postcode": "17348",
    "city": "Grauenhagen"
  },
  {
    "postcode": "17348",
    "city": "Groß Daberkow"
  },
  {
    "postcode": "17348",
    "city": "Lindetal"
  },
  {
    "postcode": "17348",
    "city": "Mildenitz"
  },
  {
    "postcode": "17348",
    "city": "Neu Käbelich"
  },
  {
    "postcode": "17348",
    "city": "Petersdorf bei Strasburg"
  },
  {
    "postcode": "17348",
    "city": "Woldegk"
  },
  {
    "postcode": "17348",
    "city": "Mecklenburgische Seenplatte"
  },
  {
    "postcode": "17348",
    "city": "Rehberg"
  },
  {
    "postcode": "17348",
    "city": "Bredenfelde"
  },
  {
    "postcode": "17348",
    "city": "Hinrichshagen"
  },
  {
    "postcode": "17348",
    "city": "Göhren"
  },
  {
    "postcode": "17348",
    "city": "Hildebrandshagen"
  },
  {
    "postcode": "17348",
    "city": "Helpt"
  },
  {
    "postcode": "17348",
    "city": "Oertzenhof"
  },
  {
    "postcode": "17348",
    "city": "Oltschlott"
  },
  {
    "postcode": "17348",
    "city": "Pasenow"
  },
  {
    "postcode": "17349",
    "city": "Alt Käbelich"
  },
  {
    "postcode": "17349",
    "city": "Badresch"
  },
  {
    "postcode": "17349",
    "city": "Ballin"
  },
  {
    "postcode": "17349",
    "city": "Groß Miltzow bei Oertzenhof"
  },
  {
    "postcode": "17349",
    "city": "Helpt"
  },
  {
    "postcode": "17349",
    "city": "Kublank"
  },
  {
    "postcode": "17349",
    "city": "Lindetal"
  },
  {
    "postcode": "17349",
    "city": "Neetzka"
  },
  {
    "postcode": "17349",
    "city": "Plath"
  },
  {
    "postcode": "17349",
    "city": "Schönbeck Mecklenburg"
  },
  {
    "postcode": "17349",
    "city": "Schönbeck"
  },
  {
    "postcode": "17349",
    "city": "Voigtsdorf bei Strasburg"
  },
  {
    "postcode": "17349",
    "city": "Mecklenburgische Seenplatte"
  },
  {
    "postcode": "17349",
    "city": "Groß Miltzow"
  },
  {
    "postcode": "17349",
    "city": "Voigtsdorf"
  },
  {
    "postcode": "17349",
    "city": "Golm"
  },
  {
    "postcode": "17349",
    "city": "Holzendorf"
  },
  {
    "postcode": "17349",
    "city": "Klein Daberkow"
  },
  {
    "postcode": "17349",
    "city": "Leppin"
  },
  {
    "postcode": "17349",
    "city": "Dewitz"
  },
  {
    "postcode": "17349",
    "city": "Marienhof"
  },
  {
    "postcode": "17349",
    "city": "Rosenhagen"
  },
  {
    "postcode": "17358",
    "city": "Hammer an der Uecker"
  },
  {
    "postcode": "17358",
    "city": "Torgelow"
  },
  {
    "postcode": "17358",
    "city": "Torgelow-Holländerei"
  },
  {
    "postcode": "17358",
    "city": "Vorpommern-Greifswald"
  },
  {
    "postcode": "17358",
    "city": "Hammer a.d. Uecker"
  },
  {
    "postcode": "17358",
    "city": "Liepe"
  },
  {
    "postcode": "17358",
    "city": "Hammer"
  },
  {
    "postcode": "17358",
    "city": "Heinrichsruh"
  },
  {
    "postcode": "17358",
    "city": "Drögeheide"
  },
  {
    "postcode": "17358",
    "city": "Müggenburg"
  },
  {
    "postcode": "17367",
    "city": "Eggesin"
  },
  {
    "postcode": "17367",
    "city": "Vorpommern-Greifswald"
  },
  {
    "postcode": "17373",
    "city": "Ueckermünde"
  },
  {
    "postcode": "17373",
    "city": "Vorpommern-Greifswald"
  },
  {
    "postcode": "17373",
    "city": "Bellin"
  },
  {
    "postcode": "17373",
    "city": "Berndshof"
  },
  {
    "postcode": "17375",
    "city": "Ahlbeck"
  },
  {
    "postcode": "17375",
    "city": "Altwarp"
  },
  {
    "postcode": "17375",
    "city": "Grambin"
  },
  {
    "postcode": "17375",
    "city": "Hintersee bei Ueckermünde"
  },
  {
    "postcode": "17375",
    "city": "Leopoldshagen"
  },
  {
    "postcode": "17375",
    "city": "Liepgarten"
  },
  {
    "postcode": "17375",
    "city": "Luckow bei Torgelow"
  },
  {
    "postcode": "17375",
    "city": "Meiersberg bei Ueckermünde"
  },
  {
    "postcode": "17375",
    "city": "Mönkebude"
  },
  {
    "postcode": "17375",
    "city": "Vogelsang-Warsin"
  },
  {
    "postcode": "17375",
    "city": "Warsin"
  },
  {
    "postcode": "17375",
    "city": "Vorpommern-Greifswald"
  },
  {
    "postcode": "17375",
    "city": "Eggesin"
  },
  {
    "postcode": "17375",
    "city": "Hintersee"
  },
  {
    "postcode": "17375",
    "city": "Hoppenwalde"
  },
  {
    "postcode": "17375",
    "city": "Luckow"
  },
  {
    "postcode": "17375",
    "city": "Meiersberg"
  },
  {
    "postcode": "17375",
    "city": "Rieth"
  },
  {
    "postcode": "17375",
    "city": "Gegensee"
  },
  {
    "postcode": "17375",
    "city": "Ludwigshof"
  },
  {
    "postcode": "17375",
    "city": "Vogelsang"
  },
  {
    "postcode": "17379",
    "city": "Altwigshagen"
  },
  {
    "postcode": "17379",
    "city": "Ferdinandshof Vorpommern"
  },
  {
    "postcode": "17379",
    "city": "Ferdinandshof"
  },
  {
    "postcode": "17379",
    "city": "Heinrichsruh Vorpommern"
  },
  {
    "postcode": "17379",
    "city": "Heinrichsruh"
  },
  {
    "postcode": "17379",
    "city": "Heinrichswalde bei Torgelow"
  },
  {
    "postcode": "17379",
    "city": "Lübs bei Torgelow"
  },
  {
    "postcode": "17379",
    "city": "Mariawerth"
  },
  {
    "postcode": "17379",
    "city": "Millnitz"
  },
  {
    "postcode": "17379",
    "city": "Neuendorf A bei Torgelow Vorpommern"
  },
  {
    "postcode": "17379",
    "city": "Neuendorf A bei Torgelow"
  },
  {
    "postcode": "17379",
    "city": "Rothemühl"
  },
  {
    "postcode": "17379",
    "city": "Sprengersfelde"
  },
  {
    "postcode": "17379",
    "city": "Wietstock bei Torgelow"
  },
  {
    "postcode": "17379",
    "city": "Wilhelmsburg Vorpommern"
  },
  {
    "postcode": "17379",
    "city": "Wilhelmsburg"
  },
  {
    "postcode": "17379",
    "city": "Vorpommern-Greifswald"
  },
  {
    "postcode": "17379",
    "city": "Heinrichswalde"
  },
  {
    "postcode": "17379",
    "city": "Lübs"
  },
  {
    "postcode": "17379",
    "city": "Demnitz"
  },
  {
    "postcode": "17379",
    "city": "Borckenfriede"
  },
  {
    "postcode": "17379",
    "city": "Charlottenhorst"
  },
  {
    "postcode": "17379",
    "city": "Wietstock"
  },
  {
    "postcode": "17379",
    "city": "Finkenbrück"
  },
  {
    "postcode": "17379",
    "city": "Aschersleben"
  },
  {
    "postcode": "17379",
    "city": "Blumenthal"
  },
  {
    "postcode": "17379",
    "city": "Louisenhof"
  },
  {
    "postcode": "17379",
    "city": "Annenhof"
  },
  {
    "postcode": "17379",
    "city": "Heinrichshof"
  },
  {
    "postcode": "17379",
    "city": "Mühlenhof"
  },
  {
    "postcode": "17379",
    "city": "Fleethof"
  },
  {
    "postcode": "17379",
    "city": "Friedrichshagen"
  },
  {
    "postcode": "17379",
    "city": "Eichhof"
  },
  {
    "postcode": "17389",
    "city": "Anklam"
  },
  {
    "postcode": "17389",
    "city": "Gellendin"
  },
  {
    "postcode": "17389",
    "city": "Vorpommern-Greifswald"
  },
  {
    "postcode": "17389",
    "city": "Pelsin"
  },
  {
    "postcode": "17389",
    "city": "Stretense"
  },
  {
    "postcode": "17390",
    "city": "Bömitz"
  },
  {
    "postcode": "17390",
    "city": "Buggow"
  },
  {
    "postcode": "17390",
    "city": "Daugzin"
  },
  {
    "postcode": "17390",
    "city": "Groß Bünzow"
  },
  {
    "postcode": "17390",
    "city": "Groß Jasedow"
  },
  {
    "postcode": "17390",
    "city": "Groß Polzin"
  },
  {
    "postcode": "17390",
    "city": "Jargelin"
  },
  {
    "postcode": "17390",
    "city": "Klein Bünzow"
  },
  {
    "postcode": "17390",
    "city": "Klein Polzin"
  },
  {
    "postcode": "17390",
    "city": "Klitschendorf"
  },
  {
    "postcode": "17390",
    "city": "Konsages"
  },
  {
    "postcode": "17390",
    "city": "Krenzow"
  },
  {
    "postcode": "17390",
    "city": "Lentschow"
  },
  {
    "postcode": "17390",
    "city": "Libnow"
  },
  {
    "postcode": "17390",
    "city": "Menzlin"
  },
  {
    "postcode": "17390",
    "city": "Murchin"
  },
  {
    "postcode": "17390",
    "city": "Pamitz"
  },
  {
    "postcode": "17390",
    "city": "Ramitzow"
  },
  {
    "postcode": "17390",
    "city": "Relzow"
  },
  {
    "postcode": "17390",
    "city": "Rubkow"
  },
  {
    "postcode": "17390",
    "city": "Salchow"
  },
  {
    "postcode": "17390",
    "city": "Schlatkow"
  },
  {
    "postcode": "17390",
    "city": "Schmatzin"
  },
  {
    "postcode": "17390",
    "city": "Wahlendow"
  },
  {
    "postcode": "17390",
    "city": "Ziethen bei Anklam"
  },
  {
    "postcode": "17390",
    "city": "Vorpommern-Greifswald"
  },
  {
    "postcode": "17390",
    "city": "Ziethen"
  },
  {
    "postcode": "17390",
    "city": "Pinnow"
  },
  {
    "postcode": "17390",
    "city": "Johanneshof"
  },
  {
    "postcode": "17390",
    "city": "Zarrentin"
  },
  {
    "postcode": "17390",
    "city": "Wolfradshof"
  },
  {
    "postcode": "17391",
    "city": "Albinshof"
  },
  {
    "postcode": "17391",
    "city": "Dersewitz"
  },
  {
    "postcode": "17391",
    "city": "Grüttow"
  },
  {
    "postcode": "17391",
    "city": "Iven"
  },
  {
    "postcode": "17391",
    "city": "Janow"
  },
  {
    "postcode": "17391",
    "city": "Kagenow"
  },
  {
    "postcode": "17391",
    "city": "Klein Below"
  },
  {
    "postcode": "17391",
    "city": "Krien"
  },
  {
    "postcode": "17391",
    "city": "Krusenfelde"
  },
  {
    "postcode": "17391",
    "city": "Krusenkrien"
  },
  {
    "postcode": "17391",
    "city": "Liepen bei Anklam"
  },
  {
    "postcode": "17391",
    "city": "Medow bei Anklam"
  },
  {
    "postcode": "17391",
    "city": "Neetzow"
  },
  {
    "postcode": "17391",
    "city": "Nerdin"
  },
  {
    "postcode": "17391",
    "city": "Neuendorf B"
  },
  {
    "postcode": "17391",
    "city": "Padderow"
  },
  {
    "postcode": "17391",
    "city": "Postlow"
  },
  {
    "postcode": "17391",
    "city": "Preetzen"
  },
  {
    "postcode": "17391",
    "city": "Stammersfelde"
  },
  {
    "postcode": "17391",
    "city": "Steinmocker"
  },
  {
    "postcode": "17391",
    "city": "Stolpe bei Anklam"
  },
  {
    "postcode": "17391",
    "city": "Tramstow"
  },
  {
    "postcode": "17391",
    "city": "Wegezin"
  },
  {
    "postcode": "17391",
    "city": "Wussentin"
  },
  {
    "postcode": "17391",
    "city": "Vorpommern-Greifswald"
  },
  {
    "postcode": "17391",
    "city": "Medow"
  },
  {
    "postcode": "17391",
    "city": "Neetzow-Liepen"
  },
  {
    "postcode": "17391",
    "city": "Stolpe an der Peene"
  },
  {
    "postcode": "17391",
    "city": "Brenkenhof"
  },
  {
    "postcode": "17391",
    "city": "Thurow"
  },
  {
    "postcode": "17391",
    "city": "Liepen"
  },
  {
    "postcode": "17391",
    "city": "Priemen"
  },
  {
    "postcode": "17391",
    "city": "Stolpe"
  },
  {
    "postcode": "17391",
    "city": "Neuhof"
  },
  {
    "postcode": "17392",
    "city": "Alt Teterin"
  },
  {
    "postcode": "17392",
    "city": "Blesewitz"
  },
  {
    "postcode": "17392",
    "city": "Boldekow"
  },
  {
    "postcode": "17392",
    "city": "Borntin"
  },
  {
    "postcode": "17392",
    "city": "Butzow bei Anklam"
  },
  {
    "postcode": "17392",
    "city": "Dennin"
  },
  {
    "postcode": "17392",
    "city": "Drewelow"
  },
  {
    "postcode": "17392",
    "city": "Japenzin"
  },
  {
    "postcode": "17392",
    "city": "Lüskow"
  },
  {
    "postcode": "17392",
    "city": "Neu Teterin"
  },
  {
    "postcode": "17392",
    "city": "Neuenkirchen bei Anklam"
  },
  {
    "postcode": "17392",
    "city": "Panschow"
  },
  {
    "postcode": "17392",
    "city": "Pelsin"
  },
  {
    "postcode": "17392",
    "city": "Putzar"
  },
  {
    "postcode": "17392",
    "city": "Rebelow"
  },
  {
    "postcode": "17392",
    "city": "Sarnow bei Anklam"
  },
  {
    "postcode": "17392",
    "city": "Spantekow"
  },
  {
    "postcode": "17392",
    "city": "Stretense"
  },
  {
    "postcode": "17392",
    "city": "Strippow"
  },
  {
    "postcode": "17392",
    "city": "Wusseken"
  },
  {
    "postcode": "17392",
    "city": "Zinzow"
  },
  {
    "postcode": "17392",
    "city": "Vorpommern-Greifswald"
  },
  {
    "postcode": "17392",
    "city": "Butzow"
  },
  {
    "postcode": "17392",
    "city": "Neuenkirchen"
  },
  {
    "postcode": "17392",
    "city": "Sarnow"
  },
  {
    "postcode": "17392",
    "city": "Ausbau Jägersruh"
  },
  {
    "postcode": "17392",
    "city": "Ausbau Katerberg"
  },
  {
    "postcode": "17392",
    "city": "Ausbau Kiekut"
  },
  {
    "postcode": "17392",
    "city": "Boldekow Ausbau"
  },
  {
    "postcode": "17392",
    "city": "Glien"
  },
  {
    "postcode": "17392",
    "city": "Glien Siedlung"
  },
  {
    "postcode": "17392",
    "city": "Kavelpaß"
  },
  {
    "postcode": "17392",
    "city": "Rubenow"
  },
  {
    "postcode": "17392",
    "city": "Zinzow Ausbau"
  },
  {
    "postcode": "17392",
    "city": "Idasruh"
  },
  {
    "postcode": "17392",
    "city": "Wusseken Kiessee"
  },
  {
    "postcode": "17392",
    "city": "Fasanenhof"
  },
  {
    "postcode": "17392",
    "city": "Neuendorf B"
  },
  {
    "postcode": "17392",
    "city": "Rehberg"
  },
  {
    "postcode": "17398",
    "city": "Alt Kosenow"
  },
  {
    "postcode": "17398",
    "city": "Auerose"
  },
  {
    "postcode": "17398",
    "city": "Bargischow"
  },
  {
    "postcode": "17398",
    "city": "Bugewitz"
  },
  {
    "postcode": "17398",
    "city": "Busow"
  },
  {
    "postcode": "17398",
    "city": "Dargibell"
  },
  {
    "postcode": "17398",
    "city": "Ducherow"
  },
  {
    "postcode": "17398",
    "city": "Gnevezin"
  },
  {
    "postcode": "17398",
    "city": "Kagendorf"
  },
  {
    "postcode": "17398",
    "city": "Kalkstein"
  },
  {
    "postcode": "17398",
    "city": "Löwitz bei Anklam"
  },
  {
    "postcode": "17398",
    "city": "Neu Kosenow"
  },
  {
    "postcode": "17398",
    "city": "Rathebur"
  },
  {
    "postcode": "17398",
    "city": "Rossin"
  },
  {
    "postcode": "17398",
    "city": "Schmuggerow"
  },
  {
    "postcode": "17398",
    "city": "Schwerinsburg"
  },
  {
    "postcode": "17398",
    "city": "Woserow"
  },
  {
    "postcode": "17398",
    "city": "Vorpommern-Greifswald"
  },
  {
    "postcode": "17398",
    "city": "Rosenhagen"
  },
  {
    "postcode": "17398",
    "city": "Kamp"
  },
  {
    "postcode": "17398",
    "city": "Kurtshagen"
  },
  {
    "postcode": "17398",
    "city": "Neuendorf A"
  },
  {
    "postcode": "17398",
    "city": "Löwitz"
  },
  {
    "postcode": "17398",
    "city": "Marienthal"
  },
  {
    "postcode": "17398",
    "city": "Sophienhof"
  },
  {
    "postcode": "17406",
    "city": "Gellenthin"
  },
  {
    "postcode": "17406",
    "city": "Gneventhin"
  },
  {
    "postcode": "17406",
    "city": "Gummlin"
  },
  {
    "postcode": "17406",
    "city": "Morgenitz"
  },
  {
    "postcode": "17406",
    "city": "Ostklüne"
  },
  {
    "postcode": "17406",
    "city": "Quilitz"
  },
  {
    "postcode": "17406",
    "city": "Rankwitz"
  },
  {
    "postcode": "17406",
    "city": "Reestow"
  },
  {
    "postcode": "17406",
    "city": "Stolpe auf Usedom"
  },
  {
    "postcode": "17406",
    "city": "Usedom"
  },
  {
    "postcode": "17406",
    "city": "Vorpommern-Greifswald"
  },
  {
    "postcode": "17406",
    "city": "Warthe"
  },
  {
    "postcode": "17406",
    "city": "Suckow"
  },
  {
    "postcode": "17406",
    "city": "Liepe"
  },
  {
    "postcode": "17406",
    "city": "Grüssow"
  },
  {
    "postcode": "17406",
    "city": "Krienke"
  },
  {
    "postcode": "17406",
    "city": "Stolpe"
  },
  {
    "postcode": "17406",
    "city": "Kölpin"
  },
  {
    "postcode": "17406",
    "city": "Karnin"
  },
  {
    "postcode": "17406",
    "city": "Mönchow"
  },
  {
    "postcode": "17406",
    "city": "Paske"
  },
  {
    "postcode": "17406",
    "city": "Zecherin"
  },
  {
    "postcode": "17406",
    "city": "Voßberg"
  },
  {
    "postcode": "17406",
    "city": "Weißer Berg"
  },
  {
    "postcode": "17406",
    "city": "Welzin"
  },
  {
    "postcode": "17406",
    "city": "Westklüne"
  },
  {
    "postcode": "17406",
    "city": "Wilhelmsfelde"
  },
  {
    "postcode": "17406",
    "city": "Wilhelmshof"
  },
  {
    "postcode": "17419",
    "city": "Bossin"
  },
  {
    "postcode": "17419",
    "city": "Dargen"
  },
  {
    "postcode": "17419",
    "city": "Garz Usedom"
  },
  {
    "postcode": "17419",
    "city": "Garz"
  },
  {
    "postcode": "17419",
    "city": "Heringsdorf"
  },
  {
    "postcode": "17419",
    "city": "Kachlin"
  },
  {
    "postcode": "17419",
    "city": "Kamminke"
  },
  {
    "postcode": "17419",
    "city": "Korswandt"
  },
  {
    "postcode": "17419",
    "city": "Neverow"
  },
  {
    "postcode": "17419",
    "city": "Prätenow"
  },
  {
    "postcode": "17419",
    "city": "Seebad Ahlbeck"
  },
  {
    "postcode": "17419",
    "city": "Ulrichshorst"
  },
  {
    "postcode": "17419",
    "city": "Zirchow"
  },
  {
    "postcode": "17419",
    "city": "Vorpommern-Greifswald"
  },
  {
    "postcode": "17419",
    "city": "Ostseebad Heringsdorf"
  },
  {
    "postcode": "17419",
    "city": "Görke"
  },
  {
    "postcode": "17424",
    "city": "Heringsdorf"
  },
  {
    "postcode": "17424",
    "city": "Vorpommern-Greifswald"
  },
  {
    "postcode": "17424",
    "city": "Ostseebad Heringsdorf"
  },
  {
    "postcode": "17424",
    "city": "Neuhof"
  },
  {
    "postcode": "17424",
    "city": "Gothen"
  },
  {
    "postcode": "17429",
    "city": "Bansin"
  },
  {
    "postcode": "17429",
    "city": "Benz Usedom"
  },
  {
    "postcode": "17429",
    "city": "Benz"
  },
  {
    "postcode": "17429",
    "city": "Heringsdorf"
  },
  {
    "postcode": "17429",
    "city": "Labömitz"
  },
  {
    "postcode": "17429",
    "city": "Mellenthin"
  },
  {
    "postcode": "17429",
    "city": "Neppermin"
  },
  {
    "postcode": "17429",
    "city": "Pudagla"
  },
  {
    "postcode": "17429",
    "city": "Reetzow"
  },
  {
    "postcode": "17429",
    "city": "Vorpommern-Greifswald"
  },
  {
    "postcode": "17429",
    "city": "Katschow"
  },
  {
    "postcode": "17429",
    "city": "Seebad Bansin"
  },
  {
    "postcode": "17429",
    "city": "Balm"
  },
  {
    "postcode": "17429",
    "city": "Stoben"
  },
  {
    "postcode": "17429",
    "city": "Morgenitz"
  },
  {
    "postcode": "17429",
    "city": "Dewichow"
  },
  {
    "postcode": "17429",
    "city": "Alt Sallenthin"
  },
  {
    "postcode": "17429",
    "city": "Neu Sallenthin"
  },
  {
    "postcode": "17429",
    "city": "Bansin Dorf"
  },
  {
    "postcode": "17429",
    "city": "Sellin"
  },
  {
    "postcode": "17438",
    "city": "Mahlzow"
  },
  {
    "postcode": "17438",
    "city": "Wolgast"
  },
  {
    "postcode": "17438",
    "city": "Vorpommern-Greifswald"
  },
  {
    "postcode": "17438",
    "city": "Buddenhagen"
  },
  {
    "postcode": "17438",
    "city": "Schalense"
  },
  {
    "postcode": "17438",
    "city": "Hohendorf"
  },
  {
    "postcode": "17438",
    "city": "Pritzier"
  },
  {
    "postcode": "17438",
    "city": "Zarnitz"
  },
  {
    "postcode": "17440",
    "city": "Bauer"
  },
  {
    "postcode": "17440",
    "city": "Buddenhagen bei Wolgast"
  },
  {
    "postcode": "17440",
    "city": "Buggenhagen bei Wolgast"
  },
  {
    "postcode": "17440",
    "city": "Freest"
  },
  {
    "postcode": "17440",
    "city": "Groß Ernsthof"
  },
  {
    "postcode": "17440",
    "city": "Hohendorf bei Wolgast"
  },
  {
    "postcode": "17440",
    "city": "Hohensee"
  },
  {
    "postcode": "17440",
    "city": "Hollendorf"
  },
  {
    "postcode": "17440",
    "city": "Jamitzow"
  },
  {
    "postcode": "17440",
    "city": "Klein Jasedow"
  },
  {
    "postcode": "17440",
    "city": "Klotzow"
  },
  {
    "postcode": "17440",
    "city": "Kröslin"
  },
  {
    "postcode": "17440",
    "city": "Krummin"
  },
  {
    "postcode": "17440",
    "city": "Lassan Vorpommern"
  },
  {
    "postcode": "17440",
    "city": "Lassan"
  },
  {
    "postcode": "17440",
    "city": "Lütow"
  },
  {
    "postcode": "17440",
    "city": "Neeberg"
  },
  {
    "postcode": "17440",
    "city": "Pulow"
  },
  {
    "postcode": "17440",
    "city": "Sauzin"
  },
  {
    "postcode": "17440",
    "city": "Schalense"
  },
  {
    "postcode": "17440",
    "city": "Seckeritz"
  },
  {
    "postcode": "17440",
    "city": "Spandowerhagen"
  },
  {
    "postcode": "17440",
    "city": "Wehrland"
  },
  {
    "postcode": "17440",
    "city": "Zarnitz"
  },
  {
    "postcode": "17440",
    "city": "Zemitz"
  },
  {
    "postcode": "17440",
    "city": "Ziemitz"
  },
  {
    "postcode": "17440",
    "city": "Vorpommern-Greifswald"
  },
  {
    "postcode": "17440",
    "city": "Buggenhagen"
  },
  {
    "postcode": "17440",
    "city": "Wangelkow"
  },
  {
    "postcode": "17440",
    "city": "Karrin"
  },
  {
    "postcode": "17440",
    "city": "Insel Oie"
  },
  {
    "postcode": "17440",
    "city": "Papendorf"
  },
  {
    "postcode": "17440",
    "city": "Waschow"
  },
  {
    "postcode": "17440",
    "city": "Neuendorf"
  },
  {
    "postcode": "17440",
    "city": "Netzelkow"
  },
  {
    "postcode": "17449",
    "city": "Bannemin"
  },
  {
    "postcode": "17449",
    "city": "Karlshagen"
  },
  {
    "postcode": "17449",
    "city": "Mölschow"
  },
  {
    "postcode": "17449",
    "city": "Peenemünde"
  },
  {
    "postcode": "17449",
    "city": "Trassenheide"
  },
  {
    "postcode": "17449",
    "city": "Vorpommern-Greifswald"
  },
  {
    "postcode": "17449",
    "city": "Zecherin"
  },
  {
    "postcode": "17454",
    "city": "Zinnowitz Ostseebad"
  },
  {
    "postcode": "17454",
    "city": "Zinnowitz"
  },
  {
    "postcode": "17454",
    "city": "Vorpommern-Greifswald"
  },
  {
    "postcode": "17459",
    "city": "Koserow"
  },
  {
    "postcode": "17459",
    "city": "Loddin"
  },
  {
    "postcode": "17459",
    "city": "Ückeritz Usedom"
  },
  {
    "postcode": "17459",
    "city": "Ückeritz"
  },
  {
    "postcode": "17459",
    "city": "Zempin"
  },
  {
    "postcode": "17459",
    "city": "Vorpommern-Greifswald"
  },
  {
    "postcode": "17459",
    "city": "Damerow"
  },
  {
    "postcode": "17459",
    "city": "Stubbenfelde"
  },
  {
    "postcode": "17459",
    "city": "Kölpinsee"
  },
  {
    "postcode": "17489",
    "city": "Fettenvorstadt"
  },
  {
    "postcode": "17489",
    "city": "Fleischervorstadt"
  },
  {
    "postcode": "17489",
    "city": "Greifswald Hansestadt"
  },
  {
    "postcode": "17489",
    "city": "Greifswald"
  },
  {
    "postcode": "17489",
    "city": "Industriegebiet"
  },
  {
    "postcode": "17489",
    "city": "Innenstadt"
  },
  {
    "postcode": "17489",
    "city": "Nördliche Mühlenvorstadt"
  },
  {
    "postcode": "17489",
    "city": "Obstbausiedlung"
  },
  {
    "postcode": "17489",
    "city": "Ostseeviertel"
  },
  {
    "postcode": "17489",
    "city": "Schönwalde II"
  },
  {
    "postcode": "17489",
    "city": "Stadtrandsiedlung"
  },
  {
    "postcode": "17489",
    "city": "Steinbecker Vorstadt"
  },
  {
    "postcode": "17489",
    "city": "Südliche Mühlenvorstadt"
  },
  {
    "postcode": "17489",
    "city": "Vorpommern-Greifswald"
  },
  {
    "postcode": "17491",
    "city": "Greifswald Hansestadt"
  },
  {
    "postcode": "17491",
    "city": "Greifswald"
  },
  {
    "postcode": "17491",
    "city": "Groß Schönwalde"
  },
  {
    "postcode": "17491",
    "city": "Vorpommern-Greifswald"
  },
  {
    "postcode": "17491",
    "city": "Südstadt"
  },
  {
    "postcode": "17491",
    "city": "Schönwalde II"
  },
  {
    "postcode": "17491",
    "city": "Schönwalde I"
  },
  {
    "postcode": "17493",
    "city": "Greifswald Hansestadt"
  },
  {
    "postcode": "17493",
    "city": "Greifswald"
  },
  {
    "postcode": "17493",
    "city": "Insel Koos"
  },
  {
    "postcode": "17493",
    "city": "Ladebow"
  },
  {
    "postcode": "17493",
    "city": "Vorpommern-Greifswald"
  },
  {
    "postcode": "17493",
    "city": "Eldena"
  },
  {
    "postcode": "17493",
    "city": "Ostseeviertel"
  },
  {
    "postcode": "17493",
    "city": "Wieck"
  },
  {
    "postcode": "17493",
    "city": "Riems"
  },
  {
    "postcode": "17493",
    "city": "Friedrichshagen"
  },
  {
    "postcode": "17495",
    "city": "Giesekenhagen"
  },
  {
    "postcode": "17495",
    "city": "Gladrow"
  },
  {
    "postcode": "17495",
    "city": "Groß Kiesow"
  },
  {
    "postcode": "17495",
    "city": "Jagdkrug"
  },
  {
    "postcode": "17495",
    "city": "Karlsburg bei Greifswald"
  },
  {
    "postcode": "17495",
    "city": "Klein Kiesow"
  },
  {
    "postcode": "17495",
    "city": "Krebsow"
  },
  {
    "postcode": "17495",
    "city": "Lühmannsdorf"
  },
  {
    "postcode": "17495",
    "city": "Moeckow"
  },
  {
    "postcode": "17495",
    "city": "Nepzin"
  },
  {
    "postcode": "17495",
    "city": "Ranzin"
  },
  {
    "postcode": "17495",
    "city": "Sanz"
  },
  {
    "postcode": "17495",
    "city": "Schlagtow"
  },
  {
    "postcode": "17495",
    "city": "Strellin"
  },
  {
    "postcode": "17495",
    "city": "Wrangelsburg"
  },
  {
    "postcode": "17495",
    "city": "Züssow"
  },
  {
    "postcode": "17495",
    "city": "Vorpommern-Greifswald"
  },
  {
    "postcode": "17495",
    "city": "Karlsburg"
  },
  {
    "postcode": "17495",
    "city": "Dambeck"
  },
  {
    "postcode": "17495",
    "city": "Kessin"
  },
  {
    "postcode": "17495",
    "city": "Sanz Försterei"
  },
  {
    "postcode": "17495",
    "city": "Schlagtow Meierei"
  },
  {
    "postcode": "17495",
    "city": "Groß Kiesow Meierei"
  },
  {
    "postcode": "17495",
    "city": "Steinfurth"
  },
  {
    "postcode": "17495",
    "city": "Zarnekow"
  },
  {
    "postcode": "17495",
    "city": "Brüssow"
  },
  {
    "postcode": "17495",
    "city": "Oldenburg"
  },
  {
    "postcode": "17495",
    "city": "Radlow"
  },
  {
    "postcode": "17495",
    "city": "Thurow"
  },
  {
    "postcode": "17495",
    "city": "Wilhelmshöh"
  },
  {
    "postcode": "17498",
    "city": "Alt Negentin"
  },
  {
    "postcode": "17498",
    "city": "Alt Pansow"
  },
  {
    "postcode": "17498",
    "city": "Alt Ungnade"
  },
  {
    "postcode": "17498",
    "city": "Behrenhoff"
  },
  {
    "postcode": "17498",
    "city": "Dargelin"
  },
  {
    "postcode": "17498",
    "city": "Dersekow"
  },
  {
    "postcode": "17498",
    "city": "Diedrichshagen bei Greifswald"
  },
  {
    "postcode": "17498",
    "city": "Frätow"
  },
  {
    "postcode": "17498",
    "city": "Gristow"
  },
  {
    "postcode": "17498",
    "city": "Guest"
  },
  {
    "postcode": "17498",
    "city": "Heilgeisthof"
  },
  {
    "postcode": "17498",
    "city": "Hinrichshagen bei Greifswald"
  },
  {
    "postcode": "17498",
    "city": "Immenhorst"
  },
  {
    "postcode": "17498",
    "city": "Jarmshagen"
  },
  {
    "postcode": "17498",
    "city": "Klein Schönwalde"
  },
  {
    "postcode": "17498",
    "city": "Klein Zastrow"
  },
  {
    "postcode": "17498",
    "city": "Levenhagen"
  },
  {
    "postcode": "17498",
    "city": "Mesekenhagen"
  },
  {
    "postcode": "17498",
    "city": "Müssow"
  },
  {
    "postcode": "17498",
    "city": "Neu Dargelin"
  },
  {
    "postcode": "17498",
    "city": "Neu Negentin"
  },
  {
    "postcode": "17498",
    "city": "Neu Pansow"
  },
  {
    "postcode": "17498",
    "city": "Neu Ungnade"
  },
  {
    "postcode": "17498",
    "city": "Neuenkirchen bei Greifswald"
  },
  {
    "postcode": "17498",
    "city": "Oldenhagen"
  },
  {
    "postcode": "17498",
    "city": "Sestelin"
  },
  {
    "postcode": "17498",
    "city": "Subzow"
  },
  {
    "postcode": "17498",
    "city": "Wackerow bei Greifswald"
  },
  {
    "postcode": "17498",
    "city": "Weitenhagen bei Greifswald"
  },
  {
    "postcode": "17498",
    "city": "Vorpommern-Greifswald"
  },
  {
    "postcode": "17498",
    "city": "Hinrichshagen"
  },
  {
    "postcode": "17498",
    "city": "Neuenkirchen"
  },
  {
    "postcode": "17498",
    "city": "Wackerow"
  },
  {
    "postcode": "17498",
    "city": "Weitenhagen"
  },
  {
    "postcode": "17498",
    "city": "Stresow"
  },
  {
    "postcode": "17498",
    "city": "Kammin"
  },
  {
    "postcode": "17498",
    "city": "Stresow-Siedlung"
  },
  {
    "postcode": "17498",
    "city": "Busdorf"
  },
  {
    "postcode": "17498",
    "city": "Dargelin Hof"
  },
  {
    "postcode": "17498",
    "city": "Dersekow Hof"
  },
  {
    "postcode": "17498",
    "city": "Friedrichsfelde"
  },
  {
    "postcode": "17498",
    "city": "Chausseesiedlung"
  },
  {
    "postcode": "17498",
    "city": "Hinrichshagen Hof II"
  },
  {
    "postcode": "17498",
    "city": "Hinrichshagen Hof 2"
  },
  {
    "postcode": "17498",
    "city": "Hinrichshagen Hof I"
  },
  {
    "postcode": "17498",
    "city": "Feldsiedlung"
  },
  {
    "postcode": "17498",
    "city": "Hinrichshagen Hof 1"
  },
  {
    "postcode": "17498",
    "city": "Heimsiedlung"
  },
  {
    "postcode": "17498",
    "city": "Levenhagen Hof I"
  },
  {
    "postcode": "17498",
    "city": "Levenhagen Hof 1"
  },
  {
    "postcode": "17498",
    "city": "Boltenhagen"
  },
  {
    "postcode": "17498",
    "city": "Groß Karrendorf"
  },
  {
    "postcode": "17498",
    "city": "Klein Karrendorf"
  },
  {
    "postcode": "17498",
    "city": "Brook"
  },
  {
    "postcode": "17498",
    "city": "Kowall"
  },
  {
    "postcode": "17498",
    "city": "Leist I"
  },
  {
    "postcode": "17498",
    "city": "Wampen"
  },
  {
    "postcode": "17498",
    "city": "Leist III"
  },
  {
    "postcode": "17498",
    "city": "Leist II"
  },
  {
    "postcode": "17498",
    "city": "Leist 2"
  },
  {
    "postcode": "17498",
    "city": "Kieshof Ausbau"
  },
  {
    "postcode": "17498",
    "city": "Dreizehnhausen"
  },
  {
    "postcode": "17498",
    "city": "Groß Kieshof"
  },
  {
    "postcode": "17498",
    "city": "Steffenshagen"
  },
  {
    "postcode": "17498",
    "city": "Klein Kieshof"
  },
  {
    "postcode": "17498",
    "city": "Groß Petershagen"
  },
  {
    "postcode": "17498",
    "city": "Jarmshagen Dorf"
  },
  {
    "postcode": "17498",
    "city": "Jarmshagen Hof I"
  },
  {
    "postcode": "17498",
    "city": "Jarmshagen Hof II"
  },
  {
    "postcode": "17498",
    "city": "Jarmshagen Hof III"
  },
  {
    "postcode": "17498",
    "city": "Klein Petershagen"
  },
  {
    "postcode": "17498",
    "city": "Potthagen"
  },
  {
    "postcode": "17498",
    "city": "Helmshagen II"
  },
  {
    "postcode": "17498",
    "city": "Helmshagen 2"
  },
  {
    "postcode": "17498",
    "city": "Diedrichshagen"
  },
  {
    "postcode": "17498",
    "city": "Helmshagen I"
  },
  {
    "postcode": "17498",
    "city": "Helmshagen 1"
  },
  {
    "postcode": "17498",
    "city": "Grubenhagen"
  },
  {
    "postcode": "17506",
    "city": "Bandelin"
  },
  {
    "postcode": "17506",
    "city": "Breechen"
  },
  {
    "postcode": "17506",
    "city": "Dargezin"
  },
  {
    "postcode": "17506",
    "city": "Fritzow"
  },
  {
    "postcode": "17506",
    "city": "Gribow"
  },
  {
    "postcode": "17506",
    "city": "Gützkow bei Greifswald"
  },
  {
    "postcode": "17506",
    "city": "Kammin bei Greifswald"
  },
  {
    "postcode": "17506",
    "city": "Kölzin bei Greifswald"
  },
  {
    "postcode": "17506",
    "city": "Kuntzow"
  },
  {
    "postcode": "17506",
    "city": "Lüssow bei Greifswald"
  },
  {
    "postcode": "17506",
    "city": "Owstin"
  },
  {
    "postcode": "17506",
    "city": "Pentin"
  },
  {
    "postcode": "17506",
    "city": "Schmoldow"
  },
  {
    "postcode": "17506",
    "city": "Upatel"
  },
  {
    "postcode": "17506",
    "city": "Vargatz"
  },
  {
    "postcode": "17506",
    "city": "Vorpommern-Greifswald"
  },
  {
    "postcode": "17506",
    "city": "Gützkow"
  },
  {
    "postcode": "17506",
    "city": "Glödenhof"
  },
  {
    "postcode": "17506",
    "city": "Lüssow"
  },
  {
    "postcode": "17506",
    "city": "Neuendorf"
  },
  {
    "postcode": "17506",
    "city": "Dargezin Vorwerk"
  },
  {
    "postcode": "17506",
    "city": "Kölzin"
  },
  {
    "postcode": "17506",
    "city": "Gützkow Meierei"
  },
  {
    "postcode": "17509",
    "city": "Brünzow"
  },
  {
    "postcode": "17509",
    "city": "Gahlkow"
  },
  {
    "postcode": "17509",
    "city": "Gustebin"
  },
  {
    "postcode": "17509",
    "city": "Hanshagen bei Greifswald"
  },
  {
    "postcode": "17509",
    "city": "Katzow"
  },
  {
    "postcode": "17509",
    "city": "Kemnitz bei Greifswald"
  },
  {
    "postcode": "17509",
    "city": "Kemnitzerhagen"
  },
  {
    "postcode": "17509",
    "city": "Klein Ernsthof"
  },
  {
    "postcode": "17509",
    "city": "Konerow"
  },
  {
    "postcode": "17509",
    "city": "Kräpelin"
  },
  {
    "postcode": "17509",
    "city": "Kühlenhagen"
  },
  {
    "postcode": "17509",
    "city": "Latzow"
  },
  {
    "postcode": "17509",
    "city": "Lodmannshagen"
  },
  {
    "postcode": "17509",
    "city": "Loissin"
  },
  {
    "postcode": "17509",
    "city": "Lubmin"
  },
  {
    "postcode": "17509",
    "city": "Neu Boltenhagen"
  },
  {
    "postcode": "17509",
    "city": "Rappenhagen"
  },
  {
    "postcode": "17509",
    "city": "Rubenow bei Wolgast"
  },
  {
    "postcode": "17509",
    "city": "Stilow"
  },
  {
    "postcode": "17509",
    "city": "Voddow"
  },
  {
    "postcode": "17509",
    "city": "Wusterhusen"
  },
  {
    "postcode": "17509",
    "city": "Vorpommern-Greifswald"
  },
  {
    "postcode": "17509",
    "city": "Hanshagen"
  },
  {
    "postcode": "17509",
    "city": "Kemnitz"
  },
  {
    "postcode": "17509",
    "city": "Rubenow"
  },
  {
    "postcode": "17509",
    "city": "Vierow"
  },
  {
    "postcode": "17509",
    "city": "Gewerbegebiet Kräpelin"
  },
  {
    "postcode": "17509",
    "city": "Stilow-Siedlung"
  },
  {
    "postcode": "17509",
    "city": "Netzeband"
  },
  {
    "postcode": "17509",
    "city": "Jägerhof"
  },
  {
    "postcode": "17509",
    "city": "Neuendorf"
  },
  {
    "postcode": "17509",
    "city": "Ludwigsburg"
  },
  {
    "postcode": "17509",
    "city": "Karbow"
  },
  {
    "postcode": "17509",
    "city": "Groß Ernsthof"
  },
  {
    "postcode": "17509",
    "city": "Nieder Voddow"
  },
  {
    "postcode": "17509",
    "city": "Nonnendorf"
  },
  {
    "postcode": "17509",
    "city": "Stevelin"
  },
  {
    "postcode": "17509",
    "city": "Pritzwald"
  }
]