[
  {
    "postcode": "56068",
    "city": "Koblenz am Rhein"
  },
  {
    "postcode": "56068",
    "city": "Laubach Gemeinde Kapellen-Stolzenfels"
  },
  {
    "postcode": "56068",
    "city": "Laubach"
  },
  {
    "postcode": "56068",
    "city": "Stolzenfels"
  },
  {
    "postcode": "56068",
    "city": "Koblenz"
  },
  {
    "postcode": "56068",
    "city": "Süd"
  },
  {
    "postcode": "56068",
    "city": "Altstadt"
  },
  {
    "postcode": "56068",
    "city": "Mitte"
  },
  {
    "postcode": "56068",
    "city": "Rauental"
  },
  {
    "postcode": "56070",
    "city": "Bubenheim Kreis Koblenz"
  },
  {
    "postcode": "56070",
    "city": "Bubenheim"
  },
  {
    "postcode": "56070",
    "city": "Kesselheim"
  },
  {
    "postcode": "56070",
    "city": "Koblenz am Rhein"
  },
  {
    "postcode": "56070",
    "city": "Lützel"
  },
  {
    "postcode": "56070",
    "city": "Metternich"
  },
  {
    "postcode": "56070",
    "city": "Neuendorf"
  },
  {
    "postcode": "56070",
    "city": "Rübenach"
  },
  {
    "postcode": "56070",
    "city": "Wallersheim"
  },
  {
    "postcode": "56070",
    "city": "Koblenz"
  },
  {
    "postcode": "56072",
    "city": "Güls Kreis Koblenz"
  },
  {
    "postcode": "56072",
    "city": "Güls"
  },
  {
    "postcode": "56072",
    "city": "Koblenz am Rhein"
  },
  {
    "postcode": "56072",
    "city": "Metternich"
  },
  {
    "postcode": "56072",
    "city": "Rübenach"
  },
  {
    "postcode": "56072",
    "city": "Koblenz"
  },
  {
    "postcode": "56072",
    "city": "Gemeinde Bassenheim"
  },
  {
    "postcode": "56072",
    "city": "Gemeinde Kobern-Gondorf"
  },
  {
    "postcode": "56073",
    "city": "Koblenz am Rhein"
  },
  {
    "postcode": "56073",
    "city": "Lay Mosel"
  },
  {
    "postcode": "56073",
    "city": "Lay"
  },
  {
    "postcode": "56073",
    "city": "Koblenz"
  },
  {
    "postcode": "56073",
    "city": "Rauental"
  },
  {
    "postcode": "56073",
    "city": "Goldgrube"
  },
  {
    "postcode": "56073",
    "city": "Moselweiß"
  },
  {
    "postcode": "56073",
    "city": "Mitte"
  },
  {
    "postcode": "56073",
    "city": "Süd"
  },
  {
    "postcode": "56075",
    "city": "Koblenz am Rhein"
  },
  {
    "postcode": "56075",
    "city": "Stolzenfels"
  },
  {
    "postcode": "56075",
    "city": "Koblenz"
  },
  {
    "postcode": "56075",
    "city": "Karthause"
  },
  {
    "postcode": "56075",
    "city": "Süd"
  },
  {
    "postcode": "56075",
    "city": "Oberwerth"
  },
  {
    "postcode": "56075",
    "city": "Mitte"
  },
  {
    "postcode": "56076",
    "city": "Ehrenbreitstein"
  },
  {
    "postcode": "56076",
    "city": "Horchheim"
  },
  {
    "postcode": "56076",
    "city": "Koblenz am Rhein"
  },
  {
    "postcode": "56076",
    "city": "Pfaffendorf"
  },
  {
    "postcode": "56076",
    "city": "Koblenz"
  },
  {
    "postcode": "56076",
    "city": "Pfaffendorfer Höhe"
  },
  {
    "postcode": "56076",
    "city": "Horchheimer Höhe"
  },
  {
    "postcode": "56077",
    "city": "Arenberg"
  },
  {
    "postcode": "56077",
    "city": "Arzheim Kreis Koblenz"
  },
  {
    "postcode": "56077",
    "city": "Arzheim"
  },
  {
    "postcode": "56077",
    "city": "Asterstein"
  },
  {
    "postcode": "56077",
    "city": "Ehrenbreitstein"
  },
  {
    "postcode": "56077",
    "city": "Immendorf"
  },
  {
    "postcode": "56077",
    "city": "Koblenz am Rhein"
  },
  {
    "postcode": "56077",
    "city": "Niederberg"
  },
  {
    "postcode": "56077",
    "city": "Koblenz"
  },
  {
    "postcode": "56077",
    "city": "Arenberg-Immendorf"
  },
  {
    "postcode": "56077",
    "city": "Horchheimer Höhe"
  },
  {
    "postcode": "56112",
    "city": "Friedrichssegen Lahn"
  },
  {
    "postcode": "56112",
    "city": "Friedrichssegen"
  },
  {
    "postcode": "56112",
    "city": "Frücht"
  },
  {
    "postcode": "56112",
    "city": "Lahnstein"
  },
  {
    "postcode": "56112",
    "city": "Lahnstein auf der Höhe"
  },
  {
    "postcode": "56112",
    "city": "Miellen"
  },
  {
    "postcode": "56112",
    "city": "Niederlahnstein"
  },
  {
    "postcode": "56112",
    "city": "Oberlahnstein"
  },
  {
    "postcode": "56112",
    "city": "Rhein-Lahn-Kreis"
  },
  {
    "postcode": "56112",
    "city": "Friedland"
  },
  {
    "postcode": "56130",
    "city": "Bad Ems"
  },
  {
    "postcode": "56130",
    "city": "Rhein-Lahn-Kreis"
  },
  {
    "postcode": "56130",
    "city": "Buchenberg"
  },
  {
    "postcode": "56130",
    "city": "Grenzloch"
  },
  {
    "postcode": "56130",
    "city": "Heinrichshof"
  },
  {
    "postcode": "56130",
    "city": "Schleuse Dausenau"
  },
  {
    "postcode": "56132",
    "city": "Becheln"
  },
  {
    "postcode": "56132",
    "city": "Dausenau"
  },
  {
    "postcode": "56132",
    "city": "Frücht"
  },
  {
    "postcode": "56132",
    "city": "Kemmenau"
  },
  {
    "postcode": "56132",
    "city": "Miellen"
  },
  {
    "postcode": "56132",
    "city": "Nievern"
  },
  {
    "postcode": "56132",
    "city": "Rhein-Lahn-Kreis"
  },
  {
    "postcode": "56132",
    "city": "Waldfrieden-Schweizertal"
  },
  {
    "postcode": "56132",
    "city": "Maaracker"
  },
  {
    "postcode": "56133",
    "city": "Fachbach"
  },
  {
    "postcode": "56133",
    "city": "Rhein-Lahn-Kreis"
  },
  {
    "postcode": "56154",
    "city": "Bad Salzig"
  },
  {
    "postcode": "56154",
    "city": "Boppard"
  },
  {
    "postcode": "56154",
    "city": "Boppard Rhein"
  },
  {
    "postcode": "56154",
    "city": "Buchenau"
  },
  {
    "postcode": "56154",
    "city": "Buchholz Hunsrück"
  },
  {
    "postcode": "56154",
    "city": "Buchholz"
  },
  {
    "postcode": "56154",
    "city": "Herschwiesen bei Oppenhausen Hunsrück"
  },
  {
    "postcode": "56154",
    "city": "Herschwiesen bei Oppenhausen"
  },
  {
    "postcode": "56154",
    "city": "Hirzenach"
  },
  {
    "postcode": "56154",
    "city": "Holzfeld"
  },
  {
    "postcode": "56154",
    "city": "Oppenhausen"
  },
  {
    "postcode": "56154",
    "city": "Rheinbay"
  },
  {
    "postcode": "56154",
    "city": "Udenhausen bei Pfaffenheck"
  },
  {
    "postcode": "56154",
    "city": "Weiler bei Bad Salzig"
  },
  {
    "postcode": "56154",
    "city": "Rhein-Hunsrück-Kreis"
  },
  {
    "postcode": "56154",
    "city": "Udenhausen"
  },
  {
    "postcode": "56154",
    "city": "Herschwiesen"
  },
  {
    "postcode": "56154",
    "city": "Weiler"
  },
  {
    "postcode": "56154",
    "city": "Hübingen"
  },
  {
    "postcode": "56170",
    "city": "Bendorf Rhein"
  },
  {
    "postcode": "56170",
    "city": "Bendorf"
  },
  {
    "postcode": "56170",
    "city": "Bendorf/Rhein"
  },
  {
    "postcode": "56170",
    "city": "Mülhofen"
  },
  {
    "postcode": "56170",
    "city": "Stromberg Unterwesterw"
  },
  {
    "postcode": "56170",
    "city": "Stromberg"
  },
  {
    "postcode": "56170",
    "city": "Mayen-Koblenz"
  },
  {
    "postcode": "56170",
    "city": "Lachnitzmühle"
  },
  {
    "postcode": "56170",
    "city": "Neuwied"
  },
  {
    "postcode": "56170",
    "city": "Sayn"
  },
  {
    "postcode": "56170",
    "city": "Engers"
  },
  {
    "postcode": "56179",
    "city": "Niederwerth"
  },
  {
    "postcode": "56179",
    "city": "Vallendar"
  },
  {
    "postcode": "56179",
    "city": "Mayen-Koblenz"
  },
  {
    "postcode": "56182",
    "city": "Urbar bei Koblenz am Rhein"
  },
  {
    "postcode": "56182",
    "city": "Mayen-Koblenz"
  },
  {
    "postcode": "56182",
    "city": "Urbar"
  },
  {
    "postcode": "56191",
    "city": "Weitersburg"
  },
  {
    "postcode": "56191",
    "city": "Mayen-Koblenz"
  },
  {
    "postcode": "56203",
    "city": "Höhr-Grenzhausen"
  },
  {
    "postcode": "56203",
    "city": "Westerwaldkreis"
  },
  {
    "postcode": "56203",
    "city": "Bembermühle"
  },
  {
    "postcode": "56203",
    "city": "Waldfriede"
  },
  {
    "postcode": "56204",
    "city": "Hillscheid Westerwald"
  },
  {
    "postcode": "56204",
    "city": "Hillscheid"
  },
  {
    "postcode": "56204",
    "city": "Westerwaldkreis"
  },
  {
    "postcode": "56206",
    "city": "Hilgert bei Höhr-Grenzhausen"
  },
  {
    "postcode": "56206",
    "city": "Kammerforst Westerwald"
  },
  {
    "postcode": "56206",
    "city": "Kammerforst"
  },
  {
    "postcode": "56206",
    "city": "Westerwaldkreis"
  },
  {
    "postcode": "56206",
    "city": "Hilgert"
  },
  {
    "postcode": "56206",
    "city": "Faulbach"
  },
  {
    "postcode": "56218",
    "city": "Kärlich"
  },
  {
    "postcode": "56218",
    "city": "Mülheim"
  },
  {
    "postcode": "56218",
    "city": "Mülheim-Kärlich"
  },
  {
    "postcode": "56218",
    "city": "Mayen-Koblenz"
  },
  {
    "postcode": "56218",
    "city": "Kaltenengers"
  },
  {
    "postcode": "56218",
    "city": "Urmitz"
  },
  {
    "postcode": "56218",
    "city": "Urmitz-Bahnhof"
  },
  {
    "postcode": "56220",
    "city": "Bassenheim"
  },
  {
    "postcode": "56220",
    "city": "Kaltenengers"
  },
  {
    "postcode": "56220",
    "city": "Kettig bei Koblenz am Rhein"
  },
  {
    "postcode": "56220",
    "city": "Rheintal Rhein"
  },
  {
    "postcode": "56220",
    "city": "Rheintal"
  },
  {
    "postcode": "56220",
    "city": "Sankt Sebastian bei Koblenz am Rhein"
  },
  {
    "postcode": "56220",
    "city": "Urmitz Rhein"
  },
  {
    "postcode": "56220",
    "city": "Urmitz"
  },
  {
    "postcode": "56220",
    "city": "Mayen-Koblenz"
  },
  {
    "postcode": "56220",
    "city": "Kettig"
  },
  {
    "postcode": "56220",
    "city": "Sankt Sebastian"
  },
  {
    "postcode": "56235",
    "city": "Hundsdorf bei Ransbach-Baumbach"
  },
  {
    "postcode": "56235",
    "city": "Ransbach-Baumbach"
  },
  {
    "postcode": "56235",
    "city": "Westerwaldkreis"
  },
  {
    "postcode": "56235",
    "city": "Hundsdorf"
  },
  {
    "postcode": "56235",
    "city": "Baumbach"
  },
  {
    "postcode": "56237",
    "city": "Alsbach Westerwald"
  },
  {
    "postcode": "56237",
    "city": "Alsbach"
  },
  {
    "postcode": "56237",
    "city": "Breitenau Westerwald"
  },
  {
    "postcode": "56237",
    "city": "Breitenau"
  },
  {
    "postcode": "56237",
    "city": "Caan"
  },
  {
    "postcode": "56237",
    "city": "Deesen"
  },
  {
    "postcode": "56237",
    "city": "Nauort"
  },
  {
    "postcode": "56237",
    "city": "Oberhaid Westerwald"
  },
  {
    "postcode": "56237",
    "city": "Oberhaid"
  },
  {
    "postcode": "56237",
    "city": "Sessenbach"
  },
  {
    "postcode": "56237",
    "city": "Wirscheid"
  },
  {
    "postcode": "56237",
    "city": "Wittgert"
  },
  {
    "postcode": "56237",
    "city": "Westerwaldkreis"
  },
  {
    "postcode": "56242",
    "city": "Ellenhausen"
  },
  {
    "postcode": "56242",
    "city": "Hammermühle bei Selters Westerwald"
  },
  {
    "postcode": "56242",
    "city": "Hammermühle bei Selters"
  },
  {
    "postcode": "56242",
    "city": "Marienrachdorf"
  },
  {
    "postcode": "56242",
    "city": "Nordhofen Westerwald"
  },
  {
    "postcode": "56242",
    "city": "Nordhofen"
  },
  {
    "postcode": "56242",
    "city": "Quirnbach Westerwald"
  },
  {
    "postcode": "56242",
    "city": "Quirnbach"
  },
  {
    "postcode": "56242",
    "city": "Selters (Westerwald)"
  },
  {
    "postcode": "56242",
    "city": "Selters"
  },
  {
    "postcode": "56242",
    "city": "Westerwaldkreis"
  },
  {
    "postcode": "56242",
    "city": "Hammermühle"
  },
  {
    "postcode": "56244",
    "city": "Arnshöfen"
  },
  {
    "postcode": "56244",
    "city": "Ettinghausen"
  },
  {
    "postcode": "56244",
    "city": "Ewighausen"
  },
  {
    "postcode": "56244",
    "city": "Freilingen Westerwald"
  },
  {
    "postcode": "56244",
    "city": "Freilingen"
  },
  {
    "postcode": "56244",
    "city": "Freirachdorf"
  },
  {
    "postcode": "56244",
    "city": "Goddert"
  },
  {
    "postcode": "56244",
    "city": "Hahn am See"
  },
  {
    "postcode": "56244",
    "city": "Hartenfels"
  },
  {
    "postcode": "56244",
    "city": "Helferskirchen"
  },
  {
    "postcode": "56244",
    "city": "Krümmel Westerwald"
  },
  {
    "postcode": "56244",
    "city": "Krümmel"
  },
  {
    "postcode": "56244",
    "city": "Kuhnhöfen"
  },
  {
    "postcode": "56244",
    "city": "Leuterod"
  },
  {
    "postcode": "56244",
    "city": "Maxsain"
  },
  {
    "postcode": "56244",
    "city": "Niederdorf"
  },
  {
    "postcode": "56244",
    "city": "Niedersayn"
  },
  {
    "postcode": "56244",
    "city": "Ötzingen"
  },
  {
    "postcode": "56244",
    "city": "Rückeroth"
  },
  {
    "postcode": "56244",
    "city": "Schenkelberg"
  },
  {
    "postcode": "56244",
    "city": "Sessenhausen Westerwald"
  },
  {
    "postcode": "56244",
    "city": "Sessenhausen"
  },
  {
    "postcode": "56244",
    "city": "Steinen Westerwald"
  },
  {
    "postcode": "56244",
    "city": "Steinen"
  },
  {
    "postcode": "56244",
    "city": "Vielbach"
  },
  {
    "postcode": "56244",
    "city": "Weidenhahn"
  },
  {
    "postcode": "56244",
    "city": "Wölferlingen"
  },
  {
    "postcode": "56244",
    "city": "Westerwaldkreis"
  },
  {
    "postcode": "56244",
    "city": "Blaumhöfen"
  },
  {
    "postcode": "56244",
    "city": "Karnhöfen"
  },
  {
    "postcode": "56249",
    "city": "Herschbach bei Selters"
  },
  {
    "postcode": "56249",
    "city": "Westerwaldkreis"
  },
  {
    "postcode": "56249",
    "city": "Herschbach"
  },
  {
    "postcode": "56253",
    "city": "Karden"
  },
  {
    "postcode": "56253",
    "city": "Treis"
  },
  {
    "postcode": "56253",
    "city": "Treis-Karden"
  },
  {
    "postcode": "56253",
    "city": "Cochem-Zell"
  },
  {
    "postcode": "56254",
    "city": "Moselkern"
  },
  {
    "postcode": "56254",
    "city": "Müden (Mosel)"
  },
  {
    "postcode": "56254",
    "city": "Müden"
  },
  {
    "postcode": "56254",
    "city": "Müdenerberg Mosel"
  },
  {
    "postcode": "56254",
    "city": "Müdenerberg"
  },
  {
    "postcode": "56254",
    "city": "Cochem-Zell"
  },
  {
    "postcode": "56269",
    "city": "Brückrachdorf"
  },
  {
    "postcode": "56269",
    "city": "Dierdorf"
  },
  {
    "postcode": "56269",
    "city": "Dierdorf-Giershofen"
  },
  {
    "postcode": "56269",
    "city": "Elgert Westerwald"
  },
  {
    "postcode": "56269",
    "city": "Elgert"
  },
  {
    "postcode": "56269",
    "city": "Marienhausen"
  },
  {
    "postcode": "56269",
    "city": "Wienau"
  },
  {
    "postcode": "56269",
    "city": "Neuwied"
  },
  {
    "postcode": "56269",
    "city": "Giershofen"
  },
  {
    "postcode": "56271",
    "city": "Isenburg Westerwald"
  },
  {
    "postcode": "56271",
    "city": "Isenburg"
  },
  {
    "postcode": "56271",
    "city": "Kleinmaischeid"
  },
  {
    "postcode": "56271",
    "city": "Maroth Westerwald"
  },
  {
    "postcode": "56271",
    "city": "Maroth"
  },
  {
    "postcode": "56271",
    "city": "Mündersbach"
  },
  {
    "postcode": "56271",
    "city": "Neusiedlung Westerwald"
  },
  {
    "postcode": "56271",
    "city": "Neusiedlung"
  },
  {
    "postcode": "56271",
    "city": "Roßbach Westerwald"
  },
  {
    "postcode": "56271",
    "city": "Roßbach"
  },
  {
    "postcode": "56271",
    "city": "Neuwied"
  },
  {
    "postcode": "56271",
    "city": "Kettemers Mühle"
  },
  {
    "postcode": "56271",
    "city": "Wiedischhausen"
  },
  {
    "postcode": "56276",
    "city": "Großmaischeid"
  },
  {
    "postcode": "56276",
    "city": "Kausen bei Selters Westerwald"
  },
  {
    "postcode": "56276",
    "city": "Kausen bei Selters"
  },
  {
    "postcode": "56276",
    "city": "Stebach"
  },
  {
    "postcode": "56276",
    "city": "Neuwied"
  },
  {
    "postcode": "56276",
    "city": "Kausen"
  },
  {
    "postcode": "56281",
    "city": "Dörth"
  },
  {
    "postcode": "56281",
    "city": "Emmelshausen"
  },
  {
    "postcode": "56281",
    "city": "Hungenroth"
  },
  {
    "postcode": "56281",
    "city": "Karbach Hunsrück"
  },
  {
    "postcode": "56281",
    "city": "Karbach"
  },
  {
    "postcode": "56281",
    "city": "Schwall"
  },
  {
    "postcode": "56281",
    "city": "Rhein-Hunsrück-Kreis"
  },
  {
    "postcode": "56283",
    "city": "Beulich"
  },
  {
    "postcode": "56283",
    "city": "Dieler bei Halsenbach"
  },
  {
    "postcode": "56283",
    "city": "Ehrerheide"
  },
  {
    "postcode": "56283",
    "city": "Gondershausen"
  },
  {
    "postcode": "56283",
    "city": "Halsenbach"
  },
  {
    "postcode": "56283",
    "city": "Kratzenburg"
  },
  {
    "postcode": "56283",
    "city": "Mermicherhof"
  },
  {
    "postcode": "56283",
    "city": "Mermuth"
  },
  {
    "postcode": "56283",
    "city": "Morshausen"
  },
  {
    "postcode": "56283",
    "city": "Ney"
  },
  {
    "postcode": "56283",
    "city": "Nörtershausen"
  },
  {
    "postcode": "56283",
    "city": "Pfaffenheck"
  },
  {
    "postcode": "56283",
    "city": "Mayen-Koblenz"
  },
  {
    "postcode": "56283",
    "city": "Wildenbungert"
  },
  {
    "postcode": "56283",
    "city": "Nieder-Gondershausen"
  },
  {
    "postcode": "56283",
    "city": "Ober-Gondershausen"
  },
  {
    "postcode": "56283",
    "city": "Ehr"
  },
  {
    "postcode": "56283",
    "city": "Grüne Mühle"
  },
  {
    "postcode": "56283",
    "city": "Dieler"
  },
  {
    "postcode": "56288",
    "city": "Alterkülz"
  },
  {
    "postcode": "56288",
    "city": "Bell"
  },
  {
    "postcode": "56288",
    "city": "Bell (Hunsrück)"
  },
  {
    "postcode": "56288",
    "city": "Braunshorn"
  },
  {
    "postcode": "56288",
    "city": "Bubach bei Kastellaun"
  },
  {
    "postcode": "56288",
    "city": "Ebschied"
  },
  {
    "postcode": "56288",
    "city": "Hasselbach Hunsrück"
  },
  {
    "postcode": "56288",
    "city": "Hasselbach"
  },
  {
    "postcode": "56288",
    "city": "Hollnich bei Kastellaun"
  },
  {
    "postcode": "56288",
    "city": "Kastellaun"
  },
  {
    "postcode": "56288",
    "city": "Korweiler"
  },
  {
    "postcode": "56288",
    "city": "Lahr Hunsrück"
  },
  {
    "postcode": "56288",
    "city": "Lahr"
  },
  {
    "postcode": "56288",
    "city": "Laubach bei Kastellaun"
  },
  {
    "postcode": "56288",
    "city": "Leideneck"
  },
  {
    "postcode": "56288",
    "city": "Michelbach Hunsrück"
  },
  {
    "postcode": "56288",
    "city": "Michelbach"
  },
  {
    "postcode": "56288",
    "city": "Roth Rhein-Hunsrück-Kreis"
  },
  {
    "postcode": "56288",
    "city": "Roth"
  },
  {
    "postcode": "56288",
    "city": "Rothenbergerhof Hunsrück"
  },
  {
    "postcode": "56288",
    "city": "Rothenbergerhof"
  },
  {
    "postcode": "56288",
    "city": "Spesenroth"
  },
  {
    "postcode": "56288",
    "city": "Steffenshof"
  },
  {
    "postcode": "56288",
    "city": "Wehr"
  },
  {
    "postcode": "56288",
    "city": "Zilshausen"
  },
  {
    "postcode": "56288",
    "city": "Cochem-Zell"
  },
  {
    "postcode": "56288",
    "city": "Bubach"
  },
  {
    "postcode": "56288",
    "city": "Hollnich"
  },
  {
    "postcode": "56288",
    "city": "Külz (Hunsrück)"
  },
  {
    "postcode": "56288",
    "city": "Laubach"
  },
  {
    "postcode": "56288",
    "city": "Völkenroth"
  },
  {
    "postcode": "56288",
    "city": "Krastel"
  },
  {
    "postcode": "56288",
    "city": "Wohnroth"
  },
  {
    "postcode": "56288",
    "city": "Hundheim"
  },
  {
    "postcode": "56288",
    "city": "Ebschied-Bahnhof"
  },
  {
    "postcode": "56288",
    "city": "Dudenroth"
  },
  {
    "postcode": "56288",
    "city": "Külz"
  },
  {
    "postcode": "56290",
    "city": "Beltheim"
  },
  {
    "postcode": "56290",
    "city": "Buch Hunsrück"
  },
  {
    "postcode": "56290",
    "city": "Buch"
  },
  {
    "postcode": "56290",
    "city": "Dommershausen"
  },
  {
    "postcode": "56290",
    "city": "Dorweiler Hunsrück"
  },
  {
    "postcode": "56290",
    "city": "Dorweiler"
  },
  {
    "postcode": "56290",
    "city": "Eveshausen"
  },
  {
    "postcode": "56290",
    "city": "Frankweiler Hunsrück"
  },
  {
    "postcode": "56290",
    "city": "Frankweiler"
  },
  {
    "postcode": "56290",
    "city": "Gödenroth"
  },
  {
    "postcode": "56290",
    "city": "Heyweiler"
  },
  {
    "postcode": "56290",
    "city": "Lieg"
  },
  {
    "postcode": "56290",
    "city": "Lütz"
  },
  {
    "postcode": "56290",
    "city": "Macken"
  },
  {
    "postcode": "56290",
    "city": "Mannebach Hunsrück"
  },
  {
    "postcode": "56290",
    "city": "Mannebach"
  },
  {
    "postcode": "56290",
    "city": "Mörsdorf Hunsrück"
  },
  {
    "postcode": "56290",
    "city": "Mörsdorf"
  },
  {
    "postcode": "56290",
    "city": "Mörz Hunsrück"
  },
  {
    "postcode": "56290",
    "city": "Mörz"
  },
  {
    "postcode": "56290",
    "city": "Sabershausen"
  },
  {
    "postcode": "56290",
    "city": "Schnellbach bei Kastellaun"
  },
  {
    "postcode": "56290",
    "city": "Sevenich Hunsrück"
  },
  {
    "postcode": "56290",
    "city": "Sevenich"
  },
  {
    "postcode": "56290",
    "city": "Uhler"
  },
  {
    "postcode": "56290",
    "city": "Cochem-Zell"
  },
  {
    "postcode": "56290",
    "city": "Schnellbach"
  },
  {
    "postcode": "56291",
    "city": "Badenhard"
  },
  {
    "postcode": "56291",
    "city": "Bickenbach Hunsrück"
  },
  {
    "postcode": "56291",
    "city": "Bickenbach"
  },
  {
    "postcode": "56291",
    "city": "Birkheim"
  },
  {
    "postcode": "56291",
    "city": "Borbach Hunsrück"
  },
  {
    "postcode": "56291",
    "city": "Borbach"
  },
  {
    "postcode": "56291",
    "city": "Hausbay"
  },
  {
    "postcode": "56291",
    "city": "Kisselbach Hunsrück"
  },
  {
    "postcode": "56291",
    "city": "Kisselbach"
  },
  {
    "postcode": "56291",
    "city": "Laudert"
  },
  {
    "postcode": "56291",
    "city": "Leiningen Hunsrück"
  },
  {
    "postcode": "56291",
    "city": "Leiningen"
  },
  {
    "postcode": "56291",
    "city": "Lingerhahn"
  },
  {
    "postcode": "56291",
    "city": "Maisborn"
  },
  {
    "postcode": "56291",
    "city": "Mühlpfad"
  },
  {
    "postcode": "56291",
    "city": "Nenzhäuserhof"
  },
  {
    "postcode": "56291",
    "city": "Niedert"
  },
  {
    "postcode": "56291",
    "city": "Norath"
  },
  {
    "postcode": "56291",
    "city": "Pfalzfeld Hunsrück"
  },
  {
    "postcode": "56291",
    "city": "Pfalzfeld"
  },
  {
    "postcode": "56291",
    "city": "Steinbach Hunsrück"
  },
  {
    "postcode": "56291",
    "city": "Steinbach"
  },
  {
    "postcode": "56291",
    "city": "Thörlingen"
  },
  {
    "postcode": "56291",
    "city": "Utzenhain"
  },
  {
    "postcode": "56291",
    "city": "Wiebelsheim Hunsrück"
  },
  {
    "postcode": "56291",
    "city": "Wiebelsheim"
  },
  {
    "postcode": "56291",
    "city": "Rhein-Hunsrück-Kreis"
  },
  {
    "postcode": "56291",
    "city": "Kehlenmühle"
  },
  {
    "postcode": "56291",
    "city": "Ostersmühle"
  },
  {
    "postcode": "56294",
    "city": "Gappenach"
  },
  {
    "postcode": "56294",
    "city": "Gemeinde Moselkern"
  },
  {
    "postcode": "56294",
    "city": "Gierschnach"
  },
  {
    "postcode": "56294",
    "city": "Kalt"
  },
  {
    "postcode": "56294",
    "city": "Keldung"
  },
  {
    "postcode": "56294",
    "city": "Küttig"
  },
  {
    "postcode": "56294",
    "city": "Lasserg"
  },
  {
    "postcode": "56294",
    "city": "Metternich"
  },
  {
    "postcode": "56294",
    "city": "Mörz"
  },
  {
    "postcode": "56294",
    "city": "Münstermaifeld"
  },
  {
    "postcode": "56294",
    "city": "Österhof"
  },
  {
    "postcode": "56294",
    "city": "Sevenich"
  },
  {
    "postcode": "56294",
    "city": "Wierschem"
  },
  {
    "postcode": "56294",
    "city": "Windhäuserhof"
  },
  {
    "postcode": "56294",
    "city": "Mayen-Koblenz"
  },
  {
    "postcode": "56294",
    "city": "Moselkern"
  },
  {
    "postcode": "56294",
    "city": "Pilligerheck"
  },
  {
    "postcode": "56295",
    "city": "Kerben"
  },
  {
    "postcode": "56295",
    "city": "Lonnig"
  },
  {
    "postcode": "56295",
    "city": "Minkelfeld bei Koblenz"
  },
  {
    "postcode": "56295",
    "city": "Rüber"
  },
  {
    "postcode": "56295",
    "city": "Mayen-Koblenz"
  },
  {
    "postcode": "56299",
    "city": "Ochtendung"
  },
  {
    "postcode": "56299",
    "city": "Sürzerhof"
  },
  {
    "postcode": "56299",
    "city": "Mayen-Koblenz"
  },
  {
    "postcode": "56305",
    "city": "Bauscheid"
  },
  {
    "postcode": "56305",
    "city": "Breitscheid bei Puderbach Westerwald"
  },
  {
    "postcode": "56305",
    "city": "Breitscheid bei Puderbach"
  },
  {
    "postcode": "56305",
    "city": "Döttesfeld"
  },
  {
    "postcode": "56305",
    "city": "Haberscheid Westerwald"
  },
  {
    "postcode": "56305",
    "city": "Haberscheid"
  },
  {
    "postcode": "56305",
    "city": "Niederdreis"
  },
  {
    "postcode": "56305",
    "city": "Oberähren"
  },
  {
    "postcode": "56305",
    "city": "Puderbach"
  },
  {
    "postcode": "56305",
    "city": "Puderbach Westerwald"
  },
  {
    "postcode": "56305",
    "city": "Reichenstein Westerwald"
  },
  {
    "postcode": "56305",
    "city": "Reichenstein"
  },
  {
    "postcode": "56305",
    "city": "Richert Westerwald"
  },
  {
    "postcode": "56305",
    "city": "Richert"
  },
  {
    "postcode": "56305",
    "city": "Neuwied"
  },
  {
    "postcode": "56305",
    "city": "Niederähren"
  },
  {
    "postcode": "56305",
    "city": "Breitscheid"
  },
  {
    "postcode": "56307",
    "city": "Daufenbach Westerwald"
  },
  {
    "postcode": "56307",
    "city": "Daufenbach"
  },
  {
    "postcode": "56307",
    "city": "Dernbach bei Dierdorf"
  },
  {
    "postcode": "56307",
    "city": "Dürrholz"
  },
  {
    "postcode": "56307",
    "city": "Harschbach"
  },
  {
    "postcode": "56307",
    "city": "Muscheid"
  },
  {
    "postcode": "56307",
    "city": "Werlenbach Westerwald"
  },
  {
    "postcode": "56307",
    "city": "Werlenbach"
  },
  {
    "postcode": "56307",
    "city": "Neuwied"
  },
  {
    "postcode": "56307",
    "city": "Dernbach"
  },
  {
    "postcode": "56316",
    "city": "Hanroth"
  },
  {
    "postcode": "56316",
    "city": "Hedwigsthal Gemeinde Hauroth"
  },
  {
    "postcode": "56316",
    "city": "Hedwigsthal"
  },
  {
    "postcode": "56316",
    "city": "Niederhofen Westerwald"
  },
  {
    "postcode": "56316",
    "city": "Niederhofen"
  },
  {
    "postcode": "56316",
    "city": "Raubach Westerwald"
  },
  {
    "postcode": "56316",
    "city": "Raubach"
  },
  {
    "postcode": "56316",
    "city": "Neuwied"
  },
  {
    "postcode": "56317",
    "city": "Linkenbach Westerwald"
  },
  {
    "postcode": "56317",
    "city": "Linkenbach"
  },
  {
    "postcode": "56317",
    "city": "Urbach Westerwald"
  },
  {
    "postcode": "56317",
    "city": "Urbach"
  },
  {
    "postcode": "56317",
    "city": "Neuwied"
  },
  {
    "postcode": "56321",
    "city": "Brey"
  },
  {
    "postcode": "56321",
    "city": "Rhens"
  },
  {
    "postcode": "56321",
    "city": "Siebenborn bei Spay Rhein"
  },
  {
    "postcode": "56321",
    "city": "Siebenborn bei Spay"
  },
  {
    "postcode": "56321",
    "city": "Mayen-Koblenz"
  },
  {
    "postcode": "56321",
    "city": "Siebenborn"
  },
  {
    "postcode": "56322",
    "city": "Spay Rhein"
  },
  {
    "postcode": "56322",
    "city": "Spay"
  },
  {
    "postcode": "56322",
    "city": "Mayen-Koblenz"
  },
  {
    "postcode": "56323",
    "city": "Waldesch bei Koblenz am Rhein"
  },
  {
    "postcode": "56323",
    "city": "Mayen-Koblenz"
  },
  {
    "postcode": "56323",
    "city": "Hünenfeld"
  },
  {
    "postcode": "56323",
    "city": "Waldesch"
  },
  {
    "postcode": "56329",
    "city": "Biebernheim"
  },
  {
    "postcode": "56329",
    "city": "Fellen"
  },
  {
    "postcode": "56329",
    "city": "Prinzenstein"
  },
  {
    "postcode": "56329",
    "city": "Sankt Goar"
  },
  {
    "postcode": "56329",
    "city": "Werlau"
  },
  {
    "postcode": "56329",
    "city": "Rhein-Hunsrück-Kreis"
  },
  {
    "postcode": "56329",
    "city": "St. Goar"
  },
  {
    "postcode": "56329",
    "city": "Gründelbach"
  },
  {
    "postcode": "56330",
    "city": "Dreckenach"
  },
  {
    "postcode": "56330",
    "city": "Gondorf"
  },
  {
    "postcode": "56330",
    "city": "Kobern"
  },
  {
    "postcode": "56330",
    "city": "Kobern-Gondorf"
  },
  {
    "postcode": "56330",
    "city": "Mayen-Koblenz"
  },
  {
    "postcode": "56330",
    "city": "Fißmühle"
  },
  {
    "postcode": "56330",
    "city": "Achterspannerhof"
  },
  {
    "postcode": "56330",
    "city": "Lehmen"
  },
  {
    "postcode": "56330",
    "city": "Sürzerhof"
  },
  {
    "postcode": "56332",
    "city": "Alken Mosel"
  },
  {
    "postcode": "56332",
    "city": "Alken"
  },
  {
    "postcode": "56332",
    "city": "Brodenbach"
  },
  {
    "postcode": "56332",
    "city": "Burgen Mosel"
  },
  {
    "postcode": "56332",
    "city": "Burgen"
  },
  {
    "postcode": "56332",
    "city": "Dieblich"
  },
  {
    "postcode": "56332",
    "city": "Ehrenburgertal"
  },
  {
    "postcode": "56332",
    "city": "Försterhof"
  },
  {
    "postcode": "56332",
    "city": "Hatzenport"
  },
  {
    "postcode": "56332",
    "city": "Kattenes"
  },
  {
    "postcode": "56332",
    "city": "Kröpplingen"
  },
  {
    "postcode": "56332",
    "city": "Kühr Mosel"
  },
  {
    "postcode": "56332",
    "city": "Kühr"
  },
  {
    "postcode": "56332",
    "city": "Lehmen"
  },
  {
    "postcode": "56332",
    "city": "Lehmen Mosel"
  },
  {
    "postcode": "56332",
    "city": "Lehmerhöfe Mosel"
  },
  {
    "postcode": "56332",
    "city": "Lehmerhöfe"
  },
  {
    "postcode": "56332",
    "city": "Löf"
  },
  {
    "postcode": "56332",
    "city": "Moselsürsch Mosel"
  },
  {
    "postcode": "56332",
    "city": "Moselsürsch"
  },
  {
    "postcode": "56332",
    "city": "Niederfell Mosel"
  },
  {
    "postcode": "56332",
    "city": "Niederfell"
  },
  {
    "postcode": "56332",
    "city": "Oberfell Mosel"
  },
  {
    "postcode": "56332",
    "city": "Oberfell"
  },
  {
    "postcode": "56332",
    "city": "Wolken bei Koblenz am Rhein"
  },
  {
    "postcode": "56332",
    "city": "Mayen-Koblenz"
  },
  {
    "postcode": "56332",
    "city": "Franzenmühle"
  },
  {
    "postcode": "56332",
    "city": "Gastemühle"
  },
  {
    "postcode": "56332",
    "city": "Mohrenmühle"
  },
  {
    "postcode": "56332",
    "city": "Rosenhof"
  },
  {
    "postcode": "56332",
    "city": "Schwalberhof"
  },
  {
    "postcode": "56332",
    "city": "Wolken"
  },
  {
    "postcode": "56332",
    "city": "Mariaroth"
  },
  {
    "postcode": "56333",
    "city": "Winningen Mosel"
  },
  {
    "postcode": "56333",
    "city": "Winningen"
  },
  {
    "postcode": "56333",
    "city": "Mayen-Koblenz"
  },
  {
    "postcode": "56335",
    "city": "Neuhäusel Westerwald"
  },
  {
    "postcode": "56335",
    "city": "Neuhäusel"
  },
  {
    "postcode": "56335",
    "city": "Westerwaldkreis"
  },
  {
    "postcode": "56337",
    "city": "Arzbach Westerwald"
  },
  {
    "postcode": "56337",
    "city": "Arzbach"
  },
  {
    "postcode": "56337",
    "city": "Eitelborn"
  },
  {
    "postcode": "56337",
    "city": "Kadenbach"
  },
  {
    "postcode": "56337",
    "city": "Simmern Westerwald"
  },
  {
    "postcode": "56337",
    "city": "Simmern"
  },
  {
    "postcode": "56337",
    "city": "Rhein-Lahn-Kreis"
  },
  {
    "postcode": "56338",
    "city": "Braubach"
  },
  {
    "postcode": "56338",
    "city": "Rhein-Lahn-Kreis"
  },
  {
    "postcode": "56340",
    "city": "Dachsenhausen"
  },
  {
    "postcode": "56340",
    "city": "Osterspai"
  },
  {
    "postcode": "56340",
    "city": "Rhein-Lahn-Kreis"
  },
  {
    "postcode": "56340",
    "city": "Büchelborn"
  },
  {
    "postcode": "56340",
    "city": "Dachsborn"
  },
  {
    "postcode": "56340",
    "city": "Erlenborn"
  },
  {
    "postcode": "56341",
    "city": "Domäne Marienberg"
  },
  {
    "postcode": "56341",
    "city": "Domäne Marienberg"
  },
  {
    "postcode": "56341",
    "city": "Filsen"
  },
  {
    "postcode": "56341",
    "city": "Kamp-Bornhofen Rhein"
  },
  {
    "postcode": "56341",
    "city": "Kamp-Bornhofen"
  },
  {
    "postcode": "56341",
    "city": "Rhein-Lahn-Kreis"
  },
  {
    "postcode": "56346",
    "city": "Gemeinde Patersberg"
  },
  {
    "postcode": "56346",
    "city": "Lykershausen"
  },
  {
    "postcode": "56346",
    "city": "Prath"
  },
  {
    "postcode": "56346",
    "city": "Sankt Goarshausen"
  },
  {
    "postcode": "56346",
    "city": "Sankt Goarshausen Loreleystadt"
  },
  {
    "postcode": "56346",
    "city": "Rhein-Lahn-Kreis"
  },
  {
    "postcode": "56346",
    "city": "Bornich"
  },
  {
    "postcode": "56346",
    "city": "Bornsmühle"
  },
  {
    "postcode": "56346",
    "city": "Gute Mühle"
  },
  {
    "postcode": "56346",
    "city": "Saueressigs Mühle"
  },
  {
    "postcode": "56346",
    "city": "St. Goarshausen"
  },
  {
    "postcode": "56346",
    "city": "Ströbels Mühle"
  },
  {
    "postcode": "56346",
    "city": "Theismühlen"
  },
  {
    "postcode": "56346",
    "city": "Heide"
  },
  {
    "postcode": "56346",
    "city": "Wellmich"
  },
  {
    "postcode": "56346",
    "city": "Ehrenthal"
  },
  {
    "postcode": "56348",
    "city": "Bornich Taunus"
  },
  {
    "postcode": "56348",
    "city": "Bornich"
  },
  {
    "postcode": "56348",
    "city": "Dahlheim Taunus"
  },
  {
    "postcode": "56348",
    "city": "Dahlheim"
  },
  {
    "postcode": "56348",
    "city": "Dörscheid"
  },
  {
    "postcode": "56348",
    "city": "Kestert"
  },
  {
    "postcode": "56348",
    "city": "Oberkestert"
  },
  {
    "postcode": "56348",
    "city": "Patersberg"
  },
  {
    "postcode": "56348",
    "city": "Weisel bei Sankt Goarshausen"
  },
  {
    "postcode": "56348",
    "city": "Rhein-Lahn-Kreis"
  },
  {
    "postcode": "56348",
    "city": "Weisel"
  },
  {
    "postcode": "56349",
    "city": "Kaub"
  },
  {
    "postcode": "56349",
    "city": "Rhein-Lahn-Kreis"
  },
  {
    "postcode": "56349",
    "city": "Viktoriastollen"
  },
  {
    "postcode": "56355",
    "city": "Bettendorf bei Nastätten"
  },
  {
    "postcode": "56355",
    "city": "Diethardt"
  },
  {
    "postcode": "56355",
    "city": "Endlichhofen"
  },
  {
    "postcode": "56355",
    "city": "Funkenmühle"
  },
  {
    "postcode": "56355",
    "city": "Hunzel"
  },
  {
    "postcode": "56355",
    "city": "Kehlbach bei Nastätten"
  },
  {
    "postcode": "56355",
    "city": "Lautert"
  },
  {
    "postcode": "56355",
    "city": "Nastätten"
  },
  {
    "postcode": "56355",
    "city": "Oberbachheim"
  },
  {
    "postcode": "56355",
    "city": "Weidenbach Taunus"
  },
  {
    "postcode": "56355",
    "city": "Weidenbach"
  },
  {
    "postcode": "56355",
    "city": "Winterwerb"
  },
  {
    "postcode": "56355",
    "city": "Rhein-Lahn-Kreis"
  },
  {
    "postcode": "56355",
    "city": "Bettendorf"
  },
  {
    "postcode": "56355",
    "city": "Kehlbach"
  },
  {
    "postcode": "56357",
    "city": "Auel bei Sankt Goarshausen"
  },
  {
    "postcode": "56357",
    "city": "Berg Taunus"
  },
  {
    "postcode": "56357",
    "city": "Berg"
  },
  {
    "postcode": "56357",
    "city": "Bogel"
  },
  {
    "postcode": "56357",
    "city": "Buch Taunus"
  },
  {
    "postcode": "56357",
    "city": "Buch"
  },
  {
    "postcode": "56357",
    "city": "Dessighofen"
  },
  {
    "postcode": "56357",
    "city": "Dornholzhausen Rhein-Lahn-Kreis"
  },
  {
    "postcode": "56357",
    "city": "Dornholzhausen"
  },
  {
    "postcode": "56357",
    "city": "Ehr bei Nastätten"
  },
  {
    "postcode": "56357",
    "city": "Eschbach bei Nastätten"
  },
  {
    "postcode": "56357",
    "city": "Geisig"
  },
  {
    "postcode": "56357",
    "city": "Gemmerich"
  },
  {
    "postcode": "56357",
    "city": "Hainau"
  },
  {
    "postcode": "56357",
    "city": "Himmighofen"
  },
  {
    "postcode": "56357",
    "city": "Holzhausen an der Haide"
  },
  {
    "postcode": "56357",
    "city": "Kasdorf"
  },
  {
    "postcode": "56357",
    "city": "Lierschied"
  },
  {
    "postcode": "56357",
    "city": "Lipporn"
  },
  {
    "postcode": "56357",
    "city": "Lollschied"
  },
  {
    "postcode": "56357",
    "city": "Marienfels"
  },
  {
    "postcode": "56357",
    "city": "Miehlen Taunus"
  },
  {
    "postcode": "56357",
    "city": "Miehlen"
  },
  {
    "postcode": "56357",
    "city": "Niederbachheim"
  },
  {
    "postcode": "56357",
    "city": "Niederwallmenach"
  },
  {
    "postcode": "56357",
    "city": "Nochern"
  },
  {
    "postcode": "56357",
    "city": "Obertiefenbach Taunus"
  },
  {
    "postcode": "56357",
    "city": "Obertiefenbach"
  },
  {
    "postcode": "56357",
    "city": "Oberwallmenach"
  },
  {
    "postcode": "56357",
    "city": "Oelsberg"
  },
  {
    "postcode": "56357",
    "city": "Pohl bei Nassau"
  },
  {
    "postcode": "56357",
    "city": "Reichenberg Rhein-Lahn-Kreis"
  },
  {
    "postcode": "56357",
    "city": "Reichenberg"
  },
  {
    "postcode": "56357",
    "city": "Reitzenhain Taunus"
  },
  {
    "postcode": "56357",
    "city": "Reitzenhain"
  },
  {
    "postcode": "56357",
    "city": "Rettershain"
  },
  {
    "postcode": "56357",
    "city": "Ruppertshofen Taunus"
  },
  {
    "postcode": "56357",
    "city": "Ruppertshofen"
  },
  {
    "postcode": "56357",
    "city": "Strüth Taunus"
  },
  {
    "postcode": "56357",
    "city": "Strüth"
  },
  {
    "postcode": "56357",
    "city": "Welterod"
  },
  {
    "postcode": "56357",
    "city": "Weyer Taunus"
  },
  {
    "postcode": "56357",
    "city": "Weyer"
  },
  {
    "postcode": "56357",
    "city": "Rhein-Lahn-Kreis"
  },
  {
    "postcode": "56357",
    "city": "Auel"
  },
  {
    "postcode": "56357",
    "city": "Ehr"
  },
  {
    "postcode": "56357",
    "city": "Eschbach"
  },
  {
    "postcode": "56357",
    "city": "Hasenmühle"
  },
  {
    "postcode": "56357",
    "city": "Hollermühle"
  },
  {
    "postcode": "56357",
    "city": "Pohl"
  },
  {
    "postcode": "56357",
    "city": "Uhusmühle"
  },
  {
    "postcode": "56368",
    "city": "Berghausen Rhein-Lahn-Kreis"
  },
  {
    "postcode": "56368",
    "city": "Berghausen"
  },
  {
    "postcode": "56368",
    "city": "Ergeshausen"
  },
  {
    "postcode": "56368",
    "city": "Herold Rhein-Lahn-Kreis"
  },
  {
    "postcode": "56368",
    "city": "Herold"
  },
  {
    "postcode": "56368",
    "city": "Katzenelnbogen"
  },
  {
    "postcode": "56368",
    "city": "Klingelbach"
  },
  {
    "postcode": "56368",
    "city": "Niedertiefenbach Rhein-Lahn-Kreis"
  },
  {
    "postcode": "56368",
    "city": "Niedertiefenbach"
  },
  {
    "postcode": "56368",
    "city": "Roth Rhein-Lahn-Kreis"
  },
  {
    "postcode": "56368",
    "city": "Roth"
  },
  {
    "postcode": "56368",
    "city": "Rhein-Lahn-Kreis"
  },
  {
    "postcode": "56370",
    "city": "Ackerbach"
  },
  {
    "postcode": "56370",
    "city": "Allendorf Rhein-Lahn-Kreis"
  },
  {
    "postcode": "56370",
    "city": "Allendorf"
  },
  {
    "postcode": "56370",
    "city": "Attenhausen Rhein-Lahn-Kreis"
  },
  {
    "postcode": "56370",
    "city": "Attenhausen"
  },
  {
    "postcode": "56370",
    "city": "Berndroth"
  },
  {
    "postcode": "56370",
    "city": "Biebrich bei Katzenelnbogen"
  },
  {
    "postcode": "56370",
    "city": "Bremberg bei Katzenelnbogen"
  },
  {
    "postcode": "56370",
    "city": "Dörsdorf Taunus"
  },
  {
    "postcode": "56370",
    "city": "Dörsdorf"
  },
  {
    "postcode": "56370",
    "city": "Ebertshausen Rhein-Lahn-Kreis"
  },
  {
    "postcode": "56370",
    "city": "Ebertshausen"
  },
  {
    "postcode": "56370",
    "city": "Eisighofen"
  },
  {
    "postcode": "56370",
    "city": "Gutenacker"
  },
  {
    "postcode": "56370",
    "city": "Kördorf"
  },
  {
    "postcode": "56370",
    "city": "Mittelfischbach Rhein-Lahn-Kreis"
  },
  {
    "postcode": "56370",
    "city": "Mittelfischbach"
  },
  {
    "postcode": "56370",
    "city": "Oberfischbach Rhein-Lahn-Kreis"
  },
  {
    "postcode": "56370",
    "city": "Oberfischbach"
  },
  {
    "postcode": "56370",
    "city": "Reckenroth"
  },
  {
    "postcode": "56370",
    "city": "Rettert"
  },
  {
    "postcode": "56370",
    "city": "Schönborn Rhein-Lahn-Kreis"
  },
  {
    "postcode": "56370",
    "city": "Schönborn"
  },
  {
    "postcode": "56370",
    "city": "Wasenbach"
  },
  {
    "postcode": "56370",
    "city": "Rhein-Lahn-Kreis"
  },
  {
    "postcode": "56370",
    "city": "Biebrich"
  },
  {
    "postcode": "56370",
    "city": "Bremberg"
  },
  {
    "postcode": "56377",
    "city": "Bergnassau"
  },
  {
    "postcode": "56377",
    "city": "Misselberg"
  },
  {
    "postcode": "56377",
    "city": "Nassau"
  },
  {
    "postcode": "56377",
    "city": "Nassau Lahn"
  },
  {
    "postcode": "56377",
    "city": "Schweighausen bei Nassau"
  },
  {
    "postcode": "56377",
    "city": "Seelbach bei Nassau"
  },
  {
    "postcode": "56377",
    "city": "Rhein-Lahn-Kreis"
  },
  {
    "postcode": "56377",
    "city": "Gieshübel"
  },
  {
    "postcode": "56377",
    "city": "Herbelsmühle"
  },
  {
    "postcode": "56377",
    "city": "Kalkofen Gem Dörnberg"
  },
  {
    "postcode": "56377",
    "city": "Schleuse"
  },
  {
    "postcode": "56377",
    "city": "Schweighausen"
  },
  {
    "postcode": "56377",
    "city": "Seelbach"
  },
  {
    "postcode": "56377",
    "city": "Scheuern"
  },
  {
    "postcode": "56379",
    "city": "Charlottenberg bei Holzappel Rhein-Lahn-Kreis"
  },
  {
    "postcode": "56379",
    "city": "Charlottenberg bei Holzappel"
  },
  {
    "postcode": "56379",
    "city": "Dienethal"
  },
  {
    "postcode": "56379",
    "city": "Dörnberg bei Holzappel Rhein-Lahn-Kreis"
  },
  {
    "postcode": "56379",
    "city": "Dörnberg bei Holzappel"
  },
  {
    "postcode": "56379",
    "city": "Geilnau"
  },
  {
    "postcode": "56379",
    "city": "Holzappel Rhein-Lahn-Kreis"
  },
  {
    "postcode": "56379",
    "city": "Holzappel"
  },
  {
    "postcode": "56379",
    "city": "Hömberg"
  },
  {
    "postcode": "56379",
    "city": "Horhausen Rhein-Lahn-Kreis"
  },
  {
    "postcode": "56379",
    "city": "Horhausen"
  },
  {
    "postcode": "56379",
    "city": "Laurenburg"
  },
  {
    "postcode": "56379",
    "city": "Obernhof Lahn"
  },
  {
    "postcode": "56379",
    "city": "Obernhof"
  },
  {
    "postcode": "56379",
    "city": "Oberwies bei Nassau"
  },
  {
    "postcode": "56379",
    "city": "Scheidt Rhein-Lahn-Kreis"
  },
  {
    "postcode": "56379",
    "city": "Scheidt"
  },
  {
    "postcode": "56379",
    "city": "Singhofen"
  },
  {
    "postcode": "56379",
    "city": "Steinsberg Rhein-Lahn-Kreis"
  },
  {
    "postcode": "56379",
    "city": "Steinsberg"
  },
  {
    "postcode": "56379",
    "city": "Sulzbach Rhein-Lahn-Kreis"
  },
  {
    "postcode": "56379",
    "city": "Sulzbach"
  },
  {
    "postcode": "56379",
    "city": "Weinähr"
  },
  {
    "postcode": "56379",
    "city": "Winden Rhein-Lahn-Kreis"
  },
  {
    "postcode": "56379",
    "city": "Winden"
  },
  {
    "postcode": "56379",
    "city": "Zimmerschied"
  },
  {
    "postcode": "56379",
    "city": "Rhein-Lahn-Kreis"
  },
  {
    "postcode": "56379",
    "city": "Arnstein"
  },
  {
    "postcode": "56379",
    "city": "Bergerhof"
  },
  {
    "postcode": "56379",
    "city": "Buchholz"
  },
  {
    "postcode": "56379",
    "city": "Charlottenberg"
  },
  {
    "postcode": "56379",
    "city": "Dörnberg"
  },
  {
    "postcode": "56379",
    "city": "Gasteyers Mühle"
  },
  {
    "postcode": "56379",
    "city": "Hütte Gem Dörnberg"
  },
  {
    "postcode": "56379",
    "city": "Oberwies"
  },
  {
    "postcode": "56379",
    "city": "Rupbach Gem Bremberg"
  },
  {
    "postcode": "56379",
    "city": "Rupbach Gem Gutenacker"
  },
  {
    "postcode": "56379",
    "city": "Salscheid"
  },
  {
    "postcode": "56379",
    "city": "Steckenbergermühle"
  },
  {
    "postcode": "56379",
    "city": "Gutenacker"
  },
  {
    "postcode": "56410",
    "city": "Bladernheim"
  },
  {
    "postcode": "56410",
    "city": "Elgendorf"
  },
  {
    "postcode": "56410",
    "city": "Eschelbach Westerwald"
  },
  {
    "postcode": "56410",
    "city": "Eschelbach"
  },
  {
    "postcode": "56410",
    "city": "Ettersdorf"
  },
  {
    "postcode": "56410",
    "city": "Horressen"
  },
  {
    "postcode": "56410",
    "city": "Montabaur"
  },
  {
    "postcode": "56410",
    "city": "Reckenthal"
  },
  {
    "postcode": "56410",
    "city": "Wirzenborn"
  },
  {
    "postcode": "56410",
    "city": "Westerwaldkreis"
  },
  {
    "postcode": "56412",
    "city": "Boden Westerwald"
  },
  {
    "postcode": "56412",
    "city": "Boden"
  },
  {
    "postcode": "56412",
    "city": "Daubach Westerwald"
  },
  {
    "postcode": "56412",
    "city": "Daubach"
  },
  {
    "postcode": "56412",
    "city": "Gackenbach"
  },
  {
    "postcode": "56412",
    "city": "Girod"
  },
  {
    "postcode": "56412",
    "city": "Görgeshausen"
  },
  {
    "postcode": "56412",
    "city": "Großholbach"
  },
  {
    "postcode": "56412",
    "city": "Heilberscheid"
  },
  {
    "postcode": "56412",
    "city": "Heiligenroth"
  },
  {
    "postcode": "56412",
    "city": "Holler Westerwald"
  },
  {
    "postcode": "56412",
    "city": "Holler"
  },
  {
    "postcode": "56412",
    "city": "Horbach Westerwald"
  },
  {
    "postcode": "56412",
    "city": "Horbach"
  },
  {
    "postcode": "56412",
    "city": "Hübingen Westerwald"
  },
  {
    "postcode": "56412",
    "city": "Hübingen"
  },
  {
    "postcode": "56412",
    "city": "Nentershausen Westerwald"
  },
  {
    "postcode": "56412",
    "city": "Nentershausen"
  },
  {
    "postcode": "56412",
    "city": "Niederelbert"
  },
  {
    "postcode": "56412",
    "city": "Niedererbach bei Montabaur"
  },
  {
    "postcode": "56412",
    "city": "Nomborn"
  },
  {
    "postcode": "56412",
    "city": "Oberelbert"
  },
  {
    "postcode": "56412",
    "city": "Ruppach-Goldhausen"
  },
  {
    "postcode": "56412",
    "city": "Stahlhofen Westerwald"
  },
  {
    "postcode": "56412",
    "city": "Stahlhofen"
  },
  {
    "postcode": "56412",
    "city": "Untershausen"
  },
  {
    "postcode": "56412",
    "city": "Welschneudorf"
  },
  {
    "postcode": "56412",
    "city": "Westerwaldkreis"
  },
  {
    "postcode": "56412",
    "city": "Niedererbach"
  },
  {
    "postcode": "56414",
    "city": "Berod bei Wallmerod"
  },
  {
    "postcode": "56414",
    "city": "Bilkheim"
  },
  {
    "postcode": "56414",
    "city": "Dreikirchen"
  },
  {
    "postcode": "56414",
    "city": "Ehringhausen Oberwesterwald"
  },
  {
    "postcode": "56414",
    "city": "Ehringhausen"
  },
  {
    "postcode": "56414",
    "city": "Eisen Oberwesterwald"
  },
  {
    "postcode": "56414",
    "city": "Eisen"
  },
  {
    "postcode": "56414",
    "city": "Herschbach (Oberwesterwald)"
  },
  {
    "postcode": "56414",
    "city": "Herschbach"
  },
  {
    "postcode": "56414",
    "city": "Hundsangen"
  },
  {
    "postcode": "56414",
    "city": "Meudt"
  },
  {
    "postcode": "56414",
    "city": "Molsberg Westerwald"
  },
  {
    "postcode": "56414",
    "city": "Molsberg"
  },
  {
    "postcode": "56414",
    "city": "Niederahr"
  },
  {
    "postcode": "56414",
    "city": "Oberahr"
  },
  {
    "postcode": "56414",
    "city": "Obererbach bei Montabaur"
  },
  {
    "postcode": "56414",
    "city": "Salz Westerwald"
  },
  {
    "postcode": "56414",
    "city": "Salz"
  },
  {
    "postcode": "56414",
    "city": "Steinefrenz"
  },
  {
    "postcode": "56414",
    "city": "Wahnscheid Oberwesterwaldkreis"
  },
  {
    "postcode": "56414",
    "city": "Wahnscheid"
  },
  {
    "postcode": "56414",
    "city": "Wallmerod Westerwald"
  },
  {
    "postcode": "56414",
    "city": "Wallmerod"
  },
  {
    "postcode": "56414",
    "city": "Weroth bei Montabaur"
  },
  {
    "postcode": "56414",
    "city": "Zehnhausen bei Wallmerod"
  },
  {
    "postcode": "56414",
    "city": "Westerwaldkreis"
  },
  {
    "postcode": "56414",
    "city": "Obererbach"
  },
  {
    "postcode": "56414",
    "city": "Weroth"
  },
  {
    "postcode": "56422",
    "city": "Wirges"
  },
  {
    "postcode": "56422",
    "city": "Westerwaldkreis"
  },
  {
    "postcode": "56424",
    "city": "Bannberscheid"
  },
  {
    "postcode": "56424",
    "city": "Ebernhahn"
  },
  {
    "postcode": "56424",
    "city": "Mogendorf"
  },
  {
    "postcode": "56424",
    "city": "Moschheim"
  },
  {
    "postcode": "56424",
    "city": "Staudt"
  },
  {
    "postcode": "56424",
    "city": "Westerwaldkreis"
  },
  {
    "postcode": "56427",
    "city": "Siershahn"
  },
  {
    "postcode": "56427",
    "city": "Westerwaldkreis"
  },
  {
    "postcode": "56428",
    "city": "Dernbach (Westerwald)"
  },
  {
    "postcode": "56428",
    "city": "Dernbach"
  },
  {
    "postcode": "56428",
    "city": "Westerwaldkreis"
  },
  {
    "postcode": "56457",
    "city": "Gershasen"
  },
  {
    "postcode": "56457",
    "city": "Halbs"
  },
  {
    "postcode": "56457",
    "city": "Hergenroth"
  },
  {
    "postcode": "56457",
    "city": "Sainscheid"
  },
  {
    "postcode": "56457",
    "city": "Wengenroth"
  },
  {
    "postcode": "56457",
    "city": "Westerburg"
  },
  {
    "postcode": "56457",
    "city": "Westerburg Westerwald"
  },
  {
    "postcode": "56457",
    "city": "Westerwaldkreis"
  },
  {
    "postcode": "56457",
    "city": "Jeremiasmühle"
  },
  {
    "postcode": "56459",
    "city": "Ailertchen"
  },
  {
    "postcode": "56459",
    "city": "Bellingen Westerwald"
  },
  {
    "postcode": "56459",
    "city": "Bellingen"
  },
  {
    "postcode": "56459",
    "city": "Berzhahn"
  },
  {
    "postcode": "56459",
    "city": "Brandscheid Westerwald"
  },
  {
    "postcode": "56459",
    "city": "Brandscheid"
  },
  {
    "postcode": "56459",
    "city": "Elbingen Westerwald"
  },
  {
    "postcode": "56459",
    "city": "Elbingen"
  },
  {
    "postcode": "56459",
    "city": "Gemünden Westerwald"
  },
  {
    "postcode": "56459",
    "city": "Gemünden"
  },
  {
    "postcode": "56459",
    "city": "Girkenroth"
  },
  {
    "postcode": "56459",
    "city": "Guckheim"
  },
  {
    "postcode": "56459",
    "city": "Härtlingen"
  },
  {
    "postcode": "56459",
    "city": "Himburg Westerwald"
  },
  {
    "postcode": "56459",
    "city": "Himburg"
  },
  {
    "postcode": "56459",
    "city": "Hinterkirchen Westerwald"
  },
  {
    "postcode": "56459",
    "city": "Hinterkirchen"
  },
  {
    "postcode": "56459",
    "city": "Kaden Westerwald"
  },
  {
    "postcode": "56459",
    "city": "Kaden"
  },
  {
    "postcode": "56459",
    "city": "Kölbingen"
  },
  {
    "postcode": "56459",
    "city": "Langenhahn Westerwald"
  },
  {
    "postcode": "56459",
    "city": "Langenhahn"
  },
  {
    "postcode": "56459",
    "city": "Mähren"
  },
  {
    "postcode": "56459",
    "city": "Möllingen"
  },
  {
    "postcode": "56459",
    "city": "Obersayn"
  },
  {
    "postcode": "56459",
    "city": "Pfeifensterz Westerwald"
  },
  {
    "postcode": "56459",
    "city": "Pfeifensterz"
  },
  {
    "postcode": "56459",
    "city": "Pottum"
  },
  {
    "postcode": "56459",
    "city": "Rotenhain"
  },
  {
    "postcode": "56459",
    "city": "Rothenbach"
  },
  {
    "postcode": "56459",
    "city": "Rothenbach Westerwald"
  },
  {
    "postcode": "56459",
    "city": "Stahlhofen am Wiesensee"
  },
  {
    "postcode": "56459",
    "city": "Stockum-Püschen"
  },
  {
    "postcode": "56459",
    "city": "Todtenberg"
  },
  {
    "postcode": "56459",
    "city": "Weltersburg"
  },
  {
    "postcode": "56459",
    "city": "Willmenrod"
  },
  {
    "postcode": "56459",
    "city": "Winnen Westerwald"
  },
  {
    "postcode": "56459",
    "city": "Winnen"
  },
  {
    "postcode": "56459",
    "city": "Wörsdorf"
  },
  {
    "postcode": "56459",
    "city": "Westerwaldkreis"
  },
  {
    "postcode": "56459",
    "city": "Hammermühle"
  },
  {
    "postcode": "56459",
    "city": "Westert"
  },
  {
    "postcode": "56462",
    "city": "Höhn"
  },
  {
    "postcode": "56462",
    "city": "Höhn Westerwald"
  },
  {
    "postcode": "56462",
    "city": "Neuhochstein"
  },
  {
    "postcode": "56462",
    "city": "Oellingen Westerwald"
  },
  {
    "postcode": "56462",
    "city": "Oellingen"
  },
  {
    "postcode": "56462",
    "city": "Schönberg Oberwesterwald"
  },
  {
    "postcode": "56462",
    "city": "Schönberg"
  },
  {
    "postcode": "56462",
    "city": "Westerwaldkreis"
  },
  {
    "postcode": "56462",
    "city": "Hilpischmühle"
  },
  {
    "postcode": "56470",
    "city": "Bad Marienberg"
  },
  {
    "postcode": "56470",
    "city": "Bad Marienberg (Westerwald)"
  },
  {
    "postcode": "56470",
    "city": "Eichenstruth über Westerburg Westerwald"
  },
  {
    "postcode": "56470",
    "city": "Eichenstruth über Westerburg"
  },
  {
    "postcode": "56470",
    "city": "Langenbach bei Bad Marienberg"
  },
  {
    "postcode": "56470",
    "city": "Zinhain"
  },
  {
    "postcode": "56470",
    "city": "Westerwaldkreis"
  },
  {
    "postcode": "56470",
    "city": "Langenbach"
  },
  {
    "postcode": "56470",
    "city": "Eichenstruth"
  },
  {
    "postcode": "56472",
    "city": "Bach Westerwald"
  },
  {
    "postcode": "56472",
    "city": "Bach"
  },
  {
    "postcode": "56472",
    "city": "Dreisbach Westerwald"
  },
  {
    "postcode": "56472",
    "city": "Dreisbach"
  },
  {
    "postcode": "56472",
    "city": "Fehl-Ritzhausen"
  },
  {
    "postcode": "56472",
    "city": "Großseifen"
  },
  {
    "postcode": "56472",
    "city": "Hahn bei Marienberg"
  },
  {
    "postcode": "56472",
    "city": "Hardt Westerwald"
  },
  {
    "postcode": "56472",
    "city": "Hardt"
  },
  {
    "postcode": "56472",
    "city": "Hof Westerwald"
  },
  {
    "postcode": "56472",
    "city": "Hof"
  },
  {
    "postcode": "56472",
    "city": "Hölzchen"
  },
  {
    "postcode": "56472",
    "city": "Lautzenbrücken"
  },
  {
    "postcode": "56472",
    "city": "Nisterau"
  },
  {
    "postcode": "56472",
    "city": "Nisterberg Westerwald"
  },
  {
    "postcode": "56472",
    "city": "Nisterberg"
  },
  {
    "postcode": "56472",
    "city": "Pfuhl Westerwald"
  },
  {
    "postcode": "56472",
    "city": "Pfuhl"
  },
  {
    "postcode": "56472",
    "city": "Stockhausen-Illfurth"
  },
  {
    "postcode": "56472",
    "city": "Altenkirchen"
  },
  {
    "postcode": "56472",
    "city": "Dammühle"
  },
  {
    "postcode": "56472",
    "city": "Bad Marienberg"
  },
  {
    "postcode": "56477",
    "city": "Emmerichenhain"
  },
  {
    "postcode": "56477",
    "city": "Nister-Möhrendorf"
  },
  {
    "postcode": "56477",
    "city": "Rennerod"
  },
  {
    "postcode": "56477",
    "city": "Rennerod Westerwald"
  },
  {
    "postcode": "56477",
    "city": "Waigandshain"
  },
  {
    "postcode": "56477",
    "city": "Zehnhausen bei Rennerod"
  },
  {
    "postcode": "56477",
    "city": "Westerwaldkreis"
  },
  {
    "postcode": "56479",
    "city": "Bretthausen bei Rennerod"
  },
  {
    "postcode": "56479",
    "city": "Elsoff (Westerwald)"
  },
  {
    "postcode": "56479",
    "city": "Elsoff"
  },
  {
    "postcode": "56479",
    "city": "Hellenhahn-Schellenberg"
  },
  {
    "postcode": "56479",
    "city": "Homberg Westerwald"
  },
  {
    "postcode": "56479",
    "city": "Homberg"
  },
  {
    "postcode": "56479",
    "city": "Hüblingen"
  },
  {
    "postcode": "56479",
    "city": "Irmtraut"
  },
  {
    "postcode": "56479",
    "city": "Liebenscheid"
  },
  {
    "postcode": "56479",
    "city": "Löhnfeld"
  },
  {
    "postcode": "56479",
    "city": "Mittelhofen über Westerburg Westerwald"
  },
  {
    "postcode": "56479",
    "city": "Mittelhofen über Westerburg"
  },
  {
    "postcode": "56479",
    "city": "Neunkirchen Westerwald"
  },
  {
    "postcode": "56479",
    "city": "Neunkirchen"
  },
  {
    "postcode": "56479",
    "city": "Neustadt / Westerwald"
  },
  {
    "postcode": "56479",
    "city": "Neustadt"
  },
  {
    "postcode": "56479",
    "city": "Niederroßbach Westerwald"
  },
  {
    "postcode": "56479",
    "city": "Niederroßbach"
  },
  {
    "postcode": "56479",
    "city": "Oberrod Westerwald"
  },
  {
    "postcode": "56479",
    "city": "Oberrod"
  },
  {
    "postcode": "56479",
    "city": "Oberroßbach Westerwald"
  },
  {
    "postcode": "56479",
    "city": "Oberroßbach"
  },
  {
    "postcode": "56479",
    "city": "Rehe"
  },
  {
    "postcode": "56479",
    "city": "Salzburg Westerwald"
  },
  {
    "postcode": "56479",
    "city": "Salzburg"
  },
  {
    "postcode": "56479",
    "city": "Seck"
  },
  {
    "postcode": "56479",
    "city": "Stein-Neukirch"
  },
  {
    "postcode": "56479",
    "city": "Waldmühlen"
  },
  {
    "postcode": "56479",
    "city": "Weißenberg Westerwald"
  },
  {
    "postcode": "56479",
    "city": "Weißenberg"
  },
  {
    "postcode": "56479",
    "city": "Westernohe"
  },
  {
    "postcode": "56479",
    "city": "Willingen Westerwald"
  },
  {
    "postcode": "56479",
    "city": "Willingen"
  },
  {
    "postcode": "56479",
    "city": "Westerwaldkreis"
  },
  {
    "postcode": "56479",
    "city": "Bretthausen"
  },
  {
    "postcode": "56479",
    "city": "Mittelhofen"
  },
  {
    "postcode": "56564",
    "city": "Neuwied"
  },
  {
    "postcode": "56566",
    "city": "Engers Rhein"
  },
  {
    "postcode": "56566",
    "city": "Engers"
  },
  {
    "postcode": "56566",
    "city": "Gladbach Kreis Neuwied"
  },
  {
    "postcode": "56566",
    "city": "Gladbach"
  },
  {
    "postcode": "56566",
    "city": "Heimbach-Weis"
  },
  {
    "postcode": "56566",
    "city": "Neuwied"
  },
  {
    "postcode": "56566",
    "city": "Oberbieber"
  },
  {
    "postcode": "56566",
    "city": "Block"
  },
  {
    "postcode": "56566",
    "city": "Torney"
  },
  {
    "postcode": "56567",
    "city": "Altwied"
  },
  {
    "postcode": "56567",
    "city": "Feldkirchen Rhein"
  },
  {
    "postcode": "56567",
    "city": "Feldkirchen"
  },
  {
    "postcode": "56567",
    "city": "Irlich"
  },
  {
    "postcode": "56567",
    "city": "Leutesdorf"
  },
  {
    "postcode": "56567",
    "city": "Neuwied"
  },
  {
    "postcode": "56567",
    "city": "Niederbieber"
  },
  {
    "postcode": "56567",
    "city": "Rodenbach bei Neuwied"
  },
  {
    "postcode": "56567",
    "city": "Segendorf"
  },
  {
    "postcode": "56567",
    "city": "Torney"
  },
  {
    "postcode": "56567",
    "city": "Rodenbach"
  },
  {
    "postcode": "56575",
    "city": "Weißenthurm Rhein"
  },
  {
    "postcode": "56575",
    "city": "Weißenthurm"
  },
  {
    "postcode": "56575",
    "city": "Mayen-Koblenz"
  },
  {
    "postcode": "56579",
    "city": "Bonefeld"
  },
  {
    "postcode": "56579",
    "city": "Hardert"
  },
  {
    "postcode": "56579",
    "city": "Rengsdorf Kreis Neuwied"
  },
  {
    "postcode": "56579",
    "city": "Rengsdorf"
  },
  {
    "postcode": "56579",
    "city": "Neuwied"
  },
  {
    "postcode": "56581",
    "city": "Ehlscheid"
  },
  {
    "postcode": "56581",
    "city": "Kurtscheid"
  },
  {
    "postcode": "56581",
    "city": "Melsbach"
  },
  {
    "postcode": "56581",
    "city": "Neuwied"
  },
  {
    "postcode": "56581",
    "city": "Hegerhof"
  },
  {
    "postcode": "56584",
    "city": "Anhausen Kreis Neuwied"
  },
  {
    "postcode": "56584",
    "city": "Anhausen"
  },
  {
    "postcode": "56584",
    "city": "Meinborn"
  },
  {
    "postcode": "56584",
    "city": "Rüscheid"
  },
  {
    "postcode": "56584",
    "city": "Thalhausen Kreis Neuwied"
  },
  {
    "postcode": "56584",
    "city": "Thalhausen"
  },
  {
    "postcode": "56584",
    "city": "Neuwied"
  },
  {
    "postcode": "56587",
    "city": "Oberhonnefeld-Gierend"
  },
  {
    "postcode": "56587",
    "city": "Oberraden"
  },
  {
    "postcode": "56587",
    "city": "Straßenhaus Westerwald"
  },
  {
    "postcode": "56587",
    "city": "Straßenhaus"
  },
  {
    "postcode": "56587",
    "city": "Neuwied"
  },
  {
    "postcode": "56587",
    "city": "Oberhonnefeld"
  },
  {
    "postcode": "56587",
    "city": "Gierend"
  },
  {
    "postcode": "56587",
    "city": "Gierenderhöhe"
  },
  {
    "postcode": "56588",
    "city": "Glockscheid"
  },
  {
    "postcode": "56588",
    "city": "Over"
  },
  {
    "postcode": "56588",
    "city": "Waldbreitbach"
  },
  {
    "postcode": "56588",
    "city": "Wüscheid"
  },
  {
    "postcode": "56588",
    "city": "Neuwied"
  },
  {
    "postcode": "56588",
    "city": "Bremscheid"
  },
  {
    "postcode": "56588",
    "city": "Sohl"
  },
  {
    "postcode": "56588",
    "city": "Stopperich"
  },
  {
    "postcode": "56588",
    "city": "Hausen"
  },
  {
    "postcode": "56588",
    "city": "Gasbitze"
  },
  {
    "postcode": "56588",
    "city": "Gutshof"
  },
  {
    "postcode": "56588",
    "city": "Muscheid"
  },
  {
    "postcode": "56588",
    "city": "Rabenthal"
  },
  {
    "postcode": "56588",
    "city": "Walburg"
  },
  {
    "postcode": "56589",
    "city": "Bürder"
  },
  {
    "postcode": "56589",
    "city": "Datzeroth"
  },
  {
    "postcode": "56589",
    "city": "Kurtenacker"
  },
  {
    "postcode": "56589",
    "city": "Niederbreitbach"
  },
  {
    "postcode": "56589",
    "city": "Wolfenacker"
  },
  {
    "postcode": "56589",
    "city": "Neuwied"
  },
  {
    "postcode": "56589",
    "city": "Kelterhof"
  },
  {
    "postcode": "56593",
    "city": "Bürdenbach"
  },
  {
    "postcode": "56593",
    "city": "Güllesheim"
  },
  {
    "postcode": "56593",
    "city": "Horhausen (Westerwald)"
  },
  {
    "postcode": "56593",
    "city": "Horhausen"
  },
  {
    "postcode": "56593",
    "city": "Huf Westerwald"
  },
  {
    "postcode": "56593",
    "city": "Huf"
  },
  {
    "postcode": "56593",
    "city": "Krunkel"
  },
  {
    "postcode": "56593",
    "city": "Luchert Westerwald"
  },
  {
    "postcode": "56593",
    "city": "Luchert"
  },
  {
    "postcode": "56593",
    "city": "Niedersteinebach"
  },
  {
    "postcode": "56593",
    "city": "Obersteinebach"
  },
  {
    "postcode": "56593",
    "city": "Pleckhausen"
  },
  {
    "postcode": "56593",
    "city": "Altenkirchen"
  },
  {
    "postcode": "56593",
    "city": "Pleckhausermühle"
  },
  {
    "postcode": "56593",
    "city": "Willroth"
  },
  {
    "postcode": "56594",
    "city": "Willroth"
  },
  {
    "postcode": "56594",
    "city": "Altenkirchen"
  },
  {
    "postcode": "56598",
    "city": "Arienheller"
  },
  {
    "postcode": "56598",
    "city": "Hammerstein Rhein"
  },
  {
    "postcode": "56598",
    "city": "Hammerstein"
  },
  {
    "postcode": "56598",
    "city": "Rheinbrohl"
  },
  {
    "postcode": "56598",
    "city": "Neuwied"
  },
  {
    "postcode": "56598",
    "city": "Hähnen"
  },
  {
    "postcode": "56599",
    "city": "Hubertusburg Rhein"
  },
  {
    "postcode": "56599",
    "city": "Hubertusburg"
  },
  {
    "postcode": "56599",
    "city": "Leutesdorf Rhein"
  },
  {
    "postcode": "56599",
    "city": "Leutesdorf"
  },
  {
    "postcode": "56599",
    "city": "Neuwied"
  },
  {
    "postcode": "56626",
    "city": "Andernach"
  },
  {
    "postcode": "56626",
    "city": "Eich Eifel"
  },
  {
    "postcode": "56626",
    "city": "Eich"
  },
  {
    "postcode": "56626",
    "city": "Kell Brohltal"
  },
  {
    "postcode": "56626",
    "city": "Kell"
  },
  {
    "postcode": "56626",
    "city": "Miesenheim"
  },
  {
    "postcode": "56626",
    "city": "Namedy"
  },
  {
    "postcode": "56626",
    "city": "Mayen-Koblenz"
  },
  {
    "postcode": "56630",
    "city": "Kretz"
  },
  {
    "postcode": "56630",
    "city": "Mayen-Koblenz"
  },
  {
    "postcode": "56637",
    "city": "Plaidt"
  },
  {
    "postcode": "56637",
    "city": "Mayen-Koblenz"
  },
  {
    "postcode": "56642",
    "city": "Kruft"
  },
  {
    "postcode": "56642",
    "city": "Mayen-Koblenz"
  },
  {
    "postcode": "56645",
    "city": "Nickenich"
  },
  {
    "postcode": "56645",
    "city": "Mayen-Koblenz"
  },
  {
    "postcode": "56648",
    "city": "Saffig"
  },
  {
    "postcode": "56648",
    "city": "Mayen-Koblenz"
  },
  {
    "postcode": "56651",
    "city": "Brenk"
  },
  {
    "postcode": "56651",
    "city": "Büschhöfe"
  },
  {
    "postcode": "56651",
    "city": "Galenberg"
  },
  {
    "postcode": "56651",
    "city": "Hain bei Oberzissen"
  },
  {
    "postcode": "56651",
    "city": "Niederdürenbach"
  },
  {
    "postcode": "56651",
    "city": "Niederzissen"
  },
  {
    "postcode": "56651",
    "city": "Oberdürenbach"
  },
  {
    "postcode": "56651",
    "city": "Oberzissen"
  },
  {
    "postcode": "56651",
    "city": "Rodder Eifel"
  },
  {
    "postcode": "56651",
    "city": "Rodder"
  },
  {
    "postcode": "56651",
    "city": "Schelborn"
  },
  {
    "postcode": "56651",
    "city": "Ahrweiler"
  },
  {
    "postcode": "56651",
    "city": "Fusshölle"
  },
  {
    "postcode": "56651",
    "city": "Hain"
  },
  {
    "postcode": "56653",
    "city": "Glees"
  },
  {
    "postcode": "56653",
    "city": "Maria Laach Eifel"
  },
  {
    "postcode": "56653",
    "city": "Maria Laach"
  },
  {
    "postcode": "56653",
    "city": "Wassenach"
  },
  {
    "postcode": "56653",
    "city": "Wehr Eifel"
  },
  {
    "postcode": "56653",
    "city": "Wehr"
  },
  {
    "postcode": "56653",
    "city": "Ahrweiler"
  },
  {
    "postcode": "56656",
    "city": "Brohl-Lützing"
  },
  {
    "postcode": "56656",
    "city": "Ahrweiler"
  },
  {
    "postcode": "56656",
    "city": "Stadt Andernach"
  },
  {
    "postcode": "56656",
    "city": "Brohl"
  },
  {
    "postcode": "56656",
    "city": "Lützing"
  },
  {
    "postcode": "56659",
    "city": "Burgbrohl"
  },
  {
    "postcode": "56659",
    "city": "Lützingen"
  },
  {
    "postcode": "56659",
    "city": "Weiler"
  },
  {
    "postcode": "56659",
    "city": "Ahrweiler"
  },
  {
    "postcode": "56659",
    "city": "Bad Tönisstein"
  },
  {
    "postcode": "56727",
    "city": "Alzheim Eifel"
  },
  {
    "postcode": "56727",
    "city": "Alzheim"
  },
  {
    "postcode": "56727",
    "city": "Hausen bei Mayen"
  },
  {
    "postcode": "56727",
    "city": "Kürrenberg"
  },
  {
    "postcode": "56727",
    "city": "Mayen"
  },
  {
    "postcode": "56727",
    "city": "Nitztal"
  },
  {
    "postcode": "56727",
    "city": "Reudelsterz"
  },
  {
    "postcode": "56727",
    "city": "Sankt Johann bei Mayen"
  },
  {
    "postcode": "56727",
    "city": "Mayen-Koblenz"
  },
  {
    "postcode": "56727",
    "city": "Sankt Johann"
  },
  {
    "postcode": "56727",
    "city": "Hausen"
  },
  {
    "postcode": "56727",
    "city": "Hausen Betzing"
  },
  {
    "postcode": "56729",
    "city": "Acht"
  },
  {
    "postcode": "56729",
    "city": "Anschau"
  },
  {
    "postcode": "56729",
    "city": "Arft"
  },
  {
    "postcode": "56729",
    "city": "Baar Eifel"
  },
  {
    "postcode": "56729",
    "city": "Baar"
  },
  {
    "postcode": "56729",
    "city": "Bermel"
  },
  {
    "postcode": "56729",
    "city": "Boos Eifel"
  },
  {
    "postcode": "56729",
    "city": "Boos"
  },
  {
    "postcode": "56729",
    "city": "Büchel Kreis Mayen"
  },
  {
    "postcode": "56729",
    "city": "Büchel"
  },
  {
    "postcode": "56729",
    "city": "Ditscheid bei Mayen"
  },
  {
    "postcode": "56729",
    "city": "Döttingen Eifel"
  },
  {
    "postcode": "56729",
    "city": "Döttingen"
  },
  {
    "postcode": "56729",
    "city": "Engeln"
  },
  {
    "postcode": "56729",
    "city": "Ettringen Eifel"
  },
  {
    "postcode": "56729",
    "city": "Ettringen"
  },
  {
    "postcode": "56729",
    "city": "Herresbach"
  },
  {
    "postcode": "56729",
    "city": "Hirten"
  },
  {
    "postcode": "56729",
    "city": "Hirten Eifel"
  },
  {
    "postcode": "56729",
    "city": "Kehrig bei Mayen"
  },
  {
    "postcode": "56729",
    "city": "Kirchwald bei Mayen"
  },
  {
    "postcode": "56729",
    "city": "Langenfeld Eifel"
  },
  {
    "postcode": "56729",
    "city": "Langenfeld"
  },
  {
    "postcode": "56729",
    "city": "Langscheid bei Mayen"
  },
  {
    "postcode": "56729",
    "city": "Lind bei Mayen"
  },
  {
    "postcode": "56729",
    "city": "Luxem"
  },
  {
    "postcode": "56729",
    "city": "Monreal Eifel"
  },
  {
    "postcode": "56729",
    "city": "Monreal"
  },
  {
    "postcode": "56729",
    "city": "Münk"
  },
  {
    "postcode": "56729",
    "city": "Müsch Kreis Mayen"
  },
  {
    "postcode": "56729",
    "city": "Müsch"
  },
  {
    "postcode": "56729",
    "city": "Nachtsheim"
  },
  {
    "postcode": "56729",
    "city": "Niederbaar"
  },
  {
    "postcode": "56729",
    "city": "Niederelz"
  },
  {
    "postcode": "56729",
    "city": "Nitz"
  },
  {
    "postcode": "56729",
    "city": "Oberbaar"
  },
  {
    "postcode": "56729",
    "city": "Oberwelschenbach"
  },
  {
    "postcode": "56729",
    "city": "Siebenbach"
  },
  {
    "postcode": "56729",
    "city": "Virneburg"
  },
  {
    "postcode": "56729",
    "city": "Wanderath"
  },
  {
    "postcode": "56729",
    "city": "Weiler bei Mayen"
  },
  {
    "postcode": "56729",
    "city": "Welschenbach"
  },
  {
    "postcode": "56729",
    "city": "Mayen-Koblenz"
  },
  {
    "postcode": "56729",
    "city": "Ditscheid"
  },
  {
    "postcode": "56729",
    "city": "Geisbüschhof"
  },
  {
    "postcode": "56729",
    "city": "Kehrig"
  },
  {
    "postcode": "56729",
    "city": "Kirchwald"
  },
  {
    "postcode": "56729",
    "city": "Langscheid"
  },
  {
    "postcode": "56729",
    "city": "Lind"
  },
  {
    "postcode": "56729",
    "city": "Mimbach"
  },
  {
    "postcode": "56729",
    "city": "Neu Virneburg"
  },
  {
    "postcode": "56729",
    "city": "Weiler"
  },
  {
    "postcode": "56729",
    "city": "Wüsteratherhof"
  },
  {
    "postcode": "56729",
    "city": "Mittelbaar"
  },
  {
    "postcode": "56729",
    "city": "Freilingen"
  },
  {
    "postcode": "56729",
    "city": "Eschbach"
  },
  {
    "postcode": "56729",
    "city": "Kreuznick"
  },
  {
    "postcode": "56736",
    "city": "Kottenheim"
  },
  {
    "postcode": "56736",
    "city": "Mayen-Koblenz"
  },
  {
    "postcode": "56743",
    "city": "Mendig"
  },
  {
    "postcode": "56743",
    "city": "Thür"
  },
  {
    "postcode": "56743",
    "city": "Mayen-Koblenz"
  },
  {
    "postcode": "56743",
    "city": "Fraukirch"
  },
  {
    "postcode": "56745",
    "city": "Bell Eifel"
  },
  {
    "postcode": "56745",
    "city": "Bell"
  },
  {
    "postcode": "56745",
    "city": "Hausten"
  },
  {
    "postcode": "56745",
    "city": "Morswiesen Brohltal"
  },
  {
    "postcode": "56745",
    "city": "Morswiesen"
  },
  {
    "postcode": "56745",
    "city": "Rieden Eifel"
  },
  {
    "postcode": "56745",
    "city": "Rieden"
  },
  {
    "postcode": "56745",
    "city": "Volkesfeld"
  },
  {
    "postcode": "56745",
    "city": "Wabern Brohltal"
  },
  {
    "postcode": "56745",
    "city": "Wabern"
  },
  {
    "postcode": "56745",
    "city": "Weibern Brohltal"
  },
  {
    "postcode": "56745",
    "city": "Weibern"
  },
  {
    "postcode": "56745",
    "city": "Ahrweiler"
  },
  {
    "postcode": "56746",
    "city": "Engeln"
  },
  {
    "postcode": "56746",
    "city": "Hohenleimbach"
  },
  {
    "postcode": "56746",
    "city": "Kempenich"
  },
  {
    "postcode": "56746",
    "city": "Spessart Eifel"
  },
  {
    "postcode": "56746",
    "city": "Spessart"
  },
  {
    "postcode": "56746",
    "city": "Ahrweiler"
  },
  {
    "postcode": "56751",
    "city": "Einig"
  },
  {
    "postcode": "56751",
    "city": "Gemeinde Welling"
  },
  {
    "postcode": "56751",
    "city": "Gering"
  },
  {
    "postcode": "56751",
    "city": "Kaan"
  },
  {
    "postcode": "56751",
    "city": "Kollig"
  },
  {
    "postcode": "56751",
    "city": "Polch"
  },
  {
    "postcode": "56751",
    "city": "Ruitsch bei Koblenz"
  },
  {
    "postcode": "56751",
    "city": "Mayen-Koblenz"
  },
  {
    "postcode": "56751",
    "city": "Ruitsch"
  },
  {
    "postcode": "56753",
    "city": "Mertloch"
  },
  {
    "postcode": "56753",
    "city": "Naunheim Maifeld"
  },
  {
    "postcode": "56753",
    "city": "Naunheim"
  },
  {
    "postcode": "56753",
    "city": "Pillig"
  },
  {
    "postcode": "56753",
    "city": "Trimbs"
  },
  {
    "postcode": "56753",
    "city": "Welling bei Mayen"
  },
  {
    "postcode": "56753",
    "city": "Mayen-Koblenz"
  },
  {
    "postcode": "56753",
    "city": "Nettemühle"
  },
  {
    "postcode": "56753",
    "city": "Welling"
  },
  {
    "postcode": "56754",
    "city": "Binningen Eifel"
  },
  {
    "postcode": "56754",
    "city": "Binningen"
  },
  {
    "postcode": "56754",
    "city": "Brohl Eifel"
  },
  {
    "postcode": "56754",
    "city": "Brohl"
  },
  {
    "postcode": "56754",
    "city": "Brückenmühle Gemeinde Mertloch"
  },
  {
    "postcode": "56754",
    "city": "Brückenmühle"
  },
  {
    "postcode": "56754",
    "city": "Dünfus"
  },
  {
    "postcode": "56754",
    "city": "Forst (Eifel)"
  },
  {
    "postcode": "56754",
    "city": "Forst"
  },
  {
    "postcode": "56754",
    "city": "Möntenich"
  },
  {
    "postcode": "56754",
    "city": "Roes"
  },
  {
    "postcode": "56754",
    "city": "Schloßhof bei Naunheim Maifeld"
  },
  {
    "postcode": "56754",
    "city": "Schloßhof bei Naunheim"
  },
  {
    "postcode": "56754",
    "city": "Cochem-Zell"
  },
  {
    "postcode": "56754",
    "city": "Pilligerheck"
  },
  {
    "postcode": "56754",
    "city": "Rotherhof"
  },
  {
    "postcode": "56754",
    "city": "Sauersmühle"
  },
  {
    "postcode": "56759",
    "city": "Eppenberg Eifel"
  },
  {
    "postcode": "56759",
    "city": "Eppenberg"
  },
  {
    "postcode": "56759",
    "city": "Kaisersesch"
  },
  {
    "postcode": "56759",
    "city": "Kalenborn bei Kaisersesch"
  },
  {
    "postcode": "56759",
    "city": "Laubach Eifel"
  },
  {
    "postcode": "56759",
    "city": "Laubach"
  },
  {
    "postcode": "56759",
    "city": "Leienkaul"
  },
  {
    "postcode": "56759",
    "city": "Schöne Aussicht Gemeinde Landkern"
  },
  {
    "postcode": "56759",
    "city": "Schöne Aussicht"
  },
  {
    "postcode": "56759",
    "city": "Cochem-Zell"
  },
  {
    "postcode": "56759",
    "city": "Kalenborn"
  },
  {
    "postcode": "56759",
    "city": "Maria Martental"
  },
  {
    "postcode": "56759",
    "city": "Neuhof"
  },
  {
    "postcode": "56759",
    "city": "Schöne Aussicht Gem Masburg"
  },
  {
    "postcode": "56761",
    "city": "Brachtendorf"
  },
  {
    "postcode": "56761",
    "city": "Düngenheim"
  },
  {
    "postcode": "56761",
    "city": "Eulgem"
  },
  {
    "postcode": "56761",
    "city": "Gamlen"
  },
  {
    "postcode": "56761",
    "city": "Hambuch Eifel"
  },
  {
    "postcode": "56761",
    "city": "Hambuch"
  },
  {
    "postcode": "56761",
    "city": "Hauroth"
  },
  {
    "postcode": "56761",
    "city": "Kaifenheim"
  },
  {
    "postcode": "56761",
    "city": "Lehnholz"
  },
  {
    "postcode": "56761",
    "city": "Masburg"
  },
  {
    "postcode": "56761",
    "city": "Müllenbach bei Mayen"
  },
  {
    "postcode": "56761",
    "city": "Urmersbach"
  },
  {
    "postcode": "56761",
    "city": "Zettingen"
  },
  {
    "postcode": "56761",
    "city": "Cochem-Zell"
  },
  {
    "postcode": "56761",
    "city": "Müllenbach"
  },
  {
    "postcode": "56761",
    "city": "Polcherholz"
  },
  {
    "postcode": "56766",
    "city": "Auderath"
  },
  {
    "postcode": "56766",
    "city": "Berenbach"
  },
  {
    "postcode": "56766",
    "city": "Filz"
  },
  {
    "postcode": "56766",
    "city": "Horperath"
  },
  {
    "postcode": "56766",
    "city": "Meiserich"
  },
  {
    "postcode": "56766",
    "city": "Ulmen"
  },
  {
    "postcode": "56766",
    "city": "Vorpochten"
  },
  {
    "postcode": "56766",
    "city": "Cochem-Zell"
  },
  {
    "postcode": "56767",
    "city": "Gunderath"
  },
  {
    "postcode": "56767",
    "city": "Höchstberg Eifel"
  },
  {
    "postcode": "56767",
    "city": "Höchstberg"
  },
  {
    "postcode": "56767",
    "city": "Kaperich"
  },
  {
    "postcode": "56767",
    "city": "Kölnische Höfe"
  },
  {
    "postcode": "56767",
    "city": "Kolverath"
  },
  {
    "postcode": "56767",
    "city": "Kötterichen"
  },
  {
    "postcode": "56767",
    "city": "Lirstal"
  },
  {
    "postcode": "56767",
    "city": "Mosbruch"
  },
  {
    "postcode": "56767",
    "city": "Oberelz"
  },
  {
    "postcode": "56767",
    "city": "Sassen Eifel"
  },
  {
    "postcode": "56767",
    "city": "Sassen"
  },
  {
    "postcode": "56767",
    "city": "Uersfeld Eifel"
  },
  {
    "postcode": "56767",
    "city": "Uersfeld"
  },
  {
    "postcode": "56767",
    "city": "Ueß"
  },
  {
    "postcode": "56767",
    "city": "Vulkaneifel"
  },
  {
    "postcode": "56769",
    "city": "Arbach"
  },
  {
    "postcode": "56769",
    "city": "Bereborn"
  },
  {
    "postcode": "56769",
    "city": "Mannebach Eifel"
  },
  {
    "postcode": "56769",
    "city": "Mannebach"
  },
  {
    "postcode": "56769",
    "city": "Retterath"
  },
  {
    "postcode": "56769",
    "city": "Vulkaneifel"
  },
  {
    "postcode": "56769",
    "city": "Salcherath"
  },
  {
    "postcode": "56812",
    "city": "Brauheck"
  },
  {
    "postcode": "56812",
    "city": "Cochem"
  },
  {
    "postcode": "56812",
    "city": "Cond"
  },
  {
    "postcode": "56812",
    "city": "Dohr bei Cochem"
  },
  {
    "postcode": "56812",
    "city": "Sehl"
  },
  {
    "postcode": "56812",
    "city": "Valwig"
  },
  {
    "postcode": "56812",
    "city": "Cochem-Zell"
  },
  {
    "postcode": "56812",
    "city": "Dohr"
  },
  {
    "postcode": "56814",
    "city": "Beilstein Mosel"
  },
  {
    "postcode": "56814",
    "city": "Beilstein"
  },
  {
    "postcode": "56814",
    "city": "Bremm Mosel"
  },
  {
    "postcode": "56814",
    "city": "Bremm"
  },
  {
    "postcode": "56814",
    "city": "Bruttig"
  },
  {
    "postcode": "56814",
    "city": "Bruttig-Fankel"
  },
  {
    "postcode": "56814",
    "city": "Ediger"
  },
  {
    "postcode": "56814",
    "city": "Ediger-Eller"
  },
  {
    "postcode": "56814",
    "city": "Eller"
  },
  {
    "postcode": "56814",
    "city": "Ernst bei Cochem"
  },
  {
    "postcode": "56814",
    "city": "Faid"
  },
  {
    "postcode": "56814",
    "city": "Fankel"
  },
  {
    "postcode": "56814",
    "city": "Greimersburg"
  },
  {
    "postcode": "56814",
    "city": "Illerich"
  },
  {
    "postcode": "56814",
    "city": "Landkern"
  },
  {
    "postcode": "56814",
    "city": "Wirfus"
  },
  {
    "postcode": "56814",
    "city": "Cochem-Zell"
  },
  {
    "postcode": "56814",
    "city": "Ernst"
  },
  {
    "postcode": "56818",
    "city": "Klotten"
  },
  {
    "postcode": "56818",
    "city": "Cochem-Zell"
  },
  {
    "postcode": "56820",
    "city": "Briedern"
  },
  {
    "postcode": "56820",
    "city": "Mesenich bei Cochem"
  },
  {
    "postcode": "56820",
    "city": "Nehren Mosel"
  },
  {
    "postcode": "56820",
    "city": "Nehren"
  },
  {
    "postcode": "56820",
    "city": "Senheim-Senhals"
  },
  {
    "postcode": "56820",
    "city": "Cochem-Zell"
  },
  {
    "postcode": "56820",
    "city": "Mesenich"
  },
  {
    "postcode": "56820",
    "city": "Senheim"
  },
  {
    "postcode": "56821",
    "city": "Ellenz"
  },
  {
    "postcode": "56821",
    "city": "Ellenz-Poltersdorf"
  },
  {
    "postcode": "56821",
    "city": "Poltersdorf"
  },
  {
    "postcode": "56821",
    "city": "Cochem-Zell"
  },
  {
    "postcode": "56823",
    "city": "Büchel bei Cochem"
  },
  {
    "postcode": "56823",
    "city": "Cochem-Zell"
  },
  {
    "postcode": "56823",
    "city": "Büchel"
  },
  {
    "postcode": "56825",
    "city": "Beuren Eifel"
  },
  {
    "postcode": "56825",
    "city": "Beuren"
  },
  {
    "postcode": "56825",
    "city": "Gevenich Eifel"
  },
  {
    "postcode": "56825",
    "city": "Gevenich"
  },
  {
    "postcode": "56825",
    "city": "Gillenbeuren"
  },
  {
    "postcode": "56825",
    "city": "Kliding"
  },
  {
    "postcode": "56825",
    "city": "Schmitt"
  },
  {
    "postcode": "56825",
    "city": "Urschmitt"
  },
  {
    "postcode": "56825",
    "city": "Weiler bei Gevenich"
  },
  {
    "postcode": "56825",
    "city": "Cochem-Zell"
  },
  {
    "postcode": "56825",
    "city": "Weiler"
  },
  {
    "postcode": "56826",
    "city": "Driesch"
  },
  {
    "postcode": "56826",
    "city": "Lutzerath"
  },
  {
    "postcode": "56826",
    "city": "Wagenhausen Vulkaneifel"
  },
  {
    "postcode": "56826",
    "city": "Wagenhausen"
  },
  {
    "postcode": "56826",
    "city": "Wollmerath"
  },
  {
    "postcode": "56826",
    "city": "Cochem-Zell"
  },
  {
    "postcode": "56826",
    "city": "Heckenhof"
  },
  {
    "postcode": "56828",
    "city": "Alflen"
  },
  {
    "postcode": "56828",
    "city": "Cochem-Zell"
  },
  {
    "postcode": "56829",
    "city": "Brieden"
  },
  {
    "postcode": "56829",
    "city": "Kail"
  },
  {
    "postcode": "56829",
    "city": "Pommern Mosel"
  },
  {
    "postcode": "56829",
    "city": "Pommern"
  },
  {
    "postcode": "56829",
    "city": "Cochem-Zell"
  },
  {
    "postcode": "56841",
    "city": "Kautenbach"
  },
  {
    "postcode": "56841",
    "city": "Traben-Trarbach"
  },
  {
    "postcode": "56841",
    "city": "Wolf Mosel"
  },
  {
    "postcode": "56841",
    "city": "Wolf"
  },
  {
    "postcode": "56841",
    "city": "Bernkastel-Wittlich"
  },
  {
    "postcode": "56841",
    "city": "Hödeshof"
  },
  {
    "postcode": "56841",
    "city": "Traben"
  },
  {
    "postcode": "56841",
    "city": "Trarbach"
  },
  {
    "postcode": "56843",
    "city": "Beuren"
  },
  {
    "postcode": "56843",
    "city": "Burg (Mosel)"
  },
  {
    "postcode": "56843",
    "city": "Burg"
  },
  {
    "postcode": "56843",
    "city": "Irmenach"
  },
  {
    "postcode": "56843",
    "city": "Lötzbeuren"
  },
  {
    "postcode": "56843",
    "city": "Starkenburg"
  },
  {
    "postcode": "56843",
    "city": "Bernkastel-Wittlich"
  },
  {
    "postcode": "56843",
    "city": "Scholmunderhof"
  },
  {
    "postcode": "56850",
    "city": "Enkirch"
  },
  {
    "postcode": "56850",
    "city": "Hahn Hunsrück"
  },
  {
    "postcode": "56850",
    "city": "Hahn"
  },
  {
    "postcode": "56850",
    "city": "Raversbeuren"
  },
  {
    "postcode": "56850",
    "city": "Bernkastel-Wittlich"
  },
  {
    "postcode": "56850",
    "city": "Briedeler Heck"
  },
  {
    "postcode": "56850",
    "city": "Maiermund"
  },
  {
    "postcode": "56856",
    "city": "Barl"
  },
  {
    "postcode": "56856",
    "city": "Gemeinde Briedel"
  },
  {
    "postcode": "56856",
    "city": "Kaimt"
  },
  {
    "postcode": "56856",
    "city": "Merl Mosel"
  },
  {
    "postcode": "56856",
    "city": "Merl"
  },
  {
    "postcode": "56856",
    "city": "Zell (Mosel)"
  },
  {
    "postcode": "56856",
    "city": "Zell"
  },
  {
    "postcode": "56856",
    "city": "Cochem-Zell"
  },
  {
    "postcode": "56858",
    "city": "Altlay"
  },
  {
    "postcode": "56858",
    "city": "Altstrimmig"
  },
  {
    "postcode": "56858",
    "city": "Belg"
  },
  {
    "postcode": "56858",
    "city": "Forst (Hunsrück)"
  },
  {
    "postcode": "56858",
    "city": "Forst"
  },
  {
    "postcode": "56858",
    "city": "Grenderich"
  },
  {
    "postcode": "56858",
    "city": "Haserich"
  },
  {
    "postcode": "56858",
    "city": "Liesenich"
  },
  {
    "postcode": "56858",
    "city": "Löffelscheid"
  },
  {
    "postcode": "56858",
    "city": "Mittelstrimmig"
  },
  {
    "postcode": "56858",
    "city": "Neef"
  },
  {
    "postcode": "56858",
    "city": "Peterswald"
  },
  {
    "postcode": "56858",
    "city": "Peterswald-Löffelscheid"
  },
  {
    "postcode": "56858",
    "city": "Rödelhausen"
  },
  {
    "postcode": "56858",
    "city": "Sankt Aldegund"
  },
  {
    "postcode": "56858",
    "city": "Sosberg"
  },
  {
    "postcode": "56858",
    "city": "Tellig"
  },
  {
    "postcode": "56858",
    "city": "Würrich"
  },
  {
    "postcode": "56858",
    "city": "Cochem-Zell"
  },
  {
    "postcode": "56859",
    "city": "Alf"
  },
  {
    "postcode": "56859",
    "city": "Bullay"
  },
  {
    "postcode": "56859",
    "city": "Neumerl"
  },
  {
    "postcode": "56859",
    "city": "Cochem-Zell"
  },
  {
    "postcode": "56859",
    "city": "Weidenhell"
  },
  {
    "postcode": "56861",
    "city": "Reil"
  },
  {
    "postcode": "56861",
    "city": "Bernkastel-Wittlich"
  },
  {
    "postcode": "56861",
    "city": "Heißer Stein"
  },
  {
    "postcode": "56862",
    "city": "Pünderich Bahnhof"
  },
  {
    "postcode": "56862",
    "city": "Pünderich"
  },
  {
    "postcode": "56862",
    "city": "Cochem-Zell"
  },
  {
    "postcode": "56862",
    "city": "Marienburg"
  },
  {
    "postcode": "56864",
    "city": "Bad Bertrich"
  },
  {
    "postcode": "56864",
    "city": "Beuren Eifel"
  },
  {
    "postcode": "56864",
    "city": "Beuren"
  },
  {
    "postcode": "56864",
    "city": "Kennfus"
  },
  {
    "postcode": "56864",
    "city": "Cochem-Zell"
  },
  {
    "postcode": "56864",
    "city": "Beurenermühle"
  },
  {
    "postcode": "56864",
    "city": "Bonsbeuern"
  },
  {
    "postcode": "56864",
    "city": "Pelzerhaus"
  },
  {
    "postcode": "56865",
    "city": "Blankenrath"
  },
  {
    "postcode": "56865",
    "city": "Hesweiler"
  },
  {
    "postcode": "56865",
    "city": "Moritzheim"
  },
  {
    "postcode": "56865",
    "city": "Panzweiler bei Blankenrath"
  },
  {
    "postcode": "56865",
    "city": "Reidenhausen"
  },
  {
    "postcode": "56865",
    "city": "Schauren bei Blankenrath"
  },
  {
    "postcode": "56865",
    "city": "Walhausen bei Blankenrath"
  },
  {
    "postcode": "56865",
    "city": "Cochem-Zell"
  },
  {
    "postcode": "56865",
    "city": "Panzweiler"
  },
  {
    "postcode": "56865",
    "city": "Schauren"
  },
  {
    "postcode": "56865",
    "city": "Vogthof"
  },
  {
    "postcode": "56865",
    "city": "Walhausen"
  },
  {
    "postcode": "56867",
    "city": "Briedel"
  },
  {
    "postcode": "56867",
    "city": "Cochem-Zell"
  },
  {
    "postcode": "56869",
    "city": "Mastershausen"
  },
  {
    "postcode": "56869",
    "city": "Rhein-Hunsrück-Kreis"
  }
]