[
  {
    "postcode": "4808",
    "city": "Falkenhain bei Wurzen"
  },
  {
    "postcode": "4808",
    "city": "Hohburg bei Wurzen"
  },
  {
    "postcode": "4808",
    "city": "Kühren-Burkartshain"
  },
  {
    "postcode": "4808",
    "city": "Thallwitz"
  },
  {
    "postcode": "4808",
    "city": "Wurzen"
  },
  {
    "postcode": "4808",
    "city": "Leipzig"
  },
  {
    "postcode": "4808",
    "city": "Lossatal"
  },
  {
    "postcode": "4808",
    "city": "Körlitz"
  },
  {
    "postcode": "4808",
    "city": "Voigtshain"
  },
  {
    "postcode": "4808",
    "city": "Lüptitz"
  },
  {
    "postcode": "4808",
    "city": "Großzschepa"
  },
  {
    "postcode": "4808",
    "city": "Heyda"
  },
  {
    "postcode": "4808",
    "city": "Falkenhain"
  },
  {
    "postcode": "4808",
    "city": "Thammenhain"
  },
  {
    "postcode": "4808",
    "city": "Kleinzschepa"
  },
  {
    "postcode": "4808",
    "city": "Meltewitz"
  },
  {
    "postcode": "4808",
    "city": "Zschorna"
  },
  {
    "postcode": "4808",
    "city": "Hohburg"
  },
  {
    "postcode": "4808",
    "city": "Kühnitzsch"
  },
  {
    "postcode": "4808",
    "city": "Müglenz"
  },
  {
    "postcode": "4808",
    "city": "Dornreichenbach"
  },
  {
    "postcode": "4808",
    "city": "Mark Schönstädt"
  },
  {
    "postcode": "4808",
    "city": "Frauwalde"
  },
  {
    "postcode": "4808",
    "city": "Watzschwitz"
  },
  {
    "postcode": "4808",
    "city": "Nischwitz"
  },
  {
    "postcode": "4808",
    "city": "Lossa"
  },
  {
    "postcode": "4808",
    "city": "Böhlitz"
  },
  {
    "postcode": "4808",
    "city": "Röcknitz"
  },
  {
    "postcode": "4808",
    "city": "Canitz"
  },
  {
    "postcode": "4808",
    "city": "Kollau"
  },
  {
    "postcode": "4808",
    "city": "Wasewitz"
  },
  {
    "postcode": "4808",
    "city": "Zwochau"
  },
  {
    "postcode": "4808",
    "city": "Kornhain"
  },
  {
    "postcode": "4808",
    "city": "Kühren"
  },
  {
    "postcode": "4808",
    "city": "Dehnitz"
  },
  {
    "postcode": "4808",
    "city": "Nemt"
  },
  {
    "postcode": "4808",
    "city": "Nitzschka"
  },
  {
    "postcode": "4808",
    "city": "Burkartshain"
  },
  {
    "postcode": "4808",
    "city": "Trebelshain"
  },
  {
    "postcode": "4808",
    "city": "Pyrna"
  },
  {
    "postcode": "4808",
    "city": "Mühlbach"
  },
  {
    "postcode": "4808",
    "city": "Roitzsch"
  },
  {
    "postcode": "4808",
    "city": "Wäldgen"
  },
  {
    "postcode": "4808",
    "city": "Sachsendorf"
  },
  {
    "postcode": "4808",
    "city": "Streuben"
  },
  {
    "postcode": "4808",
    "city": "Oelschütz"
  },
  {
    "postcode": "4821",
    "city": "Brandis bei Wurzen"
  },
  {
    "postcode": "4821",
    "city": "Polenz"
  },
  {
    "postcode": "4821",
    "city": "Waldsteinberg"
  },
  {
    "postcode": "4821",
    "city": "Leipzig"
  },
  {
    "postcode": "4821",
    "city": "Brandis"
  },
  {
    "postcode": "4824",
    "city": "Beucha"
  },
  {
    "postcode": "4824",
    "city": "Leipzig"
  },
  {
    "postcode": "4827",
    "city": "Machern bei Wurzen"
  },
  {
    "postcode": "4827",
    "city": "Leipzig"
  },
  {
    "postcode": "4827",
    "city": "Gerichshain"
  },
  {
    "postcode": "4827",
    "city": "Lübschützer Teiche"
  },
  {
    "postcode": "4827",
    "city": "Machern"
  },
  {
    "postcode": "4827",
    "city": "Posthausen"
  },
  {
    "postcode": "4828",
    "city": "Bennewitz bei Wurzen"
  },
  {
    "postcode": "4828",
    "city": "Nepperwitz"
  },
  {
    "postcode": "4828",
    "city": "Leipzig"
  },
  {
    "postcode": "4828",
    "city": "Bennewitz"
  },
  {
    "postcode": "4828",
    "city": "Machern"
  },
  {
    "postcode": "4828",
    "city": "Püchau"
  },
  {
    "postcode": "4828",
    "city": "Deuben"
  },
  {
    "postcode": "4828",
    "city": "Schmölen"
  },
  {
    "postcode": "4828",
    "city": "Leulitz"
  },
  {
    "postcode": "4828",
    "city": "Altenbach"
  },
  {
    "postcode": "4828",
    "city": "Bach"
  },
  {
    "postcode": "4828",
    "city": "Zeititz"
  },
  {
    "postcode": "4828",
    "city": "Pausitz"
  },
  {
    "postcode": "4828",
    "city": "Rothersdorf"
  },
  {
    "postcode": "4828",
    "city": "Grubnitz"
  },
  {
    "postcode": "4828",
    "city": "Neu Altenbach"
  },
  {
    "postcode": "4828",
    "city": "Neuweißenborn"
  },
  {
    "postcode": "4828",
    "city": "Plagwitz"
  },
  {
    "postcode": "4828",
    "city": "Lübschütz"
  },
  {
    "postcode": "4828",
    "city": "Dögnitz"
  },
  {
    "postcode": "4838",
    "city": "Battaune"
  },
  {
    "postcode": "4838",
    "city": "Doberschütz"
  },
  {
    "postcode": "4838",
    "city": "Eilenburg"
  },
  {
    "postcode": "4838",
    "city": "Jesewitz"
  },
  {
    "postcode": "4838",
    "city": "Laußig"
  },
  {
    "postcode": "4838",
    "city": "Mockrehna"
  },
  {
    "postcode": "4838",
    "city": "Mörtitz"
  },
  {
    "postcode": "4838",
    "city": "Paschwitz"
  },
  {
    "postcode": "4838",
    "city": "Sprotta"
  },
  {
    "postcode": "4838",
    "city": "Wöllnau"
  },
  {
    "postcode": "4838",
    "city": "Zschepplin"
  },
  {
    "postcode": "4838",
    "city": "Nordsachsen"
  },
  {
    "postcode": "4838",
    "city": "Sprotta-Siedlung"
  },
  {
    "postcode": "4838",
    "city": "Rote Jahne"
  },
  {
    "postcode": "4838",
    "city": "Bunitz"
  },
  {
    "postcode": "4838",
    "city": "Mölbitz"
  },
  {
    "postcode": "4838",
    "city": "Winkelmühle"
  },
  {
    "postcode": "4838",
    "city": "Wedelwitz"
  },
  {
    "postcode": "4838",
    "city": "Kospa"
  },
  {
    "postcode": "4838",
    "city": "Zschettgau"
  },
  {
    "postcode": "4838",
    "city": "Pressen"
  },
  {
    "postcode": "4838",
    "city": "Behlitz"
  },
  {
    "postcode": "4838",
    "city": "Hainichen"
  },
  {
    "postcode": "4838",
    "city": "Liemehna"
  },
  {
    "postcode": "4838",
    "city": "Bötzen"
  },
  {
    "postcode": "4838",
    "city": "Gotha"
  },
  {
    "postcode": "4838",
    "city": "Groitzsch"
  },
  {
    "postcode": "4838",
    "city": "Gallen"
  },
  {
    "postcode": "4838",
    "city": "Weltewitz"
  },
  {
    "postcode": "4838",
    "city": "Gordemitz"
  },
  {
    "postcode": "4838",
    "city": "Bahnhof"
  },
  {
    "postcode": "4838",
    "city": "Kossen"
  },
  {
    "postcode": "4838",
    "city": "Wölpern"
  },
  {
    "postcode": "4838",
    "city": "Gostemitz"
  },
  {
    "postcode": "4838",
    "city": "Pehritzsch"
  },
  {
    "postcode": "4838",
    "city": "Wöllmen"
  },
  {
    "postcode": "4838",
    "city": "Ochelmitz"
  },
  {
    "postcode": "4838",
    "city": "Gruna"
  },
  {
    "postcode": "4838",
    "city": "Pristäblich"
  },
  {
    "postcode": "4838",
    "city": "Glaucha"
  },
  {
    "postcode": "4838",
    "city": "Krippehna"
  },
  {
    "postcode": "4838",
    "city": "Rödgen"
  },
  {
    "postcode": "4838",
    "city": "Hohenprießnitz"
  },
  {
    "postcode": "4838",
    "city": "Noitzsch"
  },
  {
    "postcode": "4838",
    "city": "Naundorf"
  },
  {
    "postcode": "4838",
    "city": "Steubeln"
  },
  {
    "postcode": "4849",
    "city": "Bad Düben"
  },
  {
    "postcode": "4849",
    "city": "Kossa"
  },
  {
    "postcode": "4849",
    "city": "Nordsachsen"
  },
  {
    "postcode": "4849",
    "city": "Authausen"
  },
  {
    "postcode": "4849",
    "city": "Laußig"
  },
  {
    "postcode": "4849",
    "city": "Pressel"
  },
  {
    "postcode": "4849",
    "city": "Schnaditz"
  },
  {
    "postcode": "4849",
    "city": "Tiefensee"
  },
  {
    "postcode": "4849",
    "city": "Brösen"
  },
  {
    "postcode": "4849",
    "city": "Wellaune"
  },
  {
    "postcode": "4849",
    "city": "Durchwehna"
  },
  {
    "postcode": "4849",
    "city": "Görschlitz"
  },
  {
    "postcode": "4860",
    "city": "Dreiheide"
  },
  {
    "postcode": "4860",
    "city": "Pflückuff bei Torgau"
  },
  {
    "postcode": "4860",
    "city": "Torgau"
  },
  {
    "postcode": "4860",
    "city": "Zinna"
  },
  {
    "postcode": "4860",
    "city": "Nordsachsen"
  },
  {
    "postcode": "4860",
    "city": "Großwig"
  },
  {
    "postcode": "4860",
    "city": "Süptitz"
  },
  {
    "postcode": "4860",
    "city": "Weidenhain"
  },
  {
    "postcode": "4860",
    "city": "Welsau"
  },
  {
    "postcode": "4860",
    "city": "Graditz"
  },
  {
    "postcode": "4860",
    "city": "Melpitz"
  },
  {
    "postcode": "4874",
    "city": "Belgern bei Torgau"
  },
  {
    "postcode": "4874",
    "city": "Nordsachsen"
  },
  {
    "postcode": "4874",
    "city": "Belgern"
  },
  {
    "postcode": "4874",
    "city": "Staritz"
  },
  {
    "postcode": "4874",
    "city": "Ammelgoßwitz"
  },
  {
    "postcode": "4874",
    "city": "Wohlau"
  },
  {
    "postcode": "4874",
    "city": "Belgern-Schildau"
  },
  {
    "postcode": "4874",
    "city": "Lausa"
  },
  {
    "postcode": "4874",
    "city": "Bockwitz"
  },
  {
    "postcode": "4874",
    "city": "Oelzschau"
  },
  {
    "postcode": "4874",
    "city": "Mahitzschen"
  },
  {
    "postcode": "4874",
    "city": "Dröschkau"
  },
  {
    "postcode": "4874",
    "city": "Neußen"
  },
  {
    "postcode": "4874",
    "city": "Döbeltitz"
  },
  {
    "postcode": "4874",
    "city": "Kaisa"
  },
  {
    "postcode": "4874",
    "city": "Liebersee"
  },
  {
    "postcode": "4874",
    "city": "Puschwitz"
  },
  {
    "postcode": "4874",
    "city": "Seydewitz"
  },
  {
    "postcode": "4880",
    "city": "Dommitzsch"
  },
  {
    "postcode": "4880",
    "city": "Elsnig"
  },
  {
    "postcode": "4880",
    "city": "Trossin"
  },
  {
    "postcode": "4880",
    "city": "Nordsachsen"
  },
  {
    "postcode": "4880",
    "city": "Wörblitz"
  },
  {
    "postcode": "4880",
    "city": "Mahlitzsch"
  },
  {
    "postcode": "4880",
    "city": "Döbern"
  },
  {
    "postcode": "4880",
    "city": "Neiden"
  },
  {
    "postcode": "4880",
    "city": "Vogelgesang"
  },
  {
    "postcode": "4880",
    "city": "Drebligar"
  },
  {
    "postcode": "4880",
    "city": "Polbitz"
  },
  {
    "postcode": "4880",
    "city": "Mockritz"
  },
  {
    "postcode": "4880",
    "city": "Waldsiedlung"
  },
  {
    "postcode": "4880",
    "city": "Roitzsch"
  },
  {
    "postcode": "4880",
    "city": "Dahlenberg"
  },
  {
    "postcode": "4880",
    "city": "Falkenberg"
  },
  {
    "postcode": "4880",
    "city": "Gniebitz"
  },
  {
    "postcode": "4880",
    "city": "Greudnitz"
  },
  {
    "postcode": "4880",
    "city": "Proschwitz"
  },
  {
    "postcode": "4886",
    "city": "Arzberg bei Torgau"
  },
  {
    "postcode": "4886",
    "city": "Beilrode"
  },
  {
    "postcode": "4886",
    "city": "Großtreben-Zwethau"
  },
  {
    "postcode": "4886",
    "city": "Nordsachsen"
  },
  {
    "postcode": "4886",
    "city": "Arzberg"
  },
  {
    "postcode": "4886",
    "city": "Tauschwitz"
  },
  {
    "postcode": "4886",
    "city": "Köllitsch"
  },
  {
    "postcode": "4886",
    "city": "Adelwitz"
  },
  {
    "postcode": "4886",
    "city": "Pülswerda"
  },
  {
    "postcode": "4886",
    "city": "Kaucklitz"
  },
  {
    "postcode": "4886",
    "city": "Triestewitz"
  },
  {
    "postcode": "4886",
    "city": "Blumberg"
  },
  {
    "postcode": "4886",
    "city": "Packisch"
  },
  {
    "postcode": "4886",
    "city": "Stehla"
  },
  {
    "postcode": "4886",
    "city": "Elsterberg"
  },
  {
    "postcode": "4886",
    "city": "Nichtewitz"
  },
  {
    "postcode": "4886",
    "city": "Kathewitz"
  },
  {
    "postcode": "4886",
    "city": "Kötten"
  },
  {
    "postcode": "4886",
    "city": "Prausitz"
  },
  {
    "postcode": "4886",
    "city": "Kamitz"
  },
  {
    "postcode": "4886",
    "city": "Ottersitz"
  },
  {
    "postcode": "4886",
    "city": "Piestel"
  },
  {
    "postcode": "4886",
    "city": "Heidehäuser"
  },
  {
    "postcode": "4886",
    "city": "Zwethau"
  },
  {
    "postcode": "4886",
    "city": "Großtreben"
  },
  {
    "postcode": "4886",
    "city": "Döhlen"
  },
  {
    "postcode": "4886",
    "city": "Dautzschen"
  },
  {
    "postcode": "4886",
    "city": "Neubleesern"
  },
  {
    "postcode": "4886",
    "city": "Kreischau"
  },
  {
    "postcode": "4886",
    "city": "Eulenau"
  },
  {
    "postcode": "4886",
    "city": "Döbrichau"
  },
  {
    "postcode": "4886",
    "city": "Last"
  },
  {
    "postcode": "4886",
    "city": "Rosenfeld"
  },
  {
    "postcode": "4889",
    "city": "Pflückuff bei Torgau"
  },
  {
    "postcode": "4889",
    "city": "Schildau Gneisenaustadt"
  },
  {
    "postcode": "4889",
    "city": "Schildau"
  },
  {
    "postcode": "4889",
    "city": "Nordsachsen"
  },
  {
    "postcode": "4889",
    "city": "Belgern-Schildau"
  },
  {
    "postcode": "4889",
    "city": "Kobershain"
  },
  {
    "postcode": "4889",
    "city": "Sitzenroda"
  },
  {
    "postcode": "4889",
    "city": "Taura"
  },
  {
    "postcode": "4889",
    "city": "Probsthain"
  },
  {
    "postcode": "4895",
    "city": "Bahnsdorf Elster"
  },
  {
    "postcode": "4895",
    "city": "Bahnsdorf"
  },
  {
    "postcode": "4895",
    "city": "Beyern"
  },
  {
    "postcode": "4895",
    "city": "Brottewitz"
  },
  {
    "postcode": "4895",
    "city": "Buckau bei Herzberg Elster"
  },
  {
    "postcode": "4895",
    "city": "Buckau bei Herzberg"
  },
  {
    "postcode": "4895",
    "city": "Falkenberg / Elster"
  },
  {
    "postcode": "4895",
    "city": "Falkenberg"
  },
  {
    "postcode": "4895",
    "city": "Fermerswalde"
  },
  {
    "postcode": "4895",
    "city": "Großrössen"
  },
  {
    "postcode": "4895",
    "city": "Kölsa bei Falkenberg Elster"
  },
  {
    "postcode": "4895",
    "city": "Kölsa bei Falkenberg"
  },
  {
    "postcode": "4895",
    "city": "Koßdorf"
  },
  {
    "postcode": "4895",
    "city": "Löhsten"
  },
  {
    "postcode": "4895",
    "city": "Martinskirchen Elbe"
  },
  {
    "postcode": "4895",
    "city": "Martinskirchen"
  },
  {
    "postcode": "4895",
    "city": "Rehfeld bei Falkenberg Elster"
  },
  {
    "postcode": "4895",
    "city": "Rehfeld bei Falkenberg"
  },
  {
    "postcode": "4895",
    "city": "Saxdorf"
  },
  {
    "postcode": "4895",
    "city": "Schmerkendorf"
  },
  {
    "postcode": "4895",
    "city": "Züllsdorf"
  },
  {
    "postcode": "4895",
    "city": "Elbe-Elster"
  },
  {
    "postcode": "4895",
    "city": "Bad Liebenwerda"
  },
  {
    "postcode": "4895",
    "city": "Burxdorf"
  },
  {
    "postcode": "4895",
    "city": "Kölsa"
  },
  {
    "postcode": "4895",
    "city": "Kleinrössen"
  },
  {
    "postcode": "4895",
    "city": "Neudeck"
  },
  {
    "postcode": "4895",
    "city": "Rehfeld"
  },
  {
    "postcode": "4895",
    "city": "Uebigau-Wahrenbrück"
  },
  {
    "postcode": "4895",
    "city": "Rehfeld-Bahnhof"
  },
  {
    "postcode": "4895",
    "city": "Kiebitz"
  },
  {
    "postcode": "4895",
    "city": "Lönnewitz"
  },
  {
    "postcode": "4895",
    "city": "Altbelgern"
  },
  {
    "postcode": "48143",
    "city": "Münster Westfalen"
  },
  {
    "postcode": "48143",
    "city": "Münster"
  },
  {
    "postcode": "48143",
    "city": "Centrum"
  },
  {
    "postcode": "48143",
    "city": "Altstadt"
  },
  {
    "postcode": "48143",
    "city": "Mitte"
  },
  {
    "postcode": "48145",
    "city": "Mauritz"
  },
  {
    "postcode": "48145",
    "city": "Münster Westfalen"
  },
  {
    "postcode": "48145",
    "city": "Münster"
  },
  {
    "postcode": "48145",
    "city": "Centrum"
  },
  {
    "postcode": "48145",
    "city": "Mitte"
  },
  {
    "postcode": "48147",
    "city": "Münster Westfalen"
  },
  {
    "postcode": "48147",
    "city": "Münster"
  },
  {
    "postcode": "48147",
    "city": "Mitte"
  },
  {
    "postcode": "48147",
    "city": "Wienburg"
  },
  {
    "postcode": "48147",
    "city": "Centrum"
  },
  {
    "postcode": "48147",
    "city": "Wolbeck"
  },
  {
    "postcode": "48147",
    "city": "Altstadt"
  },
  {
    "postcode": "48149",
    "city": "Münster Westfalen"
  },
  {
    "postcode": "48149",
    "city": "Münster"
  },
  {
    "postcode": "48149",
    "city": "Mitte"
  },
  {
    "postcode": "48149",
    "city": "Sentrup"
  },
  {
    "postcode": "48149",
    "city": "Gievenbeck"
  },
  {
    "postcode": "48149",
    "city": "Centrum"
  },
  {
    "postcode": "48149",
    "city": "Wienburg"
  },
  {
    "postcode": "48151",
    "city": "Geist"
  },
  {
    "postcode": "48151",
    "city": "Münster Westfalen"
  },
  {
    "postcode": "48151",
    "city": "Münster"
  },
  {
    "postcode": "48151",
    "city": "Centrum"
  },
  {
    "postcode": "48151",
    "city": "Aaseestadt"
  },
  {
    "postcode": "48151",
    "city": "Mitte"
  },
  {
    "postcode": "48153",
    "city": "Geist"
  },
  {
    "postcode": "48153",
    "city": "Münster Westfalen"
  },
  {
    "postcode": "48153",
    "city": "Münster"
  },
  {
    "postcode": "48153",
    "city": "Berg Fidel"
  },
  {
    "postcode": "48153",
    "city": "Centrum"
  },
  {
    "postcode": "48153",
    "city": "Mitte"
  },
  {
    "postcode": "48155",
    "city": "Angelmodde Westfalen"
  },
  {
    "postcode": "48155",
    "city": "Angelmodde"
  },
  {
    "postcode": "48155",
    "city": "Gelmer"
  },
  {
    "postcode": "48155",
    "city": "Gremmendorf"
  },
  {
    "postcode": "48155",
    "city": "Handorf Kreis Münster Westfalen"
  },
  {
    "postcode": "48155",
    "city": "Handorf"
  },
  {
    "postcode": "48155",
    "city": "Mauritz"
  },
  {
    "postcode": "48155",
    "city": "Münster Westfalen"
  },
  {
    "postcode": "48155",
    "city": "Münster"
  },
  {
    "postcode": "48155",
    "city": "Wolbeck"
  },
  {
    "postcode": "48155",
    "city": "Hafen"
  },
  {
    "postcode": "48155",
    "city": "Centrum"
  },
  {
    "postcode": "48155",
    "city": "Sankt Mauritz"
  },
  {
    "postcode": "48155",
    "city": "Mitte"
  },
  {
    "postcode": "48157",
    "city": "Coerde Westfalen"
  },
  {
    "postcode": "48157",
    "city": "Coerde"
  },
  {
    "postcode": "48157",
    "city": "Gelmer"
  },
  {
    "postcode": "48157",
    "city": "Gremmendorf"
  },
  {
    "postcode": "48157",
    "city": "Handorf Kreis Münster Westfalen"
  },
  {
    "postcode": "48157",
    "city": "Handorf"
  },
  {
    "postcode": "48157",
    "city": "Kinderhaus"
  },
  {
    "postcode": "48157",
    "city": "Mauritz"
  },
  {
    "postcode": "48157",
    "city": "Münster Westfalen"
  },
  {
    "postcode": "48157",
    "city": "Münster"
  },
  {
    "postcode": "48157",
    "city": "Sprakel Kreis Münster Westfalen"
  },
  {
    "postcode": "48157",
    "city": "Sprakel"
  },
  {
    "postcode": "48157",
    "city": "Wienburg"
  },
  {
    "postcode": "48157",
    "city": "Werse"
  },
  {
    "postcode": "48159",
    "city": "Kinderhaus"
  },
  {
    "postcode": "48159",
    "city": "Münster Westfalen"
  },
  {
    "postcode": "48159",
    "city": "Münster"
  },
  {
    "postcode": "48159",
    "city": "Nienberge Kreis Münster Westfalen"
  },
  {
    "postcode": "48159",
    "city": "Nienberge"
  },
  {
    "postcode": "48159",
    "city": "Sprakel Kreis Münster Westfalen"
  },
  {
    "postcode": "48159",
    "city": "Sprakel"
  },
  {
    "postcode": "48159",
    "city": "Wienburg"
  },
  {
    "postcode": "48159",
    "city": "Centrum"
  },
  {
    "postcode": "48159",
    "city": "Gievenbeck"
  },
  {
    "postcode": "48159",
    "city": "Mitte"
  },
  {
    "postcode": "48161",
    "city": "Münster Westfalen"
  },
  {
    "postcode": "48161",
    "city": "Münster"
  },
  {
    "postcode": "48161",
    "city": "Nienberge Kreis Münster Westfalen"
  },
  {
    "postcode": "48161",
    "city": "Nienberge"
  },
  {
    "postcode": "48161",
    "city": "Roxel"
  },
  {
    "postcode": "48161",
    "city": "Sprakel Kreis Münster Westfalen"
  },
  {
    "postcode": "48161",
    "city": "Sprakel"
  },
  {
    "postcode": "48161",
    "city": "Gievenbeck"
  },
  {
    "postcode": "48161",
    "city": "Sentrup"
  },
  {
    "postcode": "48163",
    "city": "Albachten Kreis Münster Westfalen"
  },
  {
    "postcode": "48163",
    "city": "Albachten"
  },
  {
    "postcode": "48163",
    "city": "Amelsbüren"
  },
  {
    "postcode": "48163",
    "city": "Geist"
  },
  {
    "postcode": "48163",
    "city": "Hiltrup"
  },
  {
    "postcode": "48163",
    "city": "Mecklenbeck"
  },
  {
    "postcode": "48163",
    "city": "Münster Westfalen"
  },
  {
    "postcode": "48163",
    "city": "Münster"
  },
  {
    "postcode": "48163",
    "city": "Roxel"
  },
  {
    "postcode": "48163",
    "city": "Aaseestadt"
  },
  {
    "postcode": "48163",
    "city": "Berg Fidel"
  },
  {
    "postcode": "48163",
    "city": "Sentrup"
  },
  {
    "postcode": "48163",
    "city": "Stadt Ascheberg"
  },
  {
    "postcode": "48165",
    "city": "Amelsbüren"
  },
  {
    "postcode": "48165",
    "city": "Angelmodde Westfalen"
  },
  {
    "postcode": "48165",
    "city": "Angelmodde"
  },
  {
    "postcode": "48165",
    "city": "Hiltrup"
  },
  {
    "postcode": "48165",
    "city": "Münster Westfalen"
  },
  {
    "postcode": "48165",
    "city": "Münster"
  },
  {
    "postcode": "48165",
    "city": "Berg Fidel"
  },
  {
    "postcode": "48167",
    "city": "Angelmodde Westfalen"
  },
  {
    "postcode": "48167",
    "city": "Angelmodde"
  },
  {
    "postcode": "48167",
    "city": "Gremmendorf"
  },
  {
    "postcode": "48167",
    "city": "Münster Westfalen"
  },
  {
    "postcode": "48167",
    "city": "Münster"
  },
  {
    "postcode": "48167",
    "city": "Wolbeck"
  },
  {
    "postcode": "48231",
    "city": "Einen"
  },
  {
    "postcode": "48231",
    "city": "Freckenhorst"
  },
  {
    "postcode": "48231",
    "city": "Hoetmar"
  },
  {
    "postcode": "48231",
    "city": "Milte"
  },
  {
    "postcode": "48231",
    "city": "Warendorf"
  },
  {
    "postcode": "48231",
    "city": "Müssingen"
  },
  {
    "postcode": "48249",
    "city": "Börnste"
  },
  {
    "postcode": "48249",
    "city": "Buldern"
  },
  {
    "postcode": "48249",
    "city": "Daldrup"
  },
  {
    "postcode": "48249",
    "city": "Dernekamp"
  },
  {
    "postcode": "48249",
    "city": "Dülmen"
  },
  {
    "postcode": "48249",
    "city": "Empte"
  },
  {
    "postcode": "48249",
    "city": "Hausdülmen"
  },
  {
    "postcode": "48249",
    "city": "Hiddingsel"
  },
  {
    "postcode": "48249",
    "city": "Leuste"
  },
  {
    "postcode": "48249",
    "city": "Merfeld"
  },
  {
    "postcode": "48249",
    "city": "Mitwick"
  },
  {
    "postcode": "48249",
    "city": "Rödder"
  },
  {
    "postcode": "48249",
    "city": "Rorup"
  },
  {
    "postcode": "48249",
    "city": "Weddern"
  },
  {
    "postcode": "48249",
    "city": "Welte"
  },
  {
    "postcode": "48249",
    "city": "Coesfeld"
  },
  {
    "postcode": "48249",
    "city": "Karthaus"
  },
  {
    "postcode": "48268",
    "city": "Gimbte Kreis Münster Westfalen"
  },
  {
    "postcode": "48268",
    "city": "Gimbte"
  },
  {
    "postcode": "48268",
    "city": "Greven Westfalen"
  },
  {
    "postcode": "48268",
    "city": "Greven"
  },
  {
    "postcode": "48268",
    "city": "Reckenfeld"
  },
  {
    "postcode": "48268",
    "city": "Steinfurt"
  },
  {
    "postcode": "48282",
    "city": "Emsdetten"
  },
  {
    "postcode": "48282",
    "city": "Scheddebrock bei Münster Westfalen"
  },
  {
    "postcode": "48282",
    "city": "Scheddebrock bei Münster"
  },
  {
    "postcode": "48282",
    "city": "Suttorf bei Münster Westfalen"
  },
  {
    "postcode": "48282",
    "city": "Suttorf bei Münster"
  },
  {
    "postcode": "48282",
    "city": "Steinfurt"
  },
  {
    "postcode": "48291",
    "city": "Berdel"
  },
  {
    "postcode": "48291",
    "city": "Schwienhorst"
  },
  {
    "postcode": "48291",
    "city": "Telgte"
  },
  {
    "postcode": "48291",
    "city": "Vechtrup"
  },
  {
    "postcode": "48291",
    "city": "Verth"
  },
  {
    "postcode": "48291",
    "city": "Westbevern"
  },
  {
    "postcode": "48291",
    "city": "Warendorf"
  },
  {
    "postcode": "48301",
    "city": "Appelhülsen"
  },
  {
    "postcode": "48301",
    "city": "Buxtrup"
  },
  {
    "postcode": "48301",
    "city": "Darup"
  },
  {
    "postcode": "48301",
    "city": "Nottuln"
  },
  {
    "postcode": "48301",
    "city": "Schapdetten"
  },
  {
    "postcode": "48301",
    "city": "Stevern"
  },
  {
    "postcode": "48301",
    "city": "Stockum"
  },
  {
    "postcode": "48301",
    "city": "Uphoven"
  },
  {
    "postcode": "48301",
    "city": "Coesfeld"
  },
  {
    "postcode": "48301",
    "city": "Wellstraße"
  },
  {
    "postcode": "48301",
    "city": "Niehues"
  },
  {
    "postcode": "48308",
    "city": "Bösensell"
  },
  {
    "postcode": "48308",
    "city": "Bredenbeck Westfalen"
  },
  {
    "postcode": "48308",
    "city": "Bredenbeck"
  },
  {
    "postcode": "48308",
    "city": "Gettrup Westfalen"
  },
  {
    "postcode": "48308",
    "city": "Gettrup"
  },
  {
    "postcode": "48308",
    "city": "Holtrup Westfalen"
  },
  {
    "postcode": "48308",
    "city": "Holtrup"
  },
  {
    "postcode": "48308",
    "city": "Ottmarsbocholt"
  },
  {
    "postcode": "48308",
    "city": "Schölling Westfalen"
  },
  {
    "postcode": "48308",
    "city": "Schölling"
  },
  {
    "postcode": "48308",
    "city": "Senden"
  },
  {
    "postcode": "48308",
    "city": "Senden Westfalen"
  },
  {
    "postcode": "48308",
    "city": "Venne Westfalen"
  },
  {
    "postcode": "48308",
    "city": "Venne"
  },
  {
    "postcode": "48308",
    "city": "Coesfeld"
  },
  {
    "postcode": "48317",
    "city": "Drensteinfurt"
  },
  {
    "postcode": "48317",
    "city": "Rinkerode"
  },
  {
    "postcode": "48317",
    "city": "Walstedde"
  },
  {
    "postcode": "48317",
    "city": "Warendorf"
  },
  {
    "postcode": "48324",
    "city": "Albersloh"
  },
  {
    "postcode": "48324",
    "city": "Bracht"
  },
  {
    "postcode": "48324",
    "city": "Brock"
  },
  {
    "postcode": "48324",
    "city": "Elmenhorst"
  },
  {
    "postcode": "48324",
    "city": "Hardt"
  },
  {
    "postcode": "48324",
    "city": "Jönsthövel"
  },
  {
    "postcode": "48324",
    "city": "Rinkhöven"
  },
  {
    "postcode": "48324",
    "city": "Sandfort"
  },
  {
    "postcode": "48324",
    "city": "Sendenhorst"
  },
  {
    "postcode": "48324",
    "city": "Warendorf"
  },
  {
    "postcode": "48329",
    "city": "Gennerich"
  },
  {
    "postcode": "48329",
    "city": "Havixbeck"
  },
  {
    "postcode": "48329",
    "city": "Herkentrup"
  },
  {
    "postcode": "48329",
    "city": "Hohenholte"
  },
  {
    "postcode": "48329",
    "city": "Lasbeck"
  },
  {
    "postcode": "48329",
    "city": "Masbeck"
  },
  {
    "postcode": "48329",
    "city": "Natrup"
  },
  {
    "postcode": "48329",
    "city": "Poppenbeck"
  },
  {
    "postcode": "48329",
    "city": "Walingen"
  },
  {
    "postcode": "48329",
    "city": "Coesfeld"
  },
  {
    "postcode": "48336",
    "city": "Füchtorf"
  },
  {
    "postcode": "48336",
    "city": "Sassenberg"
  },
  {
    "postcode": "48336",
    "city": "Sassenberg Westfalen"
  },
  {
    "postcode": "48336",
    "city": "Warendorf"
  },
  {
    "postcode": "48336",
    "city": "Gröblingen"
  },
  {
    "postcode": "48341",
    "city": "Altenberge Westfalen"
  },
  {
    "postcode": "48341",
    "city": "Altenberge"
  },
  {
    "postcode": "48341",
    "city": "Entrup Westfalen"
  },
  {
    "postcode": "48341",
    "city": "Entrup"
  },
  {
    "postcode": "48341",
    "city": "Feldbauerschaft bei Münster"
  },
  {
    "postcode": "48341",
    "city": "Hansell Westfalen"
  },
  {
    "postcode": "48341",
    "city": "Hansell"
  },
  {
    "postcode": "48341",
    "city": "Hohenhorst Westfalen"
  },
  {
    "postcode": "48341",
    "city": "Hohenhorst"
  },
  {
    "postcode": "48341",
    "city": "Kümper"
  },
  {
    "postcode": "48341",
    "city": "Waltrup Westfalen"
  },
  {
    "postcode": "48341",
    "city": "Waltrup"
  },
  {
    "postcode": "48341",
    "city": "Westenfeld Westfalen"
  },
  {
    "postcode": "48341",
    "city": "Westenfeld"
  },
  {
    "postcode": "48341",
    "city": "Steinfurt"
  },
  {
    "postcode": "48346",
    "city": "Lehmbrock"
  },
  {
    "postcode": "48346",
    "city": "Loburg"
  },
  {
    "postcode": "48346",
    "city": "Ostbevern"
  },
  {
    "postcode": "48346",
    "city": "Schirl"
  },
  {
    "postcode": "48346",
    "city": "Ueberwasser"
  },
  {
    "postcode": "48346",
    "city": "Warendorf"
  },
  {
    "postcode": "48351",
    "city": "Alverskirchen"
  },
  {
    "postcode": "48351",
    "city": "Erter"
  },
  {
    "postcode": "48351",
    "city": "Everswinkel"
  },
  {
    "postcode": "48351",
    "city": "Mehringen"
  },
  {
    "postcode": "48351",
    "city": "Müssingen"
  },
  {
    "postcode": "48351",
    "city": "Schuter"
  },
  {
    "postcode": "48351",
    "city": "Versmar"
  },
  {
    "postcode": "48351",
    "city": "Wester"
  },
  {
    "postcode": "48351",
    "city": "Wieningen"
  },
  {
    "postcode": "48351",
    "city": "Warendorf"
  },
  {
    "postcode": "48351",
    "city": "Rusche"
  },
  {
    "postcode": "48356",
    "city": "Nordwalde"
  },
  {
    "postcode": "48356",
    "city": "Scheddebrock bei Münster Westfalen"
  },
  {
    "postcode": "48356",
    "city": "Scheddebrock bei Münster"
  },
  {
    "postcode": "48356",
    "city": "Suttorf bei Münster Westfalen"
  },
  {
    "postcode": "48356",
    "city": "Suttorf bei Münster"
  },
  {
    "postcode": "48356",
    "city": "Steinfurt"
  },
  {
    "postcode": "48361",
    "city": "Beelen"
  },
  {
    "postcode": "48361",
    "city": "Hemfeld"
  },
  {
    "postcode": "48361",
    "city": "Hörster"
  },
  {
    "postcode": "48361",
    "city": "Oester"
  },
  {
    "postcode": "48361",
    "city": "Thier"
  },
  {
    "postcode": "48361",
    "city": "Warendorf"
  },
  {
    "postcode": "48366",
    "city": "Holthausen Kreis Steinfurt"
  },
  {
    "postcode": "48366",
    "city": "Holthausen"
  },
  {
    "postcode": "48366",
    "city": "Laer"
  },
  {
    "postcode": "48366",
    "city": "Laer Kreis Steinfurt"
  },
  {
    "postcode": "48366",
    "city": "Steinfurt"
  },
  {
    "postcode": "48369",
    "city": "Saerbeck"
  },
  {
    "postcode": "48369",
    "city": "Sinningen"
  },
  {
    "postcode": "48369",
    "city": "Westladbergen"
  },
  {
    "postcode": "48369",
    "city": "Steinfurt"
  },
  {
    "postcode": "48429",
    "city": "Altenrheine Westfalen"
  },
  {
    "postcode": "48429",
    "city": "Altenrheine"
  },
  {
    "postcode": "48429",
    "city": "Gellendorf Westfalen"
  },
  {
    "postcode": "48429",
    "city": "Gellendorf"
  },
  {
    "postcode": "48429",
    "city": "Rheine"
  },
  {
    "postcode": "48429",
    "city": "Steinfurt"
  },
  {
    "postcode": "48429",
    "city": "Schotthock"
  },
  {
    "postcode": "48429",
    "city": "Eschendorf/Gellendorf"
  },
  {
    "postcode": "48429",
    "city": "Innenstadt"
  },
  {
    "postcode": "48429",
    "city": "Kanalhafen/Rodde"
  },
  {
    "postcode": "48429",
    "city": "Eschendorf"
  },
  {
    "postcode": "48429",
    "city": "Kanalhafen"
  },
  {
    "postcode": "48431",
    "city": "Rheine"
  },
  {
    "postcode": "48431",
    "city": "Steinfurt"
  },
  {
    "postcode": "48431",
    "city": "Wietesch/Schleupe"
  },
  {
    "postcode": "48431",
    "city": "Wadelheim"
  },
  {
    "postcode": "48431",
    "city": "Dorenkamp"
  },
  {
    "postcode": "48431",
    "city": "Dutum"
  },
  {
    "postcode": "48431",
    "city": "Innenstadt"
  },
  {
    "postcode": "48431",
    "city": "Catenhorn"
  },
  {
    "postcode": "48431",
    "city": "Wietesch"
  },
  {
    "postcode": "48432",
    "city": "Altenrheine Westfalen"
  },
  {
    "postcode": "48432",
    "city": "Altenrheine"
  },
  {
    "postcode": "48432",
    "city": "Catenhorn Westfalen"
  },
  {
    "postcode": "48432",
    "city": "Catenhorn"
  },
  {
    "postcode": "48432",
    "city": "Elte Westfalen"
  },
  {
    "postcode": "48432",
    "city": "Elte"
  },
  {
    "postcode": "48432",
    "city": "Gellendorf Westfalen"
  },
  {
    "postcode": "48432",
    "city": "Gellendorf"
  },
  {
    "postcode": "48432",
    "city": "Hauenhorst"
  },
  {
    "postcode": "48432",
    "city": "Mesum"
  },
  {
    "postcode": "48432",
    "city": "Rheine"
  },
  {
    "postcode": "48432",
    "city": "Rodde"
  },
  {
    "postcode": "48432",
    "city": "Steinfurt"
  },
  {
    "postcode": "48432",
    "city": "Eschendorf/Gellendorf"
  },
  {
    "postcode": "48432",
    "city": "Kanalhafen/Rodde"
  },
  {
    "postcode": "48432",
    "city": "Wadelheim"
  },
  {
    "postcode": "48432",
    "city": "Bentlage"
  },
  {
    "postcode": "48432",
    "city": "Schotthock"
  },
  {
    "postcode": "48432",
    "city": "Baarentelgen"
  },
  {
    "postcode": "48432",
    "city": "Wietesch/Schleupe"
  },
  {
    "postcode": "48432",
    "city": "Dutum"
  },
  {
    "postcode": "48432",
    "city": "Kanalhafen"
  },
  {
    "postcode": "48432",
    "city": "Innenstadt"
  },
  {
    "postcode": "48432",
    "city": "Eschendorf"
  },
  {
    "postcode": "48432",
    "city": "Wietesch"
  },
  {
    "postcode": "48455",
    "city": "Achterberg"
  },
  {
    "postcode": "48455",
    "city": "Bad Bentheim"
  },
  {
    "postcode": "48455",
    "city": "Bardel"
  },
  {
    "postcode": "48455",
    "city": "Gildehaus"
  },
  {
    "postcode": "48455",
    "city": "Hagelshoek"
  },
  {
    "postcode": "48455",
    "city": "Holt und Haar"
  },
  {
    "postcode": "48455",
    "city": "Sieringhoek"
  },
  {
    "postcode": "48455",
    "city": "Waldseite"
  },
  {
    "postcode": "48455",
    "city": "Westenberg"
  },
  {
    "postcode": "48455",
    "city": "Grafschaft Bentheim"
  },
  {
    "postcode": "48465",
    "city": "Drievorden"
  },
  {
    "postcode": "48465",
    "city": "Engden"
  },
  {
    "postcode": "48465",
    "city": "Isterberg"
  },
  {
    "postcode": "48465",
    "city": "Neerlage"
  },
  {
    "postcode": "48465",
    "city": "Ohne"
  },
  {
    "postcode": "48465",
    "city": "Quendorf"
  },
  {
    "postcode": "48465",
    "city": "Samern"
  },
  {
    "postcode": "48465",
    "city": "Schüttorf"
  },
  {
    "postcode": "48465",
    "city": "Suddendorf"
  },
  {
    "postcode": "48465",
    "city": "Wengsel"
  },
  {
    "postcode": "48465",
    "city": "Grafschaft Bentheim"
  },
  {
    "postcode": "48477",
    "city": "Bevergern Westfalen"
  },
  {
    "postcode": "48477",
    "city": "Bevergern"
  },
  {
    "postcode": "48477",
    "city": "Dreierwalde"
  },
  {
    "postcode": "48477",
    "city": "Hörstel"
  },
  {
    "postcode": "48477",
    "city": "Middendorf"
  },
  {
    "postcode": "48477",
    "city": "Riesenbeck"
  },
  {
    "postcode": "48477",
    "city": "Steinfurt"
  },
  {
    "postcode": "48477",
    "city": "Gravenhorst"
  },
  {
    "postcode": "48480",
    "city": "Heitel"
  },
  {
    "postcode": "48480",
    "city": "Lünne"
  },
  {
    "postcode": "48480",
    "city": "Schapen Emsl"
  },
  {
    "postcode": "48480",
    "city": "Schapen"
  },
  {
    "postcode": "48480",
    "city": "Spelle"
  },
  {
    "postcode": "48480",
    "city": "Varenrode"
  },
  {
    "postcode": "48480",
    "city": "Venhaus"
  },
  {
    "postcode": "48480",
    "city": "Emsland"
  },
  {
    "postcode": "48480",
    "city": "Altenlünne"
  },
  {
    "postcode": "48480",
    "city": "Plantlünne"
  },
  {
    "postcode": "48485",
    "city": "Landersum Kreis Steinfurt"
  },
  {
    "postcode": "48485",
    "city": "Landersum"
  },
  {
    "postcode": "48485",
    "city": "Maxhafen Kreis Steinfurt"
  },
  {
    "postcode": "48485",
    "city": "Maxhafen"
  },
  {
    "postcode": "48485",
    "city": "Neuenkirchen Kreis Steinfurt"
  },
  {
    "postcode": "48485",
    "city": "Neuenkirchen"
  },
  {
    "postcode": "48485",
    "city": "Offlum Kreis Steinfurt"
  },
  {
    "postcode": "48485",
    "city": "Offlum"
  },
  {
    "postcode": "48485",
    "city": "Sankt Arnold"
  },
  {
    "postcode": "48485",
    "city": "Sutrum-Harum Kreis Steinfurt"
  },
  {
    "postcode": "48485",
    "city": "Sutrum-Harum"
  },
  {
    "postcode": "48485",
    "city": "Steinfurt"
  },
  {
    "postcode": "48485",
    "city": "St. Arnold"
  },
  {
    "postcode": "48488",
    "city": "Ahlde"
  },
  {
    "postcode": "48488",
    "city": "Berge"
  },
  {
    "postcode": "48488",
    "city": "Bernte"
  },
  {
    "postcode": "48488",
    "city": "Elbergen"
  },
  {
    "postcode": "48488",
    "city": "Emsbüren"
  },
  {
    "postcode": "48488",
    "city": "Gleesen"
  },
  {
    "postcode": "48488",
    "city": "Helschen"
  },
  {
    "postcode": "48488",
    "city": "Hesselte"
  },
  {
    "postcode": "48488",
    "city": "Leschede"
  },
  {
    "postcode": "48488",
    "city": "Listrup"
  },
  {
    "postcode": "48488",
    "city": "Mehringen"
  },
  {
    "postcode": "48488",
    "city": "Emsland"
  },
  {
    "postcode": "48493",
    "city": "Bilk Kreis Steinfurt"
  },
  {
    "postcode": "48493",
    "city": "Bilk"
  },
  {
    "postcode": "48493",
    "city": "Brechte Kreis Steinfurt"
  },
  {
    "postcode": "48493",
    "city": "Brechte"
  },
  {
    "postcode": "48493",
    "city": "Klein-Haddorf Kreis Steinfurt"
  },
  {
    "postcode": "48493",
    "city": "Klein-Haddorf"
  },
  {
    "postcode": "48493",
    "city": "Rothenberge Kreis Steinfurt"
  },
  {
    "postcode": "48493",
    "city": "Rothenberge"
  },
  {
    "postcode": "48493",
    "city": "Wettringen Kreis Steinfurt"
  },
  {
    "postcode": "48493",
    "city": "Wettringen"
  },
  {
    "postcode": "48493",
    "city": "Steinfurt"
  },
  {
    "postcode": "48496",
    "city": "Halverde"
  },
  {
    "postcode": "48496",
    "city": "Hopsten"
  },
  {
    "postcode": "48496",
    "city": "Schale"
  },
  {
    "postcode": "48496",
    "city": "Steinfurt"
  },
  {
    "postcode": "48499",
    "city": "Öchtel"
  },
  {
    "postcode": "48499",
    "city": "Salzbergen"
  },
  {
    "postcode": "48499",
    "city": "Stovern Gut"
  },
  {
    "postcode": "48499",
    "city": "Stovern"
  },
  {
    "postcode": "48499",
    "city": "Emsland"
  },
  {
    "postcode": "48499",
    "city": "Neumehringen"
  },
  {
    "postcode": "48527",
    "city": "Bimolten"
  },
  {
    "postcode": "48527",
    "city": "Bookholt"
  },
  {
    "postcode": "48527",
    "city": "Hohenkörben"
  },
  {
    "postcode": "48527",
    "city": "Nordhorn"
  },
  {
    "postcode": "48527",
    "city": "Grafschaft Bentheim"
  },
  {
    "postcode": "48529",
    "city": "Brandlecht"
  },
  {
    "postcode": "48529",
    "city": "Frensdorferhaar"
  },
  {
    "postcode": "48529",
    "city": "Hestrup"
  },
  {
    "postcode": "48529",
    "city": "Nordhorn"
  },
  {
    "postcode": "48529",
    "city": "Grafschaft Bentheim"
  },
  {
    "postcode": "48531",
    "city": "Bimolten"
  },
  {
    "postcode": "48531",
    "city": "Bookholt"
  },
  {
    "postcode": "48531",
    "city": "Brandlecht"
  },
  {
    "postcode": "48531",
    "city": "Hesepe"
  },
  {
    "postcode": "48531",
    "city": "Hestrup"
  },
  {
    "postcode": "48531",
    "city": "Hohenkörben"
  },
  {
    "postcode": "48531",
    "city": "Klausheide"
  },
  {
    "postcode": "48531",
    "city": "Nordhorn"
  },
  {
    "postcode": "48531",
    "city": "Grafschaft Bentheim"
  },
  {
    "postcode": "48565",
    "city": "Borghorst Westfalen"
  },
  {
    "postcode": "48565",
    "city": "Borghorst"
  },
  {
    "postcode": "48565",
    "city": "Burgsteinfurt"
  },
  {
    "postcode": "48565",
    "city": "Steinfurt Westfalen"
  },
  {
    "postcode": "48565",
    "city": "Steinfurt"
  },
  {
    "postcode": "48599",
    "city": "Epe Westfalen"
  },
  {
    "postcode": "48599",
    "city": "Epe"
  },
  {
    "postcode": "48599",
    "city": "Gronau"
  },
  {
    "postcode": "48599",
    "city": "Gronau (Westfalen)"
  },
  {
    "postcode": "48599",
    "city": "Borken"
  },
  {
    "postcode": "48599",
    "city": "Gronau (Westf.)"
  },
  {
    "postcode": "48607",
    "city": "Langenhorst Kreis Steinfurt"
  },
  {
    "postcode": "48607",
    "city": "Langenhorst"
  },
  {
    "postcode": "48607",
    "city": "Ochtrup"
  },
  {
    "postcode": "48607",
    "city": "Welbergen"
  },
  {
    "postcode": "48607",
    "city": "Steinfurt"
  },
  {
    "postcode": "48612",
    "city": "Horstmar"
  },
  {
    "postcode": "48612",
    "city": "Horstmar Westfalen"
  },
  {
    "postcode": "48612",
    "city": "Leer Westfalen"
  },
  {
    "postcode": "48612",
    "city": "Leer"
  },
  {
    "postcode": "48612",
    "city": "Steinfurt"
  },
  {
    "postcode": "48612",
    "city": "Bahnhof Horstmar"
  },
  {
    "postcode": "48619",
    "city": "Heek"
  },
  {
    "postcode": "48619",
    "city": "Nienborg"
  },
  {
    "postcode": "48619",
    "city": "Borken"
  },
  {
    "postcode": "48619",
    "city": "Ahle"
  },
  {
    "postcode": "48624",
    "city": "Eggerode"
  },
  {
    "postcode": "48624",
    "city": "Schöppingen"
  },
  {
    "postcode": "48624",
    "city": "Borken"
  },
  {
    "postcode": "48629",
    "city": "Metelen"
  },
  {
    "postcode": "48629",
    "city": "Steinfurt"
  },
  {
    "postcode": "48653",
    "city": "Coesfeld"
  },
  {
    "postcode": "48653",
    "city": "Flamschen Westfalen"
  },
  {
    "postcode": "48653",
    "city": "Flamschen"
  },
  {
    "postcode": "48653",
    "city": "Gaupel Westfalen"
  },
  {
    "postcode": "48653",
    "city": "Gaupel"
  },
  {
    "postcode": "48653",
    "city": "Goxel Westfalen"
  },
  {
    "postcode": "48653",
    "city": "Goxel"
  },
  {
    "postcode": "48653",
    "city": "Harle Westfalen"
  },
  {
    "postcode": "48653",
    "city": "Harle"
  },
  {
    "postcode": "48653",
    "city": "Lette Kreis Coesfeld Westfalen"
  },
  {
    "postcode": "48653",
    "city": "Lette"
  },
  {
    "postcode": "48653",
    "city": "Sirksfeld Westfalen"
  },
  {
    "postcode": "48653",
    "city": "Sirksfeld"
  },
  {
    "postcode": "48653",
    "city": "Stevede Westfalen"
  },
  {
    "postcode": "48653",
    "city": "Stevede"
  },
  {
    "postcode": "48653",
    "city": "Sükerhook Westfalen"
  },
  {
    "postcode": "48653",
    "city": "Sükerhook"
  },
  {
    "postcode": "48653",
    "city": "Brink"
  },
  {
    "postcode": "48683",
    "city": "Ahaus"
  },
  {
    "postcode": "48683",
    "city": "Alstätte Kreis Ahaus"
  },
  {
    "postcode": "48683",
    "city": "Alstätte"
  },
  {
    "postcode": "48683",
    "city": "Ammeln"
  },
  {
    "postcode": "48683",
    "city": "Graes"
  },
  {
    "postcode": "48683",
    "city": "Ottenstein Westfalen"
  },
  {
    "postcode": "48683",
    "city": "Ottenstein"
  },
  {
    "postcode": "48683",
    "city": "Wessum"
  },
  {
    "postcode": "48683",
    "city": "Wüllen"
  },
  {
    "postcode": "48683",
    "city": "Borken"
  },
  {
    "postcode": "48691",
    "city": "Ammeloe"
  },
  {
    "postcode": "48691",
    "city": "Doemern"
  },
  {
    "postcode": "48691",
    "city": "Ellewick"
  },
  {
    "postcode": "48691",
    "city": "Gaxel"
  },
  {
    "postcode": "48691",
    "city": "Köckelwick"
  },
  {
    "postcode": "48691",
    "city": "Lünten"
  },
  {
    "postcode": "48691",
    "city": "Vreden"
  },
  {
    "postcode": "48691",
    "city": "Wennewick"
  },
  {
    "postcode": "48691",
    "city": "Zwillbrock"
  },
  {
    "postcode": "48691",
    "city": "Borken"
  },
  {
    "postcode": "48703",
    "city": "Almsick"
  },
  {
    "postcode": "48703",
    "city": "Estern"
  },
  {
    "postcode": "48703",
    "city": "Hundewick"
  },
  {
    "postcode": "48703",
    "city": "Stadtlohn"
  },
  {
    "postcode": "48703",
    "city": "Borken"
  },
  {
    "postcode": "48712",
    "city": "Büren"
  },
  {
    "postcode": "48712",
    "city": "Gescher"
  },
  {
    "postcode": "48712",
    "city": "Harwick"
  },
  {
    "postcode": "48712",
    "city": "Hochmoor"
  },
  {
    "postcode": "48712",
    "city": "Tungerloh-Capellen"
  },
  {
    "postcode": "48712",
    "city": "Tungerloh-Pröbsting"
  },
  {
    "postcode": "48712",
    "city": "Borken"
  },
  {
    "postcode": "48712",
    "city": "Musholt"
  },
  {
    "postcode": "48720",
    "city": "Darfeld"
  },
  {
    "postcode": "48720",
    "city": "Holtwick Kreis Coesfeld Westfalen"
  },
  {
    "postcode": "48720",
    "city": "Holtwick"
  },
  {
    "postcode": "48720",
    "city": "Osterwick Westfalen"
  },
  {
    "postcode": "48720",
    "city": "Osterwick"
  },
  {
    "postcode": "48720",
    "city": "Rosendahl Westfalen"
  },
  {
    "postcode": "48720",
    "city": "Rosendahl"
  },
  {
    "postcode": "48720",
    "city": "Coesfeld"
  },
  {
    "postcode": "48720",
    "city": "Midlich"
  },
  {
    "postcode": "48727",
    "city": "Billerbeck Westfalen"
  },
  {
    "postcode": "48727",
    "city": "Billerbeck"
  },
  {
    "postcode": "48727",
    "city": "Coesfeld"
  },
  {
    "postcode": "48734",
    "city": "Bahnhof Reken"
  },
  {
    "postcode": "48734",
    "city": "Groß Reken"
  },
  {
    "postcode": "48734",
    "city": "Hülsten"
  },
  {
    "postcode": "48734",
    "city": "Klein Reken"
  },
  {
    "postcode": "48734",
    "city": "Reken"
  },
  {
    "postcode": "48734",
    "city": "Borken"
  },
  {
    "postcode": "48734",
    "city": "Maria Veen"
  },
  {
    "postcode": "48739",
    "city": "Asbeck Kreis Ahaus"
  },
  {
    "postcode": "48739",
    "city": "Asbeck"
  },
  {
    "postcode": "48739",
    "city": "Legden"
  },
  {
    "postcode": "48739",
    "city": "Borken"
  },
  {
    "postcode": "4861",
    "city": "Nordsachsen"
  },
  {
    "postcode": "4861",
    "city": "Torgau"
  },
  {
    "postcode": "4861",
    "city": "Staupitz"
  },
  {
    "postcode": "4861",
    "city": "Mehderitzsch"
  },
  {
    "postcode": "4861",
    "city": "Loßwig"
  },
  {
    "postcode": "4861",
    "city": "Weßnig"
  },
  {
    "postcode": "4861",
    "city": "Bennewitz"
  },
  {
    "postcode": "4861",
    "city": "Beckwitz"
  },
  {
    "postcode": "4861",
    "city": "Kunzwerda"
  },
  {
    "postcode": "4861",
    "city": "Kranichau"
  },
  {
    "postcode": "4862",
    "city": "Nordsachsen"
  },
  {
    "postcode": "4862",
    "city": "Mockrehna"
  },
  {
    "postcode": "4862",
    "city": "Wildschütz"
  },
  {
    "postcode": "4862",
    "city": "Klitzschen"
  },
  {
    "postcode": "4862",
    "city": "Audenhain"
  },
  {
    "postcode": "4862",
    "city": "Schöna"
  },
  {
    "postcode": "4862",
    "city": "Wildenhain"
  },
  {
    "postcode": "4862",
    "city": "Gräfendorf"
  },
  {
    "postcode": "4862",
    "city": "Strelln"
  },
  {
    "postcode": "4862",
    "city": "Langenreichenbach"
  }
]