[
  {
    "postcode": "6217",
    "city": "Beuna (Geiseltal)"
  },
  {
    "postcode": "6217",
    "city": "Beuna"
  },
  {
    "postcode": "6217",
    "city": "Geusa"
  },
  {
    "postcode": "6217",
    "city": "Merseburg (Saale)"
  },
  {
    "postcode": "6217",
    "city": "Merseburg"
  },
  {
    "postcode": "6217",
    "city": "Saalekreis"
  },
  {
    "postcode": "6217",
    "city": "Meuschau"
  },
  {
    "postcode": "6217",
    "city": "Atzendorf"
  },
  {
    "postcode": "6217",
    "city": "Blösien"
  },
  {
    "postcode": "6217",
    "city": "Trebnitz"
  },
  {
    "postcode": "6217",
    "city": "Zscherben"
  },
  {
    "postcode": "6231",
    "city": "Bad Dürrenberg"
  },
  {
    "postcode": "6231",
    "city": "Kötzschau bei Merseburg"
  },
  {
    "postcode": "6231",
    "city": "Kreypau"
  },
  {
    "postcode": "6231",
    "city": "Nempitz"
  },
  {
    "postcode": "6231",
    "city": "Oebles-Schlechtewitz"
  },
  {
    "postcode": "6231",
    "city": "Rodden"
  },
  {
    "postcode": "6231",
    "city": "Tollwitz"
  },
  {
    "postcode": "6231",
    "city": "Saalekreis"
  },
  {
    "postcode": "6231",
    "city": "Kauern"
  },
  {
    "postcode": "6231",
    "city": "Ragwitz"
  },
  {
    "postcode": "6231",
    "city": "Ellerbach"
  },
  {
    "postcode": "6231",
    "city": "Zöllschen"
  },
  {
    "postcode": "6231",
    "city": "Vesta"
  },
  {
    "postcode": "6231",
    "city": "Goddula"
  },
  {
    "postcode": "6237",
    "city": "Leuna"
  },
  {
    "postcode": "6237",
    "city": "Spergau"
  },
  {
    "postcode": "6237",
    "city": "Saalekreis"
  },
  {
    "postcode": "6237",
    "city": "Göhren"
  },
  {
    "postcode": "6237",
    "city": "Kötschlitz"
  },
  {
    "postcode": "6237",
    "city": "Kreypau"
  },
  {
    "postcode": "6237",
    "city": "Kötzschau"
  },
  {
    "postcode": "6237",
    "city": "Zöschen"
  },
  {
    "postcode": "6237",
    "city": "Friedensdorf"
  },
  {
    "postcode": "6237",
    "city": "Günthersdorf"
  },
  {
    "postcode": "6237",
    "city": "Daspig"
  },
  {
    "postcode": "6237",
    "city": "Rampitz"
  },
  {
    "postcode": "6237",
    "city": "Horburg-Maßlau"
  },
  {
    "postcode": "6237",
    "city": "Wölkau"
  },
  {
    "postcode": "6237",
    "city": "Wüsteneutzsch"
  },
  {
    "postcode": "6237",
    "city": "Schladebach"
  },
  {
    "postcode": "6237",
    "city": "Dölkau"
  },
  {
    "postcode": "6237",
    "city": "Maßlau"
  },
  {
    "postcode": "6237",
    "city": "Pissen"
  },
  {
    "postcode": "6237",
    "city": "Rodden"
  },
  {
    "postcode": "6237",
    "city": "Zschöchergen"
  },
  {
    "postcode": "6237",
    "city": "Thalschütz"
  },
  {
    "postcode": "6237",
    "city": "Möritzsch"
  },
  {
    "postcode": "6237",
    "city": "Witzschersdorf"
  },
  {
    "postcode": "6237",
    "city": "Zweimen"
  },
  {
    "postcode": "6242",
    "city": "Braunsbedra"
  },
  {
    "postcode": "6242",
    "city": "Großkayna"
  },
  {
    "postcode": "6242",
    "city": "Krumpa (Geiseltal)"
  },
  {
    "postcode": "6242",
    "city": "Krumpa"
  },
  {
    "postcode": "6242",
    "city": "Roßbach bei Merseburg"
  },
  {
    "postcode": "6242",
    "city": "Saalekreis"
  },
  {
    "postcode": "6242",
    "city": "Roßbach"
  },
  {
    "postcode": "6242",
    "city": "Schortau"
  },
  {
    "postcode": "6242",
    "city": "Lunstädt"
  },
  {
    "postcode": "6242",
    "city": "Leiha"
  },
  {
    "postcode": "6246",
    "city": "Bad Lauchstädt"
  },
  {
    "postcode": "6246",
    "city": "Knapendorf"
  },
  {
    "postcode": "6246",
    "city": "Milzau"
  },
  {
    "postcode": "6246",
    "city": "Saalekreis"
  },
  {
    "postcode": "6246",
    "city": "Bad Lauchstädt Goethestadt"
  },
  {
    "postcode": "6246",
    "city": "Großgräfendorf"
  },
  {
    "postcode": "6246",
    "city": "Schafstädt"
  },
  {
    "postcode": "6246",
    "city": "Klobikau"
  },
  {
    "postcode": "6246",
    "city": "Delitz am Berge"
  },
  {
    "postcode": "6246",
    "city": "Schotterey"
  },
  {
    "postcode": "6249",
    "city": "Mücheln (Geiseltal)"
  },
  {
    "postcode": "6249",
    "city": "Mücheln"
  },
  {
    "postcode": "6249",
    "city": "Saalekreis"
  },
  {
    "postcode": "6249",
    "city": "Stöbnitz"
  },
  {
    "postcode": "6254",
    "city": "Friedensdorf bei Merseburg"
  },
  {
    "postcode": "6254",
    "city": "Günthersdorf bei Merseburg"
  },
  {
    "postcode": "6254",
    "city": "Horburg-Maßlau"
  },
  {
    "postcode": "6254",
    "city": "Kötschlitz"
  },
  {
    "postcode": "6254",
    "city": "Luppenau"
  },
  {
    "postcode": "6254",
    "city": "Wallendorf (Luppe)"
  },
  {
    "postcode": "6254",
    "city": "Wallendorf"
  },
  {
    "postcode": "6254",
    "city": "Zöschen"
  },
  {
    "postcode": "6254",
    "city": "Zweimen"
  },
  {
    "postcode": "6255",
    "city": "Wünsch"
  },
  {
    "postcode": "6255",
    "city": "Saalekreis"
  },
  {
    "postcode": "6255",
    "city": "Oberwünsch"
  },
  {
    "postcode": "6255",
    "city": "Niederwünsch"
  },
  {
    "postcode": "6258",
    "city": "Burgliebenau"
  },
  {
    "postcode": "6258",
    "city": "Döllnitz bei Halle Saale"
  },
  {
    "postcode": "6258",
    "city": "Döllnitz bei Halle"
  },
  {
    "postcode": "6258",
    "city": "Ermlitz"
  },
  {
    "postcode": "6258",
    "city": "Hohenweiden"
  },
  {
    "postcode": "6258",
    "city": "Korbetha"
  },
  {
    "postcode": "6258",
    "city": "Lochau bei Halle Saale"
  },
  {
    "postcode": "6258",
    "city": "Lochau bei Halle"
  },
  {
    "postcode": "6258",
    "city": "Raßnitz"
  },
  {
    "postcode": "6258",
    "city": "Röglitz"
  },
  {
    "postcode": "6258",
    "city": "Schkopau"
  },
  {
    "postcode": "6258",
    "city": "Saalekreis"
  },
  {
    "postcode": "6258",
    "city": "Lochau"
  },
  {
    "postcode": "6258",
    "city": "Wallendorf"
  },
  {
    "postcode": "6258",
    "city": "Knapendorf"
  },
  {
    "postcode": "6258",
    "city": "Döllnitz"
  },
  {
    "postcode": "6258",
    "city": "Luppenau"
  },
  {
    "postcode": "6258",
    "city": "Röpzig"
  },
  {
    "postcode": "6259",
    "city": "Frankleben"
  },
  {
    "postcode": "6259",
    "city": "Saalekreis"
  },
  {
    "postcode": "6268",
    "city": "Albersroda"
  },
  {
    "postcode": "6268",
    "city": "Barnstädt"
  },
  {
    "postcode": "6268",
    "city": "Grockstädt"
  },
  {
    "postcode": "6268",
    "city": "Langeneichstädt"
  },
  {
    "postcode": "6268",
    "city": "Leimbach bei Querfurt"
  },
  {
    "postcode": "6268",
    "city": "Nemsdorf-Göhrendorf"
  },
  {
    "postcode": "6268",
    "city": "Obhausen"
  },
  {
    "postcode": "6268",
    "city": "Oechlitz"
  },
  {
    "postcode": "6268",
    "city": "Querfurt"
  },
  {
    "postcode": "6268",
    "city": "Schmon"
  },
  {
    "postcode": "6268",
    "city": "Steigra"
  },
  {
    "postcode": "6268",
    "city": "Vitzenburg"
  },
  {
    "postcode": "6268",
    "city": "Weißenschirmbach"
  },
  {
    "postcode": "6268",
    "city": "Ziegelroda"
  },
  {
    "postcode": "6268",
    "city": "Saalekreis"
  },
  {
    "postcode": "6268",
    "city": "Gatterstädt"
  },
  {
    "postcode": "6268",
    "city": "Leimbach"
  },
  {
    "postcode": "6268",
    "city": "Kleineichstädt"
  },
  {
    "postcode": "6268",
    "city": "Spielberg"
  },
  {
    "postcode": "6268",
    "city": "Göhrendorf"
  },
  {
    "postcode": "6268",
    "city": "Nemsdorf"
  },
  {
    "postcode": "6268",
    "city": "Altweidenbach"
  },
  {
    "postcode": "6268",
    "city": "Esperstedt"
  },
  {
    "postcode": "6268",
    "city": "Kuckenburg"
  },
  {
    "postcode": "6268",
    "city": "Döcklitz"
  },
  {
    "postcode": "6268",
    "city": "Neuweidenbach"
  },
  {
    "postcode": "6268",
    "city": "Schmirma"
  },
  {
    "postcode": "6268",
    "city": "Lodersleben"
  },
  {
    "postcode": "6268",
    "city": "Oberschmon"
  },
  {
    "postcode": "6268",
    "city": "Niederschmon"
  },
  {
    "postcode": "6268",
    "city": "Jüdendorf"
  },
  {
    "postcode": "6268",
    "city": "Kalzendorf"
  },
  {
    "postcode": "6268",
    "city": "Schnellroda"
  },
  {
    "postcode": "6268",
    "city": "Pretitz"
  },
  {
    "postcode": "6268",
    "city": "Liederstädt"
  },
  {
    "postcode": "6268",
    "city": "Zingst"
  },
  {
    "postcode": "6268",
    "city": "Landgrafroda"
  },
  {
    "postcode": "6279",
    "city": "Alberstedt"
  },
  {
    "postcode": "6279",
    "city": "Esperstedt bei Querfurt"
  },
  {
    "postcode": "6279",
    "city": "Farnstädt"
  },
  {
    "postcode": "6279",
    "city": "Schraplau"
  },
  {
    "postcode": "6279",
    "city": "Saalekreis"
  },
  {
    "postcode": "6295",
    "city": "Bischofrode"
  },
  {
    "postcode": "6295",
    "city": "Bornstedt bei Lutherstadt Eisleben"
  },
  {
    "postcode": "6295",
    "city": "Burgsdorf bei Lutherstadt Eisleben"
  },
  {
    "postcode": "6295",
    "city": "Dederstedt"
  },
  {
    "postcode": "6295",
    "city": "Hedersleben bei Lutherstadt Eisleben"
  },
  {
    "postcode": "6295",
    "city": "Hornburg bei Lutherstadt Eisleben"
  },
  {
    "postcode": "6295",
    "city": "Lutherstadt Eisleben"
  },
  {
    "postcode": "6295",
    "city": "Neehausen"
  },
  {
    "postcode": "6295",
    "city": "Osterhausen bei Lutherstadt Eisleben"
  },
  {
    "postcode": "6295",
    "city": "Polleben"
  },
  {
    "postcode": "6295",
    "city": "Rothenschirmbach"
  },
  {
    "postcode": "6295",
    "city": "Rottelsdorf bei Lutherstadt Eisleben"
  },
  {
    "postcode": "6295",
    "city": "Schmalzerode"
  },
  {
    "postcode": "6295",
    "city": "Unterrißdorf"
  },
  {
    "postcode": "6295",
    "city": "Volkstedt"
  },
  {
    "postcode": "6295",
    "city": "Wolferode bei Lutherstadt Eisleben"
  },
  {
    "postcode": "6295",
    "city": "Mansfeld-Südharz"
  },
  {
    "postcode": "6295",
    "city": "Bornstedt"
  },
  {
    "postcode": "6295",
    "city": "Osterhausen"
  },
  {
    "postcode": "6295",
    "city": "Oberrißdorf"
  },
  {
    "postcode": "6295",
    "city": "Burgsdorf"
  },
  {
    "postcode": "6295",
    "city": "Wolferode"
  },
  {
    "postcode": "6295",
    "city": "Kleinosterhausen"
  },
  {
    "postcode": "6295",
    "city": "Sittichenbach"
  },
  {
    "postcode": "6295",
    "city": "Hedersleben"
  },
  {
    "postcode": "6295",
    "city": "Helfta"
  }
]