[
  {
    "postcode": "7743",
    "city": "Jena"
  },
  {
    "postcode": "7743",
    "city": "Löbstedt"
  },
  {
    "postcode": "7743",
    "city": "Nord"
  },
  {
    "postcode": "7743",
    "city": "Zentrum"
  },
  {
    "postcode": "7743",
    "city": "Zwätzen"
  },
  {
    "postcode": "7743",
    "city": "West"
  },
  {
    "postcode": "7743",
    "city": "Süd"
  },
  {
    "postcode": "7745",
    "city": "Jena"
  },
  {
    "postcode": "7745",
    "city": "Ammerbach"
  },
  {
    "postcode": "7745",
    "city": "Winzerla"
  },
  {
    "postcode": "7745",
    "city": "Burgau"
  },
  {
    "postcode": "7745",
    "city": "Süd"
  },
  {
    "postcode": "7745",
    "city": "Göschwitz"
  },
  {
    "postcode": "7745",
    "city": "Lichtenhain"
  },
  {
    "postcode": "7745",
    "city": "West"
  },
  {
    "postcode": "7745",
    "city": "Wenigenjena"
  },
  {
    "postcode": "7745",
    "city": "Zentrum"
  },
  {
    "postcode": "7747",
    "city": "Jena"
  },
  {
    "postcode": "7747",
    "city": "Lobeda"
  },
  {
    "postcode": "7749",
    "city": "Jena"
  },
  {
    "postcode": "7749",
    "city": "Wenigenjena"
  },
  {
    "postcode": "7749",
    "city": "Nord"
  },
  {
    "postcode": "7749",
    "city": "Zentrum"
  },
  {
    "postcode": "7749",
    "city": "Wöllnitz"
  },
  {
    "postcode": "7749",
    "city": "Lobeda"
  },
  {
    "postcode": "7749",
    "city": "Ziegenhain"
  },
  {
    "postcode": "7749",
    "city": "Löbstedt"
  },
  {
    "postcode": "7751",
    "city": "Bucha bei Jena"
  },
  {
    "postcode": "7751",
    "city": "Golmsdorf"
  },
  {
    "postcode": "7751",
    "city": "Großlöbichau"
  },
  {
    "postcode": "7751",
    "city": "Großpürschütz"
  },
  {
    "postcode": "7751",
    "city": "Jena"
  },
  {
    "postcode": "7751",
    "city": "Jenalöbnitz"
  },
  {
    "postcode": "7751",
    "city": "Löberschütz"
  },
  {
    "postcode": "7751",
    "city": "Milda"
  },
  {
    "postcode": "7751",
    "city": "Rothenstein bei Jena"
  },
  {
    "postcode": "7751",
    "city": "Sulza"
  },
  {
    "postcode": "7751",
    "city": "Zöllnitz bei Jena"
  },
  {
    "postcode": "7751",
    "city": "Saale-Holzland-Kreis"
  },
  {
    "postcode": "7751",
    "city": "Bucha"
  },
  {
    "postcode": "7751",
    "city": "Rothenstein"
  },
  {
    "postcode": "7751",
    "city": "Zöllnitz"
  },
  {
    "postcode": "7751",
    "city": "Schorba"
  },
  {
    "postcode": "7751",
    "city": "Coppanz"
  },
  {
    "postcode": "7751",
    "city": "Oßmaritz"
  },
  {
    "postcode": "7751",
    "city": "Nennsdorf"
  },
  {
    "postcode": "7751",
    "city": "Pösen"
  },
  {
    "postcode": "7751",
    "city": "Beutnitz"
  },
  {
    "postcode": "7751",
    "city": "Naura"
  },
  {
    "postcode": "7751",
    "city": "Kleinlöbichau"
  },
  {
    "postcode": "7751",
    "city": "Kleinpürschütz"
  },
  {
    "postcode": "7751",
    "city": "Münchenroda"
  },
  {
    "postcode": "7751",
    "city": "Jenaprießnitz"
  },
  {
    "postcode": "7751",
    "city": "Isserstedt"
  },
  {
    "postcode": "7751",
    "city": "Drackendorf"
  },
  {
    "postcode": "7751",
    "city": "Maua"
  },
  {
    "postcode": "7751",
    "city": "Cospeda"
  },
  {
    "postcode": "7751",
    "city": "Krippendorf"
  },
  {
    "postcode": "7751",
    "city": "Lützeroda"
  },
  {
    "postcode": "7751",
    "city": "Wogau"
  },
  {
    "postcode": "7751",
    "city": "Ilmnitz"
  },
  {
    "postcode": "7751",
    "city": "Kunitz"
  },
  {
    "postcode": "7751",
    "city": "Remderoda"
  },
  {
    "postcode": "7751",
    "city": "Closewitz"
  },
  {
    "postcode": "7751",
    "city": "Laasan"
  },
  {
    "postcode": "7751",
    "city": "Leutra"
  },
  {
    "postcode": "7751",
    "city": "Neue Schenke"
  },
  {
    "postcode": "7751",
    "city": "Vierzehnheiligen"
  },
  {
    "postcode": "7751",
    "city": "Dürrengleina"
  },
  {
    "postcode": "7751",
    "city": "Großkröbitz"
  },
  {
    "postcode": "7751",
    "city": "Zimmritz"
  },
  {
    "postcode": "7751",
    "city": "Kleinkröbitz"
  },
  {
    "postcode": "7751",
    "city": "Rodias"
  },
  {
    "postcode": "7751",
    "city": "Oelknitz"
  },
  {
    "postcode": "7751",
    "city": "Rutha"
  },
  {
    "postcode": "7751",
    "city": "Schiebelau"
  },
  {
    "postcode": "7768",
    "city": "Altenberga"
  },
  {
    "postcode": "7768",
    "city": "Bibra bei Jena"
  },
  {
    "postcode": "7768",
    "city": "Eichenberg bei Jena"
  },
  {
    "postcode": "7768",
    "city": "Freienorla"
  },
  {
    "postcode": "7768",
    "city": "Großeutersdorf"
  },
  {
    "postcode": "7768",
    "city": "Gumperda"
  },
  {
    "postcode": "7768",
    "city": "Hummelshain"
  },
  {
    "postcode": "7768",
    "city": "Kahla Thüringen"
  },
  {
    "postcode": "7768",
    "city": "Kahla"
  },
  {
    "postcode": "7768",
    "city": "Kleineutersdorf"
  },
  {
    "postcode": "7768",
    "city": "Lindig bei Jena"
  },
  {
    "postcode": "7768",
    "city": "Orlamünde"
  },
  {
    "postcode": "7768",
    "city": "Reinstädt"
  },
  {
    "postcode": "7768",
    "city": "Schöps bei Jena"
  },
  {
    "postcode": "7768",
    "city": "Seitenroda"
  },
  {
    "postcode": "7768",
    "city": "Saale-Holzland-Kreis"
  },
  {
    "postcode": "7768",
    "city": "Bibra"
  },
  {
    "postcode": "7768",
    "city": "Eichenberg"
  },
  {
    "postcode": "7768",
    "city": "Lindig"
  },
  {
    "postcode": "7768",
    "city": "Schöps"
  },
  {
    "postcode": "7768",
    "city": "Altendorf"
  },
  {
    "postcode": "7768",
    "city": "Greuda"
  },
  {
    "postcode": "7768",
    "city": "Schirnewitz"
  },
  {
    "postcode": "7768",
    "city": "Zwabitz"
  },
  {
    "postcode": "7768",
    "city": "Dienstädt"
  },
  {
    "postcode": "7768",
    "city": "Dehna Mühle"
  },
  {
    "postcode": "7768",
    "city": "Kleinbucha"
  },
  {
    "postcode": "7768",
    "city": "Röttelmisch"
  },
  {
    "postcode": "7768",
    "city": "Schmölln"
  },
  {
    "postcode": "7768",
    "city": "Bergern"
  },
  {
    "postcode": "7768",
    "city": "Geunitz"
  },
  {
    "postcode": "7768",
    "city": "Zweifelbach"
  },
  {
    "postcode": "7768",
    "city": "Jägersdorf"
  },
  {
    "postcode": "7774",
    "city": "Camburg"
  },
  {
    "postcode": "7774",
    "city": "Frauenprießnitz"
  },
  {
    "postcode": "7774",
    "city": "Thierschneck"
  },
  {
    "postcode": "7774",
    "city": "Wichmar"
  },
  {
    "postcode": "7774",
    "city": "Saale-Holzland-Kreis"
  },
  {
    "postcode": "7774",
    "city": "Dornburg-Camburg"
  },
  {
    "postcode": "7774",
    "city": "Dorndorf-Steudnitz"
  },
  {
    "postcode": "7774",
    "city": "Dornburg"
  },
  {
    "postcode": "7774",
    "city": "Steudnitz"
  },
  {
    "postcode": "7774",
    "city": "Dorndorf"
  },
  {
    "postcode": "7774",
    "city": "Döbrichau"
  },
  {
    "postcode": "7774",
    "city": "Döbritschen"
  },
  {
    "postcode": "7774",
    "city": "Hirschroda"
  },
  {
    "postcode": "7774",
    "city": "Posewitz"
  },
  {
    "postcode": "7774",
    "city": "Schinditz"
  },
  {
    "postcode": "7774",
    "city": "Stöben"
  },
  {
    "postcode": "7774",
    "city": "Tümpling"
  },
  {
    "postcode": "7774",
    "city": "Wilsdorf"
  },
  {
    "postcode": "7774",
    "city": "Wonnitz"
  },
  {
    "postcode": "7774",
    "city": "Zöthen"
  },
  {
    "postcode": "7774",
    "city": "Kleinprießnitz"
  },
  {
    "postcode": "7774",
    "city": "Rodameuschel"
  },
  {
    "postcode": "7774",
    "city": "Schleuskau"
  },
  {
    "postcode": "7774",
    "city": "Würchhausen"
  },
  {
    "postcode": "7778",
    "city": "Dornburg / Saale"
  },
  {
    "postcode": "7778",
    "city": "Dornburg"
  },
  {
    "postcode": "7778",
    "city": "Dorndorf-Steudnitz"
  },
  {
    "postcode": "7778",
    "city": "Hainichen bei Jena"
  },
  {
    "postcode": "7778",
    "city": "Lehesten bei Jena"
  },
  {
    "postcode": "7778",
    "city": "Neuengönna"
  },
  {
    "postcode": "7778",
    "city": "Tautenburg"
  },
  {
    "postcode": "7778",
    "city": "Zimmern bei Jena"
  },
  {
    "postcode": "7778",
    "city": "Saale-Holzland-Kreis"
  },
  {
    "postcode": "7778",
    "city": "Hainichen"
  },
  {
    "postcode": "7778",
    "city": "Lehesten"
  },
  {
    "postcode": "7778",
    "city": "Zimmern"
  },
  {
    "postcode": "7778",
    "city": "Stiebritz"
  },
  {
    "postcode": "7778",
    "city": "Altengönna"
  },
  {
    "postcode": "7778",
    "city": "Nerkewitz"
  },
  {
    "postcode": "7778",
    "city": "Rödigen"
  },
  {
    "postcode": "7778",
    "city": "Porstendorf"
  },
  {
    "postcode": "77652",
    "city": "Bohlsbach"
  },
  {
    "postcode": "77652",
    "city": "Griesheim"
  },
  {
    "postcode": "77652",
    "city": "Offenburg"
  },
  {
    "postcode": "77652",
    "city": "Stadtmitte"
  },
  {
    "postcode": "77652",
    "city": "Windschläg"
  },
  {
    "postcode": "77652",
    "city": "Ortenaukreis"
  },
  {
    "postcode": "77652",
    "city": "Südstadt"
  },
  {
    "postcode": "77652",
    "city": "Nordstadt"
  },
  {
    "postcode": "77652",
    "city": "Bühl"
  },
  {
    "postcode": "77652",
    "city": "Nordoststadt"
  },
  {
    "postcode": "77654",
    "city": "Fessenbach"
  },
  {
    "postcode": "77654",
    "city": "Offenburg"
  },
  {
    "postcode": "77654",
    "city": "Rammersweier"
  },
  {
    "postcode": "77654",
    "city": "Südoststadt"
  },
  {
    "postcode": "77654",
    "city": "Zell"
  },
  {
    "postcode": "77654",
    "city": "Zell-Weierbach"
  },
  {
    "postcode": "77654",
    "city": "Ortenaukreis"
  },
  {
    "postcode": "77654",
    "city": "Nordoststadt"
  },
  {
    "postcode": "77654",
    "city": "Nordstadt"
  },
  {
    "postcode": "77654",
    "city": "Südstadt"
  },
  {
    "postcode": "77656",
    "city": "Elgersweier"
  },
  {
    "postcode": "77656",
    "city": "Hildboltsweier"
  },
  {
    "postcode": "77656",
    "city": "Offenburg"
  },
  {
    "postcode": "77656",
    "city": "Waltersweier"
  },
  {
    "postcode": "77656",
    "city": "Zunsweier"
  },
  {
    "postcode": "77656",
    "city": "Ortenaukreis"
  },
  {
    "postcode": "77656",
    "city": "Weier"
  },
  {
    "postcode": "77656",
    "city": "Südweststadt"
  },
  {
    "postcode": "77656",
    "city": "Weststadt"
  },
  {
    "postcode": "77656",
    "city": "Gemeinde Hohberg"
  },
  {
    "postcode": "77694",
    "city": "Auenheim"
  },
  {
    "postcode": "77694",
    "city": "Bodersweier"
  },
  {
    "postcode": "77694",
    "city": "Goldscheuer"
  },
  {
    "postcode": "77694",
    "city": "Hohnhurst"
  },
  {
    "postcode": "77694",
    "city": "Kehl"
  },
  {
    "postcode": "77694",
    "city": "Kehl (Rhein)"
  },
  {
    "postcode": "77694",
    "city": "Kittersburg"
  },
  {
    "postcode": "77694",
    "city": "Kork"
  },
  {
    "postcode": "77694",
    "city": "Leutesheim"
  },
  {
    "postcode": "77694",
    "city": "Marlen"
  },
  {
    "postcode": "77694",
    "city": "Neumühl"
  },
  {
    "postcode": "77694",
    "city": "Odelshofen"
  },
  {
    "postcode": "77694",
    "city": "Querbach"
  },
  {
    "postcode": "77694",
    "city": "Sundheim"
  },
  {
    "postcode": "77694",
    "city": "Zierolshofen"
  },
  {
    "postcode": "77694",
    "city": "Ortenaukreis"
  },
  {
    "postcode": "77694",
    "city": "Willstätt"
  },
  {
    "postcode": "77694",
    "city": "Gemeinde Willstätt"
  },
  {
    "postcode": "77704",
    "city": "Bottenau"
  },
  {
    "postcode": "77704",
    "city": "Butschbach"
  },
  {
    "postcode": "77704",
    "city": "Gaisbach"
  },
  {
    "postcode": "77704",
    "city": "Giedensbach"
  },
  {
    "postcode": "77704",
    "city": "Hengstbach"
  },
  {
    "postcode": "77704",
    "city": "Herztal"
  },
  {
    "postcode": "77704",
    "city": "Nußbach"
  },
  {
    "postcode": "77704",
    "city": "Oberkirch"
  },
  {
    "postcode": "77704",
    "city": "Oberkirch (Baden)"
  },
  {
    "postcode": "77704",
    "city": "Ödsbach"
  },
  {
    "postcode": "77704",
    "city": "Stadelhofen"
  },
  {
    "postcode": "77704",
    "city": "Tiergarten"
  },
  {
    "postcode": "77704",
    "city": "Vordere Allmend"
  },
  {
    "postcode": "77704",
    "city": "Wolfhag"
  },
  {
    "postcode": "77704",
    "city": "Zusenhofen"
  },
  {
    "postcode": "77704",
    "city": "Ortenaukreis"
  },
  {
    "postcode": "77704",
    "city": "Haslach"
  },
  {
    "postcode": "77704",
    "city": "Ringelbach"
  },
  {
    "postcode": "77704",
    "city": "Maisenbühl"
  },
  {
    "postcode": "77704",
    "city": "Oberdorf"
  },
  {
    "postcode": "77709",
    "city": "Halbmeil"
  },
  {
    "postcode": "77709",
    "city": "Kirnbach"
  },
  {
    "postcode": "77709",
    "city": "Oberwolfach"
  },
  {
    "postcode": "77709",
    "city": "Sankt Roman"
  },
  {
    "postcode": "77709",
    "city": "Schwarzenbruch"
  },
  {
    "postcode": "77709",
    "city": "Stadt Schiltach"
  },
  {
    "postcode": "77709",
    "city": "Walke"
  },
  {
    "postcode": "77709",
    "city": "Wolfach"
  },
  {
    "postcode": "77709",
    "city": "Ortenaukreis"
  },
  {
    "postcode": "77709",
    "city": "Kirche"
  },
  {
    "postcode": "77709",
    "city": "Kinzigtal"
  },
  {
    "postcode": "77716",
    "city": "Altersbach"
  },
  {
    "postcode": "77716",
    "city": "Bollenbach"
  },
  {
    "postcode": "77716",
    "city": "Eschbach"
  },
  {
    "postcode": "77716",
    "city": "Fischerbach"
  },
  {
    "postcode": "77716",
    "city": "Haslach im Kinzigtal"
  },
  {
    "postcode": "77716",
    "city": "Hofstetten (Kinzigtal)"
  },
  {
    "postcode": "77716",
    "city": "Hofstetten"
  },
  {
    "postcode": "77716",
    "city": "Salmensbach"
  },
  {
    "postcode": "77716",
    "city": "Schnellingen"
  },
  {
    "postcode": "77716",
    "city": "Ullerst"
  },
  {
    "postcode": "77716",
    "city": "Vordertal"
  },
  {
    "postcode": "77716",
    "city": "Waldstein"
  },
  {
    "postcode": "77716",
    "city": "Ortenaukreis"
  },
  {
    "postcode": "77716",
    "city": "Eschau"
  },
  {
    "postcode": "77716",
    "city": "Haslach"
  },
  {
    "postcode": "77723",
    "city": "Bermersbach"
  },
  {
    "postcode": "77723",
    "city": "Fußbach"
  },
  {
    "postcode": "77723",
    "city": "Gengenbach"
  },
  {
    "postcode": "77723",
    "city": "Haigerach"
  },
  {
    "postcode": "77723",
    "city": "Mittelbach"
  },
  {
    "postcode": "77723",
    "city": "Pfaffenbach"
  },
  {
    "postcode": "77723",
    "city": "Reichenbach"
  },
  {
    "postcode": "77723",
    "city": "Schönberg"
  },
  {
    "postcode": "77723",
    "city": "Schwaibach"
  },
  {
    "postcode": "77723",
    "city": "Schwärzenbach"
  },
  {
    "postcode": "77723",
    "city": "Sondersbach"
  },
  {
    "postcode": "77723",
    "city": "Strohbach"
  },
  {
    "postcode": "77723",
    "city": "Ortenaukreis"
  },
  {
    "postcode": "77723",
    "city": "Gengenbach-Reichenbach"
  },
  {
    "postcode": "77728",
    "city": "Bad Antogast"
  },
  {
    "postcode": "77728",
    "city": "Hinteribach"
  },
  {
    "postcode": "77728",
    "city": "Ibach"
  },
  {
    "postcode": "77728",
    "city": "Kutt"
  },
  {
    "postcode": "77728",
    "city": "Lierbach"
  },
  {
    "postcode": "77728",
    "city": "Löcherberg"
  },
  {
    "postcode": "77728",
    "city": "Maisach"
  },
  {
    "postcode": "77728",
    "city": "Oppenau"
  },
  {
    "postcode": "77728",
    "city": "Ramsbach"
  },
  {
    "postcode": "77728",
    "city": "Rinken"
  },
  {
    "postcode": "77728",
    "city": "Wahlholz"
  },
  {
    "postcode": "77728",
    "city": "Ortenaukreis"
  },
  {
    "postcode": "77728",
    "city": "Nordrach"
  },
  {
    "postcode": "77728",
    "city": "Ibach-Löcherberg"
  },
  {
    "postcode": "77731",
    "city": "Eckartsweier"
  },
  {
    "postcode": "77731",
    "city": "Hesselhurst"
  },
  {
    "postcode": "77731",
    "city": "Legelshurst"
  },
  {
    "postcode": "77731",
    "city": "Sand"
  },
  {
    "postcode": "77731",
    "city": "Willstätt"
  },
  {
    "postcode": "77731",
    "city": "Ortenaukreis"
  },
  {
    "postcode": "77736",
    "city": "Oberentersbach"
  },
  {
    "postcode": "77736",
    "city": "Unterentersbach"
  },
  {
    "postcode": "77736",
    "city": "Unterharmersbach"
  },
  {
    "postcode": "77736",
    "city": "Zell am Harmersbach"
  },
  {
    "postcode": "77736",
    "city": "Ortenaukreis"
  },
  {
    "postcode": "77736",
    "city": "Zell"
  },
  {
    "postcode": "77736",
    "city": "Buchen"
  },
  {
    "postcode": "77740",
    "city": "Bad Griesbach"
  },
  {
    "postcode": "77740",
    "city": "Bad Peterstal"
  },
  {
    "postcode": "77740",
    "city": "Bad Peterstal-Griesbach"
  },
  {
    "postcode": "77740",
    "city": "Ortenaukreis"
  },
  {
    "postcode": "77743",
    "city": "Altenheim"
  },
  {
    "postcode": "77743",
    "city": "Dundenheim"
  },
  {
    "postcode": "77743",
    "city": "Ichenheim"
  },
  {
    "postcode": "77743",
    "city": "Müllen"
  },
  {
    "postcode": "77743",
    "city": "Neuried (Ortenaukreis)"
  },
  {
    "postcode": "77743",
    "city": "Neuried"
  },
  {
    "postcode": "77743",
    "city": "Schutterzell"
  },
  {
    "postcode": "77743",
    "city": "Ortenaukreis"
  },
  {
    "postcode": "77746",
    "city": "Langhurst"
  },
  {
    "postcode": "77746",
    "city": "Schutterwald"
  },
  {
    "postcode": "77746",
    "city": "Ortenaukreis"
  },
  {
    "postcode": "77746",
    "city": "Höfen"
  },
  {
    "postcode": "77749",
    "city": "Diersburg"
  },
  {
    "postcode": "77749",
    "city": "Hofweier"
  },
  {
    "postcode": "77749",
    "city": "Hohberg bei Offenburg"
  },
  {
    "postcode": "77749",
    "city": "Niederschopfheim"
  },
  {
    "postcode": "77749",
    "city": "Ortenaukreis"
  },
  {
    "postcode": "77749",
    "city": "Hohberg"
  },
  {
    "postcode": "77749",
    "city": "Gemeinde Friesenheim"
  },
  {
    "postcode": "77756",
    "city": "Einbach"
  },
  {
    "postcode": "77756",
    "city": "Hausach (Schwarzwaldbahn)"
  },
  {
    "postcode": "77756",
    "city": "Hausach"
  },
  {
    "postcode": "77756",
    "city": "Hauserbach"
  },
  {
    "postcode": "77756",
    "city": "Ortenaukreis"
  },
  {
    "postcode": "77761",
    "city": "Erdlinsbach"
  },
  {
    "postcode": "77761",
    "city": "Reichenbächle"
  },
  {
    "postcode": "77761",
    "city": "Schiltach"
  },
  {
    "postcode": "77761",
    "city": "Rottweil"
  },
  {
    "postcode": "77767",
    "city": "Appenweier"
  },
  {
    "postcode": "77767",
    "city": "Nesselried"
  },
  {
    "postcode": "77767",
    "city": "Urloffen"
  },
  {
    "postcode": "77767",
    "city": "Zimmern"
  },
  {
    "postcode": "77767",
    "city": "Ortenaukreis"
  },
  {
    "postcode": "77770",
    "city": "Durbach"
  },
  {
    "postcode": "77770",
    "city": "Ebersweier"
  },
  {
    "postcode": "77770",
    "city": "Unterweiler"
  },
  {
    "postcode": "77770",
    "city": "Ortenaukreis"
  },
  {
    "postcode": "77773",
    "city": "Kaltbrunn"
  },
  {
    "postcode": "77773",
    "city": "Schenkenzell"
  },
  {
    "postcode": "77773",
    "city": "Rottweil"
  },
  {
    "postcode": "77776",
    "city": "Bad Rippoldsau"
  },
  {
    "postcode": "77776",
    "city": "Bad Rippoldsau-Schapbach"
  },
  {
    "postcode": "77776",
    "city": "Gemeinde Oberwolfach"
  },
  {
    "postcode": "77776",
    "city": "Glaswald"
  },
  {
    "postcode": "77776",
    "city": "Schapbach"
  },
  {
    "postcode": "77776",
    "city": "Freudenstadt"
  },
  {
    "postcode": "77781",
    "city": "Biberach"
  },
  {
    "postcode": "77781",
    "city": "Biberach (Baden)"
  },
  {
    "postcode": "77781",
    "city": "Prinzbach"
  },
  {
    "postcode": "77781",
    "city": "Ortenaukreis"
  },
  {
    "postcode": "77784",
    "city": "Oberharmersbach"
  },
  {
    "postcode": "77784",
    "city": "Riersbach"
  },
  {
    "postcode": "77784",
    "city": "Ortenaukreis"
  },
  {
    "postcode": "77787",
    "city": "Nordrach"
  },
  {
    "postcode": "77787",
    "city": "Ortenaukreis"
  },
  {
    "postcode": "77787",
    "city": "Nordrach-Kolonie"
  },
  {
    "postcode": "77790",
    "city": "Steinach"
  },
  {
    "postcode": "77790",
    "city": "Steinach (Baden)"
  },
  {
    "postcode": "77790",
    "city": "Welschensteinach"
  },
  {
    "postcode": "77790",
    "city": "Ortenaukreis"
  },
  {
    "postcode": "77791",
    "city": "Berghaupten"
  },
  {
    "postcode": "77791",
    "city": "Ortenaukreis"
  },
  {
    "postcode": "77793",
    "city": "Gutach (Schwarzwaldbahn)"
  },
  {
    "postcode": "77793",
    "city": "Gutach"
  },
  {
    "postcode": "77793",
    "city": "Hohweg"
  },
  {
    "postcode": "77793",
    "city": "Ortenaukreis"
  },
  {
    "postcode": "77793",
    "city": "Singersbach"
  },
  {
    "postcode": "77794",
    "city": "Lautenbach (Renchtal)"
  },
  {
    "postcode": "77794",
    "city": "Lautenbach"
  },
  {
    "postcode": "77794",
    "city": "Ortenaukreis"
  },
  {
    "postcode": "77796",
    "city": "Dietental"
  },
  {
    "postcode": "77796",
    "city": "Fannis"
  },
  {
    "postcode": "77796",
    "city": "Mühlenbach (Baden)"
  },
  {
    "postcode": "77796",
    "city": "Mühlenbach"
  },
  {
    "postcode": "77796",
    "city": "Ortenaukreis"
  },
  {
    "postcode": "77797",
    "city": "Ohlsbach"
  },
  {
    "postcode": "77797",
    "city": "Ortenaukreis"
  },
  {
    "postcode": "77799",
    "city": "Käfersberg"
  },
  {
    "postcode": "77799",
    "city": "Ortenberg"
  },
  {
    "postcode": "77799",
    "city": "Ortenberg (Baden)"
  },
  {
    "postcode": "77799",
    "city": "Ortenaukreis"
  },
  {
    "postcode": "77815",
    "city": "Affental"
  },
  {
    "postcode": "77815",
    "city": "Altschweier"
  },
  {
    "postcode": "77815",
    "city": "Balzhofen"
  },
  {
    "postcode": "77815",
    "city": "Bühl"
  },
  {
    "postcode": "77815",
    "city": "Bühl (Baden)"
  },
  {
    "postcode": "77815",
    "city": "Eisental"
  },
  {
    "postcode": "77815",
    "city": "Gemeinde Bühlertal"
  },
  {
    "postcode": "77815",
    "city": "Moos"
  },
  {
    "postcode": "77815",
    "city": "Müllenbach"
  },
  {
    "postcode": "77815",
    "city": "Neusatz"
  },
  {
    "postcode": "77815",
    "city": "Neusatzeck"
  },
  {
    "postcode": "77815",
    "city": "Oberbruch"
  },
  {
    "postcode": "77815",
    "city": "Oberweier"
  },
  {
    "postcode": "77815",
    "city": "Sand"
  },
  {
    "postcode": "77815",
    "city": "Stadtgebiet"
  },
  {
    "postcode": "77815",
    "city": "Vimbuch"
  },
  {
    "postcode": "77815",
    "city": "Weitenung"
  },
  {
    "postcode": "77815",
    "city": "Rastatt"
  },
  {
    "postcode": "77815",
    "city": "Baden-Baden"
  },
  {
    "postcode": "77815",
    "city": "Ottersweier"
  },
  {
    "postcode": "77815",
    "city": "Bühlertal"
  },
  {
    "postcode": "77815",
    "city": "Riegel"
  },
  {
    "postcode": "77815",
    "city": "Schweighof"
  },
  {
    "postcode": "77815",
    "city": "Waldmatt"
  },
  {
    "postcode": "77830",
    "city": "Bühlertal"
  },
  {
    "postcode": "77830",
    "city": "Liehenbach"
  },
  {
    "postcode": "77830",
    "city": "Rastatt"
  },
  {
    "postcode": "77833",
    "city": "Haft"
  },
  {
    "postcode": "77833",
    "city": "Hatzenweier"
  },
  {
    "postcode": "77833",
    "city": "Hub"
  },
  {
    "postcode": "77833",
    "city": "Ortsgebiet"
  },
  {
    "postcode": "77833",
    "city": "Ottersweier"
  },
  {
    "postcode": "77833",
    "city": "Unzhurst"
  },
  {
    "postcode": "77833",
    "city": "Walzfeld"
  },
  {
    "postcode": "77833",
    "city": "Rastatt"
  },
  {
    "postcode": "77836",
    "city": "Greffern"
  },
  {
    "postcode": "77836",
    "city": "Hildmannsfeld"
  },
  {
    "postcode": "77836",
    "city": "Rheinmünster"
  },
  {
    "postcode": "77836",
    "city": "Schwarzach"
  },
  {
    "postcode": "77836",
    "city": "Söllingen"
  },
  {
    "postcode": "77836",
    "city": "Stollhofen"
  },
  {
    "postcode": "77836",
    "city": "Rastatt"
  },
  {
    "postcode": "77839",
    "city": "Grauelsbaum"
  },
  {
    "postcode": "77839",
    "city": "Lichtenau (Baden)"
  },
  {
    "postcode": "77839",
    "city": "Lichtenau"
  },
  {
    "postcode": "77839",
    "city": "Muckenschopf"
  },
  {
    "postcode": "77839",
    "city": "Scherzheim"
  },
  {
    "postcode": "77839",
    "city": "Stadtgebiet"
  },
  {
    "postcode": "77839",
    "city": "Ulm"
  },
  {
    "postcode": "77839",
    "city": "Rastatt"
  },
  {
    "postcode": "77855",
    "city": "Achern"
  },
  {
    "postcode": "77855",
    "city": "Achern (Baden)"
  },
  {
    "postcode": "77855",
    "city": "Fautenbach"
  },
  {
    "postcode": "77855",
    "city": "Gamshurst"
  },
  {
    "postcode": "77855",
    "city": "Großweier"
  },
  {
    "postcode": "77855",
    "city": "Mösbach"
  },
  {
    "postcode": "77855",
    "city": "Oberachern"
  },
  {
    "postcode": "77855",
    "city": "Önsbach"
  },
  {
    "postcode": "77855",
    "city": "Sasbachried"
  },
  {
    "postcode": "77855",
    "city": "Wagshurst"
  },
  {
    "postcode": "77855",
    "city": "Ortenaukreis"
  },
  {
    "postcode": "77866",
    "city": "Diersheim"
  },
  {
    "postcode": "77866",
    "city": "Freistett"
  },
  {
    "postcode": "77866",
    "city": "Hausgereut"
  },
  {
    "postcode": "77866",
    "city": "Helmlingen"
  },
  {
    "postcode": "77866",
    "city": "Hohbühn"
  },
  {
    "postcode": "77866",
    "city": "Holzhausen"
  },
  {
    "postcode": "77866",
    "city": "Honau"
  },
  {
    "postcode": "77866",
    "city": "Linx"
  },
  {
    "postcode": "77866",
    "city": "Memprechtshofen"
  },
  {
    "postcode": "77866",
    "city": "Rheinau (Baden)"
  },
  {
    "postcode": "77866",
    "city": "Rheinau"
  },
  {
    "postcode": "77866",
    "city": "Rheinbischofsheim"
  },
  {
    "postcode": "77866",
    "city": "Ortenaukreis"
  },
  {
    "postcode": "77871",
    "city": "Erlach"
  },
  {
    "postcode": "77871",
    "city": "Renchen"
  },
  {
    "postcode": "77871",
    "city": "Stadtgebiet"
  },
  {
    "postcode": "77871",
    "city": "Ulm"
  },
  {
    "postcode": "77871",
    "city": "Ortenaukreis"
  },
  {
    "postcode": "77871",
    "city": "Ortsgebiet"
  },
  {
    "postcode": "77876",
    "city": "Bernhardshöfe"
  },
  {
    "postcode": "77876",
    "city": "Kappelrodeck"
  },
  {
    "postcode": "77876",
    "city": "Oberberg"
  },
  {
    "postcode": "77876",
    "city": "Waldulm"
  },
  {
    "postcode": "77876",
    "city": "Ortenaukreis"
  },
  {
    "postcode": "77876",
    "city": "Ortsgebiet"
  },
  {
    "postcode": "77880",
    "city": "Obersasbach"
  },
  {
    "postcode": "77880",
    "city": "Sasbach bei Achern Baden"
  },
  {
    "postcode": "77880",
    "city": "Sasbach bei Achern"
  },
  {
    "postcode": "77880",
    "city": "Ortenaukreis"
  },
  {
    "postcode": "77880",
    "city": "Sasbach"
  },
  {
    "postcode": "77880",
    "city": "Ortsgebiet"
  },
  {
    "postcode": "77883",
    "city": "Blöchereck"
  },
  {
    "postcode": "77883",
    "city": "Furschenbach"
  },
  {
    "postcode": "77883",
    "city": "Heidenbach"
  },
  {
    "postcode": "77883",
    "city": "Ortsgebiet"
  },
  {
    "postcode": "77883",
    "city": "Ottenhöfen"
  },
  {
    "postcode": "77883",
    "city": "Ottenhöfen im Schwarzwald"
  },
  {
    "postcode": "77883",
    "city": "Simmersbach"
  },
  {
    "postcode": "77883",
    "city": "Sohlberg"
  },
  {
    "postcode": "77883",
    "city": "Unterwasser"
  },
  {
    "postcode": "77883",
    "city": "Ortenaukreis"
  },
  {
    "postcode": "77886",
    "city": "Glashütte"
  },
  {
    "postcode": "77886",
    "city": "Hornenberg"
  },
  {
    "postcode": "77886",
    "city": "Lauf (Baden)"
  },
  {
    "postcode": "77886",
    "city": "Lauf"
  },
  {
    "postcode": "77886",
    "city": "Ortenaukreis"
  },
  {
    "postcode": "77887",
    "city": "Brandmatt"
  },
  {
    "postcode": "77887",
    "city": "Sasbachwalden"
  },
  {
    "postcode": "77887",
    "city": "Schönbüch"
  },
  {
    "postcode": "77887",
    "city": "Ortenaukreis"
  },
  {
    "postcode": "77889",
    "city": "Grimmerswald"
  },
  {
    "postcode": "77889",
    "city": "Seebach Baden"
  },
  {
    "postcode": "77889",
    "city": "Seebach"
  },
  {
    "postcode": "77889",
    "city": "Ortenaukreis"
  },
  {
    "postcode": "77933",
    "city": "Hugsweier"
  },
  {
    "postcode": "77933",
    "city": "Kippenheimweiler"
  },
  {
    "postcode": "77933",
    "city": "Kuhbach"
  },
  {
    "postcode": "77933",
    "city": "Lahr"
  },
  {
    "postcode": "77933",
    "city": "Lahr / Schwarzwald"
  },
  {
    "postcode": "77933",
    "city": "Langenwinkel"
  },
  {
    "postcode": "77933",
    "city": "Mietersheim"
  },
  {
    "postcode": "77933",
    "city": "Reichenbach"
  },
  {
    "postcode": "77933",
    "city": "Sulz"
  },
  {
    "postcode": "77933",
    "city": "Ortenaukreis"
  },
  {
    "postcode": "77948",
    "city": "Friesenheim"
  },
  {
    "postcode": "77948",
    "city": "Friesenheim (Baden)"
  },
  {
    "postcode": "77948",
    "city": "Heiligenzell"
  },
  {
    "postcode": "77948",
    "city": "Oberschopfheim"
  },
  {
    "postcode": "77948",
    "city": "Oberweier"
  },
  {
    "postcode": "77948",
    "city": "Schuttern"
  },
  {
    "postcode": "77948",
    "city": "Ortenaukreis"
  },
  {
    "postcode": "77955",
    "city": "Ettenheim"
  },
  {
    "postcode": "77955",
    "city": "Ettenheimmünster"
  },
  {
    "postcode": "77955",
    "city": "Ettenheimweiler"
  },
  {
    "postcode": "77955",
    "city": "Münchweier"
  },
  {
    "postcode": "77955",
    "city": "Wallburg"
  },
  {
    "postcode": "77955",
    "city": "Ortenaukreis"
  },
  {
    "postcode": "77955",
    "city": "Altdorf"
  },
  {
    "postcode": "77960",
    "city": "Litschental"
  },
  {
    "postcode": "77960",
    "city": "Michelbronn"
  },
  {
    "postcode": "77960",
    "city": "Schönberg"
  },
  {
    "postcode": "77960",
    "city": "Seelbach"
  },
  {
    "postcode": "77960",
    "city": "Seelbach (Schutter)"
  },
  {
    "postcode": "77960",
    "city": "Steinbach"
  },
  {
    "postcode": "77960",
    "city": "Wittelbach"
  },
  {
    "postcode": "77960",
    "city": "Ortenaukreis"
  },
  {
    "postcode": "77963",
    "city": "Allmannsweier"
  },
  {
    "postcode": "77963",
    "city": "Nonnenweier"
  },
  {
    "postcode": "77963",
    "city": "Ottenheim"
  },
  {
    "postcode": "77963",
    "city": "Schwanau"
  },
  {
    "postcode": "77963",
    "city": "Wittenweier"
  },
  {
    "postcode": "77963",
    "city": "Ortenaukreis"
  },
  {
    "postcode": "77966",
    "city": "Grafenhausen"
  },
  {
    "postcode": "77966",
    "city": "Kappel"
  },
  {
    "postcode": "77966",
    "city": "Kappel-Grafenhausen"
  },
  {
    "postcode": "77966",
    "city": "Ortenaukreis"
  },
  {
    "postcode": "77971",
    "city": "Kippenheim"
  },
  {
    "postcode": "77971",
    "city": "Schmieheim"
  },
  {
    "postcode": "77971",
    "city": "Ortenaukreis"
  },
  {
    "postcode": "77972",
    "city": "Mahlberg"
  },
  {
    "postcode": "77972",
    "city": "Mahlberg (Baden)"
  },
  {
    "postcode": "77972",
    "city": "Orschweier"
  },
  {
    "postcode": "77972",
    "city": "Ortenaukreis"
  },
  {
    "postcode": "77974",
    "city": "Kürzell"
  },
  {
    "postcode": "77974",
    "city": "Meißenheim"
  },
  {
    "postcode": "77974",
    "city": "Meißenheim (Baden)"
  },
  {
    "postcode": "77974",
    "city": "Ortenaukreis"
  },
  {
    "postcode": "77975",
    "city": "Ringsheim"
  },
  {
    "postcode": "77975",
    "city": "Ortenaukreis"
  },
  {
    "postcode": "77977",
    "city": "Rust (Baden)"
  },
  {
    "postcode": "77977",
    "city": "Rust"
  },
  {
    "postcode": "77977",
    "city": "Ortenaukreis"
  },
  {
    "postcode": "77978",
    "city": "Dörlinbach"
  },
  {
    "postcode": "77978",
    "city": "Kambach"
  },
  {
    "postcode": "77978",
    "city": "Schuttertal"
  },
  {
    "postcode": "77978",
    "city": "Schweighausen"
  },
  {
    "postcode": "77978",
    "city": "Ortenaukreis"
  }
]