[
  {
    "postcode": "1609",
    "city": "Gröditz bei Riesa"
  },
  {
    "postcode": "1609",
    "city": "Nauwalde"
  },
  {
    "postcode": "1609",
    "city": "Röderaue"
  },
  {
    "postcode": "1609",
    "city": "Wülknitz bei Riesa"
  },
  {
    "postcode": "1609",
    "city": "Meißen"
  },
  {
    "postcode": "1609",
    "city": "Gröditz"
  },
  {
    "postcode": "1609",
    "city": "Heidehäuser"
  },
  {
    "postcode": "1609",
    "city": "Lichtensee"
  },
  {
    "postcode": "1609",
    "city": "Peritz"
  },
  {
    "postcode": "1609",
    "city": "Streumen"
  },
  {
    "postcode": "1609",
    "city": "Tiefenau"
  },
  {
    "postcode": "1609",
    "city": "Wülknitz"
  },
  {
    "postcode": "1609",
    "city": "Spansberg"
  },
  {
    "postcode": "1609",
    "city": "Nieska"
  },
  {
    "postcode": "1609",
    "city": "Schweinfurth"
  },
  {
    "postcode": "1609",
    "city": "Pulsen"
  },
  {
    "postcode": "1609",
    "city": "Frauenhain"
  },
  {
    "postcode": "1609",
    "city": "Koselitz"
  },
  {
    "postcode": "1609",
    "city": "Raden"
  },
  {
    "postcode": "1612",
    "city": "Diesbar-Seußlitz"
  },
  {
    "postcode": "1612",
    "city": "Glaubitz"
  },
  {
    "postcode": "1612",
    "city": "Nünchritz"
  },
  {
    "postcode": "1612",
    "city": "Meißen"
  },
  {
    "postcode": "1612",
    "city": "Neuseußlitz"
  },
  {
    "postcode": "1612",
    "city": "Merschwitz"
  },
  {
    "postcode": "1612",
    "city": "Goltzscha"
  },
  {
    "postcode": "1612",
    "city": "Leckwitz"
  },
  {
    "postcode": "1612",
    "city": "Naundörfchen"
  },
  {
    "postcode": "1612",
    "city": "Radewitz"
  },
  {
    "postcode": "1612",
    "city": "Marksiedlitz"
  },
  {
    "postcode": "1612",
    "city": "Weißig"
  },
  {
    "postcode": "1612",
    "city": "Zschaiten"
  },
  {
    "postcode": "1612",
    "city": "Grödel"
  },
  {
    "postcode": "1612",
    "city": "Roda"
  },
  {
    "postcode": "1616",
    "city": "Strehla"
  },
  {
    "postcode": "1616",
    "city": "Meißen"
  },
  {
    "postcode": "1616",
    "city": "Oppitzsch"
  },
  {
    "postcode": "1616",
    "city": "Forberge"
  },
  {
    "postcode": "1616",
    "city": "Görzig"
  },
  {
    "postcode": "1616",
    "city": "Paußnitz"
  },
  {
    "postcode": "1616",
    "city": "Lößnig"
  },
  {
    "postcode": "1616",
    "city": "Großrügeln"
  },
  {
    "postcode": "1616",
    "city": "Trebnitz"
  },
  {
    "postcode": "1616",
    "city": "Unterreußen"
  },
  {
    "postcode": "1619",
    "city": "Röderaue"
  },
  {
    "postcode": "1619",
    "city": "Zeithain"
  },
  {
    "postcode": "1619",
    "city": "Meißen"
  },
  {
    "postcode": "1619",
    "city": "Moritz"
  },
  {
    "postcode": "1619",
    "city": "Röderau-Bobersen"
  },
  {
    "postcode": "1619",
    "city": "Lorenzkirch"
  },
  {
    "postcode": "1619",
    "city": "Gohlis"
  },
  {
    "postcode": "1619",
    "city": "Jacobsthal"
  },
  {
    "postcode": "1619",
    "city": "Promnitz"
  },
  {
    "postcode": "1619",
    "city": "Kreinitz"
  },
  {
    "postcode": "1619",
    "city": "Neudorf"
  },
  {
    "postcode": "1619",
    "city": "Cottewitz"
  },
  {
    "postcode": "1619",
    "city": "Zschepa"
  },
  {
    "postcode": "1619",
    "city": "Röderau"
  },
  {
    "postcode": "1623",
    "city": "Abend"
  },
  {
    "postcode": "1623",
    "city": "Ketzerbachtal"
  },
  {
    "postcode": "1623",
    "city": "Kreißa"
  },
  {
    "postcode": "1623",
    "city": "Leuben-Schleinitz"
  },
  {
    "postcode": "1623",
    "city": "Lommatzsch"
  },
  {
    "postcode": "1623",
    "city": "Mutzschwitz"
  },
  {
    "postcode": "1623",
    "city": "Noßlitz"
  },
  {
    "postcode": "1623",
    "city": "Stahna"
  },
  {
    "postcode": "1623",
    "city": "Meißen"
  },
  {
    "postcode": "1623",
    "city": "Albertitz"
  },
  {
    "postcode": "1623",
    "city": "Altlommatzsch"
  },
  {
    "postcode": "1623",
    "city": "Altsattel"
  },
  {
    "postcode": "1623",
    "city": "Dörschnitz"
  },
  {
    "postcode": "1623",
    "city": "Arntitz"
  },
  {
    "postcode": "1623",
    "city": "Barmenitz"
  },
  {
    "postcode": "1623",
    "city": "Birmenitz"
  },
  {
    "postcode": "1623",
    "city": "Churschütz"
  },
  {
    "postcode": "1623",
    "city": "Daubnitz"
  },
  {
    "postcode": "1623",
    "city": "Dennschütz"
  },
  {
    "postcode": "1623",
    "city": "Piskowitz"
  },
  {
    "postcode": "1623",
    "city": "Grauswitz"
  },
  {
    "postcode": "1623",
    "city": "Wachtnitz"
  },
  {
    "postcode": "1623",
    "city": "Ickowitz"
  },
  {
    "postcode": "1623",
    "city": "Jessen"
  },
  {
    "postcode": "1623",
    "city": "Klappendorf"
  },
  {
    "postcode": "1623",
    "city": "Krepta"
  },
  {
    "postcode": "1623",
    "city": "Löbschütz"
  },
  {
    "postcode": "1623",
    "city": "Lautzschen"
  },
  {
    "postcode": "1623",
    "city": "Mögen"
  },
  {
    "postcode": "1623",
    "city": "Marschütz"
  },
  {
    "postcode": "1623",
    "city": "Neckanitz"
  },
  {
    "postcode": "1623",
    "city": "Paltzschen"
  },
  {
    "postcode": "1623",
    "city": "Petzschwitz"
  },
  {
    "postcode": "1623",
    "city": "Pitschütz"
  },
  {
    "postcode": "1623",
    "city": "Poititz"
  },
  {
    "postcode": "1623",
    "city": "Prositz"
  },
  {
    "postcode": "1623",
    "city": "Rauba"
  },
  {
    "postcode": "1623",
    "city": "Roitzsch"
  },
  {
    "postcode": "1623",
    "city": "Scheerau"
  },
  {
    "postcode": "1623",
    "city": "Schwochau"
  },
  {
    "postcode": "1623",
    "city": "Sieglitz"
  },
  {
    "postcode": "1623",
    "city": "Striegnitz"
  },
  {
    "postcode": "1623",
    "city": "Trogen"
  },
  {
    "postcode": "1623",
    "city": "Weitzschenhain"
  },
  {
    "postcode": "1623",
    "city": "Wuhnitz"
  },
  {
    "postcode": "1623",
    "city": "Zöthain"
  },
  {
    "postcode": "1623",
    "city": "Zscheilitz"
  },
  {
    "postcode": "1640",
    "city": "Coswig bei Dresden"
  },
  {
    "postcode": "1640",
    "city": "Meißen"
  },
  {
    "postcode": "1640",
    "city": "Coswig"
  },
  {
    "postcode": "1662",
    "city": "Meißen Sachsen"
  },
  {
    "postcode": "1662",
    "city": "Meißen"
  },
  {
    "postcode": "1662",
    "city": "Winkwitz"
  },
  {
    "postcode": "1665",
    "city": "Diera-Zehren"
  },
  {
    "postcode": "1665",
    "city": "Gallschütz bei Meißen Sachsen"
  },
  {
    "postcode": "1665",
    "city": "Gallschütz bei Meißen"
  },
  {
    "postcode": "1665",
    "city": "Käbschütztal"
  },
  {
    "postcode": "1665",
    "city": "Klipphausen"
  },
  {
    "postcode": "1665",
    "city": "Leippen"
  },
  {
    "postcode": "1665",
    "city": "Perne"
  },
  {
    "postcode": "1665",
    "city": "Taubenheim bei Meißen"
  },
  {
    "postcode": "1665",
    "city": "Triebischtal"
  },
  {
    "postcode": "1665",
    "city": "Zetta"
  },
  {
    "postcode": "1665",
    "city": "Meißen"
  },
  {
    "postcode": "1665",
    "city": "Zehren"
  },
  {
    "postcode": "1665",
    "city": "Hebelei"
  },
  {
    "postcode": "1665",
    "city": "Karpfenschänke"
  },
  {
    "postcode": "1665",
    "city": "Niederlommatzsch"
  },
  {
    "postcode": "1665",
    "city": "Obermuschütz"
  },
  {
    "postcode": "1665",
    "city": "Nieschütz"
  },
  {
    "postcode": "1665",
    "city": "Golk"
  },
  {
    "postcode": "1665",
    "city": "Schieritz"
  },
  {
    "postcode": "1665",
    "city": "Naundorf"
  },
  {
    "postcode": "1665",
    "city": "Diera"
  },
  {
    "postcode": "1665",
    "city": "Wölkisch"
  },
  {
    "postcode": "1665",
    "city": "Mischwitz"
  },
  {
    "postcode": "1665",
    "city": "Seebschütz"
  },
  {
    "postcode": "1665",
    "city": "Seilitz"
  },
  {
    "postcode": "1665",
    "city": "Zadel"
  },
  {
    "postcode": "1665",
    "city": "Löbsal"
  },
  {
    "postcode": "1665",
    "city": "Kleinzadel"
  },
  {
    "postcode": "1665",
    "city": "Oberlommatzsch"
  },
  {
    "postcode": "1665",
    "city": "Keilbusch"
  },
  {
    "postcode": "1665",
    "city": "Naundörfel"
  },
  {
    "postcode": "1665",
    "city": "Niedermuschütz"
  },
  {
    "postcode": "1665",
    "city": "Bockwen"
  },
  {
    "postcode": "1665",
    "city": "Weistropp"
  },
  {
    "postcode": "1665",
    "city": "Wildberg"
  },
  {
    "postcode": "1665",
    "city": "Gauernitz"
  },
  {
    "postcode": "1665",
    "city": "Taubenheim"
  },
  {
    "postcode": "1665",
    "city": "Gruben"
  },
  {
    "postcode": "1665",
    "city": "Reppnitz"
  },
  {
    "postcode": "1665",
    "city": "Röhrsdorf"
  },
  {
    "postcode": "1665",
    "city": "Constappel"
  },
  {
    "postcode": "1665",
    "city": "Seeligstadt"
  },
  {
    "postcode": "1665",
    "city": "Pegenau"
  },
  {
    "postcode": "1665",
    "city": "Burkhardswalde"
  },
  {
    "postcode": "1665",
    "city": "Robschütz"
  },
  {
    "postcode": "1665",
    "city": "Munzig"
  },
  {
    "postcode": "1665",
    "city": "Miltitz"
  },
  {
    "postcode": "1665",
    "city": "Kettewitz"
  },
  {
    "postcode": "1665",
    "city": "Piskowitz"
  },
  {
    "postcode": "1665",
    "city": "Schmiedewalde"
  },
  {
    "postcode": "1665",
    "city": "Tanneberg"
  },
  {
    "postcode": "1665",
    "city": "Hühndorf"
  },
  {
    "postcode": "1665",
    "city": "Garsebach"
  },
  {
    "postcode": "1665",
    "city": "Rothschönberg"
  },
  {
    "postcode": "1665",
    "city": "Ullendorf"
  },
  {
    "postcode": "1665",
    "city": "Sora"
  },
  {
    "postcode": "1665",
    "city": "Lotzen"
  },
  {
    "postcode": "1665",
    "city": "Reppina"
  },
  {
    "postcode": "1665",
    "city": "Weitzschen"
  },
  {
    "postcode": "1665",
    "city": "Kleinschönberg"
  },
  {
    "postcode": "1665",
    "city": "Lampersdorf"
  },
  {
    "postcode": "1665",
    "city": "Batzdorf"
  },
  {
    "postcode": "1665",
    "city": "Reichenbach"
  },
  {
    "postcode": "1665",
    "city": "Bergwerk"
  },
  {
    "postcode": "1665",
    "city": "Polenz"
  },
  {
    "postcode": "1665",
    "city": "Semmelsberg"
  },
  {
    "postcode": "1665",
    "city": "Groitzsch"
  },
  {
    "postcode": "1665",
    "city": "Naustadt"
  },
  {
    "postcode": "1665",
    "city": "Hartha"
  },
  {
    "postcode": "1665",
    "city": "Sachsdorf"
  },
  {
    "postcode": "1665",
    "city": "Sönitz"
  },
  {
    "postcode": "1665",
    "city": "Riemsdorf"
  },
  {
    "postcode": "1665",
    "city": "Roitzschen"
  },
  {
    "postcode": "1665",
    "city": "Pinkowitz"
  },
  {
    "postcode": "1665",
    "city": "Kobitzsch"
  },
  {
    "postcode": "1665",
    "city": "Spittewitz"
  },
  {
    "postcode": "1665",
    "city": "Krögis"
  },
  {
    "postcode": "1665",
    "city": "Löthain"
  },
  {
    "postcode": "1665",
    "city": "Barnitz"
  },
  {
    "postcode": "1665",
    "city": "Niederjahna"
  },
  {
    "postcode": "1665",
    "city": "Canitz"
  },
  {
    "postcode": "1665",
    "city": "Deila"
  },
  {
    "postcode": "1665",
    "city": "Görna"
  },
  {
    "postcode": "1665",
    "city": "Großkagen"
  },
  {
    "postcode": "1665",
    "city": "Jesseritz"
  },
  {
    "postcode": "1665",
    "city": "Kaisitz"
  },
  {
    "postcode": "1665",
    "city": "Kleinkagen"
  },
  {
    "postcode": "1665",
    "city": "Kleinprausitz"
  },
  {
    "postcode": "1665",
    "city": "Käbschütz"
  },
  {
    "postcode": "1665",
    "city": "Löbschütz"
  },
  {
    "postcode": "1665",
    "city": "Leutewitz"
  },
  {
    "postcode": "1665",
    "city": "Luga"
  },
  {
    "postcode": "1665",
    "city": "Mauna"
  },
  {
    "postcode": "1665",
    "city": "Mehren"
  },
  {
    "postcode": "1665",
    "city": "Gasern"
  },
  {
    "postcode": "1665",
    "city": "Mohlis"
  },
  {
    "postcode": "1665",
    "city": "Nössige"
  },
  {
    "postcode": "1665",
    "city": "Neumohlis"
  },
  {
    "postcode": "1665",
    "city": "Niederstößwitz"
  },
  {
    "postcode": "1665",
    "city": "Nimtitz"
  },
  {
    "postcode": "1665",
    "city": "Oberjahna"
  },
  {
    "postcode": "1665",
    "city": "Pauschütz"
  },
  {
    "postcode": "1665",
    "city": "Planitz"
  },
  {
    "postcode": "1665",
    "city": "Porschnitz"
  },
  {
    "postcode": "1665",
    "city": "Pröda"
  },
  {
    "postcode": "1665",
    "city": "Priesa"
  },
  {
    "postcode": "1665",
    "city": "Schönnewitz"
  },
  {
    "postcode": "1665",
    "city": "Schletta"
  },
  {
    "postcode": "1665",
    "city": "Sieglitz"
  },
  {
    "postcode": "1665",
    "city": "Soppen"
  },
  {
    "postcode": "1665",
    "city": "Sornitz"
  },
  {
    "postcode": "1665",
    "city": "Stroischen"
  },
  {
    "postcode": "1665",
    "city": "Tronitz"
  },
  {
    "postcode": "1683",
    "city": "Heynitz"
  },
  {
    "postcode": "1683",
    "city": "Karcha"
  },
  {
    "postcode": "1683",
    "city": "Nossen"
  },
  {
    "postcode": "1683",
    "city": "Meißen"
  },
  {
    "postcode": "1683",
    "city": "Abend"
  },
  {
    "postcode": "1683",
    "city": "Deutschenbora"
  },
  {
    "postcode": "1683",
    "city": "Starbach"
  },
  {
    "postcode": "1683",
    "city": "Bodenbach"
  },
  {
    "postcode": "1683",
    "city": "Leuben"
  },
  {
    "postcode": "1683",
    "city": "Klessig"
  },
  {
    "postcode": "1683",
    "city": "Neubodenbach"
  },
  {
    "postcode": "1683",
    "city": "Pinnewitz"
  },
  {
    "postcode": "1683",
    "city": "Oberstößwitz"
  },
  {
    "postcode": "1683",
    "city": "Raußlitz"
  },
  {
    "postcode": "1683",
    "city": "Wolkau"
  },
  {
    "postcode": "1683",
    "city": "Graupzig"
  },
  {
    "postcode": "1683",
    "city": "Perba"
  },
  {
    "postcode": "1683",
    "city": "Lossen"
  },
  {
    "postcode": "1683",
    "city": "Gruna"
  },
  {
    "postcode": "1683",
    "city": "Saultitz"
  },
  {
    "postcode": "1683",
    "city": "Badersen"
  },
  {
    "postcode": "1683",
    "city": "Rhäsa"
  },
  {
    "postcode": "1683",
    "city": "Rüsseina"
  },
  {
    "postcode": "1683",
    "city": "Dobschütz"
  },
  {
    "postcode": "1683",
    "city": "Elgersdorf"
  },
  {
    "postcode": "1683",
    "city": "Eulitz"
  },
  {
    "postcode": "1683",
    "city": "Göltzscha"
  },
  {
    "postcode": "1683",
    "city": "Gallschütz"
  },
  {
    "postcode": "1683",
    "city": "Gohla"
  },
  {
    "postcode": "1683",
    "city": "Ziegenhain"
  },
  {
    "postcode": "1683",
    "city": "Höfgen"
  },
  {
    "postcode": "1683",
    "city": "Raßlitz"
  },
  {
    "postcode": "1683",
    "city": "Ilkendorf"
  },
  {
    "postcode": "1683",
    "city": "Katzenberg"
  },
  {
    "postcode": "1683",
    "city": "Kottewitz"
  },
  {
    "postcode": "1683",
    "city": "Kreißa"
  },
  {
    "postcode": "1683",
    "city": "Lösten"
  },
  {
    "postcode": "1683",
    "city": "Leippen"
  },
  {
    "postcode": "1683",
    "city": "Wendischbora"
  },
  {
    "postcode": "1683",
    "city": "Mahlitzsch"
  },
  {
    "postcode": "1683",
    "city": "Mergenthal"
  },
  {
    "postcode": "1683",
    "city": "Mertitz"
  },
  {
    "postcode": "1683",
    "city": "Mettelwitz"
  },
  {
    "postcode": "1683",
    "city": "Mutzschwitz"
  },
  {
    "postcode": "1683",
    "city": "Noßlitz"
  },
  {
    "postcode": "1683",
    "city": "Pröda"
  },
  {
    "postcode": "1683",
    "city": "Praterschütz"
  },
  {
    "postcode": "1683",
    "city": "Priesen"
  },
  {
    "postcode": "1683",
    "city": "Radewitz"
  },
  {
    "postcode": "1683",
    "city": "Schleinitz"
  },
  {
    "postcode": "1683",
    "city": "Schrebitz"
  },
  {
    "postcode": "1683",
    "city": "Schänitz"
  },
  {
    "postcode": "1683",
    "city": "Stahna"
  },
  {
    "postcode": "1683",
    "city": "Wahnitz"
  },
  {
    "postcode": "1683",
    "city": "Wauden"
  },
  {
    "postcode": "1683",
    "city": "Wuhsen"
  },
  {
    "postcode": "1683",
    "city": "Wunschwitz"
  },
  {
    "postcode": "1683",
    "city": "Zetta"
  },
  {
    "postcode": "1689",
    "city": "Niederau bei Meißen"
  },
  {
    "postcode": "1689",
    "city": "Weinböhla"
  },
  {
    "postcode": "1689",
    "city": "Meißen"
  },
  {
    "postcode": "1689",
    "city": "Niederau"
  },
  {
    "postcode": "1689",
    "city": "Ockrilla"
  },
  {
    "postcode": "1689",
    "city": "Oberau"
  },
  {
    "postcode": "1689",
    "city": "Gröbern"
  },
  {
    "postcode": "1689",
    "city": "Großdobritz"
  },
  {
    "postcode": "1689",
    "city": "Jessen"
  },
  {
    "postcode": "1689",
    "city": "Gohlis"
  },
  {
    "postcode": "16225",
    "city": "Eberswalde"
  },
  {
    "postcode": "16225",
    "city": "Sommerfelde"
  },
  {
    "postcode": "16225",
    "city": "Tornow bei Eberswalde"
  },
  {
    "postcode": "16225",
    "city": "Barnim"
  },
  {
    "postcode": "16225",
    "city": "Spechthausen"
  },
  {
    "postcode": "16225",
    "city": "Tornow"
  },
  {
    "postcode": "16227",
    "city": "Eberswalde"
  },
  {
    "postcode": "16227",
    "city": "Barnim"
  },
  {
    "postcode": "16227",
    "city": "Finow"
  },
  {
    "postcode": "16227",
    "city": "Brandenburgisches Viertel"
  },
  {
    "postcode": "16230",
    "city": "Breydin"
  },
  {
    "postcode": "16230",
    "city": "Britz bei Eberswalde"
  },
  {
    "postcode": "16230",
    "city": "Brodowin"
  },
  {
    "postcode": "16230",
    "city": "Chorin"
  },
  {
    "postcode": "16230",
    "city": "Golzow bei Eberswalde"
  },
  {
    "postcode": "16230",
    "city": "Grüntal bei Eberswalde"
  },
  {
    "postcode": "16230",
    "city": "Lichterfelde bei Eberswalde"
  },
  {
    "postcode": "16230",
    "city": "Melchow"
  },
  {
    "postcode": "16230",
    "city": "Neuehütte"
  },
  {
    "postcode": "16230",
    "city": "Sandkrug bei Eberswalde"
  },
  {
    "postcode": "16230",
    "city": "Senftenhütte"
  },
  {
    "postcode": "16230",
    "city": "Serwest"
  },
  {
    "postcode": "16230",
    "city": "Sommerfelde"
  },
  {
    "postcode": "16230",
    "city": "Spechthausen"
  },
  {
    "postcode": "16230",
    "city": "Sydower Fließ"
  },
  {
    "postcode": "16230",
    "city": "Tempelfelde"
  },
  {
    "postcode": "16230",
    "city": "Tornow bei Eberswalde"
  },
  {
    "postcode": "16230",
    "city": "Trampe bei Eberswalde"
  },
  {
    "postcode": "16230",
    "city": "Tuchen-Klobbicke"
  },
  {
    "postcode": "16230",
    "city": "Barnim"
  },
  {
    "postcode": "16230",
    "city": "Britz"
  },
  {
    "postcode": "16230",
    "city": "Klobbicke"
  },
  {
    "postcode": "16230",
    "city": "Trampe"
  },
  {
    "postcode": "16230",
    "city": "Tuchen"
  },
  {
    "postcode": "16230",
    "city": "Golzow"
  },
  {
    "postcode": "16230",
    "city": "Sandkrug"
  },
  {
    "postcode": "16230",
    "city": "Schönholz"
  },
  {
    "postcode": "16230",
    "city": "Grüntal"
  },
  {
    "postcode": "16244",
    "city": "Altenhof bei Eberswalde"
  },
  {
    "postcode": "16244",
    "city": "Eichhorst bei Eberswalde"
  },
  {
    "postcode": "16244",
    "city": "Finowfurt"
  },
  {
    "postcode": "16244",
    "city": "Werbellin"
  },
  {
    "postcode": "16244",
    "city": "Barnim"
  },
  {
    "postcode": "16244",
    "city": "Schorfheide"
  },
  {
    "postcode": "16244",
    "city": "Altenhof"
  },
  {
    "postcode": "16244",
    "city": "Schluft"
  },
  {
    "postcode": "16244",
    "city": "Groß Schönebeck"
  },
  {
    "postcode": "16244",
    "city": "Klandorf"
  },
  {
    "postcode": "16244",
    "city": "Eichhorst"
  },
  {
    "postcode": "16244",
    "city": "Lichterfelde"
  },
  {
    "postcode": "16244",
    "city": "Böhmerheide"
  },
  {
    "postcode": "16247",
    "city": "Althüttendorf"
  },
  {
    "postcode": "16247",
    "city": "Friedrichswalde bei Eberswalde"
  },
  {
    "postcode": "16247",
    "city": "Groß-Ziethen bei Eberswalde"
  },
  {
    "postcode": "16247",
    "city": "Joachimsthal"
  },
  {
    "postcode": "16247",
    "city": "Klein Ziethen"
  },
  {
    "postcode": "16247",
    "city": "Neugrimnitz"
  },
  {
    "postcode": "16247",
    "city": "Parlow-Glambeck"
  },
  {
    "postcode": "16247",
    "city": "Ziethen"
  },
  {
    "postcode": "16247",
    "city": "Barnim"
  },
  {
    "postcode": "16247",
    "city": "Friedrichswalde"
  },
  {
    "postcode": "16247",
    "city": "Glambeck"
  },
  {
    "postcode": "16247",
    "city": "Parlow"
  },
  {
    "postcode": "16247",
    "city": "Groß-Ziethen"
  },
  {
    "postcode": "16248",
    "city": "Bölkendorf"
  },
  {
    "postcode": "16248",
    "city": "Hohenfinow"
  },
  {
    "postcode": "16248",
    "city": "Hohensaaten"
  },
  {
    "postcode": "16248",
    "city": "Liepe bei Eberswalde"
  },
  {
    "postcode": "16248",
    "city": "Lüdersdorf bei Eberswalde"
  },
  {
    "postcode": "16248",
    "city": "Lunow"
  },
  {
    "postcode": "16248",
    "city": "Lunow-Stolzenhagen"
  },
  {
    "postcode": "16248",
    "city": "Niederfinow"
  },
  {
    "postcode": "16248",
    "city": "Oderberg Mark"
  },
  {
    "postcode": "16248",
    "city": "Oderberg"
  },
  {
    "postcode": "16248",
    "city": "Parstein"
  },
  {
    "postcode": "16248",
    "city": "Parsteinsee"
  },
  {
    "postcode": "16248",
    "city": "Stolzenhagen bei Eberswalde"
  },
  {
    "postcode": "16248",
    "city": "Barnim"
  },
  {
    "postcode": "16248",
    "city": "Liepe"
  },
  {
    "postcode": "16248",
    "city": "Stolzenhagen"
  },
  {
    "postcode": "16248",
    "city": "Stecherschleuse"
  },
  {
    "postcode": "16248",
    "city": "Lüdersdorf"
  },
  {
    "postcode": "16259",
    "city": "Altglietzen"
  },
  {
    "postcode": "16259",
    "city": "Altlewin"
  },
  {
    "postcode": "16259",
    "city": "Altmädewitz"
  },
  {
    "postcode": "16259",
    "city": "Altranft"
  },
  {
    "postcode": "16259",
    "city": "Altreetz"
  },
  {
    "postcode": "16259",
    "city": "Alttrebbin"
  },
  {
    "postcode": "16259",
    "city": "Altwustrow"
  },
  {
    "postcode": "16259",
    "city": "Bad Freienwalde (Oder)"
  },
  {
    "postcode": "16259",
    "city": "Bad Freienwalde"
  },
  {
    "postcode": "16259",
    "city": "Beerbaum"
  },
  {
    "postcode": "16259",
    "city": "Beiersdorf bei Bad Freienwalde"
  },
  {
    "postcode": "16259",
    "city": "Beiersdorf-Freudenberg"
  },
  {
    "postcode": "16259",
    "city": "Bralitz"
  },
  {
    "postcode": "16259",
    "city": "Brunow bei Bad Freienwalde"
  },
  {
    "postcode": "16259",
    "city": "Dannenberg / Mark"
  },
  {
    "postcode": "16259",
    "city": "Dannenberg"
  },
  {
    "postcode": "16259",
    "city": "Falkenberg / Mark"
  },
  {
    "postcode": "16259",
    "city": "Falkenberg"
  },
  {
    "postcode": "16259",
    "city": "Falkenberg Mark"
  },
  {
    "postcode": "16259",
    "city": "Freudenberg bei Bad Freienwalde"
  },
  {
    "postcode": "16259",
    "city": "Gersdorf"
  },
  {
    "postcode": "16259",
    "city": "Güstebieser Loose"
  },
  {
    "postcode": "16259",
    "city": "Heckelberg"
  },
  {
    "postcode": "16259",
    "city": "Heckelberg-Brunow"
  },
  {
    "postcode": "16259",
    "city": "Höhenland"
  },
  {
    "postcode": "16259",
    "city": "Hohenwutzen"
  },
  {
    "postcode": "16259",
    "city": "Kruge"
  },
  {
    "postcode": "16259",
    "city": "Kruge-Gersdorf"
  },
  {
    "postcode": "16259",
    "city": "Leuenberg"
  },
  {
    "postcode": "16259",
    "city": "Mädewitz"
  },
  {
    "postcode": "16259",
    "city": "Neuenhagen bei Bad Freienwalde"
  },
  {
    "postcode": "16259",
    "city": "Neugersdorf bei Bad Freienwalde"
  },
  {
    "postcode": "16259",
    "city": "Neuküstrinchen"
  },
  {
    "postcode": "16259",
    "city": "Neulewin"
  },
  {
    "postcode": "16259",
    "city": "Neulietzegöricke"
  },
  {
    "postcode": "16259",
    "city": "Neumädewitz"
  },
  {
    "postcode": "16259",
    "city": "Neureetz"
  },
  {
    "postcode": "16259",
    "city": "Neurüdnitz"
  },
  {
    "postcode": "16259",
    "city": "Neuwustrow"
  },
  {
    "postcode": "16259",
    "city": "Oderaue"
  },
  {
    "postcode": "16259",
    "city": "Rathsdorf"
  },
  {
    "postcode": "16259",
    "city": "Schiffmühle an der Oder"
  },
  {
    "postcode": "16259",
    "city": "Steinbeck bei Bad Freienwalde"
  },
  {
    "postcode": "16259",
    "city": "Tiefensee bei Bad Freienwalde"
  },
  {
    "postcode": "16259",
    "city": "Wollenberg bei Bad Freienwalde"
  },
  {
    "postcode": "16259",
    "city": "Wölsickendorf"
  },
  {
    "postcode": "16259",
    "city": "Wölsickendorf-Wollenberg"
  },
  {
    "postcode": "16259",
    "city": "Wustrow"
  },
  {
    "postcode": "16259",
    "city": "Zäckericker Loose"
  },
  {
    "postcode": "16259",
    "city": "Barnim"
  },
  {
    "postcode": "16259",
    "city": "Hohenfinow"
  },
  {
    "postcode": "16259",
    "city": "Neuenhagen"
  },
  {
    "postcode": "16259",
    "city": "Hohensaaten"
  },
  {
    "postcode": "16259",
    "city": "Schiffmühle"
  },
  {
    "postcode": "16259",
    "city": "Neukietz"
  },
  {
    "postcode": "16259",
    "city": "Siedlung"
  },
  {
    "postcode": "16259",
    "city": "Beiersdorf"
  },
  {
    "postcode": "16259",
    "city": "Freudenberg"
  },
  {
    "postcode": "16259",
    "city": "Falkenberg/Mark"
  },
  {
    "postcode": "16259",
    "city": "Neugersdorf"
  },
  {
    "postcode": "16259",
    "city": "Dannenberg/Mark"
  },
  {
    "postcode": "16259",
    "city": "Cöthen"
  },
  {
    "postcode": "16259",
    "city": "Steinbeck"
  },
  {
    "postcode": "16259",
    "city": "Wollenberg"
  },
  {
    "postcode": "16259",
    "city": "Brunow"
  },
  {
    "postcode": "16259",
    "city": "Gratze"
  },
  {
    "postcode": "16259",
    "city": "Neuranft"
  },
  {
    "postcode": "16269",
    "city": "Altwriezen / Beauregard"
  },
  {
    "postcode": "16269",
    "city": "Altwriezen"
  },
  {
    "postcode": "16269",
    "city": "Bliesdorf"
  },
  {
    "postcode": "16269",
    "city": "Bliesdorf bei Bad Freienwalde"
  },
  {
    "postcode": "16269",
    "city": "Eichwerder bei Bad Freienwalde"
  },
  {
    "postcode": "16269",
    "city": "Frankenfelde bei Bad Freienwalde"
  },
  {
    "postcode": "16269",
    "city": "Haselberg bei Wriezen"
  },
  {
    "postcode": "16269",
    "city": "Kunersdorf / Metzdorf"
  },
  {
    "postcode": "16269",
    "city": "Kunersdorf"
  },
  {
    "postcode": "16269",
    "city": "Kunersdorf bei Bad Freienwalde"
  },
  {
    "postcode": "16269",
    "city": "Lüdersdorf / Biesdorf"
  },
  {
    "postcode": "16269",
    "city": "Lüdersdorf"
  },
  {
    "postcode": "16269",
    "city": "Metzdorf bei Bad Freienwalde"
  },
  {
    "postcode": "16269",
    "city": "Möglin"
  },
  {
    "postcode": "16269",
    "city": "Rathsdorf"
  },
  {
    "postcode": "16269",
    "city": "Reichenow-Möglin"
  },
  {
    "postcode": "16269",
    "city": "Schulzendorf bei Bad Freienwalde"
  },
  {
    "postcode": "16269",
    "city": "Sternebeck / Harnekop"
  },
  {
    "postcode": "16269",
    "city": "Sternebeck"
  },
  {
    "postcode": "16269",
    "city": "Thöringswerder"
  },
  {
    "postcode": "16269",
    "city": "Wriezen"
  },
  {
    "postcode": "16269",
    "city": "Wriezener Höhe"
  },
  {
    "postcode": "16269",
    "city": "Märkisch-Oderland"
  },
  {
    "postcode": "16269",
    "city": "Vevais"
  },
  {
    "postcode": "16269",
    "city": "Metzdorf"
  },
  {
    "postcode": "16269",
    "city": "Haselberg"
  },
  {
    "postcode": "16269",
    "city": "Altwriezen/Beauregard"
  },
  {
    "postcode": "16269",
    "city": "Schulzendorf"
  },
  {
    "postcode": "16269",
    "city": "Eichwerder"
  },
  {
    "postcode": "16269",
    "city": "Biesdorf"
  },
  {
    "postcode": "16269",
    "city": "Frankenfelde"
  },
  {
    "postcode": "16278",
    "city": "Altkünkendorf"
  },
  {
    "postcode": "16278",
    "city": "Angermünde"
  },
  {
    "postcode": "16278",
    "city": "Biesenbrow"
  },
  {
    "postcode": "16278",
    "city": "Bölkendorf"
  },
  {
    "postcode": "16278",
    "city": "Bruchhagen bei Angermünde"
  },
  {
    "postcode": "16278",
    "city": "Crussow"
  },
  {
    "postcode": "16278",
    "city": "Felchow"
  },
  {
    "postcode": "16278",
    "city": "Flemsdorf"
  },
  {
    "postcode": "16278",
    "city": "Frauenhagen bei Angermünde"
  },
  {
    "postcode": "16278",
    "city": "Gellmersdorf"
  },
  {
    "postcode": "16278",
    "city": "Görlsdorf bei Angermünde"
  },
  {
    "postcode": "16278",
    "city": "Greiffenberg"
  },
  {
    "postcode": "16278",
    "city": "Grünow"
  },
  {
    "postcode": "16278",
    "city": "Günterberg"
  },
  {
    "postcode": "16278",
    "city": "Herzsprung bei Angermünde"
  },
  {
    "postcode": "16278",
    "city": "Kerkow"
  },
  {
    "postcode": "16278",
    "city": "Landin bei Angermünde"
  },
  {
    "postcode": "16278",
    "city": "Mark Landin"
  },
  {
    "postcode": "16278",
    "city": "Mürow"
  },
  {
    "postcode": "16278",
    "city": "Neukünkendorf"
  },
  {
    "postcode": "16278",
    "city": "Pinnow bei Angermünde"
  },
  {
    "postcode": "16278",
    "city": "Polßen"
  },
  {
    "postcode": "16278",
    "city": "Schmargendorf bei Angermünde"
  },
  {
    "postcode": "16278",
    "city": "Schmiedeberg bei Angermünde"
  },
  {
    "postcode": "16278",
    "city": "Schöneberg bei Angermünde"
  },
  {
    "postcode": "16278",
    "city": "Schönermark"
  },
  {
    "postcode": "16278",
    "city": "Steinhöfel bei Angermünde"
  },
  {
    "postcode": "16278",
    "city": "Stolpe / Oder"
  },
  {
    "postcode": "16278",
    "city": "Stolpe"
  },
  {
    "postcode": "16278",
    "city": "Welsow"
  },
  {
    "postcode": "16278",
    "city": "Wilmersdorf bei Angermünde"
  },
  {
    "postcode": "16278",
    "city": "Wolletz"
  },
  {
    "postcode": "16278",
    "city": "Uckermark"
  },
  {
    "postcode": "16278",
    "city": "Pinnow"
  },
  {
    "postcode": "16278",
    "city": "Schöneberg"
  },
  {
    "postcode": "16278",
    "city": "Frauenhagen"
  },
  {
    "postcode": "16278",
    "city": "Herzsprung"
  },
  {
    "postcode": "16278",
    "city": "Schmargendorf"
  },
  {
    "postcode": "16278",
    "city": "Dobberzin"
  },
  {
    "postcode": "16278",
    "city": "Görlsdorf"
  },
  {
    "postcode": "16278",
    "city": "Schmiedeberg"
  },
  {
    "postcode": "16278",
    "city": "Bruchhagen"
  },
  {
    "postcode": "16278",
    "city": "Friedrichsfelde"
  },
  {
    "postcode": "16278",
    "city": "Sternfelde"
  },
  {
    "postcode": "16278",
    "city": "Steinhöfel"
  },
  {
    "postcode": "16278",
    "city": "Zuchenberg"
  },
  {
    "postcode": "16278",
    "city": "Neuhaus"
  },
  {
    "postcode": "16278",
    "city": "Gewerbegebiet"
  },
  {
    "postcode": "16278",
    "city": "Wilmersdorf"
  },
  {
    "postcode": "16278",
    "city": "Landin"
  },
  {
    "postcode": "16278",
    "city": "Hohenlandin"
  },
  {
    "postcode": "16278",
    "city": "Stützkow"
  },
  {
    "postcode": "16303",
    "city": "Blumenhagen bei Angermünde"
  },
  {
    "postcode": "16303",
    "city": "Criewen"
  },
  {
    "postcode": "16303",
    "city": "Gatow bei Angermünde"
  },
  {
    "postcode": "16303",
    "city": "Hohenfelde bei Angermünde"
  },
  {
    "postcode": "16303",
    "city": "Kummerow bei Angermünde"
  },
  {
    "postcode": "16303",
    "city": "Kunow bei Angermünde"
  },
  {
    "postcode": "16303",
    "city": "Niederfelde"
  },
  {
    "postcode": "16303",
    "city": "Schwedt / Oder"
  },
  {
    "postcode": "16303",
    "city": "Schwedt"
  },
  {
    "postcode": "16303",
    "city": "Stendell"
  },
  {
    "postcode": "16303",
    "city": "Vierraden"
  },
  {
    "postcode": "16303",
    "city": "Zützen bei Angermünde"
  },
  {
    "postcode": "16303",
    "city": "Uckermark"
  },
  {
    "postcode": "16303",
    "city": "Schwedt/Oder"
  },
  {
    "postcode": "16303",
    "city": "Zentrum"
  },
  {
    "postcode": "16303",
    "city": "Kunow"
  },
  {
    "postcode": "16303",
    "city": "Blumenhagen"
  },
  {
    "postcode": "16303",
    "city": "Talsand"
  },
  {
    "postcode": "16303",
    "city": "Neue Zeit"
  },
  {
    "postcode": "16303",
    "city": "Gatow"
  },
  {
    "postcode": "16303",
    "city": "Heinersdorf"
  },
  {
    "postcode": "16303",
    "city": "Zützen"
  },
  {
    "postcode": "16303",
    "city": "Hohenfelde"
  },
  {
    "postcode": "16303",
    "city": "Kastanienallee"
  },
  {
    "postcode": "16303",
    "city": "Am Waldrand"
  },
  {
    "postcode": "16303",
    "city": "Kummerow"
  },
  {
    "postcode": "16306",
    "city": "Berkholz-Meyenburg"
  },
  {
    "postcode": "16306",
    "city": "Biesendahlshof"
  },
  {
    "postcode": "16306",
    "city": "Blumberg bei Angermünde"
  },
  {
    "postcode": "16306",
    "city": "Blumenhagen bei Angermünde"
  },
  {
    "postcode": "16306",
    "city": "Briest bei Angermünde"
  },
  {
    "postcode": "16306",
    "city": "Casekow"
  },
  {
    "postcode": "16306",
    "city": "Criewen"
  },
  {
    "postcode": "16306",
    "city": "Flemsdorf"
  },
  {
    "postcode": "16306",
    "city": "Fredersdorf bei Angermünde"
  },
  {
    "postcode": "16306",
    "city": "Friedrichsthal bei Angermünde"
  },
  {
    "postcode": "16306",
    "city": "Gatow bei Angermünde"
  },
  {
    "postcode": "16306",
    "city": "Golm bei Angermünde"
  },
  {
    "postcode": "16306",
    "city": "Groß Pinnow"
  },
  {
    "postcode": "16306",
    "city": "Hohenfelde bei Angermünde"
  },
  {
    "postcode": "16306",
    "city": "Hohenselchow"
  },
  {
    "postcode": "16306",
    "city": "Hohenselchow-Groß Pinnow"
  },
  {
    "postcode": "16306",
    "city": "Jamikow"
  },
  {
    "postcode": "16306",
    "city": "Kummerow bei Angermünde"
  },
  {
    "postcode": "16306",
    "city": "Kunow bei Angermünde"
  },
  {
    "postcode": "16306",
    "city": "Luckow-Petershagen"
  },
  {
    "postcode": "16306",
    "city": "Niederfelde"
  },
  {
    "postcode": "16306",
    "city": "Passow"
  },
  {
    "postcode": "16306",
    "city": "Passow bei Angermünde"
  },
  {
    "postcode": "16306",
    "city": "Schönow bei Angermünde"
  },
  {
    "postcode": "16306",
    "city": "Stendell"
  },
  {
    "postcode": "16306",
    "city": "Vierraden"
  },
  {
    "postcode": "16306",
    "city": "Wartin"
  },
  {
    "postcode": "16306",
    "city": "Woltersdorf bei Angermünde"
  },
  {
    "postcode": "16306",
    "city": "Zichow"
  },
  {
    "postcode": "16306",
    "city": "Zützen bei Angermünde"
  },
  {
    "postcode": "16306",
    "city": "Uckermark"
  },
  {
    "postcode": "16306",
    "city": "Berkholz"
  },
  {
    "postcode": "16306",
    "city": "Meyenburg"
  },
  {
    "postcode": "16306",
    "city": "Woltersdorf"
  },
  {
    "postcode": "16306",
    "city": "Neu Luckow"
  },
  {
    "postcode": "16306",
    "city": "Luckow"
  },
  {
    "postcode": "16306",
    "city": "Petershagen"
  },
  {
    "postcode": "16306",
    "city": "Blumberg"
  },
  {
    "postcode": "16306",
    "city": "Passow/Wendemark"
  },
  {
    "postcode": "16306",
    "city": "Schönow"
  },
  {
    "postcode": "16306",
    "city": "Wendemark"
  },
  {
    "postcode": "16306",
    "city": "Briest"
  },
  {
    "postcode": "16306",
    "city": "Golm"
  },
  {
    "postcode": "16306",
    "city": "Fredersdorf"
  },
  {
    "postcode": "16307",
    "city": "Friedrichsthal bei Angermünde"
  },
  {
    "postcode": "16307",
    "city": "Gartz (Oder)"
  },
  {
    "postcode": "16307",
    "city": "Gartz"
  },
  {
    "postcode": "16307",
    "city": "Geesow"
  },
  {
    "postcode": "16307",
    "city": "Hohenreinkendorf"
  },
  {
    "postcode": "16307",
    "city": "Mescherin"
  },
  {
    "postcode": "16307",
    "city": "Neurochlitz"
  },
  {
    "postcode": "16307",
    "city": "Radekow"
  },
  {
    "postcode": "16307",
    "city": "Rosow"
  },
  {
    "postcode": "16307",
    "city": "Schönfeld bei Angermünde"
  },
  {
    "postcode": "16307",
    "city": "Tantow"
  },
  {
    "postcode": "16307",
    "city": "Uckermark"
  },
  {
    "postcode": "16307",
    "city": "Friedrichsthal"
  },
  {
    "postcode": "16307",
    "city": "Staffelde"
  },
  {
    "postcode": "16307",
    "city": "Schönfeld"
  },
  {
    "postcode": "16321",
    "city": "Bernau bei Berlin"
  },
  {
    "postcode": "16321",
    "city": "Birkholz bei Bernau bei Berlin"
  },
  {
    "postcode": "16321",
    "city": "Börnicke bei Bernau bei Berlin"
  },
  {
    "postcode": "16321",
    "city": "Danewitz"
  },
  {
    "postcode": "16321",
    "city": "Ladeburg bei Bernau bei Berlin"
  },
  {
    "postcode": "16321",
    "city": "Lindenberg bei Bernau bei Berlin"
  },
  {
    "postcode": "16321",
    "city": "Lobetal"
  },
  {
    "postcode": "16321",
    "city": "Rüdnitz"
  },
  {
    "postcode": "16321",
    "city": "Schönow bei Berlin"
  },
  {
    "postcode": "16321",
    "city": "Barnim"
  },
  {
    "postcode": "16321",
    "city": "Birkholzaue"
  },
  {
    "postcode": "16321",
    "city": "Bernau"
  },
  {
    "postcode": "16321",
    "city": "Ladeburg"
  },
  {
    "postcode": "16321",
    "city": "Stadtzentrum"
  },
  {
    "postcode": "16321",
    "city": "Schönow"
  },
  {
    "postcode": "16321",
    "city": "Börnicke"
  },
  {
    "postcode": "16321",
    "city": "Nibelungen"
  },
  {
    "postcode": "16321",
    "city": "Waldsiedlung"
  },
  {
    "postcode": "16321",
    "city": "Birkholz"
  },
  {
    "postcode": "16321",
    "city": "Schmetzdorf"
  },
  {
    "postcode": "16321",
    "city": "Friedenstal"
  },
  {
    "postcode": "16321",
    "city": "Birkenhöhe"
  },
  {
    "postcode": "16321",
    "city": "Eichwerder"
  },
  {
    "postcode": "16341",
    "city": "Panketal"
  },
  {
    "postcode": "16341",
    "city": "Schwanebeck bei Bernau bei Berlin"
  },
  {
    "postcode": "16341",
    "city": "Zepernick"
  },
  {
    "postcode": "16341",
    "city": "Barnim"
  },
  {
    "postcode": "16341",
    "city": "Schwanebeck"
  },
  {
    "postcode": "16341",
    "city": "Kolonie Gehrenberge"
  },
  {
    "postcode": "16341",
    "city": "Kolonie Alpenberge"
  },
  {
    "postcode": "16341",
    "city": "Neu Buch"
  },
  {
    "postcode": "16348",
    "city": "Groß Schönebeck (Schorfheide)"
  },
  {
    "postcode": "16348",
    "city": "Groß Schönebeck"
  },
  {
    "postcode": "16348",
    "city": "Klosterfelde"
  },
  {
    "postcode": "16348",
    "city": "Marienwerder bei Bernau bei Berlin"
  },
  {
    "postcode": "16348",
    "city": "Prenden"
  },
  {
    "postcode": "16348",
    "city": "Ruhlsdorf bei Bernau bei Berlin"
  },
  {
    "postcode": "16348",
    "city": "Schorfheide"
  },
  {
    "postcode": "16348",
    "city": "Sophienstädt"
  },
  {
    "postcode": "16348",
    "city": "Stolzenhagen bei Wandlitz"
  },
  {
    "postcode": "16348",
    "city": "Wandlitz"
  },
  {
    "postcode": "16348",
    "city": "Zerpenschleuse"
  },
  {
    "postcode": "16348",
    "city": "Barnim"
  },
  {
    "postcode": "16348",
    "city": "Marienwerder"
  },
  {
    "postcode": "16348",
    "city": "Ruhlsdorf"
  },
  {
    "postcode": "16348",
    "city": "Basdorf"
  },
  {
    "postcode": "16348",
    "city": "Schönwalde"
  },
  {
    "postcode": "16348",
    "city": "Stolzenhagen"
  },
  {
    "postcode": "16348",
    "city": "Schönerlinde"
  },
  {
    "postcode": "16348",
    "city": "Lanke"
  },
  {
    "postcode": "16348",
    "city": "Waldheim"
  },
  {
    "postcode": "16348",
    "city": "Ützdorf"
  },
  {
    "postcode": "16352",
    "city": "Basdorf bei Berlin"
  },
  {
    "postcode": "16352",
    "city": "Schönerlinde bei Bernau bei Berlin"
  },
  {
    "postcode": "16352",
    "city": "Schönwalde bei Wandlitz"
  },
  {
    "postcode": "16356",
    "city": "Ahrensfelde"
  },
  {
    "postcode": "16356",
    "city": "Ahrensfelde bei Berlin"
  },
  {
    "postcode": "16356",
    "city": "Birkholz bei Bernau bei Berlin"
  },
  {
    "postcode": "16356",
    "city": "Blumberg"
  },
  {
    "postcode": "16356",
    "city": "Eiche bei Bernau bei Berlin"
  },
  {
    "postcode": "16356",
    "city": "Hirschfelde bei Werneuchen"
  },
  {
    "postcode": "16356",
    "city": "Krummensee bei Werneuchen"
  },
  {
    "postcode": "16356",
    "city": "Lindenberg bei Bernau bei Berlin"
  },
  {
    "postcode": "16356",
    "city": "Löhme"
  },
  {
    "postcode": "16356",
    "city": "Mehrow"
  },
  {
    "postcode": "16356",
    "city": "Schönfeld bei Bernau bei Berlin"
  },
  {
    "postcode": "16356",
    "city": "Seefeld bei Werneuchen"
  },
  {
    "postcode": "16356",
    "city": "Sydower Fließ"
  },
  {
    "postcode": "16356",
    "city": "Tempelfelde"
  },
  {
    "postcode": "16356",
    "city": "Weesow"
  },
  {
    "postcode": "16356",
    "city": "Werneuchen"
  },
  {
    "postcode": "16356",
    "city": "Willmersdorf bei Bernau bei Berlin"
  },
  {
    "postcode": "16356",
    "city": "Barnim"
  },
  {
    "postcode": "16356",
    "city": "Eiche"
  },
  {
    "postcode": "16356",
    "city": "Lindenberg"
  },
  {
    "postcode": "16356",
    "city": "Neu Lindenberg"
  },
  {
    "postcode": "16356",
    "city": "Elisenau"
  },
  {
    "postcode": "16356",
    "city": "Klarahöh"
  },
  {
    "postcode": "16356",
    "city": "Schloßparksiedlung"
  },
  {
    "postcode": "16356",
    "city": "Tiefensee"
  },
  {
    "postcode": "16356",
    "city": "Seefeld"
  },
  {
    "postcode": "16356",
    "city": "Hirschfelde"
  },
  {
    "postcode": "16356",
    "city": "Schönfeld"
  },
  {
    "postcode": "16356",
    "city": "Krummensee"
  },
  {
    "postcode": "16356",
    "city": "Willmersdorf"
  },
  {
    "postcode": "16356",
    "city": "Werftpfuhl"
  },
  {
    "postcode": "16359",
    "city": "Biesenthal bei Bernau bei Berlin"
  },
  {
    "postcode": "16359",
    "city": "Danewitz"
  },
  {
    "postcode": "16359",
    "city": "Lanke"
  },
  {
    "postcode": "16359",
    "city": "Barnim"
  },
  {
    "postcode": "16359",
    "city": "Biesenthal"
  },
  {
    "postcode": "16515",
    "city": "Freienhagen bei Oranienburg"
  },
  {
    "postcode": "16515",
    "city": "Friedrichsthal bei Oranienburg"
  },
  {
    "postcode": "16515",
    "city": "Hohenbruch"
  },
  {
    "postcode": "16515",
    "city": "Malz"
  },
  {
    "postcode": "16515",
    "city": "Nassenheide"
  },
  {
    "postcode": "16515",
    "city": "Neuendorf bei Oranienburg"
  },
  {
    "postcode": "16515",
    "city": "Neuholland bei Oranienburg"
  },
  {
    "postcode": "16515",
    "city": "Oranienburg"
  },
  {
    "postcode": "16515",
    "city": "Schmachtenhagen bei Oranienburg"
  },
  {
    "postcode": "16515",
    "city": "Teschendorf bei Oranienburg"
  },
  {
    "postcode": "16515",
    "city": "Wensickendorf"
  },
  {
    "postcode": "16515",
    "city": "Zehlendorf bei Oranienburg"
  },
  {
    "postcode": "16515",
    "city": "Zühlsdorf"
  },
  {
    "postcode": "16515",
    "city": "Oberhavel"
  },
  {
    "postcode": "16515",
    "city": "Mühlenbecker Land"
  },
  {
    "postcode": "16515",
    "city": "Lubowsee"
  },
  {
    "postcode": "16515",
    "city": "Seefeld"
  },
  {
    "postcode": "16515",
    "city": "Schmachtenhagen"
  },
  {
    "postcode": "16515",
    "city": "Lehnitz"
  },
  {
    "postcode": "16515",
    "city": "Germendorf"
  },
  {
    "postcode": "16515",
    "city": "Zehlendorf"
  },
  {
    "postcode": "16515",
    "city": "Sachsenhausen"
  },
  {
    "postcode": "16515",
    "city": "Friedrichsthal"
  },
  {
    "postcode": "16515",
    "city": "Fichtengrund"
  },
  {
    "postcode": "16515",
    "city": "Siedlung am Rahmer See"
  },
  {
    "postcode": "16540",
    "city": "Hohen Neuendorf"
  },
  {
    "postcode": "16540",
    "city": "Stolpe Dorf"
  },
  {
    "postcode": "16540",
    "city": "Oberhavel"
  },
  {
    "postcode": "16540",
    "city": "Stolpe"
  },
  {
    "postcode": "16547",
    "city": "Birkenwerder"
  },
  {
    "postcode": "16547",
    "city": "Oberhavel"
  },
  {
    "postcode": "16548",
    "city": "Glienicke / Nordbahn"
  },
  {
    "postcode": "16548",
    "city": "Glienicke"
  },
  {
    "postcode": "16548",
    "city": "Oberhavel"
  },
  {
    "postcode": "16548",
    "city": "Glienicke/Nordbahn"
  },
  {
    "postcode": "16552",
    "city": "Schildow"
  },
  {
    "postcode": "16552",
    "city": "Oberhavel"
  },
  {
    "postcode": "16552",
    "city": "Mühlenbecker Land"
  },
  {
    "postcode": "16556",
    "city": "Borgsdorf"
  },
  {
    "postcode": "16556",
    "city": "Oberhavel"
  },
  {
    "postcode": "16556",
    "city": "Hohen Neuendorf"
  },
  {
    "postcode": "16559",
    "city": "Freienhagen bei Oranienburg"
  },
  {
    "postcode": "16559",
    "city": "Hammer bei Oranienburg"
  },
  {
    "postcode": "16559",
    "city": "Kreuzbruch"
  },
  {
    "postcode": "16559",
    "city": "Liebenthal bei Oranienburg"
  },
  {
    "postcode": "16559",
    "city": "Liebenwalde"
  },
  {
    "postcode": "16559",
    "city": "Neuholland bei Oranienburg"
  },
  {
    "postcode": "16559",
    "city": "Oberhavel"
  },
  {
    "postcode": "16559",
    "city": "Liebenthal"
  },
  {
    "postcode": "16559",
    "city": "Neuholland"
  },
  {
    "postcode": "16559",
    "city": "Hammer"
  },
  {
    "postcode": "16559",
    "city": "Freienhagen"
  },
  {
    "postcode": "16562",
    "city": "Bergfelde"
  },
  {
    "postcode": "16562",
    "city": "Oberhavel"
  },
  {
    "postcode": "16562",
    "city": "Hohen Neuendorf"
  },
  {
    "postcode": "16565",
    "city": "Lehnitz"
  },
  {
    "postcode": "16567",
    "city": "Mühlenbeck bei Oranienburg"
  },
  {
    "postcode": "16567",
    "city": "Mühlenbecker Land"
  },
  {
    "postcode": "16567",
    "city": "Schönfließ bei Oranienburg"
  },
  {
    "postcode": "16567",
    "city": "Oberhavel"
  },
  {
    "postcode": "16567",
    "city": "Mühlenbeck"
  },
  {
    "postcode": "16567",
    "city": "Schönfließ"
  },
  {
    "postcode": "16567",
    "city": "Feldheim"
  },
  {
    "postcode": "16727",
    "city": "Bärenklau"
  },
  {
    "postcode": "16727",
    "city": "Bötzow"
  },
  {
    "postcode": "16727",
    "city": "Eichstädt"
  },
  {
    "postcode": "16727",
    "city": "Marwitz"
  },
  {
    "postcode": "16727",
    "city": "Neu-Vehlefanz"
  },
  {
    "postcode": "16727",
    "city": "Oberkrämer"
  },
  {
    "postcode": "16727",
    "city": "Schwante"
  },
  {
    "postcode": "16727",
    "city": "Vehlefanz"
  },
  {
    "postcode": "16727",
    "city": "Velten"
  },
  {
    "postcode": "16727",
    "city": "Oberhavel"
  },
  {
    "postcode": "16727",
    "city": "Sommerswalde"
  },
  {
    "postcode": "16727",
    "city": "Neu-Schwante"
  },
  {
    "postcode": "16727",
    "city": "Wolfslake"
  },
  {
    "postcode": "16761",
    "city": "Hennigsdorf"
  },
  {
    "postcode": "16761",
    "city": "Stolpe-Süd"
  },
  {
    "postcode": "16761",
    "city": "Oberhavel"
  },
  {
    "postcode": "16761",
    "city": "Nieder Neuendorf"
  },
  {
    "postcode": "16766",
    "city": "Beetz"
  },
  {
    "postcode": "16766",
    "city": "Flatow"
  },
  {
    "postcode": "16766",
    "city": "Groß-Ziethen"
  },
  {
    "postcode": "16766",
    "city": "Hohenbruch"
  },
  {
    "postcode": "16766",
    "city": "Kremmen"
  },
  {
    "postcode": "16766",
    "city": "Neu-Vehlefanz"
  },
  {
    "postcode": "16766",
    "city": "Oberkrämer"
  },
  {
    "postcode": "16766",
    "city": "Sommerfeld"
  },
  {
    "postcode": "16766",
    "city": "Staffelde"
  },
  {
    "postcode": "16766",
    "city": "Oberhavel"
  },
  {
    "postcode": "16766",
    "city": "Ludwigsaue"
  },
  {
    "postcode": "16767",
    "city": "Germendorf"
  },
  {
    "postcode": "16767",
    "city": "Leegebruch"
  },
  {
    "postcode": "16767",
    "city": "Oberhavel"
  },
  {
    "postcode": "16775",
    "city": "Altlüdersdorf"
  },
  {
    "postcode": "16775",
    "city": "Baumgarten bei Gransee"
  },
  {
    "postcode": "16775",
    "city": "Buberow"
  },
  {
    "postcode": "16775",
    "city": "Dannenwalde bei Gransee"
  },
  {
    "postcode": "16775",
    "city": "Dollgow"
  },
  {
    "postcode": "16775",
    "city": "Falkenthal"
  },
  {
    "postcode": "16775",
    "city": "Glambeck beiGransee"
  },
  {
    "postcode": "16775",
    "city": "Gramzow"
  },
  {
    "postcode": "16775",
    "city": "Gransee"
  },
  {
    "postcode": "16775",
    "city": "Grieben bei Gransee"
  },
  {
    "postcode": "16775",
    "city": "Großmutz"
  },
  {
    "postcode": "16775",
    "city": "Großwoltersdorf"
  },
  {
    "postcode": "16775",
    "city": "Grüneberg"
  },
  {
    "postcode": "16775",
    "city": "Gutengermendorf"
  },
  {
    "postcode": "16775",
    "city": "Häsen"
  },
  {
    "postcode": "16775",
    "city": "Keller bei Gransee"
  },
  {
    "postcode": "16775",
    "city": "Kraatz"
  },
  {
    "postcode": "16775",
    "city": "Kraatz-Buberow"
  },
  {
    "postcode": "16775",
    "city": "Löwenberg bei Gransee"
  },
  {
    "postcode": "16775",
    "city": "Löwenberger Land"
  },
  {
    "postcode": "16775",
    "city": "Margaretenhof"
  },
  {
    "postcode": "16775",
    "city": "Menz bei Gransee"
  },
  {
    "postcode": "16775",
    "city": "Meseberg bei Gransee"
  },
  {
    "postcode": "16775",
    "city": "Nassenheide"
  },
  {
    "postcode": "16775",
    "city": "Neuendorf bei Oranienburg"
  },
  {
    "postcode": "16775",
    "city": "Neuglobsow"
  },
  {
    "postcode": "16775",
    "city": "Neulögow"
  },
  {
    "postcode": "16775",
    "city": "Neulöwenberg"
  },
  {
    "postcode": "16775",
    "city": "Neulüdersdorf"
  },
  {
    "postcode": "16775",
    "city": "Rönnebeck bei Gransee"
  },
  {
    "postcode": "16775",
    "city": "Schönermark bei Gransee"
  },
  {
    "postcode": "16775",
    "city": "Schulzendorf bei Gransee"
  },
  {
    "postcode": "16775",
    "city": "Seilershof"
  },
  {
    "postcode": "16775",
    "city": "Sonnenberg bei Gransee"
  },
  {
    "postcode": "16775",
    "city": "Stechlin"
  },
  {
    "postcode": "16775",
    "city": "Teschendorf bei Oranienburg"
  },
  {
    "postcode": "16775",
    "city": "Wendefeld"
  },
  {
    "postcode": "16775",
    "city": "Wentow"
  },
  {
    "postcode": "16775",
    "city": "Wolfsruh"
  },
  {
    "postcode": "16775",
    "city": "Zernikow bei Gransee"
  },
  {
    "postcode": "16775",
    "city": "Ziegelei"
  },
  {
    "postcode": "16775",
    "city": "Ziegelscheune"
  },
  {
    "postcode": "16775",
    "city": "Oberhavel"
  },
  {
    "postcode": "16775",
    "city": "Schönermark"
  },
  {
    "postcode": "16775",
    "city": "Sonnenberg"
  },
  {
    "postcode": "16775",
    "city": "Dannenwalde"
  },
  {
    "postcode": "16775",
    "city": "Meseberg"
  },
  {
    "postcode": "16775",
    "city": "Neulüdersdorf"
  },
  {
    "postcode": "16775",
    "city": "Wentow"
  },
  {
    "postcode": "16775",
    "city": "Zernikow"
  },
  {
    "postcode": "16775",
    "city": "Buchholz"
  },
  {
    "postcode": "16775",
    "city": "Altglobsow"
  },
  {
    "postcode": "16775",
    "city": "Burow"
  },
  {
    "postcode": "16775",
    "city": "Löwenberg"
  },
  {
    "postcode": "16775",
    "city": "Teschendorf"
  },
  {
    "postcode": "16775",
    "city": "Liebenberg"
  },
  {
    "postcode": "16775",
    "city": "Grieben"
  },
  {
    "postcode": "16775",
    "city": "Neuendorf"
  },
  {
    "postcode": "16775",
    "city": "Hoppenrade"
  },
  {
    "postcode": "16775",
    "city": "Linde"
  },
  {
    "postcode": "16775",
    "city": "Glambeck"
  },
  {
    "postcode": "16775",
    "city": "Klevesche Häuser"
  },
  {
    "postcode": "16775",
    "city": "Neuhäsen"
  },
  {
    "postcode": "16775",
    "city": "Schulzendorf"
  },
  {
    "postcode": "16775",
    "city": "Rauschendorf"
  },
  {
    "postcode": "16775",
    "city": "Baumgarten"
  },
  {
    "postcode": "16775",
    "city": "Rönnebeck"
  },
  {
    "postcode": "16775",
    "city": "Dagow"
  },
  {
    "postcode": "16775",
    "city": "Menz"
  },
  {
    "postcode": "16775",
    "city": "Güldenhof"
  },
  {
    "postcode": "16775",
    "city": "Neuroofen"
  },
  {
    "postcode": "16775",
    "city": "Schulzenhof"
  },
  {
    "postcode": "16792",
    "city": "Badingen bei Gransee"
  },
  {
    "postcode": "16792",
    "city": "Bergsdorf"
  },
  {
    "postcode": "16792",
    "city": "Burgwall"
  },
  {
    "postcode": "16792",
    "city": "Kappe"
  },
  {
    "postcode": "16792",
    "city": "Klein-Mutz"
  },
  {
    "postcode": "16792",
    "city": "Krewelin"
  },
  {
    "postcode": "16792",
    "city": "Kurtschlag"
  },
  {
    "postcode": "16792",
    "city": "Marienthal"
  },
  {
    "postcode": "16792",
    "city": "Mildenberg"
  },
  {
    "postcode": "16792",
    "city": "Neuhof bei Zehdenick"
  },
  {
    "postcode": "16792",
    "city": "Osterne"
  },
  {
    "postcode": "16792",
    "city": "Ribbeck"
  },
  {
    "postcode": "16792",
    "city": "Vogelsang bei Zehdenick"
  },
  {
    "postcode": "16792",
    "city": "Wesendorf bei Zehdenick"
  },
  {
    "postcode": "16792",
    "city": "Zabelsdorf"
  },
  {
    "postcode": "16792",
    "city": "Zehdenick"
  },
  {
    "postcode": "16792",
    "city": "Oberhavel"
  },
  {
    "postcode": "16792",
    "city": "Vogelsang"
  },
  {
    "postcode": "16792",
    "city": "Badingen"
  },
  {
    "postcode": "16792",
    "city": "Wesendorf"
  },
  {
    "postcode": "16798",
    "city": "Altthymen"
  },
  {
    "postcode": "16798",
    "city": "Barsdorf"
  },
  {
    "postcode": "16798",
    "city": "Blumenow"
  },
  {
    "postcode": "16798",
    "city": "Bredereiche"
  },
  {
    "postcode": "16798",
    "city": "Fürstenberg / Havel"
  },
  {
    "postcode": "16798",
    "city": "Fürstenberg"
  },
  {
    "postcode": "16798",
    "city": "Himmelpfort"
  },
  {
    "postcode": "16798",
    "city": "Pian"
  },
  {
    "postcode": "16798",
    "city": "Steinförde"
  },
  {
    "postcode": "16798",
    "city": "Tornow bei Gransee"
  },
  {
    "postcode": "16798",
    "city": "Zootzen bei Gransee"
  },
  {
    "postcode": "16798",
    "city": "Oberhavel"
  },
  {
    "postcode": "16798",
    "city": "Fürstenberg/Havel"
  },
  {
    "postcode": "16798",
    "city": "Steinförde-Großmenow"
  },
  {
    "postcode": "16798",
    "city": "Tornow-Ringsleben"
  },
  {
    "postcode": "16798",
    "city": "Tornow"
  },
  {
    "postcode": "16798",
    "city": "Tornow-Neutornow"
  },
  {
    "postcode": "16798",
    "city": "Tornow-Neubau"
  },
  {
    "postcode": "16798",
    "city": "Zootzen"
  },
  {
    "postcode": "16798",
    "city": "Steinförde-Kleinmenow"
  },
  {
    "postcode": "16798",
    "city": "Blumenow-Boltenhof"
  },
  {
    "postcode": "16798",
    "city": "Barsdorf-Qualzow"
  },
  {
    "postcode": "16798",
    "city": "Schönhorn Forsthaus"
  },
  {
    "postcode": "16798",
    "city": "Lychen"
  },
  {
    "postcode": "16798",
    "city": "Steinhavelmühle"
  },
  {
    "postcode": "16798",
    "city": "Steinförde-Steinhavelmühle"
  },
  {
    "postcode": "16816",
    "city": "Buskow"
  },
  {
    "postcode": "16816",
    "city": "Neuruppin"
  },
  {
    "postcode": "16816",
    "city": "Nietwerder"
  },
  {
    "postcode": "16816",
    "city": "Werder bei Neuruppin"
  },
  {
    "postcode": "16816",
    "city": "Ostprignitz-Ruppin"
  },
  {
    "postcode": "16818",
    "city": "Basdorf bei Neuruppin"
  },
  {
    "postcode": "16818",
    "city": "Braunsberg bei Neuruppin"
  },
  {
    "postcode": "16818",
    "city": "Dabergotz"
  },
  {
    "postcode": "16818",
    "city": "Darritz-Wahlendorf"
  },
  {
    "postcode": "16818",
    "city": "Darsikow"
  },
  {
    "postcode": "16818",
    "city": "Deutschhof bei Fehrbellin"
  },
  {
    "postcode": "16818",
    "city": "Frankendorf bei Neuruppin"
  },
  {
    "postcode": "16818",
    "city": "Gnewikow"
  },
  {
    "postcode": "16818",
    "city": "Karwe bei Neuruppin"
  },
  {
    "postcode": "16818",
    "city": "Katerbow"
  },
  {
    "postcode": "16818",
    "city": "Kränzlin"
  },
  {
    "postcode": "16818",
    "city": "Langen bei Neuruppin"
  },
  {
    "postcode": "16818",
    "city": "Lichtenberg bei Neuruppin"
  },
  {
    "postcode": "16818",
    "city": "Märkisch Linden"
  },
  {
    "postcode": "16818",
    "city": "Netzeband bei Neuruppin"
  },
  {
    "postcode": "16818",
    "city": "Radensleben"
  },
  {
    "postcode": "16818",
    "city": "Rägelin"
  },
  {
    "postcode": "16818",
    "city": "Storbeck bei Neuruppin"
  },
  {
    "postcode": "16818",
    "city": "Storbeck-Frankendorf"
  },
  {
    "postcode": "16818",
    "city": "Temnitzquell"
  },
  {
    "postcode": "16818",
    "city": "Wall bei Neuruppin"
  },
  {
    "postcode": "16818",
    "city": "Walsleben bei Neuruppin"
  },
  {
    "postcode": "16818",
    "city": "Wustrau-Altfriesack"
  },
  {
    "postcode": "16818",
    "city": "Wuthenow"
  },
  {
    "postcode": "16818",
    "city": "Ostprignitz-Ruppin"
  },
  {
    "postcode": "16818",
    "city": "Albertinenhof"
  },
  {
    "postcode": "16818",
    "city": "Altfriesack"
  },
  {
    "postcode": "16818",
    "city": "Basdorf"
  },
  {
    "postcode": "16818",
    "city": "Braunsberg"
  },
  {
    "postcode": "16818",
    "city": "Deutschhof"
  },
  {
    "postcode": "16818",
    "city": "Fehrbellin"
  },
  {
    "postcode": "16818",
    "city": "Gühlen Glienicke"
  },
  {
    "postcode": "16818",
    "city": "Karwe"
  },
  {
    "postcode": "16818",
    "city": "Kuhhorst"
  },
  {
    "postcode": "16818",
    "city": "Langen"
  },
  {
    "postcode": "16818",
    "city": "Lichtenberg"
  },
  {
    "postcode": "16818",
    "city": "Netzeband"
  },
  {
    "postcode": "16818",
    "city": "Neu Glienicke"
  },
  {
    "postcode": "16818",
    "city": "Neuruppin"
  },
  {
    "postcode": "16818",
    "city": "Pfalzheim"
  },
  {
    "postcode": "16818",
    "city": "Rheinsberg Glienicke"
  },
  {
    "postcode": "16818",
    "city": "Ribbeckshorst"
  },
  {
    "postcode": "16818",
    "city": "Wall"
  },
  {
    "postcode": "16818",
    "city": "Walsleben"
  },
  {
    "postcode": "16818",
    "city": "Wustrau"
  },
  {
    "postcode": "16818",
    "city": "Zietenhorst"
  },
  {
    "postcode": "16818",
    "city": "Dreibrück"
  },
  {
    "postcode": "16818",
    "city": "Werder"
  },
  {
    "postcode": "16818",
    "city": "Darritz"
  },
  {
    "postcode": "16818",
    "city": "Gottberg"
  },
  {
    "postcode": "16818",
    "city": "Wahlendorf"
  },
  {
    "postcode": "16818",
    "city": "Seehof"
  },
  {
    "postcode": "16818",
    "city": "Frankendorf"
  },
  {
    "postcode": "16818",
    "city": "Storbeck"
  },
  {
    "postcode": "16818",
    "city": "Storbeck Siedlung"
  },
  {
    "postcode": "16827",
    "city": "Alt Ruppin"
  },
  {
    "postcode": "16827",
    "city": "Krangen"
  },
  {
    "postcode": "16827",
    "city": "Molchow"
  },
  {
    "postcode": "16827",
    "city": "Zippelsförde"
  },
  {
    "postcode": "16827",
    "city": "Ostprignitz-Ruppin"
  },
  {
    "postcode": "16827",
    "city": "Neuruppin"
  },
  {
    "postcode": "16827",
    "city": "Zermützel"
  },
  {
    "postcode": "16831",
    "city": "Großzerlang"
  },
  {
    "postcode": "16831",
    "city": "Heinrichsdorf bei Neuruppin"
  },
  {
    "postcode": "16831",
    "city": "Kleinzerlang"
  },
  {
    "postcode": "16831",
    "city": "Linow"
  },
  {
    "postcode": "16831",
    "city": "Rheinsberg"
  },
  {
    "postcode": "16831",
    "city": "Schwanow"
  },
  {
    "postcode": "16831",
    "city": "Zechlinerhütte"
  },
  {
    "postcode": "16831",
    "city": "Zechow"
  },
  {
    "postcode": "16831",
    "city": "Zühlen bei Neuruppin"
  },
  {
    "postcode": "16831",
    "city": "Ostprignitz-Ruppin"
  },
  {
    "postcode": "16831",
    "city": "Heinrichsdorf"
  },
  {
    "postcode": "16831",
    "city": "Zühlen"
  },
  {
    "postcode": "16831",
    "city": "Luhme"
  },
  {
    "postcode": "16831",
    "city": "Basdorf"
  },
  {
    "postcode": "16831",
    "city": "Berkholzofen"
  },
  {
    "postcode": "16831",
    "city": "Rheinshagen"
  },
  {
    "postcode": "16833",
    "city": "Betzin"
  },
  {
    "postcode": "16833",
    "city": "Brunne bei Fehrbellin"
  },
  {
    "postcode": "16833",
    "city": "Dechtow"
  },
  {
    "postcode": "16833",
    "city": "Fehrbellin"
  },
  {
    "postcode": "16833",
    "city": "Hakenberg bei Fehrbellin"
  },
  {
    "postcode": "16833",
    "city": "Jahnberge"
  },
  {
    "postcode": "16833",
    "city": "Karwesee"
  },
  {
    "postcode": "16833",
    "city": "Königshorst bei Fehrbellin"
  },
  {
    "postcode": "16833",
    "city": "Lentzke"
  },
  {
    "postcode": "16833",
    "city": "Linum"
  },
  {
    "postcode": "16833",
    "city": "Protzen"
  },
  {
    "postcode": "16833",
    "city": "Stöffin"
  },
  {
    "postcode": "16833",
    "city": "Tarmow"
  },
  {
    "postcode": "16833",
    "city": "Walchow"
  },
  {
    "postcode": "16833",
    "city": "Ostprignitz-Ruppin"
  },
  {
    "postcode": "16833",
    "city": "Brunne"
  },
  {
    "postcode": "16833",
    "city": "Hakenberg"
  },
  {
    "postcode": "16833",
    "city": "Königshorst"
  },
  {
    "postcode": "16833",
    "city": "Neuruppin"
  },
  {
    "postcode": "16833",
    "city": "Dammkrug"
  },
  {
    "postcode": "16833",
    "city": "Lobeofsund"
  },
  {
    "postcode": "16833",
    "city": "Fredenhorst"
  },
  {
    "postcode": "16833",
    "city": "Sandhorst"
  },
  {
    "postcode": "16833",
    "city": "Mangelshorst"
  },
  {
    "postcode": "16833",
    "city": "Nordhof"
  },
  {
    "postcode": "16833",
    "city": "Seelenhorst"
  },
  {
    "postcode": "16835",
    "city": "Banzendorf"
  },
  {
    "postcode": "16835",
    "city": "Dierberg"
  },
  {
    "postcode": "16835",
    "city": "Herzberg (Mark)"
  },
  {
    "postcode": "16835",
    "city": "Herzberg"
  },
  {
    "postcode": "16835",
    "city": "Hindenberg bei Neuruppin"
  },
  {
    "postcode": "16835",
    "city": "Keller bei Gransee"
  },
  {
    "postcode": "16835",
    "city": "Klosterheide bei Lindow Mark"
  },
  {
    "postcode": "16835",
    "city": "Klosterheide bei Lindow"
  },
  {
    "postcode": "16835",
    "city": "Lindow (Mark)"
  },
  {
    "postcode": "16835",
    "city": "Lindow"
  },
  {
    "postcode": "16835",
    "city": "Rüthnick"
  },
  {
    "postcode": "16835",
    "city": "Schönberg (Mark)"
  },
  {
    "postcode": "16835",
    "city": "Schönberg"
  },
  {
    "postcode": "16835",
    "city": "Seebeck bei Lindow Mark"
  },
  {
    "postcode": "16835",
    "city": "Seebeck bei Lindow"
  },
  {
    "postcode": "16835",
    "city": "Seebeck-Strubensee"
  },
  {
    "postcode": "16835",
    "city": "Vielitz bei Lindow Mark"
  },
  {
    "postcode": "16835",
    "city": "Vielitz bei Lindow"
  },
  {
    "postcode": "16835",
    "city": "Vielitzsee"
  },
  {
    "postcode": "16835",
    "city": "Wulkow bei Neuruppin"
  },
  {
    "postcode": "16835",
    "city": "Ostprignitz-Ruppin"
  },
  {
    "postcode": "16835",
    "city": "Reinsberg"
  },
  {
    "postcode": "16835",
    "city": "Wulkow"
  },
  {
    "postcode": "16835",
    "city": "Hindenberg"
  },
  {
    "postcode": "16835",
    "city": "Klosterheide"
  },
  {
    "postcode": "16835",
    "city": "Keller"
  },
  {
    "postcode": "16835",
    "city": "Rheinsberg"
  },
  {
    "postcode": "16835",
    "city": "Vielitz"
  },
  {
    "postcode": "16835",
    "city": "Seebeck"
  },
  {
    "postcode": "16835",
    "city": "Strubensee"
  },
  {
    "postcode": "16837",
    "city": "Dorf Zechlin"
  },
  {
    "postcode": "16837",
    "city": "Flecken Zechlin"
  },
  {
    "postcode": "16837",
    "city": "Kagar"
  },
  {
    "postcode": "16837",
    "city": "Luhme"
  },
  {
    "postcode": "16837",
    "city": "Wallitz"
  },
  {
    "postcode": "16837",
    "city": "Zempow"
  },
  {
    "postcode": "16837",
    "city": "Ostprignitz-Ruppin"
  },
  {
    "postcode": "16837",
    "city": "Alt Lutterow"
  },
  {
    "postcode": "16837",
    "city": "Neu Lutterow"
  },
  {
    "postcode": "16837",
    "city": "Reinsberg"
  },
  {
    "postcode": "16837",
    "city": "Heimland"
  },
  {
    "postcode": "16837",
    "city": "Repente"
  },
  {
    "postcode": "16837",
    "city": "Rheinsberg"
  },
  {
    "postcode": "16845",
    "city": "Barsikow"
  },
  {
    "postcode": "16845",
    "city": "Blankenberg bei Neustadt Dosse"
  },
  {
    "postcode": "16845",
    "city": "Blankenberg bei Neustadt"
  },
  {
    "postcode": "16845",
    "city": "Breddin"
  },
  {
    "postcode": "16845",
    "city": "Brunn bei Neustadt Dosse"
  },
  {
    "postcode": "16845",
    "city": "Brunn bei Neustadt"
  },
  {
    "postcode": "16845",
    "city": "Bückwitz"
  },
  {
    "postcode": "16845",
    "city": "Dessow"
  },
  {
    "postcode": "16845",
    "city": "Dreetz bei Neustadt Dosse"
  },
  {
    "postcode": "16845",
    "city": "Dreetz bei Neustadt"
  },
  {
    "postcode": "16845",
    "city": "Ganzer"
  },
  {
    "postcode": "16845",
    "city": "Gartow bei Neustadt Dosse"
  },
  {
    "postcode": "16845",
    "city": "Gartow bei Neustadt"
  },
  {
    "postcode": "16845",
    "city": "Garz bei Neustadt"
  },
  {
    "postcode": "16845",
    "city": "Giesenhorst"
  },
  {
    "postcode": "16845",
    "city": "Gottberg"
  },
  {
    "postcode": "16845",
    "city": "Großderschau"
  },
  {
    "postcode": "16845",
    "city": "Hohenofen bei Neustadt Dosse"
  },
  {
    "postcode": "16845",
    "city": "Hohenofen bei Neustadt"
  },
  {
    "postcode": "16845",
    "city": "Holzhausen bei Neustadt Dosse"
  },
  {
    "postcode": "16845",
    "city": "Holzhausen bei Neustadt"
  },
  {
    "postcode": "16845",
    "city": "Kantow"
  },
  {
    "postcode": "16845",
    "city": "Kerzlin"
  },
  {
    "postcode": "16845",
    "city": "Küdow-Lüchfeld"
  },
  {
    "postcode": "16845",
    "city": "Lögow"
  },
  {
    "postcode": "16845",
    "city": "Lohm"
  },
  {
    "postcode": "16845",
    "city": "Manker"
  },
  {
    "postcode": "16845",
    "city": "Märkisch Linden"
  },
  {
    "postcode": "16845",
    "city": "Nackel"
  },
  {
    "postcode": "16845",
    "city": "Neustadt (Dosse)"
  },
  {
    "postcode": "16845",
    "city": "Neustadt"
  },
  {
    "postcode": "16845",
    "city": "Plänitz-Leddin"
  },
  {
    "postcode": "16845",
    "city": "Roddahn"
  },
  {
    "postcode": "16845",
    "city": "Rohrlack"
  },
  {
    "postcode": "16845",
    "city": "Schönermark bei Neustadt Dosse"
  },
  {
    "postcode": "16845",
    "city": "Schönermark bei Neustadt"
  },
  {
    "postcode": "16845",
    "city": "Segeletz"
  },
  {
    "postcode": "16845",
    "city": "Sieversdorf bei Neustadt Dosse"
  },
  {
    "postcode": "16845",
    "city": "Sieversdorf bei Neustadt"
  },
  {
    "postcode": "16845",
    "city": "Sieversdorf-Hohenofen"
  },
  {
    "postcode": "16845",
    "city": "Stüdenitz"
  },
  {
    "postcode": "16845",
    "city": "Stüdenitz-Schönermark"
  },
  {
    "postcode": "16845",
    "city": "Temnitztal"
  },
  {
    "postcode": "16845",
    "city": "Trieplatz"
  },
  {
    "postcode": "16845",
    "city": "Vichel"
  },
  {
    "postcode": "16845",
    "city": "Wildberg bei Neustadt Dosse"
  },
  {
    "postcode": "16845",
    "city": "Wildberg bei Neustadt"
  },
  {
    "postcode": "16845",
    "city": "Zernitz bei Neustadt Dosse"
  },
  {
    "postcode": "16845",
    "city": "Zernitz bei Neustadt"
  },
  {
    "postcode": "16845",
    "city": "Zernitz-Lohm"
  },
  {
    "postcode": "16845",
    "city": "Havelland"
  },
  {
    "postcode": "16845",
    "city": "Blankenberg"
  },
  {
    "postcode": "16845",
    "city": "Brunn"
  },
  {
    "postcode": "16845",
    "city": "Dreetz"
  },
  {
    "postcode": "16845",
    "city": "Fehrbellin"
  },
  {
    "postcode": "16845",
    "city": "Gartow"
  },
  {
    "postcode": "16845",
    "city": "Garz"
  },
  {
    "postcode": "16845",
    "city": "Küdow"
  },
  {
    "postcode": "16845",
    "city": "Lüchfeld"
  },
  {
    "postcode": "16845",
    "city": "Wildberg"
  },
  {
    "postcode": "16845",
    "city": "Damelack"
  },
  {
    "postcode": "16845",
    "city": "Joachimshof"
  },
  {
    "postcode": "16845",
    "city": "Sophiendorf"
  },
  {
    "postcode": "16845",
    "city": "Voigtsbrügge"
  },
  {
    "postcode": "16845",
    "city": "Metzelthin"
  },
  {
    "postcode": "16845",
    "city": "Bartschendorf"
  },
  {
    "postcode": "16845",
    "city": "Michaelisbruch"
  },
  {
    "postcode": "16845",
    "city": "Siegrothsbruch"
  },
  {
    "postcode": "16845",
    "city": "Altgarz"
  },
  {
    "postcode": "16845",
    "city": "Rübehorst"
  },
  {
    "postcode": "16845",
    "city": "Emilienhof"
  },
  {
    "postcode": "16845",
    "city": "Plänitz"
  },
  {
    "postcode": "16845",
    "city": "Babe"
  },
  {
    "postcode": "16845",
    "city": "Helenenhof"
  },
  {
    "postcode": "16845",
    "city": "Leddin"
  },
  {
    "postcode": "16845",
    "city": "Neuhof"
  },
  {
    "postcode": "16845",
    "city": "Neuroddahn"
  },
  {
    "postcode": "16845",
    "city": "Schwarzwasser"
  },
  {
    "postcode": "16845",
    "city": "Hohenofen"
  },
  {
    "postcode": "16845",
    "city": "Sieversdorf"
  },
  {
    "postcode": "16845",
    "city": "Schönermark"
  },
  {
    "postcode": "16845",
    "city": "Zernitz"
  },
  {
    "postcode": "16845",
    "city": "Goldbeck"
  },
  {
    "postcode": "16845",
    "city": "Neuendorf"
  },
  {
    "postcode": "16845",
    "city": "Koppenbrück"
  },
  {
    "postcode": "16845",
    "city": "Bahnhof Zernitz"
  },
  {
    "postcode": "16866",
    "city": "Barenthin"
  },
  {
    "postcode": "16866",
    "city": "Bork-Lellichow"
  },
  {
    "postcode": "16866",
    "city": "Dannenwalde"
  },
  {
    "postcode": "16866",
    "city": "Dannenwalde bei Neustadt Dosse"
  },
  {
    "postcode": "16866",
    "city": "Dannenwalde bei Neustadt"
  },
  {
    "postcode": "16866",
    "city": "Demerthin"
  },
  {
    "postcode": "16866",
    "city": "Döllen bei Neustadt Dosse"
  },
  {
    "postcode": "16866",
    "city": "Döllen bei Neustadt"
  },
  {
    "postcode": "16866",
    "city": "Drewen"
  },
  {
    "postcode": "16866",
    "city": "Görike"
  },
  {
    "postcode": "16866",
    "city": "Granzow bei Neustadt Dosse"
  },
  {
    "postcode": "16866",
    "city": "Granzow bei Neustadt"
  },
  {
    "postcode": "16866",
    "city": "Groß Welle"
  },
  {
    "postcode": "16866",
    "city": "Gumtow"
  },
  {
    "postcode": "16866",
    "city": "Holzhausen bei Neustadt Dosse"
  },
  {
    "postcode": "16866",
    "city": "Holzhausen bei Neustadt"
  },
  {
    "postcode": "16866",
    "city": "Kolrep"
  },
  {
    "postcode": "16866",
    "city": "Kötzlin"
  },
  {
    "postcode": "16866",
    "city": "Kunow"
  },
  {
    "postcode": "16866",
    "city": "Kunow bei Neustadt Dosse"
  },
  {
    "postcode": "16866",
    "city": "Kunow bei Neustadt"
  },
  {
    "postcode": "16866",
    "city": "Kyritz"
  },
  {
    "postcode": "16866",
    "city": "Rehfeld-Berlitt"
  },
  {
    "postcode": "16866",
    "city": "Schönberg bei Neustadt Dosse"
  },
  {
    "postcode": "16866",
    "city": "Schönberg bei Neustadt"
  },
  {
    "postcode": "16866",
    "city": "Schönhagen bei Neustadt Dosse"
  },
  {
    "postcode": "16866",
    "city": "Schönhagen bei Neustadt"
  },
  {
    "postcode": "16866",
    "city": "Schrepkow"
  },
  {
    "postcode": "16866",
    "city": "Teetz / Ganz"
  },
  {
    "postcode": "16866",
    "city": "Teetz"
  },
  {
    "postcode": "16866",
    "city": "Vehlin"
  },
  {
    "postcode": "16866",
    "city": "Vehlow"
  },
  {
    "postcode": "16866",
    "city": "Wutike"
  },
  {
    "postcode": "16866",
    "city": "Ostprignitz-Ruppin"
  },
  {
    "postcode": "16866",
    "city": "Schönberg"
  },
  {
    "postcode": "16866",
    "city": "Sechzehneichen"
  },
  {
    "postcode": "16866",
    "city": "Tornow"
  },
  {
    "postcode": "16866",
    "city": "Döllen"
  },
  {
    "postcode": "16866",
    "city": "Breitenfeld"
  },
  {
    "postcode": "16866",
    "city": "Schönebeck"
  },
  {
    "postcode": "16866",
    "city": "Granzow"
  },
  {
    "postcode": "16866",
    "city": "Beckenthin"
  },
  {
    "postcode": "16866",
    "city": "Brüsenhagen"
  },
  {
    "postcode": "16866",
    "city": "Bärensprung"
  },
  {
    "postcode": "16866",
    "city": "Krams"
  },
  {
    "postcode": "16866",
    "city": "Schönhagen"
  },
  {
    "postcode": "16866",
    "city": "Zarenthin"
  },
  {
    "postcode": "16866",
    "city": "Friedheim"
  },
  {
    "postcode": "16866",
    "city": "Neu Schrepkow"
  },
  {
    "postcode": "16866",
    "city": "Klein Schönhagen"
  },
  {
    "postcode": "16866",
    "city": "Steinberg"
  },
  {
    "postcode": "16866",
    "city": "Gantikow"
  },
  {
    "postcode": "16866",
    "city": "Bork"
  },
  {
    "postcode": "16866",
    "city": "Berlitt"
  },
  {
    "postcode": "16866",
    "city": "Lellichow"
  },
  {
    "postcode": "16866",
    "city": "Mechow"
  },
  {
    "postcode": "16866",
    "city": "Ganz"
  },
  {
    "postcode": "16866",
    "city": "Holzhausen"
  },
  {
    "postcode": "16866",
    "city": "Rehfeld"
  },
  {
    "postcode": "16866",
    "city": "Wulkow"
  },
  {
    "postcode": "16866",
    "city": "Tramnitz"
  },
  {
    "postcode": "16868",
    "city": "Bantikow"
  },
  {
    "postcode": "16868",
    "city": "Wusterhausen / Dosse"
  },
  {
    "postcode": "16868",
    "city": "Wusterhausen"
  },
  {
    "postcode": "16868",
    "city": "Ostprignitz-Ruppin"
  },
  {
    "postcode": "16868",
    "city": "Läsikow"
  },
  {
    "postcode": "16909",
    "city": "Babitz"
  },
  {
    "postcode": "16909",
    "city": "Berlinchen"
  },
  {
    "postcode": "16909",
    "city": "Biesen bei Wittstock Dosse"
  },
  {
    "postcode": "16909",
    "city": "Biesen bei Wittstock"
  },
  {
    "postcode": "16909",
    "city": "Blandikow"
  },
  {
    "postcode": "16909",
    "city": "Blesendorf"
  },
  {
    "postcode": "16909",
    "city": "Christdorf"
  },
  {
    "postcode": "16909",
    "city": "Dossow"
  },
  {
    "postcode": "16909",
    "city": "Dranse"
  },
  {
    "postcode": "16909",
    "city": "Fretzdorf"
  },
  {
    "postcode": "16909",
    "city": "Gadow bei Wittstock"
  },
  {
    "postcode": "16909",
    "city": "Goldbeck bei Wittstock"
  },
  {
    "postcode": "16909",
    "city": "Grabow bei Blumenthal"
  },
  {
    "postcode": "16909",
    "city": "Groß Haßlow"
  },
  {
    "postcode": "16909",
    "city": "Heiligengrabe"
  },
  {
    "postcode": "16909",
    "city": "Herzsprung bei Wittstock"
  },
  {
    "postcode": "16909",
    "city": "Jabel bei Wittstock"
  },
  {
    "postcode": "16909",
    "city": "Königsberg"
  },
  {
    "postcode": "16909",
    "city": "Königsberg bei Wittstock"
  },
  {
    "postcode": "16909",
    "city": "Liebenthal bei Wittstock"
  },
  {
    "postcode": "16909",
    "city": "Maulbeerwalde"
  },
  {
    "postcode": "16909",
    "city": "Niemerlang"
  },
  {
    "postcode": "16909",
    "city": "Papenbruch"
  },
  {
    "postcode": "16909",
    "city": "Rossow bei Wittstock"
  },
  {
    "postcode": "16909",
    "city": "Schweinrich"
  },
  {
    "postcode": "16909",
    "city": "Sewekow"
  },
  {
    "postcode": "16909",
    "city": "Wernikow"
  },
  {
    "postcode": "16909",
    "city": "Wittstock / Dosse"
  },
  {
    "postcode": "16909",
    "city": "Wittstock"
  },
  {
    "postcode": "16909",
    "city": "Wulfersdorf bei Wittstock"
  },
  {
    "postcode": "16909",
    "city": "Zaatzke"
  },
  {
    "postcode": "16909",
    "city": "Zootzen bei Wittstock"
  },
  {
    "postcode": "16909",
    "city": "Ostprignitz-Ruppin"
  },
  {
    "postcode": "16909",
    "city": "Wittstock/Dosse"
  },
  {
    "postcode": "16909",
    "city": "Jabel"
  },
  {
    "postcode": "16909",
    "city": "Herzsprung"
  },
  {
    "postcode": "16909",
    "city": "Liebenthal"
  },
  {
    "postcode": "16909",
    "city": "Blumenthal"
  },
  {
    "postcode": "16909",
    "city": "Grabow"
  },
  {
    "postcode": "16909",
    "city": "Dahlhausen"
  },
  {
    "postcode": "16909",
    "city": "Glienicke"
  },
  {
    "postcode": "16909",
    "city": "Horst"
  },
  {
    "postcode": "16909",
    "city": "Rosenwinkel"
  },
  {
    "postcode": "16909",
    "city": "Wulfersdorf"
  },
  {
    "postcode": "16909",
    "city": "Freyenstein"
  },
  {
    "postcode": "16909",
    "city": "Klein Haßlow"
  },
  {
    "postcode": "16909",
    "city": "Biesen"
  },
  {
    "postcode": "16909",
    "city": "Zempow"
  },
  {
    "postcode": "16909",
    "city": "Eichenfelde"
  },
  {
    "postcode": "16909",
    "city": "Rossow"
  },
  {
    "postcode": "16909",
    "city": "Gadow"
  },
  {
    "postcode": "16909",
    "city": "Goldbeck"
  },
  {
    "postcode": "16909",
    "city": "Zootzen"
  },
  {
    "postcode": "16918",
    "city": "Freyenstein"
  },
  {
    "postcode": "16921",
    "city": "Alt Krüssow"
  },
  {
    "postcode": "16928",
    "city": "Alt Krüssow"
  },
  {
    "postcode": "16928",
    "city": "Beveringen"
  },
  {
    "postcode": "16928",
    "city": "Biesterholz"
  },
  {
    "postcode": "16928",
    "city": "Blumenthal bei Pritzwalk"
  },
  {
    "postcode": "16928",
    "city": "Boddin"
  },
  {
    "postcode": "16928",
    "city": "Boddin-Langnow"
  },
  {
    "postcode": "16928",
    "city": "Buchholz bei Pritzwalk"
  },
  {
    "postcode": "16928",
    "city": "Falkenhagen bei Pritzwalk"
  },
  {
    "postcode": "16928",
    "city": "Gerdshagen bei Pritzwalk"
  },
  {
    "postcode": "16928",
    "city": "Giesensdorf bei Pritzwalk"
  },
  {
    "postcode": "16928",
    "city": "Groß Pankow (Prignitz)"
  },
  {
    "postcode": "16928",
    "city": "Groß Pankow"
  },
  {
    "postcode": "16928",
    "city": "Groß Woltersdorf Prignitz"
  },
  {
    "postcode": "16928",
    "city": "Groß Woltersdorf"
  },
  {
    "postcode": "16928",
    "city": "Helle bei Pritzwalk"
  },
  {
    "postcode": "16928",
    "city": "Hoppenrade bei Pritzwalk"
  },
  {
    "postcode": "16928",
    "city": "Kammermark"
  },
  {
    "postcode": "16928",
    "city": "Kehrberg"
  },
  {
    "postcode": "16928",
    "city": "Kemnitz bei Pritzwalk"
  },
  {
    "postcode": "16928",
    "city": "Kiebitzberg Gemeinde Beveringen"
  },
  {
    "postcode": "16928",
    "city": "Kiebitzberg"
  },
  {
    "postcode": "16928",
    "city": "Klein Langerwisch"
  },
  {
    "postcode": "16928",
    "city": "Klein Woltersdorf bei Pritzwalk"
  },
  {
    "postcode": "16928",
    "city": "Kuhbier"
  },
  {
    "postcode": "16928",
    "city": "Kuhsdorf"
  },
  {
    "postcode": "16928",
    "city": "Lindenberg Prignitz"
  },
  {
    "postcode": "16928",
    "city": "Lindenberg"
  },
  {
    "postcode": "16928",
    "city": "Mesendorf"
  },
  {
    "postcode": "16928",
    "city": "Preddöhl"
  },
  {
    "postcode": "16928",
    "city": "Pritzwalk"
  },
  {
    "postcode": "16928",
    "city": "Rohlsdorf"
  },
  {
    "postcode": "16928",
    "city": "Rosenwinkel"
  },
  {
    "postcode": "16928",
    "city": "Sadenbeck"
  },
  {
    "postcode": "16928",
    "city": "Schönebeck bei Pritzwalk"
  },
  {
    "postcode": "16928",
    "city": "Schönhagen an der Dömnitz"
  },
  {
    "postcode": "16928",
    "city": "Steffenshagen bei Pritzwalk"
  },
  {
    "postcode": "16928",
    "city": "Tüchen"
  },
  {
    "postcode": "16928",
    "city": "Vettin"
  },
  {
    "postcode": "16928",
    "city": "Wilmersdorf bei Pritzwalk"
  },
  {
    "postcode": "16928",
    "city": "Prignitz"
  },
  {
    "postcode": "16928",
    "city": "Gerdshagen"
  },
  {
    "postcode": "16928",
    "city": "Rapshagen"
  },
  {
    "postcode": "16928",
    "city": "Struck"
  },
  {
    "postcode": "16928",
    "city": "Giesenhagen"
  },
  {
    "postcode": "16928",
    "city": "Helle"
  },
  {
    "postcode": "16928",
    "city": "Groß Langerwisch"
  },
  {
    "postcode": "16928",
    "city": "Langnow"
  },
  {
    "postcode": "16928",
    "city": "Brünkendorf"
  },
  {
    "postcode": "16928",
    "city": "Guhlsdorf"
  },
  {
    "postcode": "16928",
    "city": "Steinberg"
  },
  {
    "postcode": "16928",
    "city": "Hohenvier"
  },
  {
    "postcode": "16928",
    "city": "Wolfshagen"
  },
  {
    "postcode": "16928",
    "city": "Baek"
  },
  {
    "postcode": "16928",
    "city": "Retzin"
  },
  {
    "postcode": "16928",
    "city": "Klein Woltersdorf"
  },
  {
    "postcode": "16928",
    "city": "Strigleben"
  },
  {
    "postcode": "16928",
    "city": "Bullendorf"
  },
  {
    "postcode": "16928",
    "city": "Klein Gottschow"
  },
  {
    "postcode": "16928",
    "city": "Reckenthin"
  },
  {
    "postcode": "16928",
    "city": "Gulow"
  },
  {
    "postcode": "16928",
    "city": "Tangendorf"
  },
  {
    "postcode": "16928",
    "city": "Heidelberg"
  },
  {
    "postcode": "16928",
    "city": "Hellburg"
  },
  {
    "postcode": "16928",
    "city": "Tacken"
  },
  {
    "postcode": "16928",
    "city": "Horst"
  },
  {
    "postcode": "16928",
    "city": "Luggendorf"
  },
  {
    "postcode": "16928",
    "city": "Neudorf"
  },
  {
    "postcode": "16928",
    "city": "Klein Linde"
  },
  {
    "postcode": "16928",
    "city": "Kreuzburg"
  },
  {
    "postcode": "16928",
    "city": "Klenzenhof"
  },
  {
    "postcode": "16928",
    "city": "Simonshagen"
  },
  {
    "postcode": "16928",
    "city": "Seddin"
  },
  {
    "postcode": "16928",
    "city": "Dannhof"
  },
  {
    "postcode": "16928",
    "city": "Falkenhagen"
  },
  {
    "postcode": "16928",
    "city": "Wilmersdorf"
  },
  {
    "postcode": "16928",
    "city": "Bölzke"
  },
  {
    "postcode": "16928",
    "city": "Giesensdorf"
  },
  {
    "postcode": "16928",
    "city": "Buchholz"
  },
  {
    "postcode": "16928",
    "city": "Seefeld"
  },
  {
    "postcode": "16928",
    "city": "Kemnitz"
  },
  {
    "postcode": "16928",
    "city": "Birkenfelde"
  },
  {
    "postcode": "16928",
    "city": "Könkendorf"
  },
  {
    "postcode": "16928",
    "city": "Sarnow"
  },
  {
    "postcode": "16928",
    "city": "Schönhagen"
  },
  {
    "postcode": "16928",
    "city": "Steffenshagen"
  },
  {
    "postcode": "16928",
    "city": "Hasenwinkel"
  },
  {
    "postcode": "16928",
    "city": "Neu Krüssow"
  },
  {
    "postcode": "16928",
    "city": "Kuckuck"
  },
  {
    "postcode": "16928",
    "city": "Neu Kemnitz"
  },
  {
    "postcode": "16928",
    "city": "Neuhausen"
  },
  {
    "postcode": "16928",
    "city": "Neuhof"
  },
  {
    "postcode": "16928",
    "city": "Eggersdorf"
  },
  {
    "postcode": "16928",
    "city": "Streckenthin"
  },
  {
    "postcode": "16945",
    "city": "Frehne"
  },
  {
    "postcode": "16945",
    "city": "Grabow-Buckow"
  },
  {
    "postcode": "16945",
    "city": "Halenbeck"
  },
  {
    "postcode": "16945",
    "city": "Halenbeck-Rohlsdorf"
  },
  {
    "postcode": "16945",
    "city": "Jännersdorf"
  },
  {
    "postcode": "16945",
    "city": "Krempendorf"
  },
  {
    "postcode": "16945",
    "city": "Kümmernitztal"
  },
  {
    "postcode": "16945",
    "city": "Marienfließ"
  },
  {
    "postcode": "16945",
    "city": "Meyenburg Prignitz"
  },
  {
    "postcode": "16945",
    "city": "Meyenburg"
  },
  {
    "postcode": "16945",
    "city": "Preddöhl"
  },
  {
    "postcode": "16945",
    "city": "Schmolde"
  },
  {
    "postcode": "16945",
    "city": "Stepenitz"
  },
  {
    "postcode": "16945",
    "city": "Prignitz"
  },
  {
    "postcode": "16945",
    "city": "Ellershagen"
  },
  {
    "postcode": "16945",
    "city": "Brügge"
  },
  {
    "postcode": "16945",
    "city": "Rohlsdorf"
  },
  {
    "postcode": "16945",
    "city": "Warnsdorf"
  },
  {
    "postcode": "16945",
    "city": "Grabow"
  },
  {
    "postcode": "16945",
    "city": "Felsenhagen"
  },
  {
    "postcode": "16945",
    "city": "Buckow"
  },
  {
    "postcode": "16945",
    "city": "Kuhwalk"
  },
  {
    "postcode": "16945",
    "city": "Neu Redlin"
  },
  {
    "postcode": "16945",
    "city": "Penzlin-Süd"
  },
  {
    "postcode": "16949",
    "city": "Hülsebeck"
  },
  {
    "postcode": "16949",
    "city": "Jännersdorf"
  },
  {
    "postcode": "16949",
    "city": "Laaske"
  },
  {
    "postcode": "16949",
    "city": "Lockstädt"
  },
  {
    "postcode": "16949",
    "city": "Lütkendorf"
  },
  {
    "postcode": "16949",
    "city": "Mansfeld bei Pritzwalk"
  },
  {
    "postcode": "16949",
    "city": "Mertensdorf"
  },
  {
    "postcode": "16949",
    "city": "Nettelbeck"
  },
  {
    "postcode": "16949",
    "city": "Porep"
  },
  {
    "postcode": "16949",
    "city": "Putlitz"
  },
  {
    "postcode": "16949",
    "city": "Sagast"
  },
  {
    "postcode": "16949",
    "city": "Silmersdorf"
  },
  {
    "postcode": "16949",
    "city": "Telschow-Weitgendorf"
  },
  {
    "postcode": "16949",
    "city": "Triglitz"
  },
  {
    "postcode": "16949",
    "city": "Prignitz"
  },
  {
    "postcode": "16949",
    "city": "Mansfeld"
  },
  {
    "postcode": "16949",
    "city": "Weitgendorf"
  },
  {
    "postcode": "16949",
    "city": "Telschow"
  },
  {
    "postcode": "16949",
    "city": "Klein Triglitz"
  }
]