[
  {
    "postcode": "9306",
    "city": "Erlau bei Rochlitz"
  },
  {
    "postcode": "9306",
    "city": "Königsfeld bei Rochlitz"
  },
  {
    "postcode": "9306",
    "city": "Königshain-Wiederau"
  },
  {
    "postcode": "9306",
    "city": "Rochlitz"
  },
  {
    "postcode": "9306",
    "city": "Seelitz bei Rochlitz"
  },
  {
    "postcode": "9306",
    "city": "Thalheim / Erzgebirge"
  },
  {
    "postcode": "9306",
    "city": "Thalheim"
  },
  {
    "postcode": "9306",
    "city": "Wechselburg"
  },
  {
    "postcode": "9306",
    "city": "Zettlitz bei Rochlitz"
  },
  {
    "postcode": "9306",
    "city": "Zschadraß"
  },
  {
    "postcode": "9306",
    "city": "Erzgebirgskreis"
  },
  {
    "postcode": "9306",
    "city": "Doberenz"
  },
  {
    "postcode": "9306",
    "city": "Erlau"
  },
  {
    "postcode": "9306",
    "city": "Königsfeld"
  },
  {
    "postcode": "9306",
    "city": "Köttwitzsch"
  },
  {
    "postcode": "9306",
    "city": "Leupahn"
  },
  {
    "postcode": "9306",
    "city": "Leutenhain"
  },
  {
    "postcode": "9306",
    "city": "Schwarzbach"
  },
  {
    "postcode": "9306",
    "city": "Seelitz"
  },
  {
    "postcode": "9306",
    "city": "Seupahn"
  },
  {
    "postcode": "9306",
    "city": "Stollsdorf"
  },
  {
    "postcode": "9306",
    "city": "Weiditz"
  },
  {
    "postcode": "9306",
    "city": "Weißbach"
  },
  {
    "postcode": "9306",
    "city": "Zettlitz"
  },
  {
    "postcode": "9306",
    "city": "Theesdorf"
  },
  {
    "postcode": "9306",
    "city": "Beerwalde"
  },
  {
    "postcode": "9306",
    "city": "Sachsendorf"
  },
  {
    "postcode": "9306",
    "city": "Neugepülzig"
  },
  {
    "postcode": "9306",
    "city": "Milkau"
  },
  {
    "postcode": "9306",
    "city": "Crossen"
  },
  {
    "postcode": "9306",
    "city": "Schweikershain"
  },
  {
    "postcode": "9306",
    "city": "Naundorf"
  },
  {
    "postcode": "9306",
    "city": "Wiederau"
  },
  {
    "postcode": "9306",
    "city": "Königshain"
  },
  {
    "postcode": "9306",
    "city": "Stein"
  },
  {
    "postcode": "9306",
    "city": "Topfseifersdorf"
  },
  {
    "postcode": "9306",
    "city": "Noßwitz"
  },
  {
    "postcode": "9306",
    "city": "Zaßnitz"
  },
  {
    "postcode": "9306",
    "city": "Penna"
  },
  {
    "postcode": "9306",
    "city": "Breitenborn"
  },
  {
    "postcode": "9306",
    "city": "Stöbnig"
  },
  {
    "postcode": "9306",
    "city": "Wittgendorf"
  },
  {
    "postcode": "9306",
    "city": "Neuzschaagwitz"
  },
  {
    "postcode": "9306",
    "city": "Pürsten"
  },
  {
    "postcode": "9306",
    "city": "Kolkau"
  },
  {
    "postcode": "9306",
    "city": "Sörnzig"
  },
  {
    "postcode": "9306",
    "city": "Döhlen"
  },
  {
    "postcode": "9306",
    "city": "Steudten"
  },
  {
    "postcode": "9306",
    "city": "Bernsdorf"
  },
  {
    "postcode": "9306",
    "city": "Biesern"
  },
  {
    "postcode": "9306",
    "city": "Beedeln"
  },
  {
    "postcode": "9306",
    "city": "Gröblitz"
  },
  {
    "postcode": "9306",
    "city": "Fischheim"
  },
  {
    "postcode": "9306",
    "city": "Zschaagwitz"
  },
  {
    "postcode": "9306",
    "city": "Zschauitz"
  },
  {
    "postcode": "9306",
    "city": "Städten"
  },
  {
    "postcode": "9306",
    "city": "Zetteritz"
  },
  {
    "postcode": "9306",
    "city": "Köttern"
  },
  {
    "postcode": "9306",
    "city": "Gröbschütz"
  },
  {
    "postcode": "9306",
    "city": "Winkeln"
  },
  {
    "postcode": "9306",
    "city": "Neuwerder"
  },
  {
    "postcode": "9306",
    "city": "Seebitzschen"
  },
  {
    "postcode": "9306",
    "city": "Neudörfchen"
  },
  {
    "postcode": "9306",
    "city": "Zöllnitz"
  },
  {
    "postcode": "9306",
    "city": "Spernsdorf"
  },
  {
    "postcode": "9306",
    "city": "Altzschillen"
  },
  {
    "postcode": "9306",
    "city": "Zschoppelshain"
  },
  {
    "postcode": "9306",
    "city": "Carsdorf"
  },
  {
    "postcode": "9306",
    "city": "Corba"
  },
  {
    "postcode": "9306",
    "city": "Seitenhain"
  },
  {
    "postcode": "9306",
    "city": "Göhren"
  },
  {
    "postcode": "9306",
    "city": "Nöbeln"
  },
  {
    "postcode": "9306",
    "city": "Mutzscheroda"
  },
  {
    "postcode": "9306",
    "city": "Meusen"
  },
  {
    "postcode": "9306",
    "city": "Hartha"
  },
  {
    "postcode": "9306",
    "city": "Göppersdorf"
  },
  {
    "postcode": "9306",
    "city": "Rüx"
  },
  {
    "postcode": "9306",
    "city": "Hermsdorf"
  },
  {
    "postcode": "9306",
    "city": "Ceesewitz"
  },
  {
    "postcode": "9306",
    "city": "Methau"
  },
  {
    "postcode": "9306",
    "city": "Kralapp"
  },
  {
    "postcode": "9322",
    "city": "Penig"
  },
  {
    "postcode": "9322",
    "city": "Mittelsachsen"
  },
  {
    "postcode": "9322",
    "city": "Niedersteinbach"
  },
  {
    "postcode": "9322",
    "city": "Langenleuba-Oberhain"
  },
  {
    "postcode": "9322",
    "city": "Arnsdorf"
  },
  {
    "postcode": "9322",
    "city": "Wernsdorf"
  },
  {
    "postcode": "9322",
    "city": "Chursdorf"
  },
  {
    "postcode": "9322",
    "city": "Obergräfenhain"
  },
  {
    "postcode": "9322",
    "city": "Zinnberg"
  },
  {
    "postcode": "9322",
    "city": "Tauscha"
  },
  {
    "postcode": "9322",
    "city": "Thierbach"
  },
  {
    "postcode": "9322",
    "city": "Amerika"
  },
  {
    "postcode": "9322",
    "city": "Markersdorf"
  },
  {
    "postcode": "9326",
    "city": "Geringswalde"
  },
  {
    "postcode": "9326",
    "city": "Mittelsachsen"
  },
  {
    "postcode": "9326",
    "city": "Aitzendorf"
  },
  {
    "postcode": "9326",
    "city": "Dittmannsdorf"
  },
  {
    "postcode": "9326",
    "city": "Altgeringswalde"
  },
  {
    "postcode": "9326",
    "city": "Hoyersdorf"
  },
  {
    "postcode": "9326",
    "city": "Arras"
  },
  {
    "postcode": "9326",
    "city": "Holzhausen"
  },
  {
    "postcode": "9326",
    "city": "Neuwallwitz"
  },
  {
    "postcode": "9328",
    "city": "Lunzenau"
  },
  {
    "postcode": "9328",
    "city": "Mittelsachsen"
  },
  {
    "postcode": "9328",
    "city": "Berthelsdorf"
  },
  {
    "postcode": "9328",
    "city": "Cossen"
  },
  {
    "postcode": "9328",
    "city": "Göritzhain"
  },
  {
    "postcode": "9328",
    "city": "Rochsburg"
  },
  {
    "postcode": "9328",
    "city": "Elsdorf"
  },
  {
    "postcode": "9328",
    "city": "Himmelhartha"
  },
  {
    "postcode": "9337",
    "city": "Bernsdorf bei Hohenstein-Ernstthal"
  },
  {
    "postcode": "9337",
    "city": "Callenberg bei Hohenstein-Ernstthal"
  },
  {
    "postcode": "9337",
    "city": "Hohenstein-Ernstthal"
  },
  {
    "postcode": "9337",
    "city": "Zwickau"
  },
  {
    "postcode": "9337",
    "city": "Bernsdorf"
  },
  {
    "postcode": "9337",
    "city": "Callenberg"
  },
  {
    "postcode": "9337",
    "city": "Hermsdorf"
  },
  {
    "postcode": "9337",
    "city": "Rüsdorf"
  },
  {
    "postcode": "9337",
    "city": "Langenberg"
  },
  {
    "postcode": "9337",
    "city": "Falken"
  },
  {
    "postcode": "9337",
    "city": "Reichenbach"
  },
  {
    "postcode": "9337",
    "city": "Grumbach"
  },
  {
    "postcode": "9337",
    "city": "Langenchursdorf"
  },
  {
    "postcode": "9337",
    "city": "Meinsdorf"
  },
  {
    "postcode": "9337",
    "city": "Wüstenbrand"
  },
  {
    "postcode": "9350",
    "city": "Lichtenstein / Sachsen"
  },
  {
    "postcode": "9350",
    "city": "Lichtenstein"
  },
  {
    "postcode": "9350",
    "city": "Zwickau"
  },
  {
    "postcode": "9350",
    "city": "Lichtenstein/Sa."
  },
  {
    "postcode": "9350",
    "city": "Rödlitz"
  },
  {
    "postcode": "9350",
    "city": "Heinrichsort"
  },
  {
    "postcode": "9353",
    "city": "Oberlungwitz"
  },
  {
    "postcode": "9353",
    "city": "Zwickau"
  },
  {
    "postcode": "9355",
    "city": "Gersdorf bei Hohenstein-Ernstthal"
  },
  {
    "postcode": "9355",
    "city": "Zwickau"
  },
  {
    "postcode": "9355",
    "city": "Gersdorf"
  },
  {
    "postcode": "9356",
    "city": "Sankt Egidien"
  },
  {
    "postcode": "9356",
    "city": "Zwickau"
  },
  {
    "postcode": "9356",
    "city": "St. Egidien"
  },
  {
    "postcode": "9356",
    "city": "Kuhschnappel"
  },
  {
    "postcode": "9356",
    "city": "Lobsdorf"
  },
  {
    "postcode": "9366",
    "city": "Niederdorf bei Stollberg Erzgebirge"
  },
  {
    "postcode": "9366",
    "city": "Niederdorf bei Stollberg"
  },
  {
    "postcode": "9366",
    "city": "Stollberg / Erzgebirge"
  },
  {
    "postcode": "9366",
    "city": "Stollberg"
  },
  {
    "postcode": "9366",
    "city": "Erzgebirgskreis"
  },
  {
    "postcode": "9366",
    "city": "Niederdorf"
  },
  {
    "postcode": "9366",
    "city": "Stollberg/Erzgeb."
  },
  {
    "postcode": "9366",
    "city": "Mitteldorf"
  },
  {
    "postcode": "9366",
    "city": "Oberdorf"
  },
  {
    "postcode": "9366",
    "city": "Beutha"
  },
  {
    "postcode": "9366",
    "city": "Hoheneck"
  },
  {
    "postcode": "9366",
    "city": "Gablenz"
  },
  {
    "postcode": "9366",
    "city": "Raum"
  },
  {
    "postcode": "9376",
    "city": "Oelsnitz / Erzgebirge"
  },
  {
    "postcode": "9376",
    "city": "Oelsnitz"
  },
  {
    "postcode": "9376",
    "city": "Erzgebirgskreis"
  },
  {
    "postcode": "9376",
    "city": "Oelsnitz/Erzgeb."
  },
  {
    "postcode": "9376",
    "city": "Neuwürschnitz"
  },
  {
    "postcode": "9380",
    "city": "Thalheim / Erzgebirge"
  },
  {
    "postcode": "9380",
    "city": "Thalheim"
  },
  {
    "postcode": "9380",
    "city": "Erzgebirgskreis"
  },
  {
    "postcode": "9385",
    "city": "Erlbach-Kirchberg"
  },
  {
    "postcode": "9385",
    "city": "Lugau / Erzgebirge"
  },
  {
    "postcode": "9385",
    "city": "Lugau"
  },
  {
    "postcode": "9385",
    "city": "Erzgebirgskreis"
  },
  {
    "postcode": "9385",
    "city": "Ursprung"
  },
  {
    "postcode": "9387",
    "city": "Jahnsdorf / Erzgebirge"
  },
  {
    "postcode": "9387",
    "city": "Jahnsdorf"
  },
  {
    "postcode": "9387",
    "city": "Erzgebirgskreis"
  },
  {
    "postcode": "9387",
    "city": "Jahnsdorf/Erzgeb."
  },
  {
    "postcode": "9387",
    "city": "Seifersdorf"
  },
  {
    "postcode": "9387",
    "city": "Leukersdorf"
  },
  {
    "postcode": "9387",
    "city": "Pfaffenhain"
  },
  {
    "postcode": "9390",
    "city": "Gornsdorf"
  },
  {
    "postcode": "9390",
    "city": "Erzgebirgskreis"
  },
  {
    "postcode": "9392",
    "city": "Auerbach Erzgebirge"
  },
  {
    "postcode": "9392",
    "city": "Auerbach"
  },
  {
    "postcode": "9392",
    "city": "Erzgebirgskreis"
  },
  {
    "postcode": "9394",
    "city": "Hohndorf bei Stollberg Erzgebirge"
  },
  {
    "postcode": "9394",
    "city": "Hohndorf bei Stollberg"
  },
  {
    "postcode": "9394",
    "city": "Erzgebirgskreis"
  },
  {
    "postcode": "9394",
    "city": "Hohndorf"
  },
  {
    "postcode": "9395",
    "city": "Hormersdorf Erzgebirge"
  },
  {
    "postcode": "9395",
    "city": "Hormersdorf"
  },
  {
    "postcode": "9399",
    "city": "Niederwürschnitz"
  },
  {
    "postcode": "9399",
    "city": "Erzgebirgskreis"
  },
  {
    "postcode": "93047",
    "city": "Regensburg"
  },
  {
    "postcode": "93047",
    "city": "Innenstadt"
  },
  {
    "postcode": "93047",
    "city": "Ostenviertel"
  },
  {
    "postcode": "93047",
    "city": "Westenviertel"
  },
  {
    "postcode": "93049",
    "city": "Dechbetten"
  },
  {
    "postcode": "93049",
    "city": "Großprüfening"
  },
  {
    "postcode": "93049",
    "city": "Königswiesen"
  },
  {
    "postcode": "93049",
    "city": "Regensburg"
  },
  {
    "postcode": "93049",
    "city": "Westenviertel"
  },
  {
    "postcode": "93049",
    "city": "Großprüfening-Dechbetten-Königswiesen"
  },
  {
    "postcode": "93049",
    "city": "Innenstadt"
  },
  {
    "postcode": "93051",
    "city": "Dechbetten"
  },
  {
    "postcode": "93051",
    "city": "Großprüfening"
  },
  {
    "postcode": "93051",
    "city": "Königswiesen"
  },
  {
    "postcode": "93051",
    "city": "Regensburg"
  },
  {
    "postcode": "93051",
    "city": "Ziegetsdorf"
  },
  {
    "postcode": "93051",
    "city": "Kumpfmühl-Ziegetsdorf-Neuprüll"
  },
  {
    "postcode": "93051",
    "city": "Großprüfening-Dechbetten-Königswiesen"
  },
  {
    "postcode": "93051",
    "city": "Galgenberg"
  },
  {
    "postcode": "93053",
    "city": "Regensburg"
  },
  {
    "postcode": "93053",
    "city": "Ziegetsdorf"
  },
  {
    "postcode": "93053",
    "city": "Oberisling-Graß"
  },
  {
    "postcode": "93053",
    "city": "Kasernenviertel"
  },
  {
    "postcode": "93053",
    "city": "Galgenberg"
  },
  {
    "postcode": "93053",
    "city": "Kumpfmühl-Ziegetsdorf-Neuprüll"
  },
  {
    "postcode": "93055",
    "city": "Brandlberg"
  },
  {
    "postcode": "93055",
    "city": "Irlmauth"
  },
  {
    "postcode": "93055",
    "city": "Keilberg"
  },
  {
    "postcode": "93055",
    "city": "Regensburg"
  },
  {
    "postcode": "93055",
    "city": "Schwabelweis"
  },
  {
    "postcode": "93055",
    "city": "Tegernheim"
  },
  {
    "postcode": "93055",
    "city": "Ostenviertel"
  },
  {
    "postcode": "93055",
    "city": "Burgweinting-Harting"
  },
  {
    "postcode": "93055",
    "city": "Innenstadt"
  },
  {
    "postcode": "93055",
    "city": "Brandlberg-Keilberg"
  },
  {
    "postcode": "93055",
    "city": "Harting"
  },
  {
    "postcode": "93057",
    "city": "Brandlberg"
  },
  {
    "postcode": "93057",
    "city": "Gallingkofen"
  },
  {
    "postcode": "93057",
    "city": "Regensburg"
  },
  {
    "postcode": "93057",
    "city": "Reinhausen"
  },
  {
    "postcode": "93057",
    "city": "Sallern"
  },
  {
    "postcode": "93057",
    "city": "Wutzlhofen"
  },
  {
    "postcode": "93057",
    "city": "Sallern-Gallingkofen"
  },
  {
    "postcode": "93057",
    "city": "Konradsiedlung-Wutzlhofen"
  },
  {
    "postcode": "93057",
    "city": "Brandlberg-Keilberg"
  },
  {
    "postcode": "93059",
    "city": "Gallingkofen"
  },
  {
    "postcode": "93059",
    "city": "Kager"
  },
  {
    "postcode": "93059",
    "city": "Niederwinzer"
  },
  {
    "postcode": "93059",
    "city": "Oberwinzer"
  },
  {
    "postcode": "93059",
    "city": "Pfaffenstein"
  },
  {
    "postcode": "93059",
    "city": "Regensburg"
  },
  {
    "postcode": "93059",
    "city": "Reinhausen"
  },
  {
    "postcode": "93059",
    "city": "Sallern"
  },
  {
    "postcode": "93059",
    "city": "Stadtamhof"
  },
  {
    "postcode": "93059",
    "city": "Steinweg"
  },
  {
    "postcode": "93059",
    "city": "Weichs"
  },
  {
    "postcode": "93059",
    "city": "Innenstadt"
  },
  {
    "postcode": "93059",
    "city": "Winzer-Kager"
  },
  {
    "postcode": "93059",
    "city": "Sallern-Gallingkofen"
  },
  {
    "postcode": "93073",
    "city": "Neutraubling"
  },
  {
    "postcode": "93073",
    "city": "Regensburg"
  },
  {
    "postcode": "93077",
    "city": "Alkofen"
  },
  {
    "postcode": "93077",
    "city": "Bad Abbach"
  },
  {
    "postcode": "93077",
    "city": "Dünzling"
  },
  {
    "postcode": "93077",
    "city": "Gattersberg"
  },
  {
    "postcode": "93077",
    "city": "Gemling"
  },
  {
    "postcode": "93077",
    "city": "Lengfeld"
  },
  {
    "postcode": "93077",
    "city": "Oberndorf"
  },
  {
    "postcode": "93077",
    "city": "Peising"
  },
  {
    "postcode": "93077",
    "city": "Poikam"
  },
  {
    "postcode": "93077",
    "city": "Saalhaupt"
  },
  {
    "postcode": "93077",
    "city": "Kelheim"
  },
  {
    "postcode": "93077",
    "city": "Bockenberg"
  },
  {
    "postcode": "93077",
    "city": "Dantschermühle"
  },
  {
    "postcode": "93077",
    "city": "Deutenhof"
  },
  {
    "postcode": "93077",
    "city": "Eiermühle"
  },
  {
    "postcode": "93077",
    "city": "Eiglstetten"
  },
  {
    "postcode": "93077",
    "city": "Frauenbründl"
  },
  {
    "postcode": "93077",
    "city": "Jägerhaus"
  },
  {
    "postcode": "93077",
    "city": "Kranzgarten"
  },
  {
    "postcode": "93077",
    "city": "Peisenhofen"
  },
  {
    "postcode": "93077",
    "city": "Ried"
  },
  {
    "postcode": "93077",
    "city": "Streicherhöhe"
  },
  {
    "postcode": "93077",
    "city": "Teufelsmühle"
  },
  {
    "postcode": "93077",
    "city": "Voxbrunn"
  },
  {
    "postcode": "93080",
    "city": "Graßlfing Oberpfalz"
  },
  {
    "postcode": "93080",
    "city": "Graßlfing"
  },
  {
    "postcode": "93080",
    "city": "Großberg Oberpfalz"
  },
  {
    "postcode": "93080",
    "city": "Großberg"
  },
  {
    "postcode": "93080",
    "city": "Hohengebraching"
  },
  {
    "postcode": "93080",
    "city": "Hölkering"
  },
  {
    "postcode": "93080",
    "city": "Matting"
  },
  {
    "postcode": "93080",
    "city": "Neudorf bei Regensburg"
  },
  {
    "postcode": "93080",
    "city": "Niedergebraching"
  },
  {
    "postcode": "93080",
    "city": "Pentling"
  },
  {
    "postcode": "93080",
    "city": "Poign Oberpfalz"
  },
  {
    "postcode": "93080",
    "city": "Poign"
  },
  {
    "postcode": "93080",
    "city": "Seedorf"
  },
  {
    "postcode": "93080",
    "city": "Regensburg"
  },
  {
    "postcode": "93080",
    "city": "Neudorf"
  },
  {
    "postcode": "93080",
    "city": "Fohlenhof"
  },
  {
    "postcode": "93080",
    "city": "Hänghof"
  },
  {
    "postcode": "93080",
    "city": "Nußhof"
  },
  {
    "postcode": "93080",
    "city": "Oberirading"
  },
  {
    "postcode": "93080",
    "city": "Posthof"
  },
  {
    "postcode": "93080",
    "city": "Schwalbennest"
  },
  {
    "postcode": "93080",
    "city": "Unterirading"
  },
  {
    "postcode": "93080",
    "city": "Weichslmühle"
  },
  {
    "postcode": "93083",
    "city": "Embach"
  },
  {
    "postcode": "93083",
    "city": "Gebelkofen"
  },
  {
    "postcode": "93083",
    "city": "Höhenhof bei Regensburg"
  },
  {
    "postcode": "93083",
    "city": "Niedertraubling"
  },
  {
    "postcode": "93083",
    "city": "Oberhinkofen"
  },
  {
    "postcode": "93083",
    "city": "Obertraubling"
  },
  {
    "postcode": "93083",
    "city": "Piesenkofen"
  },
  {
    "postcode": "93083",
    "city": "Scharmassing"
  },
  {
    "postcode": "93083",
    "city": "Regensburg"
  },
  {
    "postcode": "93083",
    "city": "Einthal"
  },
  {
    "postcode": "93083",
    "city": "Höhenhof"
  },
  {
    "postcode": "93083",
    "city": "Kumpfmühle"
  },
  {
    "postcode": "93083",
    "city": "Moorackerhof"
  },
  {
    "postcode": "93083",
    "city": "Rauschberg"
  },
  {
    "postcode": "93083",
    "city": "Stockhof"
  },
  {
    "postcode": "93083",
    "city": "Tenacker"
  },
  {
    "postcode": "93086",
    "city": "Hintergrub an der Donau"
  },
  {
    "postcode": "93086",
    "city": "Hofdorf Oberpfalz"
  },
  {
    "postcode": "93086",
    "city": "Hofdorf"
  },
  {
    "postcode": "93086",
    "city": "Hornau an der Donau"
  },
  {
    "postcode": "93086",
    "city": "Hungersacker an der Donau"
  },
  {
    "postcode": "93086",
    "city": "Kiefenholz Kreis Regensburg"
  },
  {
    "postcode": "93086",
    "city": "Kiefenholz"
  },
  {
    "postcode": "93086",
    "city": "Oberachdorf an der Donau"
  },
  {
    "postcode": "93086",
    "city": "Tiefenthal an der Donau"
  },
  {
    "postcode": "93086",
    "city": "Vordergrub an der Donau"
  },
  {
    "postcode": "93086",
    "city": "Weihern an der Donau"
  },
  {
    "postcode": "93086",
    "city": "Wörth an der Donau"
  },
  {
    "postcode": "93086",
    "city": "Zinzendorf Oberpfalz"
  },
  {
    "postcode": "93086",
    "city": "Zinzendorf"
  },
  {
    "postcode": "93086",
    "city": "Regensburg"
  },
  {
    "postcode": "93086",
    "city": "Wörth a.d.Donau"
  },
  {
    "postcode": "93086",
    "city": "Wörth"
  },
  {
    "postcode": "93086",
    "city": "Oberachdorf"
  },
  {
    "postcode": "93086",
    "city": "Giffa"
  },
  {
    "postcode": "93086",
    "city": "Hafnerhof"
  },
  {
    "postcode": "93086",
    "city": "Hintergrub"
  },
  {
    "postcode": "93086",
    "city": "Hinterzirnberg"
  },
  {
    "postcode": "93086",
    "city": "Hornau"
  },
  {
    "postcode": "93086",
    "city": "Hungersacker"
  },
  {
    "postcode": "93086",
    "city": "Kirnberg"
  },
  {
    "postcode": "93086",
    "city": "Kleinkiefenholz"
  },
  {
    "postcode": "93086",
    "city": "Kälberhäusl"
  },
  {
    "postcode": "93086",
    "city": "Oberelend"
  },
  {
    "postcode": "93086",
    "city": "Pfraumbach"
  },
  {
    "postcode": "93086",
    "city": "Piehl"
  },
  {
    "postcode": "93086",
    "city": "Reichenbach"
  },
  {
    "postcode": "93086",
    "city": "Reiserhof"
  },
  {
    "postcode": "93086",
    "city": "Tiefenthal"
  },
  {
    "postcode": "93086",
    "city": "Unterelend"
  },
  {
    "postcode": "93086",
    "city": "Vordergrub"
  },
  {
    "postcode": "93086",
    "city": "Vorderzirnberg"
  },
  {
    "postcode": "93086",
    "city": "Wörthhof"
  },
  {
    "postcode": "93086",
    "city": "Weihern"
  },
  {
    "postcode": "93086",
    "city": "Wichenbach"
  },
  {
    "postcode": "93087",
    "city": "Alteglofsheim"
  },
  {
    "postcode": "93087",
    "city": "Regensburg"
  },
  {
    "postcode": "93089",
    "city": "Aufhausen"
  },
  {
    "postcode": "93089",
    "city": "Aufhausen Oberpfalz"
  },
  {
    "postcode": "93089",
    "city": "Gansbach Oberpfalz"
  },
  {
    "postcode": "93089",
    "city": "Gansbach"
  },
  {
    "postcode": "93089",
    "city": "Hellkofen"
  },
  {
    "postcode": "93089",
    "city": "Irnkofen Oberpfalz"
  },
  {
    "postcode": "93089",
    "city": "Irnkofen"
  },
  {
    "postcode": "93089",
    "city": "Niederhinkofen"
  },
  {
    "postcode": "93089",
    "city": "Petzkofen Oberpfalz"
  },
  {
    "postcode": "93089",
    "city": "Petzkofen"
  },
  {
    "postcode": "93089",
    "city": "Triftlfing"
  },
  {
    "postcode": "93089",
    "city": "Regensburg"
  },
  {
    "postcode": "93089",
    "city": "Haid"
  },
  {
    "postcode": "93089",
    "city": "Mittermühle"
  },
  {
    "postcode": "93089",
    "city": "Neumühle"
  },
  {
    "postcode": "93089",
    "city": "Schlappmühle"
  },
  {
    "postcode": "93089",
    "city": "Ziegelstadel"
  },
  {
    "postcode": "93090",
    "city": "Bach an der Donau"
  },
  {
    "postcode": "93090",
    "city": "Demling Kreis Regensburg"
  },
  {
    "postcode": "93090",
    "city": "Demling"
  },
  {
    "postcode": "93090",
    "city": "Frengkofen an der Donau"
  },
  {
    "postcode": "93090",
    "city": "Regensburg"
  },
  {
    "postcode": "93090",
    "city": "Bach a.d.Donau"
  },
  {
    "postcode": "93090",
    "city": "Bach"
  },
  {
    "postcode": "93090",
    "city": "Frengkofen"
  },
  {
    "postcode": "93092",
    "city": "Altach"
  },
  {
    "postcode": "93092",
    "city": "Auburg"
  },
  {
    "postcode": "93092",
    "city": "Barbing"
  },
  {
    "postcode": "93092",
    "city": "Eltheim Kreis Regensburg"
  },
  {
    "postcode": "93092",
    "city": "Eltheim"
  },
  {
    "postcode": "93092",
    "city": "Friesheim"
  },
  {
    "postcode": "93092",
    "city": "Illkofen"
  },
  {
    "postcode": "93092",
    "city": "Sarching"
  },
  {
    "postcode": "93092",
    "city": "Regensburg"
  },
  {
    "postcode": "93092",
    "city": "Auhof"
  },
  {
    "postcode": "93092",
    "city": "Mooshof"
  },
  {
    "postcode": "93092",
    "city": "Unterheising"
  },
  {
    "postcode": "93093",
    "city": "Donaustauf"
  },
  {
    "postcode": "93093",
    "city": "Klammer"
  },
  {
    "postcode": "93093",
    "city": "Reiflding"
  },
  {
    "postcode": "93093",
    "city": "Sulzbach an der Donau"
  },
  {
    "postcode": "93093",
    "city": "Regensburg"
  },
  {
    "postcode": "93093",
    "city": "Jagdschloß Thiergarten"
  },
  {
    "postcode": "93093",
    "city": "Sulzbach"
  },
  {
    "postcode": "93093",
    "city": "Neumühle"
  },
  {
    "postcode": "93095",
    "city": "Gailsbach"
  },
  {
    "postcode": "93095",
    "city": "Gitting"
  },
  {
    "postcode": "93095",
    "city": "Hagelstadt"
  },
  {
    "postcode": "93095",
    "city": "Höhenberg"
  },
  {
    "postcode": "93095",
    "city": "Langenerling"
  },
  {
    "postcode": "93095",
    "city": "Regensburg"
  },
  {
    "postcode": "93095",
    "city": "Grünthal"
  },
  {
    "postcode": "93096",
    "city": "Egglfing"
  },
  {
    "postcode": "93096",
    "city": "Köfering"
  },
  {
    "postcode": "93096",
    "city": "Köfering bei Regensburg"
  },
  {
    "postcode": "93096",
    "city": "Regensburg"
  },
  {
    "postcode": "93098",
    "city": "Allkofen Oberpfalz"
  },
  {
    "postcode": "93098",
    "city": "Allkofen"
  },
  {
    "postcode": "93098",
    "city": "Auhof Oberpfalz"
  },
  {
    "postcode": "93098",
    "city": "Auhof"
  },
  {
    "postcode": "93098",
    "city": "Aukofen"
  },
  {
    "postcode": "93098",
    "city": "Gengkofen Oberpfalz"
  },
  {
    "postcode": "93098",
    "city": "Gengkofen"
  },
  {
    "postcode": "93098",
    "city": "Mangolding"
  },
  {
    "postcode": "93098",
    "city": "Mintraching"
  },
  {
    "postcode": "93098",
    "city": "Mintraching Kreis Regensburg"
  },
  {
    "postcode": "93098",
    "city": "Moosham Oberpfalz"
  },
  {
    "postcode": "93098",
    "city": "Moosham"
  },
  {
    "postcode": "93098",
    "city": "Roith"
  },
  {
    "postcode": "93098",
    "city": "Rosenhof"
  },
  {
    "postcode": "93098",
    "city": "Sankt Gilla"
  },
  {
    "postcode": "93098",
    "city": "Scheuer"
  },
  {
    "postcode": "93098",
    "city": "Sengkofen Oberpfalz"
  },
  {
    "postcode": "93098",
    "city": "Sengkofen"
  },
  {
    "postcode": "93098",
    "city": "Tiefbrunn Oberpfalz"
  },
  {
    "postcode": "93098",
    "city": "Tiefbrunn"
  },
  {
    "postcode": "93098",
    "city": "Wolfskofen"
  },
  {
    "postcode": "93098",
    "city": "Regensburg"
  },
  {
    "postcode": "93098",
    "city": "Neuallkofen"
  },
  {
    "postcode": "93098",
    "city": "Flickermühle"
  },
  {
    "postcode": "93098",
    "city": "Haidau"
  },
  {
    "postcode": "93098",
    "city": "Herzogmühle"
  },
  {
    "postcode": "93098",
    "city": "Jägerhaus"
  },
  {
    "postcode": "93098",
    "city": "Kleingilla"
  },
  {
    "postcode": "93098",
    "city": "Neusengkofen"
  },
  {
    "postcode": "93098",
    "city": "Osten"
  },
  {
    "postcode": "93098",
    "city": "Rempelkofen"
  },
  {
    "postcode": "93098",
    "city": "Scheuermühl"
  },
  {
    "postcode": "93098",
    "city": "Schwaighof"
  },
  {
    "postcode": "93098",
    "city": "Siffkofen"
  },
  {
    "postcode": "93099",
    "city": "Dengling"
  },
  {
    "postcode": "93099",
    "city": "Haimbuch"
  },
  {
    "postcode": "93099",
    "city": "Mötzing"
  },
  {
    "postcode": "93099",
    "city": "Schafhöfen"
  },
  {
    "postcode": "93099",
    "city": "Schönach Oberpfalz"
  },
  {
    "postcode": "93099",
    "city": "Schönach"
  },
  {
    "postcode": "93099",
    "city": "Regensburg"
  },
  {
    "postcode": "93101",
    "city": "Pfakofen"
  },
  {
    "postcode": "93101",
    "city": "Pfellkofen"
  },
  {
    "postcode": "93101",
    "city": "Rogging"
  },
  {
    "postcode": "93101",
    "city": "Regensburg"
  },
  {
    "postcode": "93102",
    "city": "Geisling Kreis Regensburg"
  },
  {
    "postcode": "93102",
    "city": "Geisling"
  },
  {
    "postcode": "93102",
    "city": "Gmünd"
  },
  {
    "postcode": "93102",
    "city": "Griesau"
  },
  {
    "postcode": "93102",
    "city": "Irling"
  },
  {
    "postcode": "93102",
    "city": "Pfatter"
  },
  {
    "postcode": "93102",
    "city": "Seppenhausen"
  },
  {
    "postcode": "93102",
    "city": "Regensburg"
  },
  {
    "postcode": "93102",
    "city": "Herfurth"
  },
  {
    "postcode": "93102",
    "city": "Maiszant"
  },
  {
    "postcode": "93104",
    "city": "Ehring"
  },
  {
    "postcode": "93104",
    "city": "Haidenkofen Oberpfalz"
  },
  {
    "postcode": "93104",
    "city": "Haidenkofen"
  },
  {
    "postcode": "93104",
    "city": "Riekofen"
  },
  {
    "postcode": "93104",
    "city": "Sünching"
  },
  {
    "postcode": "93104",
    "city": "Taimering"
  },
  {
    "postcode": "93104",
    "city": "Regensburg"
  },
  {
    "postcode": "93104",
    "city": "Amhof"
  },
  {
    "postcode": "93104",
    "city": "Bruckhof"
  },
  {
    "postcode": "93104",
    "city": "Hartham"
  },
  {
    "postcode": "93104",
    "city": "Am Hardt"
  },
  {
    "postcode": "93104",
    "city": "Ziegelstadel"
  },
  {
    "postcode": "93105",
    "city": "Tegernheim"
  },
  {
    "postcode": "93105",
    "city": "Regensburg"
  },
  {
    "postcode": "93107",
    "city": "Klausen"
  },
  {
    "postcode": "93107",
    "city": "Luckenpaint"
  },
  {
    "postcode": "93107",
    "city": "Neueglofsheim"
  },
  {
    "postcode": "93107",
    "city": "Obermassing"
  },
  {
    "postcode": "93107",
    "city": "Obersanding"
  },
  {
    "postcode": "93107",
    "city": "Thalmassing"
  },
  {
    "postcode": "93107",
    "city": "Thalmassing Oberpfalz"
  },
  {
    "postcode": "93107",
    "city": "Untermassing"
  },
  {
    "postcode": "93107",
    "city": "Untersanding"
  },
  {
    "postcode": "93107",
    "city": "Weillohe"
  },
  {
    "postcode": "93107",
    "city": "Wolkering"
  },
  {
    "postcode": "93107",
    "city": "Regensburg"
  },
  {
    "postcode": "93107",
    "city": "Altprüll"
  },
  {
    "postcode": "93107",
    "city": "Höselberg"
  },
  {
    "postcode": "93107",
    "city": "Irlbach"
  },
  {
    "postcode": "93107",
    "city": "Mooshof"
  },
  {
    "postcode": "93107",
    "city": "Neuhaus"
  },
  {
    "postcode": "93107",
    "city": "Stadlhof"
  },
  {
    "postcode": "93109",
    "city": "Dietersweg Kreis Regensburg"
  },
  {
    "postcode": "93109",
    "city": "Dietersweg"
  },
  {
    "postcode": "93109",
    "city": "Eidenzell Kreis Regensburg"
  },
  {
    "postcode": "93109",
    "city": "Eidenzell"
  },
  {
    "postcode": "93109",
    "city": "Ettersdorf Kreis Regensburg"
  },
  {
    "postcode": "93109",
    "city": "Ettersdorf"
  },
  {
    "postcode": "93109",
    "city": "Kruckenberg Kreis Regensburg"
  },
  {
    "postcode": "93109",
    "city": "Kruckenberg"
  },
  {
    "postcode": "93109",
    "city": "Waffenschmiede Kreis Regensburg"
  },
  {
    "postcode": "93109",
    "city": "Waffenschmiede"
  },
  {
    "postcode": "93109",
    "city": "Wiesent"
  },
  {
    "postcode": "93109",
    "city": "Regensburg"
  },
  {
    "postcode": "93109",
    "city": "Eckenzell"
  },
  {
    "postcode": "93109",
    "city": "Grafenöd"
  },
  {
    "postcode": "93109",
    "city": "Höhenberg"
  },
  {
    "postcode": "93109",
    "city": "Heilsberg"
  },
  {
    "postcode": "93109",
    "city": "Hermannsöd"
  },
  {
    "postcode": "93109",
    "city": "Hermannsberg"
  },
  {
    "postcode": "93109",
    "city": "Forstmühler Forst"
  },
  {
    "postcode": "93109",
    "city": "Kirnberg"
  },
  {
    "postcode": "93109",
    "city": "Lehmhof"
  },
  {
    "postcode": "93109",
    "city": "Mitterroith"
  },
  {
    "postcode": "93109",
    "city": "Neuhaus"
  },
  {
    "postcode": "93109",
    "city": "Neumühle"
  },
  {
    "postcode": "93109",
    "city": "Oberroith"
  },
  {
    "postcode": "93109",
    "city": "Pangerlhof"
  },
  {
    "postcode": "93109",
    "city": "Petersberg"
  },
  {
    "postcode": "93109",
    "city": "Ponhof"
  },
  {
    "postcode": "93109",
    "city": "Rupertsbühl"
  },
  {
    "postcode": "93109",
    "city": "Sandweg"
  },
  {
    "postcode": "93109",
    "city": "Siegelseige"
  },
  {
    "postcode": "93109",
    "city": "Wiedenrös"
  },
  {
    "postcode": "93128",
    "city": "Asing"
  },
  {
    "postcode": "93128",
    "city": "Birkenzant"
  },
  {
    "postcode": "93128",
    "city": "Buchenlohe"
  },
  {
    "postcode": "93128",
    "city": "Danersdorf"
  },
  {
    "postcode": "93128",
    "city": "Diesenbach"
  },
  {
    "postcode": "93128",
    "city": "Drackenstein"
  },
  {
    "postcode": "93128",
    "city": "Edlhausen"
  },
  {
    "postcode": "93128",
    "city": "Eichlberg"
  },
  {
    "postcode": "93128",
    "city": "Eitlbrunn"
  },
  {
    "postcode": "93128",
    "city": "Ferneichlberg"
  },
  {
    "postcode": "93128",
    "city": "Forstberg Oberpfalz"
  },
  {
    "postcode": "93128",
    "city": "Forstberg"
  },
  {
    "postcode": "93128",
    "city": "Frauenberg Oberpfalz"
  },
  {
    "postcode": "93128",
    "city": "Frauenberg"
  },
  {
    "postcode": "93128",
    "city": "Fronau"
  },
  {
    "postcode": "93128",
    "city": "Gibacht"
  },
  {
    "postcode": "93128",
    "city": "Glapfenberg"
  },
  {
    "postcode": "93128",
    "city": "Grafenwinn"
  },
  {
    "postcode": "93128",
    "city": "Grub"
  },
  {
    "postcode": "93128",
    "city": "Hagenau"
  },
  {
    "postcode": "93128",
    "city": "Heilinghausen"
  },
  {
    "postcode": "93128",
    "city": "Hinterberg"
  },
  {
    "postcode": "93128",
    "city": "Hirschling"
  },
  {
    "postcode": "93128",
    "city": "Holz"
  },
  {
    "postcode": "93128",
    "city": "Karlstein"
  },
  {
    "postcode": "93128",
    "city": "Kerm"
  },
  {
    "postcode": "93128",
    "city": "Kirchberg"
  },
  {
    "postcode": "93128",
    "city": "Kleinanglhof"
  },
  {
    "postcode": "93128",
    "city": "Kleinramspau"
  },
  {
    "postcode": "93128",
    "city": "Kürnberg"
  },
  {
    "postcode": "93128",
    "city": "Loch"
  },
  {
    "postcode": "93128",
    "city": "Marienthal"
  },
  {
    "postcode": "93128",
    "city": "Neuhaus"
  },
  {
    "postcode": "93128",
    "city": "Oberhub"
  },
  {
    "postcode": "93128",
    "city": "Ramspau"
  },
  {
    "postcode": "93128",
    "city": "Regenstauf"
  },
  {
    "postcode": "93128",
    "city": "Richterskeller"
  },
  {
    "postcode": "93128",
    "city": "Ruith"
  },
  {
    "postcode": "93128",
    "city": "Schneitweg"
  },
  {
    "postcode": "93128",
    "city": "Schönleiten"
  },
  {
    "postcode": "93128",
    "city": "Spindlhof"
  },
  {
    "postcode": "93128",
    "city": "Stadel"
  },
  {
    "postcode": "93128",
    "city": "Steinsberg Oberpfalz"
  },
  {
    "postcode": "93128",
    "city": "Steinsberg"
  },
  {
    "postcode": "93128",
    "city": "Süßberg"
  },
  {
    "postcode": "93128",
    "city": "Wieden"
  },
  {
    "postcode": "93128",
    "city": "Wöhrhof"
  },
  {
    "postcode": "93128",
    "city": "Regensburg"
  },
  {
    "postcode": "93128",
    "city": "Anglhof"
  },
  {
    "postcode": "93128",
    "city": "Breitwies"
  },
  {
    "postcode": "93128",
    "city": "Brennthal"
  },
  {
    "postcode": "93128",
    "city": "Brunnhaus"
  },
  {
    "postcode": "93128",
    "city": "Brücklhof"
  },
  {
    "postcode": "93128",
    "city": "Dirnberg"
  },
  {
    "postcode": "93128",
    "city": "Elendhalbstraße"
  },
  {
    "postcode": "93128",
    "city": "Ellmau"
  },
  {
    "postcode": "93128",
    "city": "Epfenthau"
  },
  {
    "postcode": "93128",
    "city": "Preßgrund"
  },
  {
    "postcode": "93128",
    "city": "Fidelhof"
  },
  {
    "postcode": "93128",
    "city": "Ganglhof"
  },
  {
    "postcode": "93128",
    "city": "Geiersberg"
  },
  {
    "postcode": "93128",
    "city": "Gfangen"
  },
  {
    "postcode": "93128",
    "city": "Gnadenhof"
  },
  {
    "postcode": "93128",
    "city": "Greisberg"
  },
  {
    "postcode": "93128",
    "city": "Hochstraß"
  },
  {
    "postcode": "93128",
    "city": "Hohenwarth"
  },
  {
    "postcode": "93128",
    "city": "Irlbründl"
  },
  {
    "postcode": "93128",
    "city": "Kleeberg"
  },
  {
    "postcode": "93128",
    "city": "Kohlstatt"
  },
  {
    "postcode": "93128",
    "city": "Kreuth"
  },
  {
    "postcode": "93128",
    "city": "Kühthal"
  },
  {
    "postcode": "93128",
    "city": "Lindach"
  },
  {
    "postcode": "93128",
    "city": "Linglhof"
  },
  {
    "postcode": "93128",
    "city": "Maad"
  },
  {
    "postcode": "93128",
    "city": "Medersbach"
  },
  {
    "postcode": "93128",
    "city": "Mettenbach"
  },
  {
    "postcode": "93128",
    "city": "Münchsried"
  },
  {
    "postcode": "93128",
    "city": "Neuried"
  },
  {
    "postcode": "93128",
    "city": "Oberhaslach"
  },
  {
    "postcode": "93128",
    "city": "Oberhof"
  },
  {
    "postcode": "93128",
    "city": "Preischlgut"
  },
  {
    "postcode": "93128",
    "city": "Rappershof"
  },
  {
    "postcode": "93128",
    "city": "Reingrub"
  },
  {
    "postcode": "93128",
    "city": "Reiterberg"
  },
  {
    "postcode": "93128",
    "city": "Schanzlohe"
  },
  {
    "postcode": "93128",
    "city": "Schnepfenberg"
  },
  {
    "postcode": "93128",
    "city": "Schwaighof"
  },
  {
    "postcode": "93128",
    "city": "Süssenbach"
  },
  {
    "postcode": "93128",
    "city": "Unterhaslach"
  },
  {
    "postcode": "93128",
    "city": "Unterhub"
  },
  {
    "postcode": "93128",
    "city": "Wasa"
  },
  {
    "postcode": "93128",
    "city": "Wiedenhof"
  },
  {
    "postcode": "93133",
    "city": "Armensee"
  },
  {
    "postcode": "93133",
    "city": "Augustenhof"
  },
  {
    "postcode": "93133",
    "city": "Birkhof"
  },
  {
    "postcode": "93133",
    "city": "Bubenhof"
  },
  {
    "postcode": "93133",
    "city": "Burglengenfeld"
  },
  {
    "postcode": "93133",
    "city": "Dexhof"
  },
  {
    "postcode": "93133",
    "city": "Dietldorf"
  },
  {
    "postcode": "93133",
    "city": "Dirnau"
  },
  {
    "postcode": "93133",
    "city": "Eichlhof"
  },
  {
    "postcode": "93133",
    "city": "Engelhof"
  },
  {
    "postcode": "93133",
    "city": "Greinhof"
  },
  {
    "postcode": "93133",
    "city": "Höchensee"
  },
  {
    "postcode": "93133",
    "city": "Hub"
  },
  {
    "postcode": "93133",
    "city": "Kai"
  },
  {
    "postcode": "93133",
    "city": "Kastenhof"
  },
  {
    "postcode": "93133",
    "city": "Kirchenbuch"
  },
  {
    "postcode": "93133",
    "city": "Lanzenried"
  },
  {
    "postcode": "93133",
    "city": "Loisnitz"
  },
  {
    "postcode": "93133",
    "city": "Machtlwies"
  },
  {
    "postcode": "93133",
    "city": "Mossendorf"
  },
  {
    "postcode": "93133",
    "city": "Mühlberg"
  },
  {
    "postcode": "93133",
    "city": "Niederhof"
  },
  {
    "postcode": "93133",
    "city": "Oberbuch"
  },
  {
    "postcode": "93133",
    "city": "Pilsheim"
  },
  {
    "postcode": "93133",
    "city": "Pistlwies an der Naab"
  },
  {
    "postcode": "93133",
    "city": "Pottenstetten"
  },
  {
    "postcode": "93133",
    "city": "Rammertshof"
  },
  {
    "postcode": "93133",
    "city": "Rödlhof"
  },
  {
    "postcode": "93133",
    "city": "Saaß"
  },
  {
    "postcode": "93133",
    "city": "See"
  },
  {
    "postcode": "93133",
    "city": "Straß"
  },
  {
    "postcode": "93133",
    "city": "Untersdorf"
  },
  {
    "postcode": "93133",
    "city": "Wasenhütte"
  },
  {
    "postcode": "93133",
    "city": "Witzlarn"
  },
  {
    "postcode": "93133",
    "city": "Ziegelhütte"
  },
  {
    "postcode": "93133",
    "city": "Schwandorf"
  },
  {
    "postcode": "93133",
    "city": "Weiherhof"
  },
  {
    "postcode": "93133",
    "city": "Greßthal"
  },
  {
    "postcode": "93133",
    "city": "Hof"
  },
  {
    "postcode": "93133",
    "city": "Katzenhüll"
  },
  {
    "postcode": "93133",
    "city": "Lamplhof"
  },
  {
    "postcode": "93133",
    "city": "Mauthof"
  },
  {
    "postcode": "93133",
    "city": "Meilerhof"
  },
  {
    "postcode": "93133",
    "city": "Pistlwies"
  },
  {
    "postcode": "93133",
    "city": "Plattenhof"
  },
  {
    "postcode": "93133",
    "city": "Schlag"
  },
  {
    "postcode": "93138",
    "city": "Baiern"
  },
  {
    "postcode": "93138",
    "city": "Einhausen"
  },
  {
    "postcode": "93138",
    "city": "Geiersberg"
  },
  {
    "postcode": "93138",
    "city": "Hainsacker"
  },
  {
    "postcode": "93138",
    "city": "Kareth"
  },
  {
    "postcode": "93138",
    "city": "Kaulhausen"
  },
  {
    "postcode": "93138",
    "city": "Lappersdorf"
  },
  {
    "postcode": "93138",
    "city": "Lappersdorf Oberpfalz"
  },
  {
    "postcode": "93138",
    "city": "Lorenzen Oberpfalz"
  },
  {
    "postcode": "93138",
    "city": "Lorenzen"
  },
  {
    "postcode": "93138",
    "city": "Oppersdorf"
  },
  {
    "postcode": "93138",
    "city": "Rodau"
  },
  {
    "postcode": "93138",
    "city": "Schwaighausen"
  },
  {
    "postcode": "93138",
    "city": "Tremmelhauserhöhe"
  },
  {
    "postcode": "93138",
    "city": "Regensburg"
  },
  {
    "postcode": "93138",
    "city": "Altenried"
  },
  {
    "postcode": "93138",
    "city": "Aschach"
  },
  {
    "postcode": "93138",
    "city": "Benhof"
  },
  {
    "postcode": "93138",
    "city": "Pielmühle"
  },
  {
    "postcode": "93138",
    "city": "Gewald"
  },
  {
    "postcode": "93138",
    "city": "Hönighausen"
  },
  {
    "postcode": "93138",
    "city": "Harreshof"
  },
  {
    "postcode": "93138",
    "city": "Knieschlag"
  },
  {
    "postcode": "93138",
    "city": "Landlhof"
  },
  {
    "postcode": "93138",
    "city": "Rehtal"
  },
  {
    "postcode": "93138",
    "city": "Schinderwies"
  },
  {
    "postcode": "93138",
    "city": "Schwerdnermühle"
  },
  {
    "postcode": "93138",
    "city": "Schwärz"
  },
  {
    "postcode": "93138",
    "city": "Steinhof"
  },
  {
    "postcode": "93138",
    "city": "Stettwies"
  },
  {
    "postcode": "93138",
    "city": "Unterkaulhausen"
  },
  {
    "postcode": "93138",
    "city": "Ziegelhütte"
  },
  {
    "postcode": "93142",
    "city": "Birkenhöhe"
  },
  {
    "postcode": "93142",
    "city": "Birkenzell"
  },
  {
    "postcode": "93142",
    "city": "Brunnheim Kreis Burglengenfeld"
  },
  {
    "postcode": "93142",
    "city": "Brunnheim"
  },
  {
    "postcode": "93142",
    "city": "Deglhof"
  },
  {
    "postcode": "93142",
    "city": "Eichelberg"
  },
  {
    "postcode": "93142",
    "city": "Ibenthann"
  },
  {
    "postcode": "93142",
    "city": "Kappl Kreis Burglengenfeld"
  },
  {
    "postcode": "93142",
    "city": "Kappl"
  },
  {
    "postcode": "93142",
    "city": "Katzheim"
  },
  {
    "postcode": "93142",
    "city": "Leonberg Kreis Burglengenfeld"
  },
  {
    "postcode": "93142",
    "city": "Leonberg"
  },
  {
    "postcode": "93142",
    "city": "Maxhütte-Haidhof"
  },
  {
    "postcode": "93142",
    "city": "Meßnerskreith"
  },
  {
    "postcode": "93142",
    "city": "Pirkensee"
  },
  {
    "postcode": "93142",
    "city": "Ponholz"
  },
  {
    "postcode": "93142",
    "city": "Rappenbügl"
  },
  {
    "postcode": "93142",
    "city": "Roding"
  },
  {
    "postcode": "93142",
    "city": "Roßbach"
  },
  {
    "postcode": "93142",
    "city": "Roßbergeröd"
  },
  {
    "postcode": "93142",
    "city": "Verau"
  },
  {
    "postcode": "93142",
    "city": "Winkerling"
  },
  {
    "postcode": "93142",
    "city": "Schwandorf"
  },
  {
    "postcode": "93142",
    "city": "Maxhütte"
  },
  {
    "postcode": "93142",
    "city": "Haidhof"
  },
  {
    "postcode": "93142",
    "city": "Almenhöhe"
  },
  {
    "postcode": "93142",
    "city": "Almenhof"
  },
  {
    "postcode": "93142",
    "city": "Ziegelhütte"
  },
  {
    "postcode": "93142",
    "city": "Berghof"
  },
  {
    "postcode": "93142",
    "city": "Binkenhof"
  },
  {
    "postcode": "93142",
    "city": "Blattenhof"
  },
  {
    "postcode": "93142",
    "city": "Brücklhof"
  },
  {
    "postcode": "93142",
    "city": "Englbrunn"
  },
  {
    "postcode": "93142",
    "city": "Fürsthof"
  },
  {
    "postcode": "93142",
    "city": "Harberhof"
  },
  {
    "postcode": "93142",
    "city": "Haugshöhe"
  },
  {
    "postcode": "93142",
    "city": "Kreilnberg"
  },
  {
    "postcode": "93142",
    "city": "Lehenhaus"
  },
  {
    "postcode": "93142",
    "city": "Lintermühle"
  },
  {
    "postcode": "93142",
    "city": "Schwarzhof"
  },
  {
    "postcode": "93142",
    "city": "Stadlhof"
  },
  {
    "postcode": "93142",
    "city": "Steinhof"
  },
  {
    "postcode": "93149",
    "city": "Asang"
  },
  {
    "postcode": "93149",
    "city": "Bachbügl Oberpfalz"
  },
  {
    "postcode": "93149",
    "city": "Bachbügl"
  },
  {
    "postcode": "93149",
    "city": "Bergham"
  },
  {
    "postcode": "93149",
    "city": "Bleich"
  },
  {
    "postcode": "93149",
    "city": "Bodenstein"
  },
  {
    "postcode": "93149",
    "city": "Brunn"
  },
  {
    "postcode": "93149",
    "city": "Diepenried"
  },
  {
    "postcode": "93149",
    "city": "Eichlgütl Oberpfalz"
  },
  {
    "postcode": "93149",
    "city": "Eichlgütl"
  },
  {
    "postcode": "93149",
    "city": "Entermainsbach"
  },
  {
    "postcode": "93149",
    "city": "Fischbach Oberpfalz"
  },
  {
    "postcode": "93149",
    "city": "Fischbach"
  },
  {
    "postcode": "93149",
    "city": "Forsting Oberpfalz"
  },
  {
    "postcode": "93149",
    "city": "Forsting"
  },
  {
    "postcode": "93149",
    "city": "Goppeltshof"
  },
  {
    "postcode": "93149",
    "city": "Gunt"
  },
  {
    "postcode": "93149",
    "city": "Haiderhöf Oberpfalz"
  },
  {
    "postcode": "93149",
    "city": "Haiderhöf"
  },
  {
    "postcode": "93149",
    "city": "Hof am Regen"
  },
  {
    "postcode": "93149",
    "city": "Höflarn"
  },
  {
    "postcode": "93149",
    "city": "Holzheim"
  },
  {
    "postcode": "93149",
    "city": "Kaaghof"
  },
  {
    "postcode": "93149",
    "city": "Kaspeltshub Oberpfalz"
  },
  {
    "postcode": "93149",
    "city": "Kaspeltshub"
  },
  {
    "postcode": "93149",
    "city": "Lohbügl Oberpfalz"
  },
  {
    "postcode": "93149",
    "city": "Lohbügl"
  },
  {
    "postcode": "93149",
    "city": "Michelsberg"
  },
  {
    "postcode": "93149",
    "city": "Muckenbach"
  },
  {
    "postcode": "93149",
    "city": "Nerping Oberpfalz"
  },
  {
    "postcode": "93149",
    "city": "Nerping"
  },
  {
    "postcode": "93149",
    "city": "Neubäu"
  },
  {
    "postcode": "93149",
    "city": "Neuhaus"
  },
  {
    "postcode": "93149",
    "city": "Nittenau"
  },
  {
    "postcode": "93149",
    "city": "Obermainsbach"
  },
  {
    "postcode": "93149",
    "city": "Oed"
  },
  {
    "postcode": "93149",
    "city": "Ottischhof"
  },
  {
    "postcode": "93149",
    "city": "Reuting Oberpfalz"
  },
  {
    "postcode": "93149",
    "city": "Reuting"
  },
  {
    "postcode": "93149",
    "city": "Schönberg"
  },
  {
    "postcode": "93149",
    "city": "Stadl"
  },
  {
    "postcode": "93149",
    "city": "Stefling"
  },
  {
    "postcode": "93149",
    "city": "Thann"
  },
  {
    "postcode": "93149",
    "city": "Tiefenbach"
  },
  {
    "postcode": "93149",
    "city": "Tiefenhof"
  },
  {
    "postcode": "93149",
    "city": "Treidling Oberpfalz"
  },
  {
    "postcode": "93149",
    "city": "Treidling"
  },
  {
    "postcode": "93149",
    "city": "Trumling"
  },
  {
    "postcode": "93149",
    "city": "Untermainsbach"
  },
  {
    "postcode": "93149",
    "city": "Wetzlhof"
  },
  {
    "postcode": "93149",
    "city": "Schwandorf"
  },
  {
    "postcode": "93149",
    "city": "Spitalhaus"
  },
  {
    "postcode": "93149",
    "city": "Überfuhr"
  },
  {
    "postcode": "93149",
    "city": "Annahaid"
  },
  {
    "postcode": "93149",
    "city": "Auhof"
  },
  {
    "postcode": "93149",
    "city": "Berghof"
  },
  {
    "postcode": "93149",
    "city": "Berglarn"
  },
  {
    "postcode": "93149",
    "city": "Dobl"
  },
  {
    "postcode": "93149",
    "city": "Dürrmaul"
  },
  {
    "postcode": "93149",
    "city": "Eckartsreuth"
  },
  {
    "postcode": "93149",
    "city": "Elendhof"
  },
  {
    "postcode": "93149",
    "city": "Eschlbach"
  },
  {
    "postcode": "93149",
    "city": "Fichtenhof"
  },
  {
    "postcode": "93149",
    "city": "Geiseck"
  },
  {
    "postcode": "93149",
    "city": "Hadriwa"
  },
  {
    "postcode": "93149",
    "city": "Hammerhäng"
  },
  {
    "postcode": "93149",
    "city": "Harthöfl"
  },
  {
    "postcode": "93149",
    "city": "Harting"
  },
  {
    "postcode": "93149",
    "city": "Heinzlmühl"
  },
  {
    "postcode": "93149",
    "city": "Hengersbach"
  },
  {
    "postcode": "93149",
    "city": "Hinterberg"
  },
  {
    "postcode": "93149",
    "city": "Hinterkohlstetten"
  },
  {
    "postcode": "93149",
    "city": "Hof"
  },
  {
    "postcode": "93149",
    "city": "Holzseige"
  },
  {
    "postcode": "93149",
    "city": "Hubhof"
  },
  {
    "postcode": "93149",
    "city": "Jägerhöhe"
  },
  {
    "postcode": "93149",
    "city": "Königshof"
  },
  {
    "postcode": "93149",
    "city": "Königsreuth"
  },
  {
    "postcode": "93149",
    "city": "Knollenhof"
  },
  {
    "postcode": "93149",
    "city": "Lichtenhaid"
  },
  {
    "postcode": "93149",
    "city": "Mühlenthal"
  },
  {
    "postcode": "93149",
    "city": "Oberhof"
  },
  {
    "postcode": "93149",
    "city": "Reisach"
  },
  {
    "postcode": "93149",
    "city": "Roithof"
  },
  {
    "postcode": "93149",
    "city": "Roneck"
  },
  {
    "postcode": "93149",
    "city": "Rumelsölden"
  },
  {
    "postcode": "93149",
    "city": "Schottenhof"
  },
  {
    "postcode": "93149",
    "city": "Schwarzenberg"
  },
  {
    "postcode": "93149",
    "city": "Spandlhof"
  },
  {
    "postcode": "93149",
    "city": "St. Johann"
  },
  {
    "postcode": "93149",
    "city": "St. Martin"
  },
  {
    "postcode": "93149",
    "city": "Steinhof"
  },
  {
    "postcode": "93149",
    "city": "Steinmühl"
  },
  {
    "postcode": "93149",
    "city": "Straßhof"
  },
  {
    "postcode": "93149",
    "city": "Strohhof"
  },
  {
    "postcode": "93149",
    "city": "Gemeinde Bruck"
  },
  {
    "postcode": "93149",
    "city": "Sulzmühl"
  },
  {
    "postcode": "93149",
    "city": "Vorderkohlstetten"
  },
  {
    "postcode": "93149",
    "city": "Waldhaus Einsiedel"
  },
  {
    "postcode": "93149",
    "city": "Waltenried"
  },
  {
    "postcode": "93149",
    "city": "Weinting"
  },
  {
    "postcode": "93149",
    "city": "Weißenhof"
  },
  {
    "postcode": "93149",
    "city": "Wetzlgütl"
  },
  {
    "postcode": "93149",
    "city": "Zell"
  },
  {
    "postcode": "93152",
    "city": "Bärnthal"
  },
  {
    "postcode": "93152",
    "city": "Deckelstein"
  },
  {
    "postcode": "93152",
    "city": "Eichhofen Kreis Regensburg"
  },
  {
    "postcode": "93152",
    "city": "Eichhofen"
  },
  {
    "postcode": "93152",
    "city": "Etterzhausen"
  },
  {
    "postcode": "93152",
    "city": "Haugenried"
  },
  {
    "postcode": "93152",
    "city": "Irgertshofen"
  },
  {
    "postcode": "93152",
    "city": "Loch Kreis Regensburg"
  },
  {
    "postcode": "93152",
    "city": "Loch"
  },
  {
    "postcode": "93152",
    "city": "Nittendorf"
  },
  {
    "postcode": "93152",
    "city": "Obereinbuch Kreis Regensburg"
  },
  {
    "postcode": "93152",
    "city": "Obereinbuch"
  },
  {
    "postcode": "93152",
    "city": "Penk"
  },
  {
    "postcode": "93152",
    "city": "Pollenried"
  },
  {
    "postcode": "93152",
    "city": "Schönhofen"
  },
  {
    "postcode": "93152",
    "city": "Thumhausen"
  },
  {
    "postcode": "93152",
    "city": "Undorf"
  },
  {
    "postcode": "93152",
    "city": "Untereinbuch Kreis Regensburg"
  },
  {
    "postcode": "93152",
    "city": "Untereinbuch"
  },
  {
    "postcode": "93152",
    "city": "Viergstetten"
  },
  {
    "postcode": "93152",
    "city": "Regensburg"
  },
  {
    "postcode": "93152",
    "city": "Ebenwies"
  },
  {
    "postcode": "93152",
    "city": "Hardt"
  },
  {
    "postcode": "93152",
    "city": "Zeiler"
  },
  {
    "postcode": "93152",
    "city": "Gemeinde Nittendorf"
  },
  {
    "postcode": "93152",
    "city": "Arzweg"
  },
  {
    "postcode": "93152",
    "city": "Etterzhausen-Glockensiedlung"
  },
  {
    "postcode": "93152",
    "city": "Etterzhausen-Goldberg"
  },
  {
    "postcode": "93152",
    "city": "Goppenhof"
  },
  {
    "postcode": "93152",
    "city": "Grafenried"
  },
  {
    "postcode": "93152",
    "city": "Raigerholz"
  },
  {
    "postcode": "93152",
    "city": "Sixtenhof"
  },
  {
    "postcode": "93152",
    "city": "Zwickenthal"
  },
  {
    "postcode": "93155",
    "city": "Aicha"
  },
  {
    "postcode": "93155",
    "city": "Aichkirchen"
  },
  {
    "postcode": "93155",
    "city": "Albertshofen"
  },
  {
    "postcode": "93155",
    "city": "Altenlohe"
  },
  {
    "postcode": "93155",
    "city": "Altmannshof"
  },
  {
    "postcode": "93155",
    "city": "Angern"
  },
  {
    "postcode": "93155",
    "city": "Arnest"
  },
  {
    "postcode": "93155",
    "city": "Berletzhof"
  },
  {
    "postcode": "93155",
    "city": "Bügerl"
  },
  {
    "postcode": "93155",
    "city": "Eckertshof"
  },
  {
    "postcode": "93155",
    "city": "Eichlberg"
  },
  {
    "postcode": "93155",
    "city": "Eiersdorf"
  },
  {
    "postcode": "93155",
    "city": "Einöd"
  },
  {
    "postcode": "93155",
    "city": "Flinksberg"
  },
  {
    "postcode": "93155",
    "city": "Gänsbügl"
  },
  {
    "postcode": "93155",
    "city": "Grafenstadl"
  },
  {
    "postcode": "93155",
    "city": "Grünstaude"
  },
  {
    "postcode": "93155",
    "city": "Haag"
  },
  {
    "postcode": "93155",
    "city": "Haid"
  },
  {
    "postcode": "93155",
    "city": "Hamberg"
  },
  {
    "postcode": "93155",
    "city": "Hemau"
  },
  {
    "postcode": "93155",
    "city": "Hennhüll"
  },
  {
    "postcode": "93155",
    "city": "Höfen"
  },
  {
    "postcode": "93155",
    "city": "Hohenschambach"
  },
  {
    "postcode": "93155",
    "city": "Klapfenberg bei Hemau"
  },
  {
    "postcode": "93155",
    "city": "Klingen"
  },
  {
    "postcode": "93155",
    "city": "Kochenthal"
  },
  {
    "postcode": "93155",
    "city": "Kollersried"
  },
  {
    "postcode": "93155",
    "city": "Kumpfhof"
  },
  {
    "postcode": "93155",
    "city": "Langenkreith"
  },
  {
    "postcode": "93155",
    "city": "Laufenthal"
  },
  {
    "postcode": "93155",
    "city": "Lautersee"
  },
  {
    "postcode": "93155",
    "city": "Mungenhofen Oberpfalz"
  },
  {
    "postcode": "93155",
    "city": "Mungenhofen"
  },
  {
    "postcode": "93155",
    "city": "Neukirchen"
  },
  {
    "postcode": "93155",
    "city": "Oberhöfen"
  },
  {
    "postcode": "93155",
    "city": "Oberreiselberg"
  },
  {
    "postcode": "93155",
    "city": "Pellndorf"
  },
  {
    "postcode": "93155",
    "city": "Pittmannsdorf"
  },
  {
    "postcode": "93155",
    "city": "Rieb"
  },
  {
    "postcode": "93155",
    "city": "Schacha"
  },
  {
    "postcode": "93155",
    "city": "Schneckenhof bei Hemau"
  },
  {
    "postcode": "93155",
    "city": "Schneitbügl"
  },
  {
    "postcode": "93155",
    "city": "Stadla"
  },
  {
    "postcode": "93155",
    "city": "Thonhausen"
  },
  {
    "postcode": "93155",
    "city": "Thonlohe"
  },
  {
    "postcode": "93155",
    "city": "Tiefenhüll"
  },
  {
    "postcode": "93155",
    "city": "Waltenhofen"
  },
  {
    "postcode": "93155",
    "city": "Wangsaß bei Hemau"
  },
  {
    "postcode": "93155",
    "city": "Winkl"
  },
  {
    "postcode": "93155",
    "city": "Wollmannsdorf bei Hemau"
  },
  {
    "postcode": "93155",
    "city": "Regensburg"
  },
  {
    "postcode": "93155",
    "city": "Bachmühle"
  },
  {
    "postcode": "93155",
    "city": "Bodenhof"
  },
  {
    "postcode": "93155",
    "city": "Bügerlleithen"
  },
  {
    "postcode": "93155",
    "city": "Grafenöd"
  },
  {
    "postcode": "93155",
    "city": "Hagetshof"
  },
  {
    "postcode": "93155",
    "city": "Körbenhof"
  },
  {
    "postcode": "93155",
    "city": "Kemetshof"
  },
  {
    "postcode": "93155",
    "city": "Klapfenberg"
  },
  {
    "postcode": "93155",
    "city": "Neuhäusl"
  },
  {
    "postcode": "93155",
    "city": "Niglhof"
  },
  {
    "postcode": "93155",
    "city": "Pföring"
  },
  {
    "postcode": "93155",
    "city": "Pfälzerhof"
  },
  {
    "postcode": "93155",
    "city": "Schneckenhof"
  },
  {
    "postcode": "93155",
    "city": "Sündersbühl"
  },
  {
    "postcode": "93155",
    "city": "Thalhof"
  },
  {
    "postcode": "93155",
    "city": "Unterreiselberg"
  },
  {
    "postcode": "93155",
    "city": "Wangsaß"
  },
  {
    "postcode": "93155",
    "city": "Wolflier"
  },
  {
    "postcode": "93155",
    "city": "Wollmannsdorf"
  },
  {
    "postcode": "93158",
    "city": "Glashütte"
  },
  {
    "postcode": "93158",
    "city": "Katzdorf"
  },
  {
    "postcode": "93158",
    "city": "Köblitz"
  },
  {
    "postcode": "93158",
    "city": "Kuntsdorf Kreis Burglengenfeld"
  },
  {
    "postcode": "93158",
    "city": "Kuntsdorf"
  },
  {
    "postcode": "93158",
    "city": "Loisnitz"
  },
  {
    "postcode": "93158",
    "city": "Münchshofen"
  },
  {
    "postcode": "93158",
    "city": "Oberhof"
  },
  {
    "postcode": "93158",
    "city": "Premberg"
  },
  {
    "postcode": "93158",
    "city": "Saltendorf an der Naab"
  },
  {
    "postcode": "93158",
    "city": "Stocka"
  },
  {
    "postcode": "93158",
    "city": "Teublitz"
  },
  {
    "postcode": "93158",
    "city": "Weiherdorf"
  },
  {
    "postcode": "93158",
    "city": "Schwandorf"
  },
  {
    "postcode": "93158",
    "city": "Saltendorf"
  },
  {
    "postcode": "93158",
    "city": "Bömmerlschlag"
  },
  {
    "postcode": "93158",
    "city": "Frauenhof"
  },
  {
    "postcode": "93158",
    "city": "Kremplschlag"
  },
  {
    "postcode": "93158",
    "city": "Richthof"
  },
  {
    "postcode": "93161",
    "city": "Alling Oberpfalz"
  },
  {
    "postcode": "93161",
    "city": "Alling"
  },
  {
    "postcode": "93161",
    "city": "Bergmatting Oberpfalz"
  },
  {
    "postcode": "93161",
    "city": "Bergmatting"
  },
  {
    "postcode": "93161",
    "city": "Bruckdorf"
  },
  {
    "postcode": "93161",
    "city": "Dürnstetten Oberpfalz"
  },
  {
    "postcode": "93161",
    "city": "Dürnstetten"
  },
  {
    "postcode": "93161",
    "city": "Eilsbrunn"
  },
  {
    "postcode": "93161",
    "city": "Grafenried bei Nittendorf"
  },
  {
    "postcode": "93161",
    "city": "Kleinprüfening"
  },
  {
    "postcode": "93161",
    "city": "Mariaort"
  },
  {
    "postcode": "93161",
    "city": "Reichenstetten Oberpfalz"
  },
  {
    "postcode": "93161",
    "city": "Reichenstetten"
  },
  {
    "postcode": "93161",
    "city": "Riegling"
  },
  {
    "postcode": "93161",
    "city": "Saxberg Oberpfalz"
  },
  {
    "postcode": "93161",
    "city": "Saxberg"
  },
  {
    "postcode": "93161",
    "city": "Schneckenbach"
  },
  {
    "postcode": "93161",
    "city": "Sinzing"
  },
  {
    "postcode": "93161",
    "city": "Sinzing Oberpfalz"
  },
  {
    "postcode": "93161",
    "city": "Unteralling Oberpfalz"
  },
  {
    "postcode": "93161",
    "city": "Unteralling"
  },
  {
    "postcode": "93161",
    "city": "Viehhausen"
  },
  {
    "postcode": "93161",
    "city": "Vogelsang"
  },
  {
    "postcode": "93161",
    "city": "Waltenhofen"
  },
  {
    "postcode": "93161",
    "city": "Regensburg"
  },
  {
    "postcode": "93161",
    "city": "Adlstein"
  },
  {
    "postcode": "93161",
    "city": "Minoritenhof"
  },
  {
    "postcode": "93161",
    "city": "Kohlstadt"
  },
  {
    "postcode": "93161",
    "city": "Kühblöß"
  },
  {
    "postcode": "93161",
    "city": "Oberalling"
  },
  {
    "postcode": "93161",
    "city": "Rosengarten"
  },
  {
    "postcode": "93161",
    "city": "Thalhof"
  },
  {
    "postcode": "93161",
    "city": "Marienhöhe"
  },
  {
    "postcode": "93164",
    "city": "Anger bei Hemau"
  },
  {
    "postcode": "93164",
    "city": "Babetsberg"
  },
  {
    "postcode": "93164",
    "city": "Bergstetten bei Hemau"
  },
  {
    "postcode": "93164",
    "city": "Brunn Kreis Regensburg"
  },
  {
    "postcode": "93164",
    "city": "Brunn"
  },
  {
    "postcode": "93164",
    "city": "Edlhausen bei Hemau"
  },
  {
    "postcode": "93164",
    "city": "Eglsee"
  },
  {
    "postcode": "93164",
    "city": "Endlfeld bei Hemau"
  },
  {
    "postcode": "93164",
    "city": "Endorf bei Hemau"
  },
  {
    "postcode": "93164",
    "city": "Frauenberg"
  },
  {
    "postcode": "93164",
    "city": "Großetzenberg bei Hemau"
  },
  {
    "postcode": "93164",
    "city": "Hinterzhof bei Hemau"
  },
  {
    "postcode": "93164",
    "city": "Kleinetzenberg bei Hemau"
  },
  {
    "postcode": "93164",
    "city": "Laaber"
  },
  {
    "postcode": "93164",
    "city": "Laaber Oberpfalz"
  },
  {
    "postcode": "93164",
    "city": "Münchsried"
  },
  {
    "postcode": "93164",
    "city": "Polzhausen"
  },
  {
    "postcode": "93164",
    "city": "Ried bei Hemau"
  },
  {
    "postcode": "93164",
    "city": "Schaggenhofen bei Hemau"
  },
  {
    "postcode": "93164",
    "city": "Schernried bei Hemau"
  },
  {
    "postcode": "93164",
    "city": "Schrammlhof"
  },
  {
    "postcode": "93164",
    "city": "Waldetzenberg"
  },
  {
    "postcode": "93164",
    "city": "Weißenkirchen"
  },
  {
    "postcode": "93164",
    "city": "Windschnur bei Hemau"
  },
  {
    "postcode": "93164",
    "city": "Regensburg"
  },
  {
    "postcode": "93164",
    "city": "Eiselberg"
  },
  {
    "postcode": "93164",
    "city": "Kirchhof"
  },
  {
    "postcode": "93164",
    "city": "Konstein"
  },
  {
    "postcode": "93164",
    "city": "Pettenhof"
  },
  {
    "postcode": "93164",
    "city": "Edlhausen"
  },
  {
    "postcode": "93164",
    "city": "Bergstetten"
  },
  {
    "postcode": "93164",
    "city": "Kronbügl"
  },
  {
    "postcode": "93164",
    "city": "Endorf"
  },
  {
    "postcode": "93164",
    "city": "Ried"
  },
  {
    "postcode": "93164",
    "city": "Berghof"
  },
  {
    "postcode": "93164",
    "city": "Kleinetzenberg"
  },
  {
    "postcode": "93164",
    "city": "Endlfeld"
  },
  {
    "postcode": "93164",
    "city": "Eisenhammer"
  },
  {
    "postcode": "93164",
    "city": "Endorfmühle"
  },
  {
    "postcode": "93164",
    "city": "Eselburg"
  },
  {
    "postcode": "93164",
    "city": "Anger"
  },
  {
    "postcode": "93164",
    "city": "Hinterzhof"
  },
  {
    "postcode": "93164",
    "city": "Högerlsee"
  },
  {
    "postcode": "93164",
    "city": "Hartlmühle"
  },
  {
    "postcode": "93164",
    "city": "Großetzenberg"
  },
  {
    "postcode": "93164",
    "city": "Kühberg"
  },
  {
    "postcode": "93164",
    "city": "Schaggenhofen"
  },
  {
    "postcode": "93164",
    "city": "Lindenhof"
  },
  {
    "postcode": "93164",
    "city": "Münchsmühle"
  },
  {
    "postcode": "93164",
    "city": "Papiermühle"
  },
  {
    "postcode": "93164",
    "city": "Reiserbügl"
  },
  {
    "postcode": "93164",
    "city": "Schafbruckmühle"
  },
  {
    "postcode": "93164",
    "city": "Schallerwöhr"
  },
  {
    "postcode": "93164",
    "city": "Schernried"
  },
  {
    "postcode": "93164",
    "city": "Türklmühle"
  },
  {
    "postcode": "93164",
    "city": "Windschnur"
  },
  {
    "postcode": "93164",
    "city": "Ziegelhütte"
  },
  {
    "postcode": "93167",
    "city": "Aipoln Oberpfalz"
  },
  {
    "postcode": "93167",
    "city": "Aipoln"
  },
  {
    "postcode": "93167",
    "city": "Antersdorf"
  },
  {
    "postcode": "93167",
    "city": "Arrach Oberpfalz"
  },
  {
    "postcode": "93167",
    "city": "Arrach"
  },
  {
    "postcode": "93167",
    "city": "Au"
  },
  {
    "postcode": "93167",
    "city": "Aukenzell Oberpfalz"
  },
  {
    "postcode": "93167",
    "city": "Aukenzell"
  },
  {
    "postcode": "93167",
    "city": "Breitenbach Oberpfalz"
  },
  {
    "postcode": "93167",
    "city": "Breitenbach"
  },
  {
    "postcode": "93167",
    "city": "Bremhof Oberpfalz"
  },
  {
    "postcode": "93167",
    "city": "Bremhof"
  },
  {
    "postcode": "93167",
    "city": "Eckerzell Oberpfalz"
  },
  {
    "postcode": "93167",
    "city": "Eckerzell"
  },
  {
    "postcode": "93167",
    "city": "Erpfenzell Oberpfalz"
  },
  {
    "postcode": "93167",
    "city": "Erpfenzell"
  },
  {
    "postcode": "93167",
    "city": "Ettmannsdorf Oberpfalz"
  },
  {
    "postcode": "93167",
    "city": "Ettmannsdorf"
  },
  {
    "postcode": "93167",
    "city": "Falkenstein"
  },
  {
    "postcode": "93167",
    "city": "Falkenstein Oberpfalz"
  },
  {
    "postcode": "93167",
    "city": "Gfäll Oberpfalz"
  },
  {
    "postcode": "93167",
    "city": "Gfäll"
  },
  {
    "postcode": "93167",
    "city": "Hagenau Oberpfalz"
  },
  {
    "postcode": "93167",
    "city": "Hagenau"
  },
  {
    "postcode": "93167",
    "city": "Litzelsdorf Oberpfalz"
  },
  {
    "postcode": "93167",
    "city": "Litzelsdorf"
  },
  {
    "postcode": "93167",
    "city": "Mühlthal Oberpfalz"
  },
  {
    "postcode": "93167",
    "city": "Mühlthal"
  },
  {
    "postcode": "93167",
    "city": "Neuhofen Oberpfalz"
  },
  {
    "postcode": "93167",
    "city": "Neuhofen"
  },
  {
    "postcode": "93167",
    "city": "Oberforst Oberpfalz"
  },
  {
    "postcode": "93167",
    "city": "Oberforst"
  },
  {
    "postcode": "93167",
    "city": "Saffelberg Oberpfalz"
  },
  {
    "postcode": "93167",
    "city": "Saffelberg"
  },
  {
    "postcode": "93167",
    "city": "Schergendorf Oberpfalz"
  },
  {
    "postcode": "93167",
    "city": "Schergendorf"
  },
  {
    "postcode": "93167",
    "city": "Schweinsberg Oberpfalz"
  },
  {
    "postcode": "93167",
    "city": "Schweinsberg"
  },
  {
    "postcode": "93167",
    "city": "Völling Oberpfalz"
  },
  {
    "postcode": "93167",
    "city": "Völling"
  },
  {
    "postcode": "93167",
    "city": "Witzenzell Oberpfalz"
  },
  {
    "postcode": "93167",
    "city": "Witzenzell"
  },
  {
    "postcode": "93167",
    "city": "Woppmannszell Oberpfalz"
  },
  {
    "postcode": "93167",
    "city": "Woppmannszell"
  },
  {
    "postcode": "93167",
    "city": "Cham"
  },
  {
    "postcode": "93167",
    "city": "Aichhof"
  },
  {
    "postcode": "93167",
    "city": "Arhalm"
  },
  {
    "postcode": "93167",
    "city": "Aukenberg"
  },
  {
    "postcode": "93167",
    "city": "Bielhof"
  },
  {
    "postcode": "93167",
    "city": "Birkenau"
  },
  {
    "postcode": "93167",
    "city": "Elendhof"
  },
  {
    "postcode": "93167",
    "city": "Grubhof"
  },
  {
    "postcode": "93167",
    "city": "Höhhof"
  },
  {
    "postcode": "93167",
    "city": "Haushof"
  },
  {
    "postcode": "93167",
    "city": "Hofstetten"
  },
  {
    "postcode": "93167",
    "city": "Holzmühle"
  },
  {
    "postcode": "93167",
    "city": "Hundessen"
  },
  {
    "postcode": "93167",
    "city": "Löffelmühl"
  },
  {
    "postcode": "93167",
    "city": "Lederhof"
  },
  {
    "postcode": "93167",
    "city": "Marienstein"
  },
  {
    "postcode": "93167",
    "city": "Mietnach"
  },
  {
    "postcode": "93167",
    "city": "Mistlhof"
  },
  {
    "postcode": "93167",
    "city": "Adlmühl"
  },
  {
    "postcode": "93167",
    "city": "Seidlmühl"
  },
  {
    "postcode": "93167",
    "city": "Oberaign"
  },
  {
    "postcode": "93167",
    "city": "Schellmühl"
  },
  {
    "postcode": "93167",
    "city": "Schlernhof"
  },
  {
    "postcode": "93167",
    "city": "Sonnhof"
  },
  {
    "postcode": "93167",
    "city": "Thannhöhe"
  },
  {
    "postcode": "93167",
    "city": "Thannmühle"
  },
  {
    "postcode": "93167",
    "city": "Unteraign"
  },
  {
    "postcode": "93167",
    "city": "Weismühl"
  },
  {
    "postcode": "93167",
    "city": "Wiedenhof"
  },
  {
    "postcode": "93167",
    "city": "Willmannsried"
  },
  {
    "postcode": "93167",
    "city": "Winkling"
  },
  {
    "postcode": "93170",
    "city": "Adlmannstein"
  },
  {
    "postcode": "93170",
    "city": "Bernhardswald"
  },
  {
    "postcode": "93170",
    "city": "Bosruck"
  },
  {
    "postcode": "93170",
    "city": "Dingstetten"
  },
  {
    "postcode": "93170",
    "city": "Ebenpaint"
  },
  {
    "postcode": "93170",
    "city": "Erlbach Oberpfalz"
  },
  {
    "postcode": "93170",
    "city": "Erlbach"
  },
  {
    "postcode": "93170",
    "city": "Finsing"
  },
  {
    "postcode": "93170",
    "city": "Grubberg Oberpfalz"
  },
  {
    "postcode": "93170",
    "city": "Grubberg"
  },
  {
    "postcode": "93170",
    "city": "Hackenberg Oberpfalz"
  },
  {
    "postcode": "93170",
    "city": "Hackenberg"
  },
  {
    "postcode": "93170",
    "city": "Hauzendorf Oberpfalz"
  },
  {
    "postcode": "93170",
    "city": "Hauzendorf"
  },
  {
    "postcode": "93170",
    "city": "Hinterappendorf Oberpfalz"
  },
  {
    "postcode": "93170",
    "city": "Hinterappendorf"
  },
  {
    "postcode": "93170",
    "city": "Kreuth"
  },
  {
    "postcode": "93170",
    "city": "Kürn Oberpfalz"
  },
  {
    "postcode": "93170",
    "city": "Kürn"
  },
  {
    "postcode": "93170",
    "city": "Lambertsneukirchen Oberpfalz"
  },
  {
    "postcode": "93170",
    "city": "Lambertsneukirchen"
  },
  {
    "postcode": "93170",
    "city": "Lehen Oberpfalz"
  },
  {
    "postcode": "93170",
    "city": "Lehen"
  },
  {
    "postcode": "93170",
    "city": "Löchl Oberpfalz"
  },
  {
    "postcode": "93170",
    "city": "Löchl"
  },
  {
    "postcode": "93170",
    "city": "Pettenreuth Oberpfalz"
  },
  {
    "postcode": "93170",
    "city": "Pettenreuth"
  },
  {
    "postcode": "93170",
    "city": "Pillmannsberg"
  },
  {
    "postcode": "93170",
    "city": "Plitting Oberpfalz"
  },
  {
    "postcode": "93170",
    "city": "Plitting"
  },
  {
    "postcode": "93170",
    "city": "Rammersberg"
  },
  {
    "postcode": "93170",
    "city": "Reiting"
  },
  {
    "postcode": "93170",
    "city": "Samberg Oberpfalz"
  },
  {
    "postcode": "93170",
    "city": "Samberg"
  },
  {
    "postcode": "93170",
    "city": "Schneckenreuth Oberpfalz"
  },
  {
    "postcode": "93170",
    "city": "Schneckenreuth"
  },
  {
    "postcode": "93170",
    "city": "Seibersdorf Oberpfalz"
  },
  {
    "postcode": "93170",
    "city": "Seibersdorf"
  },
  {
    "postcode": "93170",
    "city": "Weg Oberpfalz"
  },
  {
    "postcode": "93170",
    "city": "Weg"
  },
  {
    "postcode": "93170",
    "city": "Wolfersdorf Oberpfalz"
  },
  {
    "postcode": "93170",
    "city": "Wolfersdorf"
  },
  {
    "postcode": "93170",
    "city": "Wolferszwing Oberpfalz"
  },
  {
    "postcode": "93170",
    "city": "Wolferszwing"
  },
  {
    "postcode": "93170",
    "city": "Wulkersdorf"
  },
  {
    "postcode": "93170",
    "city": "Regensburg"
  },
  {
    "postcode": "93170",
    "city": "Lehenfelden"
  },
  {
    "postcode": "93170",
    "city": "Appertszwing"
  },
  {
    "postcode": "93170",
    "city": "Apprant"
  },
  {
    "postcode": "93170",
    "city": "Bachhöfe"
  },
  {
    "postcode": "93170",
    "city": "Kohlstetten"
  },
  {
    "postcode": "93170",
    "city": "Buchhof"
  },
  {
    "postcode": "93170",
    "city": "Dörfling"
  },
  {
    "postcode": "93170",
    "city": "Darmannsdorf"
  },
  {
    "postcode": "93170",
    "city": "Dinglstadt"
  },
  {
    "postcode": "93170",
    "city": "Eberhof"
  },
  {
    "postcode": "93170",
    "city": "Elendbaumgarten"
  },
  {
    "postcode": "93170",
    "city": "Elendbleschen"
  },
  {
    "postcode": "93170",
    "city": "Ellbogen"
  },
  {
    "postcode": "93170",
    "city": "Feldhof"
  },
  {
    "postcode": "93170",
    "city": "Gerstenhof"
  },
  {
    "postcode": "93170",
    "city": "Grubhof"
  },
  {
    "postcode": "93170",
    "city": "Högelstein"
  },
  {
    "postcode": "93170",
    "city": "Höslgrub"
  },
  {
    "postcode": "93170",
    "city": "Hacklsberg"
  },
  {
    "postcode": "93170",
    "city": "Hohenroith"
  },
  {
    "postcode": "93170",
    "city": "Kaltenherberg"
  },
  {
    "postcode": "93170",
    "city": "Kammerhof"
  },
  {
    "postcode": "93170",
    "city": "Kammersölden"
  },
  {
    "postcode": "93170",
    "city": "Lamlhof"
  },
  {
    "postcode": "93170",
    "city": "Lammelhöfl"
  },
  {
    "postcode": "93170",
    "city": "Lichtenberg"
  },
  {
    "postcode": "93170",
    "city": "Plessenberg"
  },
  {
    "postcode": "93170",
    "city": "Lohhof"
  },
  {
    "postcode": "93170",
    "city": "Manghof"
  },
  {
    "postcode": "93170",
    "city": "Mantel"
  },
  {
    "postcode": "93170",
    "city": "Mauth"
  },
  {
    "postcode": "93170",
    "city": "Neuhaus"
  },
  {
    "postcode": "93170",
    "city": "Oberbraunstuben"
  },
  {
    "postcode": "93170",
    "city": "Oberharm"
  },
  {
    "postcode": "93170",
    "city": "Oberhohenroith"
  },
  {
    "postcode": "93170",
    "city": "Oberlipplgütl"
  },
  {
    "postcode": "93170",
    "city": "Parleithen"
  },
  {
    "postcode": "93170",
    "city": "Rothenhofstatt"
  },
  {
    "postcode": "93170",
    "city": "Rudersdorf"
  },
  {
    "postcode": "93170",
    "city": "Ödenhof"
  },
  {
    "postcode": "93170",
    "city": "Ölbrunn"
  },
  {
    "postcode": "93170",
    "city": "Schlaghof"
  },
  {
    "postcode": "93170",
    "city": "Stadlhof"
  },
  {
    "postcode": "93170",
    "city": "Stall"
  },
  {
    "postcode": "93170",
    "city": "Stanglhof"
  },
  {
    "postcode": "93170",
    "city": "Steinrinnen"
  },
  {
    "postcode": "93170",
    "city": "Thalhof"
  },
  {
    "postcode": "93170",
    "city": "Thonseigen"
  },
  {
    "postcode": "93170",
    "city": "Unterbraunstuben"
  },
  {
    "postcode": "93170",
    "city": "Unterharm"
  },
  {
    "postcode": "93170",
    "city": "Unterlipplgütl"
  },
  {
    "postcode": "93170",
    "city": "Vorderappendorf"
  },
  {
    "postcode": "93170",
    "city": "Weiherhäusl"
  },
  {
    "postcode": "93170",
    "city": "Wieden"
  },
  {
    "postcode": "93170",
    "city": "Wieshof"
  },
  {
    "postcode": "93170",
    "city": "Wiesmühl"
  },
  {
    "postcode": "93170",
    "city": "Züchmühl"
  },
  {
    "postcode": "93173",
    "city": "Fußenberg"
  },
  {
    "postcode": "93173",
    "city": "Gonnersdorf"
  },
  {
    "postcode": "93173",
    "city": "Grünthal"
  },
  {
    "postcode": "93173",
    "city": "Hauzenstein"
  },
  {
    "postcode": "93173",
    "city": "Irlbach"
  },
  {
    "postcode": "93173",
    "city": "Probstberg"
  },
  {
    "postcode": "93173",
    "city": "Roith"
  },
  {
    "postcode": "93173",
    "city": "Thanhausen"
  },
  {
    "postcode": "93173",
    "city": "Wenzenbach"
  },
  {
    "postcode": "93173",
    "city": "Regensburg"
  },
  {
    "postcode": "93173",
    "city": "Abbachhof"
  },
  {
    "postcode": "93173",
    "city": "Birkenhof"
  },
  {
    "postcode": "93173",
    "city": "Birkmühle"
  },
  {
    "postcode": "93173",
    "city": "Brunnhöfl"
  },
  {
    "postcode": "93173",
    "city": "Ehrenberg"
  },
  {
    "postcode": "93173",
    "city": "Grabenbach"
  },
  {
    "postcode": "93173",
    "city": "Grafenhofen"
  },
  {
    "postcode": "93173",
    "city": "Hölzlhof"
  },
  {
    "postcode": "93173",
    "city": "Haslach"
  },
  {
    "postcode": "93173",
    "city": "Hopfengarten"
  },
  {
    "postcode": "93173",
    "city": "Jägerberg"
  },
  {
    "postcode": "93173",
    "city": "Kufberg"
  },
  {
    "postcode": "93173",
    "city": "Lehen"
  },
  {
    "postcode": "93173",
    "city": "Oberackerhof"
  },
  {
    "postcode": "93173",
    "city": "Schnaitterhof"
  },
  {
    "postcode": "93173",
    "city": "Steinbügl"
  },
  {
    "postcode": "93173",
    "city": "Strohberg"
  },
  {
    "postcode": "93173",
    "city": "Thanhof"
  },
  {
    "postcode": "93173",
    "city": "Thurnhof"
  },
  {
    "postcode": "93173",
    "city": "Unterackerhof"
  },
  {
    "postcode": "93173",
    "city": "Zeitlhof"
  },
  {
    "postcode": "93173",
    "city": "Ziegenhof"
  },
  {
    "postcode": "93176",
    "city": "Aichhof"
  },
  {
    "postcode": "93176",
    "city": "Beilnstein"
  },
  {
    "postcode": "93176",
    "city": "Beratzhausen"
  },
  {
    "postcode": "93176",
    "city": "Buxlohe"
  },
  {
    "postcode": "93176",
    "city": "Grünschlag"
  },
  {
    "postcode": "93176",
    "city": "Haderlsdorf"
  },
  {
    "postcode": "93176",
    "city": "Hardt"
  },
  {
    "postcode": "93176",
    "city": "Hatzenhof"
  },
  {
    "postcode": "93176",
    "city": "Hinterkreith"
  },
  {
    "postcode": "93176",
    "city": "Hinterthann"
  },
  {
    "postcode": "93176",
    "city": "Hirschstein"
  },
  {
    "postcode": "93176",
    "city": "Illkofen"
  },
  {
    "postcode": "93176",
    "city": "Mausheim"
  },
  {
    "postcode": "93176",
    "city": "Mitterkreith"
  },
  {
    "postcode": "93176",
    "city": "Neuhöfl"
  },
  {
    "postcode": "93176",
    "city": "Niesaß"
  },
  {
    "postcode": "93176",
    "city": "Oberpfraundorf"
  },
  {
    "postcode": "93176",
    "city": "Paarstadl"
  },
  {
    "postcode": "93176",
    "city": "Rechberg"
  },
  {
    "postcode": "93176",
    "city": "Rufenried"
  },
  {
    "postcode": "93176",
    "city": "Schrotzhofen"
  },
  {
    "postcode": "93176",
    "city": "Schwarzenthonhausen"
  },
  {
    "postcode": "93176",
    "city": "Unterlichtenberg"
  },
  {
    "postcode": "93176",
    "city": "Unterpfraundorf"
  },
  {
    "postcode": "93176",
    "city": "Uttenhof"
  },
  {
    "postcode": "93176",
    "city": "Vorderkreith"
  },
  {
    "postcode": "93176",
    "city": "Regensburg"
  },
  {
    "postcode": "93176",
    "city": "Ametshof"
  },
  {
    "postcode": "93176",
    "city": "Besenbruck"
  },
  {
    "postcode": "93176",
    "city": "Engelthal"
  },
  {
    "postcode": "93176",
    "city": "Forsterberg"
  },
  {
    "postcode": "93176",
    "city": "Friesenhof"
  },
  {
    "postcode": "93176",
    "city": "Friesenmühle"
  },
  {
    "postcode": "93176",
    "city": "Glaserhof"
  },
  {
    "postcode": "93176",
    "city": "Gleislmühle"
  },
  {
    "postcode": "93176",
    "city": "Gleiter"
  },
  {
    "postcode": "93176",
    "city": "Grametshof"
  },
  {
    "postcode": "93176",
    "city": "Hölzlhof"
  },
  {
    "postcode": "93176",
    "city": "Hohenlohe"
  },
  {
    "postcode": "93176",
    "city": "Königsmühle"
  },
  {
    "postcode": "93176",
    "city": "Katharied"
  },
  {
    "postcode": "93176",
    "city": "Kohlmühle"
  },
  {
    "postcode": "93176",
    "city": "Lammhof"
  },
  {
    "postcode": "93176",
    "city": "Mausermühle"
  },
  {
    "postcode": "93176",
    "city": "Mitterbügl"
  },
  {
    "postcode": "93176",
    "city": "Neuhof"
  },
  {
    "postcode": "93176",
    "city": "Oberbügl"
  },
  {
    "postcode": "93176",
    "city": "Oberlichtenberg"
  },
  {
    "postcode": "93176",
    "city": "Pexmühle"
  },
  {
    "postcode": "93176",
    "city": "Puppenhof"
  },
  {
    "postcode": "93176",
    "city": "Rauhbügl"
  },
  {
    "postcode": "93176",
    "city": "Rauschhof"
  },
  {
    "postcode": "93176",
    "city": "Ritzhof"
  },
  {
    "postcode": "93176",
    "city": "Ruxhof"
  },
  {
    "postcode": "93176",
    "city": "Ödenbügl"
  },
  {
    "postcode": "93176",
    "city": "Schaafhof"
  },
  {
    "postcode": "93176",
    "city": "Seelach"
  },
  {
    "postcode": "93176",
    "city": "Sinngrün"
  },
  {
    "postcode": "93176",
    "city": "Stecherhof"
  },
  {
    "postcode": "93176",
    "city": "Zehenthof"
  },
  {
    "postcode": "93177",
    "city": "Altenthann"
  },
  {
    "postcode": "93177",
    "city": "Altenthann Oberpfalz"
  },
  {
    "postcode": "93177",
    "city": "Forstmühle Oberpfalz"
  },
  {
    "postcode": "93177",
    "city": "Forstmühle"
  },
  {
    "postcode": "93177",
    "city": "Göppenbach Oberpfalz"
  },
  {
    "postcode": "93177",
    "city": "Göppenbach"
  },
  {
    "postcode": "93177",
    "city": "Gottesberg Oberpfalz"
  },
  {
    "postcode": "93177",
    "city": "Gottesberg"
  },
  {
    "postcode": "93177",
    "city": "Haid"
  },
  {
    "postcode": "93177",
    "city": "Heuweg"
  },
  {
    "postcode": "93177",
    "city": "Oberlichtenwald"
  },
  {
    "postcode": "93177",
    "city": "Orhalm Oberpfalz"
  },
  {
    "postcode": "93177",
    "city": "Orhalm"
  },
  {
    "postcode": "93177",
    "city": "Pfaffenfang Oberpfalz"
  },
  {
    "postcode": "93177",
    "city": "Pfaffenfang"
  },
  {
    "postcode": "93177",
    "city": "Röhren Oberpfalz"
  },
  {
    "postcode": "93177",
    "city": "Röhren"
  },
  {
    "postcode": "93177",
    "city": "Spitz Oberpfalz"
  },
  {
    "postcode": "93177",
    "city": "Spitz"
  },
  {
    "postcode": "93177",
    "city": "Stubenthal Oberpfalz"
  },
  {
    "postcode": "93177",
    "city": "Stubenthal"
  },
  {
    "postcode": "93177",
    "city": "Unterlichtenwald"
  },
  {
    "postcode": "93177",
    "city": "Willmannsberg Oberpfalz"
  },
  {
    "postcode": "93177",
    "city": "Willmannsberg"
  },
  {
    "postcode": "93177",
    "city": "Regensburg"
  },
  {
    "postcode": "93177",
    "city": "Aschenbrennermarter"
  },
  {
    "postcode": "93177",
    "city": "Auersölden"
  },
  {
    "postcode": "93177",
    "city": "Bachmühl"
  },
  {
    "postcode": "93177",
    "city": "Berghof"
  },
  {
    "postcode": "93177",
    "city": "Brunnstuben"
  },
  {
    "postcode": "93177",
    "city": "Eichhof"
  },
  {
    "postcode": "93177",
    "city": "Geishof"
  },
  {
    "postcode": "93177",
    "city": "Gsellhof"
  },
  {
    "postcode": "93177",
    "city": "Gsellmühle"
  },
  {
    "postcode": "93177",
    "city": "Hörglhof"
  },
  {
    "postcode": "93177",
    "city": "Hornismühle"
  },
  {
    "postcode": "93177",
    "city": "Kagerhof"
  },
  {
    "postcode": "93177",
    "city": "Kropfersberg"
  },
  {
    "postcode": "93177",
    "city": "Landsgrub"
  },
  {
    "postcode": "93177",
    "city": "Pömerlmühl"
  },
  {
    "postcode": "93177",
    "city": "Pfittershof"
  },
  {
    "postcode": "93177",
    "city": "Pielhof"
  },
  {
    "postcode": "93177",
    "city": "Refthal"
  },
  {
    "postcode": "93177",
    "city": "Reinhartswinkl"
  },
  {
    "postcode": "93177",
    "city": "Roidhof"
  },
  {
    "postcode": "93177",
    "city": "Ödgarten"
  },
  {
    "postcode": "93177",
    "city": "Scharr"
  },
  {
    "postcode": "93177",
    "city": "Scherbatzen"
  },
  {
    "postcode": "93177",
    "city": "Schmatzhäusl"
  },
  {
    "postcode": "93177",
    "city": "Seehof"
  },
  {
    "postcode": "93177",
    "city": "Spieshof"
  },
  {
    "postcode": "93177",
    "city": "Steinbuckl"
  },
  {
    "postcode": "93177",
    "city": "Steinklippen"
  },
  {
    "postcode": "93177",
    "city": "Sägmühl"
  },
  {
    "postcode": "93177",
    "city": "Thiergarten"
  },
  {
    "postcode": "93177",
    "city": "Weiherhaus"
  },
  {
    "postcode": "93177",
    "city": "Weihersölden"
  },
  {
    "postcode": "93177",
    "city": "Wiesing"
  },
  {
    "postcode": "93177",
    "city": "Ziegelhaus"
  },
  {
    "postcode": "93179",
    "city": "Bibersbach"
  },
  {
    "postcode": "93179",
    "city": "Brennberg"
  },
  {
    "postcode": "93179",
    "city": "Brennberg Oberpfalz"
  },
  {
    "postcode": "93179",
    "city": "Bruckbach"
  },
  {
    "postcode": "93179",
    "city": "Fahndorf"
  },
  {
    "postcode": "93179",
    "city": "Frankenberg"
  },
  {
    "postcode": "93179",
    "city": "Frauenzell"
  },
  {
    "postcode": "93179",
    "city": "Himmelmühle"
  },
  {
    "postcode": "93179",
    "city": "Himmelthal"
  },
  {
    "postcode": "93179",
    "city": "Kirnberg"
  },
  {
    "postcode": "93179",
    "city": "Ochsenweide"
  },
  {
    "postcode": "93179",
    "city": "Schwaig"
  },
  {
    "postcode": "93179",
    "city": "Wetzelsdorf"
  },
  {
    "postcode": "93179",
    "city": "Zumhof Oberpfalz"
  },
  {
    "postcode": "93179",
    "city": "Zumhof"
  },
  {
    "postcode": "93179",
    "city": "Regensburg"
  },
  {
    "postcode": "93179",
    "city": "Außenlehen"
  },
  {
    "postcode": "93179",
    "city": "Berndorf"
  },
  {
    "postcode": "93179",
    "city": "Buchberg"
  },
  {
    "postcode": "93179",
    "city": "Dessenacker"
  },
  {
    "postcode": "93179",
    "city": "Dosmühle"
  },
  {
    "postcode": "93179",
    "city": "Eichlberg"
  },
  {
    "postcode": "93179",
    "city": "Engelsberg"
  },
  {
    "postcode": "93179",
    "city": "Fahnmühle"
  },
  {
    "postcode": "93179",
    "city": "Falkenlehen"
  },
  {
    "postcode": "93179",
    "city": "Fischbehälter"
  },
  {
    "postcode": "93179",
    "city": "Forsthof"
  },
  {
    "postcode": "93179",
    "city": "Grabenhof"
  },
  {
    "postcode": "93179",
    "city": "Grubfeld"
  },
  {
    "postcode": "93179",
    "city": "Grubhof"
  },
  {
    "postcode": "93179",
    "city": "Höllmühle"
  },
  {
    "postcode": "93179",
    "city": "Hamberg"
  },
  {
    "postcode": "93179",
    "city": "Hammermühle"
  },
  {
    "postcode": "93179",
    "city": "Hauserhof"
  },
  {
    "postcode": "93179",
    "city": "Hechtfeld"
  },
  {
    "postcode": "93179",
    "city": "Hechthof"
  },
  {
    "postcode": "93179",
    "city": "Hintergrub"
  },
  {
    "postcode": "93179",
    "city": "Hochaigen"
  },
  {
    "postcode": "93179",
    "city": "Hohenrad"
  },
  {
    "postcode": "93179",
    "city": "Innenlehen"
  },
  {
    "postcode": "93179",
    "city": "Kerm"
  },
  {
    "postcode": "93179",
    "city": "Kleinhimmelmühle"
  },
  {
    "postcode": "93179",
    "city": "Klosterberg"
  },
  {
    "postcode": "93179",
    "city": "Kriegergütl"
  },
  {
    "postcode": "93179",
    "city": "Leibgütl"
  },
  {
    "postcode": "93179",
    "city": "Lohhof"
  },
  {
    "postcode": "93179",
    "city": "Loidsberg"
  },
  {
    "postcode": "93179",
    "city": "Neustadl"
  },
  {
    "postcode": "93179",
    "city": "Obereppenberg"
  },
  {
    "postcode": "93179",
    "city": "Pöllhof"
  },
  {
    "postcode": "93179",
    "city": "Pfaffenthann"
  },
  {
    "postcode": "93179",
    "city": "Pielhof"
  },
  {
    "postcode": "93179",
    "city": "Schmidlehen"
  },
  {
    "postcode": "93179",
    "city": "Schmuckerwinkl"
  },
  {
    "postcode": "93179",
    "city": "Schrottenloh"
  },
  {
    "postcode": "93179",
    "city": "Stadl"
  },
  {
    "postcode": "93179",
    "city": "Thalhof"
  },
  {
    "postcode": "93179",
    "city": "Untereppenberg"
  },
  {
    "postcode": "93179",
    "city": "Weismühle"
  },
  {
    "postcode": "93179",
    "city": "Wernetsgrub"
  },
  {
    "postcode": "93179",
    "city": "Ziegelhäusl"
  },
  {
    "postcode": "93179",
    "city": "Zieglöde"
  },
  {
    "postcode": "93179",
    "city": "Zinthof"
  },
  {
    "postcode": "93179",
    "city": "Zwergfeld"
  },
  {
    "postcode": "93179",
    "city": "Zwinger"
  },
  {
    "postcode": "93180",
    "city": "Bachleiten"
  },
  {
    "postcode": "93180",
    "city": "Deuerling"
  },
  {
    "postcode": "93180",
    "city": "Heimberg"
  },
  {
    "postcode": "93180",
    "city": "Hillohe"
  },
  {
    "postcode": "93180",
    "city": "Steinerbrückl"
  },
  {
    "postcode": "93180",
    "city": "Regensburg"
  },
  {
    "postcode": "93180",
    "city": "Stegenhof"
  },
  {
    "postcode": "93180",
    "city": "Willibaldhäusl"
  },
  {
    "postcode": "93182",
    "city": "Auf'nberg"
  },
  {
    "postcode": "93182",
    "city": "Duggendorf"
  },
  {
    "postcode": "93182",
    "city": "Gessendorf"
  },
  {
    "postcode": "93182",
    "city": "Girnitz"
  },
  {
    "postcode": "93182",
    "city": "Heitzenhofen"
  },
  {
    "postcode": "93182",
    "city": "Hochdorf"
  },
  {
    "postcode": "93182",
    "city": "Judenberg"
  },
  {
    "postcode": "93182",
    "city": "Neuhof"
  },
  {
    "postcode": "93182",
    "city": "Schwarzhöfe"
  },
  {
    "postcode": "93182",
    "city": "Weichseldorf"
  },
  {
    "postcode": "93182",
    "city": "Wischenhofen"
  },
  {
    "postcode": "93182",
    "city": "Regensburg"
  },
  {
    "postcode": "93182",
    "city": "Weihergut"
  },
  {
    "postcode": "93182",
    "city": "Brunnenstich"
  },
  {
    "postcode": "93182",
    "city": "Züntergut"
  },
  {
    "postcode": "93182",
    "city": "Haidberg"
  },
  {
    "postcode": "93182",
    "city": "Weinberg"
  },
  {
    "postcode": "93182",
    "city": "Zeinberg"
  },
  {
    "postcode": "93183",
    "city": "Brunoder am Forst"
  },
  {
    "postcode": "93183",
    "city": "Bubach am Forst"
  },
  {
    "postcode": "93183",
    "city": "Dallackenried"
  },
  {
    "postcode": "93183",
    "city": "Dinau"
  },
  {
    "postcode": "93183",
    "city": "Eich"
  },
  {
    "postcode": "93183",
    "city": "Fischbach an der Naab"
  },
  {
    "postcode": "93183",
    "city": "Haslach am Forst"
  },
  {
    "postcode": "93183",
    "city": "Holzheim"
  },
  {
    "postcode": "93183",
    "city": "Holzheim am Forst"
  },
  {
    "postcode": "93183",
    "city": "Irnhüll am Forst"
  },
  {
    "postcode": "93183",
    "city": "Kallmünz"
  },
  {
    "postcode": "93183",
    "city": "Krachenhausen"
  },
  {
    "postcode": "93183",
    "city": "Mühlschlag"
  },
  {
    "postcode": "93183",
    "city": "Oberwahrberg"
  },
  {
    "postcode": "93183",
    "city": "Rohrbach Oberpfalz"
  },
  {
    "postcode": "93183",
    "city": "Rohrbach"
  },
  {
    "postcode": "93183",
    "city": "Schirndorf"
  },
  {
    "postcode": "93183",
    "city": "Traidendorf"
  },
  {
    "postcode": "93183",
    "city": "Traidenloh am Forst"
  },
  {
    "postcode": "93183",
    "city": "Trischlberg am Forst"
  },
  {
    "postcode": "93183",
    "city": "Unterbrunn am Forst"
  },
  {
    "postcode": "93183",
    "city": "Widlthal am Forst"
  },
  {
    "postcode": "93183",
    "city": "Regensburg"
  },
  {
    "postcode": "93183",
    "city": "Holzheim a. Forst"
  },
  {
    "postcode": "93183",
    "city": "Brunoder"
  },
  {
    "postcode": "93183",
    "city": "Bubach"
  },
  {
    "postcode": "93183",
    "city": "Dornau"
  },
  {
    "postcode": "93183",
    "city": "Geisenthal"
  },
  {
    "postcode": "93183",
    "city": "Haslach"
  },
  {
    "postcode": "93183",
    "city": "Hirschhof"
  },
  {
    "postcode": "93183",
    "city": "Hubhof"
  },
  {
    "postcode": "93183",
    "city": "Irnhüll"
  },
  {
    "postcode": "93183",
    "city": "Ödenholz"
  },
  {
    "postcode": "93183",
    "city": "Traidenloh"
  },
  {
    "postcode": "93183",
    "city": "Trischlberg"
  },
  {
    "postcode": "93183",
    "city": "Unterbrunn"
  },
  {
    "postcode": "93183",
    "city": "Widlthal"
  },
  {
    "postcode": "93183",
    "city": "Berghof"
  },
  {
    "postcode": "93183",
    "city": "Carolinenhütte"
  },
  {
    "postcode": "93183",
    "city": "Eichkreith"
  },
  {
    "postcode": "93183",
    "city": "Eiselberg"
  },
  {
    "postcode": "93183",
    "city": "Fischbach"
  },
  {
    "postcode": "93183",
    "city": "Fischerberg"
  },
  {
    "postcode": "93183",
    "city": "Giglitzhof"
  },
  {
    "postcode": "93183",
    "city": "Grabenhof"
  },
  {
    "postcode": "93183",
    "city": "Grain"
  },
  {
    "postcode": "93183",
    "city": "Grain am Berg"
  },
  {
    "postcode": "93183",
    "city": "Kollerhof"
  },
  {
    "postcode": "93183",
    "city": "Loh"
  },
  {
    "postcode": "93183",
    "city": "Mollerhof"
  },
  {
    "postcode": "93183",
    "city": "Murrenberg"
  },
  {
    "postcode": "93183",
    "city": "Nassenau"
  },
  {
    "postcode": "93183",
    "city": "Niederhof"
  },
  {
    "postcode": "93183",
    "city": "Schreiberthal"
  },
  {
    "postcode": "93183",
    "city": "Sommerhau"
  },
  {
    "postcode": "93183",
    "city": "Stöcklhof"
  },
  {
    "postcode": "93183",
    "city": "Wiedenhof"
  },
  {
    "postcode": "93183",
    "city": "Zaar"
  },
  {
    "postcode": "93185",
    "city": "Dachsberg"
  },
  {
    "postcode": "93185",
    "city": "Dörfling"
  },
  {
    "postcode": "93185",
    "city": "Eidengrub Oberpfalz"
  },
  {
    "postcode": "93185",
    "city": "Eidengrub"
  },
  {
    "postcode": "93185",
    "city": "Fichten"
  },
  {
    "postcode": "93185",
    "city": "Forst"
  },
  {
    "postcode": "93185",
    "city": "Glöcklswies"
  },
  {
    "postcode": "93185",
    "city": "Hutting Oberpfalz"
  },
  {
    "postcode": "93185",
    "city": "Hutting"
  },
  {
    "postcode": "93185",
    "city": "Kleingeraszell"
  },
  {
    "postcode": "93185",
    "city": "Lobmannswies"
  },
  {
    "postcode": "93185",
    "city": "Michelsneukirchen"
  },
  {
    "postcode": "93185",
    "city": "Momansfelden"
  },
  {
    "postcode": "93185",
    "city": "Ponholz Kreis Cham Oberpfalz"
  },
  {
    "postcode": "93185",
    "city": "Ponholz"
  },
  {
    "postcode": "93185",
    "city": "Premsthal Oberpfalz"
  },
  {
    "postcode": "93185",
    "city": "Premsthal"
  },
  {
    "postcode": "93185",
    "city": "Regelsmais"
  },
  {
    "postcode": "93185",
    "city": "Reichersdorf"
  },
  {
    "postcode": "93185",
    "city": "Schrötting"
  },
  {
    "postcode": "93185",
    "city": "Schwaighof"
  },
  {
    "postcode": "93185",
    "city": "Tauschendorf"
  },
  {
    "postcode": "93185",
    "city": "Thiermietnach"
  },
  {
    "postcode": "93185",
    "city": "Wolletsthal Oberpfalz"
  },
  {
    "postcode": "93185",
    "city": "Wolletsthal"
  },
  {
    "postcode": "93185",
    "city": "Woppmannsdorf"
  },
  {
    "postcode": "93185",
    "city": "Cham"
  },
  {
    "postcode": "93185",
    "city": "Altenhofstetten"
  },
  {
    "postcode": "93185",
    "city": "Bruckmühl"
  },
  {
    "postcode": "93185",
    "city": "Bucherhof"
  },
  {
    "postcode": "93185",
    "city": "Eglsee"
  },
  {
    "postcode": "93185",
    "city": "Elend"
  },
  {
    "postcode": "93185",
    "city": "Elend bei Woppmannsdorf"
  },
  {
    "postcode": "93185",
    "city": "Fingermühl"
  },
  {
    "postcode": "93185",
    "city": "Griesmühl"
  },
  {
    "postcode": "93185",
    "city": "Guthof"
  },
  {
    "postcode": "93185",
    "city": "Hagenschwand"
  },
  {
    "postcode": "93185",
    "city": "Haidhof"
  },
  {
    "postcode": "93185",
    "city": "Holzmühl"
  },
  {
    "postcode": "93185",
    "city": "Jammer"
  },
  {
    "postcode": "93185",
    "city": "Kohlmühle"
  },
  {
    "postcode": "93185",
    "city": "Kothmühl"
  },
  {
    "postcode": "93185",
    "city": "Krottenthal"
  },
  {
    "postcode": "93185",
    "city": "Lochfeld"
  },
  {
    "postcode": "93185",
    "city": "Mauth"
  },
  {
    "postcode": "93185",
    "city": "Neudeck"
  },
  {
    "postcode": "93185",
    "city": "Niederhof"
  },
  {
    "postcode": "93185",
    "city": "Noth"
  },
  {
    "postcode": "93185",
    "city": "Oberhof"
  },
  {
    "postcode": "93185",
    "city": "Obermühl"
  },
  {
    "postcode": "93185",
    "city": "Pfaffengschwand"
  },
  {
    "postcode": "93185",
    "city": "Ronberg"
  },
  {
    "postcode": "93185",
    "city": "Schwaigersried"
  },
  {
    "postcode": "93185",
    "city": "Sonnhof"
  },
  {
    "postcode": "93185",
    "city": "St. Quirin"
  },
  {
    "postcode": "93185",
    "city": "Steinbühl"
  },
  {
    "postcode": "93185",
    "city": "Straßberg"
  },
  {
    "postcode": "93185",
    "city": "Wiesmühl"
  },
  {
    "postcode": "93185",
    "city": "Zwinger"
  },
  {
    "postcode": "93186",
    "city": "Adlersberg Kreis Regensburg"
  },
  {
    "postcode": "93186",
    "city": "Adlersberg"
  },
  {
    "postcode": "93186",
    "city": "Eibrunn Kreis Regensburg"
  },
  {
    "postcode": "93186",
    "city": "Eibrunn"
  },
  {
    "postcode": "93186",
    "city": "Eichenbrunn"
  },
  {
    "postcode": "93186",
    "city": "Günzenried"
  },
  {
    "postcode": "93186",
    "city": "Hinterberg"
  },
  {
    "postcode": "93186",
    "city": "Kneiting"
  },
  {
    "postcode": "93186",
    "city": "Neudorf Kreis Regensburg"
  },
  {
    "postcode": "93186",
    "city": "Neudorf"
  },
  {
    "postcode": "93186",
    "city": "Pettendorf"
  },
  {
    "postcode": "93186",
    "city": "Pettendorf Oberpfalz"
  },
  {
    "postcode": "93186",
    "city": "Reifenthal"
  },
  {
    "postcode": "93186",
    "city": "Schwetzendorf"
  },
  {
    "postcode": "93186",
    "city": "Tremmelhausen"
  },
  {
    "postcode": "93186",
    "city": "Regensburg"
  },
  {
    "postcode": "93186",
    "city": "Aichahof"
  },
  {
    "postcode": "93186",
    "city": "Mariaort"
  },
  {
    "postcode": "93186",
    "city": "Haselhof"
  },
  {
    "postcode": "93186",
    "city": "Hummelberg"
  },
  {
    "postcode": "93186",
    "city": "Ried"
  },
  {
    "postcode": "93186",
    "city": "Urtlhof"
  },
  {
    "postcode": "93188",
    "city": "Distelhausen Kreis Regensburg"
  },
  {
    "postcode": "93188",
    "city": "Distelhausen"
  },
  {
    "postcode": "93188",
    "city": "Pielenhofen"
  },
  {
    "postcode": "93188",
    "city": "Reinhardshofen Kreis Regensburg"
  },
  {
    "postcode": "93188",
    "city": "Reinhardshofen"
  },
  {
    "postcode": "93188",
    "city": "Reinhardsleiten Kreis Regensburg"
  },
  {
    "postcode": "93188",
    "city": "Reinhardsleiten"
  },
  {
    "postcode": "93188",
    "city": "Rohrdorf"
  },
  {
    "postcode": "93188",
    "city": "Zieglhof Kreis Regensburg"
  },
  {
    "postcode": "93188",
    "city": "Zieglhof"
  },
  {
    "postcode": "93188",
    "city": "Regensburg"
  },
  {
    "postcode": "93188",
    "city": "Aignhof"
  },
  {
    "postcode": "93188",
    "city": "Berghof"
  },
  {
    "postcode": "93188",
    "city": "Dettenhofen"
  },
  {
    "postcode": "93188",
    "city": "Freiung"
  },
  {
    "postcode": "93189",
    "city": "Heimhof"
  },
  {
    "postcode": "93189",
    "city": "Kienleiten Oberpfalz"
  },
  {
    "postcode": "93189",
    "city": "Kienleiten"
  },
  {
    "postcode": "93189",
    "city": "Linden Oberpfalz"
  },
  {
    "postcode": "93189",
    "city": "Linden"
  },
  {
    "postcode": "93189",
    "city": "Reichenbach Oberpfalz"
  },
  {
    "postcode": "93189",
    "city": "Reichenbach"
  },
  {
    "postcode": "93189",
    "city": "Windhof Oberpfalz"
  },
  {
    "postcode": "93189",
    "city": "Windhof"
  },
  {
    "postcode": "93189",
    "city": "Cham"
  },
  {
    "postcode": "93189",
    "city": "Atzenwied"
  },
  {
    "postcode": "93189",
    "city": "Hochgart"
  },
  {
    "postcode": "93189",
    "city": "Kaltenbach"
  },
  {
    "postcode": "93191",
    "city": "Aschau Oberpfalz"
  },
  {
    "postcode": "93191",
    "city": "Aschau"
  },
  {
    "postcode": "93191",
    "city": "Aumbach Oberpfalz"
  },
  {
    "postcode": "93191",
    "city": "Aumbach"
  },
  {
    "postcode": "93191",
    "city": "Ebersroith Oberpfalz"
  },
  {
    "postcode": "93191",
    "city": "Ebersroith"
  },
  {
    "postcode": "93191",
    "city": "Haag Oberpfalz"
  },
  {
    "postcode": "93191",
    "city": "Haag"
  },
  {
    "postcode": "93191",
    "city": "Langau Oberpfalz"
  },
  {
    "postcode": "93191",
    "city": "Langau"
  },
  {
    "postcode": "93191",
    "city": "Postfelden Oberpfalz"
  },
  {
    "postcode": "93191",
    "city": "Postfelden"
  },
  {
    "postcode": "93191",
    "city": "Rettenbach"
  },
  {
    "postcode": "93191",
    "city": "Röhrenhof Oberpfalz"
  },
  {
    "postcode": "93191",
    "city": "Röhrenhof"
  },
  {
    "postcode": "93191",
    "city": "Ruderszell Oberpfalz"
  },
  {
    "postcode": "93191",
    "city": "Ruderszell"
  },
  {
    "postcode": "93191",
    "city": "See"
  },
  {
    "postcode": "93191",
    "city": "Thallern Oberpfalz"
  },
  {
    "postcode": "93191",
    "city": "Thallern"
  },
  {
    "postcode": "93191",
    "city": "Cham"
  },
  {
    "postcode": "93191",
    "city": "Aumbrunn"
  },
  {
    "postcode": "93191",
    "city": "Bergershof"
  },
  {
    "postcode": "93191",
    "city": "Brieberg"
  },
  {
    "postcode": "93191",
    "city": "Eitenzell"
  },
  {
    "postcode": "93191",
    "city": "Grubmühle"
  },
  {
    "postcode": "93191",
    "city": "Haagthann"
  },
  {
    "postcode": "93191",
    "city": "Haslhof"
  },
  {
    "postcode": "93191",
    "city": "Herrnthann"
  },
  {
    "postcode": "93191",
    "city": "Kastel Windsor"
  },
  {
    "postcode": "93191",
    "city": "Neumühle"
  },
  {
    "postcode": "93191",
    "city": "Rohrbruck"
  },
  {
    "postcode": "93191",
    "city": "Schmalzgrub"
  },
  {
    "postcode": "93191",
    "city": "Schrollmühle"
  },
  {
    "postcode": "93191",
    "city": "Stocksgrub"
  },
  {
    "postcode": "93191",
    "city": "Taubenberg"
  },
  {
    "postcode": "93192",
    "city": "Buchendorf Oberpfalz"
  },
  {
    "postcode": "93192",
    "city": "Buchendorf"
  },
  {
    "postcode": "93192",
    "city": "Dürnberg Oberpfalz"
  },
  {
    "postcode": "93192",
    "city": "Dürnberg"
  },
  {
    "postcode": "93192",
    "city": "Götzendorf Oberpfalz"
  },
  {
    "postcode": "93192",
    "city": "Götzendorf"
  },
  {
    "postcode": "93192",
    "city": "Gumping Oberpfalz"
  },
  {
    "postcode": "93192",
    "city": "Gumping"
  },
  {
    "postcode": "93192",
    "city": "Kolmberg Oberpfalz"
  },
  {
    "postcode": "93192",
    "city": "Kolmberg"
  },
  {
    "postcode": "93192",
    "city": "Maiertshof Oberpfalz"
  },
  {
    "postcode": "93192",
    "city": "Maiertshof"
  },
  {
    "postcode": "93192",
    "city": "Mainsbauern Oberpfalz"
  },
  {
    "postcode": "93192",
    "city": "Mainsbauern"
  },
  {
    "postcode": "93192",
    "city": "Nahenfürst Oberpfalz"
  },
  {
    "postcode": "93192",
    "city": "Nahenfürst"
  },
  {
    "postcode": "93192",
    "city": "Roßbach Oberpfalz"
  },
  {
    "postcode": "93192",
    "city": "Roßbach"
  },
  {
    "postcode": "93192",
    "city": "Schönfeld"
  },
  {
    "postcode": "93192",
    "city": "Siegenstein Oberpfalz"
  },
  {
    "postcode": "93192",
    "city": "Siegenstein"
  },
  {
    "postcode": "93192",
    "city": "Steinbach Oberpfalz"
  },
  {
    "postcode": "93192",
    "city": "Steinbach"
  },
  {
    "postcode": "93192",
    "city": "Sulzbach Oberpfalz"
  },
  {
    "postcode": "93192",
    "city": "Sulzbach"
  },
  {
    "postcode": "93192",
    "city": "Süssenbach Oberpfalz"
  },
  {
    "postcode": "93192",
    "city": "Süssenbach"
  },
  {
    "postcode": "93192",
    "city": "Treitersberg Oberpfalz"
  },
  {
    "postcode": "93192",
    "city": "Treitersberg"
  },
  {
    "postcode": "93192",
    "city": "Wald Oberpfalz"
  },
  {
    "postcode": "93192",
    "city": "Wald"
  },
  {
    "postcode": "93192",
    "city": "Weitenfürst Oberpfalz"
  },
  {
    "postcode": "93192",
    "city": "Weitenfürst"
  },
  {
    "postcode": "93192",
    "city": "Woppmannsdorf Oberpfalz"
  },
  {
    "postcode": "93192",
    "city": "Woppmannsdorf"
  },
  {
    "postcode": "93192",
    "city": "Wutzldorf Oberpfalz"
  },
  {
    "postcode": "93192",
    "city": "Wutzldorf"
  },
  {
    "postcode": "93192",
    "city": "Cham"
  },
  {
    "postcode": "93192",
    "city": "Beckenschlag"
  },
  {
    "postcode": "93192",
    "city": "Dangelsdorf"
  },
  {
    "postcode": "93192",
    "city": "Fraunhofen"
  },
  {
    "postcode": "93192",
    "city": "Galgenberg"
  },
  {
    "postcode": "93192",
    "city": "Gschwand"
  },
  {
    "postcode": "93192",
    "city": "Hönighof"
  },
  {
    "postcode": "93192",
    "city": "Hirschenbühl"
  },
  {
    "postcode": "93192",
    "city": "Losenhof"
  },
  {
    "postcode": "93192",
    "city": "Luckstein"
  },
  {
    "postcode": "93192",
    "city": "Pfaffenöd"
  },
  {
    "postcode": "93192",
    "city": "Riegertshof"
  },
  {
    "postcode": "93192",
    "city": "Sandorf"
  },
  {
    "postcode": "93192",
    "city": "Schwalbenhof"
  },
  {
    "postcode": "93192",
    "city": "Steghof"
  },
  {
    "postcode": "93192",
    "city": "Steinmühl"
  },
  {
    "postcode": "93192",
    "city": "Steinsölden"
  },
  {
    "postcode": "93192",
    "city": "Untersteinbach"
  },
  {
    "postcode": "93192",
    "city": "Wiesmühle"
  },
  {
    "postcode": "93192",
    "city": "Wünschenbach"
  },
  {
    "postcode": "93192",
    "city": "Zimmerhof"
  },
  {
    "postcode": "93192",
    "city": "Zwiglhof"
  },
  {
    "postcode": "93192",
    "city": "Zwiglmühl"
  },
  {
    "postcode": "93194",
    "city": "Abtsried Bayern"
  },
  {
    "postcode": "93194",
    "city": "Abtsried"
  },
  {
    "postcode": "93194",
    "city": "Amesberg Oberpfalz"
  },
  {
    "postcode": "93194",
    "city": "Amesberg"
  },
  {
    "postcode": "93194",
    "city": "Dieberg Oberpfalz"
  },
  {
    "postcode": "93194",
    "city": "Dieberg"
  },
  {
    "postcode": "93194",
    "city": "Eichelberg Bayern"
  },
  {
    "postcode": "93194",
    "city": "Eichelberg"
  },
  {
    "postcode": "93194",
    "city": "Haus Oberpfalz"
  },
  {
    "postcode": "93194",
    "city": "Haus"
  },
  {
    "postcode": "93194",
    "city": "Katzenrohrbach Bayern"
  },
  {
    "postcode": "93194",
    "city": "Katzenrohrbach"
  },
  {
    "postcode": "93194",
    "city": "Kirchenrohrbach Bayern"
  },
  {
    "postcode": "93194",
    "city": "Kirchenrohrbach"
  },
  {
    "postcode": "93194",
    "city": "Losenried Oberpfalz"
  },
  {
    "postcode": "93194",
    "city": "Losenried"
  },
  {
    "postcode": "93194",
    "city": "Riesen Oberpfalz"
  },
  {
    "postcode": "93194",
    "city": "Riesen"
  },
  {
    "postcode": "93194",
    "city": "Stockhof Bayern"
  },
  {
    "postcode": "93194",
    "city": "Stockhof"
  },
  {
    "postcode": "93194",
    "city": "Walderbach"
  },
  {
    "postcode": "93194",
    "city": "Cham"
  },
  {
    "postcode": "93194",
    "city": "Berg"
  },
  {
    "postcode": "93194",
    "city": "Brunsthof"
  },
  {
    "postcode": "93194",
    "city": "Gern"
  },
  {
    "postcode": "93194",
    "city": "Grabenhof"
  },
  {
    "postcode": "93194",
    "city": "Gusterei"
  },
  {
    "postcode": "93194",
    "city": "Hardt"
  },
  {
    "postcode": "93194",
    "city": "Haselgrub"
  },
  {
    "postcode": "93194",
    "city": "Haselhof"
  },
  {
    "postcode": "93194",
    "city": "Hub"
  },
  {
    "postcode": "93194",
    "city": "Kaghof"
  },
  {
    "postcode": "93194",
    "city": "Nassen"
  },
  {
    "postcode": "93194",
    "city": "Oder"
  },
  {
    "postcode": "93194",
    "city": "Ried"
  },
  {
    "postcode": "93194",
    "city": "Stocka"
  },
  {
    "postcode": "93194",
    "city": "Straßhof"
  },
  {
    "postcode": "93194",
    "city": "Drellhof"
  },
  {
    "postcode": "93194",
    "city": "Wendenhof"
  },
  {
    "postcode": "93194",
    "city": "Wetzlarn"
  },
  {
    "postcode": "93195",
    "city": "Hohenwarth"
  },
  {
    "postcode": "93195",
    "city": "Maisthal Oberpfalz"
  },
  {
    "postcode": "93195",
    "city": "Maisthal"
  },
  {
    "postcode": "93195",
    "city": "Sachsenhofen"
  },
  {
    "postcode": "93195",
    "city": "Sillen Oberpfalz"
  },
  {
    "postcode": "93195",
    "city": "Sillen"
  },
  {
    "postcode": "93195",
    "city": "Stetten"
  },
  {
    "postcode": "93195",
    "city": "Wall"
  },
  {
    "postcode": "93195",
    "city": "Wolfsegg"
  },
  {
    "postcode": "93195",
    "city": "Wolfsegg Oberpfalz"
  },
  {
    "postcode": "93195",
    "city": "Regensburg"
  },
  {
    "postcode": "93195",
    "city": "Biersackschlag"
  },
  {
    "postcode": "93195",
    "city": "Grabenhäuser"
  },
  {
    "postcode": "93195",
    "city": "Hermannstetten"
  },
  {
    "postcode": "93195",
    "city": "Krippersberg"
  },
  {
    "postcode": "93195",
    "city": "Käfersdorf"
  },
  {
    "postcode": "93195",
    "city": "Oel"
  },
  {
    "postcode": "93195",
    "city": "Teufelschlag"
  },
  {
    "postcode": "93197",
    "city": "Laub Oberpfalz"
  },
  {
    "postcode": "93197",
    "city": "Laub"
  },
  {
    "postcode": "93197",
    "city": "Neuhof Kreis Regensburg"
  },
  {
    "postcode": "93197",
    "city": "Neuhof"
  },
  {
    "postcode": "93197",
    "city": "Ödenthal Oberpfalz"
  },
  {
    "postcode": "93197",
    "city": "Ödenthal"
  },
  {
    "postcode": "93197",
    "city": "Pentlhof Oberpfalz"
  },
  {
    "postcode": "93197",
    "city": "Pentlhof"
  },
  {
    "postcode": "93197",
    "city": "Regendorf"
  },
  {
    "postcode": "93197",
    "city": "Sandheim Kreis Regensburg"
  },
  {
    "postcode": "93197",
    "city": "Sandheim"
  },
  {
    "postcode": "93197",
    "city": "Zeitlarn"
  },
  {
    "postcode": "93197",
    "city": "Zeitlarn bei Regensburg"
  },
  {
    "postcode": "93197",
    "city": "Regensburg"
  },
  {
    "postcode": "93197",
    "city": "Mühlhof"
  },
  {
    "postcode": "93197",
    "city": "Zeitlberg"
  },
  {
    "postcode": "93199",
    "city": "Alletswind Oberpfalz"
  },
  {
    "postcode": "93199",
    "city": "Alletswind"
  },
  {
    "postcode": "93199",
    "city": "Beucherling Oberpfalz"
  },
  {
    "postcode": "93199",
    "city": "Beucherling"
  },
  {
    "postcode": "93199",
    "city": "Geresdorf Oberpfalz"
  },
  {
    "postcode": "93199",
    "city": "Geresdorf"
  },
  {
    "postcode": "93199",
    "city": "Haag"
  },
  {
    "postcode": "93199",
    "city": "Hetzenbach"
  },
  {
    "postcode": "93199",
    "city": "Hochholz Oberpfalz"
  },
  {
    "postcode": "93199",
    "city": "Hochholz"
  },
  {
    "postcode": "93199",
    "city": "Kager Oberpfalz"
  },
  {
    "postcode": "93199",
    "city": "Kager"
  },
  {
    "postcode": "93199",
    "city": "Kiesried Oberpfalz"
  },
  {
    "postcode": "93199",
    "city": "Kiesried"
  },
  {
    "postcode": "93199",
    "city": "Krottenthal Oberpfalz"
  },
  {
    "postcode": "93199",
    "city": "Krottenthal"
  },
  {
    "postcode": "93199",
    "city": "Martinsneukirchen Oberpfalz"
  },
  {
    "postcode": "93199",
    "city": "Martinsneukirchen"
  },
  {
    "postcode": "93199",
    "city": "Mattenzell Oberpfalz"
  },
  {
    "postcode": "93199",
    "city": "Mattenzell"
  },
  {
    "postcode": "93199",
    "city": "Schillertswiesen Oberpfalz"
  },
  {
    "postcode": "93199",
    "city": "Schillertswiesen"
  },
  {
    "postcode": "93199",
    "city": "Woppmannsberg Oberpfalz"
  },
  {
    "postcode": "93199",
    "city": "Woppmannsberg"
  },
  {
    "postcode": "93199",
    "city": "Zell Oberpfalz"
  },
  {
    "postcode": "93199",
    "city": "Zell"
  },
  {
    "postcode": "93199",
    "city": "Cham"
  },
  {
    "postcode": "93199",
    "city": "Fuchshölzl"
  },
  {
    "postcode": "93199",
    "city": "Kothof"
  },
  {
    "postcode": "93199",
    "city": "Steinshofen"
  },
  {
    "postcode": "93199",
    "city": "Angstall"
  },
  {
    "postcode": "93199",
    "city": "Dammberg"
  },
  {
    "postcode": "93199",
    "city": "Dechantanger"
  },
  {
    "postcode": "93199",
    "city": "Dechei"
  },
  {
    "postcode": "93199",
    "city": "Grubhöfl"
  },
  {
    "postcode": "93199",
    "city": "Guggenberg"
  },
  {
    "postcode": "93199",
    "city": "Hammühle"
  },
  {
    "postcode": "93199",
    "city": "Hatzelsberg"
  },
  {
    "postcode": "93199",
    "city": "Hatzelsdorf"
  },
  {
    "postcode": "93199",
    "city": "Hermannsdorf"
  },
  {
    "postcode": "93199",
    "city": "Hohenrad"
  },
  {
    "postcode": "93199",
    "city": "Köstl"
  },
  {
    "postcode": "93199",
    "city": "Keer"
  },
  {
    "postcode": "93199",
    "city": "Kragenried"
  },
  {
    "postcode": "93199",
    "city": "Krügling"
  },
  {
    "postcode": "93199",
    "city": "Lackberg"
  },
  {
    "postcode": "93199",
    "city": "Mitterfeldhof"
  },
  {
    "postcode": "93199",
    "city": "Oberpoign"
  },
  {
    "postcode": "93199",
    "city": "Oberraning"
  },
  {
    "postcode": "93199",
    "city": "Sallach"
  },
  {
    "postcode": "93199",
    "city": "Ranerberg"
  },
  {
    "postcode": "93199",
    "city": "Roidhof"
  },
  {
    "postcode": "93199",
    "city": "Seigenbach"
  },
  {
    "postcode": "93199",
    "city": "Starzenbach"
  },
  {
    "postcode": "93199",
    "city": "Steinhof"
  },
  {
    "postcode": "93199",
    "city": "Steinmühle"
  },
  {
    "postcode": "93199",
    "city": "Thal"
  },
  {
    "postcode": "93199",
    "city": "Thannhöfl"
  },
  {
    "postcode": "93199",
    "city": "Unterpoign"
  },
  {
    "postcode": "93199",
    "city": "Unterraning"
  },
  {
    "postcode": "93199",
    "city": "Waffenhof"
  },
  {
    "postcode": "93199",
    "city": "Wieshof"
  },
  {
    "postcode": "93199",
    "city": "Willetstetten"
  },
  {
    "postcode": "93199",
    "city": "Wirthswies"
  },
  {
    "postcode": "93309",
    "city": "Affecking Niederbayern"
  },
  {
    "postcode": "93309",
    "city": "Affecking"
  },
  {
    "postcode": "93309",
    "city": "Herrnsaal"
  },
  {
    "postcode": "93309",
    "city": "Kapfelberg"
  },
  {
    "postcode": "93309",
    "city": "Kelheim"
  },
  {
    "postcode": "93309",
    "city": "Kelheimwinzer"
  },
  {
    "postcode": "93309",
    "city": "Schultersdorf"
  },
  {
    "postcode": "93309",
    "city": "Schwaben Niederbayern"
  },
  {
    "postcode": "93309",
    "city": "Schwaben"
  },
  {
    "postcode": "93309",
    "city": "Staubing"
  },
  {
    "postcode": "93309",
    "city": "Stausacker Niederbayern"
  },
  {
    "postcode": "93309",
    "city": "Stausacker"
  },
  {
    "postcode": "93309",
    "city": "Thaldorf Kreis Kelheim Niederbayern"
  },
  {
    "postcode": "93309",
    "city": "Thaldorf"
  },
  {
    "postcode": "93309",
    "city": "Weltenburg Kreis Kelheim Niederbayern"
  },
  {
    "postcode": "93309",
    "city": "Weltenburg"
  },
  {
    "postcode": "93309",
    "city": "Lohstadt-Gundelshausen"
  },
  {
    "postcode": "93309",
    "city": "Klösterl"
  },
  {
    "postcode": "93309",
    "city": "Schlait"
  },
  {
    "postcode": "93326",
    "city": "Abensberg"
  },
  {
    "postcode": "93326",
    "city": "Abensberg Hallertau"
  },
  {
    "postcode": "93326",
    "city": "Allersdorf"
  },
  {
    "postcode": "93326",
    "city": "Arnhofen"
  },
  {
    "postcode": "93326",
    "city": "Gaden"
  },
  {
    "postcode": "93326",
    "city": "Holzharlanden Kreis Kelheim Niederbayern"
  },
  {
    "postcode": "93326",
    "city": "Holzharlanden"
  },
  {
    "postcode": "93326",
    "city": "Mitterhörlbach Niederbayern"
  },
  {
    "postcode": "93326",
    "city": "Mitterhörlbach"
  },
  {
    "postcode": "93326",
    "city": "Oberhörlbach Niederbayern"
  },
  {
    "postcode": "93326",
    "city": "Oberhörlbach"
  },
  {
    "postcode": "93326",
    "city": "Offenstetten"
  },
  {
    "postcode": "93326",
    "city": "Pullach"
  },
  {
    "postcode": "93326",
    "city": "Sandharlanden"
  },
  {
    "postcode": "93326",
    "city": "Schwaighausen"
  },
  {
    "postcode": "93326",
    "city": "Unterhörlbach Niederbayern"
  },
  {
    "postcode": "93326",
    "city": "Unterhörlbach"
  },
  {
    "postcode": "93326",
    "city": "Kelheim"
  },
  {
    "postcode": "93326",
    "city": "Aumühle"
  },
  {
    "postcode": "93326",
    "city": "Buchhof"
  },
  {
    "postcode": "93326",
    "city": "Gilla"
  },
  {
    "postcode": "93326",
    "city": "Lehen"
  },
  {
    "postcode": "93326",
    "city": "Schillhof"
  },
  {
    "postcode": "93333",
    "city": "Arresting"
  },
  {
    "postcode": "93333",
    "city": "Bad Gögging"
  },
  {
    "postcode": "93333",
    "city": "Eining"
  },
  {
    "postcode": "93333",
    "city": "Geibenstetten an der Donau"
  },
  {
    "postcode": "93333",
    "city": "Heiligenstadt an der Donau"
  },
  {
    "postcode": "93333",
    "city": "Hienheim"
  },
  {
    "postcode": "93333",
    "city": "Irnsing"
  },
  {
    "postcode": "93333",
    "city": "Marching"
  },
  {
    "postcode": "93333",
    "city": "Mauern an der Donau"
  },
  {
    "postcode": "93333",
    "city": "Mühlhausen Kreis Kelheim Niederbayern"
  },
  {
    "postcode": "93333",
    "city": "Mühlhausen"
  },
  {
    "postcode": "93333",
    "city": "Neustadt an der Donau"
  },
  {
    "postcode": "93333",
    "city": "Niederulrain an der Donau"
  },
  {
    "postcode": "93333",
    "city": "Oberulrain an der Donau"
  },
  {
    "postcode": "93333",
    "city": "Schwaig"
  },
  {
    "postcode": "93333",
    "city": "Sittling"
  },
  {
    "postcode": "93333",
    "city": "Umbertshausen"
  },
  {
    "postcode": "93333",
    "city": "Kelheim"
  },
  {
    "postcode": "93333",
    "city": "Neustadt a.d.Donau"
  },
  {
    "postcode": "93333",
    "city": "Oberulrain"
  },
  {
    "postcode": "93333",
    "city": "Neustadt"
  },
  {
    "postcode": "93333",
    "city": "Mauern"
  },
  {
    "postcode": "93333",
    "city": "Deisenhofen"
  },
  {
    "postcode": "93333",
    "city": "Niederulrain"
  },
  {
    "postcode": "93333",
    "city": "Geibenstetten"
  },
  {
    "postcode": "93333",
    "city": "Haderfleck"
  },
  {
    "postcode": "93333",
    "city": "Heiligenstadt"
  },
  {
    "postcode": "93333",
    "city": "Karpfenstein"
  },
  {
    "postcode": "93333",
    "city": "Lina"
  },
  {
    "postcode": "93336",
    "city": "Altmannstein"
  },
  {
    "postcode": "93336",
    "city": "Berghausen"
  },
  {
    "postcode": "93336",
    "city": "Breitenhill Kreis Riedenburg Oberpfalz"
  },
  {
    "postcode": "93336",
    "city": "Breitenhill"
  },
  {
    "postcode": "93336",
    "city": "Hagenhill"
  },
  {
    "postcode": "93336",
    "city": "Hexenagger"
  },
  {
    "postcode": "93336",
    "city": "Laimerstadt"
  },
  {
    "postcode": "93336",
    "city": "Megmannsdorf Kreis Riedenburg Oberpfalz"
  },
  {
    "postcode": "93336",
    "city": "Megmannsdorf"
  },
  {
    "postcode": "93336",
    "city": "Mendorf"
  },
  {
    "postcode": "93336",
    "city": "Neuenhinzenhausen Bayern"
  },
  {
    "postcode": "93336",
    "city": "Neuenhinzenhausen"
  },
  {
    "postcode": "93336",
    "city": "Neuses Kreis Riedenburg Oberpfalz"
  },
  {
    "postcode": "93336",
    "city": "Neuses"
  },
  {
    "postcode": "93336",
    "city": "Pondorf bei Riedenburg Altmühl"
  },
  {
    "postcode": "93336",
    "city": "Pondorf bei Riedenburg"
  },
  {
    "postcode": "93336",
    "city": "Ried"
  },
  {
    "postcode": "93336",
    "city": "Sandersdorf Bayern"
  },
  {
    "postcode": "93336",
    "city": "Sandersdorf"
  },
  {
    "postcode": "93336",
    "city": "Schafshill Bayern"
  },
  {
    "postcode": "93336",
    "city": "Schafshill"
  },
  {
    "postcode": "93336",
    "city": "Schamhaupten Bayern"
  },
  {
    "postcode": "93336",
    "city": "Schamhaupten"
  },
  {
    "postcode": "93336",
    "city": "Schwabstetten"
  },
  {
    "postcode": "93336",
    "city": "Sollern"
  },
  {
    "postcode": "93336",
    "city": "Steinsdorf Bayern"
  },
  {
    "postcode": "93336",
    "city": "Steinsdorf"
  },
  {
    "postcode": "93336",
    "city": "Tettenwang Altmühl"
  },
  {
    "postcode": "93336",
    "city": "Tettenwang"
  },
  {
    "postcode": "93336",
    "city": "Winden bei Riedenburg Altmühl"
  },
  {
    "postcode": "93336",
    "city": "Winden bei Riedenburg"
  },
  {
    "postcode": "93336",
    "city": "Eichstätt"
  },
  {
    "postcode": "93336",
    "city": "Winden"
  },
  {
    "postcode": "93336",
    "city": "Pondorf"
  },
  {
    "postcode": "93336",
    "city": "Thannhausen"
  },
  {
    "postcode": "93339",
    "city": "Altmühlmünster"
  },
  {
    "postcode": "93339",
    "city": "Baiersdorf Altmühl"
  },
  {
    "postcode": "93339",
    "city": "Baiersdorf"
  },
  {
    "postcode": "93339",
    "city": "Buch"
  },
  {
    "postcode": "93339",
    "city": "Deising"
  },
  {
    "postcode": "93339",
    "city": "Dieterzhofen"
  },
  {
    "postcode": "93339",
    "city": "Echendorf Oberpfalz"
  },
  {
    "postcode": "93339",
    "city": "Echendorf"
  },
  {
    "postcode": "93339",
    "city": "Echenried Oberpfalz"
  },
  {
    "postcode": "93339",
    "city": "Echenried"
  },
  {
    "postcode": "93339",
    "city": "Flügelsberg"
  },
  {
    "postcode": "93339",
    "city": "Frauenberghausen Oberpfalz"
  },
  {
    "postcode": "93339",
    "city": "Frauenberghausen"
  },
  {
    "postcode": "93339",
    "city": "Georgenbuch Oberpfalz"
  },
  {
    "postcode": "93339",
    "city": "Georgenbuch"
  },
  {
    "postcode": "93339",
    "city": "Gundlfing Oberpfalz"
  },
  {
    "postcode": "93339",
    "city": "Gundlfing"
  },
  {
    "postcode": "93339",
    "city": "Haidhof Oberpfalz"
  },
  {
    "postcode": "93339",
    "city": "Haidhof"
  },
  {
    "postcode": "93339",
    "city": "Harlanden Oberpfalz"
  },
  {
    "postcode": "93339",
    "city": "Harlanden"
  },
  {
    "postcode": "93339",
    "city": "Hattenhausen Oberpfalz"
  },
  {
    "postcode": "93339",
    "city": "Hattenhausen"
  },
  {
    "postcode": "93339",
    "city": "Hattenhofen Altmühl"
  },
  {
    "postcode": "93339",
    "city": "Hattenhofen"
  },
  {
    "postcode": "93339",
    "city": "Jachenhausen"
  },
  {
    "postcode": "93339",
    "city": "Keilsdorf Oberpfalz"
  },
  {
    "postcode": "93339",
    "city": "Keilsdorf"
  },
  {
    "postcode": "93339",
    "city": "Meihern"
  },
  {
    "postcode": "93339",
    "city": "Neuenkehrsdorf Oberpfalz"
  },
  {
    "postcode": "93339",
    "city": "Neuenkehrsdorf"
  },
  {
    "postcode": "93339",
    "city": "Nußhausen Oberpfalz"
  },
  {
    "postcode": "93339",
    "city": "Nußhausen"
  },
  {
    "postcode": "93339",
    "city": "Oberhofen Oberpfalz"
  },
  {
    "postcode": "93339",
    "city": "Oberhofen"
  },
  {
    "postcode": "93339",
    "city": "Otterzhofen"
  },
  {
    "postcode": "93339",
    "city": "Perletzhofen"
  },
  {
    "postcode": "93339",
    "city": "Prunn Altmühl"
  },
  {
    "postcode": "93339",
    "city": "Prunn"
  },
  {
    "postcode": "93339",
    "city": "Ried"
  },
  {
    "postcode": "93339",
    "city": "Riedenburg"
  },
  {
    "postcode": "93339",
    "city": "Riedenburg Altmühltal"
  },
  {
    "postcode": "93339",
    "city": "Sankt Gregor"
  },
  {
    "postcode": "93339",
    "city": "Schaitdorf"
  },
  {
    "postcode": "93339",
    "city": "Thann Kreis Riedenburg Oberpfalz"
  },
  {
    "postcode": "93339",
    "city": "Thann"
  },
  {
    "postcode": "93339",
    "city": "Kelheim"
  },
  {
    "postcode": "93339",
    "city": "Aicholding"
  },
  {
    "postcode": "93339",
    "city": "Einthal"
  },
  {
    "postcode": "93339",
    "city": "Emmerthal"
  },
  {
    "postcode": "93339",
    "city": "Grub"
  },
  {
    "postcode": "93339",
    "city": "Kohlmühle"
  },
  {
    "postcode": "93339",
    "city": "Laubhof"
  },
  {
    "postcode": "93339",
    "city": "Lintlhof"
  },
  {
    "postcode": "93339",
    "city": "Mühlleite"
  },
  {
    "postcode": "93339",
    "city": "Obereggersberg"
  },
  {
    "postcode": "93339",
    "city": "Pillhausen"
  },
  {
    "postcode": "93339",
    "city": "Schambach"
  },
  {
    "postcode": "93339",
    "city": "Schloßprunn"
  },
  {
    "postcode": "93339",
    "city": "Sankt Ursula"
  },
  {
    "postcode": "93339",
    "city": "Untereggersberg"
  },
  {
    "postcode": "93342",
    "city": "Buchhofen Kreis Kelheim Niederbayern"
  },
  {
    "postcode": "93342",
    "city": "Buchhofen"
  },
  {
    "postcode": "93342",
    "city": "Einmuß"
  },
  {
    "postcode": "93342",
    "city": "Kleingiersdorf"
  },
  {
    "postcode": "93342",
    "city": "Mitterfecking"
  },
  {
    "postcode": "93342",
    "city": "Oberfecking"
  },
  {
    "postcode": "93342",
    "city": "Oberschambach"
  },
  {
    "postcode": "93342",
    "city": "Oberteuerting Kreis Kelheim Niederbayern"
  },
  {
    "postcode": "93342",
    "city": "Oberteuerting"
  },
  {
    "postcode": "93342",
    "city": "Peterfecking"
  },
  {
    "postcode": "93342",
    "city": "Reißing Kreis Kelheim Niederbayern"
  },
  {
    "postcode": "93342",
    "city": "Reißing"
  },
  {
    "postcode": "93342",
    "city": "Saal an der Donau"
  },
  {
    "postcode": "93342",
    "city": "Seilbach"
  },
  {
    "postcode": "93342",
    "city": "Unterschambach"
  },
  {
    "postcode": "93342",
    "city": "Unterteuerting Kreis Kelheim Niederbayern"
  },
  {
    "postcode": "93342",
    "city": "Unterteuerting"
  },
  {
    "postcode": "93342",
    "city": "Kelheim"
  },
  {
    "postcode": "93342",
    "city": "Saal a.d.Donau"
  },
  {
    "postcode": "93342",
    "city": "Saal"
  },
  {
    "postcode": "93342",
    "city": "Felsenhäusl"
  },
  {
    "postcode": "93342",
    "city": "Gstreifet"
  },
  {
    "postcode": "93342",
    "city": "Kleinberghofen"
  },
  {
    "postcode": "93343",
    "city": "Altessing"
  },
  {
    "postcode": "93343",
    "city": "Eisensdorf"
  },
  {
    "postcode": "93343",
    "city": "Essing"
  },
  {
    "postcode": "93343",
    "city": "Oberau Niederbayern"
  },
  {
    "postcode": "93343",
    "city": "Oberau"
  },
  {
    "postcode": "93343",
    "city": "Randeck"
  },
  {
    "postcode": "93343",
    "city": "Schellneck"
  },
  {
    "postcode": "93343",
    "city": "Kelheim"
  },
  {
    "postcode": "93343",
    "city": "Unterau"
  },
  {
    "postcode": "93343",
    "city": "Felsenhäusl"
  },
  {
    "postcode": "93343",
    "city": "Heidenstein"
  },
  {
    "postcode": "93343",
    "city": "Hiersdorf"
  },
  {
    "postcode": "93343",
    "city": "Hienheimer Forst"
  },
  {
    "postcode": "93343",
    "city": "Osterholzen"
  },
  {
    "postcode": "93343",
    "city": "Riedhof"
  },
  {
    "postcode": "93343",
    "city": "Weihermühle"
  },
  {
    "postcode": "93345",
    "city": "Buch"
  },
  {
    "postcode": "93345",
    "city": "Dietenhofen"
  },
  {
    "postcode": "93345",
    "city": "Frauenwahl"
  },
  {
    "postcode": "93345",
    "city": "Großmuß"
  },
  {
    "postcode": "93345",
    "city": "Hausen Niederbayern"
  },
  {
    "postcode": "93345",
    "city": "Hausen"
  },
  {
    "postcode": "93345",
    "city": "Herrnwahlthann"
  },
  {
    "postcode": "93345",
    "city": "Naffenhofen Kreis Kelheim Niederbayern"
  },
  {
    "postcode": "93345",
    "city": "Naffenhofen"
  },
  {
    "postcode": "93345",
    "city": "Saladorf Niederbayern"
  },
  {
    "postcode": "93345",
    "city": "Saladorf"
  },
  {
    "postcode": "93345",
    "city": "Sippenau"
  },
  {
    "postcode": "93345",
    "city": "Kelheim"
  },
  {
    "postcode": "93345",
    "city": "Birnbach"
  },
  {
    "postcode": "93345",
    "city": "Esper"
  },
  {
    "postcode": "93345",
    "city": "Herrnwahl"
  },
  {
    "postcode": "93345",
    "city": "Schafreut"
  },
  {
    "postcode": "93345",
    "city": "Schoissenkager"
  },
  {
    "postcode": "93345",
    "city": "Weinberg"
  },
  {
    "postcode": "93346",
    "city": "Ihrlerstein"
  },
  {
    "postcode": "93346",
    "city": "Palmberg"
  },
  {
    "postcode": "93346",
    "city": "Rappelshofen"
  },
  {
    "postcode": "93346",
    "city": "Sausthal"
  },
  {
    "postcode": "93346",
    "city": "Kelheim"
  },
  {
    "postcode": "93346",
    "city": "Frauenforst"
  },
  {
    "postcode": "93346",
    "city": "Kleinwalddorf"
  },
  {
    "postcode": "93346",
    "city": "Osterthal"
  },
  {
    "postcode": "93348",
    "city": "Allhofen Kreis Kelheim Niederbayern"
  },
  {
    "postcode": "93348",
    "city": "Allhofen"
  },
  {
    "postcode": "93348",
    "city": "Allmersdorf Kreis Kelheim Niederbayern"
  },
  {
    "postcode": "93348",
    "city": "Allmersdorf"
  },
  {
    "postcode": "93348",
    "city": "Jauchshofen"
  },
  {
    "postcode": "93348",
    "city": "Kirchdorf Kreis Kelheim"
  },
  {
    "postcode": "93348",
    "city": "Kirchdorf"
  },
  {
    "postcode": "93348",
    "city": "Mantelkirchen Kreis Kelheim Niederbayern"
  },
  {
    "postcode": "93348",
    "city": "Mantelkirchen"
  },
  {
    "postcode": "93348",
    "city": "Pickenbach Kreis Kelheim Niederbayern"
  },
  {
    "postcode": "93348",
    "city": "Pickenbach"
  },
  {
    "postcode": "93348",
    "city": "Kelheim"
  },
  {
    "postcode": "93348",
    "city": "Hapfendorf"
  },
  {
    "postcode": "93348",
    "city": "Untermantelkirchen"
  },
  {
    "postcode": "93348",
    "city": "Obermantelkirchen"
  },
  {
    "postcode": "93349",
    "city": "Grashausen"
  },
  {
    "postcode": "93349",
    "city": "Hiendorf"
  },
  {
    "postcode": "93349",
    "city": "Hüttenhausen"
  },
  {
    "postcode": "93349",
    "city": "Imbath"
  },
  {
    "postcode": "93349",
    "city": "Mindelstetten"
  },
  {
    "postcode": "93349",
    "city": "Oberoffendorf"
  },
  {
    "postcode": "93349",
    "city": "Offendorf"
  },
  {
    "postcode": "93349",
    "city": "Stockau"
  },
  {
    "postcode": "93349",
    "city": "Tettenagger"
  },
  {
    "postcode": "93349",
    "city": "Weiher"
  },
  {
    "postcode": "93349",
    "city": "Eichstätt"
  },
  {
    "postcode": "93351",
    "city": "Maierhofen"
  },
  {
    "postcode": "93351",
    "city": "Mantlach"
  },
  {
    "postcode": "93351",
    "city": "Netzstall"
  },
  {
    "postcode": "93351",
    "city": "Neulohe"
  },
  {
    "postcode": "93351",
    "city": "Painten"
  },
  {
    "postcode": "93351",
    "city": "Painten bei Kelheim"
  },
  {
    "postcode": "93351",
    "city": "Rothenbügl"
  },
  {
    "postcode": "93351",
    "city": "Kelheim"
  },
  {
    "postcode": "93351",
    "city": "Berg"
  },
  {
    "postcode": "93351",
    "city": "Falterhof"
  },
  {
    "postcode": "93351",
    "city": "Prexlhof"
  },
  {
    "postcode": "93351",
    "city": "Streithäusl"
  },
  {
    "postcode": "93351",
    "city": "Tirschenhof"
  },
  {
    "postcode": "93351",
    "city": "Wasenhütte"
  },
  {
    "postcode": "93351",
    "city": "Wieseneck"
  },
  {
    "postcode": "93352",
    "city": "Alzhausen"
  },
  {
    "postcode": "93352",
    "city": "Asbach"
  },
  {
    "postcode": "93352",
    "city": "Au"
  },
  {
    "postcode": "93352",
    "city": "Bachl Kreis Kelheim Niederbayern"
  },
  {
    "postcode": "93352",
    "city": "Bachl"
  },
  {
    "postcode": "93352",
    "city": "Gressau Niederbayern"
  },
  {
    "postcode": "93352",
    "city": "Gressau"
  },
  {
    "postcode": "93352",
    "city": "Helchenbach"
  },
  {
    "postcode": "93352",
    "city": "Högetsing Niederbayern"
  },
  {
    "postcode": "93352",
    "city": "Högetsing"
  },
  {
    "postcode": "93352",
    "city": "Kalteneck"
  },
  {
    "postcode": "93352",
    "city": "Laaber"
  },
  {
    "postcode": "93352",
    "city": "Laaberberg"
  },
  {
    "postcode": "93352",
    "city": "Oberbuch Niederbayern"
  },
  {
    "postcode": "93352",
    "city": "Oberbuch"
  },
  {
    "postcode": "93352",
    "city": "Obereulenbach Niederbayern"
  },
  {
    "postcode": "93352",
    "city": "Obereulenbach"
  },
  {
    "postcode": "93352",
    "city": "Obergrünbach"
  },
  {
    "postcode": "93352",
    "city": "Rohr in Niederbayern"
  },
  {
    "postcode": "93352",
    "city": "Rohr Niederbayern"
  },
  {
    "postcode": "93352",
    "city": "Rohr"
  },
  {
    "postcode": "93352",
    "city": "Sallingberg"
  },
  {
    "postcode": "93352",
    "city": "Scheuern Kreis Kelheim Niederbayern"
  },
  {
    "postcode": "93352",
    "city": "Scheuern"
  },
  {
    "postcode": "93352",
    "city": "Schmiddorf"
  },
  {
    "postcode": "93352",
    "city": "Ursbach"
  },
  {
    "postcode": "93352",
    "city": "Waselsdorf Niederbayern"
  },
  {
    "postcode": "93352",
    "city": "Waselsdorf"
  },
  {
    "postcode": "93352",
    "city": "Kelheim"
  },
  {
    "postcode": "93352",
    "city": "Rohr i. NB"
  },
  {
    "postcode": "93352",
    "city": "Aich"
  },
  {
    "postcode": "93352",
    "city": "Berg"
  },
  {
    "postcode": "93352",
    "city": "Birka"
  },
  {
    "postcode": "93352",
    "city": "Graben"
  },
  {
    "postcode": "93352",
    "city": "Grub"
  },
  {
    "postcode": "93352",
    "city": "Höfel"
  },
  {
    "postcode": "93352",
    "city": "Hirtdorf"
  },
  {
    "postcode": "93352",
    "city": "Kiefermühle"
  },
  {
    "postcode": "93352",
    "city": "Kleinthalhof"
  },
  {
    "postcode": "93352",
    "city": "Kronholzen"
  },
  {
    "postcode": "93352",
    "city": "Mixmühle"
  },
  {
    "postcode": "93352",
    "city": "Mordberg"
  },
  {
    "postcode": "93352",
    "city": "Obermondsberg"
  },
  {
    "postcode": "93352",
    "city": "Oberndorf"
  },
  {
    "postcode": "93352",
    "city": "Oberrohr"
  },
  {
    "postcode": "93352",
    "city": "Reichenroith"
  },
  {
    "postcode": "93352",
    "city": "Schöfthal"
  },
  {
    "postcode": "93352",
    "city": "See"
  },
  {
    "postcode": "93352",
    "city": "Stegen"
  },
  {
    "postcode": "93352",
    "city": "Stocka"
  },
  {
    "postcode": "93352",
    "city": "Straßenhaus"
  },
  {
    "postcode": "93352",
    "city": "Thalhof"
  },
  {
    "postcode": "93352",
    "city": "Untergrünbach"
  },
  {
    "postcode": "93352",
    "city": "Wallersdorf"
  },
  {
    "postcode": "93352",
    "city": "Weiherhof"
  },
  {
    "postcode": "93354",
    "city": "Aicha"
  },
  {
    "postcode": "93354",
    "city": "Altdürnbuch Niederbayern"
  },
  {
    "postcode": "93354",
    "city": "Altdürnbuch"
  },
  {
    "postcode": "93354",
    "city": "Biburg Niederbayern"
  },
  {
    "postcode": "93354",
    "city": "Biburg"
  },
  {
    "postcode": "93354",
    "city": "Daßfeld"
  },
  {
    "postcode": "93354",
    "city": "Dürnhart"
  },
  {
    "postcode": "93354",
    "city": "Etzenbach"
  },
  {
    "postcode": "93354",
    "city": "Holzleithen"
  },
  {
    "postcode": "93354",
    "city": "Niederumelsdorf"
  },
  {
    "postcode": "93354",
    "city": "Oberumelsdorf"
  },
  {
    "postcode": "93354",
    "city": "Perka"
  },
  {
    "postcode": "93354",
    "city": "Rappersdorf Niederbayern"
  },
  {
    "postcode": "93354",
    "city": "Rappersdorf"
  },
  {
    "postcode": "93354",
    "city": "Siegenburg"
  },
  {
    "postcode": "93354",
    "city": "Staudach"
  },
  {
    "postcode": "93354",
    "city": "Tollbach"
  },
  {
    "postcode": "93354",
    "city": "Kelheim"
  },
  {
    "postcode": "93354",
    "city": "Höhenwang"
  },
  {
    "postcode": "93354",
    "city": "Beckenhof"
  },
  {
    "postcode": "93354",
    "city": "Grafenmühle"
  },
  {
    "postcode": "93354",
    "city": "Kipfelsberg"
  },
  {
    "postcode": "93354",
    "city": "Langhaid"
  },
  {
    "postcode": "93354",
    "city": "Morgenrothmühle"
  },
  {
    "postcode": "93354",
    "city": "Straßhaus"
  },
  {
    "postcode": "93354",
    "city": "Walch"
  },
  {
    "postcode": "93356",
    "city": "Teugn"
  },
  {
    "postcode": "93356",
    "city": "Kelheim"
  },
  {
    "postcode": "93356",
    "city": "Gschwendhof"
  },
  {
    "postcode": "93356",
    "city": "Hutmühle"
  },
  {
    "postcode": "93356",
    "city": "Oberkager"
  },
  {
    "postcode": "93356",
    "city": "Roith"
  },
  {
    "postcode": "93356",
    "city": "Thronhofen"
  },
  {
    "postcode": "93356",
    "city": "Unterkager"
  },
  {
    "postcode": "93358",
    "city": "Mallmersdorf"
  },
  {
    "postcode": "93358",
    "city": "Neukirchen"
  },
  {
    "postcode": "93358",
    "city": "Sankt Johann"
  },
  {
    "postcode": "93358",
    "city": "Train"
  },
  {
    "postcode": "93358",
    "city": "Kelheim"
  },
  {
    "postcode": "93358",
    "city": "St. Johann"
  },
  {
    "postcode": "93358",
    "city": "Dürnbucher Forst"
  },
  {
    "postcode": "93359",
    "city": "Eschenhart Kreis Kelheim Niederbayern"
  },
  {
    "postcode": "93359",
    "city": "Eschenhart"
  },
  {
    "postcode": "93359",
    "city": "Irlach"
  },
  {
    "postcode": "93359",
    "city": "Pürkwang Niederbayern"
  },
  {
    "postcode": "93359",
    "city": "Pürkwang"
  },
  {
    "postcode": "93359",
    "city": "Schweinbach"
  },
  {
    "postcode": "93359",
    "city": "Wildenberg"
  },
  {
    "postcode": "93359",
    "city": "Wildenberg Hallertau"
  },
  {
    "postcode": "93359",
    "city": "Willersdorf"
  },
  {
    "postcode": "93359",
    "city": "Kelheim"
  },
  {
    "postcode": "93413",
    "city": "Altenmarkt Oberpfalz"
  },
  {
    "postcode": "93413",
    "city": "Altenmarkt"
  },
  {
    "postcode": "93413",
    "city": "Altenstadt Oberpfalz"
  },
  {
    "postcode": "93413",
    "city": "Altenstadt"
  },
  {
    "postcode": "93413",
    "city": "Brunn"
  },
  {
    "postcode": "93413",
    "city": "Cham"
  },
  {
    "postcode": "93413",
    "city": "Cham Oberpfalz"
  },
  {
    "postcode": "93413",
    "city": "Chameregg"
  },
  {
    "postcode": "93413",
    "city": "Chammünster"
  },
  {
    "postcode": "93413",
    "city": "Eichberg bei Traitsching"
  },
  {
    "postcode": "93413",
    "city": "Gutmaning Oberpfalz"
  },
  {
    "postcode": "93413",
    "city": "Gutmaning"
  },
  {
    "postcode": "93413",
    "city": "Haderstadl Oberpfalz"
  },
  {
    "postcode": "93413",
    "city": "Haderstadl"
  },
  {
    "postcode": "93413",
    "city": "Hanzing"
  },
  {
    "postcode": "93413",
    "city": "Hilm Oberpfalz"
  },
  {
    "postcode": "93413",
    "city": "Hilm"
  },
  {
    "postcode": "93413",
    "city": "Hof"
  },
  {
    "postcode": "93413",
    "city": "Höfen"
  },
  {
    "postcode": "93413",
    "city": "Janahof"
  },
  {
    "postcode": "93413",
    "city": "Kammerdorf"
  },
  {
    "postcode": "93413",
    "city": "Katzbach Kreis Cham Oberpfalz"
  },
  {
    "postcode": "93413",
    "city": "Katzbach"
  },
  {
    "postcode": "93413",
    "city": "Katzberg Oberpfalz"
  },
  {
    "postcode": "93413",
    "city": "Katzberg"
  },
  {
    "postcode": "93413",
    "city": "Kothmaißling"
  },
  {
    "postcode": "93413",
    "city": "Laichstätt"
  },
  {
    "postcode": "93413",
    "city": "Loibling Kreis Cham Oberpfalz"
  },
  {
    "postcode": "93413",
    "city": "Loibling"
  },
  {
    "postcode": "93413",
    "city": "Michelsdorf Oberpfalz"
  },
  {
    "postcode": "93413",
    "city": "Michelsdorf"
  },
  {
    "postcode": "93413",
    "city": "Nunsting Oberpfalz"
  },
  {
    "postcode": "93413",
    "city": "Nunsting"
  },
  {
    "postcode": "93413",
    "city": "Oberhaid Oberpfalz"
  },
  {
    "postcode": "93413",
    "city": "Oberhaid"
  },
  {
    "postcode": "93413",
    "city": "Ried am Pfahl"
  },
  {
    "postcode": "93413",
    "city": "Ried am Sand"
  },
  {
    "postcode": "93413",
    "city": "Rissing"
  },
  {
    "postcode": "93413",
    "city": "Schachendorf Oberpfalz"
  },
  {
    "postcode": "93413",
    "city": "Schachendorf"
  },
  {
    "postcode": "93413",
    "city": "Scharlau Oberpfalz"
  },
  {
    "postcode": "93413",
    "city": "Scharlau"
  },
  {
    "postcode": "93413",
    "city": "Schlammering"
  },
  {
    "postcode": "93413",
    "city": "Schlondorf"
  },
  {
    "postcode": "93413",
    "city": "Selling"
  },
  {
    "postcode": "93413",
    "city": "Siechen Oberpfalz"
  },
  {
    "postcode": "93413",
    "city": "Siechen"
  },
  {
    "postcode": "93413",
    "city": "Stadl Oberpfalz"
  },
  {
    "postcode": "93413",
    "city": "Stadl"
  },
  {
    "postcode": "93413",
    "city": "Tasching Oberpfalz"
  },
  {
    "postcode": "93413",
    "city": "Tasching"
  },
  {
    "postcode": "93413",
    "city": "Thierlstein"
  },
  {
    "postcode": "93413",
    "city": "Untertraubenbach"
  },
  {
    "postcode": "93413",
    "city": "Vilzing Oberpfalz"
  },
  {
    "postcode": "93413",
    "city": "Vilzing"
  },
  {
    "postcode": "93413",
    "city": "Wackerling Kreis Cham Oberpfalz"
  },
  {
    "postcode": "93413",
    "city": "Wackerling"
  },
  {
    "postcode": "93413",
    "city": "Windischbergerdorf"
  },
  {
    "postcode": "93413",
    "city": "Wulfing"
  },
  {
    "postcode": "93413",
    "city": "Haidhäuser"
  },
  {
    "postcode": "93413",
    "city": "Ammerlingshof"
  },
  {
    "postcode": "93413",
    "city": "Ponholzmühle"
  },
  {
    "postcode": "93413",
    "city": "Brückl"
  },
  {
    "postcode": "93413",
    "city": "Eichberg"
  },
  {
    "postcode": "93413",
    "city": "Ellersdorf"
  },
  {
    "postcode": "93413",
    "city": "Gredlmühle"
  },
  {
    "postcode": "93413",
    "city": "Haidmühle"
  },
  {
    "postcode": "93413",
    "city": "Lamberg"
  },
  {
    "postcode": "93413",
    "city": "Loch"
  },
  {
    "postcode": "93413",
    "city": "Neumühle"
  },
  {
    "postcode": "93413",
    "city": "Quadfeldmühle"
  },
  {
    "postcode": "93413",
    "city": "Ried a. Pfahl"
  },
  {
    "postcode": "93413",
    "city": "Ried a. Sand"
  },
  {
    "postcode": "93413",
    "city": "Schönferchen"
  },
  {
    "postcode": "93426",
    "city": "Altenkreith Oberpfalz"
  },
  {
    "postcode": "93426",
    "city": "Altenkreith"
  },
  {
    "postcode": "93426",
    "city": "Angermühle"
  },
  {
    "postcode": "93426",
    "city": "Braunried Oberpfalz"
  },
  {
    "postcode": "93426",
    "city": "Braunried"
  },
  {
    "postcode": "93426",
    "city": "Eidenthal"
  },
  {
    "postcode": "93426",
    "city": "Eilberg"
  },
  {
    "postcode": "93426",
    "city": "Fronau"
  },
  {
    "postcode": "93426",
    "city": "Grub bei Roding"
  },
  {
    "postcode": "93426",
    "city": "Gstetten Oberpfalz"
  },
  {
    "postcode": "93426",
    "city": "Gstetten"
  },
  {
    "postcode": "93426",
    "city": "Hofmühl bei Roding"
  },
  {
    "postcode": "93426",
    "city": "Kalsing"
  },
  {
    "postcode": "93426",
    "city": "Kronwitt Oberpfalz"
  },
  {
    "postcode": "93426",
    "city": "Kronwitt"
  },
  {
    "postcode": "93426",
    "city": "Loibling"
  },
  {
    "postcode": "93426",
    "city": "Mitterdorf Oberpfalz"
  },
  {
    "postcode": "93426",
    "city": "Mitterdorf"
  },
  {
    "postcode": "93426",
    "city": "Mitterkreith Oberpfalz"
  },
  {
    "postcode": "93426",
    "city": "Mitterkreith"
  },
  {
    "postcode": "93426",
    "city": "Neubäu"
  },
  {
    "postcode": "93426",
    "city": "Oberdorf Oberpfalz"
  },
  {
    "postcode": "93426",
    "city": "Oberdorf"
  },
  {
    "postcode": "93426",
    "city": "Oberkreith Oberpfalz"
  },
  {
    "postcode": "93426",
    "city": "Oberkreith"
  },
  {
    "postcode": "93426",
    "city": "Oberprombach"
  },
  {
    "postcode": "93426",
    "city": "Obertrübenbach"
  },
  {
    "postcode": "93426",
    "city": "Pollenried Oberpfalz"
  },
  {
    "postcode": "93426",
    "city": "Pollenried"
  },
  {
    "postcode": "93426",
    "city": "Regenpeilstein bei Roding"
  },
  {
    "postcode": "93426",
    "city": "Roding"
  },
  {
    "postcode": "93426",
    "city": "Roding Regen"
  },
  {
    "postcode": "93426",
    "city": "Stadlhof bei Roding"
  },
  {
    "postcode": "93426",
    "city": "Strahlfeld"
  },
  {
    "postcode": "93426",
    "city": "Trasching"
  },
  {
    "postcode": "93426",
    "city": "Triftersberg"
  },
  {
    "postcode": "93426",
    "city": "Unterlintach bei Roding"
  },
  {
    "postcode": "93426",
    "city": "Unterprombach Oberpfalz"
  },
  {
    "postcode": "93426",
    "city": "Unterprombach"
  },
  {
    "postcode": "93426",
    "city": "Untertrübenbach Oberpfalz"
  },
  {
    "postcode": "93426",
    "city": "Untertrübenbach"
  },
  {
    "postcode": "93426",
    "city": "Wacherling bei Roding"
  },
  {
    "postcode": "93426",
    "city": "Wetterfeld"
  },
  {
    "postcode": "93426",
    "city": "Wiesing bei Roding"
  },
  {
    "postcode": "93426",
    "city": "Zenzing Oberpfalz"
  },
  {
    "postcode": "93426",
    "city": "Zenzing"
  },
  {
    "postcode": "93426",
    "city": "Ziehring bei Roding"
  },
  {
    "postcode": "93426",
    "city": "Zimmering"
  },
  {
    "postcode": "93426",
    "city": "Cham"
  },
  {
    "postcode": "93426",
    "city": "Roding am Bahnhof"
  },
  {
    "postcode": "93426",
    "city": "Rothsal"
  },
  {
    "postcode": "93426",
    "city": "Unterlintach"
  },
  {
    "postcode": "93426",
    "city": "Regenpeilstein"
  },
  {
    "postcode": "93426",
    "city": "Birkhof"
  },
  {
    "postcode": "93426",
    "city": "Brunnhof"
  },
  {
    "postcode": "93426",
    "city": "Gemeinde Schorndorf"
  },
  {
    "postcode": "93426",
    "city": "Dachshof"
  },
  {
    "postcode": "93426",
    "city": "Dicherling"
  },
  {
    "postcode": "93426",
    "city": "Draxlberg"
  },
  {
    "postcode": "93426",
    "city": "Eck"
  },
  {
    "postcode": "93426",
    "city": "Elend"
  },
  {
    "postcode": "93426",
    "city": "Eppenhof"
  },
  {
    "postcode": "93426",
    "city": "Wiesing"
  },
  {
    "postcode": "93426",
    "city": "Fronauermühle"
  },
  {
    "postcode": "93426",
    "city": "Gaisirl"
  },
  {
    "postcode": "93426",
    "city": "Grub"
  },
  {
    "postcode": "93426",
    "city": "Grubhof"
  },
  {
    "postcode": "93426",
    "city": "Haidhof"
  },
  {
    "postcode": "93426",
    "city": "Haunried"
  },
  {
    "postcode": "93426",
    "city": "Hofmühl"
  },
  {
    "postcode": "93426",
    "city": "Heide"
  },
  {
    "postcode": "93426",
    "city": "Heidersberg"
  },
  {
    "postcode": "93426",
    "city": "Heidweiherhöf"
  },
  {
    "postcode": "93426",
    "city": "Heilbrünnl"
  },
  {
    "postcode": "93426",
    "city": "Hinterhaunried"
  },
  {
    "postcode": "93426",
    "city": "Hochbrunn"
  },
  {
    "postcode": "93426",
    "city": "Imhof"
  },
  {
    "postcode": "93426",
    "city": "Kagerhäusl"
  },
  {
    "postcode": "93426",
    "city": "Kagerhof"
  },
  {
    "postcode": "93426",
    "city": "Kaghöfl"
  },
  {
    "postcode": "93426",
    "city": "Kaplhof"
  },
  {
    "postcode": "93426",
    "city": "Kienhof"
  },
  {
    "postcode": "93426",
    "city": "Kienholz"
  },
  {
    "postcode": "93426",
    "city": "Kienmühle"
  },
  {
    "postcode": "93426",
    "city": "Klessing"
  },
  {
    "postcode": "93426",
    "city": "Kohlschlag"
  },
  {
    "postcode": "93426",
    "city": "Lunz"
  },
  {
    "postcode": "93426",
    "city": "Marbelshof"
  },
  {
    "postcode": "93426",
    "city": "Seigen"
  },
  {
    "postcode": "93426",
    "city": "Mühlau"
  },
  {
    "postcode": "93426",
    "city": "Nassen"
  },
  {
    "postcode": "93426",
    "city": "Neubäuermühl"
  },
  {
    "postcode": "93426",
    "city": "Oberlintach"
  },
  {
    "postcode": "93426",
    "city": "Piendling"
  },
  {
    "postcode": "93426",
    "city": "Rabhof"
  },
  {
    "postcode": "93426",
    "city": "Riebeisenmühle"
  },
  {
    "postcode": "93426",
    "city": "Roithof"
  },
  {
    "postcode": "93426",
    "city": "Rothenbirl"
  },
  {
    "postcode": "93426",
    "city": "Ödenhof"
  },
  {
    "postcode": "93426",
    "city": "Söldenhof"
  },
  {
    "postcode": "93426",
    "city": "Stadlhof"
  },
  {
    "postcode": "93426",
    "city": "Stützenfleck"
  },
  {
    "postcode": "93426",
    "city": "Thannhof"
  },
  {
    "postcode": "93426",
    "city": "Wacherling"
  },
  {
    "postcode": "93426",
    "city": "Wanning"
  },
  {
    "postcode": "93426",
    "city": "Weiherhaus"
  },
  {
    "postcode": "93426",
    "city": "Wieden"
  },
  {
    "postcode": "93426",
    "city": "Wiesthal"
  },
  {
    "postcode": "93426",
    "city": "Windfäng"
  },
  {
    "postcode": "93426",
    "city": "Ziehring"
  },
  {
    "postcode": "93426",
    "city": "Zinzenthal"
  },
  {
    "postcode": "93437",
    "city": "Daberg"
  },
  {
    "postcode": "93437",
    "city": "Degelberg"
  },
  {
    "postcode": "93437",
    "city": "Dieberg im Wald"
  },
  {
    "postcode": "93437",
    "city": "Enklarn"
  },
  {
    "postcode": "93437",
    "city": "Furth im Wald"
  },
  {
    "postcode": "93437",
    "city": "Grasmannsdorf im Wald"
  },
  {
    "postcode": "93437",
    "city": "Grub im Wald"
  },
  {
    "postcode": "93437",
    "city": "Gschwand"
  },
  {
    "postcode": "93437",
    "city": "Haberseigen im Wald"
  },
  {
    "postcode": "93437",
    "city": "Lixenried Oberpfalz"
  },
  {
    "postcode": "93437",
    "city": "Lixenried"
  },
  {
    "postcode": "93437",
    "city": "Oberrappendorf im Wald"
  },
  {
    "postcode": "93437",
    "city": "Ösbühl im Wald"
  },
  {
    "postcode": "93437",
    "city": "Ränkam"
  },
  {
    "postcode": "93437",
    "city": "Schafberg im Wald"
  },
  {
    "postcode": "93437",
    "city": "Sengenbühl im Wald"
  },
  {
    "postcode": "93437",
    "city": "Seuchau im Wald"
  },
  {
    "postcode": "93437",
    "city": "Straßhof im Wald"
  },
  {
    "postcode": "93437",
    "city": "Unterdörfl im Wald"
  },
  {
    "postcode": "93437",
    "city": "Unterrappendorf im Wald"
  },
  {
    "postcode": "93437",
    "city": "Voithenberg im Wald"
  },
  {
    "postcode": "93437",
    "city": "Voithenberghütte im Wald"
  },
  {
    "postcode": "93437",
    "city": "Cham"
  },
  {
    "postcode": "93437",
    "city": "Dürnberg"
  },
  {
    "postcode": "93437",
    "city": "Furth"
  },
  {
    "postcode": "93437",
    "city": "Sengenbühl"
  },
  {
    "postcode": "93437",
    "city": "Aiglshof"
  },
  {
    "postcode": "93437",
    "city": "Böhmerstr."
  },
  {
    "postcode": "93437",
    "city": "Blasihof"
  },
  {
    "postcode": "93437",
    "city": "Blätterberg"
  },
  {
    "postcode": "93437",
    "city": "Bogen"
  },
  {
    "postcode": "93437",
    "city": "Bruckmühle"
  },
  {
    "postcode": "93437",
    "city": "Dieberg"
  },
  {
    "postcode": "93437",
    "city": "Grasmannsdorf"
  },
  {
    "postcode": "93437",
    "city": "Grub"
  },
  {
    "postcode": "93437",
    "city": "Haberseigen"
  },
  {
    "postcode": "93437",
    "city": "Klöpflesberg"
  },
  {
    "postcode": "93437",
    "city": "Kühberg"
  },
  {
    "postcode": "93437",
    "city": "Oberrappendorf"
  },
  {
    "postcode": "93437",
    "city": "Rußmühle"
  },
  {
    "postcode": "93437",
    "city": "Ösbühl"
  },
  {
    "postcode": "93437",
    "city": "Schafberg"
  },
  {
    "postcode": "93437",
    "city": "Seuchau"
  },
  {
    "postcode": "93437",
    "city": "Straßhof"
  },
  {
    "postcode": "93437",
    "city": "Tradl"
  },
  {
    "postcode": "93437",
    "city": "Tradt"
  },
  {
    "postcode": "93437",
    "city": "Unterdörfl"
  },
  {
    "postcode": "93437",
    "city": "Unterrappendorf"
  },
  {
    "postcode": "93437",
    "city": "Voithenberg"
  },
  {
    "postcode": "93437",
    "city": "Voithenberghütte"
  },
  {
    "postcode": "93437",
    "city": "Waradein"
  },
  {
    "postcode": "93444",
    "city": "Arndorf"
  },
  {
    "postcode": "93444",
    "city": "Bachmaierholz Kreis Kötzting"
  },
  {
    "postcode": "93444",
    "city": "Bachmaierholz"
  },
  {
    "postcode": "93444",
    "city": "Bad Kötzting"
  },
  {
    "postcode": "93444",
    "city": "Bärndorf"
  },
  {
    "postcode": "93444",
    "city": "Beckendorf"
  },
  {
    "postcode": "93444",
    "city": "Bonried"
  },
  {
    "postcode": "93444",
    "city": "Buchberg bei Steinbühl"
  },
  {
    "postcode": "93444",
    "city": "Gadsdorf Oberpfalz"
  },
  {
    "postcode": "93444",
    "city": "Gadsdorf"
  },
  {
    "postcode": "93444",
    "city": "Gehstorf"
  },
  {
    "postcode": "93444",
    "city": "Gradis"
  },
  {
    "postcode": "93444",
    "city": "Grub"
  },
  {
    "postcode": "93444",
    "city": "Hafenberg"
  },
  {
    "postcode": "93444",
    "city": "Haus Kreis Kötzting"
  },
  {
    "postcode": "93444",
    "city": "Haus"
  },
  {
    "postcode": "93444",
    "city": "Hofern"
  },
  {
    "postcode": "93444",
    "city": "Höfing"
  },
  {
    "postcode": "93444",
    "city": "Kaitersbach"
  },
  {
    "postcode": "93444",
    "city": "Kammern"
  },
  {
    "postcode": "93444",
    "city": "Kieslau"
  },
  {
    "postcode": "93444",
    "city": "Kötzting"
  },
  {
    "postcode": "93444",
    "city": "Leckern"
  },
  {
    "postcode": "93444",
    "city": "Liebenstein"
  },
  {
    "postcode": "93444",
    "city": "Matzelsdorf"
  },
  {
    "postcode": "93444",
    "city": "Niesassen"
  },
  {
    "postcode": "93444",
    "city": "Ramsried"
  },
  {
    "postcode": "93444",
    "city": "Regenstein"
  },
  {
    "postcode": "93444",
    "city": "Reitenstein"
  },
  {
    "postcode": "93444",
    "city": "Ried am Haidstein"
  },
  {
    "postcode": "93444",
    "city": "Sackenried"
  },
  {
    "postcode": "93444",
    "city": "Sperlhammer"
  },
  {
    "postcode": "93444",
    "city": "Steinbühl"
  },
  {
    "postcode": "93444",
    "city": "Traidersdorf"
  },
  {
    "postcode": "93444",
    "city": "Weißenregen"
  },
  {
    "postcode": "93444",
    "city": "Wettzell"
  },
  {
    "postcode": "93444",
    "city": "Wölkersdorf"
  },
  {
    "postcode": "93444",
    "city": "Zeltendorf Kreis Kötzting"
  },
  {
    "postcode": "93444",
    "city": "Zeltendorf"
  },
  {
    "postcode": "93444",
    "city": "Cham"
  },
  {
    "postcode": "93444",
    "city": "Ludwigsberg"
  },
  {
    "postcode": "93444",
    "city": "Ammermühle"
  },
  {
    "postcode": "93444",
    "city": "Berghäusl"
  },
  {
    "postcode": "93444",
    "city": "Buchberg b. Steinbühl"
  },
  {
    "postcode": "93444",
    "city": "Buchberg b. Wettzell"
  },
  {
    "postcode": "93444",
    "city": "Fischerhof"
  },
  {
    "postcode": "93444",
    "city": "Klobighof"
  },
  {
    "postcode": "93444",
    "city": "Maiberg"
  },
  {
    "postcode": "93444",
    "city": "Reitenberg"
  },
  {
    "postcode": "93444",
    "city": "Ried am See"
  },
  {
    "postcode": "93444",
    "city": "Riedersfurt"
  },
  {
    "postcode": "93444",
    "city": "Stockmühle"
  },
  {
    "postcode": "93444",
    "city": "Waid"
  },
  {
    "postcode": "93444",
    "city": "Weißenholz"
  },
  {
    "postcode": "93444",
    "city": "Dachsenbühl"
  },
  {
    "postcode": "93449",
    "city": "Albernhof bei Waldmünchen"
  },
  {
    "postcode": "93449",
    "city": "Althütte"
  },
  {
    "postcode": "93449",
    "city": "Arnstein"
  },
  {
    "postcode": "93449",
    "city": "Ast Oberpfalz"
  },
  {
    "postcode": "93449",
    "city": "Ast"
  },
  {
    "postcode": "93449",
    "city": "Eglsee Kreis Waldmünchen"
  },
  {
    "postcode": "93449",
    "city": "Eglsee"
  },
  {
    "postcode": "93449",
    "city": "Englmannsbrunn"
  },
  {
    "postcode": "93449",
    "city": "Gibacht"
  },
  {
    "postcode": "93449",
    "city": "Grub"
  },
  {
    "postcode": "93449",
    "city": "Haschaberg"
  },
  {
    "postcode": "93449",
    "city": "Häuslarn"
  },
  {
    "postcode": "93449",
    "city": "Herzogau"
  },
  {
    "postcode": "93449",
    "city": "Hirschhöf"
  },
  {
    "postcode": "93449",
    "city": "Hocha"
  },
  {
    "postcode": "93449",
    "city": "Hochabrunn"
  },
  {
    "postcode": "93449",
    "city": "Höll"
  },
  {
    "postcode": "93449",
    "city": "Katzbach"
  },
  {
    "postcode": "93449",
    "city": "Kritzenast"
  },
  {
    "postcode": "93449",
    "city": "Kühnried"
  },
  {
    "postcode": "93449",
    "city": "Lengau"
  },
  {
    "postcode": "93449",
    "city": "Lenkenhütte"
  },
  {
    "postcode": "93449",
    "city": "Machtesberg"
  },
  {
    "postcode": "93449",
    "city": "Moosdorf"
  },
  {
    "postcode": "93449",
    "city": "Ochsenweid"
  },
  {
    "postcode": "93449",
    "city": "Perlhütte"
  },
  {
    "postcode": "93449",
    "city": "Prosdorf"
  },
  {
    "postcode": "93449",
    "city": "Rannersdorf"
  },
  {
    "postcode": "93449",
    "city": "Schäferei"
  },
  {
    "postcode": "93449",
    "city": "Sinzendorf"
  },
  {
    "postcode": "93449",
    "city": "Spielberg Kreis Waldmünchen"
  },
  {
    "postcode": "93449",
    "city": "Spielberg"
  },
  {
    "postcode": "93449",
    "city": "Ulrichsgrün"
  },
  {
    "postcode": "93449",
    "city": "Untergrafenried"
  },
  {
    "postcode": "93449",
    "city": "Unterhütte"
  },
  {
    "postcode": "93449",
    "city": "Waldmünchen"
  },
  {
    "postcode": "93449",
    "city": "Zillendorf"
  },
  {
    "postcode": "93449",
    "city": "Cham"
  },
  {
    "postcode": "93449",
    "city": "Albernhof"
  },
  {
    "postcode": "93449",
    "city": "Almosmühle"
  },
  {
    "postcode": "93449",
    "city": "Alte Ziegelhütte"
  },
  {
    "postcode": "93449",
    "city": "Geigant"
  },
  {
    "postcode": "93449",
    "city": "Beckenhöhle"
  },
  {
    "postcode": "93449",
    "city": "Blumloh"
  },
  {
    "postcode": "93449",
    "city": "Bonholz"
  },
  {
    "postcode": "93449",
    "city": "Buchwalli"
  },
  {
    "postcode": "93449",
    "city": "Eschlhof"
  },
  {
    "postcode": "93449",
    "city": "Eschlmais"
  },
  {
    "postcode": "93449",
    "city": "Gleßling"
  },
  {
    "postcode": "93449",
    "city": "Haidhof"
  },
  {
    "postcode": "93449",
    "city": "Heinzlgrün"
  },
  {
    "postcode": "93449",
    "city": "Kramhof"
  },
  {
    "postcode": "93449",
    "city": "Kümmersmühle"
  },
  {
    "postcode": "93449",
    "city": "Lampachshof"
  },
  {
    "postcode": "93449",
    "city": "Lodischhof"
  },
  {
    "postcode": "93449",
    "city": "Neue Ziegelhütte"
  },
  {
    "postcode": "93449",
    "city": "Oberer Roßhof"
  },
  {
    "postcode": "93449",
    "city": "Posthof"
  },
  {
    "postcode": "93449",
    "city": "Pucher"
  },
  {
    "postcode": "93449",
    "city": "Straßenhäusl"
  },
  {
    "postcode": "93449",
    "city": "Unterer Roßhof"
  },
  {
    "postcode": "93453",
    "city": "Atzlern bei Heilig Blut"
  },
  {
    "postcode": "93453",
    "city": "Au bei Heilig Blut"
  },
  {
    "postcode": "93453",
    "city": "Brünst bei Heilig Blut"
  },
  {
    "postcode": "93453",
    "city": "Geleitsbach"
  },
  {
    "postcode": "93453",
    "city": "Grauhof bei Heilig Blut"
  },
  {
    "postcode": "93453",
    "city": "Hinterbuchberg bei Heilig Blut"
  },
  {
    "postcode": "93453",
    "city": "Hofberg"
  },
  {
    "postcode": "93453",
    "city": "Jägershof"
  },
  {
    "postcode": "93453",
    "city": "Kager bei Heilig Blut"
  },
  {
    "postcode": "93453",
    "city": "Krottenhof bei Heilig Blut"
  },
  {
    "postcode": "93453",
    "city": "Lamberg bei Heilig Blut"
  },
  {
    "postcode": "93453",
    "city": "Mais bei Heilig Blut"
  },
  {
    "postcode": "93453",
    "city": "Neukirchen beim Heiligen Blut"
  },
  {
    "postcode": "93453",
    "city": "Oberkaltenhof"
  },
  {
    "postcode": "93453",
    "city": "Rittsteig"
  },
  {
    "postcode": "93453",
    "city": "Schicherhof bei Heilig Blut"
  },
  {
    "postcode": "93453",
    "city": "Unterkaltenhof bei Heilig Blut"
  },
  {
    "postcode": "93453",
    "city": "Vorderbuchberg bei Heilig Blut"
  },
  {
    "postcode": "93453",
    "city": "Cham"
  },
  {
    "postcode": "93453",
    "city": "Neukirchen b.Hl.Blut"
  },
  {
    "postcode": "93453",
    "city": "Neukirchen"
  },
  {
    "postcode": "93453",
    "city": "Mais"
  },
  {
    "postcode": "93453",
    "city": "Kager"
  },
  {
    "postcode": "93453",
    "city": "Angelmühle"
  },
  {
    "postcode": "93453",
    "city": "Au"
  },
  {
    "postcode": "93453",
    "city": "Kolmstein"
  },
  {
    "postcode": "93453",
    "city": "Hanger"
  },
  {
    "postcode": "93453",
    "city": "Brünst"
  },
  {
    "postcode": "93453",
    "city": "Hinterbuchberg"
  },
  {
    "postcode": "93453",
    "city": "Buchermühle"
  },
  {
    "postcode": "93453",
    "city": "Lamberg"
  },
  {
    "postcode": "93453",
    "city": "Atzlern"
  },
  {
    "postcode": "93453",
    "city": "Grauhof"
  },
  {
    "postcode": "93453",
    "city": "Höllhöhe"
  },
  {
    "postcode": "93453",
    "city": "Haberlsäge"
  },
  {
    "postcode": "93453",
    "city": "Hasleth"
  },
  {
    "postcode": "93453",
    "city": "Hinterhelmhof"
  },
  {
    "postcode": "93453",
    "city": "Hoher Bogen"
  },
  {
    "postcode": "93453",
    "city": "Krottenhof"
  },
  {
    "postcode": "93453",
    "city": "Vordermais"
  },
  {
    "postcode": "93453",
    "city": "Neurittsteig"
  },
  {
    "postcode": "93453",
    "city": "Schicherhof"
  },
  {
    "postcode": "93453",
    "city": "Spandlberg"
  },
  {
    "postcode": "93453",
    "city": "Steinried"
  },
  {
    "postcode": "93453",
    "city": "Unterkaltenhof"
  },
  {
    "postcode": "93453",
    "city": "Vorderbuchberg"
  },
  {
    "postcode": "93453",
    "city": "Vorderhelmhof"
  },
  {
    "postcode": "93455",
    "city": "Atzenzell"
  },
  {
    "postcode": "93455",
    "city": "Birnbrunn"
  },
  {
    "postcode": "93455",
    "city": "Dinzling"
  },
  {
    "postcode": "93455",
    "city": "Habersdorf"
  },
  {
    "postcode": "93455",
    "city": "Hagendorf"
  },
  {
    "postcode": "93455",
    "city": "Hermannsgrub"
  },
  {
    "postcode": "93455",
    "city": "Höhhof"
  },
  {
    "postcode": "93455",
    "city": "Kohhof"
  },
  {
    "postcode": "93455",
    "city": "Kronwitt"
  },
  {
    "postcode": "93455",
    "city": "Loifling"
  },
  {
    "postcode": "93455",
    "city": "Obergoßzell"
  },
  {
    "postcode": "93455",
    "city": "Salmannsgrub"
  },
  {
    "postcode": "93455",
    "city": "Sattelbogen"
  },
  {
    "postcode": "93455",
    "city": "Sattelpeilnstein"
  },
  {
    "postcode": "93455",
    "city": "Schönferchen"
  },
  {
    "postcode": "93455",
    "city": "Siedling"
  },
  {
    "postcode": "93455",
    "city": "Sitzenberg"
  },
  {
    "postcode": "93455",
    "city": "Thal"
  },
  {
    "postcode": "93455",
    "city": "Thannet"
  },
  {
    "postcode": "93455",
    "city": "Tragenschwand"
  },
  {
    "postcode": "93455",
    "city": "Traitsching"
  },
  {
    "postcode": "93455",
    "city": "Trebersdorf"
  },
  {
    "postcode": "93455",
    "city": "Trefling"
  },
  {
    "postcode": "93455",
    "city": "Untergoßzell"
  },
  {
    "postcode": "93455",
    "city": "Weigelsberg bei Stallwang"
  },
  {
    "postcode": "93455",
    "city": "Wilting"
  },
  {
    "postcode": "93455",
    "city": "Wöhrhof"
  },
  {
    "postcode": "93455",
    "city": "Cham"
  },
  {
    "postcode": "93455",
    "city": "Boden"
  },
  {
    "postcode": "93455",
    "city": "Büchsenmühle"
  },
  {
    "postcode": "93455",
    "city": "Faschaberg"
  },
  {
    "postcode": "93455",
    "city": "Vorderhaidhof"
  },
  {
    "postcode": "93455",
    "city": "Geigenmühle"
  },
  {
    "postcode": "93455",
    "city": "Geisberg"
  },
  {
    "postcode": "93455",
    "city": "Gstetten"
  },
  {
    "postcode": "93455",
    "city": "Haschabühl"
  },
  {
    "postcode": "93455",
    "city": "Haselhof"
  },
  {
    "postcode": "93455",
    "city": "Hetzelhof"
  },
  {
    "postcode": "93455",
    "city": "Heustadl"
  },
  {
    "postcode": "93455",
    "city": "Himmelreich"
  },
  {
    "postcode": "93455",
    "city": "Hinterberg"
  },
  {
    "postcode": "93455",
    "city": "Hinterhaidhof"
  },
  {
    "postcode": "93455",
    "city": "Hühnerberg"
  },
  {
    "postcode": "93455",
    "city": "Kaltenberg"
  },
  {
    "postcode": "93455",
    "city": "Knotthof"
  },
  {
    "postcode": "93455",
    "city": "Kuppel"
  },
  {
    "postcode": "93455",
    "city": "Löwengrub"
  },
  {
    "postcode": "93455",
    "city": "Lehhof"
  },
  {
    "postcode": "93455",
    "city": "Mühlberg"
  },
  {
    "postcode": "93455",
    "city": "Mühlhof"
  },
  {
    "postcode": "93455",
    "city": "Oberbühl"
  },
  {
    "postcode": "93455",
    "city": "Oberhagendorf"
  },
  {
    "postcode": "93455",
    "city": "Obermühle"
  },
  {
    "postcode": "93455",
    "city": "Randlhof"
  },
  {
    "postcode": "93455",
    "city": "Reisach"
  },
  {
    "postcode": "93455",
    "city": "Schafbach"
  },
  {
    "postcode": "93455",
    "city": "Seignhof"
  },
  {
    "postcode": "93455",
    "city": "Steinmühle"
  },
  {
    "postcode": "93455",
    "city": "Traumarch"
  },
  {
    "postcode": "93455",
    "city": "Unterbühl"
  },
  {
    "postcode": "93455",
    "city": "Weigelsberg"
  },
  {
    "postcode": "93455",
    "city": "Weiherhaus"
  },
  {
    "postcode": "93455",
    "city": "Wieden"
  },
  {
    "postcode": "93455",
    "city": "Wiedenhof"
  },
  {
    "postcode": "93455",
    "city": "Wieshof"
  },
  {
    "postcode": "93458",
    "city": "Eschlkam"
  },
  {
    "postcode": "93458",
    "city": "Gaishof"
  },
  {
    "postcode": "93458",
    "city": "Großaign"
  },
  {
    "postcode": "93458",
    "city": "Kleinaign"
  },
  {
    "postcode": "93458",
    "city": "Kuchlshof"
  },
  {
    "postcode": "93458",
    "city": "Leming"
  },
  {
    "postcode": "93458",
    "city": "Multererhof"
  },
  {
    "postcode": "93458",
    "city": "Neuaign"
  },
  {
    "postcode": "93458",
    "city": "Oberdörfl im Wald"
  },
  {
    "postcode": "93458",
    "city": "Oberfaustern"
  },
  {
    "postcode": "93458",
    "city": "Ritzenried"
  },
  {
    "postcode": "93458",
    "city": "Schachten"
  },
  {
    "postcode": "93458",
    "city": "Schwarzenberg"
  },
  {
    "postcode": "93458",
    "city": "Stachesried"
  },
  {
    "postcode": "93458",
    "city": "Unterfaustern"
  },
  {
    "postcode": "93458",
    "city": "Warzenried"
  },
  {
    "postcode": "93458",
    "city": "Cham"
  },
  {
    "postcode": "93458",
    "city": "Aignhof"
  },
  {
    "postcode": "93458",
    "city": "Bäckermühle"
  },
  {
    "postcode": "93458",
    "city": "Haselmühle"
  },
  {
    "postcode": "93458",
    "city": "Heuhofermühle"
  },
  {
    "postcode": "93458",
    "city": "Jakobsmühle"
  },
  {
    "postcode": "93458",
    "city": "Seugenhof"
  },
  {
    "postcode": "93458",
    "city": "Oberdörfl"
  },
  {
    "postcode": "93458",
    "city": "Penzenmühle"
  },
  {
    "postcode": "93458",
    "city": "Pflaumermühle"
  },
  {
    "postcode": "93462",
    "city": "Buchet"
  },
  {
    "postcode": "93462",
    "city": "Engelshütt Oberpfalz"
  },
  {
    "postcode": "93462",
    "city": "Engelshütt"
  },
  {
    "postcode": "93462",
    "city": "Frahels Oberpfalz"
  },
  {
    "postcode": "93462",
    "city": "Frahels"
  },
  {
    "postcode": "93462",
    "city": "Himmelreich Niederbayern"
  },
  {
    "postcode": "93462",
    "city": "Himmelreich"
  },
  {
    "postcode": "93462",
    "city": "Irlmühle"
  },
  {
    "postcode": "93462",
    "city": "Lam"
  },
  {
    "postcode": "93462",
    "city": "Lam Oberpfalz"
  },
  {
    "postcode": "93462",
    "city": "Lambach Niederbayern"
  },
  {
    "postcode": "93462",
    "city": "Lambach"
  },
  {
    "postcode": "93462",
    "city": "Cham"
  },
  {
    "postcode": "93462",
    "city": "Absetz"
  },
  {
    "postcode": "93462",
    "city": "Frahelsbruck"
  },
  {
    "postcode": "93462",
    "city": "Buchetbühl"
  },
  {
    "postcode": "93462",
    "city": "Baumlager"
  },
  {
    "postcode": "93462",
    "city": "Ginglmühle"
  },
  {
    "postcode": "93462",
    "city": "Hinteröd"
  },
  {
    "postcode": "93462",
    "city": "Hinterschmelz"
  },
  {
    "postcode": "93462",
    "city": "Hinterwaldeck"
  },
  {
    "postcode": "93462",
    "city": "Holzmühle"
  },
  {
    "postcode": "93462",
    "city": "Oberschmelz"
  },
  {
    "postcode": "93462",
    "city": "Rathgeb"
  },
  {
    "postcode": "93462",
    "city": "Stierberg"
  },
  {
    "postcode": "93462",
    "city": "Trailling"
  },
  {
    "postcode": "93462",
    "city": "Vorderöd"
  },
  {
    "postcode": "93462",
    "city": "Vorderschmelz"
  },
  {
    "postcode": "93462",
    "city": "Vorderwaldeck"
  },
  {
    "postcode": "93464",
    "city": "Altenschneeberg Oberpfalz"
  },
  {
    "postcode": "93464",
    "city": "Altenschneeberg"
  },
  {
    "postcode": "93464",
    "city": "Breitenried Oberpfalz"
  },
  {
    "postcode": "93464",
    "city": "Breitenried"
  },
  {
    "postcode": "93464",
    "city": "Hannesried Oberpfalz"
  },
  {
    "postcode": "93464",
    "city": "Hannesried"
  },
  {
    "postcode": "93464",
    "city": "Hoffeld"
  },
  {
    "postcode": "93464",
    "city": "Irlach"
  },
  {
    "postcode": "93464",
    "city": "Kagern Oberpfalz"
  },
  {
    "postcode": "93464",
    "city": "Kagern"
  },
  {
    "postcode": "93464",
    "city": "Katzelsried"
  },
  {
    "postcode": "93464",
    "city": "Schönau Oberpfalz"
  },
  {
    "postcode": "93464",
    "city": "Schönau"
  },
  {
    "postcode": "93464",
    "city": "Stein"
  },
  {
    "postcode": "93464",
    "city": "Steinlohe Oberpfalz"
  },
  {
    "postcode": "93464",
    "city": "Steinlohe"
  },
  {
    "postcode": "93464",
    "city": "Tiefenbach"
  },
  {
    "postcode": "93464",
    "city": "Tiefenbach Oberpfalz"
  },
  {
    "postcode": "93464",
    "city": "Cham"
  },
  {
    "postcode": "93464",
    "city": "Bücherlmühle"
  },
  {
    "postcode": "93464",
    "city": "Grubhof"
  },
  {
    "postcode": "93464",
    "city": "Hannesriedermühle"
  },
  {
    "postcode": "93464",
    "city": "Gemeinde Treffelstein"
  },
  {
    "postcode": "93464",
    "city": "Kleinsteinlohe"
  },
  {
    "postcode": "93464",
    "city": "Lenkenthal"
  },
  {
    "postcode": "93464",
    "city": "Plößhöfe"
  },
  {
    "postcode": "93466",
    "city": "Bärndorf"
  },
  {
    "postcode": "93466",
    "city": "Chamerau"
  },
  {
    "postcode": "93466",
    "city": "Gillisberg"
  },
  {
    "postcode": "93466",
    "city": "Hörwalting"
  },
  {
    "postcode": "93466",
    "city": "Lederdorn"
  },
  {
    "postcode": "93466",
    "city": "Meinzing"
  },
  {
    "postcode": "93466",
    "city": "Roßberg"
  },
  {
    "postcode": "93466",
    "city": "Staning"
  },
  {
    "postcode": "93466",
    "city": "Wallmering"
  },
  {
    "postcode": "93466",
    "city": "Wölsting"
  },
  {
    "postcode": "93466",
    "city": "Cham"
  },
  {
    "postcode": "93466",
    "city": "Breitensteinmühle"
  },
  {
    "postcode": "93466",
    "city": "Gilling"
  },
  {
    "postcode": "93466",
    "city": "Grüben"
  },
  {
    "postcode": "93466",
    "city": "Haidstein"
  },
  {
    "postcode": "93466",
    "city": "Kollmitz"
  },
  {
    "postcode": "93466",
    "city": "Hochwies"
  },
  {
    "postcode": "93466",
    "city": "Moos"
  },
  {
    "postcode": "93466",
    "city": "Roßbach"
  },
  {
    "postcode": "93466",
    "city": "Urleiten"
  },
  {
    "postcode": "93466",
    "city": "Waldhäusl"
  },
  {
    "postcode": "93468",
    "city": "Allmannsdorf"
  },
  {
    "postcode": "93468",
    "city": "Altrandsberg"
  },
  {
    "postcode": "93468",
    "city": "Anzenberg"
  },
  {
    "postcode": "93468",
    "city": "Dietershof"
  },
  {
    "postcode": "93468",
    "city": "Eismannsberg"
  },
  {
    "postcode": "93468",
    "city": "Heitzelsberg"
  },
  {
    "postcode": "93468",
    "city": "Höhenried"
  },
  {
    "postcode": "93468",
    "city": "Miltach"
  },
  {
    "postcode": "93468",
    "city": "Obergschaidt"
  },
  {
    "postcode": "93468",
    "city": "Oberndorf"
  },
  {
    "postcode": "93468",
    "city": "Cham"
  },
  {
    "postcode": "93470",
    "city": "Eben"
  },
  {
    "postcode": "93470",
    "city": "Eggersberg"
  },
  {
    "postcode": "93470",
    "city": "Lohberg"
  },
  {
    "postcode": "93470",
    "city": "Lohberg bei Lam Oberpfalz"
  },
  {
    "postcode": "93470",
    "city": "Lohberg bei Lam"
  },
  {
    "postcode": "93470",
    "city": "Mooshütte"
  },
  {
    "postcode": "93470",
    "city": "Oberhaiderberg"
  },
  {
    "postcode": "93470",
    "city": "Schneiderberg"
  },
  {
    "postcode": "93470",
    "city": "Schrenkenthal"
  },
  {
    "postcode": "93470",
    "city": "Schwarzenbach bei Lam Oberpfalz"
  },
  {
    "postcode": "93470",
    "city": "Schwarzenbach bei Lam"
  },
  {
    "postcode": "93470",
    "city": "Silbersbach"
  },
  {
    "postcode": "93470",
    "city": "Sommerau"
  },
  {
    "postcode": "93470",
    "city": "Cham"
  },
  {
    "postcode": "93470",
    "city": "Altlohberghütte"
  },
  {
    "postcode": "93470",
    "city": "Thürnstein"
  },
  {
    "postcode": "93470",
    "city": "Zackermühle"
  },
  {
    "postcode": "93470",
    "city": "Schwarzenbach"
  },
  {
    "postcode": "93470",
    "city": "Lohberghütte"
  },
  {
    "postcode": "93470",
    "city": "Berghäusl"
  },
  {
    "postcode": "93470",
    "city": "Christlhof"
  },
  {
    "postcode": "93470",
    "city": "Ebensäge"
  },
  {
    "postcode": "93470",
    "city": "Hinterschwarzenbach"
  },
  {
    "postcode": "93470",
    "city": "Impflgut"
  },
  {
    "postcode": "93470",
    "city": "Scheiben"
  },
  {
    "postcode": "93470",
    "city": "Schwarzau"
  },
  {
    "postcode": "93470",
    "city": "Seehütte"
  },
  {
    "postcode": "93470",
    "city": "Untereggersberg"
  },
  {
    "postcode": "93470",
    "city": "Unterhaiderberg"
  },
  {
    "postcode": "93471",
    "city": "Arnbruck"
  },
  {
    "postcode": "93471",
    "city": "Bach"
  },
  {
    "postcode": "93471",
    "city": "Exenbach"
  },
  {
    "postcode": "93471",
    "city": "Gutendorf"
  },
  {
    "postcode": "93471",
    "city": "Hötzelsried"
  },
  {
    "postcode": "93471",
    "city": "Niederndorf"
  },
  {
    "postcode": "93471",
    "city": "Rappendorf"
  },
  {
    "postcode": "93471",
    "city": "Riedl"
  },
  {
    "postcode": "93471",
    "city": "Röhrlhof"
  },
  {
    "postcode": "93471",
    "city": "Sindorf"
  },
  {
    "postcode": "93471",
    "city": "Thalersdorf"
  },
  {
    "postcode": "93471",
    "city": "Trautmannsried"
  },
  {
    "postcode": "93471",
    "city": "Weidenhof"
  },
  {
    "postcode": "93471",
    "city": "Wurz"
  },
  {
    "postcode": "93471",
    "city": "Regen"
  },
  {
    "postcode": "93471",
    "city": "Asperhöhe"
  },
  {
    "postcode": "93471",
    "city": "Auhof"
  },
  {
    "postcode": "93471",
    "city": "Baumgarten"
  },
  {
    "postcode": "93471",
    "city": "Höbing"
  },
  {
    "postcode": "93471",
    "city": "Lerchenholz"
  },
  {
    "postcode": "93471",
    "city": "Poschinger Hütte"
  },
  {
    "postcode": "93471",
    "city": "Schedlhof"
  },
  {
    "postcode": "93471",
    "city": "Schmiedau"
  },
  {
    "postcode": "93471",
    "city": "Streit"
  },
  {
    "postcode": "93471",
    "city": "Waldsiedlung"
  },
  {
    "postcode": "93471",
    "city": "Waltersau"
  },
  {
    "postcode": "93473",
    "city": "Arnschwang"
  },
  {
    "postcode": "93473",
    "city": "Faustendorf"
  },
  {
    "postcode": "93473",
    "city": "Grasfilzing"
  },
  {
    "postcode": "93473",
    "city": "Kalkofen"
  },
  {
    "postcode": "93473",
    "city": "Lederhof"
  },
  {
    "postcode": "93473",
    "city": "Nößwartling"
  },
  {
    "postcode": "93473",
    "city": "Tretting"
  },
  {
    "postcode": "93473",
    "city": "Warmleiten"
  },
  {
    "postcode": "93473",
    "city": "Zenching"
  },
  {
    "postcode": "93473",
    "city": "Cham"
  },
  {
    "postcode": "93473",
    "city": "Berghaus"
  },
  {
    "postcode": "93473",
    "city": "Blumhof"
  },
  {
    "postcode": "93473",
    "city": "Eichmühle"
  },
  {
    "postcode": "93473",
    "city": "Elst"
  },
  {
    "postcode": "93473",
    "city": "Haubenbühl"
  },
  {
    "postcode": "93473",
    "city": "Herrenwies"
  },
  {
    "postcode": "93473",
    "city": "Holzhof"
  },
  {
    "postcode": "93473",
    "city": "Kuglhof"
  },
  {
    "postcode": "93473",
    "city": "Mühlberg"
  },
  {
    "postcode": "93473",
    "city": "Rumplmühle"
  },
  {
    "postcode": "93473",
    "city": "Tradthaus"
  },
  {
    "postcode": "93473",
    "city": "Wöhrmühle"
  },
  {
    "postcode": "93473",
    "city": "Weihermühle"
  },
  {
    "postcode": "93474",
    "city": "Arrach"
  },
  {
    "postcode": "93474",
    "city": "Arrach Bayerischer Wald"
  },
  {
    "postcode": "93474",
    "city": "Auhof bei Lam Oberpfalz"
  },
  {
    "postcode": "93474",
    "city": "Auhof bei Lam"
  },
  {
    "postcode": "93474",
    "city": "Drittenzell Niederbayern"
  },
  {
    "postcode": "93474",
    "city": "Drittenzell"
  },
  {
    "postcode": "93474",
    "city": "Haibühl bei Lam Oberpfalz"
  },
  {
    "postcode": "93474",
    "city": "Haibühl bei Lam"
  },
  {
    "postcode": "93474",
    "city": "Kleß Niederbayern"
  },
  {
    "postcode": "93474",
    "city": "Kleß"
  },
  {
    "postcode": "93474",
    "city": "Kolmstein"
  },
  {
    "postcode": "93474",
    "city": "Kummersdorf bei Kötzting"
  },
  {
    "postcode": "93474",
    "city": "Ottenzell bei Lam Oberpfalz"
  },
  {
    "postcode": "93474",
    "city": "Ottenzell bei Lam"
  },
  {
    "postcode": "93474",
    "city": "Ottmannszell Niederbayern"
  },
  {
    "postcode": "93474",
    "city": "Ottmannszell"
  },
  {
    "postcode": "93474",
    "city": "Stadlern bei Lam Oberpfalz"
  },
  {
    "postcode": "93474",
    "city": "Stadlern bei Lam"
  },
  {
    "postcode": "93474",
    "city": "Cham"
  },
  {
    "postcode": "93474",
    "city": "Haibühl"
  },
  {
    "postcode": "93474",
    "city": "Ottenzell"
  },
  {
    "postcode": "93474",
    "city": "Auhof"
  },
  {
    "postcode": "93474",
    "city": "Eck"
  },
  {
    "postcode": "93474",
    "city": "Eckelshof"
  },
  {
    "postcode": "93474",
    "city": "Eschlsaign"
  },
  {
    "postcode": "93474",
    "city": "Kummersdorf"
  },
  {
    "postcode": "93474",
    "city": "Maurersäge"
  },
  {
    "postcode": "93474",
    "city": "Stadlern"
  },
  {
    "postcode": "93474",
    "city": "Tanneneck"
  },
  {
    "postcode": "93476",
    "city": "Blaibach"
  },
  {
    "postcode": "93476",
    "city": "Harras"
  },
  {
    "postcode": "93476",
    "city": "Kolmberg Niederbayern"
  },
  {
    "postcode": "93476",
    "city": "Kolmberg"
  },
  {
    "postcode": "93476",
    "city": "Kreuzbach Niederbayern"
  },
  {
    "postcode": "93476",
    "city": "Kreuzbach"
  },
  {
    "postcode": "93476",
    "city": "Pulling Niederbayern"
  },
  {
    "postcode": "93476",
    "city": "Pulling"
  },
  {
    "postcode": "93476",
    "city": "Reckendorf"
  },
  {
    "postcode": "93476",
    "city": "Untergschaidt Niederbayern"
  },
  {
    "postcode": "93476",
    "city": "Untergschaidt"
  },
  {
    "postcode": "93476",
    "city": "Wimbach"
  },
  {
    "postcode": "93476",
    "city": "Cham"
  },
  {
    "postcode": "93476",
    "city": "Dürrnwies"
  },
  {
    "postcode": "93476",
    "city": "Gmündt"
  },
  {
    "postcode": "93476",
    "city": "Haselstauden"
  },
  {
    "postcode": "93476",
    "city": "Hetzenberg"
  },
  {
    "postcode": "93476",
    "city": "Hill"
  },
  {
    "postcode": "93476",
    "city": "Hochfeld"
  },
  {
    "postcode": "93476",
    "city": "Lernbechermühle"
  },
  {
    "postcode": "93476",
    "city": "Neukolmberg"
  },
  {
    "postcode": "93476",
    "city": "Plarnhof"
  },
  {
    "postcode": "93476",
    "city": "Rohrwies"
  },
  {
    "postcode": "93476",
    "city": "Spielberg"
  },
  {
    "postcode": "93477",
    "city": "Gleißenberg"
  },
  {
    "postcode": "93477",
    "city": "Gleißenberg Oberpfalz"
  },
  {
    "postcode": "93477",
    "city": "Ried bei Gleißenberg"
  },
  {
    "postcode": "93477",
    "city": "Cham"
  },
  {
    "postcode": "93477",
    "city": "Ried"
  },
  {
    "postcode": "93477",
    "city": "Berghof"
  },
  {
    "postcode": "93477",
    "city": "Hofmühle"
  },
  {
    "postcode": "93479",
    "city": "Feßmannsdorf Kreis Kötzting"
  },
  {
    "postcode": "93479",
    "city": "Feßmannsdorf"
  },
  {
    "postcode": "93479",
    "city": "Grafenwiesen"
  },
  {
    "postcode": "93479",
    "city": "Thürnhofen"
  },
  {
    "postcode": "93479",
    "city": "Voggendorf"
  },
  {
    "postcode": "93479",
    "city": "Watzlhof"
  },
  {
    "postcode": "93479",
    "city": "Cham"
  },
  {
    "postcode": "93479",
    "city": "Watzlsteg"
  },
  {
    "postcode": "93479",
    "city": "Berghäuser"
  },
  {
    "postcode": "93479",
    "city": "Stadt Kötzting"
  },
  {
    "postcode": "93479",
    "city": "Englmühle"
  },
  {
    "postcode": "93479",
    "city": "Haiberg"
  },
  {
    "postcode": "93479",
    "city": "Matheshof"
  },
  {
    "postcode": "93479",
    "city": "Schönbuchen"
  },
  {
    "postcode": "93479",
    "city": "Zittenhof"
  },
  {
    "postcode": "93480",
    "city": "Ansdorf Kreis Kötzting"
  },
  {
    "postcode": "93480",
    "city": "Ansdorf"
  },
  {
    "postcode": "93480",
    "city": "Gotzendorf Kreis Kötzting"
  },
  {
    "postcode": "93480",
    "city": "Gotzendorf"
  },
  {
    "postcode": "93480",
    "city": "Hohenwarth bei Kötzting"
  },
  {
    "postcode": "93480",
    "city": "Hundzell Kreis Kötzting"
  },
  {
    "postcode": "93480",
    "city": "Hundzell"
  },
  {
    "postcode": "93480",
    "city": "Oberzettling Kreis Kötzting"
  },
  {
    "postcode": "93480",
    "city": "Oberzettling"
  },
  {
    "postcode": "93480",
    "city": "Ribenzing Kreis Kötzting"
  },
  {
    "postcode": "93480",
    "city": "Ribenzing"
  },
  {
    "postcode": "93480",
    "city": "Simpering Kreis Kötzting"
  },
  {
    "postcode": "93480",
    "city": "Simpering"
  },
  {
    "postcode": "93480",
    "city": "Thenhof Kreis Kötzting"
  },
  {
    "postcode": "93480",
    "city": "Thenhof"
  },
  {
    "postcode": "93480",
    "city": "Thening Kreis Kötzting"
  },
  {
    "postcode": "93480",
    "city": "Thening"
  },
  {
    "postcode": "93480",
    "city": "Cham"
  },
  {
    "postcode": "93480",
    "city": "Hohenwarth"
  },
  {
    "postcode": "93480",
    "city": "Lutzenmühle"
  },
  {
    "postcode": "93480",
    "city": "Aumühle"
  },
  {
    "postcode": "93480",
    "city": "Haselstauden"
  },
  {
    "postcode": "93480",
    "city": "Gemeinde Arrach"
  },
  {
    "postcode": "93480",
    "city": "Höll"
  },
  {
    "postcode": "93480",
    "city": "Haselmühle"
  },
  {
    "postcode": "93480",
    "city": "Hudlach"
  },
  {
    "postcode": "93480",
    "city": "Rosenau"
  },
  {
    "postcode": "93480",
    "city": "Ponholz"
  },
  {
    "postcode": "93480",
    "city": "Simmereinöd"
  },
  {
    "postcode": "93480",
    "city": "Unterzettling"
  },
  {
    "postcode": "93482",
    "city": "Albersdorf"
  },
  {
    "postcode": "93482",
    "city": "Beutelsbach"
  },
  {
    "postcode": "93482",
    "city": "Elsing"
  },
  {
    "postcode": "93482",
    "city": "Engelsdorf"
  },
  {
    "postcode": "93482",
    "city": "Frieding"
  },
  {
    "postcode": "93482",
    "city": "Grafenkirchen"
  },
  {
    "postcode": "93482",
    "city": "Großbergerdorf"
  },
  {
    "postcode": "93482",
    "city": "Kager"
  },
  {
    "postcode": "93482",
    "city": "Kreuth"
  },
  {
    "postcode": "93482",
    "city": "Löwendorf"
  },
  {
    "postcode": "93482",
    "city": "Oberdeschenried"
  },
  {
    "postcode": "93482",
    "city": "Pemfling"
  },
  {
    "postcode": "93482",
    "city": "Pitzling"
  },
  {
    "postcode": "93482",
    "city": "Rackelsdorf"
  },
  {
    "postcode": "93482",
    "city": "Rannersdorf"
  },
  {
    "postcode": "93482",
    "city": "Ried"
  },
  {
    "postcode": "93482",
    "city": "Schmitzdorf"
  },
  {
    "postcode": "93482",
    "city": "Cham"
  },
  {
    "postcode": "93482",
    "city": "Au"
  },
  {
    "postcode": "93482",
    "city": "Aumühle"
  },
  {
    "postcode": "93482",
    "city": "Bierlhof"
  },
  {
    "postcode": "93482",
    "city": "Birkmühle"
  },
  {
    "postcode": "93482",
    "city": "Buchermühle"
  },
  {
    "postcode": "93482",
    "city": "Fichthof"
  },
  {
    "postcode": "93482",
    "city": "Höfenmühle"
  },
  {
    "postcode": "93482",
    "city": "Höllmühle"
  },
  {
    "postcode": "93482",
    "city": "Haid"
  },
  {
    "postcode": "93482",
    "city": "Schiltlmühle"
  },
  {
    "postcode": "93482",
    "city": "Wöhrhof"
  },
  {
    "postcode": "93483",
    "city": "Langwald"
  },
  {
    "postcode": "93483",
    "city": "Pösing"
  },
  {
    "postcode": "93483",
    "city": "Cham"
  },
  {
    "postcode": "93485",
    "city": "Grafenried Kreis Kötzting"
  },
  {
    "postcode": "93485",
    "city": "Grafenried"
  },
  {
    "postcode": "93485",
    "city": "Kettersdorf"
  },
  {
    "postcode": "93485",
    "city": "Lichteneck Kreis Kötzting"
  },
  {
    "postcode": "93485",
    "city": "Lichteneck"
  },
  {
    "postcode": "93485",
    "city": "Madersdorf Kreis Kötzting"
  },
  {
    "postcode": "93485",
    "city": "Madersdorf"
  },
  {
    "postcode": "93485",
    "city": "Offersdorf"
  },
  {
    "postcode": "93485",
    "city": "Rimbach"
  },
  {
    "postcode": "93485",
    "city": "Rimbach Oberpfalz"
  },
  {
    "postcode": "93485",
    "city": "Schafhof Kreis Kötzting"
  },
  {
    "postcode": "93485",
    "city": "Schafhof"
  },
  {
    "postcode": "93485",
    "city": "Thenried"
  },
  {
    "postcode": "93485",
    "city": "Unterzettling"
  },
  {
    "postcode": "93485",
    "city": "Zettisch"
  },
  {
    "postcode": "93485",
    "city": "Cham"
  },
  {
    "postcode": "93485",
    "city": "Aignhof"
  },
  {
    "postcode": "93485",
    "city": "Hoher Bogen"
  },
  {
    "postcode": "93485",
    "city": "Dönning"
  },
  {
    "postcode": "93485",
    "city": "Götzlhof"
  },
  {
    "postcode": "93485",
    "city": "Hinterlichteneck"
  },
  {
    "postcode": "93485",
    "city": "Madlmühle"
  },
  {
    "postcode": "93485",
    "city": "Perlesried"
  },
  {
    "postcode": "93485",
    "city": "Stadlhof"
  },
  {
    "postcode": "93485",
    "city": "Wöhrmühle"
  },
  {
    "postcode": "93485",
    "city": "Watzlsteg"
  },
  {
    "postcode": "93485",
    "city": "Zettischmühle"
  },
  {
    "postcode": "93486",
    "city": "Garten"
  },
  {
    "postcode": "93486",
    "city": "Göttling"
  },
  {
    "postcode": "93486",
    "city": "Langwitz"
  },
  {
    "postcode": "93486",
    "city": "Lufling"
  },
  {
    "postcode": "93486",
    "city": "Maiberg"
  },
  {
    "postcode": "93486",
    "city": "Niederrunding"
  },
  {
    "postcode": "93486",
    "city": "Perwolfing"
  },
  {
    "postcode": "93486",
    "city": "Raindorf"
  },
  {
    "postcode": "93486",
    "city": "Rieding"
  },
  {
    "postcode": "93486",
    "city": "Runding"
  },
  {
    "postcode": "93486",
    "city": "Runding bei Cham Oberpfalz"
  },
  {
    "postcode": "93486",
    "city": "Runding bei Cham"
  },
  {
    "postcode": "93486",
    "city": "Satzdorf"
  },
  {
    "postcode": "93486",
    "city": "Vierau"
  },
  {
    "postcode": "93486",
    "city": "Cham"
  },
  {
    "postcode": "93488",
    "city": "Döfering Oberpfalz"
  },
  {
    "postcode": "93488",
    "city": "Döfering"
  },
  {
    "postcode": "93488",
    "city": "Flischbach Oberpfalz"
  },
  {
    "postcode": "93488",
    "city": "Flischbach"
  },
  {
    "postcode": "93488",
    "city": "Flischberg Oberpfalz"
  },
  {
    "postcode": "93488",
    "city": "Flischberg"
  },
  {
    "postcode": "93488",
    "city": "Hiltersried"
  },
  {
    "postcode": "93488",
    "city": "Kleinschönthal Oberpfalz"
  },
  {
    "postcode": "93488",
    "city": "Kleinschönthal"
  },
  {
    "postcode": "93488",
    "city": "Lixendöfering Oberpfalz"
  },
  {
    "postcode": "93488",
    "city": "Lixendöfering"
  },
  {
    "postcode": "93488",
    "city": "Loitendorf"
  },
  {
    "postcode": "93488",
    "city": "Öd"
  },
  {
    "postcode": "93488",
    "city": "Premeischl"
  },
  {
    "postcode": "93488",
    "city": "Rhan Oberpfalz"
  },
  {
    "postcode": "93488",
    "city": "Rhan"
  },
  {
    "postcode": "93488",
    "city": "Schönthal"
  },
  {
    "postcode": "93488",
    "city": "Schönthal Oberpfalz"
  },
  {
    "postcode": "93488",
    "city": "Thurau Oberpfalz"
  },
  {
    "postcode": "93488",
    "city": "Thurau"
  },
  {
    "postcode": "93488",
    "city": "Trosendorf"
  },
  {
    "postcode": "93488",
    "city": "Cham"
  },
  {
    "postcode": "93488",
    "city": "Wullnhof"
  },
  {
    "postcode": "93488",
    "city": "Lampachshof"
  },
  {
    "postcode": "93488",
    "city": "Niederpremeischl"
  },
  {
    "postcode": "93488",
    "city": "Preglerhof"
  },
  {
    "postcode": "93488",
    "city": "Wirnetshof"
  },
  {
    "postcode": "93489",
    "city": "Haid am Bühl"
  },
  {
    "postcode": "93489",
    "city": "Hötzing Oberpfalz"
  },
  {
    "postcode": "93489",
    "city": "Hötzing"
  },
  {
    "postcode": "93489",
    "city": "Knöbling Oberpfalz"
  },
  {
    "postcode": "93489",
    "city": "Knöbling"
  },
  {
    "postcode": "93489",
    "city": "Knötzing Oberpfalz"
  },
  {
    "postcode": "93489",
    "city": "Knötzing"
  },
  {
    "postcode": "93489",
    "city": "Litzling Oberpfalz"
  },
  {
    "postcode": "93489",
    "city": "Litzling"
  },
  {
    "postcode": "93489",
    "city": "Nanzing"
  },
  {
    "postcode": "93489",
    "city": "Neuhaus Kreis Cham Oberpfalz"
  },
  {
    "postcode": "93489",
    "city": "Neuhaus"
  },
  {
    "postcode": "93489",
    "city": "Oberaign Kreis Cham Oberpfalz"
  },
  {
    "postcode": "93489",
    "city": "Oberaign"
  },
  {
    "postcode": "93489",
    "city": "Obertraubenbach"
  },
  {
    "postcode": "93489",
    "city": "Penting Oberpfalz"
  },
  {
    "postcode": "93489",
    "city": "Penting"
  },
  {
    "postcode": "93489",
    "city": "Radling Oberpfalz"
  },
  {
    "postcode": "93489",
    "city": "Radling"
  },
  {
    "postcode": "93489",
    "city": "Schorndorf"
  },
  {
    "postcode": "93489",
    "city": "Schorndorf Oberpfalz"
  },
  {
    "postcode": "93489",
    "city": "Schorndorfsried Oberpfalz"
  },
  {
    "postcode": "93489",
    "city": "Schorndorfsried"
  },
  {
    "postcode": "93489",
    "city": "Thierling Oberpfalz"
  },
  {
    "postcode": "93489",
    "city": "Thierling"
  },
  {
    "postcode": "93489",
    "city": "Unteraigen Kreis Cham Oberpfalz"
  },
  {
    "postcode": "93489",
    "city": "Unteraigen"
  },
  {
    "postcode": "93489",
    "city": "Wulting"
  },
  {
    "postcode": "93489",
    "city": "Cham"
  },
  {
    "postcode": "93489",
    "city": "Achterlingshof"
  },
  {
    "postcode": "93489",
    "city": "Baierberg"
  },
  {
    "postcode": "93489",
    "city": "Bartlberg"
  },
  {
    "postcode": "93489",
    "city": "Berghof"
  },
  {
    "postcode": "93489",
    "city": "Biendlseigen"
  },
  {
    "postcode": "93489",
    "city": "Giglberg"
  },
  {
    "postcode": "93489",
    "city": "Gilnhof"
  },
  {
    "postcode": "93489",
    "city": "Greinerhäusl"
  },
  {
    "postcode": "93489",
    "city": "Haid"
  },
  {
    "postcode": "93489",
    "city": "Hartlsölden"
  },
  {
    "postcode": "93489",
    "city": "Kagermühle"
  },
  {
    "postcode": "93489",
    "city": "Kernmühle"
  },
  {
    "postcode": "93489",
    "city": "Kreßhof"
  },
  {
    "postcode": "93489",
    "city": "Neuthierling"
  },
  {
    "postcode": "93489",
    "city": "Pfahlhäuser"
  },
  {
    "postcode": "93489",
    "city": "Rauchenberg"
  },
  {
    "postcode": "93489",
    "city": "Reishof"
  },
  {
    "postcode": "93489",
    "city": "Reismühle"
  },
  {
    "postcode": "93489",
    "city": "Sandberg"
  },
  {
    "postcode": "93489",
    "city": "Schorndorfsgrub"
  },
  {
    "postcode": "93489",
    "city": "Schwaighof"
  },
  {
    "postcode": "93489",
    "city": "Stegmühle"
  },
  {
    "postcode": "93489",
    "city": "Ziegertshof"
  },
  {
    "postcode": "93491",
    "city": "Asbach"
  },
  {
    "postcode": "93491",
    "city": "Diebersried"
  },
  {
    "postcode": "93491",
    "city": "Dörfling"
  },
  {
    "postcode": "93491",
    "city": "Freundelsdorf"
  },
  {
    "postcode": "93491",
    "city": "Friedersried"
  },
  {
    "postcode": "93491",
    "city": "Großenzenried"
  },
  {
    "postcode": "93491",
    "city": "Grub"
  },
  {
    "postcode": "93491",
    "city": "Hilpersried"
  },
  {
    "postcode": "93491",
    "city": "Hiltenbach"
  },
  {
    "postcode": "93491",
    "city": "Hitzelsberg"
  },
  {
    "postcode": "93491",
    "city": "Kollenzendorf"
  },
  {
    "postcode": "93491",
    "city": "Maierhöfen"
  },
  {
    "postcode": "93491",
    "city": "Raubersried"
  },
  {
    "postcode": "93491",
    "city": "Stamsried"
  },
  {
    "postcode": "93491",
    "city": "Stratwies"
  },
  {
    "postcode": "93491",
    "city": "Thanried"
  },
  {
    "postcode": "93491",
    "city": "Unterdeschenried"
  },
  {
    "postcode": "93491",
    "city": "Cham"
  },
  {
    "postcode": "93491",
    "city": "Altenried"
  },
  {
    "postcode": "93491",
    "city": "Bernmühle"
  },
  {
    "postcode": "93491",
    "city": "Bibershof"
  },
  {
    "postcode": "93491",
    "city": "Eglsee"
  },
  {
    "postcode": "93491",
    "city": "Fegershof"
  },
  {
    "postcode": "93491",
    "city": "Fegersmühl"
  },
  {
    "postcode": "93491",
    "city": "Friedlhöhe"
  },
  {
    "postcode": "93491",
    "city": "Fuchshof"
  },
  {
    "postcode": "93491",
    "city": "Haselried"
  },
  {
    "postcode": "93491",
    "city": "Hindelmühle"
  },
  {
    "postcode": "93491",
    "city": "Holzhof"
  },
  {
    "postcode": "93491",
    "city": "Jagelhof"
  },
  {
    "postcode": "93491",
    "city": "Kürnberg"
  },
  {
    "postcode": "93491",
    "city": "Löwenbrunn"
  },
  {
    "postcode": "93491",
    "city": "Leiten"
  },
  {
    "postcode": "93491",
    "city": "Ochsenweid"
  },
  {
    "postcode": "93491",
    "city": "Plattenhöh"
  },
  {
    "postcode": "93491",
    "city": "Rabmühle"
  },
  {
    "postcode": "93491",
    "city": "Rannersdorf"
  },
  {
    "postcode": "93491",
    "city": "Riedbühl"
  },
  {
    "postcode": "93491",
    "city": "Saalhof"
  },
  {
    "postcode": "93491",
    "city": "Schnepfenried"
  },
  {
    "postcode": "93491",
    "city": "Sitzhof"
  },
  {
    "postcode": "93491",
    "city": "Staunerhöf"
  },
  {
    "postcode": "93491",
    "city": "Sägmühl"
  },
  {
    "postcode": "93491",
    "city": "Todhof"
  },
  {
    "postcode": "93491",
    "city": "Weihermühl"
  },
  {
    "postcode": "93492",
    "city": "Altenried"
  },
  {
    "postcode": "93492",
    "city": "Biberbach bei Waldmünchen"
  },
  {
    "postcode": "93492",
    "city": "Edlmühl"
  },
  {
    "postcode": "93492",
    "city": "Stratsried Kreis Waldmünchen"
  },
  {
    "postcode": "93492",
    "city": "Stratsried"
  },
  {
    "postcode": "93492",
    "city": "Treffelstein"
  },
  {
    "postcode": "93492",
    "city": "Witzelsmühle Kreis Waldmünchen"
  },
  {
    "postcode": "93492",
    "city": "Witzelsmühle"
  },
  {
    "postcode": "93492",
    "city": "Cham"
  },
  {
    "postcode": "93492",
    "city": "Biberbach"
  },
  {
    "postcode": "93492",
    "city": "Birkhof"
  },
  {
    "postcode": "93492",
    "city": "Kleeberg"
  },
  {
    "postcode": "93492",
    "city": "Kritzenthal"
  },
  {
    "postcode": "93492",
    "city": "Lintlhammer"
  },
  {
    "postcode": "93492",
    "city": "Zweifelhof"
  },
  {
    "postcode": "93494",
    "city": "Balbersdorf"
  },
  {
    "postcode": "93494",
    "city": "Darstein"
  },
  {
    "postcode": "93494",
    "city": "Habersdorf"
  },
  {
    "postcode": "93494",
    "city": "Klessing"
  },
  {
    "postcode": "93494",
    "city": "Kolmberg"
  },
  {
    "postcode": "93494",
    "city": "Maiberg"
  },
  {
    "postcode": "93494",
    "city": "Obernried"
  },
  {
    "postcode": "93494",
    "city": "Rhanwalting"
  },
  {
    "postcode": "93494",
    "city": "Saisting"
  },
  {
    "postcode": "93494",
    "city": "Thonberg"
  },
  {
    "postcode": "93494",
    "city": "Waffenbrunn"
  },
  {
    "postcode": "93494",
    "city": "Weiher"
  },
  {
    "postcode": "93494",
    "city": "Cham"
  },
  {
    "postcode": "93494",
    "city": "Klinglmühle"
  },
  {
    "postcode": "93494",
    "city": "Kotheben"
  },
  {
    "postcode": "93494",
    "city": "Kuglhof"
  },
  {
    "postcode": "93494",
    "city": "Schnabelmühle"
  },
  {
    "postcode": "93494",
    "city": "Sonnhof"
  },
  {
    "postcode": "93495",
    "city": "Dalking Kreis Cham Oberpfalz"
  },
  {
    "postcode": "93495",
    "city": "Dalking"
  },
  {
    "postcode": "93495",
    "city": "Döbersing"
  },
  {
    "postcode": "93495",
    "city": "Friedendorf"
  },
  {
    "postcode": "93495",
    "city": "Gschieß"
  },
  {
    "postcode": "93495",
    "city": "Haid"
  },
  {
    "postcode": "93495",
    "city": "Maiering"
  },
  {
    "postcode": "93495",
    "city": "Neumühlen"
  },
  {
    "postcode": "93495",
    "city": "Pinzing"
  },
  {
    "postcode": "93495",
    "city": "Reisach Oberpfalz"
  },
  {
    "postcode": "93495",
    "city": "Reisach"
  },
  {
    "postcode": "93495",
    "city": "Walting"
  },
  {
    "postcode": "93495",
    "city": "Weiding Kreis Cham Oberpfalz"
  },
  {
    "postcode": "93495",
    "city": "Weiding"
  },
  {
    "postcode": "93495",
    "city": "Zelz Kreis Cham Oberpfalz"
  },
  {
    "postcode": "93495",
    "city": "Zelz"
  },
  {
    "postcode": "93495",
    "city": "Cham"
  },
  {
    "postcode": "93495",
    "city": "Rettenhof"
  },
  {
    "postcode": "93495",
    "city": "Steinach"
  },
  {
    "postcode": "93497",
    "city": "Geigen"
  },
  {
    "postcode": "93497",
    "city": "Prienzing"
  },
  {
    "postcode": "93497",
    "city": "Willmering"
  },
  {
    "postcode": "93497",
    "city": "Zifling Oberpfalz"
  },
  {
    "postcode": "93497",
    "city": "Zifling"
  },
  {
    "postcode": "93497",
    "city": "Cham"
  },
  {
    "postcode": "93497",
    "city": "Brennet"
  },
  {
    "postcode": "93497",
    "city": "Lohweiher"
  },
  {
    "postcode": "93497",
    "city": "Prienzing-Siedlung"
  },
  {
    "postcode": "93497",
    "city": "Prienzing-Tradl"
  },
  {
    "postcode": "93497",
    "city": "Stegmühle"
  },
  {
    "postcode": "93497",
    "city": "Zifling-Bierl"
  },
  {
    "postcode": "93499",
    "city": "Bierwinkl Niederbayern"
  },
  {
    "postcode": "93499",
    "city": "Bierwinkl"
  },
  {
    "postcode": "93499",
    "city": "Dietersdorf"
  },
  {
    "postcode": "93499",
    "city": "Eichelhof Niederbayern"
  },
  {
    "postcode": "93499",
    "city": "Eichelhof"
  },
  {
    "postcode": "93499",
    "city": "Flammried Niederbayern"
  },
  {
    "postcode": "93499",
    "city": "Flammried"
  },
  {
    "postcode": "93499",
    "city": "Harrling Niederbayern"
  },
  {
    "postcode": "93499",
    "city": "Harrling"
  },
  {
    "postcode": "93499",
    "city": "Liebenau Niederbayern"
  },
  {
    "postcode": "93499",
    "city": "Liebenau"
  },
  {
    "postcode": "93499",
    "city": "Nasting Niederbayern"
  },
  {
    "postcode": "93499",
    "city": "Nasting"
  },
  {
    "postcode": "93499",
    "city": "Pfahl"
  },
  {
    "postcode": "93499",
    "city": "Wolfersdorf"
  },
  {
    "postcode": "93499",
    "city": "Zandt"
  },
  {
    "postcode": "93499",
    "city": "Zandt Oberpfalz"
  },
  {
    "postcode": "93499",
    "city": "Cham"
  },
  {
    "postcode": "93499",
    "city": "Ammerhof"
  },
  {
    "postcode": "93499",
    "city": "Auhof"
  },
  {
    "postcode": "93499",
    "city": "Berghäusl"
  },
  {
    "postcode": "93499",
    "city": "Frauenholz"
  },
  {
    "postcode": "93499",
    "city": "Hinterstocka"
  },
  {
    "postcode": "93499",
    "city": "Holzmühle"
  },
  {
    "postcode": "93499",
    "city": "Kagerhof"
  },
  {
    "postcode": "93499",
    "city": "Kothrettenbach"
  },
  {
    "postcode": "93499",
    "city": "Kühberg"
  },
  {
    "postcode": "93499",
    "city": "Oberstocka"
  },
  {
    "postcode": "93499",
    "city": "Riedhof"
  },
  {
    "postcode": "93499",
    "city": "Riedwies"
  },
  {
    "postcode": "93499",
    "city": "Riesel"
  },
  {
    "postcode": "93499",
    "city": "Sperlmühle"
  },
  {
    "postcode": "93499",
    "city": "Unterhaidmühle"
  },
  {
    "postcode": "93499",
    "city": "Unterstocka"
  },
  {
    "postcode": "93499",
    "city": "Weiherhäusl"
  },
  {
    "postcode": "93499",
    "city": "Weihermühle"
  }
]