[
  {
    "postcode": "4910",
    "city": "Elsterwerda"
  },
  {
    "postcode": "4910",
    "city": "Haida bei Elsterwerda"
  },
  {
    "postcode": "4910",
    "city": "Kraupa"
  },
  {
    "postcode": "4910",
    "city": "Elbe-Elster"
  },
  {
    "postcode": "4910",
    "city": "Kotschka"
  },
  {
    "postcode": "4910",
    "city": "Biehla"
  },
  {
    "postcode": "4916",
    "city": "Ahlsdorf bei Schönewalde"
  },
  {
    "postcode": "4916",
    "city": "Arnsnesta"
  },
  {
    "postcode": "4916",
    "city": "Bernsdorf bei Herzberg Elster"
  },
  {
    "postcode": "4916",
    "city": "Bernsdorf bei Herzberg"
  },
  {
    "postcode": "4916",
    "city": "Borken Elster"
  },
  {
    "postcode": "4916",
    "city": "Borken"
  },
  {
    "postcode": "4916",
    "city": "Brandis Schweinitzer Fließ"
  },
  {
    "postcode": "4916",
    "city": "Brandis"
  },
  {
    "postcode": "4916",
    "city": "Dubro"
  },
  {
    "postcode": "4916",
    "city": "Friedersdorf bei Herzberg Elster"
  },
  {
    "postcode": "4916",
    "city": "Friedersdorf bei Herzberg"
  },
  {
    "postcode": "4916",
    "city": "Gräfendorf bei Herzberg Elster"
  },
  {
    "postcode": "4916",
    "city": "Gräfendorf bei Herzberg"
  },
  {
    "postcode": "4916",
    "city": "Grassau bei Schönewalde"
  },
  {
    "postcode": "4916",
    "city": "Heideeck"
  },
  {
    "postcode": "4916",
    "city": "Herzberg (Elster)"
  },
  {
    "postcode": "4916",
    "city": "Herzberg"
  },
  {
    "postcode": "4916",
    "city": "Jeßnigk"
  },
  {
    "postcode": "4916",
    "city": "Knippelsdorf"
  },
  {
    "postcode": "4916",
    "city": "Mahdel"
  },
  {
    "postcode": "4916",
    "city": "Osteroda"
  },
  {
    "postcode": "4916",
    "city": "Polzen"
  },
  {
    "postcode": "4916",
    "city": "Rahnisdorf"
  },
  {
    "postcode": "4916",
    "city": "Schönewalde bei Herzberg Elster"
  },
  {
    "postcode": "4916",
    "city": "Schönewalde bei Herzberg"
  },
  {
    "postcode": "4916",
    "city": "Stolzenhain bei Schönewalde"
  },
  {
    "postcode": "4916",
    "city": "Themesgrund"
  },
  {
    "postcode": "4916",
    "city": "Werchau"
  },
  {
    "postcode": "4916",
    "city": "Wiepersdorf bei Falkenberg Elster"
  },
  {
    "postcode": "4916",
    "city": "Wiepersdorf bei Falkenberg"
  },
  {
    "postcode": "4916",
    "city": "Wildberg bei Herzberg Elster"
  },
  {
    "postcode": "4916",
    "city": "Wildberg bei Herzberg"
  },
  {
    "postcode": "4916",
    "city": "Wildenau bei Herzberg Elster"
  },
  {
    "postcode": "4916",
    "city": "Wildenau bei Herzberg"
  },
  {
    "postcode": "4916",
    "city": "Elbe-Elster"
  },
  {
    "postcode": "4916",
    "city": "Kremitzaue"
  },
  {
    "postcode": "4916",
    "city": "Schönewalde"
  },
  {
    "postcode": "4916",
    "city": "Züllsdorf"
  },
  {
    "postcode": "4916",
    "city": "Fermerswalde"
  },
  {
    "postcode": "4916",
    "city": "Löhsten"
  },
  {
    "postcode": "4916",
    "city": "Buckau"
  },
  {
    "postcode": "4916",
    "city": "Gräfendorf"
  },
  {
    "postcode": "4916",
    "city": "Friedersdorf"
  },
  {
    "postcode": "4916",
    "city": "Redlin"
  },
  {
    "postcode": "4916",
    "city": "Wildenau"
  },
  {
    "postcode": "4916",
    "city": "Stolzenhain"
  },
  {
    "postcode": "4916",
    "city": "Wiepersdorf"
  },
  {
    "postcode": "4916",
    "city": "Horst"
  },
  {
    "postcode": "4916",
    "city": "Ahlsdorf"
  },
  {
    "postcode": "4916",
    "city": "Grassau"
  },
  {
    "postcode": "4916",
    "city": "Hartmannsdorf"
  },
  {
    "postcode": "4916",
    "city": "Hohenkuhnsdorf"
  },
  {
    "postcode": "4916",
    "city": "Bernsdorf"
  },
  {
    "postcode": "4916",
    "city": "Schmielsdorf"
  },
  {
    "postcode": "4916",
    "city": "Grauwinkel"
  },
  {
    "postcode": "4916",
    "city": "Freywalde"
  },
  {
    "postcode": "4924",
    "city": "Bad Liebenwerda"
  },
  {
    "postcode": "4924",
    "city": "Beiersdorf bei Falkenberg Elster"
  },
  {
    "postcode": "4924",
    "city": "Beiersdorf bei Falkenberg"
  },
  {
    "postcode": "4924",
    "city": "Beutersitz"
  },
  {
    "postcode": "4924",
    "city": "Bönitz"
  },
  {
    "postcode": "4924",
    "city": "Dobra bei Bad Liebenwerda"
  },
  {
    "postcode": "4924",
    "city": "Domsdorf bei Bad Liebenwerda"
  },
  {
    "postcode": "4924",
    "city": "Kauxdorf"
  },
  {
    "postcode": "4924",
    "city": "Kröbeln"
  },
  {
    "postcode": "4924",
    "city": "Lausitz"
  },
  {
    "postcode": "4924",
    "city": "Maasdorf bei Falkenberg Elster"
  },
  {
    "postcode": "4924",
    "city": "Maasdorf bei Falkenberg"
  },
  {
    "postcode": "4924",
    "city": "Marxdorf bei Falkenberg Elster"
  },
  {
    "postcode": "4924",
    "city": "Marxdorf bei Falkenberg"
  },
  {
    "postcode": "4924",
    "city": "Oschätzchen"
  },
  {
    "postcode": "4924",
    "city": "Prestewitz"
  },
  {
    "postcode": "4924",
    "city": "Prieschka"
  },
  {
    "postcode": "4924",
    "city": "Rothstein"
  },
  {
    "postcode": "4924",
    "city": "Thalberg bei Bad Liebenwerda"
  },
  {
    "postcode": "4924",
    "city": "Theisa"
  },
  {
    "postcode": "4924",
    "city": "Uebigau-Wahrenbrück"
  },
  {
    "postcode": "4924",
    "city": "Wildgrube"
  },
  {
    "postcode": "4924",
    "city": "Winkel bei Bad Liebenwerda"
  },
  {
    "postcode": "4924",
    "city": "Zeischa"
  },
  {
    "postcode": "4924",
    "city": "Zobersdorf"
  },
  {
    "postcode": "4924",
    "city": "Elbe-Elster"
  },
  {
    "postcode": "4924",
    "city": "Beiersdorf"
  },
  {
    "postcode": "4924",
    "city": "Dobra"
  },
  {
    "postcode": "4924",
    "city": "Domsdorf"
  },
  {
    "postcode": "4924",
    "city": "Maasdorf"
  },
  {
    "postcode": "4924",
    "city": "Marxdorf"
  },
  {
    "postcode": "4924",
    "city": "Thalberg"
  },
  {
    "postcode": "4924",
    "city": "Wahrenbrück"
  },
  {
    "postcode": "4924",
    "city": "Winkel"
  },
  {
    "postcode": "4924",
    "city": "Neumühl"
  },
  {
    "postcode": "4924",
    "city": "Domsdorf-Siedlung"
  },
  {
    "postcode": "4924",
    "city": "Zinsdorf"
  },
  {
    "postcode": "4928",
    "city": "Döllingen"
  },
  {
    "postcode": "4928",
    "city": "Kahla Elster"
  },
  {
    "postcode": "4928",
    "city": "Kahla"
  },
  {
    "postcode": "4928",
    "city": "Plessa"
  },
  {
    "postcode": "4928",
    "city": "Schraden bei Elsterwerda"
  },
  {
    "postcode": "4928",
    "city": "Elbe-Elster"
  },
  {
    "postcode": "4928",
    "city": "Schraden"
  },
  {
    "postcode": "4931",
    "city": "Altenau bei Mühlberg Elbe"
  },
  {
    "postcode": "4931",
    "city": "Altenau bei Mühlberg"
  },
  {
    "postcode": "4931",
    "city": "Fichtenberg Elbe"
  },
  {
    "postcode": "4931",
    "city": "Fichtenberg"
  },
  {
    "postcode": "4931",
    "city": "Kosilenzien"
  },
  {
    "postcode": "4931",
    "city": "Möglenz"
  },
  {
    "postcode": "4931",
    "city": "Mühlberg / Elbe"
  },
  {
    "postcode": "4931",
    "city": "Mühlberg"
  },
  {
    "postcode": "4931",
    "city": "Neuburxdorf"
  },
  {
    "postcode": "4931",
    "city": "Elbe-Elster"
  },
  {
    "postcode": "4931",
    "city": "Altenau"
  },
  {
    "postcode": "4931",
    "city": "Bad Liebenwerda"
  },
  {
    "postcode": "4931",
    "city": "Langenrieth"
  },
  {
    "postcode": "4931",
    "city": "Wendisch-Borschütz"
  },
  {
    "postcode": "4931",
    "city": "Borschütz"
  },
  {
    "postcode": "4931",
    "city": "Gaitzsch"
  },
  {
    "postcode": "4931",
    "city": "Weinberge"
  },
  {
    "postcode": "4931",
    "city": "Köttlitz"
  },
  {
    "postcode": "4932",
    "city": "Gröden"
  },
  {
    "postcode": "4932",
    "city": "Großthiemig"
  },
  {
    "postcode": "4932",
    "city": "Haida bei Elsterwerda"
  },
  {
    "postcode": "4932",
    "city": "Hirschfeld bei Elsterwerda"
  },
  {
    "postcode": "4932",
    "city": "Merzdorf bei Elsterwerda"
  },
  {
    "postcode": "4932",
    "city": "Prösen"
  },
  {
    "postcode": "4932",
    "city": "Reichenhain bei Prösen"
  },
  {
    "postcode": "4932",
    "city": "Röderland"
  },
  {
    "postcode": "4932",
    "city": "Saathain"
  },
  {
    "postcode": "4932",
    "city": "Stolzenhain an der Röder"
  },
  {
    "postcode": "4932",
    "city": "Wainsdorf"
  },
  {
    "postcode": "4932",
    "city": "Elbe-Elster"
  },
  {
    "postcode": "4932",
    "city": "Hirschfeld"
  },
  {
    "postcode": "4932",
    "city": "Merzdorf"
  },
  {
    "postcode": "4932",
    "city": "Reichenhain"
  },
  {
    "postcode": "4932",
    "city": "Stolzenhain a d Röder"
  },
  {
    "postcode": "4932",
    "city": "Haida"
  },
  {
    "postcode": "4932",
    "city": "Würdenhain"
  },
  {
    "postcode": "4934",
    "city": "Dreska"
  },
  {
    "postcode": "4934",
    "city": "Hohenleipisch"
  },
  {
    "postcode": "4934",
    "city": "Elbe-Elster"
  },
  {
    "postcode": "4936",
    "city": "Fichtwald"
  },
  {
    "postcode": "4936",
    "city": "Frankenhain bei Schlieben"
  },
  {
    "postcode": "4936",
    "city": "Freileben"
  },
  {
    "postcode": "4936",
    "city": "Hillmersdorf"
  },
  {
    "postcode": "4936",
    "city": "Hohenbucko"
  },
  {
    "postcode": "4936",
    "city": "Jagsal"
  },
  {
    "postcode": "4936",
    "city": "Kolochau"
  },
  {
    "postcode": "4936",
    "city": "Körba"
  },
  {
    "postcode": "4936",
    "city": "Kremitzaue"
  },
  {
    "postcode": "4936",
    "city": "Lebusa"
  },
  {
    "postcode": "4936",
    "city": "Malitschkendorf"
  },
  {
    "postcode": "4936",
    "city": "Naundorf bei Schlieben"
  },
  {
    "postcode": "4936",
    "city": "Oelsig"
  },
  {
    "postcode": "4936",
    "city": "Proßmarke"
  },
  {
    "postcode": "4936",
    "city": "Schlieben"
  },
  {
    "postcode": "4936",
    "city": "Schöna-Kolpien"
  },
  {
    "postcode": "4936",
    "city": "Stechau"
  },
  {
    "postcode": "4936",
    "city": "Wehrhain"
  },
  {
    "postcode": "4936",
    "city": "Elbe-Elster"
  },
  {
    "postcode": "4936",
    "city": "Naundorf"
  },
  {
    "postcode": "4936",
    "city": "Striesa"
  },
  {
    "postcode": "4936",
    "city": "Berga"
  },
  {
    "postcode": "4936",
    "city": "Frankenhain"
  },
  {
    "postcode": "4936",
    "city": "Krassig"
  },
  {
    "postcode": "4936",
    "city": "Werchau"
  },
  {
    "postcode": "4938",
    "city": "Drasdo"
  },
  {
    "postcode": "4938",
    "city": "Langennaundorf"
  },
  {
    "postcode": "4938",
    "city": "Uebigau Elster"
  },
  {
    "postcode": "4938",
    "city": "Uebigau"
  },
  {
    "postcode": "4938",
    "city": "Uebigau-Wahrenbrück"
  },
  {
    "postcode": "4938",
    "city": "Wiederau bei Uebigau Elster"
  },
  {
    "postcode": "4938",
    "city": "Wiederau bei Uebigau"
  },
  {
    "postcode": "4938",
    "city": "Elbe-Elster"
  },
  {
    "postcode": "4938",
    "city": "Wiederau"
  },
  {
    "postcode": "4938",
    "city": "Wildgrube-Bahnhof"
  },
  {
    "postcode": "4938",
    "city": "Bomsdorf"
  },
  {
    "postcode": "4938",
    "city": "München"
  },
  {
    "postcode": "49074",
    "city": "Osnabrück"
  },
  {
    "postcode": "49074",
    "city": "Innenstadt"
  },
  {
    "postcode": "49074",
    "city": "Gartlage"
  },
  {
    "postcode": "49076",
    "city": "Atter"
  },
  {
    "postcode": "49076",
    "city": "Osnabrück"
  },
  {
    "postcode": "49076",
    "city": "Westerberg"
  },
  {
    "postcode": "49076",
    "city": "Weststadt"
  },
  {
    "postcode": "49078",
    "city": "Hellern"
  },
  {
    "postcode": "49078",
    "city": "Osnabrück"
  },
  {
    "postcode": "49078",
    "city": "Weststadt"
  },
  {
    "postcode": "49080",
    "city": "Osnabrück"
  },
  {
    "postcode": "49080",
    "city": "Wüste"
  },
  {
    "postcode": "49080",
    "city": "Kalkhügel"
  },
  {
    "postcode": "49082",
    "city": "Osnabrück"
  },
  {
    "postcode": "49082",
    "city": "Sutthausen"
  },
  {
    "postcode": "49082",
    "city": "Schölerberg"
  },
  {
    "postcode": "49082",
    "city": "Nahne"
  },
  {
    "postcode": "49082",
    "city": "Kalkhügel"
  },
  {
    "postcode": "49084",
    "city": "Fledder"
  },
  {
    "postcode": "49084",
    "city": "Osnabrück"
  },
  {
    "postcode": "49084",
    "city": "Schinkel"
  },
  {
    "postcode": "49084",
    "city": "Schinkel-Ost"
  },
  {
    "postcode": "49086",
    "city": "Gretesch"
  },
  {
    "postcode": "49086",
    "city": "Lüstringen"
  },
  {
    "postcode": "49086",
    "city": "Osnabrück"
  },
  {
    "postcode": "49086",
    "city": "Widukindland"
  },
  {
    "postcode": "49086",
    "city": "Voxtrup"
  },
  {
    "postcode": "49086",
    "city": "Darum"
  },
  {
    "postcode": "49088",
    "city": "Dodesheide"
  },
  {
    "postcode": "49088",
    "city": "Osnabrück"
  },
  {
    "postcode": "49088",
    "city": "Sonnenhügel"
  },
  {
    "postcode": "49088",
    "city": "Gartlage"
  },
  {
    "postcode": "49090",
    "city": "Haste"
  },
  {
    "postcode": "49090",
    "city": "Osnabrück"
  },
  {
    "postcode": "49090",
    "city": "Pye"
  },
  {
    "postcode": "49090",
    "city": "Eversburg"
  },
  {
    "postcode": "49090",
    "city": "Hafen"
  },
  {
    "postcode": "49124",
    "city": "Dröper"
  },
  {
    "postcode": "49124",
    "city": "Georgsmarienhütte"
  },
  {
    "postcode": "49124",
    "city": "Holsten-Mündrup"
  },
  {
    "postcode": "49124",
    "city": "Holzhausen"
  },
  {
    "postcode": "49124",
    "city": "Kloster Oesede"
  },
  {
    "postcode": "49124",
    "city": "Osterberg"
  },
  {
    "postcode": "49124",
    "city": "Osnabrück"
  },
  {
    "postcode": "49124",
    "city": "Oesede"
  },
  {
    "postcode": "49124",
    "city": "Alt-Georgsmarienhütte"
  },
  {
    "postcode": "49124",
    "city": "Harderberg"
  },
  {
    "postcode": "49124",
    "city": "Bad Iburg"
  },
  {
    "postcode": "49124",
    "city": "Brannenheide"
  },
  {
    "postcode": "49134",
    "city": "Hollage"
  },
  {
    "postcode": "49134",
    "city": "Lechtingen"
  },
  {
    "postcode": "49134",
    "city": "Rulle"
  },
  {
    "postcode": "49134",
    "city": "Wallenhorst"
  },
  {
    "postcode": "49134",
    "city": "Osnabrück"
  },
  {
    "postcode": "49143",
    "city": "Bissendorf"
  },
  {
    "postcode": "49143",
    "city": "Bissendorf Kreis Osnabrück"
  },
  {
    "postcode": "49143",
    "city": "Ellerbeck"
  },
  {
    "postcode": "49143",
    "city": "Himbergen Kreis Osnabrück"
  },
  {
    "postcode": "49143",
    "city": "Himbergen"
  },
  {
    "postcode": "49143",
    "city": "Holte Kreis Osnabrück"
  },
  {
    "postcode": "49143",
    "city": "Holte"
  },
  {
    "postcode": "49143",
    "city": "Jeggen"
  },
  {
    "postcode": "49143",
    "city": "Linne"
  },
  {
    "postcode": "49143",
    "city": "Natbergen"
  },
  {
    "postcode": "49143",
    "city": "Nemden"
  },
  {
    "postcode": "49143",
    "city": "Schelenburg Kreis Osnabrück"
  },
  {
    "postcode": "49143",
    "city": "Schelenburg"
  },
  {
    "postcode": "49143",
    "city": "Uphausen-Eistrup Kreis Osnabrück"
  },
  {
    "postcode": "49143",
    "city": "Uphausen-Eistrup"
  },
  {
    "postcode": "49143",
    "city": "Wersche"
  },
  {
    "postcode": "49143",
    "city": "Wissingen"
  },
  {
    "postcode": "49143",
    "city": "Wulften Kreis Osnabrück"
  },
  {
    "postcode": "49143",
    "city": "Wulften"
  },
  {
    "postcode": "49143",
    "city": "Osnabrück"
  },
  {
    "postcode": "49143",
    "city": "Schledehausen"
  },
  {
    "postcode": "49143",
    "city": "Waldmark"
  },
  {
    "postcode": "49143",
    "city": "Astrup"
  },
  {
    "postcode": "49143",
    "city": "Eistrup"
  },
  {
    "postcode": "49143",
    "city": "Sünsbeck"
  },
  {
    "postcode": "49143",
    "city": "Auf dem Kurrel"
  },
  {
    "postcode": "49143",
    "city": "Hengstbrink"
  },
  {
    "postcode": "49143",
    "city": "Uphausen"
  },
  {
    "postcode": "49143",
    "city": "Jeggen-West"
  },
  {
    "postcode": "49143",
    "city": "Achelriede"
  },
  {
    "postcode": "49143",
    "city": "Stockum"
  },
  {
    "postcode": "49152",
    "city": "Bad Essen"
  },
  {
    "postcode": "49152",
    "city": "Barkhausen Kreis Wittlage"
  },
  {
    "postcode": "49152",
    "city": "Barkhausen"
  },
  {
    "postcode": "49152",
    "city": "Brockhausen"
  },
  {
    "postcode": "49152",
    "city": "Dahlinghausen"
  },
  {
    "postcode": "49152",
    "city": "Eielstädt"
  },
  {
    "postcode": "49152",
    "city": "Essenerberg"
  },
  {
    "postcode": "49152",
    "city": "Harpenfeld"
  },
  {
    "postcode": "49152",
    "city": "Heithöfen"
  },
  {
    "postcode": "49152",
    "city": "Hördinghausen"
  },
  {
    "postcode": "49152",
    "city": "Hüsede"
  },
  {
    "postcode": "49152",
    "city": "Linne Kreis Wittlage"
  },
  {
    "postcode": "49152",
    "city": "Linne"
  },
  {
    "postcode": "49152",
    "city": "Lintorf Kreis Wittlage"
  },
  {
    "postcode": "49152",
    "city": "Lintorf"
  },
  {
    "postcode": "49152",
    "city": "Lockhausen"
  },
  {
    "postcode": "49152",
    "city": "Rabber"
  },
  {
    "postcode": "49152",
    "city": "Rattinghausen"
  },
  {
    "postcode": "49152",
    "city": "Wehrendorf Kreis Wittlage"
  },
  {
    "postcode": "49152",
    "city": "Wehrendorf"
  },
  {
    "postcode": "49152",
    "city": "Wimmer"
  },
  {
    "postcode": "49152",
    "city": "Wittlage"
  },
  {
    "postcode": "49152",
    "city": "Osnabrück"
  },
  {
    "postcode": "49152",
    "city": "Linnermarsch"
  },
  {
    "postcode": "49152",
    "city": "Masch"
  },
  {
    "postcode": "49152",
    "city": "Kalbsiek"
  },
  {
    "postcode": "49152",
    "city": "Wehrendorferberg"
  },
  {
    "postcode": "49163",
    "city": "Bohmte"
  },
  {
    "postcode": "49163",
    "city": "Hunteburg"
  },
  {
    "postcode": "49163",
    "city": "Osnabrück"
  },
  {
    "postcode": "49163",
    "city": "Herringhausen"
  },
  {
    "postcode": "49163",
    "city": "Auf der Bruchheide"
  },
  {
    "postcode": "49163",
    "city": "Eue"
  },
  {
    "postcode": "49170",
    "city": "Altenhagen am Teutoburger Wald"
  },
  {
    "postcode": "49170",
    "city": "Gellenbeck"
  },
  {
    "postcode": "49170",
    "city": "Hagen"
  },
  {
    "postcode": "49170",
    "city": "Hagen am Teutoburger Wald"
  },
  {
    "postcode": "49170",
    "city": "Mentrup am Teutoburger Wald"
  },
  {
    "postcode": "49170",
    "city": "Natrup-Hagen"
  },
  {
    "postcode": "49170",
    "city": "Ohrbeck"
  },
  {
    "postcode": "49170",
    "city": "Sudenfeld"
  },
  {
    "postcode": "49170",
    "city": "Osnabrück"
  },
  {
    "postcode": "49170",
    "city": "Mentrup"
  },
  {
    "postcode": "49170",
    "city": "Altenhagen"
  },
  {
    "postcode": "49170",
    "city": "Alt-Georgsmarienhütte"
  },
  {
    "postcode": "49176",
    "city": "Allendorf Kreis Osnabrück"
  },
  {
    "postcode": "49176",
    "city": "Allendorf"
  },
  {
    "postcode": "49176",
    "city": "Borgloh"
  },
  {
    "postcode": "49176",
    "city": "Ebbendorf"
  },
  {
    "postcode": "49176",
    "city": "Eppendorf"
  },
  {
    "postcode": "49176",
    "city": "Hankenberge am Teutoburger Wald"
  },
  {
    "postcode": "49176",
    "city": "Hilter"
  },
  {
    "postcode": "49176",
    "city": "Hilter am Teutoburger Wald"
  },
  {
    "postcode": "49176",
    "city": "Wellendorf Kreis Osnabrück"
  },
  {
    "postcode": "49176",
    "city": "Wellendorf"
  },
  {
    "postcode": "49176",
    "city": "Osnabrück"
  },
  {
    "postcode": "49176",
    "city": "Uphöfen"
  },
  {
    "postcode": "49176",
    "city": "Hankenberge"
  },
  {
    "postcode": "49176",
    "city": "Natrup-Hilter"
  },
  {
    "postcode": "49176",
    "city": "Natrup"
  },
  {
    "postcode": "49179",
    "city": "Driehausen"
  },
  {
    "postcode": "49179",
    "city": "Hitz-Jöstinghausen"
  },
  {
    "postcode": "49179",
    "city": "Hitzhausen"
  },
  {
    "postcode": "49179",
    "city": "Mönkehöfen"
  },
  {
    "postcode": "49179",
    "city": "Nordhausen"
  },
  {
    "postcode": "49179",
    "city": "Ostercappeln"
  },
  {
    "postcode": "49179",
    "city": "Schwagstorf Kreis Wittlage"
  },
  {
    "postcode": "49179",
    "city": "Schwagstorf"
  },
  {
    "postcode": "49179",
    "city": "Venne Niedersachsen"
  },
  {
    "postcode": "49179",
    "city": "Venne"
  },
  {
    "postcode": "49179",
    "city": "Osnabrück"
  },
  {
    "postcode": "49179",
    "city": "Haaren"
  },
  {
    "postcode": "49179",
    "city": "Caldenhof"
  },
  {
    "postcode": "49186",
    "city": "Bad Iburg"
  },
  {
    "postcode": "49186",
    "city": "Glane"
  },
  {
    "postcode": "49186",
    "city": "Ostenfelde"
  },
  {
    "postcode": "49186",
    "city": "Sentrup"
  },
  {
    "postcode": "49186",
    "city": "Osnabrück"
  },
  {
    "postcode": "49191",
    "city": "Belm"
  },
  {
    "postcode": "49191",
    "city": "Icker"
  },
  {
    "postcode": "49191",
    "city": "Vehrte"
  },
  {
    "postcode": "49191",
    "city": "Osnabrück"
  },
  {
    "postcode": "49191",
    "city": "Haltern"
  },
  {
    "postcode": "49191",
    "city": "Klein Haltern"
  },
  {
    "postcode": "49191",
    "city": "Hinter dem Bruche"
  },
  {
    "postcode": "49196",
    "city": "Bad Laer"
  },
  {
    "postcode": "49196",
    "city": "Müschen Kreis Osnabrück"
  },
  {
    "postcode": "49196",
    "city": "Müschen"
  },
  {
    "postcode": "49196",
    "city": "Remsede"
  },
  {
    "postcode": "49196",
    "city": "Westerwiede"
  },
  {
    "postcode": "49196",
    "city": "Winkelsetten Kreis Osnabrück"
  },
  {
    "postcode": "49196",
    "city": "Winkelsetten"
  },
  {
    "postcode": "49196",
    "city": "Osnabrück"
  },
  {
    "postcode": "49196",
    "city": "Hardensetten"
  },
  {
    "postcode": "49196",
    "city": "Große Börger"
  },
  {
    "postcode": "49196",
    "city": "Auf der Wittenburg"
  },
  {
    "postcode": "49196",
    "city": "Gem. Bad Iburg"
  },
  {
    "postcode": "49201",
    "city": "Aschen Teutoburgerwald"
  },
  {
    "postcode": "49201",
    "city": "Aschen"
  },
  {
    "postcode": "49201",
    "city": "Dissen"
  },
  {
    "postcode": "49201",
    "city": "Dissen am Teutoburger Wald"
  },
  {
    "postcode": "49201",
    "city": "Nolle Teutoburgerwald"
  },
  {
    "postcode": "49201",
    "city": "Nolle"
  },
  {
    "postcode": "49201",
    "city": "Osnabrück"
  },
  {
    "postcode": "49201",
    "city": "Erpen"
  },
  {
    "postcode": "49201",
    "city": "Grewenwiese"
  },
  {
    "postcode": "49201",
    "city": "Strang"
  },
  {
    "postcode": "49201",
    "city": "Timmern"
  },
  {
    "postcode": "49205",
    "city": "Gaste Kreis Osnabrück"
  },
  {
    "postcode": "49205",
    "city": "Gaste"
  },
  {
    "postcode": "49205",
    "city": "Hasbergen"
  },
  {
    "postcode": "49205",
    "city": "Hasbergen Kreis Osnabrück"
  },
  {
    "postcode": "49205",
    "city": "Osnabrück"
  },
  {
    "postcode": "49205",
    "city": "Ohrbeck"
  },
  {
    "postcode": "49214",
    "city": "Aschendorf Kreis Osnabrück"
  },
  {
    "postcode": "49214",
    "city": "Aschendorf"
  },
  {
    "postcode": "49214",
    "city": "Bad Rothenfelde"
  },
  {
    "postcode": "49214",
    "city": "Erpen"
  },
  {
    "postcode": "49214",
    "city": "Heidland"
  },
  {
    "postcode": "49214",
    "city": "Osnabrück"
  },
  {
    "postcode": "49214",
    "city": "Strang"
  },
  {
    "postcode": "49219",
    "city": "Averfehrden"
  },
  {
    "postcode": "49219",
    "city": "Glandorf"
  },
  {
    "postcode": "49219",
    "city": "Schierloh"
  },
  {
    "postcode": "49219",
    "city": "Schwege Kreis Osnabrück"
  },
  {
    "postcode": "49219",
    "city": "Schwege"
  },
  {
    "postcode": "49219",
    "city": "Sudendorf"
  },
  {
    "postcode": "49219",
    "city": "Westendorf"
  },
  {
    "postcode": "49219",
    "city": "Osnabrück"
  },
  {
    "postcode": "49219",
    "city": "Laudiek"
  },
  {
    "postcode": "49219",
    "city": "Brook"
  },
  {
    "postcode": "49219",
    "city": "Mersch"
  },
  {
    "postcode": "49324",
    "city": "Altenmelle"
  },
  {
    "postcode": "49324",
    "city": "Bakum bei Melle Wiehengebirge"
  },
  {
    "postcode": "49324",
    "city": "Bakum bei Melle"
  },
  {
    "postcode": "49324",
    "city": "Dielingdorf"
  },
  {
    "postcode": "49324",
    "city": "Eicken-Bruche"
  },
  {
    "postcode": "49324",
    "city": "Föckinghausen bei Melle Wiehengebirge"
  },
  {
    "postcode": "49324",
    "city": "Föckinghausen bei Melle"
  },
  {
    "postcode": "49324",
    "city": "Gerden"
  },
  {
    "postcode": "49324",
    "city": "Laer bei Melle Wiehengebirge"
  },
  {
    "postcode": "49324",
    "city": "Laer bei Melle"
  },
  {
    "postcode": "49324",
    "city": "Melle Wiehengeb"
  },
  {
    "postcode": "49324",
    "city": "Melle"
  },
  {
    "postcode": "49324",
    "city": "Niederholsten"
  },
  {
    "postcode": "49324",
    "city": "Niederschlochtern"
  },
  {
    "postcode": "49324",
    "city": "Oberholsten"
  },
  {
    "postcode": "49324",
    "city": "Oberschlochtern"
  },
  {
    "postcode": "49324",
    "city": "Oldendorf Wiehengebirge"
  },
  {
    "postcode": "49324",
    "city": "Oldendorf"
  },
  {
    "postcode": "49324",
    "city": "Sondermühlen"
  },
  {
    "postcode": "49324",
    "city": "Westerhausen bei Melle Wiehengebirge"
  },
  {
    "postcode": "49324",
    "city": "Westerhausen bei Melle"
  },
  {
    "postcode": "49324",
    "city": "Osnabrück"
  },
  {
    "postcode": "49324",
    "city": "Melle-Mitte"
  },
  {
    "postcode": "49324",
    "city": "Drantum"
  },
  {
    "postcode": "49324",
    "city": "Bakum"
  },
  {
    "postcode": "49324",
    "city": "Laer"
  },
  {
    "postcode": "49324",
    "city": "Westerhausen"
  },
  {
    "postcode": "49324",
    "city": "Föckinghausen"
  },
  {
    "postcode": "49324",
    "city": "Brinksel"
  },
  {
    "postcode": "49324",
    "city": "Eickholt"
  },
  {
    "postcode": "49324",
    "city": "Freden"
  },
  {
    "postcode": "49326",
    "city": "Gesmold"
  },
  {
    "postcode": "49326",
    "city": "Handarpe"
  },
  {
    "postcode": "49326",
    "city": "Himmern"
  },
  {
    "postcode": "49326",
    "city": "Holterdorf"
  },
  {
    "postcode": "49326",
    "city": "Insingdorf bei Melle Wiehengebirge"
  },
  {
    "postcode": "49326",
    "city": "Insingdorf bei Melle"
  },
  {
    "postcode": "49326",
    "city": "Kerßenbrock"
  },
  {
    "postcode": "49326",
    "city": "Küingdorf"
  },
  {
    "postcode": "49326",
    "city": "Laer bei Melle Wiehengebirge"
  },
  {
    "postcode": "49326",
    "city": "Laer bei Melle"
  },
  {
    "postcode": "49326",
    "city": "Melle Wiehengeb"
  },
  {
    "postcode": "49326",
    "city": "Melle"
  },
  {
    "postcode": "49326",
    "city": "Neuenkirchen bei Melle Wiehengebirge"
  },
  {
    "postcode": "49326",
    "city": "Neuenkirchen bei Melle"
  },
  {
    "postcode": "49326",
    "city": "Nüven"
  },
  {
    "postcode": "49326",
    "city": "Oberschlochtern"
  },
  {
    "postcode": "49326",
    "city": "Ostenfelde bei Melle Wiehengebirge"
  },
  {
    "postcode": "49326",
    "city": "Ostenfelde bei Melle"
  },
  {
    "postcode": "49326",
    "city": "Peingdorf"
  },
  {
    "postcode": "49326",
    "city": "Sankt Annen"
  },
  {
    "postcode": "49326",
    "city": "Sankt Annen"
  },
  {
    "postcode": "49326",
    "city": "Suttorf bei Melle Wiehengebirge"
  },
  {
    "postcode": "49326",
    "city": "Suttorf bei Melle"
  },
  {
    "postcode": "49326",
    "city": "Uhlenberg"
  },
  {
    "postcode": "49326",
    "city": "Wellingholzhausen"
  },
  {
    "postcode": "49326",
    "city": "Wennigsen"
  },
  {
    "postcode": "49326",
    "city": "Osnabrück"
  },
  {
    "postcode": "49326",
    "city": "Üdinghausen-Warringhof"
  },
  {
    "postcode": "49326",
    "city": "Dratum-Ausbergen"
  },
  {
    "postcode": "49326",
    "city": "Neuenkirchen"
  },
  {
    "postcode": "49326",
    "city": "Ostenfelde"
  },
  {
    "postcode": "49326",
    "city": "Schiplage"
  },
  {
    "postcode": "49326",
    "city": "Suttorf"
  },
  {
    "postcode": "49326",
    "city": "Vessendorf"
  },
  {
    "postcode": "49326",
    "city": "Redecke"
  },
  {
    "postcode": "49326",
    "city": "Insingdorf"
  },
  {
    "postcode": "49326",
    "city": "Dissen am Teutoburger Wald Stadt"
  },
  {
    "postcode": "49326",
    "city": "St. Annen"
  },
  {
    "postcode": "49326",
    "city": "Laer"
  },
  {
    "postcode": "49328",
    "city": "Barkhausen Wiehengebirge"
  },
  {
    "postcode": "49328",
    "city": "Barkhausen"
  },
  {
    "postcode": "49328",
    "city": "Bennien Westfalen"
  },
  {
    "postcode": "49328",
    "city": "Bennien"
  },
  {
    "postcode": "49328",
    "city": "Buer Wiehengebirge"
  },
  {
    "postcode": "49328",
    "city": "Buer"
  },
  {
    "postcode": "49328",
    "city": "Bulsten"
  },
  {
    "postcode": "49328",
    "city": "Döhren"
  },
  {
    "postcode": "49328",
    "city": "Düingdorf"
  },
  {
    "postcode": "49328",
    "city": "Groß Aschen"
  },
  {
    "postcode": "49328",
    "city": "Holzhausen bei Buer Wiehengebirge"
  },
  {
    "postcode": "49328",
    "city": "Holzhausen bei Buer"
  },
  {
    "postcode": "49328",
    "city": "Hoyel"
  },
  {
    "postcode": "49328",
    "city": "Hustädte"
  },
  {
    "postcode": "49328",
    "city": "Markendorf Wiehengebirge"
  },
  {
    "postcode": "49328",
    "city": "Markendorf"
  },
  {
    "postcode": "49328",
    "city": "Meesdorf Wiehengebirge"
  },
  {
    "postcode": "49328",
    "city": "Meesdorf"
  },
  {
    "postcode": "49328",
    "city": "Melle Wiehengeb"
  },
  {
    "postcode": "49328",
    "city": "Melle"
  },
  {
    "postcode": "49328",
    "city": "Riemsloh"
  },
  {
    "postcode": "49328",
    "city": "Sehlingdorf"
  },
  {
    "postcode": "49328",
    "city": "Tittingdorf Wiehengebirge"
  },
  {
    "postcode": "49328",
    "city": "Tittingdorf"
  },
  {
    "postcode": "49328",
    "city": "Wehringdorf"
  },
  {
    "postcode": "49328",
    "city": "Westendorf"
  },
  {
    "postcode": "49328",
    "city": "Westhoyel"
  },
  {
    "postcode": "49328",
    "city": "Wetter bei Melle Wiehengebirge"
  },
  {
    "postcode": "49328",
    "city": "Wetter bei Melle"
  },
  {
    "postcode": "49328",
    "city": "Osnabrück"
  },
  {
    "postcode": "49328",
    "city": "Krukum"
  },
  {
    "postcode": "49328",
    "city": "Wetter"
  },
  {
    "postcode": "49328",
    "city": "Holzhausen"
  },
  {
    "postcode": "49328",
    "city": "Eggendorf"
  },
  {
    "postcode": "49328",
    "city": "Lammersbrink"
  },
  {
    "postcode": "49328",
    "city": "Linken"
  },
  {
    "postcode": "49328",
    "city": "Bruchmühlen"
  },
  {
    "postcode": "49356",
    "city": "Aschen Kreis Grafschaft Diepholz"
  },
  {
    "postcode": "49356",
    "city": "Aschen"
  },
  {
    "postcode": "49356",
    "city": "Diepholz"
  },
  {
    "postcode": "49356",
    "city": "Graftlage"
  },
  {
    "postcode": "49356",
    "city": "Heede Kreis Grafschaft Diepholz"
  },
  {
    "postcode": "49356",
    "city": "Heede"
  },
  {
    "postcode": "49356",
    "city": "Masch"
  },
  {
    "postcode": "49356",
    "city": "Sankt Hülfe"
  },
  {
    "postcode": "49377",
    "city": "Bergstrup"
  },
  {
    "postcode": "49377",
    "city": "Calveslage"
  },
  {
    "postcode": "49377",
    "city": "Deindrup"
  },
  {
    "postcode": "49377",
    "city": "Holtrup Kreis Vechta"
  },
  {
    "postcode": "49377",
    "city": "Holtrup"
  },
  {
    "postcode": "49377",
    "city": "Holzhausen"
  },
  {
    "postcode": "49377",
    "city": "Langförden"
  },
  {
    "postcode": "49377",
    "city": "Oythe"
  },
  {
    "postcode": "49377",
    "city": "Spreda"
  },
  {
    "postcode": "49377",
    "city": "Stukenborg"
  },
  {
    "postcode": "49377",
    "city": "Telbrake"
  },
  {
    "postcode": "49377",
    "city": "Vardel"
  },
  {
    "postcode": "49377",
    "city": "Vechta"
  },
  {
    "postcode": "49377",
    "city": "Osterkämpe"
  },
  {
    "postcode": "49377",
    "city": "Strohe"
  },
  {
    "postcode": "49377",
    "city": "Schollohren"
  },
  {
    "postcode": "49393",
    "city": "Brägel Oldenburg"
  },
  {
    "postcode": "49393",
    "city": "Brägel"
  },
  {
    "postcode": "49393",
    "city": "Brockdorf"
  },
  {
    "postcode": "49393",
    "city": "Ehrendorf bei Diepholz"
  },
  {
    "postcode": "49393",
    "city": "Krimpenfort Oldenburg"
  },
  {
    "postcode": "49393",
    "city": "Krimpenfort"
  },
  {
    "postcode": "49393",
    "city": "Kroge bei Diepholz"
  },
  {
    "postcode": "49393",
    "city": "Lohne"
  },
  {
    "postcode": "49393",
    "city": "Lohne (Oldenburg)"
  },
  {
    "postcode": "49393",
    "city": "Lohnerwiesen Oldenburg"
  },
  {
    "postcode": "49393",
    "city": "Lohnerwiesen"
  },
  {
    "postcode": "49393",
    "city": "Nordlohne Oldenburg"
  },
  {
    "postcode": "49393",
    "city": "Nordlohne"
  },
  {
    "postcode": "49393",
    "city": "Rießel Oldenburg"
  },
  {
    "postcode": "49393",
    "city": "Rießel"
  },
  {
    "postcode": "49393",
    "city": "Schellohne Oldenburg"
  },
  {
    "postcode": "49393",
    "city": "Schellohne"
  },
  {
    "postcode": "49393",
    "city": "Südlohne"
  },
  {
    "postcode": "49393",
    "city": "Wichel Oldenburg"
  },
  {
    "postcode": "49393",
    "city": "Wichel"
  },
  {
    "postcode": "49393",
    "city": "Zerhusen Oldenburg"
  },
  {
    "postcode": "49393",
    "city": "Zerhusen"
  },
  {
    "postcode": "49393",
    "city": "Vechta"
  },
  {
    "postcode": "49393",
    "city": "Kroge"
  },
  {
    "postcode": "49393",
    "city": "Südlohne-Hamberg"
  },
  {
    "postcode": "49393",
    "city": "Märschendorf"
  },
  {
    "postcode": "49393",
    "city": "Bokern-Ost"
  },
  {
    "postcode": "49393",
    "city": "Voßberg"
  },
  {
    "postcode": "49393",
    "city": "Bokern-West"
  },
  {
    "postcode": "49393",
    "city": "Ehrendorf"
  },
  {
    "postcode": "49401",
    "city": "Bergfeine Dümmer"
  },
  {
    "postcode": "49401",
    "city": "Bergfeine"
  },
  {
    "postcode": "49401",
    "city": "Bokern Dümmer"
  },
  {
    "postcode": "49401",
    "city": "Bokern"
  },
  {
    "postcode": "49401",
    "city": "Clemens-August-Dorf Dümmer"
  },
  {
    "postcode": "49401",
    "city": "Clemens-August-Dorf"
  },
  {
    "postcode": "49401",
    "city": "Dalinghausen Dümmer"
  },
  {
    "postcode": "49401",
    "city": "Dalinghausen"
  },
  {
    "postcode": "49401",
    "city": "Damme Dümmer"
  },
  {
    "postcode": "49401",
    "city": "Damme"
  },
  {
    "postcode": "49401",
    "city": "Dümmerlohausen"
  },
  {
    "postcode": "49401",
    "city": "Greven Dümmer"
  },
  {
    "postcode": "49401",
    "city": "Greven"
  },
  {
    "postcode": "49401",
    "city": "Haverbek"
  },
  {
    "postcode": "49401",
    "city": "Holte Dümmer"
  },
  {
    "postcode": "49401",
    "city": "Holte"
  },
  {
    "postcode": "49401",
    "city": "Neuenwalde Dümmer"
  },
  {
    "postcode": "49401",
    "city": "Neuenwalde"
  },
  {
    "postcode": "49401",
    "city": "Nienhausen Dümmer"
  },
  {
    "postcode": "49401",
    "city": "Nienhausen"
  },
  {
    "postcode": "49401",
    "city": "Nordhofe Dümmer"
  },
  {
    "postcode": "49401",
    "city": "Nordhofe"
  },
  {
    "postcode": "49401",
    "city": "Ossenbeck Dümmer"
  },
  {
    "postcode": "49401",
    "city": "Ossenbeck"
  },
  {
    "postcode": "49401",
    "city": "Osterfeine"
  },
  {
    "postcode": "49401",
    "city": "Rüschendorf"
  },
  {
    "postcode": "49401",
    "city": "Südfelde"
  },
  {
    "postcode": "49401",
    "city": "Vechta"
  },
  {
    "postcode": "49401",
    "city": "Reselage"
  },
  {
    "postcode": "49401",
    "city": "Damme-Ort"
  },
  {
    "postcode": "49401",
    "city": "Damme-West"
  },
  {
    "postcode": "49401",
    "city": "Damme-Süd"
  },
  {
    "postcode": "49401",
    "city": "Bergmark"
  },
  {
    "postcode": "49401",
    "city": "Haverbeck"
  },
  {
    "postcode": "49401",
    "city": "Osterdamme"
  },
  {
    "postcode": "49401",
    "city": "Glückauf"
  },
  {
    "postcode": "49401",
    "city": "Damme-Wellenweg"
  },
  {
    "postcode": "49401",
    "city": "Rottinghausen"
  },
  {
    "postcode": "49401",
    "city": "Kemphausen"
  },
  {
    "postcode": "49401",
    "city": "Sierhausen"
  },
  {
    "postcode": "49401",
    "city": "Bexadde"
  },
  {
    "postcode": "49401",
    "city": "Wienerei"
  },
  {
    "postcode": "49401",
    "city": "Borringhausen"
  },
  {
    "postcode": "49401",
    "city": "Hinnenkamp"
  },
  {
    "postcode": "49401",
    "city": "Wempenmoor"
  },
  {
    "postcode": "49401",
    "city": "Hüde"
  },
  {
    "postcode": "49401",
    "city": "Ihlendorf"
  },
  {
    "postcode": "49401",
    "city": "Langenteilen"
  },
  {
    "postcode": "49401",
    "city": "Klünnenberg"
  },
  {
    "postcode": "49401",
    "city": "Oldorf"
  },
  {
    "postcode": "49401",
    "city": "Damme-Esch"
  },
  {
    "postcode": "49406",
    "city": "Aldorf Kreis Grafschaft Diepholz"
  },
  {
    "postcode": "49406",
    "city": "Aldorf"
  },
  {
    "postcode": "49406",
    "city": "Barnstorf Kreis Diepholz"
  },
  {
    "postcode": "49406",
    "city": "Barnstorf"
  },
  {
    "postcode": "49406",
    "city": "Drentwede"
  },
  {
    "postcode": "49406",
    "city": "Eydelstedt"
  },
  {
    "postcode": "49406",
    "city": "Gothel"
  },
  {
    "postcode": "49406",
    "city": "Holzort"
  },
  {
    "postcode": "49406",
    "city": "Neu Eydelstedt"
  },
  {
    "postcode": "49406",
    "city": "Rechtern Kreis Grafschaft Diepholz"
  },
  {
    "postcode": "49406",
    "city": "Rechtern"
  },
  {
    "postcode": "49406",
    "city": "Rödenbeck Kreis Grafschaft Diepholz"
  },
  {
    "postcode": "49406",
    "city": "Rödenbeck"
  },
  {
    "postcode": "49406",
    "city": "Walsen Kreis Grafschaft Diepholz"
  },
  {
    "postcode": "49406",
    "city": "Walsen"
  },
  {
    "postcode": "49406",
    "city": "Diepholz"
  },
  {
    "postcode": "49406",
    "city": "Klausing"
  },
  {
    "postcode": "49406",
    "city": "Hollen"
  },
  {
    "postcode": "49406",
    "city": "Holte"
  },
  {
    "postcode": "49413",
    "city": "Dinklage"
  },
  {
    "postcode": "49413",
    "city": "Vechta"
  },
  {
    "postcode": "49419",
    "city": "Bockel"
  },
  {
    "postcode": "49419",
    "city": "Bockeler Schweiz"
  },
  {
    "postcode": "49419",
    "city": "Förlingen"
  },
  {
    "postcode": "49419",
    "city": "Haßlingen"
  },
  {
    "postcode": "49419",
    "city": "Wagenfeld"
  },
  {
    "postcode": "49419",
    "city": "Diepholz"
  },
  {
    "postcode": "49419",
    "city": "Ströhen"
  },
  {
    "postcode": "49424",
    "city": "Ellenstedt Kreis Vechta"
  },
  {
    "postcode": "49424",
    "city": "Ellenstedt"
  },
  {
    "postcode": "49424",
    "city": "Goldenstedt"
  },
  {
    "postcode": "49424",
    "city": "Goldenstedt Kreis Vechta"
  },
  {
    "postcode": "49424",
    "city": "Lutten Kreis Vechta"
  },
  {
    "postcode": "49424",
    "city": "Lutten"
  },
  {
    "postcode": "49424",
    "city": "Vechta"
  },
  {
    "postcode": "49424",
    "city": "Altona"
  },
  {
    "postcode": "49424",
    "city": "Ambergen"
  },
  {
    "postcode": "49424",
    "city": "Bahnhof Goldenstedt"
  },
  {
    "postcode": "49424",
    "city": "Kardinal-Graf-von-Galen-Siedlung"
  },
  {
    "postcode": "49424",
    "city": "Osterende"
  },
  {
    "postcode": "49429",
    "city": "Endel Kreis Vechta"
  },
  {
    "postcode": "49429",
    "city": "Endel"
  },
  {
    "postcode": "49429",
    "city": "Rechterfeld"
  },
  {
    "postcode": "49429",
    "city": "Visbek"
  },
  {
    "postcode": "49429",
    "city": "Visbek Kreis Vechta"
  },
  {
    "postcode": "49429",
    "city": "Wöstendöllen"
  },
  {
    "postcode": "49429",
    "city": "Vechta"
  },
  {
    "postcode": "49429",
    "city": "Siedlung am Rennplatz"
  },
  {
    "postcode": "49434",
    "city": "Neuenkirchen Oldenburg"
  },
  {
    "postcode": "49434",
    "city": "Neuenkirchen"
  },
  {
    "postcode": "49434",
    "city": "Neuenkirchen-Vörden"
  },
  {
    "postcode": "49434",
    "city": "Vörden Niedersachsen"
  },
  {
    "postcode": "49434",
    "city": "Vörden"
  },
  {
    "postcode": "49434",
    "city": "Vechta"
  },
  {
    "postcode": "49434",
    "city": "Rieste"
  },
  {
    "postcode": "49434",
    "city": "Auf dem Felde"
  },
  {
    "postcode": "49434",
    "city": "Kronlage"
  },
  {
    "postcode": "49439",
    "city": "Düpe bei Diepholz"
  },
  {
    "postcode": "49439",
    "city": "Düpe bei Diepholz"
  },
  {
    "postcode": "49439",
    "city": "Harpendorf"
  },
  {
    "postcode": "49439",
    "city": "Holthausen Oldenburg"
  },
  {
    "postcode": "49439",
    "city": "Holthausen"
  },
  {
    "postcode": "49439",
    "city": "Lehmden"
  },
  {
    "postcode": "49439",
    "city": "Mühlen bei Diepholz"
  },
  {
    "postcode": "49439",
    "city": "Schemde Oldenburg"
  },
  {
    "postcode": "49439",
    "city": "Schemde"
  },
  {
    "postcode": "49439",
    "city": "Steinfeld (Oldenburg)"
  },
  {
    "postcode": "49439",
    "city": "Steinfeld"
  },
  {
    "postcode": "49439",
    "city": "Vechta"
  },
  {
    "postcode": "49439",
    "city": "Mühlen"
  },
  {
    "postcode": "49439",
    "city": "Düpe"
  },
  {
    "postcode": "49439",
    "city": "Haskamp"
  },
  {
    "postcode": "49439",
    "city": "Ondrup"
  },
  {
    "postcode": "49448",
    "city": "Brockum"
  },
  {
    "postcode": "49448",
    "city": "Hüde bei Diepholz"
  },
  {
    "postcode": "49448",
    "city": "Lemförde"
  },
  {
    "postcode": "49448",
    "city": "Marl Dümmer"
  },
  {
    "postcode": "49448",
    "city": "Marl"
  },
  {
    "postcode": "49448",
    "city": "Quernheim bei Diepholz"
  },
  {
    "postcode": "49448",
    "city": "Stemshorn"
  },
  {
    "postcode": "49448",
    "city": "Diepholz"
  },
  {
    "postcode": "49448",
    "city": "Hüde"
  },
  {
    "postcode": "49448",
    "city": "Quernheim"
  },
  {
    "postcode": "49448",
    "city": "Stemwede"
  },
  {
    "postcode": "49448",
    "city": "Burlage"
  },
  {
    "postcode": "49448",
    "city": "Rüschenmoor"
  },
  {
    "postcode": "49448",
    "city": "Haßlinge"
  },
  {
    "postcode": "49451",
    "city": "Fladderlohausen"
  },
  {
    "postcode": "49451",
    "city": "Grandorf"
  },
  {
    "postcode": "49451",
    "city": "Handorf bei Damme Dümmer"
  },
  {
    "postcode": "49451",
    "city": "Handorf bei Damme"
  },
  {
    "postcode": "49451",
    "city": "Holdorf Niedersachsen"
  },
  {
    "postcode": "49451",
    "city": "Holdorf"
  },
  {
    "postcode": "49451",
    "city": "Ihorst Niedersachsen"
  },
  {
    "postcode": "49451",
    "city": "Ihorst"
  },
  {
    "postcode": "49451",
    "city": "Langenberg bei Damme Dümmer"
  },
  {
    "postcode": "49451",
    "city": "Langenberg bei Damme"
  },
  {
    "postcode": "49451",
    "city": "Vechta"
  },
  {
    "postcode": "49451",
    "city": "Langenberg"
  },
  {
    "postcode": "49451",
    "city": "Handorf"
  },
  {
    "postcode": "49453",
    "city": "Barver"
  },
  {
    "postcode": "49453",
    "city": "Dickel Kreis Diepholz"
  },
  {
    "postcode": "49453",
    "city": "Dickel"
  },
  {
    "postcode": "49453",
    "city": "Dönsel"
  },
  {
    "postcode": "49453",
    "city": "Eickbusch"
  },
  {
    "postcode": "49453",
    "city": "Hemsloh"
  },
  {
    "postcode": "49453",
    "city": "Kellenberg"
  },
  {
    "postcode": "49453",
    "city": "Oldewage"
  },
  {
    "postcode": "49453",
    "city": "Rehden Kreis Diepholz"
  },
  {
    "postcode": "49453",
    "city": "Rehden"
  },
  {
    "postcode": "49453",
    "city": "Rodemühlen"
  },
  {
    "postcode": "49453",
    "city": "Tengern"
  },
  {
    "postcode": "49453",
    "city": "Wetschen"
  },
  {
    "postcode": "49453",
    "city": "Diepholz"
  },
  {
    "postcode": "49453",
    "city": "Gemeinde Varrel"
  },
  {
    "postcode": "49453",
    "city": "Gemeinde Wehrbleck"
  },
  {
    "postcode": "49453",
    "city": "Spreckel"
  },
  {
    "postcode": "49456",
    "city": "Bakum"
  },
  {
    "postcode": "49456",
    "city": "Bakum Kreis Vechta"
  },
  {
    "postcode": "49456",
    "city": "Büschel"
  },
  {
    "postcode": "49456",
    "city": "Carum"
  },
  {
    "postcode": "49456",
    "city": "Daren"
  },
  {
    "postcode": "49456",
    "city": "Elmelage Kreis Vechta"
  },
  {
    "postcode": "49456",
    "city": "Elmelage"
  },
  {
    "postcode": "49456",
    "city": "Harme"
  },
  {
    "postcode": "49456",
    "city": "Hausstette"
  },
  {
    "postcode": "49456",
    "city": "Lohe Kreis Vechta"
  },
  {
    "postcode": "49456",
    "city": "Lohe"
  },
  {
    "postcode": "49456",
    "city": "Lüsche Kreis Vechta"
  },
  {
    "postcode": "49456",
    "city": "Lüsche"
  },
  {
    "postcode": "49456",
    "city": "Märschendorf"
  },
  {
    "postcode": "49456",
    "city": "Schledehausen"
  },
  {
    "postcode": "49456",
    "city": "Südholz"
  },
  {
    "postcode": "49456",
    "city": "Vestrup"
  },
  {
    "postcode": "49456",
    "city": "Weihe"
  },
  {
    "postcode": "49456",
    "city": "Westerbakum Kreis Vechta"
  },
  {
    "postcode": "49456",
    "city": "Westerbakum"
  },
  {
    "postcode": "49456",
    "city": "Vechta"
  },
  {
    "postcode": "49457",
    "city": "Deckau"
  },
  {
    "postcode": "49457",
    "city": "Drebber"
  },
  {
    "postcode": "49457",
    "city": "Felstehausen"
  },
  {
    "postcode": "49457",
    "city": "Hoopen"
  },
  {
    "postcode": "49457",
    "city": "Ihlbrock"
  },
  {
    "postcode": "49457",
    "city": "Mariendrebber"
  },
  {
    "postcode": "49457",
    "city": "Moor"
  },
  {
    "postcode": "49457",
    "city": "Poggenburg"
  },
  {
    "postcode": "49457",
    "city": "Uthüserdrebber"
  },
  {
    "postcode": "49457",
    "city": "Diepholz"
  },
  {
    "postcode": "49457",
    "city": "Dreeker Fladder"
  },
  {
    "postcode": "49459",
    "city": "Eickhöpen"
  },
  {
    "postcode": "49459",
    "city": "Evershorst bei Diepholz"
  },
  {
    "postcode": "49459",
    "city": "Lembruch"
  },
  {
    "postcode": "49459",
    "city": "Diepholz"
  },
  {
    "postcode": "49477",
    "city": "Alstedde"
  },
  {
    "postcode": "49477",
    "city": "Bockraden"
  },
  {
    "postcode": "49477",
    "city": "Ibbenbüren"
  },
  {
    "postcode": "49477",
    "city": "Lehen"
  },
  {
    "postcode": "49477",
    "city": "Schafberg"
  },
  {
    "postcode": "49477",
    "city": "Schierloh"
  },
  {
    "postcode": "49477",
    "city": "Steinfurt"
  },
  {
    "postcode": "49477",
    "city": "Stadt"
  },
  {
    "postcode": "49479",
    "city": "Alstedde"
  },
  {
    "postcode": "49479",
    "city": "Bockraden"
  },
  {
    "postcode": "49479",
    "city": "Dickenberg"
  },
  {
    "postcode": "49479",
    "city": "Dörenthe"
  },
  {
    "postcode": "49479",
    "city": "Ibbenbüren"
  },
  {
    "postcode": "49479",
    "city": "Laggenbeck"
  },
  {
    "postcode": "49479",
    "city": "Lehen"
  },
  {
    "postcode": "49479",
    "city": "Osterledde"
  },
  {
    "postcode": "49479",
    "city": "Püsselbüren"
  },
  {
    "postcode": "49479",
    "city": "Schafberg"
  },
  {
    "postcode": "49479",
    "city": "Schierloh"
  },
  {
    "postcode": "49479",
    "city": "Uffeln"
  },
  {
    "postcode": "49479",
    "city": "Steinfurt"
  },
  {
    "postcode": "49479",
    "city": "Stadt"
  },
  {
    "postcode": "49492",
    "city": "Düte"
  },
  {
    "postcode": "49492",
    "city": "Hambüren"
  },
  {
    "postcode": "49492",
    "city": "Metten"
  },
  {
    "postcode": "49492",
    "city": "Osterbeck"
  },
  {
    "postcode": "49492",
    "city": "Sennlich"
  },
  {
    "postcode": "49492",
    "city": "Velpe"
  },
  {
    "postcode": "49492",
    "city": "Wallenbrock"
  },
  {
    "postcode": "49492",
    "city": "Westerbeck"
  },
  {
    "postcode": "49492",
    "city": "Westerkappeln"
  },
  {
    "postcode": "49492",
    "city": "Steinfurt"
  },
  {
    "postcode": "49492",
    "city": "Lada"
  },
  {
    "postcode": "49492",
    "city": "Handarpe"
  },
  {
    "postcode": "49492",
    "city": "Seeste"
  },
  {
    "postcode": "49492",
    "city": "Danebrock"
  },
  {
    "postcode": "49497",
    "city": "Bruch"
  },
  {
    "postcode": "49497",
    "city": "Mettingen"
  },
  {
    "postcode": "49497",
    "city": "Mettingen Westfalen"
  },
  {
    "postcode": "49497",
    "city": "Nierenburg Westfalen"
  },
  {
    "postcode": "49497",
    "city": "Nierenburg"
  },
  {
    "postcode": "49497",
    "city": "Schlickelde Westfalen"
  },
  {
    "postcode": "49497",
    "city": "Schlickelde"
  },
  {
    "postcode": "49497",
    "city": "Wiehe Westfalen"
  },
  {
    "postcode": "49497",
    "city": "Wiehe"
  },
  {
    "postcode": "49497",
    "city": "Steinfurt"
  },
  {
    "postcode": "49497",
    "city": "Muckhorst-Höveringhausen"
  },
  {
    "postcode": "49497",
    "city": "Querenberg"
  },
  {
    "postcode": "49504",
    "city": "Büren bei Ibbenbüren"
  },
  {
    "postcode": "49504",
    "city": "Halen bei Ibbenbüren"
  },
  {
    "postcode": "49504",
    "city": "Lotte"
  },
  {
    "postcode": "49504",
    "city": "Osterberg"
  },
  {
    "postcode": "49504",
    "city": "Spellhof"
  },
  {
    "postcode": "49504",
    "city": "Wersen bei Ibbenbüren"
  },
  {
    "postcode": "49504",
    "city": "Steinfurt"
  },
  {
    "postcode": "49504",
    "city": "Halen"
  },
  {
    "postcode": "49504",
    "city": "Wersen"
  },
  {
    "postcode": "49504",
    "city": "Büren"
  },
  {
    "postcode": "49509",
    "city": "Espel"
  },
  {
    "postcode": "49509",
    "city": "Obersteinbeck"
  },
  {
    "postcode": "49509",
    "city": "Recke"
  },
  {
    "postcode": "49509",
    "city": "Twenhusen"
  },
  {
    "postcode": "49509",
    "city": "Steinfurt"
  },
  {
    "postcode": "49509",
    "city": "Langenacker"
  },
  {
    "postcode": "49509",
    "city": "Steinbeck"
  },
  {
    "postcode": "49509",
    "city": "Harhof"
  },
  {
    "postcode": "49509",
    "city": "Püttenbeck"
  },
  {
    "postcode": "49525",
    "city": "Antrup Westfalen"
  },
  {
    "postcode": "49525",
    "city": "Antrup"
  },
  {
    "postcode": "49525",
    "city": "Hohne Westfalen"
  },
  {
    "postcode": "49525",
    "city": "Hohne"
  },
  {
    "postcode": "49525",
    "city": "Intrup Westfalen"
  },
  {
    "postcode": "49525",
    "city": "Intrup"
  },
  {
    "postcode": "49525",
    "city": "Lengerich"
  },
  {
    "postcode": "49525",
    "city": "Lengerich Westfalen"
  },
  {
    "postcode": "49525",
    "city": "Niederlengerich Westfalen"
  },
  {
    "postcode": "49525",
    "city": "Niederlengerich"
  },
  {
    "postcode": "49525",
    "city": "Ringel"
  },
  {
    "postcode": "49525",
    "city": "Schollbruch Westfalen"
  },
  {
    "postcode": "49525",
    "city": "Schollbruch"
  },
  {
    "postcode": "49525",
    "city": "Settel"
  },
  {
    "postcode": "49525",
    "city": "Stadtfeldmark Westfalen"
  },
  {
    "postcode": "49525",
    "city": "Stadtfeldmark"
  },
  {
    "postcode": "49525",
    "city": "Wechte Westfalen"
  },
  {
    "postcode": "49525",
    "city": "Wechte"
  },
  {
    "postcode": "49525",
    "city": "Steinfurt"
  },
  {
    "postcode": "49525",
    "city": "Aldrup"
  },
  {
    "postcode": "49525",
    "city": "Mündüs"
  },
  {
    "postcode": "49525",
    "city": "Aldrup-Antrup"
  },
  {
    "postcode": "49525",
    "city": "Schulte"
  },
  {
    "postcode": "49525",
    "city": "Schweer"
  },
  {
    "postcode": "49536",
    "city": "Dorfbauer"
  },
  {
    "postcode": "49536",
    "city": "Holperdorp"
  },
  {
    "postcode": "49536",
    "city": "Holzhausen"
  },
  {
    "postcode": "49536",
    "city": "Höste"
  },
  {
    "postcode": "49536",
    "city": "Kattenvenne"
  },
  {
    "postcode": "49536",
    "city": "Lienen"
  },
  {
    "postcode": "49536",
    "city": "Lienen Westfalen"
  },
  {
    "postcode": "49536",
    "city": "Meckelwege"
  },
  {
    "postcode": "49536",
    "city": "Westerbeck"
  },
  {
    "postcode": "49536",
    "city": "Steinfurt"
  },
  {
    "postcode": "49536",
    "city": "Aldrup"
  },
  {
    "postcode": "49545",
    "city": "Brochterbeck"
  },
  {
    "postcode": "49545",
    "city": "Ledde"
  },
  {
    "postcode": "49545",
    "city": "Leeden"
  },
  {
    "postcode": "49545",
    "city": "Tecklenburg"
  },
  {
    "postcode": "49545",
    "city": "Steinfurt"
  },
  {
    "postcode": "49549",
    "city": "Ladbergen"
  },
  {
    "postcode": "49549",
    "city": "Steinfurt"
  },
  {
    "postcode": "49565",
    "city": "Achmer"
  },
  {
    "postcode": "49565",
    "city": "Balkum"
  },
  {
    "postcode": "49565",
    "city": "Bramsche"
  },
  {
    "postcode": "49565",
    "city": "Bramsche Hase"
  },
  {
    "postcode": "49565",
    "city": "Engter"
  },
  {
    "postcode": "49565",
    "city": "Epe bei Bramsche Hase"
  },
  {
    "postcode": "49565",
    "city": "Epe bei Bramsche"
  },
  {
    "postcode": "49565",
    "city": "Evinghausen"
  },
  {
    "postcode": "49565",
    "city": "Hesepe"
  },
  {
    "postcode": "49565",
    "city": "Kalkriese"
  },
  {
    "postcode": "49565",
    "city": "Lappenstuhl"
  },
  {
    "postcode": "49565",
    "city": "Pente"
  },
  {
    "postcode": "49565",
    "city": "Schleptrup"
  },
  {
    "postcode": "49565",
    "city": "Sögeln"
  },
  {
    "postcode": "49565",
    "city": "Ueffeln"
  },
  {
    "postcode": "49565",
    "city": "Osnabrück"
  },
  {
    "postcode": "49565",
    "city": "Lutter"
  },
  {
    "postcode": "49565",
    "city": "Epe"
  },
  {
    "postcode": "49565",
    "city": "Huxelort"
  },
  {
    "postcode": "49565",
    "city": "Niewedde"
  },
  {
    "postcode": "49565",
    "city": "Helmkamp"
  },
  {
    "postcode": "49565",
    "city": "Bramscherberg"
  },
  {
    "postcode": "49565",
    "city": "Gut Barenaue"
  },
  {
    "postcode": "49565",
    "city": "Bühren"
  },
  {
    "postcode": "49565",
    "city": "Malgarten"
  },
  {
    "postcode": "49565",
    "city": "Renzenbrink"
  },
  {
    "postcode": "49565",
    "city": "Riesau"
  },
  {
    "postcode": "49565",
    "city": "Rothenburg"
  },
  {
    "postcode": "49565",
    "city": "Zur Horst"
  },
  {
    "postcode": "49577",
    "city": "Ankum"
  },
  {
    "postcode": "49577",
    "city": "Aslage"
  },
  {
    "postcode": "49577",
    "city": "Besten"
  },
  {
    "postcode": "49577",
    "city": "Bockraden"
  },
  {
    "postcode": "49577",
    "city": "Brickwedde"
  },
  {
    "postcode": "49577",
    "city": "Döthen"
  },
  {
    "postcode": "49577",
    "city": "Druchhorn"
  },
  {
    "postcode": "49577",
    "city": "Eggermühlen"
  },
  {
    "postcode": "49577",
    "city": "Holsten"
  },
  {
    "postcode": "49577",
    "city": "Kettenkamp"
  },
  {
    "postcode": "49577",
    "city": "Sussum"
  },
  {
    "postcode": "49577",
    "city": "Westerholte"
  },
  {
    "postcode": "49577",
    "city": "Osnabrück"
  },
  {
    "postcode": "49577",
    "city": "Rüssel"
  },
  {
    "postcode": "49577",
    "city": "Tütingen"
  },
  {
    "postcode": "49577",
    "city": "Loxter Ort"
  },
  {
    "postcode": "49577",
    "city": "Stockum"
  },
  {
    "postcode": "49577",
    "city": "Walsum"
  },
  {
    "postcode": "49577",
    "city": "Westrup"
  },
  {
    "postcode": "49577",
    "city": "Krevinghausen"
  },
  {
    "postcode": "49577",
    "city": "Striekel"
  },
  {
    "postcode": "49577",
    "city": "Stottenhausen"
  },
  {
    "postcode": "49584",
    "city": "Bedinghausen bei Bramsche Hase"
  },
  {
    "postcode": "49584",
    "city": "Bedinghausen bei Bramsche"
  },
  {
    "postcode": "49584",
    "city": "Fürstenau bei Bramsche"
  },
  {
    "postcode": "49584",
    "city": "Hollenstede bei Bramsche Hase"
  },
  {
    "postcode": "49584",
    "city": "Hollenstede bei Bramsche"
  },
  {
    "postcode": "49584",
    "city": "Höne Gemeinde Fürstenau"
  },
  {
    "postcode": "49584",
    "city": "Höne"
  },
  {
    "postcode": "49584",
    "city": "Lütkeberge bei Bramsche Hase"
  },
  {
    "postcode": "49584",
    "city": "Lütkeberge bei Bramsche"
  },
  {
    "postcode": "49584",
    "city": "Poggenort bei Bramsche Hase"
  },
  {
    "postcode": "49584",
    "city": "Poggenort bei Bramsche"
  },
  {
    "postcode": "49584",
    "city": "Schwagstorf bei Bramsche Hase"
  },
  {
    "postcode": "49584",
    "city": "Schwagstorf bei Bramsche"
  },
  {
    "postcode": "49584",
    "city": "Settrup bei Bramsche Hase"
  },
  {
    "postcode": "49584",
    "city": "Settrup bei Bramsche"
  },
  {
    "postcode": "49584",
    "city": "Osnabrück"
  },
  {
    "postcode": "49584",
    "city": "Fürstenau"
  },
  {
    "postcode": "49584",
    "city": "Hollenstede"
  },
  {
    "postcode": "49584",
    "city": "Settrup"
  },
  {
    "postcode": "49584",
    "city": "Schwagstorf"
  },
  {
    "postcode": "49586",
    "city": "Döllinghausen"
  },
  {
    "postcode": "49586",
    "city": "Limbergen bei Bramsche Hase"
  },
  {
    "postcode": "49586",
    "city": "Limbergen bei Bramsche"
  },
  {
    "postcode": "49586",
    "city": "Lintern"
  },
  {
    "postcode": "49586",
    "city": "Merzen"
  },
  {
    "postcode": "49586",
    "city": "Neuenkirchen bei Bramsche"
  },
  {
    "postcode": "49586",
    "city": "Ost- und Westeroden"
  },
  {
    "postcode": "49586",
    "city": "Plaggenschale"
  },
  {
    "postcode": "49586",
    "city": "Rothertshausen"
  },
  {
    "postcode": "49586",
    "city": "Sönnkenort bei Bramsche Hase"
  },
  {
    "postcode": "49586",
    "city": "Sönnkenort bei Bramsche"
  },
  {
    "postcode": "49586",
    "city": "Südmerzen"
  },
  {
    "postcode": "49586",
    "city": "Vinte"
  },
  {
    "postcode": "49586",
    "city": "Osnabrück"
  },
  {
    "postcode": "49586",
    "city": "Neuenkirchen"
  },
  {
    "postcode": "49586",
    "city": "Engelern-Schlichthorst"
  },
  {
    "postcode": "49586",
    "city": "Lechtrup"
  },
  {
    "postcode": "49586",
    "city": "Fahlenknüven"
  },
  {
    "postcode": "49586",
    "city": "Osteroden"
  },
  {
    "postcode": "49586",
    "city": "Engelern"
  },
  {
    "postcode": "49586",
    "city": "Hülshof"
  },
  {
    "postcode": "49586",
    "city": "Steinberg"
  },
  {
    "postcode": "49586",
    "city": "Westeroden"
  },
  {
    "postcode": "49586",
    "city": "Wittenberg"
  },
  {
    "postcode": "49586",
    "city": "Limbergen"
  },
  {
    "postcode": "49586",
    "city": "Steinfeld"
  },
  {
    "postcode": "49586",
    "city": "Bühner"
  },
  {
    "postcode": "49586",
    "city": "Brackmann"
  },
  {
    "postcode": "49586",
    "city": "Lünort"
  },
  {
    "postcode": "49586",
    "city": "Grünebaum"
  },
  {
    "postcode": "49586",
    "city": "Uphaus"
  },
  {
    "postcode": "49586",
    "city": "Braunwiesen"
  },
  {
    "postcode": "49593",
    "city": "Ahausen-Sitter"
  },
  {
    "postcode": "49593",
    "city": "Bersenbrück"
  },
  {
    "postcode": "49593",
    "city": "Bokel"
  },
  {
    "postcode": "49593",
    "city": "Hastrup"
  },
  {
    "postcode": "49593",
    "city": "Hertmann"
  },
  {
    "postcode": "49593",
    "city": "Priggenhagen"
  },
  {
    "postcode": "49593",
    "city": "Talge"
  },
  {
    "postcode": "49593",
    "city": "Woltrup-Wehbergen"
  },
  {
    "postcode": "49593",
    "city": "Osnabrück"
  },
  {
    "postcode": "49593",
    "city": "Lohbeck"
  },
  {
    "postcode": "49593",
    "city": "Ahausen"
  },
  {
    "postcode": "49593",
    "city": "Woltrup"
  },
  {
    "postcode": "49594",
    "city": "Alfhausen"
  },
  {
    "postcode": "49594",
    "city": "Heeke"
  },
  {
    "postcode": "49594",
    "city": "Schleppenburg"
  },
  {
    "postcode": "49594",
    "city": "Thiene"
  },
  {
    "postcode": "49594",
    "city": "Wallen"
  },
  {
    "postcode": "49594",
    "city": "Osnabrück"
  },
  {
    "postcode": "49594",
    "city": "Bollenberg"
  },
  {
    "postcode": "49594",
    "city": "Groß Rechtien"
  },
  {
    "postcode": "49594",
    "city": "Horst"
  },
  {
    "postcode": "49594",
    "city": "Klein Rechtien"
  },
  {
    "postcode": "49594",
    "city": "Twiestel"
  },
  {
    "postcode": "49594",
    "city": "Uphausen"
  },
  {
    "postcode": "49596",
    "city": "Gehrde bei Bersenbrück"
  },
  {
    "postcode": "49596",
    "city": "Groß Drehle Kreis Bersenbrück"
  },
  {
    "postcode": "49596",
    "city": "Groß Drehle"
  },
  {
    "postcode": "49596",
    "city": "Klein Drehle Kreis Bersenbrück"
  },
  {
    "postcode": "49596",
    "city": "Klein Drehle"
  },
  {
    "postcode": "49596",
    "city": "Osnabrück"
  },
  {
    "postcode": "49596",
    "city": "Gehrde"
  },
  {
    "postcode": "49596",
    "city": "Königs-Ort"
  },
  {
    "postcode": "49597",
    "city": "Bieste Oldenburg"
  },
  {
    "postcode": "49597",
    "city": "Bieste"
  },
  {
    "postcode": "49597",
    "city": "Hülsort Hase"
  },
  {
    "postcode": "49597",
    "city": "Hülsort"
  },
  {
    "postcode": "49597",
    "city": "Maschort Hase"
  },
  {
    "postcode": "49597",
    "city": "Maschort"
  },
  {
    "postcode": "49597",
    "city": "Rieste"
  },
  {
    "postcode": "49597",
    "city": "Rieste Hase"
  },
  {
    "postcode": "49597",
    "city": "Osnabrück"
  },
  {
    "postcode": "49597",
    "city": "Stickteich"
  },
  {
    "postcode": "49597",
    "city": "Burlager Ort"
  },
  {
    "postcode": "49597",
    "city": "Langkamp"
  },
  {
    "postcode": "49597",
    "city": "Westendorf"
  },
  {
    "postcode": "49599",
    "city": "Höckel"
  },
  {
    "postcode": "49599",
    "city": "Mühlenort"
  },
  {
    "postcode": "49599",
    "city": "Voltlage"
  },
  {
    "postcode": "49599",
    "city": "Weese"
  },
  {
    "postcode": "49599",
    "city": "Osnabrück"
  },
  {
    "postcode": "49599",
    "city": "Hinterm Esch"
  },
  {
    "postcode": "49599",
    "city": "Hoher Esch"
  },
  {
    "postcode": "49610",
    "city": "Hengelage"
  },
  {
    "postcode": "49610",
    "city": "Neustadt"
  },
  {
    "postcode": "49610",
    "city": "Quakenbrück"
  },
  {
    "postcode": "49610",
    "city": "Osnabrück"
  },
  {
    "postcode": "49610",
    "city": "Altstadt"
  },
  {
    "postcode": "49610",
    "city": "Hakenkamp"
  },
  {
    "postcode": "49610",
    "city": "Vehr"
  },
  {
    "postcode": "49624",
    "city": "Altenbunnen"
  },
  {
    "postcode": "49624",
    "city": "Angelbeck"
  },
  {
    "postcode": "49624",
    "city": "Augustenfeld"
  },
  {
    "postcode": "49624",
    "city": "Benstrup"
  },
  {
    "postcode": "49624",
    "city": "Böen"
  },
  {
    "postcode": "49624",
    "city": "Bokah"
  },
  {
    "postcode": "49624",
    "city": "Borkhorn"
  },
  {
    "postcode": "49624",
    "city": "Düenkamp"
  },
  {
    "postcode": "49624",
    "city": "Ehren"
  },
  {
    "postcode": "49624",
    "city": "Elbergen"
  },
  {
    "postcode": "49624",
    "city": "Evenkamp"
  },
  {
    "postcode": "49624",
    "city": "Hagel"
  },
  {
    "postcode": "49624",
    "city": "Helmighausen"
  },
  {
    "postcode": "49624",
    "city": "Lewinghausen"
  },
  {
    "postcode": "49624",
    "city": "Lodbergen"
  },
  {
    "postcode": "49624",
    "city": "Löningen"
  },
  {
    "postcode": "49624",
    "city": "Madlage"
  },
  {
    "postcode": "49624",
    "city": "Meerdorf"
  },
  {
    "postcode": "49624",
    "city": "Neuenbunnen"
  },
  {
    "postcode": "49624",
    "city": "Röpke"
  },
  {
    "postcode": "49624",
    "city": "Schelmkappe"
  },
  {
    "postcode": "49624",
    "city": "Steinrieden"
  },
  {
    "postcode": "49624",
    "city": "Vehrensande"
  },
  {
    "postcode": "49624",
    "city": "Wachtum"
  },
  {
    "postcode": "49624",
    "city": "Werwe"
  },
  {
    "postcode": "49624",
    "city": "Windhorst"
  },
  {
    "postcode": "49624",
    "city": "Winkum"
  },
  {
    "postcode": "49624",
    "city": "Cloppenburg"
  },
  {
    "postcode": "49624",
    "city": "Holthausen"
  },
  {
    "postcode": "49624",
    "city": "Duderstadt"
  },
  {
    "postcode": "49624",
    "city": "Huckelrieden"
  },
  {
    "postcode": "49624",
    "city": "Wienöbst"
  },
  {
    "postcode": "49624",
    "city": "Farwick"
  },
  {
    "postcode": "49626",
    "city": "Anten bei Quakenbrück"
  },
  {
    "postcode": "49626",
    "city": "Berge bei Quakenbrück"
  },
  {
    "postcode": "49626",
    "city": "Bippen"
  },
  {
    "postcode": "49626",
    "city": "Börstel"
  },
  {
    "postcode": "49626",
    "city": "Dalum"
  },
  {
    "postcode": "49626",
    "city": "Dalvers"
  },
  {
    "postcode": "49626",
    "city": "Grafeld"
  },
  {
    "postcode": "49626",
    "city": "Hartlage"
  },
  {
    "postcode": "49626",
    "city": "Klein Bokern bei Bramsche Hase"
  },
  {
    "postcode": "49626",
    "city": "Klein Bokern bei Bramsche"
  },
  {
    "postcode": "49626",
    "city": "Lonnerbecke bei Bramsche Hase"
  },
  {
    "postcode": "49626",
    "city": "Lonnerbecke bei Bramsche"
  },
  {
    "postcode": "49626",
    "city": "Ohrte"
  },
  {
    "postcode": "49626",
    "city": "Ohrtermersch"
  },
  {
    "postcode": "49626",
    "city": "Vechtel"
  },
  {
    "postcode": "49626",
    "city": "Osnabrück"
  },
  {
    "postcode": "49626",
    "city": "Berge"
  },
  {
    "postcode": "49626",
    "city": "Anten"
  },
  {
    "postcode": "49626",
    "city": "Hekese"
  },
  {
    "postcode": "49626",
    "city": "Schmonerbrink"
  },
  {
    "postcode": "49626",
    "city": "Neustadt"
  },
  {
    "postcode": "49626",
    "city": "Ohrthausen"
  },
  {
    "postcode": "49626",
    "city": "Russland"
  },
  {
    "postcode": "49626",
    "city": "Lonnerbecke"
  },
  {
    "postcode": "49626",
    "city": "Klein Bokern"
  },
  {
    "postcode": "49626",
    "city": "Lulle"
  },
  {
    "postcode": "49626",
    "city": "Haneberg"
  },
  {
    "postcode": "49626",
    "city": "Rullengersberg"
  },
  {
    "postcode": "49626",
    "city": "Restrup"
  },
  {
    "postcode": "49632",
    "city": "Addrup Oldenburg"
  },
  {
    "postcode": "49632",
    "city": "Addrup"
  },
  {
    "postcode": "49632",
    "city": "Ahausen Oldenburg"
  },
  {
    "postcode": "49632",
    "city": "Ahausen"
  },
  {
    "postcode": "49632",
    "city": "Barlage Oldenburg"
  },
  {
    "postcode": "49632",
    "city": "Barlage"
  },
  {
    "postcode": "49632",
    "city": "Bartmannsholte"
  },
  {
    "postcode": "49632",
    "city": "Bevern bei Quakenbrück"
  },
  {
    "postcode": "49632",
    "city": "Brokstreek"
  },
  {
    "postcode": "49632",
    "city": "Calhorn"
  },
  {
    "postcode": "49632",
    "city": "Darrel Oldenburg"
  },
  {
    "postcode": "49632",
    "city": "Darrel"
  },
  {
    "postcode": "49632",
    "city": "Essen"
  },
  {
    "postcode": "49632",
    "city": "Essen (Oldenburg)"
  },
  {
    "postcode": "49632",
    "city": "Felde Oldenburg"
  },
  {
    "postcode": "49632",
    "city": "Felde"
  },
  {
    "postcode": "49632",
    "city": "Herbergen Oldenburg"
  },
  {
    "postcode": "49632",
    "city": "Herbergen"
  },
  {
    "postcode": "49632",
    "city": "Nordholte Oldenburg"
  },
  {
    "postcode": "49632",
    "city": "Nordholte"
  },
  {
    "postcode": "49632",
    "city": "Osteressen Oldenburg"
  },
  {
    "postcode": "49632",
    "city": "Osteressen"
  },
  {
    "postcode": "49632",
    "city": "Sandloh Oldenburg"
  },
  {
    "postcode": "49632",
    "city": "Sandloh"
  },
  {
    "postcode": "49632",
    "city": "Stadtsholte Oldenburg"
  },
  {
    "postcode": "49632",
    "city": "Stadtsholte"
  },
  {
    "postcode": "49632",
    "city": "Uptloh Oldenburg"
  },
  {
    "postcode": "49632",
    "city": "Uptloh"
  },
  {
    "postcode": "49632",
    "city": "Cloppenburg"
  },
  {
    "postcode": "49632",
    "city": "Hülsenmoor"
  },
  {
    "postcode": "49632",
    "city": "Bevern"
  },
  {
    "postcode": "49632",
    "city": "Bokel"
  },
  {
    "postcode": "49632",
    "city": "Beverdiek"
  },
  {
    "postcode": "49632",
    "city": "Gut Lage"
  },
  {
    "postcode": "49635",
    "city": "Badbergen"
  },
  {
    "postcode": "49635",
    "city": "Grönloh"
  },
  {
    "postcode": "49635",
    "city": "Groß Mimmelage"
  },
  {
    "postcode": "49635",
    "city": "Langen Kreis Bersenbrück"
  },
  {
    "postcode": "49635",
    "city": "Langen"
  },
  {
    "postcode": "49635",
    "city": "Vehs"
  },
  {
    "postcode": "49635",
    "city": "Wehdel Kreis Bersenbrück"
  },
  {
    "postcode": "49635",
    "city": "Wehdel"
  },
  {
    "postcode": "49635",
    "city": "Wohld"
  },
  {
    "postcode": "49635",
    "city": "Wulften"
  },
  {
    "postcode": "49635",
    "city": "Osnabrück"
  },
  {
    "postcode": "49635",
    "city": "Grothe"
  },
  {
    "postcode": "49635",
    "city": "Bergfelderort"
  },
  {
    "postcode": "49635",
    "city": "Lechterke"
  },
  {
    "postcode": "49635",
    "city": "Auf dem Pannenbrink"
  },
  {
    "postcode": "49635",
    "city": "Ahrenhorster Ort"
  },
  {
    "postcode": "49637",
    "city": "Andorf"
  },
  {
    "postcode": "49637",
    "city": "Bottorf bei Quakenbrück"
  },
  {
    "postcode": "49637",
    "city": "Hahlen"
  },
  {
    "postcode": "49637",
    "city": "Hahnenmoor"
  },
  {
    "postcode": "49637",
    "city": "Herbergen"
  },
  {
    "postcode": "49637",
    "city": "Klein Mimmelage"
  },
  {
    "postcode": "49637",
    "city": "Menslage"
  },
  {
    "postcode": "49637",
    "city": "Schandorf"
  },
  {
    "postcode": "49637",
    "city": "Wasserhausen bei Quakenbrück"
  },
  {
    "postcode": "49637",
    "city": "Wierup"
  },
  {
    "postcode": "49637",
    "city": "Osnabrück"
  },
  {
    "postcode": "49637",
    "city": "Borg"
  },
  {
    "postcode": "49637",
    "city": "Renslage"
  },
  {
    "postcode": "49637",
    "city": "Im Wehagen"
  },
  {
    "postcode": "49637",
    "city": "Bottorf"
  },
  {
    "postcode": "49637",
    "city": "Rote Säule"
  },
  {
    "postcode": "49637",
    "city": "Wasserhausen"
  },
  {
    "postcode": "49638",
    "city": "Loxten"
  },
  {
    "postcode": "49638",
    "city": "Nortrup"
  },
  {
    "postcode": "49638",
    "city": "Osnabrück"
  },
  {
    "postcode": "49638",
    "city": "Suttrup"
  },
  {
    "postcode": "49638",
    "city": "Farwick"
  },
  {
    "postcode": "49661",
    "city": "Ambühren"
  },
  {
    "postcode": "49661",
    "city": "Bethen"
  },
  {
    "postcode": "49661",
    "city": "Cloppenburg"
  },
  {
    "postcode": "49661",
    "city": "Kellerhöhe"
  },
  {
    "postcode": "49661",
    "city": "Lankum"
  },
  {
    "postcode": "49661",
    "city": "Schmertheim"
  },
  {
    "postcode": "49661",
    "city": "Stapelfeld bei Cloppenburg"
  },
  {
    "postcode": "49661",
    "city": "Vahren"
  },
  {
    "postcode": "49661",
    "city": "Emstekerfeld"
  },
  {
    "postcode": "49661",
    "city": "Staatsforsten"
  },
  {
    "postcode": "49661",
    "city": "Stapelfeld"
  },
  {
    "postcode": "49661",
    "city": "Stadterbusch"
  },
  {
    "postcode": "49681",
    "city": "Beverbruch"
  },
  {
    "postcode": "49681",
    "city": "Bürgermoor"
  },
  {
    "postcode": "49681",
    "city": "Falkenberg Kreis Cloppenburg"
  },
  {
    "postcode": "49681",
    "city": "Falkenberg"
  },
  {
    "postcode": "49681",
    "city": "Garrel"
  },
  {
    "postcode": "49681",
    "city": "Nikolausdorf"
  },
  {
    "postcode": "49681",
    "city": "Petersfeld Kreis Cloppenburg"
  },
  {
    "postcode": "49681",
    "city": "Petersfeld"
  },
  {
    "postcode": "49681",
    "city": "Varrelbusch"
  },
  {
    "postcode": "49681",
    "city": "Cloppenburg"
  },
  {
    "postcode": "49681",
    "city": "Hinter dem Forde"
  },
  {
    "postcode": "49681",
    "city": "Schmeel"
  },
  {
    "postcode": "49681",
    "city": "Kellerhöhe"
  },
  {
    "postcode": "49681",
    "city": "Letherfeld"
  },
  {
    "postcode": "49681",
    "city": "Schnappen"
  },
  {
    "postcode": "49681",
    "city": "Tweel"
  },
  {
    "postcode": "49685",
    "city": "Bühren"
  },
  {
    "postcode": "49685",
    "city": "Diekhaus"
  },
  {
    "postcode": "49685",
    "city": "Drantum Gemeinde Emstek"
  },
  {
    "postcode": "49685",
    "city": "Drantum"
  },
  {
    "postcode": "49685",
    "city": "Emstek"
  },
  {
    "postcode": "49685",
    "city": "Garthe Gemeinde Emstek"
  },
  {
    "postcode": "49685",
    "city": "Garthe"
  },
  {
    "postcode": "49685",
    "city": "Halen Gemeinde Emstek"
  },
  {
    "postcode": "49685",
    "city": "Halen"
  },
  {
    "postcode": "49685",
    "city": "Hesselnfeld"
  },
  {
    "postcode": "49685",
    "city": "Hoheging Gemeinde Emstek"
  },
  {
    "postcode": "49685",
    "city": "Hoheging"
  },
  {
    "postcode": "49685",
    "city": "Höltinghausen Gemeinde Emstek"
  },
  {
    "postcode": "49685",
    "city": "Höltinghausen"
  },
  {
    "postcode": "49685",
    "city": "Schneiderkrug Gemeinde Emstek"
  },
  {
    "postcode": "49685",
    "city": "Schneiderkrug"
  },
  {
    "postcode": "49685",
    "city": "Westeremstek"
  },
  {
    "postcode": "49685",
    "city": "Cloppenburg"
  },
  {
    "postcode": "49685",
    "city": "Garther Straße"
  },
  {
    "postcode": "49688",
    "city": "Bixlag Kreis Cloppenburg"
  },
  {
    "postcode": "49688",
    "city": "Bixlag"
  },
  {
    "postcode": "49688",
    "city": "Groß Roscharden Kreis Cloppenburg"
  },
  {
    "postcode": "49688",
    "city": "Groß Roscharden"
  },
  {
    "postcode": "49688",
    "city": "Hammel Kreis Cloppenburg"
  },
  {
    "postcode": "49688",
    "city": "Hammel"
  },
  {
    "postcode": "49688",
    "city": "Hamstrup Kreis Cloppenburg"
  },
  {
    "postcode": "49688",
    "city": "Hamstrup"
  },
  {
    "postcode": "49688",
    "city": "Hemmelte"
  },
  {
    "postcode": "49688",
    "city": "Klein Roscharden Kreis Cloppenburg"
  },
  {
    "postcode": "49688",
    "city": "Klein Roscharden"
  },
  {
    "postcode": "49688",
    "city": "Kneheim"
  },
  {
    "postcode": "49688",
    "city": "Lastrup"
  },
  {
    "postcode": "49688",
    "city": "Lastrup Kreis Cloppenburg"
  },
  {
    "postcode": "49688",
    "city": "Matrum Kreis Cloppenburg"
  },
  {
    "postcode": "49688",
    "city": "Matrum"
  },
  {
    "postcode": "49688",
    "city": "Nieholte Kreis Cloppenburg"
  },
  {
    "postcode": "49688",
    "city": "Nieholte"
  },
  {
    "postcode": "49688",
    "city": "Norwegen Kreis Cloppenburg"
  },
  {
    "postcode": "49688",
    "city": "Norwegen"
  },
  {
    "postcode": "49688",
    "city": "Oldendorf Kreis Cloppenburg"
  },
  {
    "postcode": "49688",
    "city": "Oldendorf"
  },
  {
    "postcode": "49688",
    "city": "Schnelten Kreis Cloppenburg"
  },
  {
    "postcode": "49688",
    "city": "Schnelten"
  },
  {
    "postcode": "49688",
    "city": "Suhle Kreis Cloppenburg"
  },
  {
    "postcode": "49688",
    "city": "Suhle"
  },
  {
    "postcode": "49688",
    "city": "Timmerlage Kreis Cloppenburg"
  },
  {
    "postcode": "49688",
    "city": "Timmerlage"
  },
  {
    "postcode": "49688",
    "city": "Cloppenburg"
  },
  {
    "postcode": "49688",
    "city": "Hammesdamm"
  },
  {
    "postcode": "49692",
    "city": "Bokel"
  },
  {
    "postcode": "49692",
    "city": "Cappeln"
  },
  {
    "postcode": "49692",
    "city": "Cappeln (Oldenburg)"
  },
  {
    "postcode": "49692",
    "city": "Dingel Oldenburg"
  },
  {
    "postcode": "49692",
    "city": "Dingel"
  },
  {
    "postcode": "49692",
    "city": "Elsten"
  },
  {
    "postcode": "49692",
    "city": "Mintewede"
  },
  {
    "postcode": "49692",
    "city": "Schwichteler"
  },
  {
    "postcode": "49692",
    "city": "Sevelten"
  },
  {
    "postcode": "49692",
    "city": "Tenstedt Oldenburg"
  },
  {
    "postcode": "49692",
    "city": "Tenstedt"
  },
  {
    "postcode": "49692",
    "city": "Warnstedt"
  },
  {
    "postcode": "49692",
    "city": "Cloppenburg"
  },
  {
    "postcode": "49692",
    "city": "Nutteln-Tegelrieden"
  },
  {
    "postcode": "49696",
    "city": "Molbergen"
  },
  {
    "postcode": "49696",
    "city": "Cloppenburg"
  },
  {
    "postcode": "49696",
    "city": "Dwergte"
  },
  {
    "postcode": "49696",
    "city": "Ermke"
  },
  {
    "postcode": "49696",
    "city": "Grönheim"
  },
  {
    "postcode": "49696",
    "city": "Peheim"
  },
  {
    "postcode": "49696",
    "city": "Resthausen"
  },
  {
    "postcode": "49696",
    "city": "Stalförden"
  },
  {
    "postcode": "49696",
    "city": "Vahren"
  },
  {
    "postcode": "49696",
    "city": "Westerfeld"
  },
  {
    "postcode": "49699",
    "city": "Auen Oldenburg"
  },
  {
    "postcode": "49699",
    "city": "Auen"
  },
  {
    "postcode": "49699",
    "city": "Garen Oldenburg"
  },
  {
    "postcode": "49699",
    "city": "Garen"
  },
  {
    "postcode": "49699",
    "city": "Großenging"
  },
  {
    "postcode": "49699",
    "city": "Holthaus Oldenburg"
  },
  {
    "postcode": "49699",
    "city": "Holthaus"
  },
  {
    "postcode": "49699",
    "city": "Kleinenging"
  },
  {
    "postcode": "49699",
    "city": "Klöbbergen Oldenburg"
  },
  {
    "postcode": "49699",
    "city": "Klöbbergen"
  },
  {
    "postcode": "49699",
    "city": "Liener Oldenburg"
  },
  {
    "postcode": "49699",
    "city": "Liener"
  },
  {
    "postcode": "49699",
    "city": "Lindern"
  },
  {
    "postcode": "49699",
    "city": "Lindern (Oldenburg)"
  },
  {
    "postcode": "49699",
    "city": "Marren Oldenburg"
  },
  {
    "postcode": "49699",
    "city": "Marren"
  },
  {
    "postcode": "49699",
    "city": "Neuenkämpen Oldenburg"
  },
  {
    "postcode": "49699",
    "city": "Neuenkämpen"
  },
  {
    "postcode": "49699",
    "city": "Osterlindern Oldenburg"
  },
  {
    "postcode": "49699",
    "city": "Osterlindern"
  },
  {
    "postcode": "49699",
    "city": "Varbrügge"
  },
  {
    "postcode": "49699",
    "city": "Cloppenburg"
  },
  {
    "postcode": "49699",
    "city": "Stühlenfeld"
  },
  {
    "postcode": "49699",
    "city": "Hegel"
  },
  {
    "postcode": "49716",
    "city": "Apeldorn Kreis Meppen"
  },
  {
    "postcode": "49716",
    "city": "Apeldorn"
  },
  {
    "postcode": "49716",
    "city": "Bokeloh Kreis Meppen"
  },
  {
    "postcode": "49716",
    "city": "Bokeloh"
  },
  {
    "postcode": "49716",
    "city": "Borken"
  },
  {
    "postcode": "49716",
    "city": "Esterfeld"
  },
  {
    "postcode": "49716",
    "city": "Feldkamp"
  },
  {
    "postcode": "49716",
    "city": "Groß Fullen"
  },
  {
    "postcode": "49716",
    "city": "Helte"
  },
  {
    "postcode": "49716",
    "city": "Hemsen"
  },
  {
    "postcode": "49716",
    "city": "Holthausen"
  },
  {
    "postcode": "49716",
    "city": "Hüntel"
  },
  {
    "postcode": "49716",
    "city": "Klein Fullen"
  },
  {
    "postcode": "49716",
    "city": "Kuhweide"
  },
  {
    "postcode": "49716",
    "city": "Meppen"
  },
  {
    "postcode": "49716",
    "city": "Orde"
  },
  {
    "postcode": "49716",
    "city": "Rühle Kreis Meppen"
  },
  {
    "postcode": "49716",
    "city": "Rühle"
  },
  {
    "postcode": "49716",
    "city": "Schwefingen"
  },
  {
    "postcode": "49716",
    "city": "Teglingen"
  },
  {
    "postcode": "49716",
    "city": "Versen"
  },
  {
    "postcode": "49716",
    "city": "Vogelpohl"
  },
  {
    "postcode": "49716",
    "city": "Wekenborg"
  },
  {
    "postcode": "49716",
    "city": "Emsland"
  },
  {
    "postcode": "49716",
    "city": "Übermühlen"
  },
  {
    "postcode": "49716",
    "city": "Altstadt"
  },
  {
    "postcode": "49716",
    "city": "Nödike"
  },
  {
    "postcode": "49716",
    "city": "Neustadt"
  },
  {
    "postcode": "49716",
    "city": "Hasebrink"
  },
  {
    "postcode": "49716",
    "city": "Schleusengruppe"
  },
  {
    "postcode": "49716",
    "city": "Schützenhof"
  },
  {
    "postcode": "49716",
    "city": "Dürenkämpe"
  },
  {
    "postcode": "49716",
    "city": "Backemude"
  },
  {
    "postcode": "49716",
    "city": "Finkenbrink"
  },
  {
    "postcode": "49716",
    "city": "Bokeloher Feld"
  },
  {
    "postcode": "49716",
    "city": "Gut Cuntzhof"
  },
  {
    "postcode": "49716",
    "city": "Gut Heidhof"
  },
  {
    "postcode": "49716",
    "city": "Hunfeld"
  },
  {
    "postcode": "49716",
    "city": "Kollhofe"
  },
  {
    "postcode": "49716",
    "city": "Meppener Feld"
  },
  {
    "postcode": "49716",
    "city": "Roheide"
  },
  {
    "postcode": "49716",
    "city": "Ulmenhof"
  },
  {
    "postcode": "49733",
    "city": "Altenberge Kreis Meppen"
  },
  {
    "postcode": "49733",
    "city": "Altenberge"
  },
  {
    "postcode": "49733",
    "city": "Dankern Ems"
  },
  {
    "postcode": "49733",
    "city": "Dankern"
  },
  {
    "postcode": "49733",
    "city": "Düne Ems"
  },
  {
    "postcode": "49733",
    "city": "Düne"
  },
  {
    "postcode": "49733",
    "city": "Düneburg Ems"
  },
  {
    "postcode": "49733",
    "city": "Düneburg"
  },
  {
    "postcode": "49733",
    "city": "Emmeln"
  },
  {
    "postcode": "49733",
    "city": "Erika Ems"
  },
  {
    "postcode": "49733",
    "city": "Erika"
  },
  {
    "postcode": "49733",
    "city": "Fehndorf"
  },
  {
    "postcode": "49733",
    "city": "Haar Ems"
  },
  {
    "postcode": "49733",
    "city": "Haar"
  },
  {
    "postcode": "49733",
    "city": "Haren"
  },
  {
    "postcode": "49733",
    "city": "Haren (Ems)"
  },
  {
    "postcode": "49733",
    "city": "Landegge Ems"
  },
  {
    "postcode": "49733",
    "city": "Landegge"
  },
  {
    "postcode": "49733",
    "city": "Langenberg Ems"
  },
  {
    "postcode": "49733",
    "city": "Langenberg"
  },
  {
    "postcode": "49733",
    "city": "Raken"
  },
  {
    "postcode": "49733",
    "city": "Rütenbrock"
  },
  {
    "postcode": "49733",
    "city": "Tinnen"
  },
  {
    "postcode": "49733",
    "city": "Wesuwe"
  },
  {
    "postcode": "49733",
    "city": "Emsland"
  },
  {
    "postcode": "49733",
    "city": "Lindloh-Schwartenberg"
  },
  {
    "postcode": "49733",
    "city": "Emen-Raken"
  },
  {
    "postcode": "49733",
    "city": "Altenschloot"
  },
  {
    "postcode": "49733",
    "city": "Emen"
  },
  {
    "postcode": "49733",
    "city": "Neue Düne"
  },
  {
    "postcode": "49740",
    "city": "Andrup"
  },
  {
    "postcode": "49740",
    "city": "Bückelte"
  },
  {
    "postcode": "49740",
    "city": "Dörgen"
  },
  {
    "postcode": "49740",
    "city": "Eltern"
  },
  {
    "postcode": "49740",
    "city": "Flechum"
  },
  {
    "postcode": "49740",
    "city": "Groß Dörgen"
  },
  {
    "postcode": "49740",
    "city": "Hamm"
  },
  {
    "postcode": "49740",
    "city": "Haselünne"
  },
  {
    "postcode": "49740",
    "city": "Huden"
  },
  {
    "postcode": "49740",
    "city": "Hülsen"
  },
  {
    "postcode": "49740",
    "city": "Käseforth"
  },
  {
    "postcode": "49740",
    "city": "Klein Dörgen"
  },
  {
    "postcode": "49740",
    "city": "Klosterholte"
  },
  {
    "postcode": "49740",
    "city": "Lage"
  },
  {
    "postcode": "49740",
    "city": "Lahre"
  },
  {
    "postcode": "49740",
    "city": "Lehrte Kreis Meppen"
  },
  {
    "postcode": "49740",
    "city": "Lehrte"
  },
  {
    "postcode": "49740",
    "city": "Lohe"
  },
  {
    "postcode": "49740",
    "city": "Lotten"
  },
  {
    "postcode": "49740",
    "city": "Schleper"
  },
  {
    "postcode": "49740",
    "city": "Stadtmark"
  },
  {
    "postcode": "49740",
    "city": "Westerloh"
  },
  {
    "postcode": "49740",
    "city": "Westerlohmühlen"
  },
  {
    "postcode": "49740",
    "city": "Emsland"
  },
  {
    "postcode": "49740",
    "city": "Gemeinde Klein Berßen"
  },
  {
    "postcode": "49744",
    "city": "Bramhar"
  },
  {
    "postcode": "49744",
    "city": "Geeste"
  },
  {
    "postcode": "49744",
    "city": "Groß Hesepe"
  },
  {
    "postcode": "49744",
    "city": "Klein Hesepe"
  },
  {
    "postcode": "49744",
    "city": "Osterbrock Kreis Meppen"
  },
  {
    "postcode": "49744",
    "city": "Osterbrock"
  },
  {
    "postcode": "49744",
    "city": "Varloh"
  },
  {
    "postcode": "49744",
    "city": "Emsland"
  },
  {
    "postcode": "49744",
    "city": "Dalum"
  },
  {
    "postcode": "49744",
    "city": "Dalum Feld"
  },
  {
    "postcode": "49744",
    "city": "Heseper Torfwerk"
  },
  {
    "postcode": "49744",
    "city": "Hesepermoor"
  },
  {
    "postcode": "49751",
    "city": "Eisten bei Sögel"
  },
  {
    "postcode": "49751",
    "city": "Hüven"
  },
  {
    "postcode": "49751",
    "city": "Sögel"
  },
  {
    "postcode": "49751",
    "city": "Spahnharrenstätte"
  },
  {
    "postcode": "49751",
    "city": "Werpeloh"
  },
  {
    "postcode": "49751",
    "city": "Emsland"
  },
  {
    "postcode": "49751",
    "city": "Eisten"
  },
  {
    "postcode": "49751",
    "city": "Harrenstätte"
  },
  {
    "postcode": "49751",
    "city": "Spahn"
  },
  {
    "postcode": "49757",
    "city": "Bockholte"
  },
  {
    "postcode": "49757",
    "city": "Lahn Hümmling"
  },
  {
    "postcode": "49757",
    "city": "Lahn"
  },
  {
    "postcode": "49757",
    "city": "Ostenwalde"
  },
  {
    "postcode": "49757",
    "city": "Vrees"
  },
  {
    "postcode": "49757",
    "city": "Wehm"
  },
  {
    "postcode": "49757",
    "city": "Werlte"
  },
  {
    "postcode": "49757",
    "city": "Werlte Emsl"
  },
  {
    "postcode": "49757",
    "city": "Wieste"
  },
  {
    "postcode": "49757",
    "city": "Emsland"
  },
  {
    "postcode": "49762",
    "city": "Düthe"
  },
  {
    "postcode": "49762",
    "city": "Fresenburg"
  },
  {
    "postcode": "49762",
    "city": "Fresenburg Emsl"
  },
  {
    "postcode": "49762",
    "city": "Hilter (Ems)"
  },
  {
    "postcode": "49762",
    "city": "Hilter"
  },
  {
    "postcode": "49762",
    "city": "Kathen-Frackel"
  },
  {
    "postcode": "49762",
    "city": "Lathen"
  },
  {
    "postcode": "49762",
    "city": "Melstrup"
  },
  {
    "postcode": "49762",
    "city": "Neusustrum"
  },
  {
    "postcode": "49762",
    "city": "Renkenberge"
  },
  {
    "postcode": "49762",
    "city": "Sustrum"
  },
  {
    "postcode": "49762",
    "city": "Emsland"
  },
  {
    "postcode": "49762",
    "city": "Wahn"
  },
  {
    "postcode": "49762",
    "city": "Melstrup Siedlung"
  },
  {
    "postcode": "49762",
    "city": "Sustrum-Moor"
  },
  {
    "postcode": "49762",
    "city": "Sustrumermoor"
  },
  {
    "postcode": "49767",
    "city": "Adorf Grenzaa"
  },
  {
    "postcode": "49767",
    "city": "Adorf"
  },
  {
    "postcode": "49767",
    "city": "Hebelermeer"
  },
  {
    "postcode": "49767",
    "city": "Neuringe"
  },
  {
    "postcode": "49767",
    "city": "Rühlerfeld"
  },
  {
    "postcode": "49767",
    "city": "Rühlermoor"
  },
  {
    "postcode": "49767",
    "city": "Schöninghsdorf"
  },
  {
    "postcode": "49767",
    "city": "Twist"
  },
  {
    "postcode": "49767",
    "city": "Twist Emsl"
  },
  {
    "postcode": "49767",
    "city": "Emsland"
  },
  {
    "postcode": "49767",
    "city": "Twist-Ost"
  },
  {
    "postcode": "49767",
    "city": "Bült"
  },
  {
    "postcode": "49767",
    "city": "Twist-Bült"
  },
  {
    "postcode": "49767",
    "city": "Twist-Siedlung"
  },
  {
    "postcode": "49770",
    "city": "Aselage"
  },
  {
    "postcode": "49770",
    "city": "Bookhof"
  },
  {
    "postcode": "49770",
    "city": "Dohren"
  },
  {
    "postcode": "49770",
    "city": "Dohren Emsl"
  },
  {
    "postcode": "49770",
    "city": "Einhaus"
  },
  {
    "postcode": "49770",
    "city": "Felsen"
  },
  {
    "postcode": "49770",
    "city": "Groß Dohren Kreis Meppen"
  },
  {
    "postcode": "49770",
    "city": "Groß Dohren"
  },
  {
    "postcode": "49770",
    "city": "Herzlake"
  },
  {
    "postcode": "49770",
    "city": "Klein Dohren Kreis Meppen"
  },
  {
    "postcode": "49770",
    "city": "Klein Dohren"
  },
  {
    "postcode": "49770",
    "city": "Neuenlande"
  },
  {
    "postcode": "49770",
    "city": "Westrum"
  },
  {
    "postcode": "49770",
    "city": "Emsland"
  },
  {
    "postcode": "49770",
    "city": "Bakerde"
  },
  {
    "postcode": "49774",
    "city": "Ahmsen"
  },
  {
    "postcode": "49774",
    "city": "Herßum"
  },
  {
    "postcode": "49774",
    "city": "Lähden"
  },
  {
    "postcode": "49774",
    "city": "Mittelort"
  },
  {
    "postcode": "49774",
    "city": "Vinnen"
  },
  {
    "postcode": "49774",
    "city": "Emsland"
  },
  {
    "postcode": "49774",
    "city": "Holte-Lastrup"
  },
  {
    "postcode": "49777",
    "city": "Groß Berßen"
  },
  {
    "postcode": "49777",
    "city": "Klein Berßen"
  },
  {
    "postcode": "49777",
    "city": "Stavern Emsl"
  },
  {
    "postcode": "49777",
    "city": "Stavern"
  },
  {
    "postcode": "49777",
    "city": "Emsland"
  },
  {
    "postcode": "49777",
    "city": "Groß Stavern"
  },
  {
    "postcode": "49779",
    "city": "Niederlangen"
  },
  {
    "postcode": "49779",
    "city": "Oberlangen"
  },
  {
    "postcode": "49779",
    "city": "Emsland"
  },
  {
    "postcode": "49779",
    "city": "Siedlung"
  },
  {
    "postcode": "49779",
    "city": "Siedlung Niederlangen"
  },
  {
    "postcode": "49779",
    "city": "Langen"
  },
  {
    "postcode": "49779",
    "city": "Oberlangen-Moor"
  },
  {
    "postcode": "49779",
    "city": "Wilholte"
  },
  {
    "postcode": "49808",
    "city": "Altenlingen"
  },
  {
    "postcode": "49808",
    "city": "Biene"
  },
  {
    "postcode": "49808",
    "city": "Darme"
  },
  {
    "postcode": "49808",
    "city": "Holthausen"
  },
  {
    "postcode": "49808",
    "city": "Lingen"
  },
  {
    "postcode": "49808",
    "city": "Lingen (Ems)"
  },
  {
    "postcode": "49808",
    "city": "Schepsdorf"
  },
  {
    "postcode": "49808",
    "city": "Wachendorf Ems"
  },
  {
    "postcode": "49808",
    "city": "Wachendorf"
  },
  {
    "postcode": "49808",
    "city": "Emsland"
  },
  {
    "postcode": "49809",
    "city": "Altenlingen"
  },
  {
    "postcode": "49809",
    "city": "Darme"
  },
  {
    "postcode": "49809",
    "city": "Laxten"
  },
  {
    "postcode": "49809",
    "city": "Lingen"
  },
  {
    "postcode": "49809",
    "city": "Lingen (Ems)"
  },
  {
    "postcode": "49809",
    "city": "Emsland"
  },
  {
    "postcode": "49811",
    "city": "Altenlingen"
  },
  {
    "postcode": "49811",
    "city": "Baccum"
  },
  {
    "postcode": "49811",
    "city": "Biene"
  },
  {
    "postcode": "49811",
    "city": "Bramsche"
  },
  {
    "postcode": "49811",
    "city": "Brockhausen"
  },
  {
    "postcode": "49811",
    "city": "Brögbern"
  },
  {
    "postcode": "49811",
    "city": "Clusorth-Bramhar"
  },
  {
    "postcode": "49811",
    "city": "Darme"
  },
  {
    "postcode": "49811",
    "city": "Estringen"
  },
  {
    "postcode": "49811",
    "city": "Gauerbach"
  },
  {
    "postcode": "49811",
    "city": "Holthausen"
  },
  {
    "postcode": "49811",
    "city": "Laxten"
  },
  {
    "postcode": "49811",
    "city": "Lingen"
  },
  {
    "postcode": "49811",
    "city": "Lingen (Ems)"
  },
  {
    "postcode": "49811",
    "city": "Mundersum"
  },
  {
    "postcode": "49811",
    "city": "Münnigbüren"
  },
  {
    "postcode": "49811",
    "city": "Ramsel"
  },
  {
    "postcode": "49811",
    "city": "Schepsdorf"
  },
  {
    "postcode": "49811",
    "city": "Emsland"
  },
  {
    "postcode": "49811",
    "city": "Hüvede-Sommeringen"
  },
  {
    "postcode": "49824",
    "city": "Agterhorn Vechte"
  },
  {
    "postcode": "49824",
    "city": "Agterhorn"
  },
  {
    "postcode": "49824",
    "city": "Echteler Vechte"
  },
  {
    "postcode": "49824",
    "city": "Echteler"
  },
  {
    "postcode": "49824",
    "city": "Emlichheim"
  },
  {
    "postcode": "49824",
    "city": "Eschebrügge Vechte"
  },
  {
    "postcode": "49824",
    "city": "Eschebrügge"
  },
  {
    "postcode": "49824",
    "city": "Großringe"
  },
  {
    "postcode": "49824",
    "city": "Heesterkante Vechte"
  },
  {
    "postcode": "49824",
    "city": "Heesterkante"
  },
  {
    "postcode": "49824",
    "city": "Kleinringe"
  },
  {
    "postcode": "49824",
    "city": "Laar"
  },
  {
    "postcode": "49824",
    "city": "Laar Vechte"
  },
  {
    "postcode": "49824",
    "city": "Laarwald Vechte"
  },
  {
    "postcode": "49824",
    "city": "Laarwald"
  },
  {
    "postcode": "49824",
    "city": "Ringe bei Emlichheim"
  },
  {
    "postcode": "49824",
    "city": "Volzel"
  },
  {
    "postcode": "49824",
    "city": "Vorwald"
  },
  {
    "postcode": "49824",
    "city": "Grafschaft Bentheim"
  },
  {
    "postcode": "49824",
    "city": "Ringe"
  },
  {
    "postcode": "49824",
    "city": "Richtervenne"
  },
  {
    "postcode": "49824",
    "city": "Haselaar"
  },
  {
    "postcode": "49824",
    "city": "Neugnadenfeld"
  },
  {
    "postcode": "49824",
    "city": "Wagenholt"
  },
  {
    "postcode": "49828",
    "city": "Alte Piccardie"
  },
  {
    "postcode": "49828",
    "city": "Binnenborg"
  },
  {
    "postcode": "49828",
    "city": "Esche"
  },
  {
    "postcode": "49828",
    "city": "Georgsdorf"
  },
  {
    "postcode": "49828",
    "city": "Grasdorf Dinkel"
  },
  {
    "postcode": "49828",
    "city": "Grasdorf"
  },
  {
    "postcode": "49828",
    "city": "Hilten Dinkel"
  },
  {
    "postcode": "49828",
    "city": "Hilten"
  },
  {
    "postcode": "49828",
    "city": "Lage Dinkel"
  },
  {
    "postcode": "49828",
    "city": "Lage"
  },
  {
    "postcode": "49828",
    "city": "Neuenhaus"
  },
  {
    "postcode": "49828",
    "city": "Neuenhaus Dinkel"
  },
  {
    "postcode": "49828",
    "city": "Osterwald bei Neuenhaus Dinkel"
  },
  {
    "postcode": "49828",
    "city": "Osterwald bei Neuenhaus"
  },
  {
    "postcode": "49828",
    "city": "Veldhausen"
  },
  {
    "postcode": "49828",
    "city": "Grafschaft Bentheim"
  },
  {
    "postcode": "49828",
    "city": "Hoogstede"
  },
  {
    "postcode": "49828",
    "city": "Nordhorn"
  },
  {
    "postcode": "49828",
    "city": "Osterwald"
  },
  {
    "postcode": "49828",
    "city": "Voresche"
  },
  {
    "postcode": "49828",
    "city": "Siedlung Ortfeld"
  },
  {
    "postcode": "49828",
    "city": "Siedlung Schorffeld"
  },
  {
    "postcode": "49828",
    "city": "Veldgaar"
  },
  {
    "postcode": "49828",
    "city": "Hohenkörben"
  },
  {
    "postcode": "49832",
    "city": "Andervenne"
  },
  {
    "postcode": "49832",
    "city": "Beesten"
  },
  {
    "postcode": "49832",
    "city": "Brümsel"
  },
  {
    "postcode": "49832",
    "city": "Freren"
  },
  {
    "postcode": "49832",
    "city": "Geringhusen"
  },
  {
    "postcode": "49832",
    "city": "Hollenhorst"
  },
  {
    "postcode": "49832",
    "city": "Kuhlort"
  },
  {
    "postcode": "49832",
    "city": "Lohe"
  },
  {
    "postcode": "49832",
    "city": "Messingen"
  },
  {
    "postcode": "49832",
    "city": "Overwater"
  },
  {
    "postcode": "49832",
    "city": "Schardingen"
  },
  {
    "postcode": "49832",
    "city": "Setlage"
  },
  {
    "postcode": "49832",
    "city": "Suttrup"
  },
  {
    "postcode": "49832",
    "city": "Thuine Emsl"
  },
  {
    "postcode": "49832",
    "city": "Thuine"
  },
  {
    "postcode": "49832",
    "city": "Venslage"
  },
  {
    "postcode": "49832",
    "city": "Emsland"
  },
  {
    "postcode": "49832",
    "city": "Oberdorf"
  },
  {
    "postcode": "49832",
    "city": "Niederdorf"
  },
  {
    "postcode": "49832",
    "city": "Ostendorf"
  },
  {
    "postcode": "49832",
    "city": "Saller"
  },
  {
    "postcode": "49832",
    "city": "Ostwie"
  },
  {
    "postcode": "49832",
    "city": "Völleringhook"
  },
  {
    "postcode": "49835",
    "city": "Füchtenfeld"
  },
  {
    "postcode": "49835",
    "city": "Lohne Kreis Lingen Ems"
  },
  {
    "postcode": "49835",
    "city": "Lohne"
  },
  {
    "postcode": "49835",
    "city": "Lohnerbruch Kreis Lingen Ems"
  },
  {
    "postcode": "49835",
    "city": "Lohnerbruch"
  },
  {
    "postcode": "49835",
    "city": "Nordlohne Kreis Lingen Ems"
  },
  {
    "postcode": "49835",
    "city": "Nordlohne"
  },
  {
    "postcode": "49835",
    "city": "Rükel Kreis Lingen Ems"
  },
  {
    "postcode": "49835",
    "city": "Rükel"
  },
  {
    "postcode": "49835",
    "city": "Schwartenpohl"
  },
  {
    "postcode": "49835",
    "city": "Wietmarschen"
  },
  {
    "postcode": "49835",
    "city": "Grafschaft Bentheim"
  },
  {
    "postcode": "49838",
    "city": "Bregenbeck"
  },
  {
    "postcode": "49838",
    "city": "Drope"
  },
  {
    "postcode": "49838",
    "city": "Espel"
  },
  {
    "postcode": "49838",
    "city": "Gersten"
  },
  {
    "postcode": "49838",
    "city": "Grumsmühlen"
  },
  {
    "postcode": "49838",
    "city": "Handrup"
  },
  {
    "postcode": "49838",
    "city": "Langen Emsl"
  },
  {
    "postcode": "49838",
    "city": "Langen"
  },
  {
    "postcode": "49838",
    "city": "Lengerich Emsl"
  },
  {
    "postcode": "49838",
    "city": "Lengerich"
  },
  {
    "postcode": "49838",
    "city": "Nordholte"
  },
  {
    "postcode": "49838",
    "city": "Rentrup"
  },
  {
    "postcode": "49838",
    "city": "Ruten"
  },
  {
    "postcode": "49838",
    "city": "Sopenhock"
  },
  {
    "postcode": "49838",
    "city": "Wettrup"
  },
  {
    "postcode": "49838",
    "city": "Emsland"
  },
  {
    "postcode": "49838",
    "city": "Obergersten"
  },
  {
    "postcode": "49838",
    "city": "Stroot"
  },
  {
    "postcode": "49838",
    "city": "Hestrup"
  },
  {
    "postcode": "49838",
    "city": "Eikhof"
  },
  {
    "postcode": "49843",
    "city": "Getelo"
  },
  {
    "postcode": "49843",
    "city": "Getelomoor"
  },
  {
    "postcode": "49843",
    "city": "Gölenkamp"
  },
  {
    "postcode": "49843",
    "city": "Haftenkamp"
  },
  {
    "postcode": "49843",
    "city": "Halle bei Neuenhaus Dinkel"
  },
  {
    "postcode": "49843",
    "city": "Halle bei Neuenhaus"
  },
  {
    "postcode": "49843",
    "city": "Höcklenkamp bei Neuenhaus Dinkel"
  },
  {
    "postcode": "49843",
    "city": "Höcklenkamp bei Neuenhaus"
  },
  {
    "postcode": "49843",
    "city": "Lemke Dinkel"
  },
  {
    "postcode": "49843",
    "city": "Lemke"
  },
  {
    "postcode": "49843",
    "city": "Uelsen"
  },
  {
    "postcode": "49843",
    "city": "Wielen bei Neuenhaus Dinkel"
  },
  {
    "postcode": "49843",
    "city": "Wielen bei Neuenhaus"
  },
  {
    "postcode": "49843",
    "city": "Grafschaft Bentheim"
  },
  {
    "postcode": "49843",
    "city": "Halle"
  },
  {
    "postcode": "49843",
    "city": "Krakenhoek"
  },
  {
    "postcode": "49843",
    "city": "Tangenberg"
  },
  {
    "postcode": "49843",
    "city": "Belthoek"
  },
  {
    "postcode": "49843",
    "city": "Höcklenkamp"
  },
  {
    "postcode": "49843",
    "city": "Waterfall"
  },
  {
    "postcode": "49844",
    "city": "Bawinkel"
  },
  {
    "postcode": "49844",
    "city": "Duisenburg"
  },
  {
    "postcode": "49844",
    "city": "Groß Bawinkel"
  },
  {
    "postcode": "49844",
    "city": "Plankorth"
  },
  {
    "postcode": "49844",
    "city": "Emsland"
  },
  {
    "postcode": "49846",
    "city": "Arkel"
  },
  {
    "postcode": "49846",
    "city": "Bathorn"
  },
  {
    "postcode": "49846",
    "city": "Berge"
  },
  {
    "postcode": "49846",
    "city": "Hoogstede"
  },
  {
    "postcode": "49846",
    "city": "Kalle bei Emlichheim"
  },
  {
    "postcode": "49846",
    "city": "Scheerhorn"
  },
  {
    "postcode": "49846",
    "city": "Tinholt"
  },
  {
    "postcode": "49846",
    "city": "Grafschaft Bentheim"
  },
  {
    "postcode": "49846",
    "city": "Kalle"
  },
  {
    "postcode": "49846",
    "city": "Lager Bathorn"
  },
  {
    "postcode": "49846",
    "city": "Bahne"
  },
  {
    "postcode": "49847",
    "city": "Egge"
  },
  {
    "postcode": "49847",
    "city": "Itterbeck"
  },
  {
    "postcode": "49847",
    "city": "Klein Striepe"
  },
  {
    "postcode": "49847",
    "city": "Ratzel"
  },
  {
    "postcode": "49847",
    "city": "Wielen bei Neuenhaus Dinkel"
  },
  {
    "postcode": "49847",
    "city": "Wielen bei Neuenhaus"
  },
  {
    "postcode": "49847",
    "city": "Grafschaft Bentheim"
  },
  {
    "postcode": "49847",
    "city": "Wielen"
  },
  {
    "postcode": "49849",
    "city": "Wilsum bei Emlichheim"
  },
  {
    "postcode": "49849",
    "city": "Grafschaft Bentheim"
  },
  {
    "postcode": "49849",
    "city": "Wilsum"
  }
]