[
  {
    "postcode": "7907",
    "city": "Burgk"
  },
  {
    "postcode": "7907",
    "city": "Chursdorf bei Schleiz"
  },
  {
    "postcode": "7907",
    "city": "Dittersdorf bei Schleiz"
  },
  {
    "postcode": "7907",
    "city": "Dragensdorf"
  },
  {
    "postcode": "7907",
    "city": "Görkwitz"
  },
  {
    "postcode": "7907",
    "city": "Göschitz"
  },
  {
    "postcode": "7907",
    "city": "Löhma bei Schleiz"
  },
  {
    "postcode": "7907",
    "city": "Moßbach"
  },
  {
    "postcode": "7907",
    "city": "Oettersdorf"
  },
  {
    "postcode": "7907",
    "city": "Plothen"
  },
  {
    "postcode": "7907",
    "city": "Pörmitz"
  },
  {
    "postcode": "7907",
    "city": "Schleiz"
  },
  {
    "postcode": "7907",
    "city": "Tegau"
  },
  {
    "postcode": "7907",
    "city": "Saale-Orla-Kreis"
  },
  {
    "postcode": "7907",
    "city": "Dittersdorf"
  },
  {
    "postcode": "7907",
    "city": "Löhma"
  },
  {
    "postcode": "7907",
    "city": "Chursdorf"
  },
  {
    "postcode": "7907",
    "city": "Sorna"
  },
  {
    "postcode": "7907",
    "city": "Rödersdorf"
  },
  {
    "postcode": "7907",
    "city": "Reinsdorf"
  },
  {
    "postcode": "7907",
    "city": "Oschitz"
  },
  {
    "postcode": "7907",
    "city": "Gräfenwarth"
  },
  {
    "postcode": "7907",
    "city": "Möschlitz"
  },
  {
    "postcode": "7907",
    "city": "Lössau"
  },
  {
    "postcode": "7907",
    "city": "Oberböhmsdorf"
  },
  {
    "postcode": "7907",
    "city": "Wüstendittersdorf"
  },
  {
    "postcode": "7907",
    "city": "Grochwitz"
  },
  {
    "postcode": "7907",
    "city": "Langenbuch"
  },
  {
    "postcode": "7907",
    "city": "Dröswein"
  },
  {
    "postcode": "7907",
    "city": "Crispendorf"
  },
  {
    "postcode": "7907",
    "city": "Dörflas"
  },
  {
    "postcode": "7907",
    "city": "Erkmannsdorf"
  },
  {
    "postcode": "7907",
    "city": "Waldhäuser"
  },
  {
    "postcode": "7907",
    "city": "Burkersdorf"
  },
  {
    "postcode": "7919",
    "city": "Kirschkau"
  },
  {
    "postcode": "7919",
    "city": "Mühltroff"
  },
  {
    "postcode": "7919",
    "city": "Saale-Orla-Kreis"
  },
  {
    "postcode": "7919",
    "city": "Langenbach"
  },
  {
    "postcode": "7922",
    "city": "Tanna bei Schleiz"
  },
  {
    "postcode": "7922",
    "city": "Saale-Orla-Kreis"
  },
  {
    "postcode": "7922",
    "city": "Tanna"
  },
  {
    "postcode": "7922",
    "city": "Frankendorf"
  },
  {
    "postcode": "7922",
    "city": "Zollgrün"
  },
  {
    "postcode": "7922",
    "city": "Ebersberg"
  },
  {
    "postcode": "7922",
    "city": "Seubtendorf"
  },
  {
    "postcode": "7922",
    "city": "Künsdorf"
  },
  {
    "postcode": "7922",
    "city": "Mielesdorf"
  },
  {
    "postcode": "7922",
    "city": "Oberkoskau"
  },
  {
    "postcode": "7922",
    "city": "Rothenacker"
  },
  {
    "postcode": "7922",
    "city": "Schilbach"
  },
  {
    "postcode": "7922",
    "city": "Stelzen"
  },
  {
    "postcode": "7922",
    "city": "Unterkoskau"
  },
  {
    "postcode": "7922",
    "city": "Willersdorf"
  },
  {
    "postcode": "7924",
    "city": "Crispendorf"
  },
  {
    "postcode": "7924",
    "city": "Eßbach"
  },
  {
    "postcode": "7924",
    "city": "Neundorf (bei Schleiz)"
  },
  {
    "postcode": "7924",
    "city": "Neundorf"
  },
  {
    "postcode": "7924",
    "city": "Schöndorf bei Schleiz"
  },
  {
    "postcode": "7924",
    "city": "Volkmannsdorf bei Schleiz"
  },
  {
    "postcode": "7924",
    "city": "Walsburg"
  },
  {
    "postcode": "7924",
    "city": "Ziegenrück Thüringen"
  },
  {
    "postcode": "7924",
    "city": "Ziegenrück"
  },
  {
    "postcode": "7924",
    "city": "Saale-Orla-Kreis"
  },
  {
    "postcode": "7924",
    "city": "Schöndorf"
  },
  {
    "postcode": "7924",
    "city": "Volkmannsdorf"
  },
  {
    "postcode": "7924",
    "city": "Pahnstangen"
  },
  {
    "postcode": "7924",
    "city": "Külmla"
  },
  {
    "postcode": "7924",
    "city": "Tausa"
  },
  {
    "postcode": "7926",
    "city": "Gefell bei Schleiz"
  },
  {
    "postcode": "7926",
    "city": "Saale-Orla-Kreis"
  },
  {
    "postcode": "7926",
    "city": "Gefell"
  },
  {
    "postcode": "7926",
    "city": "Blintendorf"
  },
  {
    "postcode": "7926",
    "city": "Dobareuth"
  },
  {
    "postcode": "7926",
    "city": "Frössen"
  },
  {
    "postcode": "7926",
    "city": "Göttengrün"
  },
  {
    "postcode": "7926",
    "city": "Gebersreuth"
  },
  {
    "postcode": "7926",
    "city": "Haidefeld"
  },
  {
    "postcode": "7926",
    "city": "Langgrün"
  },
  {
    "postcode": "7926",
    "city": "Mödlareuth"
  },
  {
    "postcode": "7927",
    "city": "Hirschberg Saale"
  },
  {
    "postcode": "7927",
    "city": "Hirschberg"
  },
  {
    "postcode": "7927",
    "city": "Saale-Orla-Kreis"
  },
  {
    "postcode": "7927",
    "city": "Göritz"
  },
  {
    "postcode": "7927",
    "city": "Sparnberg"
  },
  {
    "postcode": "7927",
    "city": "Ullersreuth"
  },
  {
    "postcode": "7927",
    "city": "Venzka"
  },
  {
    "postcode": "7929",
    "city": "Saalburg Saale"
  },
  {
    "postcode": "7929",
    "city": "Saalburg"
  },
  {
    "postcode": "7929",
    "city": "Saalburg-Ebersdorf"
  },
  {
    "postcode": "7929",
    "city": "Saale-Orla-Kreis"
  },
  {
    "postcode": "7929",
    "city": "Ebersdorf"
  },
  {
    "postcode": "7929",
    "city": "Friesau"
  },
  {
    "postcode": "7929",
    "city": "Zoppoten"
  },
  {
    "postcode": "7929",
    "city": "Kloster"
  },
  {
    "postcode": "7929",
    "city": "Pöritzsch"
  },
  {
    "postcode": "7929",
    "city": "Röppisch"
  },
  {
    "postcode": "7929",
    "city": "Raila"
  },
  {
    "postcode": "7929",
    "city": "Schönbrunn"
  },
  {
    "postcode": "7929",
    "city": "Wernsdorf"
  },
  {
    "postcode": "7937",
    "city": "Langenwolschendorf"
  },
  {
    "postcode": "7937",
    "city": "Silberfeld"
  },
  {
    "postcode": "7937",
    "city": "Vogtländisches Oberland"
  },
  {
    "postcode": "7937",
    "city": "Zadelsdorf"
  },
  {
    "postcode": "7937",
    "city": "Zeulenroda"
  },
  {
    "postcode": "7937",
    "city": "Zeulenroda-Triebes"
  },
  {
    "postcode": "7937",
    "city": "Greiz"
  },
  {
    "postcode": "7937",
    "city": "Bernsgrün"
  },
  {
    "postcode": "7937",
    "city": "Pöllwitz"
  },
  {
    "postcode": "7937",
    "city": "Weckersdorf"
  },
  {
    "postcode": "7937",
    "city": "Pahren"
  },
  {
    "postcode": "7937",
    "city": "Arnsgrün"
  },
  {
    "postcode": "7937",
    "city": "Büna"
  },
  {
    "postcode": "7937",
    "city": "Dobia"
  },
  {
    "postcode": "7937",
    "city": "Förthen"
  },
  {
    "postcode": "7937",
    "city": "Frotschau"
  },
  {
    "postcode": "7937",
    "city": "Grüna"
  },
  {
    "postcode": "7937",
    "city": "Kleinwolschendorf"
  },
  {
    "postcode": "7937",
    "city": "Leitlitz"
  },
  {
    "postcode": "7937",
    "city": "Karl-Liebknecht-Siedlung"
  },
  {
    "postcode": "7937",
    "city": "Läwitz"
  },
  {
    "postcode": "7937",
    "city": "Niederböhmersdorf"
  },
  {
    "postcode": "7937",
    "city": "Quingenberg"
  },
  {
    "postcode": "7937",
    "city": "Stelzendorf"
  },
  {
    "postcode": "7937",
    "city": "Wolfshain"
  },
  {
    "postcode": "7950",
    "city": "Göhren-Döhlen"
  },
  {
    "postcode": "7950",
    "city": "Merkendorf Thüringen"
  },
  {
    "postcode": "7950",
    "city": "Merkendorf"
  },
  {
    "postcode": "7950",
    "city": "Staitz"
  },
  {
    "postcode": "7950",
    "city": "Triebes"
  },
  {
    "postcode": "7950",
    "city": "Weißendorf Thüringen"
  },
  {
    "postcode": "7950",
    "city": "Weißendorf"
  },
  {
    "postcode": "7950",
    "city": "Wiebelsdorf"
  },
  {
    "postcode": "7950",
    "city": "Zeulenroda-Triebes"
  },
  {
    "postcode": "7950",
    "city": "Greiz"
  },
  {
    "postcode": "7950",
    "city": "Mehla"
  },
  {
    "postcode": "7950",
    "city": "Dörtendorf"
  },
  {
    "postcode": "7950",
    "city": "Kranich"
  },
  {
    "postcode": "7950",
    "city": "Nässa"
  },
  {
    "postcode": "7950",
    "city": "Piesigitz"
  },
  {
    "postcode": "7950",
    "city": "Zscherlich"
  },
  {
    "postcode": "7952",
    "city": "Pausa / Vogtland"
  },
  {
    "postcode": "7952",
    "city": "Pausa"
  },
  {
    "postcode": "7952",
    "city": "Greiz"
  },
  {
    "postcode": "7952",
    "city": "Oberreichenau"
  },
  {
    "postcode": "7952",
    "city": "Thierbach"
  },
  {
    "postcode": "7952",
    "city": "Linda"
  },
  {
    "postcode": "7952",
    "city": "Unterreichenau"
  },
  {
    "postcode": "7952",
    "city": "Ebersgrün"
  },
  {
    "postcode": "7952",
    "city": "Ranspach"
  },
  {
    "postcode": "7952",
    "city": "Wallengrün"
  },
  {
    "postcode": "7952",
    "city": "Pausa-Mühltroff"
  },
  {
    "postcode": "7955",
    "city": "Auma"
  },
  {
    "postcode": "7955",
    "city": "Braunsdorf bei Zeulenroda"
  },
  {
    "postcode": "7955",
    "city": "Greiz"
  },
  {
    "postcode": "7955",
    "city": "Auma-Weidatal"
  },
  {
    "postcode": "7955",
    "city": "Braunsdorf"
  },
  {
    "postcode": "7955",
    "city": "Göhren-Döhlen"
  },
  {
    "postcode": "7955",
    "city": "Gütterlitz"
  },
  {
    "postcode": "7955",
    "city": "Wenigenauma"
  },
  {
    "postcode": "7955",
    "city": "Krölpa"
  },
  {
    "postcode": "7955",
    "city": "Muntscha"
  },
  {
    "postcode": "7955",
    "city": "Pfersdorf"
  },
  {
    "postcode": "7955",
    "city": "Staitz"
  },
  {
    "postcode": "7955",
    "city": "Tischendorf"
  },
  {
    "postcode": "7955",
    "city": "Untendorf"
  },
  {
    "postcode": "7955",
    "city": "Wöhlsdorf"
  },
  {
    "postcode": "7955",
    "city": "Wiebelsdorf"
  },
  {
    "postcode": "7955",
    "city": "Zickra"
  },
  {
    "postcode": "7957",
    "city": "Hain bei Zeulenroda"
  },
  {
    "postcode": "7957",
    "city": "Langenwetzendorf"
  },
  {
    "postcode": "7957",
    "city": "Greiz"
  },
  {
    "postcode": "7957",
    "city": "Altgernsdorf"
  },
  {
    "postcode": "7957",
    "city": "Daßlitz"
  },
  {
    "postcode": "7957",
    "city": "Zoghaus"
  },
  {
    "postcode": "7957",
    "city": "Wildetaube"
  },
  {
    "postcode": "7957",
    "city": "Erbengrün"
  },
  {
    "postcode": "7957",
    "city": "Neugernsdorf"
  },
  {
    "postcode": "7957",
    "city": "Göttendorf"
  },
  {
    "postcode": "7957",
    "city": "Hain"
  },
  {
    "postcode": "7957",
    "city": "Hainsberg"
  },
  {
    "postcode": "7957",
    "city": "Hirschbach"
  },
  {
    "postcode": "7957",
    "city": "Naitschau"
  },
  {
    "postcode": "7957",
    "city": "Kauern"
  },
  {
    "postcode": "7957",
    "city": "Lunzig"
  },
  {
    "postcode": "7957",
    "city": "Neuärgerniß"
  },
  {
    "postcode": "7957",
    "city": "Nitschareuth"
  },
  {
    "postcode": "7957",
    "city": "Wellsdorf"
  },
  {
    "postcode": "7957",
    "city": "Wittchendorf"
  },
  {
    "postcode": "7958",
    "city": "Hohenleuben"
  },
  {
    "postcode": "7958",
    "city": "Greiz"
  },
  {
    "postcode": "7958",
    "city": "Brückla"
  },
  {
    "postcode": "7958",
    "city": "Reichenfels"
  },
  {
    "postcode": "7973",
    "city": "Greiz"
  },
  {
    "postcode": "7973",
    "city": "Hohndorf"
  },
  {
    "postcode": "7973",
    "city": "Neumühle"
  },
  {
    "postcode": "7973",
    "city": "Grochlitz"
  },
  {
    "postcode": "7973",
    "city": "Reinsdorf"
  },
  {
    "postcode": "7973",
    "city": "Gemeinde Neumühle"
  },
  {
    "postcode": "7973",
    "city": "Cossengrün"
  },
  {
    "postcode": "7973",
    "city": "Irchwitz"
  },
  {
    "postcode": "7973",
    "city": "Eubenberg"
  },
  {
    "postcode": "7973",
    "city": "Leiningen"
  },
  {
    "postcode": "7973",
    "city": "Lehnamühle"
  },
  {
    "postcode": "7973",
    "city": "Tremnitz"
  },
  {
    "postcode": "7973",
    "city": "Schönbach"
  },
  {
    "postcode": "7973",
    "city": "Untergrochlitz"
  },
  {
    "postcode": "7980",
    "city": "Berga / Elster"
  },
  {
    "postcode": "7980",
    "city": "Berga"
  },
  {
    "postcode": "7980",
    "city": "Großkundorf"
  },
  {
    "postcode": "7980",
    "city": "Kühdorf"
  },
  {
    "postcode": "7980",
    "city": "Lunzig"
  },
  {
    "postcode": "7980",
    "city": "Neugernsdorf"
  },
  {
    "postcode": "7980",
    "city": "Neumühle / Elster"
  },
  {
    "postcode": "7980",
    "city": "Neumühle"
  },
  {
    "postcode": "7980",
    "city": "Wildetaube"
  },
  {
    "postcode": "7980",
    "city": "Greiz"
  },
  {
    "postcode": "7980",
    "city": "Berga/Elster"
  },
  {
    "postcode": "7980",
    "city": "Albersdorf"
  },
  {
    "postcode": "7980",
    "city": "Clodra"
  },
  {
    "postcode": "7980",
    "city": "Dittersdorf"
  },
  {
    "postcode": "7980",
    "city": "Wernsdorf"
  },
  {
    "postcode": "7980",
    "city": "Eula"
  },
  {
    "postcode": "7980",
    "city": "Großdraxdorf"
  },
  {
    "postcode": "7980",
    "city": "Kleinkundorf"
  },
  {
    "postcode": "7980",
    "city": "Markersdorf"
  },
  {
    "postcode": "7980",
    "city": "Obergeißendorf"
  },
  {
    "postcode": "7980",
    "city": "Tschirma"
  },
  {
    "postcode": "7980",
    "city": "Untergeißendorf"
  },
  {
    "postcode": "7980",
    "city": "Wolfersdorf"
  },
  {
    "postcode": "7980",
    "city": "Zickra"
  },
  {
    "postcode": "7985",
    "city": "Elsterberg Vogtland"
  },
  {
    "postcode": "7985",
    "city": "Elsterberg"
  },
  {
    "postcode": "7985",
    "city": "Greiz"
  },
  {
    "postcode": "7985",
    "city": "Kleingera"
  },
  {
    "postcode": "7985",
    "city": "Noßwitz"
  },
  {
    "postcode": "7985",
    "city": "Cunsdorf"
  },
  {
    "postcode": "7985",
    "city": "Losa"
  },
  {
    "postcode": "7985",
    "city": "Scholas"
  },
  {
    "postcode": "7985",
    "city": "Coschütz"
  },
  {
    "postcode": "7985",
    "city": "Görschnitz"
  },
  {
    "postcode": "7987",
    "city": "Mohlsdorf"
  },
  {
    "postcode": "7987",
    "city": "Greiz"
  },
  {
    "postcode": "7987",
    "city": "Mohlsdorf-Teichwolframsdorf"
  },
  {
    "postcode": "7987",
    "city": "Reudnitz"
  },
  {
    "postcode": "7987",
    "city": "Teichwolframsdorf"
  },
  {
    "postcode": "7987",
    "city": "Waltersdorf"
  },
  {
    "postcode": "7987",
    "city": "Kahmer"
  },
  {
    "postcode": "7987",
    "city": "Großkundorf"
  },
  {
    "postcode": "7987",
    "city": "Kleinreinsdorf"
  },
  {
    "postcode": "7987",
    "city": "Krebsbach Talsperre"
  },
  {
    "postcode": "7987",
    "city": "Gottesgrün"
  },
  {
    "postcode": "7987",
    "city": "Rüßdorf"
  },
  {
    "postcode": "7987",
    "city": "Sorge-Settendorf"
  },
  {
    "postcode": "7987",
    "city": "Waldhaus"
  },
  {
    "postcode": "7989",
    "city": "Teichwolframsdorf"
  },
  {
    "postcode": "79098",
    "city": "Altstadt"
  },
  {
    "postcode": "79098",
    "city": "Freiburg im Breisgau"
  },
  {
    "postcode": "79098",
    "city": "Herdern"
  },
  {
    "postcode": "79098",
    "city": "Neuburg"
  },
  {
    "postcode": "79098",
    "city": "Oberau"
  },
  {
    "postcode": "79098",
    "city": "Stühlinger"
  },
  {
    "postcode": "79100",
    "city": "Freiburg im Breisgau"
  },
  {
    "postcode": "79100",
    "city": "Günterstal"
  },
  {
    "postcode": "79100",
    "city": "Haslach"
  },
  {
    "postcode": "79100",
    "city": "Sankt Georgen"
  },
  {
    "postcode": "79100",
    "city": "Wiehre"
  },
  {
    "postcode": "79100",
    "city": "Vauban"
  },
  {
    "postcode": "79102",
    "city": "Freiburg im Breisgau"
  },
  {
    "postcode": "79102",
    "city": "Littenweiler"
  },
  {
    "postcode": "79102",
    "city": "Oberau"
  },
  {
    "postcode": "79102",
    "city": "Waldsee"
  },
  {
    "postcode": "79102",
    "city": "Wiehre"
  },
  {
    "postcode": "79104",
    "city": "Altstadt"
  },
  {
    "postcode": "79104",
    "city": "Brühl"
  },
  {
    "postcode": "79104",
    "city": "Freiburg im Breisgau"
  },
  {
    "postcode": "79104",
    "city": "Herdern"
  },
  {
    "postcode": "79104",
    "city": "Neuburg"
  },
  {
    "postcode": "79104",
    "city": "Wiehre"
  },
  {
    "postcode": "79104",
    "city": "Zähringen"
  },
  {
    "postcode": "79104",
    "city": "Gundelfingen"
  },
  {
    "postcode": "79104",
    "city": "Oberau"
  },
  {
    "postcode": "79104",
    "city": "Waldsee"
  },
  {
    "postcode": "79104",
    "city": "Gemeinde Gundelfingen"
  },
  {
    "postcode": "79106",
    "city": "Betzenhausen"
  },
  {
    "postcode": "79106",
    "city": "Brühl"
  },
  {
    "postcode": "79106",
    "city": "Freiburg im Breisgau"
  },
  {
    "postcode": "79106",
    "city": "Herdern"
  },
  {
    "postcode": "79106",
    "city": "Mooswald"
  },
  {
    "postcode": "79106",
    "city": "Neuburg"
  },
  {
    "postcode": "79106",
    "city": "Stühlinger"
  },
  {
    "postcode": "79108",
    "city": "Benzhausen"
  },
  {
    "postcode": "79108",
    "city": "Brühl"
  },
  {
    "postcode": "79108",
    "city": "Freiburg im Breisgau"
  },
  {
    "postcode": "79108",
    "city": "Herdern"
  },
  {
    "postcode": "79108",
    "city": "Hochdorf"
  },
  {
    "postcode": "79108",
    "city": "Landwasser"
  },
  {
    "postcode": "79108",
    "city": "Lehen"
  },
  {
    "postcode": "79108",
    "city": "Zähringen"
  },
  {
    "postcode": "79108",
    "city": "Mooswald"
  },
  {
    "postcode": "79108",
    "city": "Betzenhausen"
  },
  {
    "postcode": "79110",
    "city": "Betzenhausen"
  },
  {
    "postcode": "79110",
    "city": "Brühl"
  },
  {
    "postcode": "79110",
    "city": "Freiburg im Breisgau"
  },
  {
    "postcode": "79110",
    "city": "Landwasser"
  },
  {
    "postcode": "79110",
    "city": "Lehen"
  },
  {
    "postcode": "79110",
    "city": "Mooswald"
  },
  {
    "postcode": "79111",
    "city": "Betzenhausen"
  },
  {
    "postcode": "79111",
    "city": "Freiburg im Breisgau"
  },
  {
    "postcode": "79111",
    "city": "Haslach"
  },
  {
    "postcode": "79111",
    "city": "Lehen"
  },
  {
    "postcode": "79111",
    "city": "Mundenhof"
  },
  {
    "postcode": "79111",
    "city": "Rieselfeld"
  },
  {
    "postcode": "79111",
    "city": "Sankt Georgen"
  },
  {
    "postcode": "79111",
    "city": "Tiengen"
  },
  {
    "postcode": "79111",
    "city": "Weingarten"
  },
  {
    "postcode": "79111",
    "city": "St. Georgen"
  },
  {
    "postcode": "79111",
    "city": "Brühl"
  },
  {
    "postcode": "79112",
    "city": "Freiburg im Breisgau"
  },
  {
    "postcode": "79112",
    "city": "Munzingen"
  },
  {
    "postcode": "79112",
    "city": "Opfingen"
  },
  {
    "postcode": "79112",
    "city": "Sankt Nikolaus"
  },
  {
    "postcode": "79112",
    "city": "Tiengen"
  },
  {
    "postcode": "79112",
    "city": "Waltershofen"
  },
  {
    "postcode": "79114",
    "city": "Betzenhausen"
  },
  {
    "postcode": "79114",
    "city": "Freiburg im Breisgau"
  },
  {
    "postcode": "79114",
    "city": "Haslach"
  },
  {
    "postcode": "79114",
    "city": "Sankt Georgen"
  },
  {
    "postcode": "79114",
    "city": "Stühlinger"
  },
  {
    "postcode": "79114",
    "city": "Weingarten"
  },
  {
    "postcode": "79114",
    "city": "St. Georgen"
  },
  {
    "postcode": "79115",
    "city": "Freiburg im Breisgau"
  },
  {
    "postcode": "79115",
    "city": "Haslach"
  },
  {
    "postcode": "79115",
    "city": "Sankt Georgen"
  },
  {
    "postcode": "79115",
    "city": "Stühlinger"
  },
  {
    "postcode": "79115",
    "city": "Weingarten"
  },
  {
    "postcode": "79115",
    "city": "Wiehre"
  },
  {
    "postcode": "79115",
    "city": "St. Georgen"
  },
  {
    "postcode": "79115",
    "city": "Vauban"
  },
  {
    "postcode": "79117",
    "city": "Ebnet"
  },
  {
    "postcode": "79117",
    "city": "Freiburg im Breisgau"
  },
  {
    "postcode": "79117",
    "city": "Kappel"
  },
  {
    "postcode": "79117",
    "city": "Littenweiler"
  },
  {
    "postcode": "79117",
    "city": "Waldsee"
  },
  {
    "postcode": "79117",
    "city": "Wiehre"
  },
  {
    "postcode": "79117",
    "city": "Oberau"
  },
  {
    "postcode": "79183",
    "city": "Buchholz"
  },
  {
    "postcode": "79183",
    "city": "Kohlenbach"
  },
  {
    "postcode": "79183",
    "city": "Kollnau"
  },
  {
    "postcode": "79183",
    "city": "Siensbach"
  },
  {
    "postcode": "79183",
    "city": "Waldkirch"
  },
  {
    "postcode": "79183",
    "city": "Waldkirch (Breisgau)"
  },
  {
    "postcode": "79183",
    "city": "Emmendingen"
  },
  {
    "postcode": "79183",
    "city": "Suggental"
  },
  {
    "postcode": "79189",
    "city": "Bad Krozingen"
  },
  {
    "postcode": "79189",
    "city": "Biengen"
  },
  {
    "postcode": "79189",
    "city": "Hausen"
  },
  {
    "postcode": "79189",
    "city": "Schlatt"
  },
  {
    "postcode": "79189",
    "city": "Schmidhofen"
  },
  {
    "postcode": "79189",
    "city": "Tunsel"
  },
  {
    "postcode": "79189",
    "city": "Breisgau-Hochschwarzwald"
  },
  {
    "postcode": "79189",
    "city": "Hausen an der Möhlin"
  },
  {
    "postcode": "79194",
    "city": "Gundelfingen (Breisgau)"
  },
  {
    "postcode": "79194",
    "city": "Gundelfingen"
  },
  {
    "postcode": "79194",
    "city": "Heuweiler"
  },
  {
    "postcode": "79194",
    "city": "Hinterheuweiler"
  },
  {
    "postcode": "79194",
    "city": "Wildtal"
  },
  {
    "postcode": "79194",
    "city": "Breisgau-Hochschwarzwald"
  },
  {
    "postcode": "79199",
    "city": "Burg am Wald"
  },
  {
    "postcode": "79199",
    "city": "Burg Höfen"
  },
  {
    "postcode": "79199",
    "city": "Dietenbach"
  },
  {
    "postcode": "79199",
    "city": "Kirchzarten"
  },
  {
    "postcode": "79199",
    "city": "Kirchzarten (Breisgau)"
  },
  {
    "postcode": "79199",
    "city": "Neuhäuser"
  },
  {
    "postcode": "79199",
    "city": "Weilersbach"
  },
  {
    "postcode": "79199",
    "city": "Zarten"
  },
  {
    "postcode": "79199",
    "city": "Breisgau-Hochschwarzwald"
  },
  {
    "postcode": "79199",
    "city": "Burg Birkenhof"
  },
  {
    "postcode": "79199",
    "city": "Burg"
  },
  {
    "postcode": "79206",
    "city": "Breisach"
  },
  {
    "postcode": "79206",
    "city": "Breisach am Rhein"
  },
  {
    "postcode": "79206",
    "city": "Grezhausen"
  },
  {
    "postcode": "79206",
    "city": "Gündlingen"
  },
  {
    "postcode": "79206",
    "city": "Hochstetten"
  },
  {
    "postcode": "79206",
    "city": "Niederrimsingen"
  },
  {
    "postcode": "79206",
    "city": "Oberrimsingen"
  },
  {
    "postcode": "79206",
    "city": "Breisgau-Hochschwarzwald"
  },
  {
    "postcode": "79211",
    "city": "Denzlingen"
  },
  {
    "postcode": "79211",
    "city": "Emmendingen"
  },
  {
    "postcode": "79215",
    "city": "Biederbach (Schwarzwald)"
  },
  {
    "postcode": "79215",
    "city": "Biederbach"
  },
  {
    "postcode": "79215",
    "city": "Elzach"
  },
  {
    "postcode": "79215",
    "city": "Fißnacht"
  },
  {
    "postcode": "79215",
    "city": "Frischnau Gemeinde Biederbach"
  },
  {
    "postcode": "79215",
    "city": "Frischnau"
  },
  {
    "postcode": "79215",
    "city": "Hölzberg"
  },
  {
    "postcode": "79215",
    "city": "Katzenmoos"
  },
  {
    "postcode": "79215",
    "city": "Oberprechtal"
  },
  {
    "postcode": "79215",
    "city": "Reichenbach"
  },
  {
    "postcode": "79215",
    "city": "Yach"
  },
  {
    "postcode": "79215",
    "city": "Emmendingen"
  },
  {
    "postcode": "79215",
    "city": "Hintertal"
  },
  {
    "postcode": "79215",
    "city": "Dorf"
  },
  {
    "postcode": "79215",
    "city": "Prechtal"
  },
  {
    "postcode": "79219",
    "city": "Etzenbach"
  },
  {
    "postcode": "79219",
    "city": "Grunern"
  },
  {
    "postcode": "79219",
    "city": "Kropbach"
  },
  {
    "postcode": "79219",
    "city": "Staufen"
  },
  {
    "postcode": "79219",
    "city": "Staufen im Breisgau"
  },
  {
    "postcode": "79219",
    "city": "Wettelbrunn"
  },
  {
    "postcode": "79219",
    "city": "Breisgau-Hochschwarzwald"
  },
  {
    "postcode": "79224",
    "city": "Umkirch"
  },
  {
    "postcode": "79224",
    "city": "Breisgau-Hochschwarzwald"
  },
  {
    "postcode": "79227",
    "city": "Föhrenschallstadt"
  },
  {
    "postcode": "79227",
    "city": "Leutersberg"
  },
  {
    "postcode": "79227",
    "city": "Mengen"
  },
  {
    "postcode": "79227",
    "city": "Schallstadt"
  },
  {
    "postcode": "79227",
    "city": "Wolfenweiler"
  },
  {
    "postcode": "79227",
    "city": "Breisgau-Hochschwarzwald"
  },
  {
    "postcode": "79232",
    "city": "Buchheim"
  },
  {
    "postcode": "79232",
    "city": "Holzhausen"
  },
  {
    "postcode": "79232",
    "city": "Hugstetten"
  },
  {
    "postcode": "79232",
    "city": "March (Breisgau)"
  },
  {
    "postcode": "79232",
    "city": "March"
  },
  {
    "postcode": "79232",
    "city": "Neuershausen"
  },
  {
    "postcode": "79232",
    "city": "Breisgau-Hochschwarzwald"
  },
  {
    "postcode": "79235",
    "city": "Achkarren"
  },
  {
    "postcode": "79235",
    "city": "Bickensohl"
  },
  {
    "postcode": "79235",
    "city": "Bischoffingen"
  },
  {
    "postcode": "79235",
    "city": "Burkheim"
  },
  {
    "postcode": "79235",
    "city": "Oberbergen"
  },
  {
    "postcode": "79235",
    "city": "Oberrotweil"
  },
  {
    "postcode": "79235",
    "city": "Schelingen"
  },
  {
    "postcode": "79235",
    "city": "Vogtsburg"
  },
  {
    "postcode": "79235",
    "city": "Vogtsburg im Kaiserstuhl"
  },
  {
    "postcode": "79235",
    "city": "Breisgau-Hochschwarzwald"
  },
  {
    "postcode": "79238",
    "city": "Ehrenkirchen"
  },
  {
    "postcode": "79238",
    "city": "Ehrenstetten"
  },
  {
    "postcode": "79238",
    "city": "Kirchhofen"
  },
  {
    "postcode": "79238",
    "city": "Norsingen"
  },
  {
    "postcode": "79238",
    "city": "Offnadingen"
  },
  {
    "postcode": "79238",
    "city": "Scherzingen"
  },
  {
    "postcode": "79238",
    "city": "Breisgau-Hochschwarzwald"
  },
  {
    "postcode": "79241",
    "city": "Ihringen"
  },
  {
    "postcode": "79241",
    "city": "Wasenweiler"
  },
  {
    "postcode": "79241",
    "city": "Breisgau-Hochschwarzwald"
  },
  {
    "postcode": "79244",
    "city": "Elend"
  },
  {
    "postcode": "79244",
    "city": "Mulden"
  },
  {
    "postcode": "79244",
    "city": "Münstertal / Schwarzwald"
  },
  {
    "postcode": "79244",
    "city": "Münstertal"
  },
  {
    "postcode": "79244",
    "city": "Obermünstertal"
  },
  {
    "postcode": "79244",
    "city": "Untermünstertal"
  },
  {
    "postcode": "79244",
    "city": "Breisgau-Hochschwarzwald"
  },
  {
    "postcode": "79244",
    "city": "Münstertal/Schwarzwald"
  },
  {
    "postcode": "79249",
    "city": "Merzhausen (Breisgau)"
  },
  {
    "postcode": "79249",
    "city": "Merzhausen"
  },
  {
    "postcode": "79249",
    "city": "Breisgau-Hochschwarzwald"
  },
  {
    "postcode": "79252",
    "city": "Attental"
  },
  {
    "postcode": "79252",
    "city": "Eschbach"
  },
  {
    "postcode": "79252",
    "city": "Rechtenbach"
  },
  {
    "postcode": "79252",
    "city": "Stegen"
  },
  {
    "postcode": "79252",
    "city": "Stegen (Hochschwarzwald)"
  },
  {
    "postcode": "79252",
    "city": "Wittental"
  },
  {
    "postcode": "79252",
    "city": "Breisgau-Hochschwarzwald"
  },
  {
    "postcode": "79252",
    "city": "Gemeinde Kirchzarten"
  },
  {
    "postcode": "79252",
    "city": "Unterbirken"
  },
  {
    "postcode": "79254",
    "city": "Hofsgrund"
  },
  {
    "postcode": "79254",
    "city": "Katzensteig"
  },
  {
    "postcode": "79254",
    "city": "Oberried"
  },
  {
    "postcode": "79254",
    "city": "Oberried (Breisgau)"
  },
  {
    "postcode": "79254",
    "city": "Sankt Wilhelm"
  },
  {
    "postcode": "79254",
    "city": "Schauinsland"
  },
  {
    "postcode": "79254",
    "city": "Zastler"
  },
  {
    "postcode": "79254",
    "city": "Breisgau-Hochschwarzwald"
  },
  {
    "postcode": "79254",
    "city": "St. Wilhelm"
  },
  {
    "postcode": "79256",
    "city": "Buchenbach"
  },
  {
    "postcode": "79256",
    "city": "Buchenbach (Breisgau)"
  },
  {
    "postcode": "79256",
    "city": "Falkensteig"
  },
  {
    "postcode": "79256",
    "city": "Unteribental"
  },
  {
    "postcode": "79256",
    "city": "Wagensteig"
  },
  {
    "postcode": "79256",
    "city": "Wiesneck"
  },
  {
    "postcode": "79256",
    "city": "Breisgau-Hochschwarzwald"
  },
  {
    "postcode": "79256",
    "city": "Gemeinde Kirchzarten"
  },
  {
    "postcode": "79258",
    "city": "Bremgarten"
  },
  {
    "postcode": "79258",
    "city": "Feldkirch"
  },
  {
    "postcode": "79258",
    "city": "Hartheim"
  },
  {
    "postcode": "79258",
    "city": "Hartheim (Breisgau)"
  },
  {
    "postcode": "79258",
    "city": "Breisgau-Hochschwarzwald"
  },
  {
    "postcode": "79258",
    "city": "Hartheim am Rhein"
  },
  {
    "postcode": "79261",
    "city": "Bleibach"
  },
  {
    "postcode": "79261",
    "city": "Gutach"
  },
  {
    "postcode": "79261",
    "city": "Gutach im Breisgau"
  },
  {
    "postcode": "79261",
    "city": "Riedern"
  },
  {
    "postcode": "79261",
    "city": "Siegelau"
  },
  {
    "postcode": "79261",
    "city": "Emmendingen"
  },
  {
    "postcode": "79263",
    "city": "Simonswald"
  },
  {
    "postcode": "79263",
    "city": "Untersimonswald"
  },
  {
    "postcode": "79263",
    "city": "Emmendingen"
  },
  {
    "postcode": "79263",
    "city": "Beim Engel"
  },
  {
    "postcode": "79268",
    "city": "Bötzingen"
  },
  {
    "postcode": "79268",
    "city": "Breisgau-Hochschwarzwald"
  },
  {
    "postcode": "79271",
    "city": "Rohr"
  },
  {
    "postcode": "79271",
    "city": "Sankt Peter (Schwarzwald)"
  },
  {
    "postcode": "79271",
    "city": "Sankt Peter"
  },
  {
    "postcode": "79271",
    "city": "Breisgau-Hochschwarzwald"
  },
  {
    "postcode": "79271",
    "city": "St. Peter"
  },
  {
    "postcode": "79274",
    "city": "Altglashütte"
  },
  {
    "postcode": "79274",
    "city": "Neuhäusle"
  },
  {
    "postcode": "79274",
    "city": "Sankt Märgen"
  },
  {
    "postcode": "79274",
    "city": "Breisgau-Hochschwarzwald"
  },
  {
    "postcode": "79274",
    "city": "Buchenbach"
  },
  {
    "postcode": "79274",
    "city": "St. Märgen"
  },
  {
    "postcode": "79276",
    "city": "Reute (Breisgau)"
  },
  {
    "postcode": "79276",
    "city": "Reute"
  },
  {
    "postcode": "79276",
    "city": "Emmendingen"
  },
  {
    "postcode": "79276",
    "city": "Oberreute"
  },
  {
    "postcode": "79276",
    "city": "Unter Reute"
  },
  {
    "postcode": "79279",
    "city": "Schupfholz"
  },
  {
    "postcode": "79279",
    "city": "Vörstetten"
  },
  {
    "postcode": "79279",
    "city": "Emmendingen"
  },
  {
    "postcode": "79280",
    "city": "Au (Breisgau)"
  },
  {
    "postcode": "79280",
    "city": "Au"
  },
  {
    "postcode": "79280",
    "city": "Breisgau-Hochschwarzwald"
  },
  {
    "postcode": "79282",
    "city": "Ballrechten"
  },
  {
    "postcode": "79282",
    "city": "Ballrechten-Dottingen"
  },
  {
    "postcode": "79282",
    "city": "Dottingen"
  },
  {
    "postcode": "79282",
    "city": "Breisgau-Hochschwarzwald"
  },
  {
    "postcode": "79283",
    "city": "Bollschweil"
  },
  {
    "postcode": "79283",
    "city": "Geiersnest"
  },
  {
    "postcode": "79283",
    "city": "Gütighofen"
  },
  {
    "postcode": "79283",
    "city": "Sankt Ulrich"
  },
  {
    "postcode": "79283",
    "city": "Breisgau-Hochschwarzwald"
  },
  {
    "postcode": "79283",
    "city": "St. Ulrich"
  },
  {
    "postcode": "79285",
    "city": "Ebringen (Breisgau)"
  },
  {
    "postcode": "79285",
    "city": "Ebringen"
  },
  {
    "postcode": "79285",
    "city": "Breisgau-Hochschwarzwald"
  },
  {
    "postcode": "79286",
    "city": "Föhrental"
  },
  {
    "postcode": "79286",
    "city": "Glottertal"
  },
  {
    "postcode": "79286",
    "city": "Oberglottertal"
  },
  {
    "postcode": "79286",
    "city": "Ohrensbach"
  },
  {
    "postcode": "79286",
    "city": "Unterglottertal"
  },
  {
    "postcode": "79286",
    "city": "Breisgau-Hochschwarzwald"
  },
  {
    "postcode": "79288",
    "city": "Gottenheim"
  },
  {
    "postcode": "79288",
    "city": "Breisgau-Hochschwarzwald"
  },
  {
    "postcode": "79289",
    "city": "Horben (Breisgau)"
  },
  {
    "postcode": "79289",
    "city": "Horben"
  },
  {
    "postcode": "79289",
    "city": "Breisgau-Hochschwarzwald"
  },
  {
    "postcode": "79289",
    "city": "Bohrer"
  },
  {
    "postcode": "79289",
    "city": "Langackern"
  },
  {
    "postcode": "79289",
    "city": "Dorf"
  },
  {
    "postcode": "79289",
    "city": "Münzenried"
  },
  {
    "postcode": "79289",
    "city": "Katzental"
  },
  {
    "postcode": "79289",
    "city": "Stadt Freiburg"
  },
  {
    "postcode": "79291",
    "city": "Merdingen"
  },
  {
    "postcode": "79291",
    "city": "Breisgau-Hochschwarzwald"
  },
  {
    "postcode": "79292",
    "city": "Pfaffenweiler (Breisgau)"
  },
  {
    "postcode": "79292",
    "city": "Pfaffenweiler"
  },
  {
    "postcode": "79292",
    "city": "Breisgau-Hochschwarzwald"
  },
  {
    "postcode": "79294",
    "city": "Sölden (Breisgau)"
  },
  {
    "postcode": "79294",
    "city": "Sölden"
  },
  {
    "postcode": "79294",
    "city": "Breisgau-Hochschwarzwald"
  },
  {
    "postcode": "79295",
    "city": "Laufen"
  },
  {
    "postcode": "79295",
    "city": "Sankt Ilgen"
  },
  {
    "postcode": "79295",
    "city": "Sulzburg"
  },
  {
    "postcode": "79295",
    "city": "Sulzburg (Baden)"
  },
  {
    "postcode": "79295",
    "city": "Breisgau-Hochschwarzwald"
  },
  {
    "postcode": "79297",
    "city": "Niederwinden"
  },
  {
    "postcode": "79297",
    "city": "Oberwinden"
  },
  {
    "postcode": "79297",
    "city": "Unterspitzenbach"
  },
  {
    "postcode": "79297",
    "city": "Weinersberg"
  },
  {
    "postcode": "79297",
    "city": "Winden im Elztal"
  },
  {
    "postcode": "79297",
    "city": "Emmendingen"
  },
  {
    "postcode": "79299",
    "city": "Wittnau (Breisgau)"
  },
  {
    "postcode": "79299",
    "city": "Wittnau"
  },
  {
    "postcode": "79299",
    "city": "Breisgau-Hochschwarzwald"
  },
  {
    "postcode": "79312",
    "city": "Emmendingen"
  },
  {
    "postcode": "79312",
    "city": "Kollmarsreute"
  },
  {
    "postcode": "79312",
    "city": "Landeck (Gemeinde Teningen)"
  },
  {
    "postcode": "79312",
    "city": "Landeck"
  },
  {
    "postcode": "79312",
    "city": "Maleck"
  },
  {
    "postcode": "79312",
    "city": "Mundingen"
  },
  {
    "postcode": "79312",
    "city": "Wasser"
  },
  {
    "postcode": "79312",
    "city": "Windenreute"
  },
  {
    "postcode": "79312",
    "city": "Gemeinde Denzlingen"
  },
  {
    "postcode": "79331",
    "city": "Bottingen"
  },
  {
    "postcode": "79331",
    "city": "Heimbach"
  },
  {
    "postcode": "79331",
    "city": "Köndringen"
  },
  {
    "postcode": "79331",
    "city": "Nimburg"
  },
  {
    "postcode": "79331",
    "city": "Teningen"
  },
  {
    "postcode": "79331",
    "city": "Emmendingen"
  },
  {
    "postcode": "79336",
    "city": "Bleichheim"
  },
  {
    "postcode": "79336",
    "city": "Broggingen"
  },
  {
    "postcode": "79336",
    "city": "Herbolzheim"
  },
  {
    "postcode": "79336",
    "city": "Herbolzheim (Breisgau)"
  },
  {
    "postcode": "79336",
    "city": "Tutschfelden"
  },
  {
    "postcode": "79336",
    "city": "Wagenstadt"
  },
  {
    "postcode": "79336",
    "city": "Emmendingen"
  },
  {
    "postcode": "79336",
    "city": "Kenzingen"
  },
  {
    "postcode": "79341",
    "city": "Bombach"
  },
  {
    "postcode": "79341",
    "city": "Hecklingen"
  },
  {
    "postcode": "79341",
    "city": "Kenzingen"
  },
  {
    "postcode": "79341",
    "city": "Nordweil"
  },
  {
    "postcode": "79341",
    "city": "Emmendingen"
  },
  {
    "postcode": "79341",
    "city": "Gemeinde Riegel"
  },
  {
    "postcode": "79346",
    "city": "Amoltern"
  },
  {
    "postcode": "79346",
    "city": "Endingen am Kaiserstuhl"
  },
  {
    "postcode": "79346",
    "city": "Kiechlinsbergen"
  },
  {
    "postcode": "79346",
    "city": "Königschaffhausen"
  },
  {
    "postcode": "79346",
    "city": "Emmendingen"
  },
  {
    "postcode": "79346",
    "city": "Endingen"
  },
  {
    "postcode": "79348",
    "city": "Allmendsberg"
  },
  {
    "postcode": "79348",
    "city": "Brettental"
  },
  {
    "postcode": "79348",
    "city": "Freiamt"
  },
  {
    "postcode": "79348",
    "city": "Keppenbach"
  },
  {
    "postcode": "79348",
    "city": "Niedertal"
  },
  {
    "postcode": "79348",
    "city": "Ottoschwanden"
  },
  {
    "postcode": "79348",
    "city": "Reichenbach"
  },
  {
    "postcode": "79348",
    "city": "Emmendingen"
  },
  {
    "postcode": "79348",
    "city": "Allmendberg"
  },
  {
    "postcode": "79348",
    "city": "Mußbach"
  },
  {
    "postcode": "79348",
    "city": "Gemeinde Emmendingen"
  },
  {
    "postcode": "79348",
    "city": "Gemeinde Malterdingen"
  },
  {
    "postcode": "79350",
    "city": "Sexau"
  },
  {
    "postcode": "79350",
    "city": "Emmendingen"
  },
  {
    "postcode": "79353",
    "city": "Bahlingen am Kaiserstuhl"
  },
  {
    "postcode": "79353",
    "city": "Emmendingen"
  },
  {
    "postcode": "79356",
    "city": "Eichstetten am Kaiserstuhl"
  },
  {
    "postcode": "79356",
    "city": "Breisgau-Hochschwarzwald"
  },
  {
    "postcode": "79359",
    "city": "Riegel am Kaiserstuhl"
  },
  {
    "postcode": "79359",
    "city": "Emmendingen"
  },
  {
    "postcode": "79359",
    "city": "Riegel"
  },
  {
    "postcode": "79361",
    "city": "Jechtingen"
  },
  {
    "postcode": "79361",
    "city": "Leiselheim"
  },
  {
    "postcode": "79361",
    "city": "Sasbach am Kaiserstuhl"
  },
  {
    "postcode": "79361",
    "city": "Sasbach Kaiserstuhl"
  },
  {
    "postcode": "79361",
    "city": "Sasbach"
  },
  {
    "postcode": "79361",
    "city": "Emmendingen"
  },
  {
    "postcode": "79362",
    "city": "Forchheim (Breisgau)"
  },
  {
    "postcode": "79362",
    "city": "Forchheim"
  },
  {
    "postcode": "79362",
    "city": "Emmendingen"
  },
  {
    "postcode": "79364",
    "city": "Malterdingen"
  },
  {
    "postcode": "79364",
    "city": "Emmendingen"
  },
  {
    "postcode": "79365",
    "city": "Niederhausen"
  },
  {
    "postcode": "79365",
    "city": "Oberhausen"
  },
  {
    "postcode": "79365",
    "city": "Rheinhausen (Breisgau)"
  },
  {
    "postcode": "79365",
    "city": "Rheinhausen"
  },
  {
    "postcode": "79365",
    "city": "Emmendingen"
  },
  {
    "postcode": "79367",
    "city": "Weisweil (Breisgau)"
  },
  {
    "postcode": "79367",
    "city": "Weisweil"
  },
  {
    "postcode": "79367",
    "city": "Emmendingen"
  },
  {
    "postcode": "79369",
    "city": "Wyhl am Kaiserstuhl"
  },
  {
    "postcode": "79369",
    "city": "Emmendingen"
  },
  {
    "postcode": "79379",
    "city": "Britzingen"
  },
  {
    "postcode": "79379",
    "city": "Dattingen"
  },
  {
    "postcode": "79379",
    "city": "Feldberg"
  },
  {
    "postcode": "79379",
    "city": "Güttigheim"
  },
  {
    "postcode": "79379",
    "city": "Hügelheim"
  },
  {
    "postcode": "79379",
    "city": "Muggardt"
  },
  {
    "postcode": "79379",
    "city": "Müllheim"
  },
  {
    "postcode": "79379",
    "city": "Müllheim (Baden)"
  },
  {
    "postcode": "79379",
    "city": "Niederweiler"
  },
  {
    "postcode": "79379",
    "city": "Vögisheim"
  },
  {
    "postcode": "79379",
    "city": "Zunzingen"
  },
  {
    "postcode": "79379",
    "city": "Breisgau-Hochschwarzwald"
  },
  {
    "postcode": "79395",
    "city": "Grißheim"
  },
  {
    "postcode": "79395",
    "city": "Neuenburg"
  },
  {
    "postcode": "79395",
    "city": "Neuenburg am Rhein"
  },
  {
    "postcode": "79395",
    "city": "Steinenstadt"
  },
  {
    "postcode": "79395",
    "city": "Zienken"
  },
  {
    "postcode": "79395",
    "city": "Breisgau-Hochschwarzwald"
  },
  {
    "postcode": "79400",
    "city": "Egerten"
  },
  {
    "postcode": "79400",
    "city": "Egisholz"
  },
  {
    "postcode": "79400",
    "city": "Feuerbach"
  },
  {
    "postcode": "79400",
    "city": "Gupf"
  },
  {
    "postcode": "79400",
    "city": "Hammerstein"
  },
  {
    "postcode": "79400",
    "city": "Holzen"
  },
  {
    "postcode": "79400",
    "city": "Kandern"
  },
  {
    "postcode": "79400",
    "city": "Nebenau"
  },
  {
    "postcode": "79400",
    "city": "Riedlingen"
  },
  {
    "postcode": "79400",
    "city": "Sitzenkirch"
  },
  {
    "postcode": "79400",
    "city": "Tannenkirch"
  },
  {
    "postcode": "79400",
    "city": "Wollbach"
  },
  {
    "postcode": "79400",
    "city": "Lörrach"
  },
  {
    "postcode": "79410",
    "city": "Badenweiler"
  },
  {
    "postcode": "79410",
    "city": "Lipburg"
  },
  {
    "postcode": "79410",
    "city": "Schweighof"
  },
  {
    "postcode": "79410",
    "city": "Sehringen"
  },
  {
    "postcode": "79410",
    "city": "Breisgau-Hochschwarzwald"
  },
  {
    "postcode": "79410",
    "city": "Müllheim"
  },
  {
    "postcode": "79415",
    "city": "Bad Bellingen"
  },
  {
    "postcode": "79415",
    "city": "Bad Bellingen (Baden)"
  },
  {
    "postcode": "79415",
    "city": "Bamlach"
  },
  {
    "postcode": "79415",
    "city": "Hertingen"
  },
  {
    "postcode": "79415",
    "city": "Rheinweiler"
  },
  {
    "postcode": "79415",
    "city": "Lörrach"
  },
  {
    "postcode": "79418",
    "city": "Liel"
  },
  {
    "postcode": "79418",
    "city": "Mauchen"
  },
  {
    "postcode": "79418",
    "city": "Niedereggenen"
  },
  {
    "postcode": "79418",
    "city": "Obereggenen"
  },
  {
    "postcode": "79418",
    "city": "Schallsingen"
  },
  {
    "postcode": "79418",
    "city": "Schliengen"
  },
  {
    "postcode": "79418",
    "city": "Lörrach"
  },
  {
    "postcode": "79423",
    "city": "Gallenweiler"
  },
  {
    "postcode": "79423",
    "city": "Heitersheim"
  },
  {
    "postcode": "79423",
    "city": "Breisgau-Hochschwarzwald"
  },
  {
    "postcode": "79423",
    "city": "Gewerbepark"
  },
  {
    "postcode": "79424",
    "city": "Auggen"
  },
  {
    "postcode": "79424",
    "city": "Hach"
  },
  {
    "postcode": "79424",
    "city": "Zizingen"
  },
  {
    "postcode": "79424",
    "city": "Breisgau-Hochschwarzwald"
  },
  {
    "postcode": "79426",
    "city": "Buggingen"
  },
  {
    "postcode": "79426",
    "city": "Seefelden"
  },
  {
    "postcode": "79426",
    "city": "Breisgau-Hochschwarzwald"
  },
  {
    "postcode": "79427",
    "city": "Eschbach (Markgräflerland)"
  },
  {
    "postcode": "79427",
    "city": "Eschbach"
  },
  {
    "postcode": "79427",
    "city": "Breisgau-Hochschwarzwald"
  },
  {
    "postcode": "79427",
    "city": "Gewerbepark"
  },
  {
    "postcode": "79427",
    "city": "Gemeinde Hartheim"
  },
  {
    "postcode": "79427",
    "city": "Gemeinde Neuenburg"
  },
  {
    "postcode": "79429",
    "city": "Käsacker"
  },
  {
    "postcode": "79429",
    "city": "Lütschenbach"
  },
  {
    "postcode": "79429",
    "city": "Malsburg"
  },
  {
    "postcode": "79429",
    "city": "Malsburg-Marzell"
  },
  {
    "postcode": "79429",
    "city": "Marzell"
  },
  {
    "postcode": "79429",
    "city": "Vogelbach"
  },
  {
    "postcode": "79429",
    "city": "Lörrach"
  },
  {
    "postcode": "79429",
    "city": "Luisenheim"
  },
  {
    "postcode": "79429",
    "city": "Friedrichsheim"
  },
  {
    "postcode": "79429",
    "city": "Gemeinde Schliengen"
  },
  {
    "postcode": "79513",
    "city": "Röttlerweiler"
  },
  {
    "postcode": "79539",
    "city": "Lörrach"
  },
  {
    "postcode": "79539",
    "city": "Stetten"
  },
  {
    "postcode": "79539",
    "city": "Tüllingen"
  },
  {
    "postcode": "79539",
    "city": "Tumringen"
  },
  {
    "postcode": "79539",
    "city": "Untertüllingen"
  },
  {
    "postcode": "79540",
    "city": "Lörrach"
  },
  {
    "postcode": "79540",
    "city": "Stetten"
  },
  {
    "postcode": "79540",
    "city": "Salzert"
  },
  {
    "postcode": "79541",
    "city": "Brombach"
  },
  {
    "postcode": "79541",
    "city": "Haagen"
  },
  {
    "postcode": "79541",
    "city": "Hauingen"
  },
  {
    "postcode": "79541",
    "city": "Lörrach"
  },
  {
    "postcode": "79541",
    "city": "Rechberg"
  },
  {
    "postcode": "79541",
    "city": "Tüllingen"
  },
  {
    "postcode": "79541",
    "city": "Tumringen"
  },
  {
    "postcode": "79541",
    "city": "Röttelnweiler"
  },
  {
    "postcode": "79576",
    "city": "Friedlingen"
  },
  {
    "postcode": "79576",
    "city": "Haltingen"
  },
  {
    "postcode": "79576",
    "city": "Märkt"
  },
  {
    "postcode": "79576",
    "city": "Ötlingen"
  },
  {
    "postcode": "79576",
    "city": "Otterbach"
  },
  {
    "postcode": "79576",
    "city": "Weil am Rhein"
  },
  {
    "postcode": "79576",
    "city": "Lörrach"
  },
  {
    "postcode": "79585",
    "city": "Endenburg"
  },
  {
    "postcode": "79585",
    "city": "Hägelberg"
  },
  {
    "postcode": "79585",
    "city": "Hofen"
  },
  {
    "postcode": "79585",
    "city": "Höllstein"
  },
  {
    "postcode": "79585",
    "city": "Hüsingen"
  },
  {
    "postcode": "79585",
    "city": "Kirchhausen"
  },
  {
    "postcode": "79585",
    "city": "Lehnacker"
  },
  {
    "postcode": "79585",
    "city": "Schlächtenhaus"
  },
  {
    "postcode": "79585",
    "city": "Steinen"
  },
  {
    "postcode": "79585",
    "city": "Steinen (Kreis Lörrach)"
  },
  {
    "postcode": "79585",
    "city": "Weitenau"
  },
  {
    "postcode": "79585",
    "city": "Lörrach"
  },
  {
    "postcode": "79588",
    "city": "Blansingen"
  },
  {
    "postcode": "79588",
    "city": "Efringen-Kirchen"
  },
  {
    "postcode": "79588",
    "city": "Egringen"
  },
  {
    "postcode": "79588",
    "city": "Huttingen"
  },
  {
    "postcode": "79588",
    "city": "Istein"
  },
  {
    "postcode": "79588",
    "city": "Kleinkems"
  },
  {
    "postcode": "79588",
    "city": "Mappach"
  },
  {
    "postcode": "79588",
    "city": "Maugenhard"
  },
  {
    "postcode": "79588",
    "city": "Welmlingen"
  },
  {
    "postcode": "79588",
    "city": "Wintersweiler"
  },
  {
    "postcode": "79588",
    "city": "Lörrach"
  },
  {
    "postcode": "79589",
    "city": "Binzen (Kreis Lörrach)"
  },
  {
    "postcode": "79589",
    "city": "Binzen"
  },
  {
    "postcode": "79589",
    "city": "Lörrach"
  },
  {
    "postcode": "79591",
    "city": "Eimeldingen"
  },
  {
    "postcode": "79591",
    "city": "Lörrach"
  },
  {
    "postcode": "79592",
    "city": "Fischingen (Baden)"
  },
  {
    "postcode": "79592",
    "city": "Fischingen"
  },
  {
    "postcode": "79592",
    "city": "Lörrach"
  },
  {
    "postcode": "79594",
    "city": "Inzlingen"
  },
  {
    "postcode": "79594",
    "city": "Lörrach"
  },
  {
    "postcode": "79595",
    "city": "Rümmingen"
  },
  {
    "postcode": "79595",
    "city": "Lörrach"
  },
  {
    "postcode": "79597",
    "city": "Schallbach"
  },
  {
    "postcode": "79597",
    "city": "Lörrach"
  },
  {
    "postcode": "79599",
    "city": "Wittlingen (Baden)"
  },
  {
    "postcode": "79599",
    "city": "Wittlingen"
  },
  {
    "postcode": "79599",
    "city": "Lörrach"
  },
  {
    "postcode": "79618",
    "city": "Adelhausen"
  },
  {
    "postcode": "79618",
    "city": "Degerfelden"
  },
  {
    "postcode": "79618",
    "city": "Eichsel"
  },
  {
    "postcode": "79618",
    "city": "Herten"
  },
  {
    "postcode": "79618",
    "city": "Karsau"
  },
  {
    "postcode": "79618",
    "city": "Minseln"
  },
  {
    "postcode": "79618",
    "city": "Nollingen"
  },
  {
    "postcode": "79618",
    "city": "Nordschwaben"
  },
  {
    "postcode": "79618",
    "city": "Rheinfelden"
  },
  {
    "postcode": "79618",
    "city": "Rheinfelden (Baden)"
  },
  {
    "postcode": "79618",
    "city": "Riedmatt"
  },
  {
    "postcode": "79618",
    "city": "Warmbach"
  },
  {
    "postcode": "79618",
    "city": "Lörrach"
  },
  {
    "postcode": "79639",
    "city": "Grenzach-Wyhlen"
  },
  {
    "postcode": "79639",
    "city": "Rührberg"
  },
  {
    "postcode": "79639",
    "city": "Lörrach"
  },
  {
    "postcode": "79639",
    "city": "Wyhlen"
  },
  {
    "postcode": "79639",
    "city": "Grenzach"
  },
  {
    "postcode": "79639",
    "city": "Stadt Rheinfelden"
  },
  {
    "postcode": "79639",
    "city": "Markhof"
  },
  {
    "postcode": "79650",
    "city": "Eichen"
  },
  {
    "postcode": "79650",
    "city": "Enkenstein"
  },
  {
    "postcode": "79650",
    "city": "Fahrnau"
  },
  {
    "postcode": "79650",
    "city": "Gersbach"
  },
  {
    "postcode": "79650",
    "city": "Gündenhausen"
  },
  {
    "postcode": "79650",
    "city": "Kürnberg"
  },
  {
    "postcode": "79650",
    "city": "Langenau"
  },
  {
    "postcode": "79650",
    "city": "Raitbach"
  },
  {
    "postcode": "79650",
    "city": "Schopfheim"
  },
  {
    "postcode": "79650",
    "city": "Schweigmatt"
  },
  {
    "postcode": "79650",
    "city": "Wiechs"
  },
  {
    "postcode": "79650",
    "city": "Lörrach"
  },
  {
    "postcode": "79650",
    "city": "Scheuermatt"
  },
  {
    "postcode": "79664",
    "city": "Brennet"
  },
  {
    "postcode": "79664",
    "city": "Enkendorf"
  },
  {
    "postcode": "79664",
    "city": "Günnenbach"
  },
  {
    "postcode": "79664",
    "city": "Öflingen"
  },
  {
    "postcode": "79664",
    "city": "Wehr"
  },
  {
    "postcode": "79664",
    "city": "Wehr (Baden)"
  },
  {
    "postcode": "79664",
    "city": "Waldshut"
  },
  {
    "postcode": "79669",
    "city": "Adelsberg"
  },
  {
    "postcode": "79669",
    "city": "Atzenbach"
  },
  {
    "postcode": "79669",
    "city": "Gaisbühl"
  },
  {
    "postcode": "79669",
    "city": "Gresgen"
  },
  {
    "postcode": "79669",
    "city": "Mambach"
  },
  {
    "postcode": "79669",
    "city": "Pfaffenberg"
  },
  {
    "postcode": "79669",
    "city": "Riedichen"
  },
  {
    "postcode": "79669",
    "city": "Silbersau"
  },
  {
    "postcode": "79669",
    "city": "Zell im Wiesental"
  },
  {
    "postcode": "79669",
    "city": "Lörrach"
  },
  {
    "postcode": "79669",
    "city": "Zell"
  },
  {
    "postcode": "79674",
    "city": "Aftersteg"
  },
  {
    "postcode": "79674",
    "city": "Brandenberg"
  },
  {
    "postcode": "79674",
    "city": "Fahl"
  },
  {
    "postcode": "79674",
    "city": "Geschwend"
  },
  {
    "postcode": "79674",
    "city": "Hasbach"
  },
  {
    "postcode": "79674",
    "city": "Herrenschwand"
  },
  {
    "postcode": "79674",
    "city": "Muggenbrunn"
  },
  {
    "postcode": "79674",
    "city": "Präg"
  },
  {
    "postcode": "79674",
    "city": "Rütte"
  },
  {
    "postcode": "79674",
    "city": "Schlechtnau"
  },
  {
    "postcode": "79674",
    "city": "Todtnau"
  },
  {
    "postcode": "79674",
    "city": "Todtnauberg"
  },
  {
    "postcode": "79674",
    "city": "Lörrach"
  },
  {
    "postcode": "79677",
    "city": "Aitern"
  },
  {
    "postcode": "79677",
    "city": "Bischmatt"
  },
  {
    "postcode": "79677",
    "city": "Böllen"
  },
  {
    "postcode": "79677",
    "city": "Entenschwand"
  },
  {
    "postcode": "79677",
    "city": "Fröhnd (Schwarzwald)"
  },
  {
    "postcode": "79677",
    "city": "Fröhnd"
  },
  {
    "postcode": "79677",
    "city": "Holzinshaus"
  },
  {
    "postcode": "79677",
    "city": "Ittenschwand"
  },
  {
    "postcode": "79677",
    "city": "Kastel"
  },
  {
    "postcode": "79677",
    "city": "Künaberg"
  },
  {
    "postcode": "79677",
    "city": "Niederböllen"
  },
  {
    "postcode": "79677",
    "city": "Niederhepschingen"
  },
  {
    "postcode": "79677",
    "city": "Oberböllen"
  },
  {
    "postcode": "79677",
    "city": "Oberhepschingen"
  },
  {
    "postcode": "79677",
    "city": "Schindeln"
  },
  {
    "postcode": "79677",
    "city": "Schönau im Schwarzwald"
  },
  {
    "postcode": "79677",
    "city": "Schönenberg (Schwarzwald)"
  },
  {
    "postcode": "79677",
    "city": "Schönenberg"
  },
  {
    "postcode": "79677",
    "city": "Schönenbuchen"
  },
  {
    "postcode": "79677",
    "city": "Tunau (Schwarzwald)"
  },
  {
    "postcode": "79677",
    "city": "Tunau"
  },
  {
    "postcode": "79677",
    "city": "Wembach"
  },
  {
    "postcode": "79677",
    "city": "Wembach (Schwarzwald)"
  },
  {
    "postcode": "79677",
    "city": "Wildböllen"
  },
  {
    "postcode": "79677",
    "city": "Lörrach"
  },
  {
    "postcode": "79677",
    "city": "Häg-Ehrsberg"
  },
  {
    "postcode": "79682",
    "city": "Berghütte"
  },
  {
    "postcode": "79682",
    "city": "Hintertodtmoos"
  },
  {
    "postcode": "79682",
    "city": "Höfle"
  },
  {
    "postcode": "79682",
    "city": "Lehen"
  },
  {
    "postcode": "79682",
    "city": "Mättle"
  },
  {
    "postcode": "79682",
    "city": "Prestenberg"
  },
  {
    "postcode": "79682",
    "city": "Rütte"
  },
  {
    "postcode": "79682",
    "city": "Todtmoos"
  },
  {
    "postcode": "79682",
    "city": "Vordertodtmoos"
  },
  {
    "postcode": "79682",
    "city": "Waldshut"
  },
  {
    "postcode": "79682",
    "city": "Weg"
  },
  {
    "postcode": "79682",
    "city": "Schwarzenbach"
  },
  {
    "postcode": "79682",
    "city": "Strick"
  },
  {
    "postcode": "79682",
    "city": "Au"
  },
  {
    "postcode": "79682",
    "city": "Gemeinde Schopfheim"
  },
  {
    "postcode": "79682",
    "city": "Glashütte"
  },
  {
    "postcode": "79683",
    "city": "Bürchau"
  },
  {
    "postcode": "79685",
    "city": "Altenstein"
  },
  {
    "postcode": "79685",
    "city": "Häg-Ehrsberg"
  },
  {
    "postcode": "79685",
    "city": "Happach"
  },
  {
    "postcode": "79685",
    "city": "Rohmatt"
  },
  {
    "postcode": "79685",
    "city": "Rohrberg"
  },
  {
    "postcode": "79685",
    "city": "Schürberg"
  },
  {
    "postcode": "79685",
    "city": "Sonnenmatt"
  },
  {
    "postcode": "79685",
    "city": "Lörrach"
  },
  {
    "postcode": "79685",
    "city": "Ehrsberg"
  },
  {
    "postcode": "79686",
    "city": "Glashütten"
  },
  {
    "postcode": "79686",
    "city": "Hasel"
  },
  {
    "postcode": "79686",
    "city": "Lörrach"
  },
  {
    "postcode": "79688",
    "city": "Hausen im Wiesental"
  },
  {
    "postcode": "79688",
    "city": "Sattelhof"
  },
  {
    "postcode": "79688",
    "city": "Lörrach"
  },
  {
    "postcode": "79689",
    "city": "Maulburg"
  },
  {
    "postcode": "79689",
    "city": "Lörrach"
  },
  {
    "postcode": "79691",
    "city": "Hinterheubronn"
  },
  {
    "postcode": "79691",
    "city": "Mittelheubronn"
  },
  {
    "postcode": "79691",
    "city": "Neuenweg"
  },
  {
    "postcode": "79691",
    "city": "Vorderheubronn"
  },
  {
    "postcode": "79692",
    "city": "Ebigen"
  },
  {
    "postcode": "79692",
    "city": "Elbenschwand"
  },
  {
    "postcode": "79692",
    "city": "Hohenegg"
  },
  {
    "postcode": "79692",
    "city": "Holl"
  },
  {
    "postcode": "79692",
    "city": "Langensee"
  },
  {
    "postcode": "79692",
    "city": "Niedertegernau"
  },
  {
    "postcode": "79692",
    "city": "Raich"
  },
  {
    "postcode": "79692",
    "city": "Ried"
  },
  {
    "postcode": "79692",
    "city": "Sallneck"
  },
  {
    "postcode": "79692",
    "city": "Schwand"
  },
  {
    "postcode": "79692",
    "city": "Tegernau (Baden)"
  },
  {
    "postcode": "79692",
    "city": "Tegernau"
  },
  {
    "postcode": "79692",
    "city": "Lörrach"
  },
  {
    "postcode": "79692",
    "city": "Kleines Wiesental"
  },
  {
    "postcode": "79692",
    "city": "Neuenweg"
  },
  {
    "postcode": "79692",
    "city": "Bürchau"
  },
  {
    "postcode": "79692",
    "city": "Wies"
  },
  {
    "postcode": "79692",
    "city": "Wieslet"
  },
  {
    "postcode": "79692",
    "city": "Stockmatt"
  },
  {
    "postcode": "79692",
    "city": "Demberg"
  },
  {
    "postcode": "79692",
    "city": "Fischenberg"
  },
  {
    "postcode": "79692",
    "city": "Kühlenbronn"
  },
  {
    "postcode": "79692",
    "city": "Wambach"
  },
  {
    "postcode": "79694",
    "city": "Utzenfeld"
  },
  {
    "postcode": "79694",
    "city": "Lörrach"
  },
  {
    "postcode": "79695",
    "city": "Laitenbach"
  },
  {
    "postcode": "79695",
    "city": "Säge"
  },
  {
    "postcode": "79695",
    "city": "Wieden"
  },
  {
    "postcode": "79695",
    "city": "Wieden (Schwarzwald)"
  },
  {
    "postcode": "79695",
    "city": "Lörrach"
  },
  {
    "postcode": "79695",
    "city": "Graben"
  },
  {
    "postcode": "79695",
    "city": "Hüttbach"
  },
  {
    "postcode": "79695",
    "city": "Oberwieden"
  },
  {
    "postcode": "79695",
    "city": "Rütte"
  },
  {
    "postcode": "79695",
    "city": "Ungendwieden"
  },
  {
    "postcode": "79695",
    "city": "Warbach"
  },
  {
    "postcode": "79697",
    "city": "Demberg"
  },
  {
    "postcode": "79697",
    "city": "Kühlenbronn"
  },
  {
    "postcode": "79697",
    "city": "Stockmatt"
  },
  {
    "postcode": "79697",
    "city": "Wambach"
  },
  {
    "postcode": "79697",
    "city": "Wies"
  },
  {
    "postcode": "79697",
    "city": "Wies (Schwarzwald)"
  },
  {
    "postcode": "79699",
    "city": "Eichholz"
  },
  {
    "postcode": "79699",
    "city": "Wieslet"
  },
  {
    "postcode": "79713",
    "city": "Bad Säckingen"
  },
  {
    "postcode": "79713",
    "city": "Harpolingen"
  },
  {
    "postcode": "79713",
    "city": "Rippolingen"
  },
  {
    "postcode": "79713",
    "city": "Wallbach"
  },
  {
    "postcode": "79713",
    "city": "Waldshut"
  },
  {
    "postcode": "79725",
    "city": "Binzgen"
  },
  {
    "postcode": "79725",
    "city": "Grunholz"
  },
  {
    "postcode": "79725",
    "city": "Hauenstein"
  },
  {
    "postcode": "79725",
    "city": "Hochsal"
  },
  {
    "postcode": "79725",
    "city": "Laufenburg"
  },
  {
    "postcode": "79725",
    "city": "Laufenburg (Baden)"
  },
  {
    "postcode": "79725",
    "city": "Luttingen"
  },
  {
    "postcode": "79725",
    "city": "Rotzel"
  },
  {
    "postcode": "79725",
    "city": "Stadenhausen"
  },
  {
    "postcode": "79725",
    "city": "Waldshut"
  },
  {
    "postcode": "79725",
    "city": "Hammer"
  },
  {
    "postcode": "79730",
    "city": "Hänner"
  },
  {
    "postcode": "79730",
    "city": "Murg"
  },
  {
    "postcode": "79730",
    "city": "Murg (Baden)"
  },
  {
    "postcode": "79730",
    "city": "Murghammer"
  },
  {
    "postcode": "79730",
    "city": "Niederhof"
  },
  {
    "postcode": "79730",
    "city": "Oberhof"
  },
  {
    "postcode": "79730",
    "city": "Zechenwihl"
  },
  {
    "postcode": "79730",
    "city": "Waldshut"
  },
  {
    "postcode": "79733",
    "city": "Burg"
  },
  {
    "postcode": "79733",
    "city": "Engelschwand"
  },
  {
    "postcode": "79733",
    "city": "Görwihl"
  },
  {
    "postcode": "79733",
    "city": "Hartschwand"
  },
  {
    "postcode": "79733",
    "city": "Niederwihl"
  },
  {
    "postcode": "79733",
    "city": "Oberwihl"
  },
  {
    "postcode": "79733",
    "city": "Rotzingen"
  },
  {
    "postcode": "79733",
    "city": "Rüßwihl"
  },
  {
    "postcode": "79733",
    "city": "Segeten"
  },
  {
    "postcode": "79733",
    "city": "Strittmatt"
  },
  {
    "postcode": "79733",
    "city": "Tiefenstein"
  },
  {
    "postcode": "79733",
    "city": "Waldshut"
  },
  {
    "postcode": "79736",
    "city": "Altenschwand"
  },
  {
    "postcode": "79736",
    "city": "Bergalingen"
  },
  {
    "postcode": "79736",
    "city": "Egg"
  },
  {
    "postcode": "79736",
    "city": "Glashütten"
  },
  {
    "postcode": "79736",
    "city": "Hottingen"
  },
  {
    "postcode": "79736",
    "city": "Hütten"
  },
  {
    "postcode": "79736",
    "city": "Rickenbach"
  },
  {
    "postcode": "79736",
    "city": "Rickenbach (Hotzenw.)"
  },
  {
    "postcode": "79736",
    "city": "Schweikhof"
  },
  {
    "postcode": "79736",
    "city": "Strick"
  },
  {
    "postcode": "79736",
    "city": "Wieladingen"
  },
  {
    "postcode": "79736",
    "city": "Willaringen"
  },
  {
    "postcode": "79736",
    "city": "Waldshut"
  },
  {
    "postcode": "79736",
    "city": "Hennenmatt"
  },
  {
    "postcode": "79737",
    "city": "Giersbach"
  },
  {
    "postcode": "79737",
    "city": "Großherrischwand"
  },
  {
    "postcode": "79737",
    "city": "Herrischried"
  },
  {
    "postcode": "79737",
    "city": "Hogschür"
  },
  {
    "postcode": "79737",
    "city": "Hornberg"
  },
  {
    "postcode": "79737",
    "city": "Kleinherrischwand"
  },
  {
    "postcode": "79737",
    "city": "Lochmatt"
  },
  {
    "postcode": "79737",
    "city": "Niedergebisbach"
  },
  {
    "postcode": "79737",
    "city": "Obergebisbach"
  },
  {
    "postcode": "79737",
    "city": "Rütte"
  },
  {
    "postcode": "79737",
    "city": "Stehle"
  },
  {
    "postcode": "79737",
    "city": "Wehrhalden"
  },
  {
    "postcode": "79737",
    "city": "Waldshut"
  },
  {
    "postcode": "79739",
    "city": "Dossenbach"
  },
  {
    "postcode": "79739",
    "city": "Niederdossenbach"
  },
  {
    "postcode": "79739",
    "city": "Schwörstadt"
  },
  {
    "postcode": "79739",
    "city": "Lörrach"
  },
  {
    "postcode": "79761",
    "city": "Aichen"
  },
  {
    "postcode": "79761",
    "city": "Aispel"
  },
  {
    "postcode": "79761",
    "city": "Allmut"
  },
  {
    "postcode": "79761",
    "city": "Breitenfeld"
  },
  {
    "postcode": "79761",
    "city": "Bürglen"
  },
  {
    "postcode": "79761",
    "city": "Detzeln"
  },
  {
    "postcode": "79761",
    "city": "Eschbach"
  },
  {
    "postcode": "79761",
    "city": "Gaiß"
  },
  {
    "postcode": "79761",
    "city": "Gurtweil"
  },
  {
    "postcode": "79761",
    "city": "Gutenburg"
  },
  {
    "postcode": "79761",
    "city": "Indlekofen"
  },
  {
    "postcode": "79761",
    "city": "Krenkingen"
  },
  {
    "postcode": "79761",
    "city": "Oberalpfen"
  },
  {
    "postcode": "79761",
    "city": "Schmitzingen"
  },
  {
    "postcode": "79761",
    "city": "Waldkirch"
  },
  {
    "postcode": "79761",
    "city": "Waldshut-Tiengen"
  },
  {
    "postcode": "79761",
    "city": "Waldshut"
  },
  {
    "postcode": "79761",
    "city": "Tiengen"
  },
  {
    "postcode": "79761",
    "city": "Tiengen-Homburg"
  },
  {
    "postcode": "79761",
    "city": "Schmittenau"
  },
  {
    "postcode": "79761",
    "city": "Liedermatten"
  },
  {
    "postcode": "79771",
    "city": "Bühl"
  },
  {
    "postcode": "79771",
    "city": "Erzingen"
  },
  {
    "postcode": "79771",
    "city": "Geißlingen"
  },
  {
    "postcode": "79771",
    "city": "Grießen"
  },
  {
    "postcode": "79771",
    "city": "Klettgau"
  },
  {
    "postcode": "79771",
    "city": "Rechberg"
  },
  {
    "postcode": "79771",
    "city": "Waldshut"
  },
  {
    "postcode": "79771",
    "city": "Weisweil"
  },
  {
    "postcode": "79771",
    "city": "Riedern am Sand"
  },
  {
    "postcode": "79774",
    "city": "Albbruck"
  },
  {
    "postcode": "79774",
    "city": "Albert"
  },
  {
    "postcode": "79774",
    "city": "Birkingen"
  },
  {
    "postcode": "79774",
    "city": "Birndorf"
  },
  {
    "postcode": "79774",
    "city": "Buch"
  },
  {
    "postcode": "79774",
    "city": "Etzwihl"
  },
  {
    "postcode": "79774",
    "city": "Haide"
  },
  {
    "postcode": "79774",
    "city": "Hechwihl"
  },
  {
    "postcode": "79774",
    "city": "Hohenfels"
  },
  {
    "postcode": "79774",
    "city": "Kiesenbach"
  },
  {
    "postcode": "79774",
    "city": "Schachen"
  },
  {
    "postcode": "79774",
    "city": "Schadenbirndorf"
  },
  {
    "postcode": "79774",
    "city": "Steinbach"
  },
  {
    "postcode": "79774",
    "city": "Unteralpfen"
  },
  {
    "postcode": "79774",
    "city": "Waldshut"
  },
  {
    "postcode": "79777",
    "city": "Berau"
  },
  {
    "postcode": "79777",
    "city": "Birkendorf"
  },
  {
    "postcode": "79777",
    "city": "Brenden"
  },
  {
    "postcode": "79777",
    "city": "Hürrlingen"
  },
  {
    "postcode": "79777",
    "city": "Igelschlatt"
  },
  {
    "postcode": "79777",
    "city": "Löhningen"
  },
  {
    "postcode": "79777",
    "city": "Obermettingen"
  },
  {
    "postcode": "79777",
    "city": "Rassbach"
  },
  {
    "postcode": "79777",
    "city": "Riedern am Wald"
  },
  {
    "postcode": "79777",
    "city": "Stadt Waldshut-Tiengen"
  },
  {
    "postcode": "79777",
    "city": "Ühlingen"
  },
  {
    "postcode": "79777",
    "city": "Ühlingen-Birkendorf"
  },
  {
    "postcode": "79777",
    "city": "Untermettingen"
  },
  {
    "postcode": "79777",
    "city": "Witznau"
  },
  {
    "postcode": "79777",
    "city": "Waldshut"
  },
  {
    "postcode": "79777",
    "city": "Stühlingen"
  },
  {
    "postcode": "79777",
    "city": "Waldshut-Tiengen"
  },
  {
    "postcode": "79777",
    "city": "Raßbach"
  },
  {
    "postcode": "79777",
    "city": "Riedern a.W."
  },
  {
    "postcode": "79777",
    "city": "Witzhalden"
  },
  {
    "postcode": "79777",
    "city": "Scheurenhöfe"
  },
  {
    "postcode": "79777",
    "city": "Talhöfe"
  },
  {
    "postcode": "79780",
    "city": "Bettmaringen"
  },
  {
    "postcode": "79780",
    "city": "Blumegg"
  },
  {
    "postcode": "79780",
    "city": "Eberfingen"
  },
  {
    "postcode": "79780",
    "city": "Grimmelshofen"
  },
  {
    "postcode": "79780",
    "city": "Lausheim"
  },
  {
    "postcode": "79780",
    "city": "Mauchen"
  },
  {
    "postcode": "79780",
    "city": "Oberwangen"
  },
  {
    "postcode": "79780",
    "city": "Schwaningen"
  },
  {
    "postcode": "79780",
    "city": "Stühlingen"
  },
  {
    "postcode": "79780",
    "city": "Unterwangen"
  },
  {
    "postcode": "79780",
    "city": "Weizen"
  },
  {
    "postcode": "79780",
    "city": "Waldshut"
  },
  {
    "postcode": "79780",
    "city": "Wangen"
  },
  {
    "postcode": "79787",
    "city": "Lauchringen"
  },
  {
    "postcode": "79787",
    "city": "Oberlauchringen"
  },
  {
    "postcode": "79787",
    "city": "Unterlauchringen"
  },
  {
    "postcode": "79787",
    "city": "Waldshut"
  },
  {
    "postcode": "79790",
    "city": "Bechtersbohl"
  },
  {
    "postcode": "79790",
    "city": "Dangstetten"
  },
  {
    "postcode": "79790",
    "city": "Ettikon"
  },
  {
    "postcode": "79790",
    "city": "Gemeinde Lauchringen"
  },
  {
    "postcode": "79790",
    "city": "Kadelburg"
  },
  {
    "postcode": "79790",
    "city": "Küßnach"
  },
  {
    "postcode": "79790",
    "city": "Küssaberg"
  },
  {
    "postcode": "79790",
    "city": "Reckingen"
  },
  {
    "postcode": "79790",
    "city": "Waldshut"
  },
  {
    "postcode": "79790",
    "city": "Rheinheim"
  },
  {
    "postcode": "79793",
    "city": "Degernau"
  },
  {
    "postcode": "79793",
    "city": "Horheim"
  },
  {
    "postcode": "79793",
    "city": "Ofteringen"
  },
  {
    "postcode": "79793",
    "city": "Schwerzen"
  },
  {
    "postcode": "79793",
    "city": "Willmendingen"
  },
  {
    "postcode": "79793",
    "city": "Wutöschingen"
  },
  {
    "postcode": "79793",
    "city": "Waldshut"
  },
  {
    "postcode": "79798",
    "city": "Altenburg"
  },
  {
    "postcode": "79798",
    "city": "Jestetten"
  },
  {
    "postcode": "79798",
    "city": "Waldshut"
  },
  {
    "postcode": "79801",
    "city": "Bergöschingen"
  },
  {
    "postcode": "79801",
    "city": "Günzgen"
  },
  {
    "postcode": "79801",
    "city": "Herdern"
  },
  {
    "postcode": "79801",
    "city": "Hohentengen"
  },
  {
    "postcode": "79801",
    "city": "Hohentengen am Hochrhein"
  },
  {
    "postcode": "79801",
    "city": "Lienheim"
  },
  {
    "postcode": "79801",
    "city": "Stetten"
  },
  {
    "postcode": "79801",
    "city": "Waldshut"
  },
  {
    "postcode": "79802",
    "city": "Baltersweil"
  },
  {
    "postcode": "79802",
    "city": "Berwangen"
  },
  {
    "postcode": "79802",
    "city": "Dettighofen"
  },
  {
    "postcode": "79802",
    "city": "Waldshut"
  },
  {
    "postcode": "79804",
    "city": "Dogern"
  },
  {
    "postcode": "79804",
    "city": "Waldshut"
  },
  {
    "postcode": "79805",
    "city": "Eggingen Kreis Waldshut"
  },
  {
    "postcode": "79805",
    "city": "Eggingen"
  },
  {
    "postcode": "79805",
    "city": "Obereggingen"
  },
  {
    "postcode": "79805",
    "city": "Untereggingen"
  },
  {
    "postcode": "79805",
    "city": "Waldshut"
  },
  {
    "postcode": "79807",
    "city": "Balm"
  },
  {
    "postcode": "79807",
    "city": "Lottstetten"
  },
  {
    "postcode": "79807",
    "city": "Nack"
  },
  {
    "postcode": "79807",
    "city": "Waldshut"
  },
  {
    "postcode": "79807",
    "city": "Dietenberg"
  },
  {
    "postcode": "79807",
    "city": "Nachermühle"
  },
  {
    "postcode": "79809",
    "city": "Ay"
  },
  {
    "postcode": "79809",
    "city": "Bannholz"
  },
  {
    "postcode": "79809",
    "city": "Brunnadern"
  },
  {
    "postcode": "79809",
    "city": "Dietlingen"
  },
  {
    "postcode": "79809",
    "city": "Nöggenschwiel"
  },
  {
    "postcode": "79809",
    "city": "Oberbierbronnen"
  },
  {
    "postcode": "79809",
    "city": "Remetschwiel"
  },
  {
    "postcode": "79809",
    "city": "Rohr"
  },
  {
    "postcode": "79809",
    "city": "Schnörringen"
  },
  {
    "postcode": "79809",
    "city": "Unterbierbronnen"
  },
  {
    "postcode": "79809",
    "city": "Weilheim"
  },
  {
    "postcode": "79809",
    "city": "Weilheim (Kreis Waldshut)"
  },
  {
    "postcode": "79809",
    "city": "Waldshut"
  },
  {
    "postcode": "79809",
    "city": "Aisperg"
  },
  {
    "postcode": "79809",
    "city": "Außer Ay"
  },
  {
    "postcode": "79809",
    "city": "Brunnardern"
  },
  {
    "postcode": "79809",
    "city": "Heubach"
  },
  {
    "postcode": "79809",
    "city": "Maria Bronnen"
  },
  {
    "postcode": "79809",
    "city": "Waldhaus"
  },
  {
    "postcode": "79822",
    "city": "Bruckbach"
  },
  {
    "postcode": "79822",
    "city": "Bruderhalde"
  },
  {
    "postcode": "79822",
    "city": "Eckbach"
  },
  {
    "postcode": "79822",
    "city": "Gemeinde Hinterzarten"
  },
  {
    "postcode": "79822",
    "city": "Jostal"
  },
  {
    "postcode": "79822",
    "city": "Neustadt"
  },
  {
    "postcode": "79822",
    "city": "Schildwende"
  },
  {
    "postcode": "79822",
    "city": "Siedelbach"
  },
  {
    "postcode": "79822",
    "city": "Titisee"
  },
  {
    "postcode": "79822",
    "city": "Titisee-Neustadt"
  },
  {
    "postcode": "79822",
    "city": "Waldau"
  },
  {
    "postcode": "79822",
    "city": "Breisgau-Hochschwarzwald"
  },
  {
    "postcode": "79822",
    "city": "Langenordnach"
  },
  {
    "postcode": "79822",
    "city": "Rudenberg"
  },
  {
    "postcode": "79822",
    "city": "Schwärzenbach"
  },
  {
    "postcode": "79837",
    "city": "Ballenberg"
  },
  {
    "postcode": "79837",
    "city": "Häusern (Schwarzwald)"
  },
  {
    "postcode": "79837",
    "city": "Häusern"
  },
  {
    "postcode": "79837",
    "city": "Ibach Schwarzwald"
  },
  {
    "postcode": "79837",
    "city": "Ibach"
  },
  {
    "postcode": "79837",
    "city": "Immeneich"
  },
  {
    "postcode": "79837",
    "city": "Menzenschwand"
  },
  {
    "postcode": "79837",
    "city": "Mutterslehen"
  },
  {
    "postcode": "79837",
    "city": "Niedermühle"
  },
  {
    "postcode": "79837",
    "city": "Oberkutterau"
  },
  {
    "postcode": "79837",
    "city": "Sankt Blasien"
  },
  {
    "postcode": "79837",
    "city": "Schlageten"
  },
  {
    "postcode": "79837",
    "city": "Waldshut"
  },
  {
    "postcode": "79837",
    "city": "St. Blasien"
  },
  {
    "postcode": "79837",
    "city": "Oberibach"
  },
  {
    "postcode": "79837",
    "city": "Unteribach"
  },
  {
    "postcode": "79837",
    "city": "Lindau"
  },
  {
    "postcode": "79837",
    "city": "Albtal"
  },
  {
    "postcode": "79837",
    "city": "Gemeinde Dachsberg"
  },
  {
    "postcode": "79843",
    "city": "Bachheim"
  },
  {
    "postcode": "79843",
    "city": "Dittishausen"
  },
  {
    "postcode": "79843",
    "city": "Göschweiler"
  },
  {
    "postcode": "79843",
    "city": "Löffingen"
  },
  {
    "postcode": "79843",
    "city": "Reiselfingen"
  },
  {
    "postcode": "79843",
    "city": "Seppenhofen"
  },
  {
    "postcode": "79843",
    "city": "Unadingen"
  },
  {
    "postcode": "79843",
    "city": "Breisgau-Hochschwarzwald"
  },
  {
    "postcode": "79848",
    "city": "Boll"
  },
  {
    "postcode": "79848",
    "city": "Bonndorf"
  },
  {
    "postcode": "79848",
    "city": "Bonndorf im Schwarzwald"
  },
  {
    "postcode": "79848",
    "city": "Brunnadern"
  },
  {
    "postcode": "79848",
    "city": "Dillendorf"
  },
  {
    "postcode": "79848",
    "city": "Ebnet"
  },
  {
    "postcode": "79848",
    "city": "Glashütte"
  },
  {
    "postcode": "79848",
    "city": "Gündelwangen"
  },
  {
    "postcode": "79848",
    "city": "Holzschlag"
  },
  {
    "postcode": "79848",
    "city": "Wellendingen"
  },
  {
    "postcode": "79848",
    "city": "Wittlekofen"
  },
  {
    "postcode": "79848",
    "city": "Waldshut"
  },
  {
    "postcode": "79853",
    "city": "Grünwald"
  },
  {
    "postcode": "79853",
    "city": "Kappel"
  },
  {
    "postcode": "79853",
    "city": "Lenzkirch"
  },
  {
    "postcode": "79853",
    "city": "Saig"
  },
  {
    "postcode": "79853",
    "city": "Breisgau-Hochschwarzwald"
  },
  {
    "postcode": "79853",
    "city": "Raitenbuch"
  },
  {
    "postcode": "79853",
    "city": "Schluchsee"
  },
  {
    "postcode": "79856",
    "city": "Hinterzarten"
  },
  {
    "postcode": "79856",
    "city": "Höllsteig"
  },
  {
    "postcode": "79856",
    "city": "Ödenbach"
  },
  {
    "postcode": "79856",
    "city": "Breisgau-Hochschwarzwald"
  },
  {
    "postcode": "79859",
    "city": "Aeule"
  },
  {
    "postcode": "79859",
    "city": "Aha"
  },
  {
    "postcode": "79859",
    "city": "Althütte"
  },
  {
    "postcode": "79859",
    "city": "Eisenbreche"
  },
  {
    "postcode": "79859",
    "city": "Faulenfürst"
  },
  {
    "postcode": "79859",
    "city": "Fischbach"
  },
  {
    "postcode": "79859",
    "city": "Schluchsee"
  },
  {
    "postcode": "79859",
    "city": "Schönenbach"
  },
  {
    "postcode": "79859",
    "city": "Seebrugg"
  },
  {
    "postcode": "79859",
    "city": "Breisgau-Hochschwarzwald"
  },
  {
    "postcode": "79859",
    "city": "Äule"
  },
  {
    "postcode": "79859",
    "city": "Blasiwald"
  },
  {
    "postcode": "79859",
    "city": "Dresselbach"
  },
  {
    "postcode": "79862",
    "city": "Amrigschwand"
  },
  {
    "postcode": "79862",
    "city": "Attlisberg"
  },
  {
    "postcode": "79862",
    "city": "Ellmenegg"
  },
  {
    "postcode": "79862",
    "city": "Frohnschwand"
  },
  {
    "postcode": "79862",
    "city": "Heppenschwand"
  },
  {
    "postcode": "79862",
    "city": "Höchenschwand"
  },
  {
    "postcode": "79862",
    "city": "Segalen"
  },
  {
    "postcode": "79862",
    "city": "Strittberg"
  },
  {
    "postcode": "79862",
    "city": "Tiefenhäusern"
  },
  {
    "postcode": "79862",
    "city": "Waldshut"
  },
  {
    "postcode": "79862",
    "city": "Steinreusche"
  },
  {
    "postcode": "79865",
    "city": "Balzhausen"
  },
  {
    "postcode": "79865",
    "city": "Bulgenbach"
  },
  {
    "postcode": "79865",
    "city": "Grafenhausen"
  },
  {
    "postcode": "79865",
    "city": "Grafenhausen (Hochschwarzwald)"
  },
  {
    "postcode": "79865",
    "city": "Mettenberg"
  },
  {
    "postcode": "79865",
    "city": "Rothaus"
  },
  {
    "postcode": "79865",
    "city": "Staufen"
  },
  {
    "postcode": "79865",
    "city": "Waldshut"
  },
  {
    "postcode": "79865",
    "city": "Ühlingen-Birkendorf"
  },
  {
    "postcode": "79868",
    "city": "Altglashütten"
  },
  {
    "postcode": "79868",
    "city": "Bärental"
  },
  {
    "postcode": "79868",
    "city": "Feldberg (Schwarzwald)"
  },
  {
    "postcode": "79868",
    "city": "Feldberg"
  },
  {
    "postcode": "79868",
    "city": "Neuglashütten"
  },
  {
    "postcode": "79868",
    "city": "Breisgau-Hochschwarzwald"
  },
  {
    "postcode": "79868",
    "city": "Falkau"
  },
  {
    "postcode": "79868",
    "city": "Feldberg-Ort"
  },
  {
    "postcode": "79868",
    "city": "Hinterfalkau"
  },
  {
    "postcode": "79868",
    "city": "Gemeinde Lenzkirch"
  },
  {
    "postcode": "79868",
    "city": "Mittelfalkau"
  },
  {
    "postcode": "79871",
    "city": "Bubenbach"
  },
  {
    "postcode": "79871",
    "city": "Eisenbach (Hochschwarzwald)"
  },
  {
    "postcode": "79871",
    "city": "Eisenbach"
  },
  {
    "postcode": "79871",
    "city": "Hinterschollach"
  },
  {
    "postcode": "79871",
    "city": "Oberbränd"
  },
  {
    "postcode": "79871",
    "city": "Breisgau-Hochschwarzwald"
  },
  {
    "postcode": "79872",
    "city": "Altenrond"
  },
  {
    "postcode": "79872",
    "city": "Bernau"
  },
  {
    "postcode": "79872",
    "city": "Bernau im Schwarzwald"
  },
  {
    "postcode": "79872",
    "city": "Dorf"
  },
  {
    "postcode": "79872",
    "city": "Gaß"
  },
  {
    "postcode": "79872",
    "city": "Innerlehen"
  },
  {
    "postcode": "79872",
    "city": "Oberlehen"
  },
  {
    "postcode": "79872",
    "city": "Riggenbach"
  },
  {
    "postcode": "79872",
    "city": "Unterlehen"
  },
  {
    "postcode": "79872",
    "city": "Waldshut"
  },
  {
    "postcode": "79872",
    "city": "Weierle"
  },
  {
    "postcode": "79872",
    "city": "Bernau-Hof"
  },
  {
    "postcode": "79872",
    "city": "Hof"
  },
  {
    "postcode": "79874",
    "city": "Breitnau"
  },
  {
    "postcode": "79874",
    "city": "Fahrenberg"
  },
  {
    "postcode": "79874",
    "city": "Turner"
  },
  {
    "postcode": "79874",
    "city": "Breisgau-Hochschwarzwald"
  },
  {
    "postcode": "79875",
    "city": "Dachsberg (Südschwarzwald)"
  },
  {
    "postcode": "79875",
    "city": "Dachsberg"
  },
  {
    "postcode": "79875",
    "city": "Finsterlingen"
  },
  {
    "postcode": "79875",
    "city": "Happingen"
  },
  {
    "postcode": "79875",
    "city": "Hierbach"
  },
  {
    "postcode": "79875",
    "city": "Hierholz"
  },
  {
    "postcode": "79875",
    "city": "Ruchenschwand"
  },
  {
    "postcode": "79875",
    "city": "Urberg"
  },
  {
    "postcode": "79875",
    "city": "Vogelbach"
  },
  {
    "postcode": "79875",
    "city": "Wilfingen"
  },
  {
    "postcode": "79875",
    "city": "Wittenschwand"
  },
  {
    "postcode": "79875",
    "city": "Wolpadingen"
  },
  {
    "postcode": "79875",
    "city": "Waldshut"
  },
  {
    "postcode": "79875",
    "city": "Luchle"
  },
  {
    "postcode": "79875",
    "city": "Inner-Urberg"
  },
  {
    "postcode": "79875",
    "city": "Außer-Urberg"
  },
  {
    "postcode": "79875",
    "city": "Horbach"
  },
  {
    "postcode": "79875",
    "city": "Fröhnd"
  },
  {
    "postcode": "79875",
    "city": "Ennersbach"
  },
  {
    "postcode": "79875",
    "city": "Höll"
  },
  {
    "postcode": "79875",
    "city": "Laithe"
  },
  {
    "postcode": "79875",
    "city": "Rüttewies"
  },
  {
    "postcode": "79875",
    "city": "Schmalenberg"
  },
  {
    "postcode": "79875",
    "city": "Schwand"
  },
  {
    "postcode": "79877",
    "city": "Friedenweiler"
  },
  {
    "postcode": "79877",
    "city": "Rötenbach"
  },
  {
    "postcode": "79877",
    "city": "Breisgau-Hochschwarzwald"
  },
  {
    "postcode": "79879",
    "city": "Ewattingen"
  },
  {
    "postcode": "79879",
    "city": "Lembach"
  },
  {
    "postcode": "79879",
    "city": "Münchingen"
  },
  {
    "postcode": "79879",
    "city": "Wutach"
  },
  {
    "postcode": "79879",
    "city": "Waldshut"
  }
]