[
  {
    "postcode": "6618",
    "city": "Casekirchen"
  },
  {
    "postcode": "6618",
    "city": "Gieckau"
  },
  {
    "postcode": "6618",
    "city": "Görschen"
  },
  {
    "postcode": "6618",
    "city": "Janisroda"
  },
  {
    "postcode": "6618",
    "city": "Leislau"
  },
  {
    "postcode": "6618",
    "city": "Löbitz"
  },
  {
    "postcode": "6618",
    "city": "Mertendorf bei Naumburg"
  },
  {
    "postcode": "6618",
    "city": "Molau"
  },
  {
    "postcode": "6618",
    "city": "Naumburg (Saale)"
  },
  {
    "postcode": "6618",
    "city": "Naumburg"
  },
  {
    "postcode": "6618",
    "city": "Pödelist"
  },
  {
    "postcode": "6618",
    "city": "Prießnitz bei Naumburg"
  },
  {
    "postcode": "6618",
    "city": "Schönburg bei Naumburg"
  },
  {
    "postcode": "6618",
    "city": "Utenbach bei Naumburg"
  },
  {
    "postcode": "6618",
    "city": "Wethau"
  },
  {
    "postcode": "6618",
    "city": "Burgenlandkreis"
  },
  {
    "postcode": "6618",
    "city": "Mertendorf"
  },
  {
    "postcode": "6618",
    "city": "Molauer Land"
  },
  {
    "postcode": "6618",
    "city": "Schönburg"
  },
  {
    "postcode": "6618",
    "city": "Pauscha"
  },
  {
    "postcode": "6618",
    "city": "Cauerwitz"
  },
  {
    "postcode": "6618",
    "city": "Wetterscheidt"
  },
  {
    "postcode": "6618",
    "city": "Punkewitz"
  },
  {
    "postcode": "6618",
    "city": "Großgestewitz"
  },
  {
    "postcode": "6618",
    "city": "Droitzen"
  },
  {
    "postcode": "6618",
    "city": "Rathewitz"
  },
  {
    "postcode": "6618",
    "city": "Scheiplitz"
  },
  {
    "postcode": "6618",
    "city": "Seiselitz"
  },
  {
    "postcode": "6618",
    "city": "Utenbach"
  },
  {
    "postcode": "6618",
    "city": "Abtlöbnitz"
  },
  {
    "postcode": "6618",
    "city": "Aue"
  },
  {
    "postcode": "6618",
    "city": "Crauschwitz"
  },
  {
    "postcode": "6618",
    "city": "Köckenitzsch"
  },
  {
    "postcode": "6618",
    "city": "Kleingestewitz"
  },
  {
    "postcode": "6618",
    "city": "Mollschütz"
  },
  {
    "postcode": "6618",
    "city": "Seidewitz"
  },
  {
    "postcode": "6618",
    "city": "Sieglitz"
  },
  {
    "postcode": "6618",
    "city": "Flemmingen"
  },
  {
    "postcode": "6618",
    "city": "Meyhen"
  },
  {
    "postcode": "6618",
    "city": "Prießnitz"
  },
  {
    "postcode": "6618",
    "city": "Boblas"
  },
  {
    "postcode": "6618",
    "city": "Eulau"
  },
  {
    "postcode": "6618",
    "city": "Neidschütz"
  },
  {
    "postcode": "6618",
    "city": "Großwilsdorf"
  },
  {
    "postcode": "6618",
    "city": "Roßbach"
  },
  {
    "postcode": "6618",
    "city": "Kleinjena"
  },
  {
    "postcode": "6618",
    "city": "Großjena"
  },
  {
    "postcode": "6618",
    "city": "Henne"
  },
  {
    "postcode": "6618",
    "city": "Schellsitz"
  },
  {
    "postcode": "6618",
    "city": "Beuditz"
  },
  {
    "postcode": "6618",
    "city": "Wettaburg"
  },
  {
    "postcode": "6618",
    "city": "Neuflemmingen"
  },
  {
    "postcode": "6618",
    "city": "Neujanisroda"
  },
  {
    "postcode": "6618",
    "city": "Heiligenkreuz"
  },
  {
    "postcode": "6618",
    "city": "Weinberge"
  },
  {
    "postcode": "6618",
    "city": "Weichau"
  },
  {
    "postcode": "6618",
    "city": "Kroppental"
  },
  {
    "postcode": "6618",
    "city": "Possenhain"
  },
  {
    "postcode": "6618",
    "city": "Schmerdorf"
  },
  {
    "postcode": "6618",
    "city": "Pohlitz"
  },
  {
    "postcode": "6628",
    "city": "Abtlöbnitz"
  },
  {
    "postcode": "6628",
    "city": "Bad Kösen"
  },
  {
    "postcode": "6628",
    "city": "Crölpa-Löbschütz"
  },
  {
    "postcode": "6628",
    "city": "Möllern"
  },
  {
    "postcode": "6628",
    "city": "Spielberg bei Naumburg"
  },
  {
    "postcode": "6628",
    "city": "Taugwitz"
  },
  {
    "postcode": "6628",
    "city": "Burgenlandkreis"
  },
  {
    "postcode": "6628",
    "city": "Lanitz-Hassel-Tal"
  },
  {
    "postcode": "6628",
    "city": "Naumburg (Saale)"
  },
  {
    "postcode": "6628",
    "city": "Benndorf"
  },
  {
    "postcode": "6628",
    "city": "Gernstedt"
  },
  {
    "postcode": "6628",
    "city": "Hohndorf"
  },
  {
    "postcode": "6628",
    "city": "Niedermöllern"
  },
  {
    "postcode": "6628",
    "city": "Obermöllern"
  },
  {
    "postcode": "6628",
    "city": "Pomnitz"
  },
  {
    "postcode": "6628",
    "city": "Poppel"
  },
  {
    "postcode": "6628",
    "city": "Rehehausen"
  },
  {
    "postcode": "6628",
    "city": "Spielberg"
  },
  {
    "postcode": "6628",
    "city": "Zäckwar"
  },
  {
    "postcode": "6628",
    "city": "Saaleck"
  },
  {
    "postcode": "6628",
    "city": "Schulpforte"
  },
  {
    "postcode": "6628",
    "city": "Kleinheringen"
  },
  {
    "postcode": "6628",
    "city": "Fränkenau"
  },
  {
    "postcode": "6628",
    "city": "Freiroda"
  },
  {
    "postcode": "6628",
    "city": "Hassenhausen"
  },
  {
    "postcode": "6628",
    "city": "Kukulau"
  },
  {
    "postcode": "6628",
    "city": "Punschrau"
  },
  {
    "postcode": "6628",
    "city": "Rödigen"
  },
  {
    "postcode": "6628",
    "city": "Schieben"
  },
  {
    "postcode": "6628",
    "city": "Tultewitz"
  },
  {
    "postcode": "6628",
    "city": "Kreipitzsch"
  },
  {
    "postcode": "6628",
    "city": "Naumburg"
  },
  {
    "postcode": "6632",
    "city": "Balgstädt"
  },
  {
    "postcode": "6632",
    "city": "Baumersroda"
  },
  {
    "postcode": "6632",
    "city": "Branderoda"
  },
  {
    "postcode": "6632",
    "city": "Ebersroda"
  },
  {
    "postcode": "6632",
    "city": "Freyburg (Unstrut)"
  },
  {
    "postcode": "6632",
    "city": "Freyburg"
  },
  {
    "postcode": "6632",
    "city": "Gleina bei Naumburg"
  },
  {
    "postcode": "6632",
    "city": "Größnitz"
  },
  {
    "postcode": "6632",
    "city": "Gröst"
  },
  {
    "postcode": "6632",
    "city": "Schleberoda"
  },
  {
    "postcode": "6632",
    "city": "Zeuchfeld"
  },
  {
    "postcode": "6632",
    "city": "Burgenlandkreis"
  },
  {
    "postcode": "6632",
    "city": "Gleina"
  },
  {
    "postcode": "6632",
    "city": "Burkersroda"
  },
  {
    "postcode": "6632",
    "city": "Dietrichsroda"
  },
  {
    "postcode": "6632",
    "city": "Hirschroda"
  },
  {
    "postcode": "6632",
    "city": "Städten"
  },
  {
    "postcode": "6632",
    "city": "Zscheiplitz"
  },
  {
    "postcode": "6632",
    "city": "Pödelist"
  },
  {
    "postcode": "6632",
    "city": "Nißmitz"
  },
  {
    "postcode": "6632",
    "city": "Weischütz"
  },
  {
    "postcode": "6632",
    "city": "Dobichau"
  },
  {
    "postcode": "6632",
    "city": "Müncheroda"
  },
  {
    "postcode": "6632",
    "city": "Almsdorf"
  },
  {
    "postcode": "6636",
    "city": "Burgscheidungen"
  },
  {
    "postcode": "6636",
    "city": "Golzen"
  },
  {
    "postcode": "6636",
    "city": "Hirschroda bei Naumburg"
  },
  {
    "postcode": "6636",
    "city": "Kirchscheidungen"
  },
  {
    "postcode": "6636",
    "city": "Laucha an der Unstrut"
  },
  {
    "postcode": "6636",
    "city": "Weischütz"
  },
  {
    "postcode": "6636",
    "city": "Burgenlandkreis"
  },
  {
    "postcode": "6636",
    "city": "Laucha"
  },
  {
    "postcode": "6636",
    "city": "Tröbsdorf"
  },
  {
    "postcode": "6636",
    "city": "Dorndorf"
  },
  {
    "postcode": "6636",
    "city": "Plößnitz"
  },
  {
    "postcode": "6638",
    "city": "Karsdorf Unstrut"
  },
  {
    "postcode": "6638",
    "city": "Karsdorf"
  },
  {
    "postcode": "6638",
    "city": "Burgenlandkreis"
  },
  {
    "postcode": "6638",
    "city": "Wennungen"
  },
  {
    "postcode": "6638",
    "city": "Wetzendorf"
  },
  {
    "postcode": "6642",
    "city": "Altenroda"
  },
  {
    "postcode": "6642",
    "city": "Bucha bei Naumburg"
  },
  {
    "postcode": "6642",
    "city": "Memleben"
  },
  {
    "postcode": "6642",
    "city": "Nebra (Unstrut)"
  },
  {
    "postcode": "6642",
    "city": "Nebra"
  },
  {
    "postcode": "6642",
    "city": "Reinsdorf bei Naumburg"
  },
  {
    "postcode": "6642",
    "city": "Wangen bei Naumburg"
  },
  {
    "postcode": "6642",
    "city": "Wohlmirstedt"
  },
  {
    "postcode": "6642",
    "city": "Burgenlandkreis"
  },
  {
    "postcode": "6642",
    "city": "Kaiserpfalz"
  },
  {
    "postcode": "6642",
    "city": "Bucha"
  },
  {
    "postcode": "6642",
    "city": "Allerstedt"
  },
  {
    "postcode": "6642",
    "city": "Zeisdorf"
  },
  {
    "postcode": "6642",
    "city": "Wendelstein"
  },
  {
    "postcode": "6642",
    "city": "Kleinwangen"
  },
  {
    "postcode": "6642",
    "city": "Großwangen"
  },
  {
    "postcode": "6642",
    "city": "Reinsdorf"
  },
  {
    "postcode": "6642",
    "city": "Wangen"
  },
  {
    "postcode": "6647",
    "city": "Bad Bibra"
  },
  {
    "postcode": "6647",
    "city": "Billroda"
  },
  {
    "postcode": "6647",
    "city": "Burkersroda"
  },
  {
    "postcode": "6647",
    "city": "Kahlwinkel"
  },
  {
    "postcode": "6647",
    "city": "Klosterhäseler"
  },
  {
    "postcode": "6647",
    "city": "Lossa bei Naumburg"
  },
  {
    "postcode": "6647",
    "city": "Saubach"
  },
  {
    "postcode": "6647",
    "city": "Steinburg bei Naumburg"
  },
  {
    "postcode": "6647",
    "city": "Thalwinkel"
  },
  {
    "postcode": "6647",
    "city": "Wischroda"
  },
  {
    "postcode": "6647",
    "city": "Burgenlandkreis"
  },
  {
    "postcode": "6647",
    "city": "An der Poststraße"
  },
  {
    "postcode": "6647",
    "city": "Finne"
  },
  {
    "postcode": "6647",
    "city": "Finneland"
  },
  {
    "postcode": "6647",
    "city": "Gößnitz"
  },
  {
    "postcode": "6647",
    "city": "Pleismar"
  },
  {
    "postcode": "6647",
    "city": "Herrengosserstedt"
  },
  {
    "postcode": "6647",
    "city": "Braunsroda"
  },
  {
    "postcode": "6647",
    "city": "Burgheßler"
  },
  {
    "postcode": "6647",
    "city": "Frankroda"
  },
  {
    "postcode": "6647",
    "city": "Schimmel"
  },
  {
    "postcode": "6647",
    "city": "Altenroda"
  },
  {
    "postcode": "6647",
    "city": "Wippach"
  },
  {
    "postcode": "6647",
    "city": "Golzen"
  },
  {
    "postcode": "6647",
    "city": "Steinbach"
  },
  {
    "postcode": "6647",
    "city": "Birkigt"
  },
  {
    "postcode": "6647",
    "city": "Wallroda"
  },
  {
    "postcode": "6647",
    "city": "Kalbitz"
  },
  {
    "postcode": "6647",
    "city": "Krawinkel"
  },
  {
    "postcode": "6647",
    "city": "Bergwinkel"
  },
  {
    "postcode": "6647",
    "city": "Tauhardt"
  },
  {
    "postcode": "6647",
    "city": "Lossa"
  },
  {
    "postcode": "6647",
    "city": "Borgau"
  },
  {
    "postcode": "6647",
    "city": "Marienroda"
  },
  {
    "postcode": "6647",
    "city": "Steinburg"
  },
  {
    "postcode": "6648",
    "city": "Burgholzhausen bei Eckartsberga"
  },
  {
    "postcode": "6648",
    "city": "Eckartsberga"
  },
  {
    "postcode": "6648",
    "city": "Herrengosserstedt"
  },
  {
    "postcode": "6648",
    "city": "Tromsdorf"
  },
  {
    "postcode": "6648",
    "city": "Burgenlandkreis"
  },
  {
    "postcode": "6648",
    "city": "Niederholzhausen"
  },
  {
    "postcode": "6648",
    "city": "Burgholzhausen"
  },
  {
    "postcode": "6648",
    "city": "Lißdorf"
  },
  {
    "postcode": "6648",
    "city": "Marienthal"
  },
  {
    "postcode": "6648",
    "city": "Millingsdorf"
  },
  {
    "postcode": "6648",
    "city": "Seena"
  },
  {
    "postcode": "6648",
    "city": "Thüsdorf"
  },
  {
    "postcode": "6667",
    "city": "Burgwerben"
  },
  {
    "postcode": "6667",
    "city": "Goseck"
  },
  {
    "postcode": "6667",
    "city": "Gröbitz bei Weißenfels"
  },
  {
    "postcode": "6667",
    "city": "Langendorf bei Weißenfels"
  },
  {
    "postcode": "6667",
    "city": "Leißling"
  },
  {
    "postcode": "6667",
    "city": "Markwerben"
  },
  {
    "postcode": "6667",
    "city": "Pretzsch bei Weißenfels"
  },
  {
    "postcode": "6667",
    "city": "Prittitz"
  },
  {
    "postcode": "6667",
    "city": "Reichardtswerben"
  },
  {
    "postcode": "6667",
    "city": "Storkau bei Weißenfels"
  },
  {
    "postcode": "6667",
    "city": "Stößen"
  },
  {
    "postcode": "6667",
    "city": "Tagewerben"
  },
  {
    "postcode": "6667",
    "city": "Uichteritz"
  },
  {
    "postcode": "6667",
    "city": "Weißenfels Saale"
  },
  {
    "postcode": "6667",
    "city": "Weißenfels"
  },
  {
    "postcode": "6667",
    "city": "Burgenlandkreis"
  },
  {
    "postcode": "6667",
    "city": "Markröhlitz"
  },
  {
    "postcode": "6667",
    "city": "Nöbeditz"
  },
  {
    "postcode": "6667",
    "city": "Priestädt"
  },
  {
    "postcode": "6667",
    "city": "Storkau"
  },
  {
    "postcode": "6667",
    "city": "Borau"
  },
  {
    "postcode": "6667",
    "city": "Langendorf"
  },
  {
    "postcode": "6667",
    "city": "Pettstädt"
  },
  {
    "postcode": "6667",
    "city": "Obschütz"
  },
  {
    "postcode": "6667",
    "city": "Bäumchen"
  },
  {
    "postcode": "6667",
    "city": "Lobitzsch"
  },
  {
    "postcode": "6679",
    "city": "Granschütz"
  },
  {
    "postcode": "6679",
    "city": "Hohenmölsen"
  },
  {
    "postcode": "6679",
    "city": "Muschwitz"
  },
  {
    "postcode": "6679",
    "city": "Taucha bei Weißenfels"
  },
  {
    "postcode": "6679",
    "city": "Webau"
  },
  {
    "postcode": "6679",
    "city": "Zorbau"
  },
  {
    "postcode": "6679",
    "city": "Burgenlandkreis"
  },
  {
    "postcode": "6679",
    "city": "Aupitz"
  },
  {
    "postcode": "6679",
    "city": "Taucha"
  },
  {
    "postcode": "6679",
    "city": "Oberwerschen"
  },
  {
    "postcode": "6679",
    "city": "Rössuln"
  },
  {
    "postcode": "6679",
    "city": "Werschen"
  },
  {
    "postcode": "6679",
    "city": "Zembschen"
  },
  {
    "postcode": "6679",
    "city": "Keutschen"
  },
  {
    "postcode": "6679",
    "city": "Wählitz"
  },
  {
    "postcode": "6682",
    "city": "Deuben bei Weißenfels"
  },
  {
    "postcode": "6682",
    "city": "Gröben bei Weißenfels"
  },
  {
    "postcode": "6682",
    "city": "Krauschwitz bei Weißenfels"
  },
  {
    "postcode": "6682",
    "city": "Nessa"
  },
  {
    "postcode": "6682",
    "city": "Schelkau"
  },
  {
    "postcode": "6682",
    "city": "Teuchern"
  },
  {
    "postcode": "6682",
    "city": "Trebnitz bei Weißenfels"
  },
  {
    "postcode": "6682",
    "city": "Werschen"
  },
  {
    "postcode": "6682",
    "city": "Burgenlandkreis"
  },
  {
    "postcode": "6682",
    "city": "Gröbitz"
  },
  {
    "postcode": "6682",
    "city": "Gröben"
  },
  {
    "postcode": "6682",
    "city": "Dippelsdorf"
  },
  {
    "postcode": "6682",
    "city": "Kistritz"
  },
  {
    "postcode": "6682",
    "city": "Prittitz"
  },
  {
    "postcode": "6682",
    "city": "Plennschütz"
  },
  {
    "postcode": "6682",
    "city": "Plotha"
  },
  {
    "postcode": "6682",
    "city": "Krössuln"
  },
  {
    "postcode": "6682",
    "city": "Trebnitz-Siedlung"
  },
  {
    "postcode": "6682",
    "city": "Krauschwitz"
  },
  {
    "postcode": "6682",
    "city": "Trebnitz"
  },
  {
    "postcode": "6682",
    "city": "Runthal"
  },
  {
    "postcode": "6682",
    "city": "Deuben"
  },
  {
    "postcode": "6682",
    "city": "Bonau"
  },
  {
    "postcode": "6682",
    "city": "Naundorf"
  },
  {
    "postcode": "6682",
    "city": "Unternessa"
  },
  {
    "postcode": "6682",
    "city": "Obernessa"
  },
  {
    "postcode": "6682",
    "city": "Wildschütz"
  },
  {
    "postcode": "6682",
    "city": "Kössuln"
  },
  {
    "postcode": "6682",
    "city": "Wernsdorf"
  },
  {
    "postcode": "6682",
    "city": "Kostplatz"
  },
  {
    "postcode": "6682",
    "city": "Lagnitz"
  },
  {
    "postcode": "6682",
    "city": "Oberschwöditz"
  },
  {
    "postcode": "6682",
    "city": "Reußen"
  },
  {
    "postcode": "6682",
    "city": "Schortau"
  },
  {
    "postcode": "6682",
    "city": "Zaschendorf"
  },
  {
    "postcode": "6686",
    "city": "Dehlitz (Saale)"
  },
  {
    "postcode": "6686",
    "city": "Dehlitz"
  },
  {
    "postcode": "6686",
    "city": "Großgörschen"
  },
  {
    "postcode": "6686",
    "city": "Lützen"
  },
  {
    "postcode": "6686",
    "city": "Poserna"
  },
  {
    "postcode": "6686",
    "city": "Rippach"
  },
  {
    "postcode": "6686",
    "city": "Röcken"
  },
  {
    "postcode": "6686",
    "city": "Sössen"
  },
  {
    "postcode": "6686",
    "city": "Starsiedel"
  },
  {
    "postcode": "6686",
    "city": "Burgenlandkreis"
  },
  {
    "postcode": "6686",
    "city": "Wuschlaub"
  },
  {
    "postcode": "6686",
    "city": "Kaja"
  },
  {
    "postcode": "6686",
    "city": "Lösau"
  },
  {
    "postcode": "6686",
    "city": "Gerstewitz"
  },
  {
    "postcode": "6686",
    "city": "Muschwitz"
  },
  {
    "postcode": "6686",
    "city": "Pobles"
  },
  {
    "postcode": "6686",
    "city": "Göthewitz"
  },
  {
    "postcode": "6686",
    "city": "Meuchen"
  },
  {
    "postcode": "6686",
    "city": "Nellschütz"
  },
  {
    "postcode": "6686",
    "city": "Großgöhren"
  },
  {
    "postcode": "6686",
    "city": "Gostau"
  },
  {
    "postcode": "6686",
    "city": "Söhesten"
  },
  {
    "postcode": "6686",
    "city": "Zorbau"
  },
  {
    "postcode": "6686",
    "city": "Kleingörschen"
  },
  {
    "postcode": "6686",
    "city": "Öglitzsch"
  },
  {
    "postcode": "6686",
    "city": "Rahna"
  },
  {
    "postcode": "6686",
    "city": "Tornau"
  },
  {
    "postcode": "6686",
    "city": "Pörsten"
  },
  {
    "postcode": "6686",
    "city": "Kleingöhren"
  },
  {
    "postcode": "6686",
    "city": "Schweßwitz"
  },
  {
    "postcode": "6686",
    "city": "Kölzen"
  },
  {
    "postcode": "6686",
    "city": "Bothfeld"
  },
  {
    "postcode": "6686",
    "city": "Stößwitz"
  },
  {
    "postcode": "6686",
    "city": "Michlitz"
  },
  {
    "postcode": "6686",
    "city": "Kreischau"
  },
  {
    "postcode": "6686",
    "city": "Zörbitz"
  },
  {
    "postcode": "6688",
    "city": "Großkorbetha"
  },
  {
    "postcode": "6688",
    "city": "Schkortleben"
  },
  {
    "postcode": "6688",
    "city": "Wengelsdorf"
  },
  {
    "postcode": "6688",
    "city": "Burgenlandkreis"
  },
  {
    "postcode": "6688",
    "city": "Weißenfels"
  },
  {
    "postcode": "6688",
    "city": "Kriechau"
  },
  {
    "postcode": "6688",
    "city": "Kleinkorbetha"
  },
  {
    "postcode": "6688",
    "city": "Kraßlau"
  },
  {
    "postcode": "6688",
    "city": "Leina"
  },
  {
    "postcode": "66111",
    "city": "Saarbrücken"
  },
  {
    "postcode": "66111",
    "city": "St. Johann"
  },
  {
    "postcode": "66111",
    "city": "Malstatt"
  },
  {
    "postcode": "66113",
    "city": "Saarbrücken"
  },
  {
    "postcode": "66113",
    "city": "Malstatt"
  },
  {
    "postcode": "66113",
    "city": "Rastpfuhl"
  },
  {
    "postcode": "66113",
    "city": "Burbach"
  },
  {
    "postcode": "66113",
    "city": "St. Johann"
  },
  {
    "postcode": "66113",
    "city": "Rodenhof"
  },
  {
    "postcode": "66115",
    "city": "Saarbrücken"
  },
  {
    "postcode": "66115",
    "city": "Burbach"
  },
  {
    "postcode": "66115",
    "city": "Malstatt"
  },
  {
    "postcode": "66115",
    "city": "Alt-Saarbrücken"
  },
  {
    "postcode": "66117",
    "city": "Saarbrücken"
  },
  {
    "postcode": "66117",
    "city": "Alt-Saarbrücken"
  },
  {
    "postcode": "66117",
    "city": "Burbach"
  },
  {
    "postcode": "66119",
    "city": "Güdingen Saar"
  },
  {
    "postcode": "66119",
    "city": "Güdingen"
  },
  {
    "postcode": "66119",
    "city": "Saarbrücken"
  },
  {
    "postcode": "66119",
    "city": "St. Arnual"
  },
  {
    "postcode": "66119",
    "city": "Alt-Saarbrücken"
  },
  {
    "postcode": "66121",
    "city": "Saarbrücken"
  },
  {
    "postcode": "66121",
    "city": "Schafbrücke"
  },
  {
    "postcode": "66121",
    "city": "St. Johann"
  },
  {
    "postcode": "66121",
    "city": "Eschberg"
  },
  {
    "postcode": "66123",
    "city": "Jägersfreude"
  },
  {
    "postcode": "66123",
    "city": "Saarbrücken"
  },
  {
    "postcode": "66123",
    "city": "St. Johann"
  },
  {
    "postcode": "66123",
    "city": "Neuscheidt"
  },
  {
    "postcode": "66123",
    "city": "Rotenbühl"
  },
  {
    "postcode": "66123",
    "city": "Scheidt"
  },
  {
    "postcode": "66125",
    "city": "Dudweiler Saar"
  },
  {
    "postcode": "66125",
    "city": "Dudweiler"
  },
  {
    "postcode": "66125",
    "city": "Herrensohr Saar"
  },
  {
    "postcode": "66125",
    "city": "Herrensohr"
  },
  {
    "postcode": "66125",
    "city": "Saarbrücken"
  },
  {
    "postcode": "66126",
    "city": "Saarbrücken"
  },
  {
    "postcode": "66126",
    "city": "Altenkessel"
  },
  {
    "postcode": "66127",
    "city": "Saarbrücken"
  },
  {
    "postcode": "66127",
    "city": "Klarenthal"
  },
  {
    "postcode": "66128",
    "city": "Saarbrücken"
  },
  {
    "postcode": "66128",
    "city": "Gersweiler"
  },
  {
    "postcode": "66129",
    "city": "Saarbrücken"
  },
  {
    "postcode": "66129",
    "city": "Bübingen"
  },
  {
    "postcode": "66130",
    "city": "Eschringen"
  },
  {
    "postcode": "66130",
    "city": "Güdingen Saar"
  },
  {
    "postcode": "66130",
    "city": "Güdingen"
  },
  {
    "postcode": "66130",
    "city": "Saarbrücken"
  },
  {
    "postcode": "66130",
    "city": "Brebach-Fechingen"
  },
  {
    "postcode": "66130",
    "city": "Ensheim"
  },
  {
    "postcode": "66130",
    "city": "Unner"
  },
  {
    "postcode": "66130",
    "city": "Brebach"
  },
  {
    "postcode": "66131",
    "city": "Saarbrücken"
  },
  {
    "postcode": "66131",
    "city": "Ensheim"
  },
  {
    "postcode": "66132",
    "city": "Bischmisheim"
  },
  {
    "postcode": "66132",
    "city": "Saarbrücken"
  },
  {
    "postcode": "66132",
    "city": "Schafbrücke"
  },
  {
    "postcode": "66133",
    "city": "Saarbrücken"
  },
  {
    "postcode": "66133",
    "city": "Scheidt"
  },
  {
    "postcode": "66265",
    "city": "Heusweiler"
  },
  {
    "postcode": "66265",
    "city": "Saarbrücken"
  },
  {
    "postcode": "66265",
    "city": "Holz"
  },
  {
    "postcode": "66265",
    "city": "Niedersalbach"
  },
  {
    "postcode": "66265",
    "city": "Eiweiler"
  },
  {
    "postcode": "66265",
    "city": "Kutzhof"
  },
  {
    "postcode": "66265",
    "city": "Obersalbach"
  },
  {
    "postcode": "66265",
    "city": "Wahlschied"
  },
  {
    "postcode": "66265",
    "city": "Kirschhof"
  },
  {
    "postcode": "66271",
    "city": "Kleinblittersdorf"
  },
  {
    "postcode": "66271",
    "city": "Saarbrücken"
  },
  {
    "postcode": "66271",
    "city": "Auersmacher"
  },
  {
    "postcode": "66271",
    "city": "Bliesransbach"
  },
  {
    "postcode": "66271",
    "city": "Rilchingen-Hanweiler"
  },
  {
    "postcode": "66271",
    "city": "Sitterswald"
  },
  {
    "postcode": "66280",
    "city": "Sulzbach / Saar"
  },
  {
    "postcode": "66280",
    "city": "Sulzbach"
  },
  {
    "postcode": "66280",
    "city": "Saarbrücken"
  },
  {
    "postcode": "66280",
    "city": "Neuweiler"
  },
  {
    "postcode": "66280",
    "city": "Hühnerfeld"
  },
  {
    "postcode": "66280",
    "city": "Altenwald"
  },
  {
    "postcode": "66280",
    "city": "Brefeld"
  },
  {
    "postcode": "66280",
    "city": "Hirschbach"
  },
  {
    "postcode": "66280",
    "city": "Schnappach"
  },
  {
    "postcode": "66287",
    "city": "Quierschied"
  },
  {
    "postcode": "66287",
    "city": "Saarbrücken"
  },
  {
    "postcode": "66287",
    "city": "Fischbach"
  },
  {
    "postcode": "66287",
    "city": "Göttelborn"
  },
  {
    "postcode": "66287",
    "city": "Camphausen"
  },
  {
    "postcode": "66292",
    "city": "Riegelsberg Saar"
  },
  {
    "postcode": "66292",
    "city": "Riegelsberg"
  },
  {
    "postcode": "66292",
    "city": "Saarbrücken"
  },
  {
    "postcode": "66292",
    "city": "Walpershofen"
  },
  {
    "postcode": "66299",
    "city": "Friedrichsthal Saar"
  },
  {
    "postcode": "66299",
    "city": "Friedrichsthal"
  },
  {
    "postcode": "66299",
    "city": "Saarbrücken"
  },
  {
    "postcode": "66299",
    "city": "Bildstock"
  },
  {
    "postcode": "66299",
    "city": "Maybach"
  },
  {
    "postcode": "66333",
    "city": "Völklingen"
  },
  {
    "postcode": "66333",
    "city": "Saarbrücken"
  },
  {
    "postcode": "66333",
    "city": "Wehrden"
  },
  {
    "postcode": "66333",
    "city": "Stadtmitte"
  },
  {
    "postcode": "66333",
    "city": "Heidstock"
  },
  {
    "postcode": "66333",
    "city": "Luisenthal"
  },
  {
    "postcode": "66333",
    "city": "Ludweiler"
  },
  {
    "postcode": "66333",
    "city": "Lauterbach"
  },
  {
    "postcode": "66333",
    "city": "Fürstenhausen"
  },
  {
    "postcode": "66333",
    "city": "Geislautern"
  },
  {
    "postcode": "66333",
    "city": "Fenne"
  },
  {
    "postcode": "66333",
    "city": "Röchling-Höhe"
  },
  {
    "postcode": "66333",
    "city": "Ludweiler-Warndt"
  },
  {
    "postcode": "66346",
    "city": "Püttlingen"
  },
  {
    "postcode": "66346",
    "city": "Saarbrücken"
  },
  {
    "postcode": "66346",
    "city": "Köllerbach"
  },
  {
    "postcode": "66346",
    "city": "Etzenhofen"
  },
  {
    "postcode": "66352",
    "city": "Großrosseln"
  },
  {
    "postcode": "66352",
    "city": "Saarbrücken"
  },
  {
    "postcode": "66352",
    "city": "Dorf im Warndt"
  },
  {
    "postcode": "66352",
    "city": "Emmersweiler"
  },
  {
    "postcode": "66352",
    "city": "Naßweiler"
  },
  {
    "postcode": "66352",
    "city": "Karlsbrunn"
  },
  {
    "postcode": "66352",
    "city": "St. Nikolaus"
  },
  {
    "postcode": "66359",
    "city": "Bous"
  },
  {
    "postcode": "66359",
    "city": "Saarlouis"
  },
  {
    "postcode": "66386",
    "city": "Sankt Ingbert"
  },
  {
    "postcode": "66386",
    "city": "Saarpfalz-Kreis"
  },
  {
    "postcode": "66386",
    "city": "St. Ingbert"
  },
  {
    "postcode": "66386",
    "city": "Oberwürzbach"
  },
  {
    "postcode": "66386",
    "city": "Hassel"
  },
  {
    "postcode": "66386",
    "city": "Rohrbach"
  },
  {
    "postcode": "66386",
    "city": "Rentrisch"
  },
  {
    "postcode": "66399",
    "city": "Mandelbachtal"
  },
  {
    "postcode": "66399",
    "city": "Saarpfalz-Kreis"
  },
  {
    "postcode": "66399",
    "city": "Ormesheim"
  },
  {
    "postcode": "66399",
    "city": "Heckendalheim"
  },
  {
    "postcode": "66399",
    "city": "Bebelsheim"
  },
  {
    "postcode": "66399",
    "city": "Ommersheim"
  },
  {
    "postcode": "66399",
    "city": "Bliesmengen-Bolchen"
  },
  {
    "postcode": "66399",
    "city": "Habkirchen"
  },
  {
    "postcode": "66399",
    "city": "Erfweiler-Ehlingen"
  },
  {
    "postcode": "66399",
    "city": "Wittersheim"
  },
  {
    "postcode": "66424",
    "city": "Homburg (Saar)"
  },
  {
    "postcode": "66424",
    "city": "Homburg"
  },
  {
    "postcode": "66424",
    "city": "Saarpfalz-Kreis"
  },
  {
    "postcode": "66424",
    "city": "Sanddorf"
  },
  {
    "postcode": "66424",
    "city": "Beeden"
  },
  {
    "postcode": "66424",
    "city": "Erbach"
  },
  {
    "postcode": "66424",
    "city": "Jägersburg"
  },
  {
    "postcode": "66424",
    "city": "Schwarzenbach"
  },
  {
    "postcode": "66424",
    "city": "Einöd"
  },
  {
    "postcode": "66424",
    "city": "Kirrberg"
  },
  {
    "postcode": "66424",
    "city": "Schwarzenacker"
  },
  {
    "postcode": "66424",
    "city": "Bruchhof"
  },
  {
    "postcode": "66424",
    "city": "Reiskirchen"
  },
  {
    "postcode": "66424",
    "city": "Wörschweiler"
  },
  {
    "postcode": "66424",
    "city": "Ingweiler"
  },
  {
    "postcode": "66424",
    "city": "Altbreitenfelderhof"
  },
  {
    "postcode": "66424",
    "city": "Websweiler"
  },
  {
    "postcode": "66440",
    "city": "Bierbach"
  },
  {
    "postcode": "66440",
    "city": "Blieskastel"
  },
  {
    "postcode": "66440",
    "city": "Saarpfalz-Kreis"
  },
  {
    "postcode": "66440",
    "city": "Webenheim"
  },
  {
    "postcode": "66440",
    "city": "Niederwürzbach"
  },
  {
    "postcode": "66440",
    "city": "Neualtheim"
  },
  {
    "postcode": "66440",
    "city": "Lautzkirchen"
  },
  {
    "postcode": "66440",
    "city": "Ballweiler"
  },
  {
    "postcode": "66440",
    "city": "Seelbach"
  },
  {
    "postcode": "66440",
    "city": "Aßweiler"
  },
  {
    "postcode": "66440",
    "city": "Blickweiler"
  },
  {
    "postcode": "66440",
    "city": "Brenschelbach"
  },
  {
    "postcode": "66440",
    "city": "Biesingen"
  },
  {
    "postcode": "66440",
    "city": "Breitfurt"
  },
  {
    "postcode": "66440",
    "city": "Altheim"
  },
  {
    "postcode": "66440",
    "city": "Wolfersheim"
  },
  {
    "postcode": "66440",
    "city": "Mimbach"
  },
  {
    "postcode": "66440",
    "city": "Alschbach"
  },
  {
    "postcode": "66440",
    "city": "Böckweiler"
  },
  {
    "postcode": "66440",
    "city": "Wecklingen"
  },
  {
    "postcode": "66440",
    "city": "Riesweiler"
  },
  {
    "postcode": "66450",
    "city": "Bexbach"
  },
  {
    "postcode": "66450",
    "city": "Saarpfalz-Kreis"
  },
  {
    "postcode": "66450",
    "city": "Kleinottweiler"
  },
  {
    "postcode": "66450",
    "city": "Oberbexbach"
  },
  {
    "postcode": "66450",
    "city": "Frankenholz"
  },
  {
    "postcode": "66450",
    "city": "Höchen"
  },
  {
    "postcode": "66450",
    "city": "Niederbexbach"
  },
  {
    "postcode": "66453",
    "city": "Gersheim"
  },
  {
    "postcode": "66453",
    "city": "Saarpfalz-Kreis"
  },
  {
    "postcode": "66453",
    "city": "Walsheim"
  },
  {
    "postcode": "66453",
    "city": "Rubenheim"
  },
  {
    "postcode": "66453",
    "city": "Peppenkum"
  },
  {
    "postcode": "66453",
    "city": "Bliesdalheim"
  },
  {
    "postcode": "66453",
    "city": "Reinheim"
  },
  {
    "postcode": "66453",
    "city": "Herbitzheim"
  },
  {
    "postcode": "66453",
    "city": "Niedergailbach"
  },
  {
    "postcode": "66453",
    "city": "Medelsheim"
  },
  {
    "postcode": "66453",
    "city": "Utweiler"
  },
  {
    "postcode": "66453",
    "city": "Seyweiler"
  },
  {
    "postcode": "66459",
    "city": "Kirkel"
  },
  {
    "postcode": "66459",
    "city": "Saarpfalz-Kreis"
  },
  {
    "postcode": "66459",
    "city": "Kirkel-Neuhäusel"
  },
  {
    "postcode": "66459",
    "city": "Altstadt"
  },
  {
    "postcode": "66459",
    "city": "Limbach"
  },
  {
    "postcode": "66482",
    "city": "Bombacherhof"
  },
  {
    "postcode": "66482",
    "city": "Ernstweiler / Bubenhausen"
  },
  {
    "postcode": "66482",
    "city": "Ernstweiler"
  },
  {
    "postcode": "66482",
    "city": "Freudenbergerhof"
  },
  {
    "postcode": "66482",
    "city": "Hengstbach Pfalz"
  },
  {
    "postcode": "66482",
    "city": "Hengstbach"
  },
  {
    "postcode": "66482",
    "city": "Hitscherhof"
  },
  {
    "postcode": "66482",
    "city": "Ixheim"
  },
  {
    "postcode": "66482",
    "city": "Kleinbundenbach"
  },
  {
    "postcode": "66482",
    "city": "Mittelbach Pfalz"
  },
  {
    "postcode": "66482",
    "city": "Mittelbach"
  },
  {
    "postcode": "66482",
    "city": "Mörsbach"
  },
  {
    "postcode": "66482",
    "city": "Niederauerbach"
  },
  {
    "postcode": "66482",
    "city": "Oberauerbach Pfalz"
  },
  {
    "postcode": "66482",
    "city": "Oberauerbach"
  },
  {
    "postcode": "66482",
    "city": "Riedelberg"
  },
  {
    "postcode": "66482",
    "city": "Rimschweiler"
  },
  {
    "postcode": "66482",
    "city": "Wattweiler"
  },
  {
    "postcode": "66482",
    "city": "Zweibrücken"
  },
  {
    "postcode": "66482",
    "city": "Zweibrücken Pfalz"
  },
  {
    "postcode": "66482",
    "city": "Kirschbacherhof"
  },
  {
    "postcode": "66482",
    "city": "Kirschbachermühle"
  },
  {
    "postcode": "66482",
    "city": "Ernstweiler/Bubenhausen"
  },
  {
    "postcode": "66484",
    "city": "Althornbach"
  },
  {
    "postcode": "66484",
    "city": "Battweiler"
  },
  {
    "postcode": "66484",
    "city": "Dietrichingen"
  },
  {
    "postcode": "66484",
    "city": "Großsteinhausen"
  },
  {
    "postcode": "66484",
    "city": "Kleinsteinhausen"
  },
  {
    "postcode": "66484",
    "city": "Niederhausen bei Zweibrücken"
  },
  {
    "postcode": "66484",
    "city": "Riedelberg"
  },
  {
    "postcode": "66484",
    "city": "Schmitshausen"
  },
  {
    "postcode": "66484",
    "city": "Walshausen bei Zweibrücken"
  },
  {
    "postcode": "66484",
    "city": "Winterbach (Pfalz)"
  },
  {
    "postcode": "66484",
    "city": "Winterbach"
  },
  {
    "postcode": "66484",
    "city": "Südwestpfalz"
  },
  {
    "postcode": "66484",
    "city": "Stockbornerhof"
  },
  {
    "postcode": "66484",
    "city": "Walshausen"
  },
  {
    "postcode": "66484",
    "city": "Niederhausen"
  },
  {
    "postcode": "66497",
    "city": "Contwig"
  },
  {
    "postcode": "66497",
    "city": "Offweilerhof"
  },
  {
    "postcode": "66497",
    "city": "Stambach Pfalz"
  },
  {
    "postcode": "66497",
    "city": "Stambach"
  },
  {
    "postcode": "66497",
    "city": "Südwestpfalz"
  },
  {
    "postcode": "66500",
    "city": "Bödingerhof"
  },
  {
    "postcode": "66500",
    "city": "Hornbach Pfalz"
  },
  {
    "postcode": "66500",
    "city": "Hornbach"
  },
  {
    "postcode": "66500",
    "city": "Mauschbach"
  },
  {
    "postcode": "66500",
    "city": "Südwestpfalz"
  },
  {
    "postcode": "66500",
    "city": "Buchholzbergerhof"
  },
  {
    "postcode": "66500",
    "city": "Hübelhof"
  },
  {
    "postcode": "66501",
    "city": "Großbundenbach"
  },
  {
    "postcode": "66501",
    "city": "Kleinbundenbach"
  },
  {
    "postcode": "66501",
    "city": "Südwestpfalz"
  },
  {
    "postcode": "66503",
    "city": "Dellfeld"
  },
  {
    "postcode": "66503",
    "city": "Weihershof"
  },
  {
    "postcode": "66503",
    "city": "Südwestpfalz"
  },
  {
    "postcode": "66504",
    "city": "Bottenbach Pfalz"
  },
  {
    "postcode": "66504",
    "city": "Bottenbach"
  },
  {
    "postcode": "66504",
    "city": "Südwestpfalz"
  },
  {
    "postcode": "66506",
    "city": "Hitscherhof"
  },
  {
    "postcode": "66506",
    "city": "Maßweiler"
  },
  {
    "postcode": "66506",
    "city": "Südwestpfalz"
  },
  {
    "postcode": "66507",
    "city": "Reifenberg Pfalz"
  },
  {
    "postcode": "66507",
    "city": "Reifenberg"
  },
  {
    "postcode": "66507",
    "city": "Südwestpfalz"
  },
  {
    "postcode": "66509",
    "city": "Rieschweiler"
  },
  {
    "postcode": "66509",
    "city": "Rieschweiler-Mühlbach"
  },
  {
    "postcode": "66509",
    "city": "Südwestpfalz"
  },
  {
    "postcode": "66509",
    "city": "Mühlbach"
  },
  {
    "postcode": "66538",
    "city": "Neunkirchen / Saar"
  },
  {
    "postcode": "66538",
    "city": "Neunkirchen"
  },
  {
    "postcode": "66538",
    "city": "Innenstadt"
  },
  {
    "postcode": "66539",
    "city": "Neunkirchen / Saar"
  },
  {
    "postcode": "66539",
    "city": "Neunkirchen"
  },
  {
    "postcode": "66539",
    "city": "Kohlhof"
  },
  {
    "postcode": "66539",
    "city": "Furpach"
  },
  {
    "postcode": "66539",
    "city": "Wellesweiler"
  },
  {
    "postcode": "66539",
    "city": "Ludwigsthal"
  },
  {
    "postcode": "66540",
    "city": "Neunkirchen / Saar"
  },
  {
    "postcode": "66540",
    "city": "Neunkirchen"
  },
  {
    "postcode": "66540",
    "city": "Wiebelskirchen"
  },
  {
    "postcode": "66540",
    "city": "Münchwies"
  },
  {
    "postcode": "66540",
    "city": "Hangard"
  },
  {
    "postcode": "66540",
    "city": "Innenstadt"
  },
  {
    "postcode": "66540",
    "city": "Sinnerthal"
  },
  {
    "postcode": "66540",
    "city": "Heinitz"
  },
  {
    "postcode": "66557",
    "city": "Illingen Saar"
  },
  {
    "postcode": "66557",
    "city": "Illingen"
  },
  {
    "postcode": "66557",
    "city": "Neunkirchen"
  },
  {
    "postcode": "66557",
    "city": "Uchtelfangen"
  },
  {
    "postcode": "66557",
    "city": "Hüttigweiler"
  },
  {
    "postcode": "66557",
    "city": "Wustweiler"
  },
  {
    "postcode": "66557",
    "city": "Hirzweiler"
  },
  {
    "postcode": "66557",
    "city": "Welschbach"
  },
  {
    "postcode": "66557",
    "city": "Hosterhof"
  },
  {
    "postcode": "66564",
    "city": "Ottweiler"
  },
  {
    "postcode": "66564",
    "city": "Neunkirchen"
  },
  {
    "postcode": "66564",
    "city": "Mainzweiler"
  },
  {
    "postcode": "66564",
    "city": "Steinbach"
  },
  {
    "postcode": "66564",
    "city": "Fürth"
  },
  {
    "postcode": "66564",
    "city": "Lautenbach"
  },
  {
    "postcode": "66571",
    "city": "Eppelborn"
  },
  {
    "postcode": "66571",
    "city": "Neunkirchen"
  },
  {
    "postcode": "66571",
    "city": "Wiesbach"
  },
  {
    "postcode": "66571",
    "city": "Bubach"
  },
  {
    "postcode": "66571",
    "city": "Humes"
  },
  {
    "postcode": "66571",
    "city": "Hierscheid"
  },
  {
    "postcode": "66571",
    "city": "Dirmingen"
  },
  {
    "postcode": "66571",
    "city": "Habach"
  },
  {
    "postcode": "66571",
    "city": "Calmesweiler"
  },
  {
    "postcode": "66571",
    "city": "Macherbach"
  },
  {
    "postcode": "66578",
    "city": "Heiligenwald"
  },
  {
    "postcode": "66578",
    "city": "Schiffweiler"
  },
  {
    "postcode": "66578",
    "city": "Neunkirchen"
  },
  {
    "postcode": "66578",
    "city": "Landsweiler"
  },
  {
    "postcode": "66578",
    "city": "Stennweiler"
  },
  {
    "postcode": "66583",
    "city": "Spiesen-Elversberg"
  },
  {
    "postcode": "66583",
    "city": "Neunkirchen"
  },
  {
    "postcode": "66583",
    "city": "Spiesen"
  },
  {
    "postcode": "66583",
    "city": "Elversberg"
  },
  {
    "postcode": "66589",
    "city": "Merchweiler"
  },
  {
    "postcode": "66589",
    "city": "Neunkirchen"
  },
  {
    "postcode": "66589",
    "city": "Wemmetsweiler"
  },
  {
    "postcode": "66606",
    "city": "Sankt Wendel"
  },
  {
    "postcode": "66606",
    "city": "St. Wendel"
  },
  {
    "postcode": "66606",
    "city": "Hoof"
  },
  {
    "postcode": "66606",
    "city": "Niederlinxweiler"
  },
  {
    "postcode": "66606",
    "city": "Niederkirchen"
  },
  {
    "postcode": "66606",
    "city": "Osterbrücken"
  },
  {
    "postcode": "66606",
    "city": "Bliesen"
  },
  {
    "postcode": "66606",
    "city": "Urweiler"
  },
  {
    "postcode": "66606",
    "city": "Werschweiler"
  },
  {
    "postcode": "66606",
    "city": "Oberlinxweiler"
  },
  {
    "postcode": "66606",
    "city": "Remmesweiler"
  },
  {
    "postcode": "66606",
    "city": "Winterbach"
  },
  {
    "postcode": "66606",
    "city": "Leitersweiler"
  },
  {
    "postcode": "66606",
    "city": "Marth"
  },
  {
    "postcode": "66606",
    "city": "Dörrenbach"
  },
  {
    "postcode": "66606",
    "city": "Saal"
  },
  {
    "postcode": "66606",
    "city": "Bubach"
  },
  {
    "postcode": "66620",
    "city": "Nonnweiler"
  },
  {
    "postcode": "66620",
    "city": "Sankt Wendel"
  },
  {
    "postcode": "66620",
    "city": "Primstal"
  },
  {
    "postcode": "66620",
    "city": "Otzenhausen"
  },
  {
    "postcode": "66620",
    "city": "Bierfeld"
  },
  {
    "postcode": "66620",
    "city": "Kastel"
  },
  {
    "postcode": "66620",
    "city": "Braunshausen"
  },
  {
    "postcode": "66620",
    "city": "Sitzerath"
  },
  {
    "postcode": "66620",
    "city": "Schwarzenbach"
  },
  {
    "postcode": "66625",
    "city": "Nohfelden"
  },
  {
    "postcode": "66625",
    "city": "Sankt Wendel"
  },
  {
    "postcode": "66625",
    "city": "Neunkirchen"
  },
  {
    "postcode": "66625",
    "city": "Walhausen"
  },
  {
    "postcode": "66625",
    "city": "Bosen"
  },
  {
    "postcode": "66625",
    "city": "Eiweiler"
  },
  {
    "postcode": "66625",
    "city": "Sötern"
  },
  {
    "postcode": "66625",
    "city": "Selbach"
  },
  {
    "postcode": "66625",
    "city": "Türkismühle"
  },
  {
    "postcode": "66625",
    "city": "Mosberg-Richweiler"
  },
  {
    "postcode": "66625",
    "city": "Wolfersweiler"
  },
  {
    "postcode": "66625",
    "city": "Eisen"
  },
  {
    "postcode": "66625",
    "city": "Eckelhausen"
  },
  {
    "postcode": "66625",
    "city": "Gonnesweiler"
  },
  {
    "postcode": "66629",
    "city": "Freisen"
  },
  {
    "postcode": "66629",
    "city": "Sankt Wendel"
  },
  {
    "postcode": "66629",
    "city": "Schwarzerden"
  },
  {
    "postcode": "66629",
    "city": "Oberkirchen"
  },
  {
    "postcode": "66629",
    "city": "Eitzweiler"
  },
  {
    "postcode": "66629",
    "city": "Asweiler"
  },
  {
    "postcode": "66629",
    "city": "Haupersweiler"
  },
  {
    "postcode": "66629",
    "city": "Grügelborn"
  },
  {
    "postcode": "66629",
    "city": "Reitscheid"
  },
  {
    "postcode": "66636",
    "city": "Tholey"
  },
  {
    "postcode": "66636",
    "city": "Sankt Wendel"
  },
  {
    "postcode": "66636",
    "city": "Überroth-Niederhofen"
  },
  {
    "postcode": "66636",
    "city": "Scheuern"
  },
  {
    "postcode": "66636",
    "city": "Sotzweiler"
  },
  {
    "postcode": "66636",
    "city": "Theley"
  },
  {
    "postcode": "66636",
    "city": "Hasborn-Dautweiler"
  },
  {
    "postcode": "66636",
    "city": "Bergweiler"
  },
  {
    "postcode": "66636",
    "city": "Lindscheid"
  },
  {
    "postcode": "66636",
    "city": "Neipel"
  },
  {
    "postcode": "66640",
    "city": "Namborn"
  },
  {
    "postcode": "66640",
    "city": "Sankt Wendel"
  },
  {
    "postcode": "66640",
    "city": "Baltersweiler"
  },
  {
    "postcode": "66640",
    "city": "Eisweiler"
  },
  {
    "postcode": "66640",
    "city": "Roschberg"
  },
  {
    "postcode": "66640",
    "city": "Hirstein"
  },
  {
    "postcode": "66640",
    "city": "Hofeld-Mauschbach"
  },
  {
    "postcode": "66640",
    "city": "Gehweiler"
  },
  {
    "postcode": "66640",
    "city": "Pinsweiler"
  },
  {
    "postcode": "66640",
    "city": "Furschweiler"
  },
  {
    "postcode": "66640",
    "city": "Heisterberg"
  },
  {
    "postcode": "66646",
    "city": "Marpingen"
  },
  {
    "postcode": "66646",
    "city": "Sankt Wendel"
  },
  {
    "postcode": "66646",
    "city": "Urexweiler"
  },
  {
    "postcode": "66646",
    "city": "Berschweiler"
  },
  {
    "postcode": "66646",
    "city": "Alsweiler"
  },
  {
    "postcode": "66649",
    "city": "Oberthal Saar"
  },
  {
    "postcode": "66649",
    "city": "Oberthal"
  },
  {
    "postcode": "66649",
    "city": "Sankt Wendel"
  },
  {
    "postcode": "66649",
    "city": "Güdesweiler"
  },
  {
    "postcode": "66649",
    "city": "Gronig"
  },
  {
    "postcode": "66649",
    "city": "Steinberg"
  },
  {
    "postcode": "66663",
    "city": "Merzig (Saar)"
  },
  {
    "postcode": "66663",
    "city": "Merzig"
  },
  {
    "postcode": "66663",
    "city": "Merzig-Wadern"
  },
  {
    "postcode": "66663",
    "city": "Besseringen"
  },
  {
    "postcode": "66663",
    "city": "Brotdorf"
  },
  {
    "postcode": "66663",
    "city": "Merchingen"
  },
  {
    "postcode": "66663",
    "city": "Hilbringen"
  },
  {
    "postcode": "66663",
    "city": "Fitten"
  },
  {
    "postcode": "66663",
    "city": "Schwemlingen"
  },
  {
    "postcode": "66663",
    "city": "Ballern"
  },
  {
    "postcode": "66663",
    "city": "Silwingen"
  },
  {
    "postcode": "66663",
    "city": "Wellingen"
  },
  {
    "postcode": "66663",
    "city": "Mechern"
  },
  {
    "postcode": "66663",
    "city": "Mondorf"
  },
  {
    "postcode": "66663",
    "city": "Weiler"
  },
  {
    "postcode": "66663",
    "city": "Harlingen"
  },
  {
    "postcode": "66663",
    "city": "Menningen"
  },
  {
    "postcode": "66663",
    "city": "Büdingen"
  },
  {
    "postcode": "66663",
    "city": "Bietzen"
  },
  {
    "postcode": "66679",
    "city": "Losheim am See"
  },
  {
    "postcode": "66679",
    "city": "Merzig-Wadern"
  },
  {
    "postcode": "66679",
    "city": "Losheim"
  },
  {
    "postcode": "66679",
    "city": "Britten"
  },
  {
    "postcode": "66679",
    "city": "Bachem"
  },
  {
    "postcode": "66679",
    "city": "Rimlingen"
  },
  {
    "postcode": "66679",
    "city": "Waldhölzbach"
  },
  {
    "postcode": "66679",
    "city": "Wahlen"
  },
  {
    "postcode": "66679",
    "city": "Scheiden"
  },
  {
    "postcode": "66679",
    "city": "Rissenthal"
  },
  {
    "postcode": "66679",
    "city": "Bergen"
  },
  {
    "postcode": "66679",
    "city": "Hausbach"
  },
  {
    "postcode": "66679",
    "city": "Niederlosheim"
  },
  {
    "postcode": "66679",
    "city": "Mitlosheim"
  },
  {
    "postcode": "66687",
    "city": "Wadern"
  },
  {
    "postcode": "66687",
    "city": "Merzig-Wadern"
  },
  {
    "postcode": "66687",
    "city": "Noswendel"
  },
  {
    "postcode": "66687",
    "city": "Büschfeld"
  },
  {
    "postcode": "66687",
    "city": "Bardenbach"
  },
  {
    "postcode": "66687",
    "city": "Altland"
  },
  {
    "postcode": "66687",
    "city": "Wadrill"
  },
  {
    "postcode": "66687",
    "city": "Nunkirchen"
  },
  {
    "postcode": "66687",
    "city": "Steinberg"
  },
  {
    "postcode": "66687",
    "city": "Gehweiler"
  },
  {
    "postcode": "66687",
    "city": "Krettnich"
  },
  {
    "postcode": "66687",
    "city": "Dagstuhl"
  },
  {
    "postcode": "66687",
    "city": "Lockweiler"
  },
  {
    "postcode": "66687",
    "city": "Buweiler"
  },
  {
    "postcode": "66687",
    "city": "Morscholz"
  },
  {
    "postcode": "66687",
    "city": "Oberlöstern"
  },
  {
    "postcode": "66687",
    "city": "Wedern"
  },
  {
    "postcode": "66687",
    "city": "Rathen"
  },
  {
    "postcode": "66687",
    "city": "Dösterhof"
  },
  {
    "postcode": "66687",
    "city": "Kostenbach"
  },
  {
    "postcode": "66687",
    "city": "Niederlöstern"
  },
  {
    "postcode": "66687",
    "city": "Reidelbach"
  },
  {
    "postcode": "66687",
    "city": "Vogelsbüsch"
  },
  {
    "postcode": "66693",
    "city": "Mettlach"
  },
  {
    "postcode": "66693",
    "city": "Merzig-Wadern"
  },
  {
    "postcode": "66693",
    "city": "Keuchingen"
  },
  {
    "postcode": "66693",
    "city": "Orscholz"
  },
  {
    "postcode": "66693",
    "city": "Bethingen"
  },
  {
    "postcode": "66693",
    "city": "Weiten"
  },
  {
    "postcode": "66693",
    "city": "Faha"
  },
  {
    "postcode": "66693",
    "city": "Tünsdorf"
  },
  {
    "postcode": "66693",
    "city": "Saarhölzbach"
  },
  {
    "postcode": "66693",
    "city": "Nohn"
  },
  {
    "postcode": "66693",
    "city": "Wehingen"
  },
  {
    "postcode": "66693",
    "city": "Dreisbach"
  },
  {
    "postcode": "66701",
    "city": "Beckingen"
  },
  {
    "postcode": "66701",
    "city": "Merzig-Wadern"
  },
  {
    "postcode": "66701",
    "city": "Erbringen"
  },
  {
    "postcode": "66701",
    "city": "Haustadt"
  },
  {
    "postcode": "66701",
    "city": "Honzrath"
  },
  {
    "postcode": "66701",
    "city": "Düppenweiler"
  },
  {
    "postcode": "66701",
    "city": "Reimsbach"
  },
  {
    "postcode": "66701",
    "city": "Hargarten"
  },
  {
    "postcode": "66701",
    "city": "Oppen"
  },
  {
    "postcode": "66701",
    "city": "Saarfels"
  },
  {
    "postcode": "66706",
    "city": "Perl Saar"
  },
  {
    "postcode": "66706",
    "city": "Perl"
  },
  {
    "postcode": "66706",
    "city": "Merzig-Wadern"
  },
  {
    "postcode": "66706",
    "city": "Borg"
  },
  {
    "postcode": "66706",
    "city": "Büschdorf"
  },
  {
    "postcode": "66706",
    "city": "Oberleuken"
  },
  {
    "postcode": "66706",
    "city": "Nennig"
  },
  {
    "postcode": "66706",
    "city": "Keßlingen"
  },
  {
    "postcode": "66706",
    "city": "Oberperl"
  },
  {
    "postcode": "66706",
    "city": "Besch"
  },
  {
    "postcode": "66706",
    "city": "Wochern"
  },
  {
    "postcode": "66706",
    "city": "Eft-Hellendorf"
  },
  {
    "postcode": "66706",
    "city": "Tettingen"
  },
  {
    "postcode": "66706",
    "city": "Sinz"
  },
  {
    "postcode": "66706",
    "city": "Sehndorf"
  },
  {
    "postcode": "66706",
    "city": "Münzingen"
  },
  {
    "postcode": "66709",
    "city": "Weiskirchen Saar"
  },
  {
    "postcode": "66709",
    "city": "Weiskirchen"
  },
  {
    "postcode": "66709",
    "city": "Merzig-Wadern"
  },
  {
    "postcode": "66709",
    "city": "Rappweiler"
  },
  {
    "postcode": "66709",
    "city": "Konfeld"
  },
  {
    "postcode": "66709",
    "city": "Thailen"
  },
  {
    "postcode": "66709",
    "city": "Weierweiler"
  },
  {
    "postcode": "66740",
    "city": "Saarlouis"
  },
  {
    "postcode": "66740",
    "city": "Picard"
  },
  {
    "postcode": "66740",
    "city": "Roden"
  },
  {
    "postcode": "66740",
    "city": "Steinrausch"
  },
  {
    "postcode": "66740",
    "city": "Fraulautern"
  },
  {
    "postcode": "66740",
    "city": "Beaumarais"
  },
  {
    "postcode": "66740",
    "city": "Lisdorf"
  },
  {
    "postcode": "66740",
    "city": "Neuforweiler"
  },
  {
    "postcode": "66763",
    "city": "Dillingen / Saar"
  },
  {
    "postcode": "66763",
    "city": "Dillingen"
  },
  {
    "postcode": "66763",
    "city": "Saarlouis"
  },
  {
    "postcode": "66763",
    "city": "Pachten"
  },
  {
    "postcode": "66763",
    "city": "Diefflen"
  },
  {
    "postcode": "66773",
    "city": "Schwalbach Saar"
  },
  {
    "postcode": "66773",
    "city": "Schwalbach"
  },
  {
    "postcode": "66773",
    "city": "Saarlouis"
  },
  {
    "postcode": "66773",
    "city": "Hülzweiler"
  },
  {
    "postcode": "66773",
    "city": "Knausholz"
  },
  {
    "postcode": "66773",
    "city": "Sprengen"
  },
  {
    "postcode": "66773",
    "city": "Derlen"
  },
  {
    "postcode": "66773",
    "city": "Elm"
  },
  {
    "postcode": "66780",
    "city": "Rehlingen-Siersburg"
  },
  {
    "postcode": "66780",
    "city": "Saarlouis"
  },
  {
    "postcode": "66780",
    "city": "Fremersdorf"
  },
  {
    "postcode": "66780",
    "city": "Siersburg"
  },
  {
    "postcode": "66780",
    "city": "Rehlingen"
  },
  {
    "postcode": "66780",
    "city": "Hemmersdorf"
  },
  {
    "postcode": "66780",
    "city": "Biringen"
  },
  {
    "postcode": "66780",
    "city": "Oberesch"
  },
  {
    "postcode": "66780",
    "city": "Niedaltdorf"
  },
  {
    "postcode": "66780",
    "city": "Fürweiler"
  },
  {
    "postcode": "66780",
    "city": "Eimersdorf"
  },
  {
    "postcode": "66780",
    "city": "Gerlfangen"
  },
  {
    "postcode": "66787",
    "city": "Wadgassen"
  },
  {
    "postcode": "66787",
    "city": "Saarlouis"
  },
  {
    "postcode": "66787",
    "city": "Differten"
  },
  {
    "postcode": "66787",
    "city": "Hostenbach"
  },
  {
    "postcode": "66787",
    "city": "Schaffhausen"
  },
  {
    "postcode": "66787",
    "city": "Werbeln"
  },
  {
    "postcode": "66787",
    "city": "Friedrichweiler"
  },
  {
    "postcode": "66793",
    "city": "Saarwellingen"
  },
  {
    "postcode": "66793",
    "city": "Saarlouis"
  },
  {
    "postcode": "66793",
    "city": "Schwarzenholz"
  },
  {
    "postcode": "66793",
    "city": "Reisbach"
  },
  {
    "postcode": "66798",
    "city": "Wallerfangen"
  },
  {
    "postcode": "66798",
    "city": "Saarlouis"
  },
  {
    "postcode": "66798",
    "city": "St. Barbara"
  },
  {
    "postcode": "66798",
    "city": "Rammelfangen"
  },
  {
    "postcode": "66798",
    "city": "Kerlingen"
  },
  {
    "postcode": "66798",
    "city": "Ihn"
  },
  {
    "postcode": "66798",
    "city": "Leidingen"
  },
  {
    "postcode": "66798",
    "city": "Bedersdorf"
  },
  {
    "postcode": "66798",
    "city": "Ittersdorf"
  },
  {
    "postcode": "66798",
    "city": "Düren"
  },
  {
    "postcode": "66798",
    "city": "Gisingen"
  },
  {
    "postcode": "66798",
    "city": "Oberlimberg"
  },
  {
    "postcode": "66802",
    "city": "Überherrn"
  },
  {
    "postcode": "66802",
    "city": "Saarlouis"
  },
  {
    "postcode": "66802",
    "city": "Berus"
  },
  {
    "postcode": "66802",
    "city": "Altforweiler"
  },
  {
    "postcode": "66802",
    "city": "Wohnstadt"
  },
  {
    "postcode": "66802",
    "city": "Felsberg"
  },
  {
    "postcode": "66802",
    "city": "Bisten"
  },
  {
    "postcode": "66806",
    "city": "Ensdorf Saar"
  },
  {
    "postcode": "66806",
    "city": "Ensdorf"
  },
  {
    "postcode": "66806",
    "city": "Saarlouis"
  },
  {
    "postcode": "66809",
    "city": "Nalbach"
  },
  {
    "postcode": "66809",
    "city": "Saarlouis"
  },
  {
    "postcode": "66809",
    "city": "Piesbach"
  },
  {
    "postcode": "66809",
    "city": "Körprich"
  },
  {
    "postcode": "66809",
    "city": "Bilsdorf"
  },
  {
    "postcode": "66822",
    "city": "Lebach"
  },
  {
    "postcode": "66822",
    "city": "Saarlouis"
  },
  {
    "postcode": "66822",
    "city": "Gresaubach"
  },
  {
    "postcode": "66822",
    "city": "Niedersaubach"
  },
  {
    "postcode": "66822",
    "city": "Thalexweiler"
  },
  {
    "postcode": "66822",
    "city": "Dörsdorf"
  },
  {
    "postcode": "66822",
    "city": "Falscheid"
  },
  {
    "postcode": "66822",
    "city": "Aschbach"
  },
  {
    "postcode": "66822",
    "city": "Steinbach"
  },
  {
    "postcode": "66822",
    "city": "Landsweiler"
  },
  {
    "postcode": "66822",
    "city": "Eidenborn"
  },
  {
    "postcode": "66822",
    "city": "Knorscheid"
  },
  {
    "postcode": "66839",
    "city": "Schmelz Saar"
  },
  {
    "postcode": "66839",
    "city": "Schmelz"
  },
  {
    "postcode": "66839",
    "city": "Saarlouis"
  },
  {
    "postcode": "66839",
    "city": "Hüttersdorf"
  },
  {
    "postcode": "66839",
    "city": "Michelbach"
  },
  {
    "postcode": "66839",
    "city": "Limbach"
  },
  {
    "postcode": "66839",
    "city": "Primsweiler"
  },
  {
    "postcode": "66839",
    "city": "Dorf"
  },
  {
    "postcode": "66849",
    "city": "Bildschacherhof"
  },
  {
    "postcode": "66849",
    "city": "Landstuhl"
  },
  {
    "postcode": "66849",
    "city": "Stadt Ramstein-Miesenbach"
  },
  {
    "postcode": "66849",
    "city": "Kaiserslautern"
  },
  {
    "postcode": "66849",
    "city": "Artamhof"
  },
  {
    "postcode": "66849",
    "city": "Atzel"
  },
  {
    "postcode": "66849",
    "city": "Industriegebiet"
  },
  {
    "postcode": "66849",
    "city": "Melkerei"
  },
  {
    "postcode": "66849",
    "city": "Rothenborn"
  },
  {
    "postcode": "66849",
    "city": "Kirchberg"
  },
  {
    "postcode": "66851",
    "city": "Bann Pfalz"
  },
  {
    "postcode": "66851",
    "city": "Bann"
  },
  {
    "postcode": "66851",
    "city": "Hauptstuhl"
  },
  {
    "postcode": "66851",
    "city": "Horbach Pfalz"
  },
  {
    "postcode": "66851",
    "city": "Horbach"
  },
  {
    "postcode": "66851",
    "city": "Königreich Pfalz"
  },
  {
    "postcode": "66851",
    "city": "Königreich"
  },
  {
    "postcode": "66851",
    "city": "Linden Pfalz"
  },
  {
    "postcode": "66851",
    "city": "Linden"
  },
  {
    "postcode": "66851",
    "city": "Mittelbrunn"
  },
  {
    "postcode": "66851",
    "city": "Oberarnbach Pfalz"
  },
  {
    "postcode": "66851",
    "city": "Oberarnbach"
  },
  {
    "postcode": "66851",
    "city": "Queidersbach"
  },
  {
    "postcode": "66851",
    "city": "Scharrhof"
  },
  {
    "postcode": "66851",
    "city": "Steinalben"
  },
  {
    "postcode": "66851",
    "city": "Kaiserslautern"
  },
  {
    "postcode": "66851",
    "city": "Scharrmühle"
  },
  {
    "postcode": "66862",
    "city": "Kindsbach"
  },
  {
    "postcode": "66862",
    "city": "Kaiserslautern"
  },
  {
    "postcode": "66869",
    "city": "Blaubach Pfalz"
  },
  {
    "postcode": "66869",
    "city": "Blaubach"
  },
  {
    "postcode": "66869",
    "city": "Bledesbach"
  },
  {
    "postcode": "66869",
    "city": "Diedelkopf"
  },
  {
    "postcode": "66869",
    "city": "Kusel"
  },
  {
    "postcode": "66869",
    "city": "Ruthweiler"
  },
  {
    "postcode": "66869",
    "city": "Schellweiler"
  },
  {
    "postcode": "66869",
    "city": "Industriegebiet"
  },
  {
    "postcode": "66869",
    "city": "Industriegebiet/B 420"
  },
  {
    "postcode": "66871",
    "city": "Albessen"
  },
  {
    "postcode": "66871",
    "city": "Dennweiler"
  },
  {
    "postcode": "66871",
    "city": "Dennweiler-Frohnbach"
  },
  {
    "postcode": "66871",
    "city": "Ehweiler"
  },
  {
    "postcode": "66871",
    "city": "Etschberg"
  },
  {
    "postcode": "66871",
    "city": "Frohnbach"
  },
  {
    "postcode": "66871",
    "city": "Godelhausen"
  },
  {
    "postcode": "66871",
    "city": "Haschbach am Remigiusberg"
  },
  {
    "postcode": "66871",
    "city": "Herchweiler"
  },
  {
    "postcode": "66871",
    "city": "Konken"
  },
  {
    "postcode": "66871",
    "city": "Körborn"
  },
  {
    "postcode": "66871",
    "city": "Mayweilerhof"
  },
  {
    "postcode": "66871",
    "city": "Oberalben"
  },
  {
    "postcode": "66871",
    "city": "Pfeffelbach"
  },
  {
    "postcode": "66871",
    "city": "Reichweiler"
  },
  {
    "postcode": "66871",
    "city": "Selchenbach"
  },
  {
    "postcode": "66871",
    "city": "Thallichtenberg"
  },
  {
    "postcode": "66871",
    "city": "Theisbergstegen"
  },
  {
    "postcode": "66871",
    "city": "Kusel"
  },
  {
    "postcode": "66877",
    "city": "Flugplatz"
  },
  {
    "postcode": "66877",
    "city": "Miesenbach"
  },
  {
    "postcode": "66877",
    "city": "Ramstein"
  },
  {
    "postcode": "66877",
    "city": "Ramstein-Miesenbach"
  },
  {
    "postcode": "66877",
    "city": "Kaiserslautern"
  },
  {
    "postcode": "66879",
    "city": "Albersbach"
  },
  {
    "postcode": "66879",
    "city": "Fockenberg-Limbach"
  },
  {
    "postcode": "66879",
    "city": "Gosenbergerhof"
  },
  {
    "postcode": "66879",
    "city": "Kirchmohr"
  },
  {
    "postcode": "66879",
    "city": "Kollweiler"
  },
  {
    "postcode": "66879",
    "city": "Kottweiler-Schwanden"
  },
  {
    "postcode": "66879",
    "city": "Niedermohr"
  },
  {
    "postcode": "66879",
    "city": "Niederstaufenbach"
  },
  {
    "postcode": "66879",
    "city": "Obermohr"
  },
  {
    "postcode": "66879",
    "city": "Oberstaufenbach"
  },
  {
    "postcode": "66879",
    "city": "Reichenbach Pfalz"
  },
  {
    "postcode": "66879",
    "city": "Reichenbach"
  },
  {
    "postcode": "66879",
    "city": "Reichenbach-Steegen"
  },
  {
    "postcode": "66879",
    "city": "Reuschbach"
  },
  {
    "postcode": "66879",
    "city": "Schrollbach"
  },
  {
    "postcode": "66879",
    "city": "Steinwenden"
  },
  {
    "postcode": "66879",
    "city": "Weltersbach"
  },
  {
    "postcode": "66879",
    "city": "Kaiserslautern"
  },
  {
    "postcode": "66879",
    "city": "Steegen"
  },
  {
    "postcode": "66882",
    "city": "Hütschenhausen"
  },
  {
    "postcode": "66882",
    "city": "Katzenbach bei Landstuhl"
  },
  {
    "postcode": "66882",
    "city": "Spesbach"
  },
  {
    "postcode": "66882",
    "city": "Kaiserslautern"
  },
  {
    "postcode": "66882",
    "city": "Katzenbach"
  },
  {
    "postcode": "66885",
    "city": "Altenglan"
  },
  {
    "postcode": "66885",
    "city": "Bedesbach"
  },
  {
    "postcode": "66885",
    "city": "Mühlbach am Glan"
  },
  {
    "postcode": "66885",
    "city": "Patersbach"
  },
  {
    "postcode": "66885",
    "city": "Kusel"
  },
  {
    "postcode": "66885",
    "city": "Mühlbach"
  },
  {
    "postcode": "66887",
    "city": "Bosenbach"
  },
  {
    "postcode": "66887",
    "city": "Elzweiler"
  },
  {
    "postcode": "66887",
    "city": "Erdesbach"
  },
  {
    "postcode": "66887",
    "city": "Eschenau Pfalz"
  },
  {
    "postcode": "66887",
    "city": "Eschenau"
  },
  {
    "postcode": "66887",
    "city": "Föckelberg"
  },
  {
    "postcode": "66887",
    "city": "Friedelhausen"
  },
  {
    "postcode": "66887",
    "city": "Glanbrücken"
  },
  {
    "postcode": "66887",
    "city": "Gumbsweiler"
  },
  {
    "postcode": "66887",
    "city": "Horschbach"
  },
  {
    "postcode": "66887",
    "city": "Jettenbach Pfalz"
  },
  {
    "postcode": "66887",
    "city": "Jettenbach"
  },
  {
    "postcode": "66887",
    "city": "Neunkirchen am Potzberg"
  },
  {
    "postcode": "66887",
    "city": "Niederalben"
  },
  {
    "postcode": "66887",
    "city": "Obereisenbach"
  },
  {
    "postcode": "66887",
    "city": "Rammelsbach Pfalz"
  },
  {
    "postcode": "66887",
    "city": "Rammelsbach"
  },
  {
    "postcode": "66887",
    "city": "Rathsweiler"
  },
  {
    "postcode": "66887",
    "city": "Rutsweiler am Glan"
  },
  {
    "postcode": "66887",
    "city": "Sankt Julian"
  },
  {
    "postcode": "66887",
    "city": "Sankt Julian Pfalz"
  },
  {
    "postcode": "66887",
    "city": "Ulmet"
  },
  {
    "postcode": "66887",
    "city": "Welchweiler"
  },
  {
    "postcode": "66887",
    "city": "Kusel"
  },
  {
    "postcode": "66887",
    "city": "St. Julian"
  },
  {
    "postcode": "66892",
    "city": "Bruchmühlbach"
  },
  {
    "postcode": "66892",
    "city": "Bruchmühlbach-Miesau"
  },
  {
    "postcode": "66892",
    "city": "Buchholz"
  },
  {
    "postcode": "66892",
    "city": "Elschbach Pfalz"
  },
  {
    "postcode": "66892",
    "city": "Elschbach"
  },
  {
    "postcode": "66892",
    "city": "Elschbacherhof"
  },
  {
    "postcode": "66892",
    "city": "Miesau"
  },
  {
    "postcode": "66892",
    "city": "Vogelbach Pfalz"
  },
  {
    "postcode": "66892",
    "city": "Vogelbach"
  },
  {
    "postcode": "66892",
    "city": "Kaiserslautern"
  },
  {
    "postcode": "66894",
    "city": "Bechhofen Pfalz"
  },
  {
    "postcode": "66894",
    "city": "Bechhofen"
  },
  {
    "postcode": "66894",
    "city": "Gerhardsbrunn"
  },
  {
    "postcode": "66894",
    "city": "Käshofen"
  },
  {
    "postcode": "66894",
    "city": "Krähenberg Pfalz"
  },
  {
    "postcode": "66894",
    "city": "Krähenberg"
  },
  {
    "postcode": "66894",
    "city": "Lambsborn"
  },
  {
    "postcode": "66894",
    "city": "Langwieden"
  },
  {
    "postcode": "66894",
    "city": "Martinshöhe Pfalz"
  },
  {
    "postcode": "66894",
    "city": "Martinshöhe"
  },
  {
    "postcode": "66894",
    "city": "Rosenkopf"
  },
  {
    "postcode": "66894",
    "city": "Wiesbach Pfalz"
  },
  {
    "postcode": "66894",
    "city": "Wiesbach"
  },
  {
    "postcode": "66894",
    "city": "Kaiserslautern"
  },
  {
    "postcode": "66901",
    "city": "Kübelberg"
  },
  {
    "postcode": "66901",
    "city": "Sand Pfalz"
  },
  {
    "postcode": "66901",
    "city": "Sand"
  },
  {
    "postcode": "66901",
    "city": "Schmittweiler bei Waldmohr"
  },
  {
    "postcode": "66901",
    "city": "Schönenberg"
  },
  {
    "postcode": "66901",
    "city": "Schönenberg-Kübelberg"
  },
  {
    "postcode": "66901",
    "city": "Kusel"
  },
  {
    "postcode": "66901",
    "city": "Schmittweiler"
  },
  {
    "postcode": "66903",
    "city": "Altenkirchen Pfalz"
  },
  {
    "postcode": "66903",
    "city": "Altenkirchen"
  },
  {
    "postcode": "66903",
    "city": "Dittweiler Pfalz"
  },
  {
    "postcode": "66903",
    "city": "Dittweiler"
  },
  {
    "postcode": "66903",
    "city": "Frohnhofen Pfalz"
  },
  {
    "postcode": "66903",
    "city": "Frohnhofen"
  },
  {
    "postcode": "66903",
    "city": "Gries Pfalz"
  },
  {
    "postcode": "66903",
    "city": "Gries"
  },
  {
    "postcode": "66903",
    "city": "Ohmbach Pfalz"
  },
  {
    "postcode": "66903",
    "city": "Ohmbach"
  },
  {
    "postcode": "66903",
    "city": "Kusel"
  },
  {
    "postcode": "66904",
    "city": "Börsborn"
  },
  {
    "postcode": "66904",
    "city": "Brücken (Pfalz)"
  },
  {
    "postcode": "66904",
    "city": "Brücken"
  },
  {
    "postcode": "66904",
    "city": "Kusel"
  },
  {
    "postcode": "66904",
    "city": "Gries"
  },
  {
    "postcode": "66907",
    "city": "Glan-Münchweiler"
  },
  {
    "postcode": "66907",
    "city": "Rehweiler Pfalz"
  },
  {
    "postcode": "66907",
    "city": "Rehweiler"
  },
  {
    "postcode": "66907",
    "city": "Kusel"
  },
  {
    "postcode": "66909",
    "city": "Eisenbach"
  },
  {
    "postcode": "66909",
    "city": "Frutzweiler Glan"
  },
  {
    "postcode": "66909",
    "city": "Frutzweiler"
  },
  {
    "postcode": "66909",
    "city": "Gimsbach"
  },
  {
    "postcode": "66909",
    "city": "Henschtal"
  },
  {
    "postcode": "66909",
    "city": "Herschweiler-Pettersheim"
  },
  {
    "postcode": "66909",
    "city": "Hüffler"
  },
  {
    "postcode": "66909",
    "city": "Krottelbach"
  },
  {
    "postcode": "66909",
    "city": "Langenbach Pfalz"
  },
  {
    "postcode": "66909",
    "city": "Langenbach"
  },
  {
    "postcode": "66909",
    "city": "Liebsthal"
  },
  {
    "postcode": "66909",
    "city": "Matzenbach"
  },
  {
    "postcode": "66909",
    "city": "Matzenbach Pfalz"
  },
  {
    "postcode": "66909",
    "city": "Nanzdietschweiler"
  },
  {
    "postcode": "66909",
    "city": "Quirnbach / Pfalz"
  },
  {
    "postcode": "66909",
    "city": "Quirnbach"
  },
  {
    "postcode": "66909",
    "city": "Quirnbach/Pfalz"
  },
  {
    "postcode": "66909",
    "city": "Steinbach am Glan"
  },
  {
    "postcode": "66909",
    "city": "Wahnwegen"
  },
  {
    "postcode": "66909",
    "city": "Kusel"
  },
  {
    "postcode": "66914",
    "city": "Eichelscheiderhof"
  },
  {
    "postcode": "66914",
    "city": "Waldmohr"
  },
  {
    "postcode": "66914",
    "city": "Kusel"
  },
  {
    "postcode": "66916",
    "city": "Bambergerhof Pfalz"
  },
  {
    "postcode": "66916",
    "city": "Bambergerhof"
  },
  {
    "postcode": "66916",
    "city": "Breitenbach Pfalz"
  },
  {
    "postcode": "66916",
    "city": "Breitenbach"
  },
  {
    "postcode": "66916",
    "city": "Dunzweiler"
  },
  {
    "postcode": "66916",
    "city": "Kusel"
  },
  {
    "postcode": "66916",
    "city": "Altenkirchen"
  },
  {
    "postcode": "66917",
    "city": "Biedershausen"
  },
  {
    "postcode": "66917",
    "city": "Knopp"
  },
  {
    "postcode": "66917",
    "city": "Knopp-Labach"
  },
  {
    "postcode": "66917",
    "city": "Labach"
  },
  {
    "postcode": "66917",
    "city": "Oberhausen"
  },
  {
    "postcode": "66917",
    "city": "Wallhalben"
  },
  {
    "postcode": "66917",
    "city": "Südwestpfalz"
  },
  {
    "postcode": "66917",
    "city": "Kneispermühle"
  },
  {
    "postcode": "66917",
    "city": "Würschhauserhof"
  },
  {
    "postcode": "66917",
    "city": "Würschhausermühle"
  },
  {
    "postcode": "66919",
    "city": "Gewerbegebiet Weselberg"
  },
  {
    "postcode": "66919",
    "city": "Harsberg Pfalz"
  },
  {
    "postcode": "66919",
    "city": "Harsberg"
  },
  {
    "postcode": "66919",
    "city": "Hermersberg Pfalz"
  },
  {
    "postcode": "66919",
    "city": "Hermersberg"
  },
  {
    "postcode": "66919",
    "city": "Herschberg Pfalz"
  },
  {
    "postcode": "66919",
    "city": "Herschberg"
  },
  {
    "postcode": "66919",
    "city": "Hettenhausen Pfalz"
  },
  {
    "postcode": "66919",
    "city": "Hettenhausen"
  },
  {
    "postcode": "66919",
    "city": "Neumühle"
  },
  {
    "postcode": "66919",
    "city": "Obernheim"
  },
  {
    "postcode": "66919",
    "city": "Obernheim-Kirchenarnbach"
  },
  {
    "postcode": "66919",
    "city": "Saalstadt"
  },
  {
    "postcode": "66919",
    "city": "Schauerberg Pfalz"
  },
  {
    "postcode": "66919",
    "city": "Schauerberg"
  },
  {
    "postcode": "66919",
    "city": "Weselberg"
  },
  {
    "postcode": "66919",
    "city": "Zeselberg"
  },
  {
    "postcode": "66919",
    "city": "Südwestpfalz"
  },
  {
    "postcode": "66953",
    "city": "Gemeinde Donsieders"
  },
  {
    "postcode": "66953",
    "city": "Gemeinde Thaleischweiler-Fröschen"
  },
  {
    "postcode": "66953",
    "city": "Pirmasens"
  },
  {
    "postcode": "66953",
    "city": "Innenstadt"
  },
  {
    "postcode": "66954",
    "city": "Fehrbach"
  },
  {
    "postcode": "66954",
    "city": "Gemeinde Vinningen"
  },
  {
    "postcode": "66954",
    "city": "Gersbach Pfalz"
  },
  {
    "postcode": "66954",
    "city": "Gersbach"
  },
  {
    "postcode": "66954",
    "city": "Hengsberg"
  },
  {
    "postcode": "66954",
    "city": "Pirmasens"
  },
  {
    "postcode": "66954",
    "city": "Windsberg"
  },
  {
    "postcode": "66954",
    "city": "Winzeln über Pirmasens"
  },
  {
    "postcode": "66954",
    "city": "Schelertal"
  },
  {
    "postcode": "66954",
    "city": "Innenstadt"
  },
  {
    "postcode": "66954",
    "city": "Winzeln"
  },
  {
    "postcode": "66955",
    "city": "Erlenbrunn"
  },
  {
    "postcode": "66955",
    "city": "Gemeinde Vinningen"
  },
  {
    "postcode": "66955",
    "city": "Niedersimten"
  },
  {
    "postcode": "66955",
    "city": "Pirmasens"
  },
  {
    "postcode": "66955",
    "city": "Ruhbank"
  },
  {
    "postcode": "66955",
    "city": "Winzeln über Pirmasens"
  },
  {
    "postcode": "66955",
    "city": "Innenstadt"
  },
  {
    "postcode": "66955",
    "city": "Winzeln"
  },
  {
    "postcode": "66957",
    "city": "Eppenbrunn"
  },
  {
    "postcode": "66957",
    "city": "Hilst"
  },
  {
    "postcode": "66957",
    "city": "Hochstellerhof"
  },
  {
    "postcode": "66957",
    "city": "Imsbacherhof"
  },
  {
    "postcode": "66957",
    "city": "Kröppen Pfalz"
  },
  {
    "postcode": "66957",
    "city": "Kröppen"
  },
  {
    "postcode": "66957",
    "city": "Obersimten"
  },
  {
    "postcode": "66957",
    "city": "Ruppertsweiler"
  },
  {
    "postcode": "66957",
    "city": "Schweix"
  },
  {
    "postcode": "66957",
    "city": "Trulben"
  },
  {
    "postcode": "66957",
    "city": "Vinningen"
  },
  {
    "postcode": "66957",
    "city": "Südwestpfalz"
  },
  {
    "postcode": "66969",
    "city": "Glashütte"
  },
  {
    "postcode": "66969",
    "city": "Langmühle"
  },
  {
    "postcode": "66969",
    "city": "Lemberg"
  },
  {
    "postcode": "66969",
    "city": "Lemberg Pfalz"
  },
  {
    "postcode": "66969",
    "city": "Salzwoog"
  },
  {
    "postcode": "66969",
    "city": "Südwestpfalz"
  },
  {
    "postcode": "66969",
    "city": "Kettrichhof"
  },
  {
    "postcode": "66976",
    "city": "Apostelmühle Kreis Pirmasens"
  },
  {
    "postcode": "66976",
    "city": "Apostelmühle"
  },
  {
    "postcode": "66976",
    "city": "Rodalben"
  },
  {
    "postcode": "66976",
    "city": "Südwestpfalz"
  },
  {
    "postcode": "66976",
    "city": "Horbergsiedlung"
  },
  {
    "postcode": "66978",
    "city": "Clausen Kreis Pirmasens"
  },
  {
    "postcode": "66978",
    "city": "Clausen"
  },
  {
    "postcode": "66978",
    "city": "Donsieders"
  },
  {
    "postcode": "66978",
    "city": "Leimen Pfalz"
  },
  {
    "postcode": "66978",
    "city": "Leimen"
  },
  {
    "postcode": "66978",
    "city": "Merzalben"
  },
  {
    "postcode": "66978",
    "city": "Röderhof Pfalz"
  },
  {
    "postcode": "66978",
    "city": "Röderhof"
  },
  {
    "postcode": "66978",
    "city": "Südwestpfalz"
  },
  {
    "postcode": "66981",
    "city": "Münchweiler an der Rodalb"
  },
  {
    "postcode": "66981",
    "city": "Südwestpfalz"
  },
  {
    "postcode": "66987",
    "city": "Thaleischweiler-Fröschen"
  },
  {
    "postcode": "66987",
    "city": "Südwestpfalz"
  },
  {
    "postcode": "66987",
    "city": "Weihermühle"
  },
  {
    "postcode": "66989",
    "city": "Höheinöd"
  },
  {
    "postcode": "66989",
    "city": "Höheischweiler"
  },
  {
    "postcode": "66989",
    "city": "Höhfröschen"
  },
  {
    "postcode": "66989",
    "city": "Huberhof bei Pirmasens"
  },
  {
    "postcode": "66989",
    "city": "Nünschweiler"
  },
  {
    "postcode": "66989",
    "city": "Petersberg Pfalz"
  },
  {
    "postcode": "66989",
    "city": "Petersberg"
  },
  {
    "postcode": "66989",
    "city": "Staffelhof Pfalz"
  },
  {
    "postcode": "66989",
    "city": "Staffelhof"
  },
  {
    "postcode": "66989",
    "city": "Südwestpfalz"
  },
  {
    "postcode": "66994",
    "city": "Dahn"
  },
  {
    "postcode": "66994",
    "city": "Südwestpfalz"
  },
  {
    "postcode": "66996",
    "city": "Erfweiler"
  },
  {
    "postcode": "66996",
    "city": "Fischbach"
  },
  {
    "postcode": "66996",
    "city": "Fischbach bei Dahn"
  },
  {
    "postcode": "66996",
    "city": "Gebüg"
  },
  {
    "postcode": "66996",
    "city": "Hirschthal"
  },
  {
    "postcode": "66996",
    "city": "Hirschthal Kreis Pirmasens"
  },
  {
    "postcode": "66996",
    "city": "Ludwigswinkel"
  },
  {
    "postcode": "66996",
    "city": "Petersbächel"
  },
  {
    "postcode": "66996",
    "city": "Schindhard"
  },
  {
    "postcode": "66996",
    "city": "Schönau (Pfalz)"
  },
  {
    "postcode": "66996",
    "city": "Schönau"
  },
  {
    "postcode": "66996",
    "city": "Südwestpfalz"
  },
  {
    "postcode": "66996",
    "city": "Bärenbrunnerhof"
  },
  {
    "postcode": "66996",
    "city": "Biehlerhof"
  },
  {
    "postcode": "66999",
    "city": "Hinterweidenthal"
  },
  {
    "postcode": "66999",
    "city": "Kaltenbach"
  },
  {
    "postcode": "66999",
    "city": "Südwestpfalz"
  }
]