[
  {
    "postcode": "6108",
    "city": "Halle (Saale)"
  },
  {
    "postcode": "6108",
    "city": "Halle"
  },
  {
    "postcode": "6108",
    "city": "Halle Saale"
  },
  {
    "postcode": "6108",
    "city": "Innenstadt"
  },
  {
    "postcode": "6108",
    "city": "Altstadt"
  },
  {
    "postcode": "6108",
    "city": "Saaleaue"
  },
  {
    "postcode": "6108",
    "city": "Giebichenstein"
  },
  {
    "postcode": "6108",
    "city": "Paulusviertel"
  },
  {
    "postcode": "6110",
    "city": "Halle (Saale)"
  },
  {
    "postcode": "6110",
    "city": "Halle"
  },
  {
    "postcode": "6110",
    "city": "Halle Saale"
  },
  {
    "postcode": "6110",
    "city": "Innenstadt"
  },
  {
    "postcode": "6110",
    "city": "Gesundbrunnen"
  },
  {
    "postcode": "6110",
    "city": "Damaschkestraße"
  },
  {
    "postcode": "6110",
    "city": "Lutherplatz"
  },
  {
    "postcode": "6110",
    "city": "Saaleaue"
  },
  {
    "postcode": "6112",
    "city": "Halle (Saale)"
  },
  {
    "postcode": "6112",
    "city": "Halle"
  },
  {
    "postcode": "6112",
    "city": "Halle Saale"
  },
  {
    "postcode": "6112",
    "city": "Lutherplatz"
  },
  {
    "postcode": "6112",
    "city": "Damaschkestraße"
  },
  {
    "postcode": "6112",
    "city": "Innenstadt"
  },
  {
    "postcode": "6112",
    "city": "Dieselstraße"
  },
  {
    "postcode": "6112",
    "city": "Am Wasserturm"
  },
  {
    "postcode": "6112",
    "city": "Freiimfelde"
  },
  {
    "postcode": "6112",
    "city": "Büschdorf"
  },
  {
    "postcode": "6112",
    "city": "Diemitz"
  },
  {
    "postcode": "6112",
    "city": "Kanena-Bruckdorf"
  },
  {
    "postcode": "6114",
    "city": "Halle (Saale)"
  },
  {
    "postcode": "6114",
    "city": "Halle"
  },
  {
    "postcode": "6114",
    "city": "Halle Saale"
  },
  {
    "postcode": "6114",
    "city": "Am Wasserturm"
  },
  {
    "postcode": "6114",
    "city": "Paulusviertel"
  },
  {
    "postcode": "6114",
    "city": "Giebichenstein"
  },
  {
    "postcode": "6114",
    "city": "Innenstadt"
  },
  {
    "postcode": "6114",
    "city": "Trotha"
  },
  {
    "postcode": "6116",
    "city": "Halle (Saale)"
  },
  {
    "postcode": "6116",
    "city": "Halle"
  },
  {
    "postcode": "6116",
    "city": "Halle Saale"
  },
  {
    "postcode": "6116",
    "city": "Dautzsch"
  },
  {
    "postcode": "6116",
    "city": "Reideburg"
  },
  {
    "postcode": "6116",
    "city": "Büschdorf"
  },
  {
    "postcode": "6116",
    "city": "Kanena-Bruckdorf"
  },
  {
    "postcode": "6116",
    "city": "Diemitz"
  },
  {
    "postcode": "6116",
    "city": "Frohe Zukunft"
  },
  {
    "postcode": "6116",
    "city": "Freiimfelde"
  },
  {
    "postcode": "6118",
    "city": "Halle (Saale)"
  },
  {
    "postcode": "6118",
    "city": "Halle"
  },
  {
    "postcode": "6118",
    "city": "Halle Saale"
  },
  {
    "postcode": "6118",
    "city": "Frohe Zukunft"
  },
  {
    "postcode": "6118",
    "city": "Gottfried-Keller-Siedlung"
  },
  {
    "postcode": "6118",
    "city": "Landrain"
  },
  {
    "postcode": "6118",
    "city": "Tornau"
  },
  {
    "postcode": "6118",
    "city": "Seeben"
  },
  {
    "postcode": "6118",
    "city": "Trotha"
  },
  {
    "postcode": "6118",
    "city": "Mötzlich"
  },
  {
    "postcode": "6118",
    "city": "Giebichenstein"
  },
  {
    "postcode": "6120",
    "city": "Halle (Saale)"
  },
  {
    "postcode": "6120",
    "city": "Halle"
  },
  {
    "postcode": "6120",
    "city": "Lieskau bei Halle"
  },
  {
    "postcode": "6120",
    "city": "Halle Saale"
  },
  {
    "postcode": "6120",
    "city": "Kröllwitz"
  },
  {
    "postcode": "6120",
    "city": "Heide Nord"
  },
  {
    "postcode": "6120",
    "city": "Heide Süd"
  },
  {
    "postcode": "6120",
    "city": "Dölau"
  },
  {
    "postcode": "6120",
    "city": "Lettin"
  },
  {
    "postcode": "6120",
    "city": "Giebichenstein"
  },
  {
    "postcode": "6122",
    "city": "Halle (Saale)"
  },
  {
    "postcode": "6122",
    "city": "Halle"
  },
  {
    "postcode": "6122",
    "city": "Halle Saale"
  },
  {
    "postcode": "6122",
    "city": "Nördliche Neustadt"
  },
  {
    "postcode": "6122",
    "city": "Nietleben"
  },
  {
    "postcode": "6122",
    "city": "Saaleaue"
  },
  {
    "postcode": "6124",
    "city": "Halle (Saale)"
  },
  {
    "postcode": "6124",
    "city": "Halle"
  },
  {
    "postcode": "6124",
    "city": "Halle Saale"
  },
  {
    "postcode": "6124",
    "city": "Südliche Neustadt"
  },
  {
    "postcode": "6124",
    "city": "Westliche Neustadt"
  },
  {
    "postcode": "6124",
    "city": "Neustadt"
  },
  {
    "postcode": "6124",
    "city": "Saaleaue"
  },
  {
    "postcode": "6126",
    "city": "Halle (Saale)"
  },
  {
    "postcode": "6126",
    "city": "Halle"
  },
  {
    "postcode": "6126",
    "city": "Halle Saale"
  },
  {
    "postcode": "6126",
    "city": "Nietleben"
  },
  {
    "postcode": "6126",
    "city": "Westliche Neustadt"
  },
  {
    "postcode": "6126",
    "city": "Neustadt"
  },
  {
    "postcode": "6126",
    "city": "Versorgungsgebiet"
  },
  {
    "postcode": "6126",
    "city": "Nördliche Neustadt"
  },
  {
    "postcode": "6128",
    "city": "Halle (Saale)"
  },
  {
    "postcode": "6128",
    "city": "Halle"
  },
  {
    "postcode": "6128",
    "city": "Halle Saale"
  },
  {
    "postcode": "6128",
    "city": "Böllberg-Wörmlitz"
  },
  {
    "postcode": "6128",
    "city": "Gesundbrunnen"
  },
  {
    "postcode": "6128",
    "city": "Südstadt"
  },
  {
    "postcode": "6128",
    "city": "Silberhöhe"
  },
  {
    "postcode": "6128",
    "city": "Innenstadt"
  },
  {
    "postcode": "6130",
    "city": "Halle (Saale)"
  },
  {
    "postcode": "6130",
    "city": "Halle"
  },
  {
    "postcode": "6130",
    "city": "Halle Saale"
  },
  {
    "postcode": "6130",
    "city": "Dieselstraße"
  },
  {
    "postcode": "6130",
    "city": "Damaschkestraße"
  },
  {
    "postcode": "6130",
    "city": "Südstadt"
  },
  {
    "postcode": "6130",
    "city": "Ammendorf-Beesen"
  },
  {
    "postcode": "6132",
    "city": "Halle (Saale)"
  },
  {
    "postcode": "6132",
    "city": "Halle"
  },
  {
    "postcode": "6132",
    "city": "Halle Saale"
  },
  {
    "postcode": "6132",
    "city": "Radewell-Osendorf"
  },
  {
    "postcode": "6132",
    "city": "Ammendorf-Beesen"
  },
  {
    "postcode": "6132",
    "city": "Silberhöhe"
  },
  {
    "postcode": "6132",
    "city": "Beesen"
  },
  {
    "postcode": "6132",
    "city": "Planena"
  },
  {
    "postcode": "6132",
    "city": "Dölau"
  },
  {
    "postcode": "6179",
    "city": "Angersdorf bei Halle Saale"
  },
  {
    "postcode": "6179",
    "city": "Angersdorf bei Halle"
  },
  {
    "postcode": "6179",
    "city": "Bennstedt"
  },
  {
    "postcode": "6179",
    "city": "Dornstedt"
  },
  {
    "postcode": "6179",
    "city": "Hohenweiden"
  },
  {
    "postcode": "6179",
    "city": "Höhnstedt"
  },
  {
    "postcode": "6179",
    "city": "Holleben"
  },
  {
    "postcode": "6179",
    "city": "Langenbogen"
  },
  {
    "postcode": "6179",
    "city": "Schkopau"
  },
  {
    "postcode": "6179",
    "city": "Schochwitz"
  },
  {
    "postcode": "6179",
    "city": "Steuden"
  },
  {
    "postcode": "6179",
    "city": "Teutschenthal"
  },
  {
    "postcode": "6179",
    "city": "Zappendorf"
  },
  {
    "postcode": "6179",
    "city": "Zscherben bei Halle Saale"
  },
  {
    "postcode": "6179",
    "city": "Zscherben bei Halle"
  },
  {
    "postcode": "6179",
    "city": "Saalekreis"
  },
  {
    "postcode": "6179",
    "city": "Zscherben"
  },
  {
    "postcode": "6179",
    "city": "Angersdorf"
  },
  {
    "postcode": "6179",
    "city": "Eisdorf"
  },
  {
    "postcode": "6179",
    "city": "Etzdorf"
  },
  {
    "postcode": "6179",
    "city": "Asendorf"
  },
  {
    "postcode": "6179",
    "city": "Köchstedt"
  },
  {
    "postcode": "6179",
    "city": "Bahnhof"
  },
  {
    "postcode": "6179",
    "city": "Benkendorf"
  },
  {
    "postcode": "6184",
    "city": "Burgliebenau"
  },
  {
    "postcode": "6184",
    "city": "Dieskau"
  },
  {
    "postcode": "6184",
    "city": "Dölbau"
  },
  {
    "postcode": "6184",
    "city": "Döllnitz bei Halle Saale"
  },
  {
    "postcode": "6184",
    "city": "Döllnitz bei Halle"
  },
  {
    "postcode": "6184",
    "city": "Ermlitz"
  },
  {
    "postcode": "6184",
    "city": "Gröbers"
  },
  {
    "postcode": "6184",
    "city": "Großkugel"
  },
  {
    "postcode": "6184",
    "city": "Kabelsketal"
  },
  {
    "postcode": "6184",
    "city": "Lochau bei Halle Saale"
  },
  {
    "postcode": "6184",
    "city": "Lochau bei Halle"
  },
  {
    "postcode": "6184",
    "city": "Raßnitz"
  },
  {
    "postcode": "6184",
    "city": "Röglitz"
  },
  {
    "postcode": "6184",
    "city": "Schkopau"
  },
  {
    "postcode": "6184",
    "city": "Saalekreis"
  },
  {
    "postcode": "6184",
    "city": "Zwintschöna"
  },
  {
    "postcode": "6184",
    "city": "Schwoitsch"
  },
  {
    "postcode": "6184",
    "city": "Kleinkugel"
  },
  {
    "postcode": "6184",
    "city": "Naundorf"
  },
  {
    "postcode": "6184",
    "city": "Beuditz"
  },
  {
    "postcode": "6184",
    "city": "Benndorf"
  },
  {
    "postcode": "6184",
    "city": "Osmünde"
  },
  {
    "postcode": "6184",
    "city": "Gottenz"
  },
  {
    "postcode": "6188",
    "city": "Brachstedt"
  },
  {
    "postcode": "6188",
    "city": "Braschwitz"
  },
  {
    "postcode": "6188",
    "city": "Hohenthurm"
  },
  {
    "postcode": "6188",
    "city": "Landsberg bei Halle Saale"
  },
  {
    "postcode": "6188",
    "city": "Landsberg bei Halle"
  },
  {
    "postcode": "6188",
    "city": "Niemberg"
  },
  {
    "postcode": "6188",
    "city": "Oppin bei Halle Saale"
  },
  {
    "postcode": "6188",
    "city": "Oppin bei Halle"
  },
  {
    "postcode": "6188",
    "city": "Peißen bei Halle Saale"
  },
  {
    "postcode": "6188",
    "city": "Peißen bei Halle"
  },
  {
    "postcode": "6188",
    "city": "Queis"
  },
  {
    "postcode": "6188",
    "city": "Reußen bei Halle Saale"
  },
  {
    "postcode": "6188",
    "city": "Reußen bei Halle"
  },
  {
    "postcode": "6188",
    "city": "Schwerz"
  },
  {
    "postcode": "6188",
    "city": "Sietzsch"
  },
  {
    "postcode": "6188",
    "city": "Spickendorf"
  },
  {
    "postcode": "6188",
    "city": "Saalekreis"
  },
  {
    "postcode": "6188",
    "city": "Landsberg"
  },
  {
    "postcode": "6188",
    "city": "Peißen"
  },
  {
    "postcode": "6188",
    "city": "Gollma"
  },
  {
    "postcode": "6188",
    "city": "Oppin"
  },
  {
    "postcode": "6188",
    "city": "Zöberitz"
  },
  {
    "postcode": "6188",
    "city": "Maschwitz"
  },
  {
    "postcode": "6188",
    "city": "Klepzig"
  },
  {
    "postcode": "6188",
    "city": "Reußen"
  },
  {
    "postcode": "6188",
    "city": "Petersdorf"
  },
  {
    "postcode": "6188",
    "city": "Gütz"
  },
  {
    "postcode": "6188",
    "city": "Zwebendorf"
  },
  {
    "postcode": "6188",
    "city": "Wiedersdorf"
  },
  {
    "postcode": "6188",
    "city": "Plößnitz"
  },
  {
    "postcode": "6188",
    "city": "Lohnsdorf"
  },
  {
    "postcode": "6188",
    "city": "Wölls-Petersdorf"
  },
  {
    "postcode": "6188",
    "city": "Dammendorf"
  },
  {
    "postcode": "6188",
    "city": "Bageritz"
  },
  {
    "postcode": "6188",
    "city": "Reinsdorf"
  },
  {
    "postcode": "6188",
    "city": "Eismannsdorf"
  },
  {
    "postcode": "6188",
    "city": "Kockwitz"
  },
  {
    "postcode": "6188",
    "city": "Rabatz"
  },
  {
    "postcode": "6188",
    "city": "Stichelsdorf"
  },
  {
    "postcode": "6188",
    "city": "Kneipe"
  },
  {
    "postcode": "6193",
    "city": "Götschetal"
  },
  {
    "postcode": "6193",
    "city": "Gutenberg bei Halle"
  },
  {
    "postcode": "6193",
    "city": "Krosigk"
  },
  {
    "postcode": "6193",
    "city": "Kütten"
  },
  {
    "postcode": "6193",
    "city": "Löbejün"
  },
  {
    "postcode": "6193",
    "city": "Morl"
  },
  {
    "postcode": "6193",
    "city": "Mösthinsdorf"
  },
  {
    "postcode": "6193",
    "city": "Nauendorf bei Halle"
  },
  {
    "postcode": "6193",
    "city": "Nehlitz"
  },
  {
    "postcode": "6193",
    "city": "Ostrau bei Halle"
  },
  {
    "postcode": "6193",
    "city": "Petersberg bei Halle"
  },
  {
    "postcode": "6193",
    "city": "Plötz bei Halle"
  },
  {
    "postcode": "6193",
    "city": "Sennewitz"
  },
  {
    "postcode": "6193",
    "city": "Teicha bei Halle"
  },
  {
    "postcode": "6193",
    "city": "Wallwitz (Saalkreis)"
  },
  {
    "postcode": "6193",
    "city": "Wallwitz"
  },
  {
    "postcode": "6193",
    "city": "Saalekreis"
  },
  {
    "postcode": "6193",
    "city": "Petersberg"
  },
  {
    "postcode": "6193",
    "city": "Wettin-Löbejün"
  },
  {
    "postcode": "6193",
    "city": "Frößnitz"
  },
  {
    "postcode": "6193",
    "city": "Brachstedt"
  },
  {
    "postcode": "6193",
    "city": "Gutenberg"
  },
  {
    "postcode": "6193",
    "city": "Ostrau"
  },
  {
    "postcode": "6193",
    "city": "Teicha"
  },
  {
    "postcode": "6193",
    "city": "Räthern"
  },
  {
    "postcode": "6193",
    "city": "Westewitz"
  },
  {
    "postcode": "6193",
    "city": "Drehlitz"
  },
  {
    "postcode": "6193",
    "city": "Trebitz"
  },
  {
    "postcode": "6193",
    "city": "Drobitz"
  },
  {
    "postcode": "6193",
    "city": "Sylbitz"
  },
  {
    "postcode": "6193",
    "city": "Beidersee"
  },
  {
    "postcode": "6193",
    "city": "Dachritz"
  },
  {
    "postcode": "6193",
    "city": "Hohen"
  },
  {
    "postcode": "6193",
    "city": "Möderau"
  },
  {
    "postcode": "6193",
    "city": "Merkewitz"
  },
  {
    "postcode": "6193",
    "city": "Kaltenmark"
  },
  {
    "postcode": "6193",
    "city": "Grube Ferdinande"
  },
  {
    "postcode": "6193",
    "city": "Wurp"
  },
  {
    "postcode": "6193",
    "city": "Nauendorf"
  },
  {
    "postcode": "6193",
    "city": "Dößel"
  },
  {
    "postcode": "6193",
    "city": "Priester"
  },
  {
    "postcode": "6193",
    "city": "Domnitz"
  },
  {
    "postcode": "6193",
    "city": "Dornitz"
  },
  {
    "postcode": "6193",
    "city": "Plötz"
  },
  {
    "postcode": "6193",
    "city": "Schlettau"
  },
  {
    "postcode": "6193",
    "city": "Dalena"
  },
  {
    "postcode": "6193",
    "city": "Friedrichsschwerz"
  },
  {
    "postcode": "6193",
    "city": "Wettin"
  },
  {
    "postcode": "6193",
    "city": "Rothenburg"
  },
  {
    "postcode": "6193",
    "city": "Neutz"
  },
  {
    "postcode": "6193",
    "city": "Brachwitz"
  },
  {
    "postcode": "6193",
    "city": "Gimritz"
  },
  {
    "postcode": "6193",
    "city": "Zaschwitz"
  },
  {
    "postcode": "6193",
    "city": "Dobis"
  },
  {
    "postcode": "6193",
    "city": "Kösseln"
  },
  {
    "postcode": "6193",
    "city": "Mücheln"
  },
  {
    "postcode": "6193",
    "city": "Deutleben"
  },
  {
    "postcode": "6193",
    "city": "Merbitz"
  },
  {
    "postcode": "6193",
    "city": "Görbitz"
  },
  {
    "postcode": "6193",
    "city": "Lettewitz"
  },
  {
    "postcode": "6193",
    "city": "Neutz-Lettewitz"
  },
  {
    "postcode": "6193",
    "city": "Döblitz"
  },
  {
    "postcode": "6198",
    "city": "Beesenstedt"
  },
  {
    "postcode": "6198",
    "city": "Brachwitz bei Halle"
  },
  {
    "postcode": "6198",
    "city": "Döblitz bei Halle"
  },
  {
    "postcode": "6198",
    "city": "Dößel"
  },
  {
    "postcode": "6198",
    "city": "Fienstedt"
  },
  {
    "postcode": "6198",
    "city": "Gimritz"
  },
  {
    "postcode": "6198",
    "city": "Kloschwitz bei Halle"
  },
  {
    "postcode": "6198",
    "city": "Neutz-Lettewitz"
  },
  {
    "postcode": "6198",
    "city": "Salzmünde"
  },
  {
    "postcode": "6198",
    "city": "Wettin"
  },
  {
    "postcode": "6198",
    "city": "Saalekreis"
  },
  {
    "postcode": "6198",
    "city": "Salzatal"
  },
  {
    "postcode": "6198",
    "city": "Schiepzig"
  },
  {
    "postcode": "6198",
    "city": "Bennstedt"
  },
  {
    "postcode": "6198",
    "city": "Lieskau"
  },
  {
    "postcode": "6198",
    "city": "Höhnstedt"
  },
  {
    "postcode": "6198",
    "city": "Rumpin"
  },
  {
    "postcode": "6198",
    "city": "Schwittersdorf"
  },
  {
    "postcode": "6198",
    "city": "Räther"
  },
  {
    "postcode": "6198",
    "city": "Pfützthal"
  },
  {
    "postcode": "6198",
    "city": "Gorsleben"
  },
  {
    "postcode": "6198",
    "city": "Trebitz"
  },
  {
    "postcode": "6198",
    "city": "Müllerdorf"
  },
  {
    "postcode": "6198",
    "city": "Zappendorf"
  },
  {
    "postcode": "6198",
    "city": "Kloschwitz"
  },
  {
    "postcode": "6198",
    "city": "Schochwitz"
  },
  {
    "postcode": "6198",
    "city": "Benkendorf b Salzmünde"
  },
  {
    "postcode": "6198",
    "city": "Köllme"
  },
  {
    "postcode": "6198",
    "city": "Zörnitz"
  },
  {
    "postcode": "6198",
    "city": "Krimpe"
  },
  {
    "postcode": "6198",
    "city": "Johannashall"
  },
  {
    "postcode": "6198",
    "city": "Wils"
  },
  {
    "postcode": "6198",
    "city": "Neuragoczy"
  },
  {
    "postcode": "6198",
    "city": "Quillschina"
  },
  {
    "postcode": "6198",
    "city": "Gödewitz"
  },
  {
    "postcode": "6198",
    "city": "Naundorf"
  },
  {
    "postcode": "61118",
    "city": "Bad Vilbel"
  },
  {
    "postcode": "61118",
    "city": "Dortelweil"
  },
  {
    "postcode": "61118",
    "city": "Gronau bei Bad Vilbel"
  },
  {
    "postcode": "61118",
    "city": "Massenheim bei Bad Vilbel"
  },
  {
    "postcode": "61118",
    "city": "Wetteraukreis"
  },
  {
    "postcode": "61118",
    "city": "Gronau"
  },
  {
    "postcode": "61118",
    "city": "Massenheim"
  },
  {
    "postcode": "61130",
    "city": "Eichen Hessen"
  },
  {
    "postcode": "61130",
    "city": "Eichen"
  },
  {
    "postcode": "61130",
    "city": "Erbstadt"
  },
  {
    "postcode": "61130",
    "city": "Heldenbergen"
  },
  {
    "postcode": "61130",
    "city": "Nidderau"
  },
  {
    "postcode": "61130",
    "city": "Nidderau Hessen"
  },
  {
    "postcode": "61130",
    "city": "Ostheim Kreis Hanau"
  },
  {
    "postcode": "61130",
    "city": "Ostheim"
  },
  {
    "postcode": "61130",
    "city": "Windecken"
  },
  {
    "postcode": "61130",
    "city": "Main-Kinzig-Kreis"
  },
  {
    "postcode": "61130",
    "city": "Winnerhöfe"
  },
  {
    "postcode": "61137",
    "city": "Büdesheim Hessen"
  },
  {
    "postcode": "61137",
    "city": "Büdesheim"
  },
  {
    "postcode": "61137",
    "city": "Kilianstädten"
  },
  {
    "postcode": "61137",
    "city": "Oberdorfelden"
  },
  {
    "postcode": "61137",
    "city": "Schöneck Hessen"
  },
  {
    "postcode": "61137",
    "city": "Schöneck"
  },
  {
    "postcode": "61137",
    "city": "Main-Kinzig-Kreis"
  },
  {
    "postcode": "61138",
    "city": "Niederdorfelden"
  },
  {
    "postcode": "61138",
    "city": "Main-Kinzig-Kreis"
  },
  {
    "postcode": "61169",
    "city": "Bauernheim"
  },
  {
    "postcode": "61169",
    "city": "Bruchenbrücken"
  },
  {
    "postcode": "61169",
    "city": "Dorheim Wetterau"
  },
  {
    "postcode": "61169",
    "city": "Dorheim"
  },
  {
    "postcode": "61169",
    "city": "Friedberg"
  },
  {
    "postcode": "61169",
    "city": "Friedberg (Hessen)"
  },
  {
    "postcode": "61169",
    "city": "Ockstadt"
  },
  {
    "postcode": "61169",
    "city": "Ossenheim"
  },
  {
    "postcode": "61169",
    "city": "Wetteraukreis"
  },
  {
    "postcode": "61184",
    "city": "Karben"
  },
  {
    "postcode": "61184",
    "city": "Kloppenheim Wetterau"
  },
  {
    "postcode": "61184",
    "city": "Kloppenheim"
  },
  {
    "postcode": "61184",
    "city": "Okarben"
  },
  {
    "postcode": "61184",
    "city": "Petterweil"
  },
  {
    "postcode": "61184",
    "city": "Rendel Hessen"
  },
  {
    "postcode": "61184",
    "city": "Rendel"
  },
  {
    "postcode": "61184",
    "city": "Wetteraukreis"
  },
  {
    "postcode": "61184",
    "city": "Klein-Karben"
  },
  {
    "postcode": "61184",
    "city": "Groß-Karben"
  },
  {
    "postcode": "61184",
    "city": "Burg-Gräfenrode"
  },
  {
    "postcode": "61191",
    "city": "Nieder-Rosbach Kreis Friedberg Hessen"
  },
  {
    "postcode": "61191",
    "city": "Nieder-Rosbach"
  },
  {
    "postcode": "61191",
    "city": "Ober-Rosbach Kreis Friedberg Hessen"
  },
  {
    "postcode": "61191",
    "city": "Ober-Rosbach"
  },
  {
    "postcode": "61191",
    "city": "Rodheim vor der Höhe"
  },
  {
    "postcode": "61191",
    "city": "Rosbach vor der Höhe"
  },
  {
    "postcode": "61191",
    "city": "Wetteraukreis"
  },
  {
    "postcode": "61191",
    "city": "Rosbach"
  },
  {
    "postcode": "61191",
    "city": "Rodheim"
  },
  {
    "postcode": "61194",
    "city": "Assenheim Hessen"
  },
  {
    "postcode": "61194",
    "city": "Assenheim"
  },
  {
    "postcode": "61194",
    "city": "Bönstadt Hessen"
  },
  {
    "postcode": "61194",
    "city": "Bönstadt"
  },
  {
    "postcode": "61194",
    "city": "Ilbenstadt Hessen"
  },
  {
    "postcode": "61194",
    "city": "Ilbenstadt"
  },
  {
    "postcode": "61194",
    "city": "Kaichen"
  },
  {
    "postcode": "61194",
    "city": "Niddatal"
  },
  {
    "postcode": "61194",
    "city": "Wetteraukreis"
  },
  {
    "postcode": "61197",
    "city": "Florstadt"
  },
  {
    "postcode": "61197",
    "city": "Leidhecken"
  },
  {
    "postcode": "61197",
    "city": "Staden Hessen"
  },
  {
    "postcode": "61197",
    "city": "Staden"
  },
  {
    "postcode": "61197",
    "city": "Stammheim Kreis Friedberg Hessen"
  },
  {
    "postcode": "61197",
    "city": "Stammheim"
  },
  {
    "postcode": "61197",
    "city": "Wetteraukreis"
  },
  {
    "postcode": "61197",
    "city": "Nieder-Florstadt"
  },
  {
    "postcode": "61197",
    "city": "Nieder-Mockstadt"
  },
  {
    "postcode": "61197",
    "city": "Ober-Florstadt"
  },
  {
    "postcode": "61200",
    "city": "Berstadt"
  },
  {
    "postcode": "61200",
    "city": "Melbach Kreis Friedberg Hessen"
  },
  {
    "postcode": "61200",
    "city": "Melbach"
  },
  {
    "postcode": "61200",
    "city": "Södel Kreis Friedberg Hessen"
  },
  {
    "postcode": "61200",
    "city": "Södel"
  },
  {
    "postcode": "61200",
    "city": "Wohnbach Kreis Friedberg Hessen"
  },
  {
    "postcode": "61200",
    "city": "Wohnbach"
  },
  {
    "postcode": "61200",
    "city": "Wölfersheim"
  },
  {
    "postcode": "61200",
    "city": "Wetteraukreis"
  },
  {
    "postcode": "61200",
    "city": "Am Römerschacht"
  },
  {
    "postcode": "61203",
    "city": "Beienheim Hessen"
  },
  {
    "postcode": "61203",
    "city": "Beienheim"
  },
  {
    "postcode": "61203",
    "city": "Blofeld"
  },
  {
    "postcode": "61203",
    "city": "Dorn-Assenheim"
  },
  {
    "postcode": "61203",
    "city": "Heuchelheim bei Friedberg Hessen"
  },
  {
    "postcode": "61203",
    "city": "Heuchelheim bei Friedberg"
  },
  {
    "postcode": "61203",
    "city": "Reichelsheim"
  },
  {
    "postcode": "61203",
    "city": "Reichelsheim (Wetterau)"
  },
  {
    "postcode": "61203",
    "city": "Weckesheim"
  },
  {
    "postcode": "61203",
    "city": "Winterhof Wetterau"
  },
  {
    "postcode": "61203",
    "city": "Winterhof"
  },
  {
    "postcode": "61203",
    "city": "Wetteraukreis"
  },
  {
    "postcode": "61203",
    "city": "Heuchelheim"
  },
  {
    "postcode": "61206",
    "city": "Wöllstadt"
  },
  {
    "postcode": "61206",
    "city": "Wetteraukreis"
  },
  {
    "postcode": "61206",
    "city": "Nieder-Wöllstadt"
  },
  {
    "postcode": "61206",
    "city": "Ober-Wöllstadt"
  },
  {
    "postcode": "61209",
    "city": "Bingenheim"
  },
  {
    "postcode": "61209",
    "city": "Bisses"
  },
  {
    "postcode": "61209",
    "city": "Echzell"
  },
  {
    "postcode": "61209",
    "city": "Gettenau"
  },
  {
    "postcode": "61209",
    "city": "Wetteraukreis"
  },
  {
    "postcode": "61209",
    "city": "Grund-Schwalheim"
  },
  {
    "postcode": "61231",
    "city": "Bad Nauheim"
  },
  {
    "postcode": "61231",
    "city": "Nieder-Mörlen"
  },
  {
    "postcode": "61231",
    "city": "Rödgen Wetterau"
  },
  {
    "postcode": "61231",
    "city": "Rödgen"
  },
  {
    "postcode": "61231",
    "city": "Steinfurth bei Bad Nauheim"
  },
  {
    "postcode": "61231",
    "city": "Wisselsheim"
  },
  {
    "postcode": "61231",
    "city": "Wetteraukreis"
  },
  {
    "postcode": "61231",
    "city": "Steinfurth"
  },
  {
    "postcode": "61231",
    "city": "Schwalheim"
  },
  {
    "postcode": "61239",
    "city": "Ober-Mörlen"
  },
  {
    "postcode": "61239",
    "city": "Wetteraukreis"
  },
  {
    "postcode": "61239",
    "city": "Langenhain-Ziegenberg"
  },
  {
    "postcode": "61250",
    "city": "Eschbach Kreis Usingen Taunus"
  },
  {
    "postcode": "61250",
    "city": "Eschbach"
  },
  {
    "postcode": "61250",
    "city": "Kransberg Taunus"
  },
  {
    "postcode": "61250",
    "city": "Kransberg"
  },
  {
    "postcode": "61250",
    "city": "Merzhausen Taunus"
  },
  {
    "postcode": "61250",
    "city": "Merzhausen"
  },
  {
    "postcode": "61250",
    "city": "Michelbach Kreis Usingen Taunus"
  },
  {
    "postcode": "61250",
    "city": "Michelbach"
  },
  {
    "postcode": "61250",
    "city": "Usingen"
  },
  {
    "postcode": "61250",
    "city": "Wernborn"
  },
  {
    "postcode": "61250",
    "city": "Wilhelmsdorf Taunus"
  },
  {
    "postcode": "61250",
    "city": "Wilhelmsdorf"
  },
  {
    "postcode": "61250",
    "city": "Hochtaunuskreis"
  },
  {
    "postcode": "61267",
    "city": "Anspach Taunus"
  },
  {
    "postcode": "61267",
    "city": "Anspach"
  },
  {
    "postcode": "61267",
    "city": "Hausen-Arnsbach"
  },
  {
    "postcode": "61267",
    "city": "Neu-Anspach"
  },
  {
    "postcode": "61267",
    "city": "Rod am Berg"
  },
  {
    "postcode": "61267",
    "city": "Westerfeld Taunus"
  },
  {
    "postcode": "61267",
    "city": "Westerfeld"
  },
  {
    "postcode": "61267",
    "city": "Hochtaunuskreis"
  },
  {
    "postcode": "61273",
    "city": "Friedrichsthal Kreis Usingen Taunus"
  },
  {
    "postcode": "61273",
    "city": "Friedrichsthal"
  },
  {
    "postcode": "61273",
    "city": "Obernhain Taunus"
  },
  {
    "postcode": "61273",
    "city": "Obernhain"
  },
  {
    "postcode": "61273",
    "city": "Pfaffenwiesbach"
  },
  {
    "postcode": "61273",
    "city": "Saalburg Taunus Bahnhof"
  },
  {
    "postcode": "61273",
    "city": "Saalburg"
  },
  {
    "postcode": "61273",
    "city": "Wehrheim"
  },
  {
    "postcode": "61273",
    "city": "Hochtaunuskreis"
  },
  {
    "postcode": "61273",
    "city": "Köppern"
  },
  {
    "postcode": "61276",
    "city": "Altweilnau"
  },
  {
    "postcode": "61276",
    "city": "Cratzenbach"
  },
  {
    "postcode": "61276",
    "city": "Emmershausen"
  },
  {
    "postcode": "61276",
    "city": "Finsternthal"
  },
  {
    "postcode": "61276",
    "city": "Gemünden Kreis Usingen Taunus"
  },
  {
    "postcode": "61276",
    "city": "Gemünden"
  },
  {
    "postcode": "61276",
    "city": "Hasselbach Taunus"
  },
  {
    "postcode": "61276",
    "city": "Hasselbach"
  },
  {
    "postcode": "61276",
    "city": "Mauloff"
  },
  {
    "postcode": "61276",
    "city": "Neuweilnau"
  },
  {
    "postcode": "61276",
    "city": "Niederlauken"
  },
  {
    "postcode": "61276",
    "city": "Oberlauken"
  },
  {
    "postcode": "61276",
    "city": "Riedelbach"
  },
  {
    "postcode": "61276",
    "city": "Rod an der Weil"
  },
  {
    "postcode": "61276",
    "city": "Weilrod"
  },
  {
    "postcode": "61276",
    "city": "Winden"
  },
  {
    "postcode": "61276",
    "city": "Hochtaunuskreis"
  },
  {
    "postcode": "61276",
    "city": "Grävenwiesbach"
  },
  {
    "postcode": "61279",
    "city": "Grävenwiesbach"
  },
  {
    "postcode": "61279",
    "city": "Heinzenberg Taunus"
  },
  {
    "postcode": "61279",
    "city": "Heinzenberg"
  },
  {
    "postcode": "61279",
    "city": "Hundstadt"
  },
  {
    "postcode": "61279",
    "city": "Laubach Taunus"
  },
  {
    "postcode": "61279",
    "city": "Laubach"
  },
  {
    "postcode": "61279",
    "city": "Mönstadt"
  },
  {
    "postcode": "61279",
    "city": "Naunstadt"
  },
  {
    "postcode": "61279",
    "city": "Hochtaunuskreis"
  },
  {
    "postcode": "61348",
    "city": "Bad Homburg"
  },
  {
    "postcode": "61348",
    "city": "Bad Homburg vor der Höhe"
  },
  {
    "postcode": "61348",
    "city": "Gonzenheim"
  },
  {
    "postcode": "61348",
    "city": "Kirdorf"
  },
  {
    "postcode": "61348",
    "city": "Hochtaunuskreis"
  },
  {
    "postcode": "61350",
    "city": "Bad Homburg"
  },
  {
    "postcode": "61350",
    "city": "Bad Homburg vor der Höhe"
  },
  {
    "postcode": "61350",
    "city": "Dornholzhausen Taunus"
  },
  {
    "postcode": "61350",
    "city": "Dornholzhausen"
  },
  {
    "postcode": "61350",
    "city": "Gonzenheim"
  },
  {
    "postcode": "61350",
    "city": "Kirdorf"
  },
  {
    "postcode": "61350",
    "city": "Hochtaunuskreis"
  },
  {
    "postcode": "61350",
    "city": "Ober-Eschbach"
  },
  {
    "postcode": "61352",
    "city": "Bad Homburg"
  },
  {
    "postcode": "61352",
    "city": "Bad Homburg vor der Höhe"
  },
  {
    "postcode": "61352",
    "city": "Gonzenheim"
  },
  {
    "postcode": "61352",
    "city": "Ober-Erlenbach"
  },
  {
    "postcode": "61352",
    "city": "Ober-Eschbach"
  },
  {
    "postcode": "61352",
    "city": "Hochtaunuskreis"
  },
  {
    "postcode": "61381",
    "city": "Burgholzhausen vor der Höhe"
  },
  {
    "postcode": "61381",
    "city": "Friedrichsdorf Taunus"
  },
  {
    "postcode": "61381",
    "city": "Friedrichsdorf"
  },
  {
    "postcode": "61381",
    "city": "Köppern"
  },
  {
    "postcode": "61381",
    "city": "Seulberg"
  },
  {
    "postcode": "61381",
    "city": "Hochtaunuskreis"
  },
  {
    "postcode": "61381",
    "city": "Burgholzhausen"
  },
  {
    "postcode": "61381",
    "city": "Rodheim"
  },
  {
    "postcode": "61389",
    "city": "Arnoldshain"
  },
  {
    "postcode": "61389",
    "city": "Brombach Kreis Usingen Taunus"
  },
  {
    "postcode": "61389",
    "city": "Brombach"
  },
  {
    "postcode": "61389",
    "city": "Dorfweil"
  },
  {
    "postcode": "61389",
    "city": "Hunoldstal"
  },
  {
    "postcode": "61389",
    "city": "Niederreifenberg Taunus"
  },
  {
    "postcode": "61389",
    "city": "Niederreifenberg"
  },
  {
    "postcode": "61389",
    "city": "Oberreifenberg Taunus"
  },
  {
    "postcode": "61389",
    "city": "Oberreifenberg"
  },
  {
    "postcode": "61389",
    "city": "Schmitten"
  },
  {
    "postcode": "61389",
    "city": "Schmitten (Taunus)"
  },
  {
    "postcode": "61389",
    "city": "Seelenberg"
  },
  {
    "postcode": "61389",
    "city": "Treisberg"
  },
  {
    "postcode": "61389",
    "city": "Hochtaunuskreis"
  },
  {
    "postcode": "61389",
    "city": "Gemeinde Weilrod"
  },
  {
    "postcode": "61389",
    "city": "Hegewiese"
  },
  {
    "postcode": "61440",
    "city": "Bommersheim"
  },
  {
    "postcode": "61440",
    "city": "Oberstedten Taunus"
  },
  {
    "postcode": "61440",
    "city": "Oberstedten"
  },
  {
    "postcode": "61440",
    "city": "Oberursel"
  },
  {
    "postcode": "61440",
    "city": "Oberursel (Taunus)"
  },
  {
    "postcode": "61440",
    "city": "Stierstadt Taunus"
  },
  {
    "postcode": "61440",
    "city": "Stierstadt"
  },
  {
    "postcode": "61440",
    "city": "Weißkirchen"
  },
  {
    "postcode": "61440",
    "city": "Hochtaunuskreis"
  },
  {
    "postcode": "61449",
    "city": "Steinbach (Taunus)"
  },
  {
    "postcode": "61449",
    "city": "Steinbach"
  },
  {
    "postcode": "61449",
    "city": "Hochtaunuskreis"
  },
  {
    "postcode": "61462",
    "city": "Falkenstein Taunus"
  },
  {
    "postcode": "61462",
    "city": "Falkenstein"
  },
  {
    "postcode": "61462",
    "city": "Königstein"
  },
  {
    "postcode": "61462",
    "city": "Königstein im Taunus"
  },
  {
    "postcode": "61462",
    "city": "Mammolshain"
  },
  {
    "postcode": "61462",
    "city": "Schneidhain Taunus"
  },
  {
    "postcode": "61462",
    "city": "Schneidhain"
  },
  {
    "postcode": "61462",
    "city": "Hochtaunuskreis"
  },
  {
    "postcode": "61476",
    "city": "Kronberg im Taunus"
  },
  {
    "postcode": "61476",
    "city": "Oberhöchstadt"
  },
  {
    "postcode": "61476",
    "city": "Schönberg"
  },
  {
    "postcode": "61476",
    "city": "Hochtaunuskreis"
  },
  {
    "postcode": "61476",
    "city": "Kronberg"
  },
  {
    "postcode": "61479",
    "city": "Glashütten"
  },
  {
    "postcode": "61479",
    "city": "Glashütten Taunus"
  },
  {
    "postcode": "61479",
    "city": "Oberems Taunus"
  },
  {
    "postcode": "61479",
    "city": "Oberems"
  },
  {
    "postcode": "61479",
    "city": "Schlossborn"
  },
  {
    "postcode": "61479",
    "city": "Hochtaunuskreis"
  },
  {
    "postcode": "61479",
    "city": "Schloßborn"
  }
]