[
  {
    "postcode": "9509",
    "city": "Pockau Flöhatal"
  },
  {
    "postcode": "9509",
    "city": "Pockau"
  },
  {
    "postcode": "9509",
    "city": "Erzgebirgskreis"
  },
  {
    "postcode": "9509",
    "city": "Pockau-Lengefeld"
  },
  {
    "postcode": "9509",
    "city": "Görsdorf"
  },
  {
    "postcode": "9509",
    "city": "Wernsdorf"
  },
  {
    "postcode": "9509",
    "city": "Forchheim"
  },
  {
    "postcode": "9509",
    "city": "Nennigmühle"
  },
  {
    "postcode": "9514",
    "city": "Lengefeld Erzgebirge"
  },
  {
    "postcode": "9514",
    "city": "Lengefeld"
  },
  {
    "postcode": "9514",
    "city": "Erzgebirgskreis"
  },
  {
    "postcode": "9514",
    "city": "Lippersdorf"
  },
  {
    "postcode": "9514",
    "city": "Wünschendorf"
  },
  {
    "postcode": "9514",
    "city": "Reifland"
  },
  {
    "postcode": "9517",
    "city": "Zöblitz"
  },
  {
    "postcode": "9518",
    "city": "Großrückerswalde"
  },
  {
    "postcode": "9518",
    "city": "Erzgebirgskreis"
  },
  {
    "postcode": "9518",
    "city": "Mauersberg"
  },
  {
    "postcode": "9518",
    "city": "Niederschmiedeberg"
  },
  {
    "postcode": "9518",
    "city": "Streckewalde"
  },
  {
    "postcode": "9518",
    "city": "Schindelbach"
  },
  {
    "postcode": "9518",
    "city": "Wolfsberg"
  },
  {
    "postcode": "9526",
    "city": "Haselbach"
  },
  {
    "postcode": "9526",
    "city": "Heidersdorf"
  },
  {
    "postcode": "9526",
    "city": "Olbernhau"
  },
  {
    "postcode": "9526",
    "city": "Pfaffroda bei Olbernhau"
  },
  {
    "postcode": "9526",
    "city": "Erzgebirgskreis"
  },
  {
    "postcode": "9526",
    "city": "Schönfeld"
  },
  {
    "postcode": "9526",
    "city": "Dittmannsdorf"
  },
  {
    "postcode": "9526",
    "city": "Blumenau"
  },
  {
    "postcode": "9526",
    "city": "Dörnthal"
  },
  {
    "postcode": "9526",
    "city": "Pfaffroda"
  },
  {
    "postcode": "9526",
    "city": "Hallbach"
  },
  {
    "postcode": "9526",
    "city": "Hutha"
  },
  {
    "postcode": "9526",
    "city": "Rothenthal"
  },
  {
    "postcode": "9544",
    "city": "Neuhausen / Erzgebirge"
  },
  {
    "postcode": "9544",
    "city": "Neuhausen"
  },
  {
    "postcode": "9544",
    "city": "Mittelsachsen"
  },
  {
    "postcode": "9544",
    "city": "Neuhausen/Erzgeb."
  },
  {
    "postcode": "9544",
    "city": "Cämmerswalde"
  },
  {
    "postcode": "9544",
    "city": "Deutschgeorgenthal"
  },
  {
    "postcode": "9544",
    "city": "Neuwernsdorf"
  },
  {
    "postcode": "9544",
    "city": "Rauschenbach"
  },
  {
    "postcode": "9548",
    "city": "Deutschneudorf"
  },
  {
    "postcode": "9548",
    "city": "Kurort Seiffen Erzgebirge"
  },
  {
    "postcode": "9548",
    "city": "Kurort Seiffen"
  },
  {
    "postcode": "9548",
    "city": "Erzgebirgskreis"
  },
  {
    "postcode": "9548",
    "city": "Deutschkatharinenberg"
  },
  {
    "postcode": "9548",
    "city": "Deutscheinsiedel"
  },
  {
    "postcode": "9548",
    "city": "Oberlochmühle"
  },
  {
    "postcode": "9548",
    "city": "Oberseiffenbach"
  },
  {
    "postcode": "9557",
    "city": "Flöha"
  },
  {
    "postcode": "9557",
    "city": "Mittelsachsen"
  },
  {
    "postcode": "9557",
    "city": "Falkenau"
  },
  {
    "postcode": "9569",
    "city": "Falkenau Sachsen"
  },
  {
    "postcode": "9569",
    "city": "Falkenau"
  },
  {
    "postcode": "9569",
    "city": "Frankenstein Sachsen"
  },
  {
    "postcode": "9569",
    "city": "Frankenstein"
  },
  {
    "postcode": "9569",
    "city": "Gahlenz"
  },
  {
    "postcode": "9569",
    "city": "Oederan"
  },
  {
    "postcode": "9569",
    "city": "Mittelsachsen"
  },
  {
    "postcode": "9569",
    "city": "Schönerstadt"
  },
  {
    "postcode": "9569",
    "city": "Breitenau"
  },
  {
    "postcode": "9569",
    "city": "Memmendorf"
  },
  {
    "postcode": "9569",
    "city": "Börnichen"
  },
  {
    "postcode": "9569",
    "city": "Görbersdorf"
  },
  {
    "postcode": "9569",
    "city": "Kirchbach"
  },
  {
    "postcode": "9569",
    "city": "Wingendorf"
  },
  {
    "postcode": "9569",
    "city": "Hartha"
  },
  {
    "postcode": "9569",
    "city": "Lößnitztal"
  },
  {
    "postcode": "9573",
    "city": "Augustusburg"
  },
  {
    "postcode": "9573",
    "city": "Leubsdorf Sachsen"
  },
  {
    "postcode": "9573",
    "city": "Leubsdorf"
  },
  {
    "postcode": "9573",
    "city": "Mittelsachsen"
  },
  {
    "postcode": "9573",
    "city": "Dittmannsdorf"
  },
  {
    "postcode": "9573",
    "city": "Erdmannsdorf"
  },
  {
    "postcode": "9573",
    "city": "Kunnersdorf"
  },
  {
    "postcode": "9573",
    "city": "Grünberg"
  },
  {
    "postcode": "9573",
    "city": "Hennersdorf"
  },
  {
    "postcode": "9573",
    "city": "Hohenfichte"
  },
  {
    "postcode": "9573",
    "city": "Marbach"
  },
  {
    "postcode": "9573",
    "city": "Schellenberg"
  },
  {
    "postcode": "9573",
    "city": "Hammerleubsdorf"
  },
  {
    "postcode": "9575",
    "city": "Eppendorf Sachsen"
  },
  {
    "postcode": "9575",
    "city": "Eppendorf"
  },
  {
    "postcode": "9575",
    "city": "Mittelsachsen"
  },
  {
    "postcode": "9575",
    "city": "Großwaltersdorf"
  },
  {
    "postcode": "9575",
    "city": "Kleinhartmannsdorf"
  },
  {
    "postcode": "9577",
    "city": "Niederwiesa"
  },
  {
    "postcode": "9577",
    "city": "Mittelsachsen"
  },
  {
    "postcode": "9577",
    "city": "Lichtenwalde"
  },
  {
    "postcode": "9577",
    "city": "Braunsdorf"
  },
  {
    "postcode": "9579",
    "city": "Borstendorf"
  },
  {
    "postcode": "9579",
    "city": "Grünhainichen"
  },
  {
    "postcode": "9579",
    "city": "Erzgebirgskreis"
  },
  {
    "postcode": "9579",
    "city": "Waldkirchen"
  },
  {
    "postcode": "9599",
    "city": "Freiberg Sachsen"
  },
  {
    "postcode": "9599",
    "city": "Freiberg"
  },
  {
    "postcode": "9599",
    "city": "Mittelsachsen"
  },
  {
    "postcode": "9599",
    "city": "Zug"
  },
  {
    "postcode": "9599",
    "city": "Kleinwaltersdorf"
  },
  {
    "postcode": "9599",
    "city": "Halsbach"
  },
  {
    "postcode": "95028",
    "city": "Haidt Saale"
  },
  {
    "postcode": "95028",
    "city": "Haidt"
  },
  {
    "postcode": "95028",
    "city": "Hof an der Saale"
  },
  {
    "postcode": "95028",
    "city": "Jägersruh"
  },
  {
    "postcode": "95028",
    "city": "Leimitz"
  },
  {
    "postcode": "95028",
    "city": "Hof"
  },
  {
    "postcode": "95028",
    "city": "Innenstadt"
  },
  {
    "postcode": "95030",
    "city": "Epplas"
  },
  {
    "postcode": "95030",
    "city": "Hof an der Saale"
  },
  {
    "postcode": "95030",
    "city": "Osseck Saale"
  },
  {
    "postcode": "95030",
    "city": "Osseck"
  },
  {
    "postcode": "95030",
    "city": "Unterkotzau"
  },
  {
    "postcode": "95030",
    "city": "Wölbattendorf"
  },
  {
    "postcode": "95030",
    "city": "Hof"
  },
  {
    "postcode": "95030",
    "city": "Innenstadt"
  },
  {
    "postcode": "95032",
    "city": "Eppenreuth Saale"
  },
  {
    "postcode": "95032",
    "city": "Eppenreuth"
  },
  {
    "postcode": "95032",
    "city": "Hof an der Saale"
  },
  {
    "postcode": "95032",
    "city": "Pirk Saale"
  },
  {
    "postcode": "95032",
    "city": "Pirk"
  },
  {
    "postcode": "95032",
    "city": "Hof"
  },
  {
    "postcode": "95032",
    "city": "Innenstadt"
  },
  {
    "postcode": "95100",
    "city": "Buchwald"
  },
  {
    "postcode": "95100",
    "city": "Dürrewiesen"
  },
  {
    "postcode": "95100",
    "city": "Dürrloh"
  },
  {
    "postcode": "95100",
    "city": "Erkersreuth Oberfranken"
  },
  {
    "postcode": "95100",
    "city": "Erkersreuth"
  },
  {
    "postcode": "95100",
    "city": "Häusellohe"
  },
  {
    "postcode": "95100",
    "city": "Heidelheim Oberfranken"
  },
  {
    "postcode": "95100",
    "city": "Heidelheim"
  },
  {
    "postcode": "95100",
    "city": "Längenau"
  },
  {
    "postcode": "95100",
    "city": "Laubbühl"
  },
  {
    "postcode": "95100",
    "city": "Mühlbach"
  },
  {
    "postcode": "95100",
    "city": "Oberweißenbach bei Hof Saale"
  },
  {
    "postcode": "95100",
    "city": "Oberweißenbach bei Hof"
  },
  {
    "postcode": "95100",
    "city": "Reuth"
  },
  {
    "postcode": "95100",
    "city": "Schatzbach Oberfranken"
  },
  {
    "postcode": "95100",
    "city": "Schatzbach"
  },
  {
    "postcode": "95100",
    "city": "Selb"
  },
  {
    "postcode": "95100",
    "city": "Silberbach Eger"
  },
  {
    "postcode": "95100",
    "city": "Silberbach"
  },
  {
    "postcode": "95100",
    "city": "Spielberg Oberfranken"
  },
  {
    "postcode": "95100",
    "city": "Spielberg"
  },
  {
    "postcode": "95100",
    "city": "Steinselb Oberfranken"
  },
  {
    "postcode": "95100",
    "city": "Steinselb"
  },
  {
    "postcode": "95100",
    "city": "Unterweißenbach bei Hof Saale"
  },
  {
    "postcode": "95100",
    "city": "Unterweißenbach bei Hof"
  },
  {
    "postcode": "95100",
    "city": "Vielitz"
  },
  {
    "postcode": "95100",
    "city": "Wildenau"
  },
  {
    "postcode": "95100",
    "city": "Wunsiedel im Fichtelgebirge"
  },
  {
    "postcode": "95100",
    "city": "Thierstein"
  },
  {
    "postcode": "95100",
    "city": "Vorsuchhütte"
  },
  {
    "postcode": "95100",
    "city": "Plößberg"
  },
  {
    "postcode": "95100",
    "city": "Selb-Plößberg"
  },
  {
    "postcode": "95100",
    "city": "Unterweißenbach"
  },
  {
    "postcode": "95100",
    "city": "Blumenthal"
  },
  {
    "postcode": "95100",
    "city": "Vielitz-Siedlung"
  },
  {
    "postcode": "95100",
    "city": "Grünfleck"
  },
  {
    "postcode": "95100",
    "city": "Lauterbach"
  },
  {
    "postcode": "95100",
    "city": "Leupoldshammer"
  },
  {
    "postcode": "95100",
    "city": "Mooslohe"
  },
  {
    "postcode": "95100",
    "city": "Obersteinmühle"
  },
  {
    "postcode": "95100",
    "city": "Oberweißenbach"
  },
  {
    "postcode": "95100",
    "city": "Stopfersfurth"
  },
  {
    "postcode": "95100",
    "city": "Untersteinmühle"
  },
  {
    "postcode": "95100",
    "city": "Wellerthal"
  },
  {
    "postcode": "95100",
    "city": "Selber Vorwerk"
  },
  {
    "postcode": "95100",
    "city": "Kaiserhammer Forst-Ost"
  },
  {
    "postcode": "95111",
    "city": "Degenreuth"
  },
  {
    "postcode": "95111",
    "city": "Dobeneck Oberfranken"
  },
  {
    "postcode": "95111",
    "city": "Dobeneck"
  },
  {
    "postcode": "95111",
    "city": "Eulenhammer Oberfranken"
  },
  {
    "postcode": "95111",
    "city": "Eulenhammer"
  },
  {
    "postcode": "95111",
    "city": "Faßmannsreuth Oberfranken"
  },
  {
    "postcode": "95111",
    "city": "Faßmannsreuth"
  },
  {
    "postcode": "95111",
    "city": "Fohrenreuth Oberfranken"
  },
  {
    "postcode": "95111",
    "city": "Fohrenreuth"
  },
  {
    "postcode": "95111",
    "city": "Heinersberg"
  },
  {
    "postcode": "95111",
    "city": "Hirschberg Oberfranken"
  },
  {
    "postcode": "95111",
    "city": "Hirschberg"
  },
  {
    "postcode": "95111",
    "city": "Kühschwitz Oberfranken"
  },
  {
    "postcode": "95111",
    "city": "Kühschwitz"
  },
  {
    "postcode": "95111",
    "city": "Ludwigsbrunn Oberfranken"
  },
  {
    "postcode": "95111",
    "city": "Ludwigsbrunn"
  },
  {
    "postcode": "95111",
    "city": "Neuhausen"
  },
  {
    "postcode": "95111",
    "city": "Pilgramsreuth Oberfranken"
  },
  {
    "postcode": "95111",
    "city": "Pilgramsreuth"
  },
  {
    "postcode": "95111",
    "city": "Rehau"
  },
  {
    "postcode": "95111",
    "city": "Rehau Oberfranken"
  },
  {
    "postcode": "95111",
    "city": "Rosenbühl"
  },
  {
    "postcode": "95111",
    "city": "Schönlind Oberfranken"
  },
  {
    "postcode": "95111",
    "city": "Schönlind"
  },
  {
    "postcode": "95111",
    "city": "Schwarzwinkel Oberfranken"
  },
  {
    "postcode": "95111",
    "city": "Schwarzwinkel"
  },
  {
    "postcode": "95111",
    "city": "Sigmundsgrün Oberfranken"
  },
  {
    "postcode": "95111",
    "city": "Sigmundsgrün"
  },
  {
    "postcode": "95111",
    "city": "Woja"
  },
  {
    "postcode": "95111",
    "city": "Wurlitz"
  },
  {
    "postcode": "95111",
    "city": "Wüstenbrunn Oberfranken"
  },
  {
    "postcode": "95111",
    "city": "Wüstenbrunn"
  },
  {
    "postcode": "95111",
    "city": "Hof"
  },
  {
    "postcode": "95111",
    "city": "Baumgärtelmühle"
  },
  {
    "postcode": "95111",
    "city": "Harsthaus"
  },
  {
    "postcode": "95111",
    "city": "Hohehäuser"
  },
  {
    "postcode": "95111",
    "city": "Katharinenhöhe"
  },
  {
    "postcode": "95111",
    "city": "Löwitz"
  },
  {
    "postcode": "95111",
    "city": "Lohweg"
  },
  {
    "postcode": "95111",
    "city": "Neukühschwitz"
  },
  {
    "postcode": "95111",
    "city": "Röllmühle"
  },
  {
    "postcode": "95111",
    "city": "Seelohe"
  },
  {
    "postcode": "95111",
    "city": "Timpermühle"
  },
  {
    "postcode": "95111",
    "city": "Voitmühle"
  },
  {
    "postcode": "95111",
    "city": "Waldhaus"
  },
  {
    "postcode": "95111",
    "city": "Wendelhof"
  },
  {
    "postcode": "95119",
    "city": "Culmitz"
  },
  {
    "postcode": "95119",
    "city": "Froschgrün"
  },
  {
    "postcode": "95119",
    "city": "Hölle"
  },
  {
    "postcode": "95119",
    "city": "Lippertsgrün"
  },
  {
    "postcode": "95119",
    "city": "Marlesreuth"
  },
  {
    "postcode": "95119",
    "city": "Marxgrün"
  },
  {
    "postcode": "95119",
    "city": "Naila"
  },
  {
    "postcode": "95119",
    "city": "Hof"
  },
  {
    "postcode": "95119",
    "city": "Brand"
  },
  {
    "postcode": "95119",
    "city": "Einsiedel"
  },
  {
    "postcode": "95119",
    "city": "Hügel"
  },
  {
    "postcode": "95119",
    "city": "Kleinschmieden"
  },
  {
    "postcode": "95126",
    "city": "Albertsberg"
  },
  {
    "postcode": "95126",
    "city": "Baumersreuth"
  },
  {
    "postcode": "95126",
    "city": "Fletschenreuth"
  },
  {
    "postcode": "95126",
    "city": "Förbau"
  },
  {
    "postcode": "95126",
    "city": "Förmitz"
  },
  {
    "postcode": "95126",
    "city": "Gottfriedsreuth"
  },
  {
    "postcode": "95126",
    "city": "Götzmannsgrün Oberfranken"
  },
  {
    "postcode": "95126",
    "city": "Götzmannsgrün"
  },
  {
    "postcode": "95126",
    "city": "Hallerstein"
  },
  {
    "postcode": "95126",
    "city": "Langenbach an der Saale"
  },
  {
    "postcode": "95126",
    "city": "Martinlamitz"
  },
  {
    "postcode": "95126",
    "city": "Quellenreuth an der Saale"
  },
  {
    "postcode": "95126",
    "city": "Schwarzenbach an der Saale"
  },
  {
    "postcode": "95126",
    "city": "Schwingen"
  },
  {
    "postcode": "95126",
    "city": "Seulbitz an der sächsischen Saale"
  },
  {
    "postcode": "95126",
    "city": "Stobersreuth"
  },
  {
    "postcode": "95126",
    "city": "Stollen an der Saale"
  },
  {
    "postcode": "95126",
    "city": "Völkenreuth"
  },
  {
    "postcode": "95126",
    "city": "Hof"
  },
  {
    "postcode": "95126",
    "city": "Schwarzenbach a.d.Saale"
  },
  {
    "postcode": "95126",
    "city": "Schwarzenbach a d Saale"
  },
  {
    "postcode": "95126",
    "city": "Birkenbühl"
  },
  {
    "postcode": "95126",
    "city": "Förmitzspeicher"
  },
  {
    "postcode": "95126",
    "city": "Höferberg"
  },
  {
    "postcode": "95126",
    "city": "Quellenreuth"
  },
  {
    "postcode": "95126",
    "city": "Langenbach"
  },
  {
    "postcode": "95126",
    "city": "Posterlitz"
  },
  {
    "postcode": "95126",
    "city": "Seulbitz"
  },
  {
    "postcode": "95131",
    "city": "Bernstein am Wald"
  },
  {
    "postcode": "95131",
    "city": "Döbra Oberfranken"
  },
  {
    "postcode": "95131",
    "city": "Döbra"
  },
  {
    "postcode": "95131",
    "city": "Gemeinreuth am Wald"
  },
  {
    "postcode": "95131",
    "city": "Göhren am Wald"
  },
  {
    "postcode": "95131",
    "city": "Gottsmannsgrün am Wald"
  },
  {
    "postcode": "95131",
    "city": "Grubenberg am Wald"
  },
  {
    "postcode": "95131",
    "city": "Kleindöbra am Wald"
  },
  {
    "postcode": "95131",
    "city": "Lerchenhügel am Wald"
  },
  {
    "postcode": "95131",
    "city": "Löhmar am Wald"
  },
  {
    "postcode": "95131",
    "city": "Meierhof am Wald"
  },
  {
    "postcode": "95131",
    "city": "Oberleupoldsberg"
  },
  {
    "postcode": "95131",
    "city": "Pillmersreuth"
  },
  {
    "postcode": "95131",
    "city": "Poppengrün"
  },
  {
    "postcode": "95131",
    "city": "Räumlas am Wald"
  },
  {
    "postcode": "95131",
    "city": "Rodeck"
  },
  {
    "postcode": "95131",
    "city": "Schönbrunn am Wald"
  },
  {
    "postcode": "95131",
    "city": "Schönwald"
  },
  {
    "postcode": "95131",
    "city": "Schwarzenbach am Wald"
  },
  {
    "postcode": "95131",
    "city": "Schwarzenstein am Wald"
  },
  {
    "postcode": "95131",
    "city": "Sorg am Wald"
  },
  {
    "postcode": "95131",
    "city": "Straßdorf am Wald"
  },
  {
    "postcode": "95131",
    "city": "Thiemitz am Wald"
  },
  {
    "postcode": "95131",
    "city": "Thron"
  },
  {
    "postcode": "95131",
    "city": "Unterleupoldsberg"
  },
  {
    "postcode": "95131",
    "city": "Hof"
  },
  {
    "postcode": "95131",
    "city": "Fels"
  },
  {
    "postcode": "95131",
    "city": "Schwarzenbach a.Wald"
  },
  {
    "postcode": "95131",
    "city": "Äußera"
  },
  {
    "postcode": "95131",
    "city": "Überkehr"
  },
  {
    "postcode": "95131",
    "city": "Schwarzenbach a Wald"
  },
  {
    "postcode": "95131",
    "city": "Schwarzenstein"
  },
  {
    "postcode": "95131",
    "city": "Bernstein a Wald"
  },
  {
    "postcode": "95131",
    "city": "Straßdorf"
  },
  {
    "postcode": "95131",
    "city": "Meierhof"
  },
  {
    "postcode": "95131",
    "city": "Breitengrund"
  },
  {
    "postcode": "95131",
    "city": "Dorschenmühle"
  },
  {
    "postcode": "95131",
    "city": "Göhren"
  },
  {
    "postcode": "95131",
    "city": "Gemeinreuth"
  },
  {
    "postcode": "95131",
    "city": "Gottsmannsgrün"
  },
  {
    "postcode": "95131",
    "city": "Grubenberg"
  },
  {
    "postcode": "95131",
    "city": "Hohenzorn"
  },
  {
    "postcode": "95131",
    "city": "Hühnergrund"
  },
  {
    "postcode": "95131",
    "city": "Kleindöbra"
  },
  {
    "postcode": "95131",
    "city": "Löhmar"
  },
  {
    "postcode": "95131",
    "city": "Löhmarmühle"
  },
  {
    "postcode": "95131",
    "city": "Lerchenhügel"
  },
  {
    "postcode": "95131",
    "city": "Poppengrund"
  },
  {
    "postcode": "95131",
    "city": "Rauschenhammermühle"
  },
  {
    "postcode": "95131",
    "city": "Räumlas"
  },
  {
    "postcode": "95131",
    "city": "Räumlasgrund"
  },
  {
    "postcode": "95131",
    "city": "Räumlasmühle"
  },
  {
    "postcode": "95131",
    "city": "Schönbrunn"
  },
  {
    "postcode": "95131",
    "city": "Schlag"
  },
  {
    "postcode": "95131",
    "city": "Schmölz"
  },
  {
    "postcode": "95131",
    "city": "Schübelhammer"
  },
  {
    "postcode": "95131",
    "city": "Sorg"
  },
  {
    "postcode": "95131",
    "city": "Straßhaus"
  },
  {
    "postcode": "95131",
    "city": "Sängerwald"
  },
  {
    "postcode": "95131",
    "city": "Süßengut"
  },
  {
    "postcode": "95131",
    "city": "Thiemitz"
  },
  {
    "postcode": "95131",
    "city": "Zuckmantel"
  },
  {
    "postcode": "95138",
    "city": "Bad Steben"
  },
  {
    "postcode": "95138",
    "city": "Bobengrün"
  },
  {
    "postcode": "95138",
    "city": "Carlsgrün"
  },
  {
    "postcode": "95138",
    "city": "Christusgrün"
  },
  {
    "postcode": "95138",
    "city": "Erlaburg"
  },
  {
    "postcode": "95138",
    "city": "Gerlas"
  },
  {
    "postcode": "95138",
    "city": "Lochau"
  },
  {
    "postcode": "95138",
    "city": "Obersteben"
  },
  {
    "postcode": "95138",
    "city": "Thierbach"
  },
  {
    "postcode": "95138",
    "city": "Untere Zeitelwaidt"
  },
  {
    "postcode": "95138",
    "city": "Hof"
  },
  {
    "postcode": "95138",
    "city": "Dürrnberg"
  },
  {
    "postcode": "95138",
    "city": "Fichten"
  },
  {
    "postcode": "95138",
    "city": "Krötenmühle"
  },
  {
    "postcode": "95138",
    "city": "Mordlau"
  },
  {
    "postcode": "95138",
    "city": "Oberzeitelwaidt"
  },
  {
    "postcode": "95138",
    "city": "Schöne Aussicht"
  },
  {
    "postcode": "95138",
    "city": "Schafhof"
  },
  {
    "postcode": "95138",
    "city": "Schleeknock"
  },
  {
    "postcode": "95145",
    "city": "Autengrün"
  },
  {
    "postcode": "95145",
    "city": "Fattigau"
  },
  {
    "postcode": "95145",
    "city": "Haideck"
  },
  {
    "postcode": "95145",
    "city": "Oberkotzau"
  },
  {
    "postcode": "95145",
    "city": "Wustuben Saale"
  },
  {
    "postcode": "95145",
    "city": "Wustuben"
  },
  {
    "postcode": "95145",
    "city": "Hof"
  },
  {
    "postcode": "95152",
    "city": "Dörnthal Kreis Hof Saale"
  },
  {
    "postcode": "95152",
    "city": "Dörnthal"
  },
  {
    "postcode": "95152",
    "city": "Hüttung Oberfranken"
  },
  {
    "postcode": "95152",
    "city": "Hüttung"
  },
  {
    "postcode": "95152",
    "city": "Kohlbühl"
  },
  {
    "postcode": "95152",
    "city": "Neuhaus Kreis Naila"
  },
  {
    "postcode": "95152",
    "city": "Neuhaus"
  },
  {
    "postcode": "95152",
    "city": "Rodesgrün Kreis Naila"
  },
  {
    "postcode": "95152",
    "city": "Rodesgrün"
  },
  {
    "postcode": "95152",
    "city": "Rothenbürg"
  },
  {
    "postcode": "95152",
    "city": "Selbitz"
  },
  {
    "postcode": "95152",
    "city": "Selbitz Oberfranken"
  },
  {
    "postcode": "95152",
    "city": "Sellanger"
  },
  {
    "postcode": "95152",
    "city": "Stegenwaldhaus Kreis Hof Saale"
  },
  {
    "postcode": "95152",
    "city": "Stegenwaldhaus"
  },
  {
    "postcode": "95152",
    "city": "Wachholderbusch"
  },
  {
    "postcode": "95152",
    "city": "Weidesgrün Oberfranken"
  },
  {
    "postcode": "95152",
    "city": "Weidesgrün"
  },
  {
    "postcode": "95152",
    "city": "Hof"
  },
  {
    "postcode": "95152",
    "city": "Hüttungshaus"
  },
  {
    "postcode": "95152",
    "city": "Kreuzbühl"
  },
  {
    "postcode": "95152",
    "city": "Rennreuth"
  },
  {
    "postcode": "95158",
    "city": "Buchhaus"
  },
  {
    "postcode": "95158",
    "city": "Dörflas bei Kirchenlamitz"
  },
  {
    "postcode": "95158",
    "city": "Fahrenbühl"
  },
  {
    "postcode": "95158",
    "city": "Fichtenhammer"
  },
  {
    "postcode": "95158",
    "city": "Großschloppen"
  },
  {
    "postcode": "95158",
    "city": "Hohenbuch"
  },
  {
    "postcode": "95158",
    "city": "Kirchenlamitz"
  },
  {
    "postcode": "95158",
    "city": "Kleinschloppen"
  },
  {
    "postcode": "95158",
    "city": "Mittelschieda Gemeinde Schwarzenbach an der Saale"
  },
  {
    "postcode": "95158",
    "city": "Mittelschieda"
  },
  {
    "postcode": "95158",
    "city": "Niederlamitz"
  },
  {
    "postcode": "95158",
    "city": "Oberschieda"
  },
  {
    "postcode": "95158",
    "city": "Raumetengrün"
  },
  {
    "postcode": "95158",
    "city": "Reicholdsgrün"
  },
  {
    "postcode": "95158",
    "city": "Unterschieda"
  },
  {
    "postcode": "95158",
    "city": "Wunsiedel im Fichtelgebirge"
  },
  {
    "postcode": "95158",
    "city": "Baumgarten"
  },
  {
    "postcode": "95158",
    "city": "Dörflas"
  },
  {
    "postcode": "95158",
    "city": "Entenlohe"
  },
  {
    "postcode": "95158",
    "city": "Hinteres Buchhaus"
  },
  {
    "postcode": "95158",
    "city": "Neuenhammer"
  },
  {
    "postcode": "95158",
    "city": "Schnepfenmühle"
  },
  {
    "postcode": "95158",
    "city": "Wustung b Fahrenbühl"
  },
  {
    "postcode": "95163",
    "city": "Birk Oberfranken"
  },
  {
    "postcode": "95163",
    "city": "Birk"
  },
  {
    "postcode": "95163",
    "city": "Franken Oberfranken"
  },
  {
    "postcode": "95163",
    "city": "Franken"
  },
  {
    "postcode": "95163",
    "city": "Grub Oberfranken"
  },
  {
    "postcode": "95163",
    "city": "Grub"
  },
  {
    "postcode": "95163",
    "city": "Lehsten"
  },
  {
    "postcode": "95163",
    "city": "Meierhof"
  },
  {
    "postcode": "95163",
    "city": "Ruppertsgrün"
  },
  {
    "postcode": "95163",
    "city": "Schönlind"
  },
  {
    "postcode": "95163",
    "city": "Torfmoorhölle"
  },
  {
    "postcode": "95163",
    "city": "Voitsumra"
  },
  {
    "postcode": "95163",
    "city": "Weiherhöfen"
  },
  {
    "postcode": "95163",
    "city": "Weißenhaid"
  },
  {
    "postcode": "95163",
    "city": "Weißenstadt"
  },
  {
    "postcode": "95163",
    "city": "Wunsiedel im Fichtelgebirge"
  },
  {
    "postcode": "95163",
    "city": "Finkenmühle"
  },
  {
    "postcode": "95163",
    "city": "Frohnlohe"
  },
  {
    "postcode": "95163",
    "city": "Grafenmühle"
  },
  {
    "postcode": "95163",
    "city": "Grubbach"
  },
  {
    "postcode": "95163",
    "city": "Haltstelle"
  },
  {
    "postcode": "95163",
    "city": "Kohlmesserhaus"
  },
  {
    "postcode": "95163",
    "city": "Neuenhammer"
  },
  {
    "postcode": "95163",
    "city": "Staudenmühle"
  },
  {
    "postcode": "95163",
    "city": "Weißenhaider Mühle"
  },
  {
    "postcode": "95163",
    "city": "Zechenhaus"
  },
  {
    "postcode": "95163",
    "city": "Ziegelhütte bei Lehsten"
  },
  {
    "postcode": "95163",
    "city": "Zigeunermühle"
  },
  {
    "postcode": "95168",
    "city": "Großwendern"
  },
  {
    "postcode": "95168",
    "city": "Habnith"
  },
  {
    "postcode": "95168",
    "city": "Hebanz"
  },
  {
    "postcode": "95168",
    "city": "Holzmühl Oberfranken"
  },
  {
    "postcode": "95168",
    "city": "Holzmühl"
  },
  {
    "postcode": "95168",
    "city": "Karolinenhain Oberfranken"
  },
  {
    "postcode": "95168",
    "city": "Karolinenhain"
  },
  {
    "postcode": "95168",
    "city": "Leuthenforst"
  },
  {
    "postcode": "95168",
    "city": "Marktleuthen"
  },
  {
    "postcode": "95168",
    "city": "Neudes"
  },
  {
    "postcode": "95168",
    "city": "Neudorf"
  },
  {
    "postcode": "95168",
    "city": "Wendenhammer"
  },
  {
    "postcode": "95168",
    "city": "Wunsiedel im Fichtelgebirge"
  },
  {
    "postcode": "95168",
    "city": "Eckenmühle"
  },
  {
    "postcode": "95168",
    "city": "Kaiserhammer"
  },
  {
    "postcode": "95168",
    "city": "Neumühle"
  },
  {
    "postcode": "95168",
    "city": "Ruggenmühle"
  },
  {
    "postcode": "95173",
    "city": "Brunn Oberfranken"
  },
  {
    "postcode": "95173",
    "city": "Brunn"
  },
  {
    "postcode": "95173",
    "city": "Grünhaid Oberfranken"
  },
  {
    "postcode": "95173",
    "city": "Grünhaid"
  },
  {
    "postcode": "95173",
    "city": "Neuenbrand Oberfranken"
  },
  {
    "postcode": "95173",
    "city": "Neuenbrand"
  },
  {
    "postcode": "95173",
    "city": "Reichenbach"
  },
  {
    "postcode": "95173",
    "city": "Schönwald"
  },
  {
    "postcode": "95173",
    "city": "Schönwald Oberfranken"
  },
  {
    "postcode": "95173",
    "city": "Sophienreuth Oberfranken"
  },
  {
    "postcode": "95173",
    "city": "Sophienreuth"
  },
  {
    "postcode": "95173",
    "city": "Wunsiedel im Fichtelgebirge"
  },
  {
    "postcode": "95173",
    "city": "Bernsteinmühle"
  },
  {
    "postcode": "95173",
    "city": "Buchbach"
  },
  {
    "postcode": "95173",
    "city": "Göringsreuth"
  },
  {
    "postcode": "95173",
    "city": "Grünauer Vorwerk"
  },
  {
    "postcode": "95173",
    "city": "Grünauermühle"
  },
  {
    "postcode": "95173",
    "city": "Gutschönlind"
  },
  {
    "postcode": "95173",
    "city": "Kleppermühle"
  },
  {
    "postcode": "95173",
    "city": "Lenker"
  },
  {
    "postcode": "95173",
    "city": "Merzenhaus"
  },
  {
    "postcode": "95173",
    "city": "Perlenhaus"
  },
  {
    "postcode": "95176",
    "city": "Ahornberg Oberfranken"
  },
  {
    "postcode": "95176",
    "city": "Ahornberg"
  },
  {
    "postcode": "95176",
    "city": "Föhrenreuth"
  },
  {
    "postcode": "95176",
    "city": "Konradsreuth"
  },
  {
    "postcode": "95176",
    "city": "Konradsreuth Oberfranken"
  },
  {
    "postcode": "95176",
    "city": "Martinsreuth"
  },
  {
    "postcode": "95176",
    "city": "Modlitz Oberfranken"
  },
  {
    "postcode": "95176",
    "city": "Modlitz"
  },
  {
    "postcode": "95176",
    "city": "Oberpferdt"
  },
  {
    "postcode": "95176",
    "city": "Schallersreuth"
  },
  {
    "postcode": "95176",
    "city": "Schwarzenfurth"
  },
  {
    "postcode": "95176",
    "city": "Silberbach"
  },
  {
    "postcode": "95176",
    "city": "Stiftsgrün"
  },
  {
    "postcode": "95176",
    "city": "Unterpferdt"
  },
  {
    "postcode": "95176",
    "city": "Walburgisreuth"
  },
  {
    "postcode": "95176",
    "city": "Weißlenreuth Oberfranken"
  },
  {
    "postcode": "95176",
    "city": "Weißlenreuth"
  },
  {
    "postcode": "95176",
    "city": "Wölbersbach an der sächsischen Saale"
  },
  {
    "postcode": "95176",
    "city": "Hof"
  },
  {
    "postcode": "95176",
    "city": "Berg"
  },
  {
    "postcode": "95176",
    "city": "Birkenhof"
  },
  {
    "postcode": "95176",
    "city": "Brand"
  },
  {
    "postcode": "95176",
    "city": "Eckardsreuth"
  },
  {
    "postcode": "95176",
    "city": "Frauenhof"
  },
  {
    "postcode": "95176",
    "city": "Gottschalk"
  },
  {
    "postcode": "95176",
    "city": "Klausenhof"
  },
  {
    "postcode": "95176",
    "city": "Pretschenreuth"
  },
  {
    "postcode": "95176",
    "city": "Reuthlas"
  },
  {
    "postcode": "95176",
    "city": "Ringlasmühle"
  },
  {
    "postcode": "95176",
    "city": "Schödelshöhe"
  },
  {
    "postcode": "95176",
    "city": "Schallershof"
  },
  {
    "postcode": "95176",
    "city": "Wölbersbach"
  },
  {
    "postcode": "95176",
    "city": "Waldlust"
  },
  {
    "postcode": "95179",
    "city": "Dürrenwaid"
  },
  {
    "postcode": "95179",
    "city": "Geroldsgrün"
  },
  {
    "postcode": "95179",
    "city": "Geroldsreuth"
  },
  {
    "postcode": "95179",
    "city": "Hermesgrün"
  },
  {
    "postcode": "95179",
    "city": "Hertwegsgrün"
  },
  {
    "postcode": "95179",
    "city": "Hirschberglein"
  },
  {
    "postcode": "95179",
    "city": "Langenbach Oberfranken"
  },
  {
    "postcode": "95179",
    "city": "Langenbach"
  },
  {
    "postcode": "95179",
    "city": "Neumühle"
  },
  {
    "postcode": "95179",
    "city": "Silberstein"
  },
  {
    "postcode": "95179",
    "city": "Steinbach bei Geroldsgrün"
  },
  {
    "postcode": "95179",
    "city": "Hof"
  },
  {
    "postcode": "95179",
    "city": "Steinbach"
  },
  {
    "postcode": "95179",
    "city": "Dürrenwaiderhammer"
  },
  {
    "postcode": "95179",
    "city": "Großenreuth"
  },
  {
    "postcode": "95179",
    "city": "Lotharheil"
  },
  {
    "postcode": "95179",
    "city": "Mühlleithen"
  },
  {
    "postcode": "95179",
    "city": "Untersteinbach"
  },
  {
    "postcode": "95180",
    "city": "Berg Oberfranken"
  },
  {
    "postcode": "95180",
    "city": "Berg"
  },
  {
    "postcode": "95180",
    "city": "Brandstein Oberfranken"
  },
  {
    "postcode": "95180",
    "city": "Brandstein"
  },
  {
    "postcode": "95180",
    "city": "Bruck Oberfranken"
  },
  {
    "postcode": "95180",
    "city": "Bruck"
  },
  {
    "postcode": "95180",
    "city": "Bug"
  },
  {
    "postcode": "95180",
    "city": "Eisenbühl"
  },
  {
    "postcode": "95180",
    "city": "Geiersberg Oberfranken"
  },
  {
    "postcode": "95180",
    "city": "Geiersberg"
  },
  {
    "postcode": "95180",
    "city": "Gottsmannsgrün Oberfranken"
  },
  {
    "postcode": "95180",
    "city": "Gottsmannsgrün"
  },
  {
    "postcode": "95180",
    "city": "Hadermannsgrün Oberfranken"
  },
  {
    "postcode": "95180",
    "city": "Hadermannsgrün"
  },
  {
    "postcode": "95180",
    "city": "Rudolphstein"
  },
  {
    "postcode": "95180",
    "city": "Sachsenvorwerk"
  },
  {
    "postcode": "95180",
    "city": "Schnarchenreuth Oberfranken"
  },
  {
    "postcode": "95180",
    "city": "Schnarchenreuth"
  },
  {
    "postcode": "95180",
    "city": "Steinbühl Oberfranken"
  },
  {
    "postcode": "95180",
    "city": "Steinbühl"
  },
  {
    "postcode": "95180",
    "city": "Tiefengrün"
  },
  {
    "postcode": "95180",
    "city": "Hof"
  },
  {
    "postcode": "95180",
    "city": "Rothleiten"
  },
  {
    "postcode": "95180",
    "city": "Waldlust"
  },
  {
    "postcode": "95182",
    "city": "Döhlau"
  },
  {
    "postcode": "95182",
    "city": "Döhlau Kreis Hof Saale"
  },
  {
    "postcode": "95182",
    "city": "Kautendorf"
  },
  {
    "postcode": "95182",
    "city": "Tauperlitz"
  },
  {
    "postcode": "95182",
    "city": "Hof"
  },
  {
    "postcode": "95182",
    "city": "Erlalohe"
  },
  {
    "postcode": "95183",
    "city": "Feilitzsch"
  },
  {
    "postcode": "95183",
    "city": "Föhrig"
  },
  {
    "postcode": "95183",
    "city": "Forst"
  },
  {
    "postcode": "95183",
    "city": "Gössen"
  },
  {
    "postcode": "95183",
    "city": "Hohendorf"
  },
  {
    "postcode": "95183",
    "city": "Isaar"
  },
  {
    "postcode": "95183",
    "city": "Mödlareuth"
  },
  {
    "postcode": "95183",
    "city": "Münchenreuth"
  },
  {
    "postcode": "95183",
    "city": "Schafhübel"
  },
  {
    "postcode": "95183",
    "city": "Schollenreuth"
  },
  {
    "postcode": "95183",
    "city": "Töpen"
  },
  {
    "postcode": "95183",
    "city": "Trogen"
  },
  {
    "postcode": "95183",
    "city": "Trogen Oberfranken"
  },
  {
    "postcode": "95183",
    "city": "Ullitz"
  },
  {
    "postcode": "95183",
    "city": "Unterhartmannsreuth"
  },
  {
    "postcode": "95183",
    "city": "Zedtwitz"
  },
  {
    "postcode": "95183",
    "city": "Ziegelhütten"
  },
  {
    "postcode": "95183",
    "city": "Hof"
  },
  {
    "postcode": "95183",
    "city": "Einzighaus"
  },
  {
    "postcode": "95183",
    "city": "Fattigsmühle"
  },
  {
    "postcode": "95183",
    "city": "Moosanger"
  },
  {
    "postcode": "95183",
    "city": "Tiefendorf"
  },
  {
    "postcode": "95183",
    "city": "Kienberg"
  },
  {
    "postcode": "95183",
    "city": "Schwarzenstein"
  },
  {
    "postcode": "95185",
    "city": "Döberlitz"
  },
  {
    "postcode": "95185",
    "city": "Gattendorf Oberfranken"
  },
  {
    "postcode": "95185",
    "city": "Gattendorf"
  },
  {
    "postcode": "95185",
    "city": "Gumpertsreuth"
  },
  {
    "postcode": "95185",
    "city": "Kirchgattendorf"
  },
  {
    "postcode": "95185",
    "city": "Neuenreuth"
  },
  {
    "postcode": "95185",
    "city": "Neugattendorf"
  },
  {
    "postcode": "95185",
    "city": "Oberhartmannsreuth"
  },
  {
    "postcode": "95185",
    "city": "Oberhöll"
  },
  {
    "postcode": "95185",
    "city": "Schloßgattendorf"
  },
  {
    "postcode": "95185",
    "city": "Unterhöll"
  },
  {
    "postcode": "95185",
    "city": "Vordereggeten"
  },
  {
    "postcode": "95185",
    "city": "Waldfrieden"
  },
  {
    "postcode": "95185",
    "city": "Hof"
  },
  {
    "postcode": "95185",
    "city": "Hintereggeten"
  },
  {
    "postcode": "95185",
    "city": "Quellitzhof"
  },
  {
    "postcode": "95185",
    "city": "Quellitzmühle"
  },
  {
    "postcode": "95186",
    "city": "Braunersgrün"
  },
  {
    "postcode": "95186",
    "city": "Höchstädt im Fichtelgebirge"
  },
  {
    "postcode": "95186",
    "city": "Höchstädt Oberfranken"
  },
  {
    "postcode": "95186",
    "city": "Höchstädt"
  },
  {
    "postcode": "95186",
    "city": "Hofmühle"
  },
  {
    "postcode": "95186",
    "city": "Rügersgrün Oberfranken"
  },
  {
    "postcode": "95186",
    "city": "Rügersgrün"
  },
  {
    "postcode": "95186",
    "city": "Wunsiedel im Fichtelgebirge"
  },
  {
    "postcode": "95186",
    "city": "Höchstädt i. Fichtelgebirge"
  },
  {
    "postcode": "95186",
    "city": "Gräfenberg"
  },
  {
    "postcode": "95186",
    "city": "Tännig"
  },
  {
    "postcode": "95186",
    "city": "Witzlebensmühle"
  },
  {
    "postcode": "95188",
    "city": "Eichenstein"
  },
  {
    "postcode": "95188",
    "city": "Griesbach"
  },
  {
    "postcode": "95188",
    "city": "Heinrichsdorf"
  },
  {
    "postcode": "95188",
    "city": "Issigau"
  },
  {
    "postcode": "95188",
    "city": "Kemlas"
  },
  {
    "postcode": "95188",
    "city": "Reitzenstein"
  },
  {
    "postcode": "95188",
    "city": "Hof"
  },
  {
    "postcode": "95188",
    "city": "Hollerhöh"
  },
  {
    "postcode": "95188",
    "city": "Kupferbühl"
  },
  {
    "postcode": "95188",
    "city": "Preußenbühl"
  },
  {
    "postcode": "95188",
    "city": "Sinterrasen"
  },
  {
    "postcode": "95188",
    "city": "Untereichenstein"
  },
  {
    "postcode": "95188",
    "city": "Unterwolfstein"
  },
  {
    "postcode": "95188",
    "city": "Wolfstein"
  },
  {
    "postcode": "95189",
    "city": "Brunn"
  },
  {
    "postcode": "95189",
    "city": "Brunnenthal Kreis Hof Saale"
  },
  {
    "postcode": "95189",
    "city": "Brunnenthal"
  },
  {
    "postcode": "95189",
    "city": "Joditz"
  },
  {
    "postcode": "95189",
    "city": "Köditz"
  },
  {
    "postcode": "95189",
    "city": "Köditz Oberfranken"
  },
  {
    "postcode": "95189",
    "city": "Lamitz"
  },
  {
    "postcode": "95189",
    "city": "Saalenstein Kreis Hof Saale"
  },
  {
    "postcode": "95189",
    "city": "Saalenstein"
  },
  {
    "postcode": "95189",
    "city": "Scharten Kreis Hof Saale"
  },
  {
    "postcode": "95189",
    "city": "Scharten"
  },
  {
    "postcode": "95189",
    "city": "Siebenhitz"
  },
  {
    "postcode": "95189",
    "city": "Stöckaten"
  },
  {
    "postcode": "95189",
    "city": "Hof"
  },
  {
    "postcode": "95189",
    "city": "Schlegel"
  },
  {
    "postcode": "95189",
    "city": "Neuköditz"
  },
  {
    "postcode": "95189",
    "city": "Heroldsgrün"
  },
  {
    "postcode": "95189",
    "city": "Hohbühl"
  },
  {
    "postcode": "95189",
    "city": "Lamitzmühle"
  },
  {
    "postcode": "95189",
    "city": "Scheibengrün"
  },
  {
    "postcode": "95189",
    "city": "Seebühl"
  },
  {
    "postcode": "95191",
    "city": "Hartungs"
  },
  {
    "postcode": "95191",
    "city": "Leupoldsgrün"
  },
  {
    "postcode": "95191",
    "city": "Lipperts"
  },
  {
    "postcode": "95191",
    "city": "Röhrsteig"
  },
  {
    "postcode": "95191",
    "city": "Hof"
  },
  {
    "postcode": "95191",
    "city": "Forsthaus"
  },
  {
    "postcode": "95191",
    "city": "Hohenbuch"
  },
  {
    "postcode": "95191",
    "city": "Kalkofen"
  },
  {
    "postcode": "95191",
    "city": "Neumühl"
  },
  {
    "postcode": "95192",
    "city": "Dörflas"
  },
  {
    "postcode": "95192",
    "city": "Lichtenberg Oberfranken"
  },
  {
    "postcode": "95192",
    "city": "Lichtenberg"
  },
  {
    "postcode": "95192",
    "city": "Hof"
  },
  {
    "postcode": "95192",
    "city": "Blechschmidtenhammer"
  },
  {
    "postcode": "95192",
    "city": "Dorschenmühle"
  },
  {
    "postcode": "95192",
    "city": "Friedrich-Wilhelm-Stollen"
  },
  {
    "postcode": "95192",
    "city": "Höllental"
  },
  {
    "postcode": "95192",
    "city": "Selbitzmühle"
  },
  {
    "postcode": "95194",
    "city": "Draisendorf Oberfranken"
  },
  {
    "postcode": "95194",
    "city": "Draisendorf"
  },
  {
    "postcode": "95194",
    "city": "Förtschenbach"
  },
  {
    "postcode": "95194",
    "city": "Haag"
  },
  {
    "postcode": "95194",
    "city": "Henriettenlust"
  },
  {
    "postcode": "95194",
    "city": "Hohenberg"
  },
  {
    "postcode": "95194",
    "city": "Kirchbrünnlein"
  },
  {
    "postcode": "95194",
    "city": "Mittelhammer"
  },
  {
    "postcode": "95194",
    "city": "Mühlberg"
  },
  {
    "postcode": "95194",
    "city": "Nentschau"
  },
  {
    "postcode": "95194",
    "city": "Oberprex"
  },
  {
    "postcode": "95194",
    "city": "Oberzech"
  },
  {
    "postcode": "95194",
    "city": "Osseck am Wald"
  },
  {
    "postcode": "95194",
    "city": "Prex"
  },
  {
    "postcode": "95194",
    "city": "Raitschin"
  },
  {
    "postcode": "95194",
    "city": "Regnitzlosau"
  },
  {
    "postcode": "95194",
    "city": "Schwesendorf"
  },
  {
    "postcode": "95194",
    "city": "Trogenau"
  },
  {
    "postcode": "95194",
    "city": "Unterhammer"
  },
  {
    "postcode": "95194",
    "city": "Vierschau"
  },
  {
    "postcode": "95194",
    "city": "Weinzlitz"
  },
  {
    "postcode": "95194",
    "city": "Wieden"
  },
  {
    "postcode": "95194",
    "city": "Zech"
  },
  {
    "postcode": "95194",
    "city": "Hof"
  },
  {
    "postcode": "95194",
    "city": "Hohenschwesendorf"
  },
  {
    "postcode": "95194",
    "city": "Hinterprex"
  },
  {
    "postcode": "95194",
    "city": "Hohenvierschau"
  },
  {
    "postcode": "95194",
    "city": "Huschermühle"
  },
  {
    "postcode": "95194",
    "city": "Klötzlamühle"
  },
  {
    "postcode": "95194",
    "city": "Neumühle"
  },
  {
    "postcode": "95194",
    "city": "Schanz"
  },
  {
    "postcode": "95194",
    "city": "Unterwieden"
  },
  {
    "postcode": "95194",
    "city": "Unterzech"
  },
  {
    "postcode": "95194",
    "city": "Waldschlößchen"
  },
  {
    "postcode": "95194",
    "city": "Ziegelhütte"
  },
  {
    "postcode": "95195",
    "city": "Bibersbach"
  },
  {
    "postcode": "95195",
    "city": "Bödlas"
  },
  {
    "postcode": "95195",
    "city": "Brücklas"
  },
  {
    "postcode": "95195",
    "city": "Dürnberg"
  },
  {
    "postcode": "95195",
    "city": "Grün"
  },
  {
    "postcode": "95195",
    "city": "Oberröslau"
  },
  {
    "postcode": "95195",
    "city": "Oberwoltersgrün"
  },
  {
    "postcode": "95195",
    "city": "Rauschensteig"
  },
  {
    "postcode": "95195",
    "city": "Röslau"
  },
  {
    "postcode": "95195",
    "city": "Thusmühle"
  },
  {
    "postcode": "95195",
    "city": "Unterröslau"
  },
  {
    "postcode": "95195",
    "city": "Unterwoltersgrün"
  },
  {
    "postcode": "95195",
    "city": "Wunsiedel im Fichtelgebirge"
  },
  {
    "postcode": "95195",
    "city": "Rosenhof"
  },
  {
    "postcode": "95197",
    "city": "Adlanz Oberfranken"
  },
  {
    "postcode": "95197",
    "city": "Adlanz"
  },
  {
    "postcode": "95197",
    "city": "Haidengrün"
  },
  {
    "postcode": "95197",
    "city": "Haueisen"
  },
  {
    "postcode": "95197",
    "city": "Mühldorf"
  },
  {
    "postcode": "95197",
    "city": "Neudorf Kreis Naila"
  },
  {
    "postcode": "95197",
    "city": "Neudorf"
  },
  {
    "postcode": "95197",
    "city": "Pinzig Kreis Naila"
  },
  {
    "postcode": "95197",
    "city": "Pinzig"
  },
  {
    "postcode": "95197",
    "city": "Schauenstein"
  },
  {
    "postcode": "95197",
    "city": "Uschertsgrün"
  },
  {
    "postcode": "95197",
    "city": "Volkmannsgrün"
  },
  {
    "postcode": "95197",
    "city": "Windischengrün"
  },
  {
    "postcode": "95197",
    "city": "Hof"
  },
  {
    "postcode": "95197",
    "city": "Dorschenhammer"
  },
  {
    "postcode": "95197",
    "city": "Loh"
  },
  {
    "postcode": "95199",
    "city": "Birkenbühl"
  },
  {
    "postcode": "95199",
    "city": "Hohenmühle"
  },
  {
    "postcode": "95199",
    "city": "Kaiserhammer"
  },
  {
    "postcode": "95199",
    "city": "Neudürrlas"
  },
  {
    "postcode": "95199",
    "city": "Pfannenstiel"
  },
  {
    "postcode": "95199",
    "city": "Schwarzenhammer"
  },
  {
    "postcode": "95199",
    "city": "Thierstein"
  },
  {
    "postcode": "95199",
    "city": "Wunsiedel im Fichtelgebirge"
  },
  {
    "postcode": "95199",
    "city": "Dangesbühl"
  },
  {
    "postcode": "95199",
    "city": "Hendelhammer"
  },
  {
    "postcode": "95199",
    "city": "Ziegelhütte"
  },
  {
    "postcode": "95199",
    "city": "Öchslersmühle"
  },
  {
    "postcode": "95199",
    "city": "Schlößlein"
  },
  {
    "postcode": "95199",
    "city": "Schwarzteich"
  },
  {
    "postcode": "95199",
    "city": "Wäschteich"
  },
  {
    "postcode": "95213",
    "city": "Ahornis"
  },
  {
    "postcode": "95213",
    "city": "Biengarten"
  },
  {
    "postcode": "95213",
    "city": "Bug"
  },
  {
    "postcode": "95213",
    "city": "Gottersdorf Oberfranken"
  },
  {
    "postcode": "95213",
    "city": "Gottersdorf"
  },
  {
    "postcode": "95213",
    "city": "Grund"
  },
  {
    "postcode": "95213",
    "city": "Hildbrandsgrün"
  },
  {
    "postcode": "95213",
    "city": "Jehsen Oberfranken"
  },
  {
    "postcode": "95213",
    "city": "Jehsen"
  },
  {
    "postcode": "95213",
    "city": "Kuppel"
  },
  {
    "postcode": "95213",
    "city": "Laubersreuth Oberfranken"
  },
  {
    "postcode": "95213",
    "city": "Laubersreuth"
  },
  {
    "postcode": "95213",
    "city": "Markersreuth Oberfranken"
  },
  {
    "postcode": "95213",
    "city": "Markersreuth"
  },
  {
    "postcode": "95213",
    "city": "Maxreuth"
  },
  {
    "postcode": "95213",
    "city": "Mechlenreuth Oberfranken"
  },
  {
    "postcode": "95213",
    "city": "Mechlenreuth"
  },
  {
    "postcode": "95213",
    "city": "Meierhof"
  },
  {
    "postcode": "95213",
    "city": "Mittelsauerhof"
  },
  {
    "postcode": "95213",
    "city": "Münchberg"
  },
  {
    "postcode": "95213",
    "city": "Münchberg Oberfranken"
  },
  {
    "postcode": "95213",
    "city": "Mussen Oberfranken"
  },
  {
    "postcode": "95213",
    "city": "Mussen"
  },
  {
    "postcode": "95213",
    "city": "Obersauerhof"
  },
  {
    "postcode": "95213",
    "city": "Plösen Oberfranken"
  },
  {
    "postcode": "95213",
    "city": "Plösen"
  },
  {
    "postcode": "95213",
    "city": "Poppenreuth Oberfranken"
  },
  {
    "postcode": "95213",
    "city": "Poppenreuth"
  },
  {
    "postcode": "95213",
    "city": "Pulschnitzberg Oberfranken"
  },
  {
    "postcode": "95213",
    "city": "Pulschnitzberg"
  },
  {
    "postcode": "95213",
    "city": "Rabenreuth Oberfranken"
  },
  {
    "postcode": "95213",
    "city": "Rabenreuth"
  },
  {
    "postcode": "95213",
    "city": "Schödlas Oberfranken"
  },
  {
    "postcode": "95213",
    "city": "Schödlas"
  },
  {
    "postcode": "95213",
    "city": "Schweinsbach Oberfranken"
  },
  {
    "postcode": "95213",
    "city": "Schweinsbach"
  },
  {
    "postcode": "95213",
    "city": "Solg Oberfranken"
  },
  {
    "postcode": "95213",
    "city": "Solg"
  },
  {
    "postcode": "95213",
    "city": "Straas Oberfranken"
  },
  {
    "postcode": "95213",
    "city": "Straas"
  },
  {
    "postcode": "95213",
    "city": "Unfriedsdorf Oberfranken"
  },
  {
    "postcode": "95213",
    "city": "Unfriedsdorf"
  },
  {
    "postcode": "95213",
    "city": "Untersauerhof"
  },
  {
    "postcode": "95213",
    "city": "Hof"
  },
  {
    "postcode": "95213",
    "city": "Ahornis-Kuppel"
  },
  {
    "postcode": "95213",
    "city": "Ahornismühle"
  },
  {
    "postcode": "95213",
    "city": "Löhlein"
  },
  {
    "postcode": "95213",
    "city": "Wiesenthal"
  },
  {
    "postcode": "95213",
    "city": "Eiben"
  },
  {
    "postcode": "95213",
    "city": "Obere Eiben"
  },
  {
    "postcode": "95213",
    "city": "Gollereinzel"
  },
  {
    "postcode": "95213",
    "city": "Hammermühle"
  },
  {
    "postcode": "95213",
    "city": "Ruppes"
  },
  {
    "postcode": "95213",
    "city": "Schneidersgrün"
  },
  {
    "postcode": "95213",
    "city": "Hintere Horlachen"
  },
  {
    "postcode": "95213",
    "city": "Jehsenmühle"
  },
  {
    "postcode": "95213",
    "city": "Tannenhof"
  },
  {
    "postcode": "95213",
    "city": "Maulschelle"
  },
  {
    "postcode": "95213",
    "city": "Dietelmühle"
  },
  {
    "postcode": "95213",
    "city": "Modlitzmühle"
  },
  {
    "postcode": "95213",
    "city": "Nebers"
  },
  {
    "postcode": "95213",
    "city": "Neuhaus"
  },
  {
    "postcode": "95213",
    "city": "Neutheilung"
  },
  {
    "postcode": "95213",
    "city": "Plösenmühle"
  },
  {
    "postcode": "95213",
    "city": "Poppenreuther Mühle"
  },
  {
    "postcode": "95213",
    "city": "Rothenmühle"
  },
  {
    "postcode": "95213",
    "city": "Rußhütte"
  },
  {
    "postcode": "95213",
    "city": "Sauerhof"
  },
  {
    "postcode": "95213",
    "city": "Sauerhof-Kuppel"
  },
  {
    "postcode": "95213",
    "city": "Schotteneinzel"
  },
  {
    "postcode": "95213",
    "city": "Schwarzholzwinkel"
  },
  {
    "postcode": "95213",
    "city": "Wäldlein"
  },
  {
    "postcode": "95213",
    "city": "Wüstensaal"
  },
  {
    "postcode": "95213",
    "city": "Ziegenrück"
  },
  {
    "postcode": "95233",
    "city": "Almbranz Oberfranken"
  },
  {
    "postcode": "95233",
    "city": "Almbranz"
  },
  {
    "postcode": "95233",
    "city": "Baiergrün"
  },
  {
    "postcode": "95233",
    "city": "Bärenbrunn Oberfranken"
  },
  {
    "postcode": "95233",
    "city": "Bärenbrunn"
  },
  {
    "postcode": "95233",
    "city": "Buckenreuth"
  },
  {
    "postcode": "95233",
    "city": "Burkersreuth"
  },
  {
    "postcode": "95233",
    "city": "Dreschersreuth"
  },
  {
    "postcode": "95233",
    "city": "Edlendorf Oberfranken"
  },
  {
    "postcode": "95233",
    "city": "Edlendorf"
  },
  {
    "postcode": "95233",
    "city": "Enchenreuth"
  },
  {
    "postcode": "95233",
    "city": "Gösmes Oberfranken"
  },
  {
    "postcode": "95233",
    "city": "Gösmes"
  },
  {
    "postcode": "95233",
    "city": "Günthersdorf Oberfranken"
  },
  {
    "postcode": "95233",
    "city": "Günthersdorf"
  },
  {
    "postcode": "95233",
    "city": "Haide"
  },
  {
    "postcode": "95233",
    "city": "Helmbrechts"
  },
  {
    "postcode": "95233",
    "city": "Helmbrechts Oberfranken"
  },
  {
    "postcode": "95233",
    "city": "Hohberg"
  },
  {
    "postcode": "95233",
    "city": "Kleinschwarzenbach"
  },
  {
    "postcode": "95233",
    "city": "Kollerhammer"
  },
  {
    "postcode": "95233",
    "city": "Kriegsreuth"
  },
  {
    "postcode": "95233",
    "city": "Lehsten Oberfranken"
  },
  {
    "postcode": "95233",
    "city": "Lehsten"
  },
  {
    "postcode": "95233",
    "city": "Oberbrumberg"
  },
  {
    "postcode": "95233",
    "city": "Oberweißenbach Kreis Münchberg Oberfranken"
  },
  {
    "postcode": "95233",
    "city": "Oberweißenbach"
  },
  {
    "postcode": "95233",
    "city": "Ochsenbrunn Oberfranken"
  },
  {
    "postcode": "95233",
    "city": "Ochsenbrunn"
  },
  {
    "postcode": "95233",
    "city": "Ort Oberfranken"
  },
  {
    "postcode": "95233",
    "city": "Ort"
  },
  {
    "postcode": "95233",
    "city": "Ottengrün"
  },
  {
    "postcode": "95233",
    "city": "Stechera Oberfranken"
  },
  {
    "postcode": "95233",
    "city": "Stechera"
  },
  {
    "postcode": "95233",
    "city": "Suttenbach Oberfranken"
  },
  {
    "postcode": "95233",
    "city": "Suttenbach"
  },
  {
    "postcode": "95233",
    "city": "Unterbrumberg"
  },
  {
    "postcode": "95233",
    "city": "Unterweißenbach Oberfranken"
  },
  {
    "postcode": "95233",
    "city": "Unterweißenbach"
  },
  {
    "postcode": "95233",
    "city": "Wüstenselbitz"
  },
  {
    "postcode": "95233",
    "city": "Hof"
  },
  {
    "postcode": "95233",
    "city": "Absang"
  },
  {
    "postcode": "95233",
    "city": "Altsuttenbach"
  },
  {
    "postcode": "95233",
    "city": "Bischofsmühle"
  },
  {
    "postcode": "95233",
    "city": "Bärenbühl"
  },
  {
    "postcode": "95233",
    "city": "Einzigenhöfen"
  },
  {
    "postcode": "95233",
    "city": "Geigersmühle"
  },
  {
    "postcode": "95233",
    "city": "Hampelhof"
  },
  {
    "postcode": "95233",
    "city": "Hopfenmühle"
  },
  {
    "postcode": "95233",
    "city": "Jägersruh"
  },
  {
    "postcode": "95233",
    "city": "Ochsenbrunn-Bärenbrunn"
  },
  {
    "postcode": "95233",
    "city": "Rauhenberg"
  },
  {
    "postcode": "95233",
    "city": "Schlegelmühle"
  },
  {
    "postcode": "95233",
    "city": "Spörlmühle"
  },
  {
    "postcode": "95233",
    "city": "Steinmühle"
  },
  {
    "postcode": "95233",
    "city": "Taubaldsmühle"
  },
  {
    "postcode": "95233",
    "city": "Zimmermühle"
  },
  {
    "postcode": "95234",
    "city": "Germersreuth"
  },
  {
    "postcode": "95234",
    "city": "Immerseiben"
  },
  {
    "postcode": "95234",
    "city": "Reinersreuth"
  },
  {
    "postcode": "95234",
    "city": "Sparneck"
  },
  {
    "postcode": "95234",
    "city": "Stockenroth"
  },
  {
    "postcode": "95234",
    "city": "Hof"
  },
  {
    "postcode": "95234",
    "city": "Immershof"
  },
  {
    "postcode": "95236",
    "city": "Fleisnitz"
  },
  {
    "postcode": "95236",
    "city": "Förstenreuth Oberfranken"
  },
  {
    "postcode": "95236",
    "city": "Förstenreuth"
  },
  {
    "postcode": "95236",
    "city": "Gundlitz"
  },
  {
    "postcode": "95236",
    "city": "Hampelshof"
  },
  {
    "postcode": "95236",
    "city": "Metzlesdorf"
  },
  {
    "postcode": "95236",
    "city": "Oelschnitz Oberfranken"
  },
  {
    "postcode": "95236",
    "city": "Oelschnitz"
  },
  {
    "postcode": "95236",
    "city": "Querenbach Oberfranken"
  },
  {
    "postcode": "95236",
    "city": "Querenbach"
  },
  {
    "postcode": "95236",
    "city": "Stammbach"
  },
  {
    "postcode": "95236",
    "city": "Tennersreuth"
  },
  {
    "postcode": "95236",
    "city": "Weickenreuth Oberfranken"
  },
  {
    "postcode": "95236",
    "city": "Weickenreuth"
  },
  {
    "postcode": "95236",
    "city": "Hof"
  },
  {
    "postcode": "95236",
    "city": "Hinterbug"
  },
  {
    "postcode": "95236",
    "city": "Abendhut"
  },
  {
    "postcode": "95236",
    "city": "Altpoppenreuth"
  },
  {
    "postcode": "95236",
    "city": "Altstammbach"
  },
  {
    "postcode": "95236",
    "city": "Bucheckmühle"
  },
  {
    "postcode": "95236",
    "city": "Bucheckeinzel"
  },
  {
    "postcode": "95236",
    "city": "Sickenreuth"
  },
  {
    "postcode": "95236",
    "city": "Fleisnitzmühle"
  },
  {
    "postcode": "95236",
    "city": "Höflein"
  },
  {
    "postcode": "95236",
    "city": "Höhlmühle"
  },
  {
    "postcode": "95236",
    "city": "Hartmannseinzel"
  },
  {
    "postcode": "95236",
    "city": "Herrnschrot"
  },
  {
    "postcode": "95236",
    "city": "Hohenbuchen"
  },
  {
    "postcode": "95236",
    "city": "Kirschbaumeinzel"
  },
  {
    "postcode": "95236",
    "city": "Kropfeinzel"
  },
  {
    "postcode": "95236",
    "city": "Kropfmühle"
  },
  {
    "postcode": "95236",
    "city": "Lindenhof"
  },
  {
    "postcode": "95236",
    "city": "Mittlereinzel"
  },
  {
    "postcode": "95236",
    "city": "Oberbug"
  },
  {
    "postcode": "95236",
    "city": "Obereinzel"
  },
  {
    "postcode": "95236",
    "city": "Obertennersreuth"
  },
  {
    "postcode": "95236",
    "city": "Röhrigeinzel"
  },
  {
    "postcode": "95236",
    "city": "Reba"
  },
  {
    "postcode": "95236",
    "city": "Rindlas"
  },
  {
    "postcode": "95236",
    "city": "Schützenhaus"
  },
  {
    "postcode": "95236",
    "city": "Senftenhof"
  },
  {
    "postcode": "95236",
    "city": "Sonnenhof"
  },
  {
    "postcode": "95236",
    "city": "Steinfurth"
  },
  {
    "postcode": "95236",
    "city": "Untereinzel"
  },
  {
    "postcode": "95236",
    "city": "Weißenstein"
  },
  {
    "postcode": "95236",
    "city": "Wildenhof"
  },
  {
    "postcode": "95237",
    "city": "Albertsreuth Oberfranken"
  },
  {
    "postcode": "95237",
    "city": "Albertsreuth"
  },
  {
    "postcode": "95237",
    "city": "Bärlas Oberfranken"
  },
  {
    "postcode": "95237",
    "city": "Bärlas"
  },
  {
    "postcode": "95237",
    "city": "Benk Oberfranken"
  },
  {
    "postcode": "95237",
    "city": "Benk"
  },
  {
    "postcode": "95237",
    "city": "Bug"
  },
  {
    "postcode": "95237",
    "city": "Oppenroth an der sächsischen Saale"
  },
  {
    "postcode": "95237",
    "city": "Weißdorf"
  },
  {
    "postcode": "95237",
    "city": "Wulmersreuth"
  },
  {
    "postcode": "95237",
    "city": "Hof"
  },
  {
    "postcode": "95237",
    "city": "Oppenroth"
  },
  {
    "postcode": "95239",
    "city": "Friedmannsdorf Oberfranken"
  },
  {
    "postcode": "95239",
    "city": "Friedmannsdorf"
  },
  {
    "postcode": "95239",
    "city": "Großlosnitz Oberfranken"
  },
  {
    "postcode": "95239",
    "city": "Großlosnitz"
  },
  {
    "postcode": "95239",
    "city": "Grossenau Oberfranken"
  },
  {
    "postcode": "95239",
    "city": "Grossenau"
  },
  {
    "postcode": "95239",
    "city": "Kleinlosnitz Oberfranken"
  },
  {
    "postcode": "95239",
    "city": "Kleinlosnitz"
  },
  {
    "postcode": "95239",
    "city": "Lösten Oberfranken"
  },
  {
    "postcode": "95239",
    "city": "Lösten"
  },
  {
    "postcode": "95239",
    "city": "Mödlenreuth Oberfranken"
  },
  {
    "postcode": "95239",
    "city": "Mödlenreuth"
  },
  {
    "postcode": "95239",
    "city": "Oberhaid"
  },
  {
    "postcode": "95239",
    "city": "Rieglersreuth Oberfranken"
  },
  {
    "postcode": "95239",
    "city": "Rieglersreuth"
  },
  {
    "postcode": "95239",
    "city": "Schnackenhof Oberfranken"
  },
  {
    "postcode": "95239",
    "city": "Schnackenhof"
  },
  {
    "postcode": "95239",
    "city": "Tannenreuth Oberfranken"
  },
  {
    "postcode": "95239",
    "city": "Tannenreuth"
  },
  {
    "postcode": "95239",
    "city": "Unterhaid"
  },
  {
    "postcode": "95239",
    "city": "Walpenreuth Oberfranken"
  },
  {
    "postcode": "95239",
    "city": "Walpenreuth"
  },
  {
    "postcode": "95239",
    "city": "Zell Oberfranken"
  },
  {
    "postcode": "95239",
    "city": "Zell"
  },
  {
    "postcode": "95239",
    "city": "Hof"
  },
  {
    "postcode": "95239",
    "city": "Zell im Fichtelgebirge"
  },
  {
    "postcode": "95239",
    "city": "Erbsbühl"
  },
  {
    "postcode": "95239",
    "city": "Waldstein"
  },
  {
    "postcode": "95326",
    "city": "Affalterhof Kreis Kulmbach"
  },
  {
    "postcode": "95326",
    "city": "Affalterhof"
  },
  {
    "postcode": "95326",
    "city": "Altenreuth"
  },
  {
    "postcode": "95326",
    "city": "Baumgarten"
  },
  {
    "postcode": "95326",
    "city": "Burghaig"
  },
  {
    "postcode": "95326",
    "city": "Forstlahm"
  },
  {
    "postcode": "95326",
    "city": "Frankenberg Kreis Kulmbach"
  },
  {
    "postcode": "95326",
    "city": "Frankenberg"
  },
  {
    "postcode": "95326",
    "city": "Gelbe Weiden"
  },
  {
    "postcode": "95326",
    "city": "Gemlenz"
  },
  {
    "postcode": "95326",
    "city": "Gößmannsreuth"
  },
  {
    "postcode": "95326",
    "city": "Grafendobrach"
  },
  {
    "postcode": "95326",
    "city": "Hitzmain Kreis Kulmbach"
  },
  {
    "postcode": "95326",
    "city": "Hitzmain"
  },
  {
    "postcode": "95326",
    "city": "Höferänger"
  },
  {
    "postcode": "95326",
    "city": "Höfstätten"
  },
  {
    "postcode": "95326",
    "city": "Katschenreuth Kreis Kulmbach"
  },
  {
    "postcode": "95326",
    "city": "Katschenreuth"
  },
  {
    "postcode": "95326",
    "city": "Kauernburg"
  },
  {
    "postcode": "95326",
    "city": "Kirchleus"
  },
  {
    "postcode": "95326",
    "city": "Kulmbach"
  },
  {
    "postcode": "95326",
    "city": "Lehenthal"
  },
  {
    "postcode": "95326",
    "city": "Leuchau"
  },
  {
    "postcode": "95326",
    "city": "Lösau"
  },
  {
    "postcode": "95326",
    "city": "Mangersreuth"
  },
  {
    "postcode": "95326",
    "city": "Melkendorf Kreis Kulmbach"
  },
  {
    "postcode": "95326",
    "city": "Melkendorf"
  },
  {
    "postcode": "95326",
    "city": "Metzdorf"
  },
  {
    "postcode": "95326",
    "city": "Niederndobrach"
  },
  {
    "postcode": "95326",
    "city": "Oberdornlach"
  },
  {
    "postcode": "95326",
    "city": "Oberkodach"
  },
  {
    "postcode": "95326",
    "city": "Oberpurbach"
  },
  {
    "postcode": "95326",
    "city": "Oberzettlitz"
  },
  {
    "postcode": "95326",
    "city": "Petzmannsberg"
  },
  {
    "postcode": "95326",
    "city": "Plassenburg"
  },
  {
    "postcode": "95326",
    "city": "Pörbitsch"
  },
  {
    "postcode": "95326",
    "city": "Rosengrund"
  },
  {
    "postcode": "95326",
    "city": "Schwarzholz"
  },
  {
    "postcode": "95326",
    "city": "Seidenhof"
  },
  {
    "postcode": "95326",
    "city": "Steinenhausen Kreis Kulmbach"
  },
  {
    "postcode": "95326",
    "city": "Steinenhausen"
  },
  {
    "postcode": "95326",
    "city": "Unterdornlach"
  },
  {
    "postcode": "95326",
    "city": "Unterkodach Kreis Kulmbach"
  },
  {
    "postcode": "95326",
    "city": "Unterkodach"
  },
  {
    "postcode": "95326",
    "city": "Unterpurbach"
  },
  {
    "postcode": "95326",
    "city": "Unterzettlitz Kreis Kulmbach"
  },
  {
    "postcode": "95326",
    "city": "Unterzettlitz"
  },
  {
    "postcode": "95326",
    "city": "Weiher"
  },
  {
    "postcode": "95326",
    "city": "Wickenreuth"
  },
  {
    "postcode": "95326",
    "city": "Windischenhaig Kreis Kulmbach"
  },
  {
    "postcode": "95326",
    "city": "Windischenhaig"
  },
  {
    "postcode": "95326",
    "city": "Ziegelhütten"
  },
  {
    "postcode": "95326",
    "city": "Blaich"
  },
  {
    "postcode": "95326",
    "city": "Ameisloch"
  },
  {
    "postcode": "95326",
    "city": "Herlas"
  },
  {
    "postcode": "95326",
    "city": "Biegersgut"
  },
  {
    "postcode": "95326",
    "city": "Bärnhof"
  },
  {
    "postcode": "95326",
    "city": "Dörnhof"
  },
  {
    "postcode": "95326",
    "city": "Donnersreuth"
  },
  {
    "postcode": "95326",
    "city": "Eggenreuth"
  },
  {
    "postcode": "95326",
    "city": "Esbach"
  },
  {
    "postcode": "95326",
    "city": "Grundhaus"
  },
  {
    "postcode": "95326",
    "city": "Grünbaum"
  },
  {
    "postcode": "95326",
    "city": "Holzmühle"
  },
  {
    "postcode": "95326",
    "city": "Aichig"
  },
  {
    "postcode": "95326",
    "city": "Priemershof"
  },
  {
    "postcode": "95326",
    "city": "Kessel"
  },
  {
    "postcode": "95326",
    "city": "Lindig"
  },
  {
    "postcode": "95326",
    "city": "Neufang"
  },
  {
    "postcode": "95326",
    "city": "Oberauhof"
  },
  {
    "postcode": "95326",
    "city": "Oberndorf"
  },
  {
    "postcode": "95326",
    "city": "Plosenberg"
  },
  {
    "postcode": "95326",
    "city": "Ramscheid"
  },
  {
    "postcode": "95326",
    "city": "Rothenhügl"
  },
  {
    "postcode": "95326",
    "city": "Rother Hügel"
  },
  {
    "postcode": "95326",
    "city": "Sackenreuth"
  },
  {
    "postcode": "95326",
    "city": "Steinhaus"
  },
  {
    "postcode": "95326",
    "city": "Tiefenbach"
  },
  {
    "postcode": "95326",
    "city": "Wadel"
  },
  {
    "postcode": "95336",
    "city": "Appenberg"
  },
  {
    "postcode": "95336",
    "city": "Bechtelsreuth"
  },
  {
    "postcode": "95336",
    "city": "Buchau"
  },
  {
    "postcode": "95336",
    "city": "Danndorf Oberfranken"
  },
  {
    "postcode": "95336",
    "city": "Danndorf"
  },
  {
    "postcode": "95336",
    "city": "Dörfles"
  },
  {
    "postcode": "95336",
    "city": "Fassoldshof"
  },
  {
    "postcode": "95336",
    "city": "Friedrichsberg"
  },
  {
    "postcode": "95336",
    "city": "Gundersreuth"
  },
  {
    "postcode": "95336",
    "city": "Heinersreuth"
  },
  {
    "postcode": "95336",
    "city": "Mainleus"
  },
  {
    "postcode": "95336",
    "city": "Motschenbach"
  },
  {
    "postcode": "95336",
    "city": "Neuenreuth"
  },
  {
    "postcode": "95336",
    "city": "Pöhl Oberfranken"
  },
  {
    "postcode": "95336",
    "city": "Pöhl"
  },
  {
    "postcode": "95336",
    "city": "Proß"
  },
  {
    "postcode": "95336",
    "city": "Prötschenbach"
  },
  {
    "postcode": "95336",
    "city": "Rothwind"
  },
  {
    "postcode": "95336",
    "city": "Schimmendorf"
  },
  {
    "postcode": "95336",
    "city": "Schmeilsdorf bei Kulmbach"
  },
  {
    "postcode": "95336",
    "city": "Schwarzach bei Kulmbach"
  },
  {
    "postcode": "95336",
    "city": "Veitlahm Oberfranken"
  },
  {
    "postcode": "95336",
    "city": "Veitlahm"
  },
  {
    "postcode": "95336",
    "city": "Wernstein Oberfranken"
  },
  {
    "postcode": "95336",
    "city": "Wernstein"
  },
  {
    "postcode": "95336",
    "city": "Willmersreuth"
  },
  {
    "postcode": "95336",
    "city": "Witzmannsberg"
  },
  {
    "postcode": "95336",
    "city": "Wolpersreuth"
  },
  {
    "postcode": "95336",
    "city": "Wüstenbuchau"
  },
  {
    "postcode": "95336",
    "city": "Wüstendorf Oberfranken"
  },
  {
    "postcode": "95336",
    "city": "Wüstendorf"
  },
  {
    "postcode": "95336",
    "city": "Kulmbach"
  },
  {
    "postcode": "95336",
    "city": "Schwarzach"
  },
  {
    "postcode": "95336",
    "city": "Schmeilsdorf"
  },
  {
    "postcode": "95336",
    "city": "Hornschuchshausen"
  },
  {
    "postcode": "95336",
    "city": "Eichberg"
  },
  {
    "postcode": "95336",
    "city": "Ködnitzerberg"
  },
  {
    "postcode": "95336",
    "city": "Krötennest"
  },
  {
    "postcode": "95336",
    "city": "Pölz"
  },
  {
    "postcode": "95336",
    "city": "Rothe Kelter"
  },
  {
    "postcode": "95336",
    "city": "Ruffenhaus"
  },
  {
    "postcode": "95336",
    "city": "Steinsorg"
  },
  {
    "postcode": "95336",
    "city": "Straß"
  },
  {
    "postcode": "95336",
    "city": "Unterauhof"
  },
  {
    "postcode": "95336",
    "city": "Wachholder"
  },
  {
    "postcode": "95336",
    "city": "Weihermühle"
  },
  {
    "postcode": "95339",
    "city": "Birkenhof"
  },
  {
    "postcode": "95339",
    "city": "Brandhaus"
  },
  {
    "postcode": "95339",
    "city": "Cottenau Oberfranken"
  },
  {
    "postcode": "95339",
    "city": "Cottenau"
  },
  {
    "postcode": "95339",
    "city": "Hegnabrunn Oberfranken"
  },
  {
    "postcode": "95339",
    "city": "Hegnabrunn"
  },
  {
    "postcode": "95339",
    "city": "Neuenmarkt"
  },
  {
    "postcode": "95339",
    "city": "Neufang Oberfranken"
  },
  {
    "postcode": "95339",
    "city": "Neufang"
  },
  {
    "postcode": "95339",
    "city": "Oberlangenroth"
  },
  {
    "postcode": "95339",
    "city": "Osserich Oberfranken"
  },
  {
    "postcode": "95339",
    "city": "Osserich"
  },
  {
    "postcode": "95339",
    "city": "Schlömen"
  },
  {
    "postcode": "95339",
    "city": "See"
  },
  {
    "postcode": "95339",
    "city": "Sessenreuth"
  },
  {
    "postcode": "95339",
    "city": "Unterlangenroth"
  },
  {
    "postcode": "95339",
    "city": "Weißenbach Oberfranken"
  },
  {
    "postcode": "95339",
    "city": "Weißenbach"
  },
  {
    "postcode": "95339",
    "city": "Wirsberg"
  },
  {
    "postcode": "95339",
    "city": "Kulmbach"
  },
  {
    "postcode": "95339",
    "city": "Eichmühle"
  },
  {
    "postcode": "95339",
    "city": "Lettenhof"
  },
  {
    "postcode": "95339",
    "city": "Raasen"
  },
  {
    "postcode": "95339",
    "city": "Reutlashof"
  },
  {
    "postcode": "95339",
    "city": "Einöde"
  },
  {
    "postcode": "95339",
    "city": "Goldene Adlerhütte"
  },
  {
    "postcode": "95339",
    "city": "Schlackenmühle"
  },
  {
    "postcode": "95346",
    "city": "Bergleshof Oberfranken"
  },
  {
    "postcode": "95346",
    "city": "Bergleshof"
  },
  {
    "postcode": "95346",
    "city": "Deckenreuth"
  },
  {
    "postcode": "95346",
    "city": "Frankenreuth"
  },
  {
    "postcode": "95346",
    "city": "Höfles"
  },
  {
    "postcode": "95346",
    "city": "Oberzaubach"
  },
  {
    "postcode": "95346",
    "city": "Römersreuth"
  },
  {
    "postcode": "95346",
    "city": "Schwand"
  },
  {
    "postcode": "95346",
    "city": "Schwärzleinsdorf Oberfranken"
  },
  {
    "postcode": "95346",
    "city": "Schwärzleinsdorf"
  },
  {
    "postcode": "95346",
    "city": "Stadtsteinach"
  },
  {
    "postcode": "95346",
    "city": "Triebenreuth Oberfranken"
  },
  {
    "postcode": "95346",
    "city": "Triebenreuth"
  },
  {
    "postcode": "95346",
    "city": "Unterzaubach"
  },
  {
    "postcode": "95346",
    "city": "Vorderreuth"
  },
  {
    "postcode": "95346",
    "city": "Kulmbach"
  },
  {
    "postcode": "95346",
    "city": "Deinhardsmühle"
  },
  {
    "postcode": "95346",
    "city": "Eisenberg"
  },
  {
    "postcode": "95346",
    "city": "Forkel"
  },
  {
    "postcode": "95346",
    "city": "Große Birken"
  },
  {
    "postcode": "95346",
    "city": "Gründlein"
  },
  {
    "postcode": "95346",
    "city": "Hammermühle"
  },
  {
    "postcode": "95346",
    "city": "Hochofen"
  },
  {
    "postcode": "95346",
    "city": "Kleine Birken"
  },
  {
    "postcode": "95346",
    "city": "Mittelhammer"
  },
  {
    "postcode": "95346",
    "city": "Oberhammer"
  },
  {
    "postcode": "95346",
    "city": "Osenbaum"
  },
  {
    "postcode": "95346",
    "city": "Petschen"
  },
  {
    "postcode": "95346",
    "city": "Silberklippe"
  },
  {
    "postcode": "95346",
    "city": "Vogtendorf"
  },
  {
    "postcode": "95346",
    "city": "Ziegelhütte"
  },
  {
    "postcode": "95349",
    "city": "Alladorf Kreis Bayreuth"
  },
  {
    "postcode": "95349",
    "city": "Alladorf"
  },
  {
    "postcode": "95349",
    "city": "Berndorf"
  },
  {
    "postcode": "95349",
    "city": "Felkendorf"
  },
  {
    "postcode": "95349",
    "city": "Forstleithen"
  },
  {
    "postcode": "95349",
    "city": "Hörlinreuth"
  },
  {
    "postcode": "95349",
    "city": "Hutschdorf"
  },
  {
    "postcode": "95349",
    "city": "Kemeritz"
  },
  {
    "postcode": "95349",
    "city": "Kleetzhöfe"
  },
  {
    "postcode": "95349",
    "city": "Lanzenreuth"
  },
  {
    "postcode": "95349",
    "city": "Leesau"
  },
  {
    "postcode": "95349",
    "city": "Limmersdorf"
  },
  {
    "postcode": "95349",
    "city": "Lochau"
  },
  {
    "postcode": "95349",
    "city": "Menchau"
  },
  {
    "postcode": "95349",
    "city": "Partenfeld"
  },
  {
    "postcode": "95349",
    "city": "Putzenstein"
  },
  {
    "postcode": "95349",
    "city": "Rottlersreuth"
  },
  {
    "postcode": "95349",
    "city": "Tannfeld"
  },
  {
    "postcode": "95349",
    "city": "Thurnau"
  },
  {
    "postcode": "95349",
    "city": "Trumsdorf Kreis Bayreuth"
  },
  {
    "postcode": "95349",
    "city": "Trumsdorf"
  },
  {
    "postcode": "95349",
    "city": "Kulmbach"
  },
  {
    "postcode": "95349",
    "city": "Bauloch"
  },
  {
    "postcode": "95349",
    "city": "Buchloch"
  },
  {
    "postcode": "95349",
    "city": "Fahrenbühl"
  },
  {
    "postcode": "95349",
    "city": "Fallmeisterei"
  },
  {
    "postcode": "95349",
    "city": "Hammerhaus"
  },
  {
    "postcode": "95349",
    "city": "Hutweide"
  },
  {
    "postcode": "95349",
    "city": "Katzenlohe"
  },
  {
    "postcode": "95349",
    "city": "Kröglitzen"
  },
  {
    "postcode": "95349",
    "city": "Meißnersleithen"
  },
  {
    "postcode": "95349",
    "city": "Neidsmühle"
  },
  {
    "postcode": "95349",
    "city": "Neuwirtshaus"
  },
  {
    "postcode": "95349",
    "city": "Oberwolfsknock"
  },
  {
    "postcode": "95349",
    "city": "Reuthof"
  },
  {
    "postcode": "95349",
    "city": "Schlottermühle"
  },
  {
    "postcode": "95352",
    "city": "Hermes"
  },
  {
    "postcode": "95352",
    "city": "Hinterrehberg"
  },
  {
    "postcode": "95352",
    "city": "Hohenberg"
  },
  {
    "postcode": "95352",
    "city": "Mannsflur"
  },
  {
    "postcode": "95352",
    "city": "Marienweiher"
  },
  {
    "postcode": "95352",
    "city": "Marktleugast"
  },
  {
    "postcode": "95352",
    "city": "Neuensorg"
  },
  {
    "postcode": "95352",
    "city": "Steinbach"
  },
  {
    "postcode": "95352",
    "city": "Tannenwirtshaus"
  },
  {
    "postcode": "95352",
    "city": "Traindorf"
  },
  {
    "postcode": "95352",
    "city": "Vorderrehberg"
  },
  {
    "postcode": "95352",
    "city": "Kulmbach"
  },
  {
    "postcode": "95352",
    "city": "Baiersbach"
  },
  {
    "postcode": "95352",
    "city": "Filshof"
  },
  {
    "postcode": "95352",
    "city": "Großrehmühle"
  },
  {
    "postcode": "95352",
    "city": "Hanauerhof"
  },
  {
    "postcode": "95352",
    "city": "Hohenreuth"
  },
  {
    "postcode": "95352",
    "city": "Kleinrehmühle"
  },
  {
    "postcode": "95352",
    "city": "Kosermühle"
  },
  {
    "postcode": "95352",
    "city": "Mittelrehberg"
  },
  {
    "postcode": "95352",
    "city": "Roth"
  },
  {
    "postcode": "95352",
    "city": "Ösel"
  },
  {
    "postcode": "95352",
    "city": "Weihermühle"
  },
  {
    "postcode": "95352",
    "city": "Zegastmühle"
  },
  {
    "postcode": "95355",
    "city": "Altenreuth"
  },
  {
    "postcode": "95355",
    "city": "Braunersreuth Kreis Kulmbach"
  },
  {
    "postcode": "95355",
    "city": "Braunersreuth"
  },
  {
    "postcode": "95355",
    "city": "Elbersreuth Kreis Kulmbach"
  },
  {
    "postcode": "95355",
    "city": "Elbersreuth"
  },
  {
    "postcode": "95355",
    "city": "Heinersreuth"
  },
  {
    "postcode": "95355",
    "city": "Köstenberg Kreis Stadtsteinach"
  },
  {
    "postcode": "95355",
    "city": "Köstenberg"
  },
  {
    "postcode": "95355",
    "city": "Kunreuth Kreis Kulmbach"
  },
  {
    "postcode": "95355",
    "city": "Kunreuth"
  },
  {
    "postcode": "95355",
    "city": "Oberehesberg"
  },
  {
    "postcode": "95355",
    "city": "Premeusel Kreis Kulmbach"
  },
  {
    "postcode": "95355",
    "city": "Premeusel"
  },
  {
    "postcode": "95355",
    "city": "Presseck"
  },
  {
    "postcode": "95355",
    "city": "Reichenbach"
  },
  {
    "postcode": "95355",
    "city": "Rützenreuth"
  },
  {
    "postcode": "95355",
    "city": "Schafhaus"
  },
  {
    "postcode": "95355",
    "city": "Schlackenreuth"
  },
  {
    "postcode": "95355",
    "city": "Schlopp Kreis Kulmbach"
  },
  {
    "postcode": "95355",
    "city": "Schlopp"
  },
  {
    "postcode": "95355",
    "city": "Schmölz bei Kulmbach"
  },
  {
    "postcode": "95355",
    "city": "Schnebes Kreis Stadtsteinach"
  },
  {
    "postcode": "95355",
    "city": "Schnebes"
  },
  {
    "postcode": "95355",
    "city": "Schöndorf Kreis Kulmbach"
  },
  {
    "postcode": "95355",
    "city": "Schöndorf"
  },
  {
    "postcode": "95355",
    "city": "Seubetenreuth"
  },
  {
    "postcode": "95355",
    "city": "Trottenreuth Kreis Kulmbach"
  },
  {
    "postcode": "95355",
    "city": "Trottenreuth"
  },
  {
    "postcode": "95355",
    "city": "Unterehesberg"
  },
  {
    "postcode": "95355",
    "city": "Waffenhammer Kreis Kulmbach"
  },
  {
    "postcode": "95355",
    "city": "Waffenhammer"
  },
  {
    "postcode": "95355",
    "city": "Wahl"
  },
  {
    "postcode": "95355",
    "city": "Wartenfels"
  },
  {
    "postcode": "95355",
    "city": "Wildenstein Kreis Kulmbach"
  },
  {
    "postcode": "95355",
    "city": "Wildenstein"
  },
  {
    "postcode": "95355",
    "city": "Kulmbach"
  },
  {
    "postcode": "95355",
    "city": "Birken"
  },
  {
    "postcode": "95355",
    "city": "Teichmühle"
  },
  {
    "postcode": "95355",
    "city": "Elbersreuther Mühle"
  },
  {
    "postcode": "95355",
    "city": "Eulenburg"
  },
  {
    "postcode": "95355",
    "city": "Fürstenhof"
  },
  {
    "postcode": "95355",
    "city": "Haid"
  },
  {
    "postcode": "95355",
    "city": "Köstenhof"
  },
  {
    "postcode": "95355",
    "city": "Katzengraben"
  },
  {
    "postcode": "95355",
    "city": "Kreuzknock"
  },
  {
    "postcode": "95355",
    "city": "Neumühle"
  },
  {
    "postcode": "95355",
    "city": "Ochsengarten"
  },
  {
    "postcode": "95355",
    "city": "Papiermühle"
  },
  {
    "postcode": "95355",
    "city": "Pinzenhof"
  },
  {
    "postcode": "95355",
    "city": "Schafhof"
  },
  {
    "postcode": "95355",
    "city": "Schlackenmühle"
  },
  {
    "postcode": "95355",
    "city": "Schübelsmühle"
  },
  {
    "postcode": "95355",
    "city": "Spitzberg"
  },
  {
    "postcode": "95355",
    "city": "Wustuben"
  },
  {
    "postcode": "95356",
    "city": "Eppenreuth"
  },
  {
    "postcode": "95356",
    "city": "Grafengehaig"
  },
  {
    "postcode": "95356",
    "city": "Grünlas"
  },
  {
    "postcode": "95356",
    "city": "Horbach"
  },
  {
    "postcode": "95356",
    "city": "Rappetenreuth"
  },
  {
    "postcode": "95356",
    "city": "Schindelwald"
  },
  {
    "postcode": "95356",
    "city": "Schlockenau"
  },
  {
    "postcode": "95356",
    "city": "Seifersreuth"
  },
  {
    "postcode": "95356",
    "city": "Walberngrün"
  },
  {
    "postcode": "95356",
    "city": "Waldhermes"
  },
  {
    "postcode": "95356",
    "city": "Weidmes"
  },
  {
    "postcode": "95356",
    "city": "Weiglas"
  },
  {
    "postcode": "95356",
    "city": "Zegast"
  },
  {
    "postcode": "95356",
    "city": "Kulmbach"
  },
  {
    "postcode": "95356",
    "city": "Bromenhof"
  },
  {
    "postcode": "95356",
    "city": "Guttenberger Hammer"
  },
  {
    "postcode": "95356",
    "city": "Höhhof"
  },
  {
    "postcode": "95356",
    "city": "Hetzenhof"
  },
  {
    "postcode": "95356",
    "city": "Hintererb"
  },
  {
    "postcode": "95356",
    "city": "Hohenreuth"
  },
  {
    "postcode": "95356",
    "city": "Hübnersmühle"
  },
  {
    "postcode": "95356",
    "city": "Hüttenbach"
  },
  {
    "postcode": "95356",
    "city": "Mehltaumühle"
  },
  {
    "postcode": "95356",
    "city": "Mesethmühle"
  },
  {
    "postcode": "95356",
    "city": "Oberweißenstein"
  },
  {
    "postcode": "95356",
    "city": "Vollauf"
  },
  {
    "postcode": "95356",
    "city": "Vollaufmühle"
  },
  {
    "postcode": "95356",
    "city": "Vordererb"
  },
  {
    "postcode": "95356",
    "city": "Weißenstein"
  },
  {
    "postcode": "95358",
    "city": "Buch"
  },
  {
    "postcode": "95358",
    "city": "Guttenberg"
  },
  {
    "postcode": "95358",
    "city": "Guttenberg Oberfranken"
  },
  {
    "postcode": "95358",
    "city": "Kaltenstauden Oberfranken"
  },
  {
    "postcode": "95358",
    "city": "Kaltenstauden"
  },
  {
    "postcode": "95358",
    "city": "Maierhof Oberfranken"
  },
  {
    "postcode": "95358",
    "city": "Maierhof"
  },
  {
    "postcode": "95358",
    "city": "Möhrenreuth Oberfranken"
  },
  {
    "postcode": "95358",
    "city": "Möhrenreuth"
  },
  {
    "postcode": "95358",
    "city": "Pfaffenreuth Oberfranken"
  },
  {
    "postcode": "95358",
    "city": "Pfaffenreuth"
  },
  {
    "postcode": "95358",
    "city": "Streichenreuth Oberfranken"
  },
  {
    "postcode": "95358",
    "city": "Streichenreuth"
  },
  {
    "postcode": "95358",
    "city": "Vogtendorf Oberfranken"
  },
  {
    "postcode": "95358",
    "city": "Vogtendorf"
  },
  {
    "postcode": "95358",
    "city": "Kulmbach"
  },
  {
    "postcode": "95358",
    "city": "Breitenreuth"
  },
  {
    "postcode": "95358",
    "city": "Eeg"
  },
  {
    "postcode": "95358",
    "city": "Messengrund"
  },
  {
    "postcode": "95358",
    "city": "Neuenwirtshaus"
  },
  {
    "postcode": "95358",
    "city": "Torkel"
  },
  {
    "postcode": "95358",
    "city": "Torschenknock"
  },
  {
    "postcode": "95359",
    "city": "Azendorf Oberfranken"
  },
  {
    "postcode": "95359",
    "city": "Azendorf"
  },
  {
    "postcode": "95359",
    "city": "Döllnitz"
  },
  {
    "postcode": "95359",
    "city": "Dörnhof"
  },
  {
    "postcode": "95359",
    "city": "Heubsch Oberfranken"
  },
  {
    "postcode": "95359",
    "city": "Heubsch"
  },
  {
    "postcode": "95359",
    "city": "Kasendorf Oberfranken"
  },
  {
    "postcode": "95359",
    "city": "Kasendorf"
  },
  {
    "postcode": "95359",
    "city": "Krumme Fohre Oberfranken"
  },
  {
    "postcode": "95359",
    "city": "Krumme Fohre"
  },
  {
    "postcode": "95359",
    "city": "Lichtentanne Oberfranken"
  },
  {
    "postcode": "95359",
    "city": "Lichtentanne"
  },
  {
    "postcode": "95359",
    "city": "Lindenberg"
  },
  {
    "postcode": "95359",
    "city": "Lopp Oberfranken"
  },
  {
    "postcode": "95359",
    "city": "Lopp"
  },
  {
    "postcode": "95359",
    "city": "Neudorf"
  },
  {
    "postcode": "95359",
    "city": "Peesten Oberfranken"
  },
  {
    "postcode": "95359",
    "city": "Peesten"
  },
  {
    "postcode": "95359",
    "city": "Reuth"
  },
  {
    "postcode": "95359",
    "city": "Welschenkahl Oberfranken"
  },
  {
    "postcode": "95359",
    "city": "Welschenkahl"
  },
  {
    "postcode": "95359",
    "city": "Zultenberg Oberfranken"
  },
  {
    "postcode": "95359",
    "city": "Zultenberg"
  },
  {
    "postcode": "95359",
    "city": "Kulmbach"
  },
  {
    "postcode": "95361",
    "city": "Ebersbach"
  },
  {
    "postcode": "95361",
    "city": "Fölschnitz"
  },
  {
    "postcode": "95361",
    "city": "Hauenreuth"
  },
  {
    "postcode": "95361",
    "city": "Heinersreuth"
  },
  {
    "postcode": "95361",
    "city": "Kauerndorf"
  },
  {
    "postcode": "95361",
    "city": "Ködnitz"
  },
  {
    "postcode": "95361",
    "city": "Listenberg"
  },
  {
    "postcode": "95361",
    "city": "Mühlberg"
  },
  {
    "postcode": "95361",
    "city": "Spitzeichen"
  },
  {
    "postcode": "95361",
    "city": "Tennach"
  },
  {
    "postcode": "95361",
    "city": "Kulmbach"
  },
  {
    "postcode": "95361",
    "city": "Forstlasmühle"
  },
  {
    "postcode": "95361",
    "city": "Höllgraben"
  },
  {
    "postcode": "95361",
    "city": "Haaghof"
  },
  {
    "postcode": "95361",
    "city": "Leithen"
  },
  {
    "postcode": "95361",
    "city": "Meierhof"
  },
  {
    "postcode": "95361",
    "city": "Pinsenhof"
  },
  {
    "postcode": "95361",
    "city": "Reisighof"
  },
  {
    "postcode": "95361",
    "city": "Reuth"
  },
  {
    "postcode": "95361",
    "city": "Stephansreuth"
  },
  {
    "postcode": "95361",
    "city": "Zettmeisel"
  },
  {
    "postcode": "95362",
    "city": "Kupferberg"
  },
  {
    "postcode": "95362",
    "city": "Kupferberg Oberfranken"
  },
  {
    "postcode": "95362",
    "city": "Kulmbach"
  },
  {
    "postcode": "95362",
    "city": "Dörnhof"
  },
  {
    "postcode": "95362",
    "city": "Schallerhof"
  },
  {
    "postcode": "95362",
    "city": "Unterbirkenhof"
  },
  {
    "postcode": "95364",
    "city": "Ludwigschorgast"
  },
  {
    "postcode": "95364",
    "city": "Kulmbach"
  },
  {
    "postcode": "95364",
    "city": "Drahtmühle"
  },
  {
    "postcode": "95364",
    "city": "Erlenmühle"
  },
  {
    "postcode": "95364",
    "city": "Lindenhof"
  },
  {
    "postcode": "95365",
    "city": "Eisenwind"
  },
  {
    "postcode": "95365",
    "city": "Feldbuch"
  },
  {
    "postcode": "95365",
    "city": "Losau"
  },
  {
    "postcode": "95365",
    "city": "Poppenholz"
  },
  {
    "postcode": "95365",
    "city": "Rugendorf"
  },
  {
    "postcode": "95365",
    "city": "Zettlitz Kreis Kulmbach"
  },
  {
    "postcode": "95365",
    "city": "Zettlitz"
  },
  {
    "postcode": "95365",
    "city": "Kulmbach"
  },
  {
    "postcode": "95365",
    "city": "Kübelhof"
  },
  {
    "postcode": "95367",
    "city": "Eichholz"
  },
  {
    "postcode": "95367",
    "city": "Feuln"
  },
  {
    "postcode": "95367",
    "city": "Lindau Oberfranken"
  },
  {
    "postcode": "95367",
    "city": "Lindau"
  },
  {
    "postcode": "95367",
    "city": "Michelsreuth"
  },
  {
    "postcode": "95367",
    "city": "Siebenbrunn Oberfranken"
  },
  {
    "postcode": "95367",
    "city": "Siebenbrunn"
  },
  {
    "postcode": "95367",
    "city": "Tauschthal"
  },
  {
    "postcode": "95367",
    "city": "Trebgast"
  },
  {
    "postcode": "95367",
    "city": "Waizendorf"
  },
  {
    "postcode": "95367",
    "city": "Kulmbach"
  },
  {
    "postcode": "95367",
    "city": "Rehleithen"
  },
  {
    "postcode": "95367",
    "city": "Weiherleiten"
  },
  {
    "postcode": "95367",
    "city": "Wolfsbach"
  },
  {
    "postcode": "95369",
    "city": "Gumpersdorf"
  },
  {
    "postcode": "95369",
    "city": "Hummendorf"
  },
  {
    "postcode": "95369",
    "city": "Untersteinach"
  },
  {
    "postcode": "95369",
    "city": "Untersteinach bei Kulmbach"
  },
  {
    "postcode": "95369",
    "city": "Kulmbach"
  },
  {
    "postcode": "95444",
    "city": "Altstadt"
  },
  {
    "postcode": "95444",
    "city": "Bayreuth"
  },
  {
    "postcode": "95444",
    "city": "Neue Heimat"
  },
  {
    "postcode": "95444",
    "city": "City"
  },
  {
    "postcode": "95444",
    "city": "Gartenstadt"
  },
  {
    "postcode": "95444",
    "city": "Kreuzstein"
  },
  {
    "postcode": "95445",
    "city": "Altstadt"
  },
  {
    "postcode": "95445",
    "city": "Bayreuth"
  },
  {
    "postcode": "95445",
    "city": "Dörnhof"
  },
  {
    "postcode": "95445",
    "city": "Meyernberg"
  },
  {
    "postcode": "95445",
    "city": "Oberpreuschwitz Oberfranken"
  },
  {
    "postcode": "95445",
    "city": "Oberpreuschwitz"
  },
  {
    "postcode": "95445",
    "city": "Unterpreuschwitz"
  },
  {
    "postcode": "95445",
    "city": "Wiesen"
  },
  {
    "postcode": "95445",
    "city": "Roter Hügel"
  },
  {
    "postcode": "95445",
    "city": "Gartenstadt"
  },
  {
    "postcode": "95445",
    "city": "Herzoghöhe"
  },
  {
    "postcode": "95445",
    "city": "Grüner Baum"
  },
  {
    "postcode": "95445",
    "city": "City"
  },
  {
    "postcode": "95445",
    "city": "Kreuz"
  },
  {
    "postcode": "95447",
    "city": "Altstadt"
  },
  {
    "postcode": "95447",
    "city": "Bayreuth"
  },
  {
    "postcode": "95447",
    "city": "Meyernberg"
  },
  {
    "postcode": "95447",
    "city": "Saas"
  },
  {
    "postcode": "95447",
    "city": "Birken"
  },
  {
    "postcode": "95447",
    "city": "Glocke"
  },
  {
    "postcode": "95447",
    "city": "Oberkonnersreuth"
  },
  {
    "postcode": "95448",
    "city": "Aichig"
  },
  {
    "postcode": "95448",
    "city": "Bauernhöfen"
  },
  {
    "postcode": "95448",
    "city": "Bayreuth"
  },
  {
    "postcode": "95448",
    "city": "Destuben"
  },
  {
    "postcode": "95448",
    "city": "Laineck"
  },
  {
    "postcode": "95448",
    "city": "Neue Heimat"
  },
  {
    "postcode": "95448",
    "city": "Oberkonnersreuth"
  },
  {
    "postcode": "95448",
    "city": "Rödensdorf"
  },
  {
    "postcode": "95448",
    "city": "Sankt Georgen"
  },
  {
    "postcode": "95448",
    "city": "Sankt Johannis"
  },
  {
    "postcode": "95448",
    "city": "Seulbitz"
  },
  {
    "postcode": "95448",
    "city": "Wolfsbach Kreis Bayreuth"
  },
  {
    "postcode": "95448",
    "city": "Wolfsbach"
  },
  {
    "postcode": "95448",
    "city": "Hammerstatt"
  },
  {
    "postcode": "95448",
    "city": "St. Georgen"
  },
  {
    "postcode": "95448",
    "city": "St. Johannis"
  },
  {
    "postcode": "95448",
    "city": "Eichelberg"
  },
  {
    "postcode": "95448",
    "city": "Kreuzstein"
  },
  {
    "postcode": "95448",
    "city": "Thiergarten"
  },
  {
    "postcode": "95448",
    "city": "Industriegebiet"
  },
  {
    "postcode": "95448",
    "city": "Fürsetz"
  },
  {
    "postcode": "95448",
    "city": "Grüner Baum"
  },
  {
    "postcode": "95448",
    "city": "Hohlmühle"
  },
  {
    "postcode": "95448",
    "city": "City"
  },
  {
    "postcode": "95460",
    "city": "Bad Berneck"
  },
  {
    "postcode": "95460",
    "city": "Bad Berneck im Fichtelgebirge"
  },
  {
    "postcode": "95460",
    "city": "Bärnreuth"
  },
  {
    "postcode": "95460",
    "city": "Blumenau"
  },
  {
    "postcode": "95460",
    "city": "Escherlich im Fichtelgebirge"
  },
  {
    "postcode": "95460",
    "city": "Föllmar im Fichtelgebirge"
  },
  {
    "postcode": "95460",
    "city": "Frankenhammer"
  },
  {
    "postcode": "95460",
    "city": "Gesees im Fichtelgebirge"
  },
  {
    "postcode": "95460",
    "city": "Goldmühl im Fichtelgebirge"
  },
  {
    "postcode": "95460",
    "city": "Gothendorf im Fichtelgebirge"
  },
  {
    "postcode": "95460",
    "city": "Köslar im Fichtelgebirge"
  },
  {
    "postcode": "95460",
    "city": "Micheldorf im Fichtelgebirge"
  },
  {
    "postcode": "95460",
    "city": "Nenntmannsreuth Oberfranken"
  },
  {
    "postcode": "95460",
    "city": "Nenntmannsreuth"
  },
  {
    "postcode": "95460",
    "city": "Neudorf im Fichtelgebirge"
  },
  {
    "postcode": "95460",
    "city": "Rimlas im Fichtelgebirge"
  },
  {
    "postcode": "95460",
    "city": "Steinbühl im Fichtelgebirge"
  },
  {
    "postcode": "95460",
    "city": "Wasserknoden"
  },
  {
    "postcode": "95460",
    "city": "Bayreuth"
  },
  {
    "postcode": "95460",
    "city": "Bad Berneck i. Fichtelgebirge"
  },
  {
    "postcode": "95460",
    "city": "Friedrichshof"
  },
  {
    "postcode": "95460",
    "city": "Lindenhof"
  },
  {
    "postcode": "95460",
    "city": "Birkenhof"
  },
  {
    "postcode": "95460",
    "city": "Escherlich"
  },
  {
    "postcode": "95460",
    "city": "Bruckmühle"
  },
  {
    "postcode": "95460",
    "city": "Goldmühl"
  },
  {
    "postcode": "95460",
    "city": "Doebitsch"
  },
  {
    "postcode": "95460",
    "city": "Föllmar"
  },
  {
    "postcode": "95460",
    "city": "Eichberg"
  },
  {
    "postcode": "95460",
    "city": "Föllmarsberg"
  },
  {
    "postcode": "95460",
    "city": "Falkenhaus"
  },
  {
    "postcode": "95460",
    "city": "Röhrenhof"
  },
  {
    "postcode": "95460",
    "city": "Gesees"
  },
  {
    "postcode": "95460",
    "city": "Gothendorf"
  },
  {
    "postcode": "95460",
    "city": "Heinersreuth"
  },
  {
    "postcode": "95460",
    "city": "Hohenknoden"
  },
  {
    "postcode": "95460",
    "city": "Jägersruh"
  },
  {
    "postcode": "95460",
    "city": "Köslar"
  },
  {
    "postcode": "95460",
    "city": "Kutschenrangen"
  },
  {
    "postcode": "95460",
    "city": "Micheldorf"
  },
  {
    "postcode": "95460",
    "city": "Mooshof"
  },
  {
    "postcode": "95460",
    "city": "Neudorf"
  },
  {
    "postcode": "95460",
    "city": "Neuhaus"
  },
  {
    "postcode": "95460",
    "city": "Rödlasberg"
  },
  {
    "postcode": "95460",
    "city": "Rimlas"
  },
  {
    "postcode": "95460",
    "city": "Warmeleite"
  },
  {
    "postcode": "95463",
    "city": "Allersdorf"
  },
  {
    "postcode": "95463",
    "city": "Benk"
  },
  {
    "postcode": "95463",
    "city": "Bindlach"
  },
  {
    "postcode": "95463",
    "city": "Buchhof"
  },
  {
    "postcode": "95463",
    "city": "Crottendorf"
  },
  {
    "postcode": "95463",
    "city": "Deps"
  },
  {
    "postcode": "95463",
    "city": "Dörflas"
  },
  {
    "postcode": "95463",
    "city": "Euben"
  },
  {
    "postcode": "95463",
    "city": "Forkenhof"
  },
  {
    "postcode": "95463",
    "city": "Gemein"
  },
  {
    "postcode": "95463",
    "city": "Haselhof"
  },
  {
    "postcode": "95463",
    "city": "Heisenstein"
  },
  {
    "postcode": "95463",
    "city": "Katzeneichen"
  },
  {
    "postcode": "95463",
    "city": "Pferch"
  },
  {
    "postcode": "95463",
    "city": "Ramsenthal"
  },
  {
    "postcode": "95463",
    "city": "Röthelbach"
  },
  {
    "postcode": "95463",
    "city": "Theta"
  },
  {
    "postcode": "95463",
    "city": "Weiherhaus"
  },
  {
    "postcode": "95463",
    "city": "Zettlitz"
  },
  {
    "postcode": "95463",
    "city": "Bayreuth"
  },
  {
    "postcode": "95463",
    "city": "Stadt Goldkronach"
  },
  {
    "postcode": "95463",
    "city": "Bindlacher Berg"
  },
  {
    "postcode": "95466",
    "city": "Dennhof"
  },
  {
    "postcode": "95466",
    "city": "Döhlau"
  },
  {
    "postcode": "95466",
    "city": "Eckartsreuth Oberfranken"
  },
  {
    "postcode": "95466",
    "city": "Eckartsreuth"
  },
  {
    "postcode": "95466",
    "city": "Eichleithen Oberfranken"
  },
  {
    "postcode": "95466",
    "city": "Eichleithen"
  },
  {
    "postcode": "95466",
    "city": "Fischbach"
  },
  {
    "postcode": "95466",
    "city": "Flinsberg"
  },
  {
    "postcode": "95466",
    "city": "Fuchsendorf"
  },
  {
    "postcode": "95466",
    "city": "Glotzdorf Kreis Bayreuth"
  },
  {
    "postcode": "95466",
    "city": "Glotzdorf"
  },
  {
    "postcode": "95466",
    "city": "Görau"
  },
  {
    "postcode": "95466",
    "city": "Görschnitz Oberfranken"
  },
  {
    "postcode": "95466",
    "city": "Görschnitz"
  },
  {
    "postcode": "95466",
    "city": "Gossenreuth Oberfranken"
  },
  {
    "postcode": "95466",
    "city": "Gossenreuth"
  },
  {
    "postcode": "95466",
    "city": "Grub"
  },
  {
    "postcode": "95466",
    "city": "Grund"
  },
  {
    "postcode": "95466",
    "city": "Hahnengrün Oberfranken"
  },
  {
    "postcode": "95466",
    "city": "Hahnengrün"
  },
  {
    "postcode": "95466",
    "city": "Hammer"
  },
  {
    "postcode": "95466",
    "city": "Heßlach Oberfranken"
  },
  {
    "postcode": "95466",
    "city": "Heßlach"
  },
  {
    "postcode": "95466",
    "city": "Kattersreuth Oberfranken"
  },
  {
    "postcode": "95466",
    "city": "Kattersreuth"
  },
  {
    "postcode": "95466",
    "city": "Keilstein Oberfranken"
  },
  {
    "postcode": "95466",
    "city": "Keilstein"
  },
  {
    "postcode": "95466",
    "city": "Kirchenpingarten"
  },
  {
    "postcode": "95466",
    "city": "Kirmsees Oberfranken"
  },
  {
    "postcode": "95466",
    "city": "Kirmsees"
  },
  {
    "postcode": "95466",
    "city": "Langengefäll Oberfranken"
  },
  {
    "postcode": "95466",
    "city": "Langengefäll"
  },
  {
    "postcode": "95466",
    "city": "Lankendorf Kreis Bayreuth"
  },
  {
    "postcode": "95466",
    "city": "Lankendorf"
  },
  {
    "postcode": "95466",
    "city": "Lehen Kreis Bayreuth"
  },
  {
    "postcode": "95466",
    "city": "Lehen"
  },
  {
    "postcode": "95466",
    "city": "Lessau Kreis Bayreuth"
  },
  {
    "postcode": "95466",
    "city": "Lessau"
  },
  {
    "postcode": "95466",
    "city": "Lienlas"
  },
  {
    "postcode": "95466",
    "city": "Mengersreuth Oberfranken"
  },
  {
    "postcode": "95466",
    "city": "Mengersreuth"
  },
  {
    "postcode": "95466",
    "city": "Mittlernhammer Oberfranken"
  },
  {
    "postcode": "95466",
    "city": "Mittlernhammer"
  },
  {
    "postcode": "95466",
    "city": "Muckenreuth"
  },
  {
    "postcode": "95466",
    "city": "Neunkirchen am Main"
  },
  {
    "postcode": "95466",
    "city": "Reislas Oberfranken"
  },
  {
    "postcode": "95466",
    "city": "Reislas"
  },
  {
    "postcode": "95466",
    "city": "Rosenhammer"
  },
  {
    "postcode": "95466",
    "city": "Rügersberg"
  },
  {
    "postcode": "95466",
    "city": "Schmetterslohe"
  },
  {
    "postcode": "95466",
    "city": "Sophienthal Oberfranken"
  },
  {
    "postcode": "95466",
    "city": "Sophienthal"
  },
  {
    "postcode": "95466",
    "city": "Stockau Kreis Bayreuth"
  },
  {
    "postcode": "95466",
    "city": "Stockau"
  },
  {
    "postcode": "95466",
    "city": "Tressau"
  },
  {
    "postcode": "95466",
    "city": "Untersteinach Oberfranken"
  },
  {
    "postcode": "95466",
    "city": "Untersteinach"
  },
  {
    "postcode": "95466",
    "city": "Ützdorf Kreis Bayreuth"
  },
  {
    "postcode": "95466",
    "city": "Ützdorf"
  },
  {
    "postcode": "95466",
    "city": "Waizenreuth"
  },
  {
    "postcode": "95466",
    "city": "Weidenberg"
  },
  {
    "postcode": "95466",
    "city": "Weidenberg Fichtelgebirge"
  },
  {
    "postcode": "95466",
    "city": "Bayreuth"
  },
  {
    "postcode": "95466",
    "city": "Herrnmühle"
  },
  {
    "postcode": "95466",
    "city": "Zengerslohe"
  },
  {
    "postcode": "95466",
    "city": "Neunkirchen"
  },
  {
    "postcode": "95466",
    "city": "Altenreuth"
  },
  {
    "postcode": "95466",
    "city": "Eichenhof"
  },
  {
    "postcode": "95466",
    "city": "Kolmreuth"
  },
  {
    "postcode": "95466",
    "city": "Wildenreuth"
  },
  {
    "postcode": "95466",
    "city": "Ziegelhütte"
  },
  {
    "postcode": "95469",
    "city": "Beerhof"
  },
  {
    "postcode": "95469",
    "city": "Brüderes"
  },
  {
    "postcode": "95469",
    "city": "Frankenberg"
  },
  {
    "postcode": "95469",
    "city": "Göppmannsbühl"
  },
  {
    "postcode": "95469",
    "city": "Guttenthau"
  },
  {
    "postcode": "95469",
    "city": "Haidenaab"
  },
  {
    "postcode": "95469",
    "city": "Kirchenlaibach"
  },
  {
    "postcode": "95469",
    "city": "Kodlitz"
  },
  {
    "postcode": "95469",
    "city": "Lettenhof"
  },
  {
    "postcode": "95469",
    "city": "Nairitz"
  },
  {
    "postcode": "95469",
    "city": "Plössen"
  },
  {
    "postcode": "95469",
    "city": "Ramlesreuth"
  },
  {
    "postcode": "95469",
    "city": "Rosenhof"
  },
  {
    "postcode": "95469",
    "city": "Roslas"
  },
  {
    "postcode": "95469",
    "city": "Selbitz"
  },
  {
    "postcode": "95469",
    "city": "Sorg"
  },
  {
    "postcode": "95469",
    "city": "Speichersdorf"
  },
  {
    "postcode": "95469",
    "city": "Teufelhammer"
  },
  {
    "postcode": "95469",
    "city": "Windischenlaibach"
  },
  {
    "postcode": "95469",
    "city": "Wirbenz"
  },
  {
    "postcode": "95469",
    "city": "Zeulenreuth"
  },
  {
    "postcode": "95469",
    "city": "Bayreuth"
  },
  {
    "postcode": "95469",
    "city": "Aumühle"
  },
  {
    "postcode": "95469",
    "city": "Forsthaus"
  },
  {
    "postcode": "95469",
    "city": "Göppmannsbühl am Bach"
  },
  {
    "postcode": "95469",
    "city": "Göppmannsbühl am Berg"
  },
  {
    "postcode": "95469",
    "city": "Holzmühle"
  },
  {
    "postcode": "95469",
    "city": "Hundsmühle"
  },
  {
    "postcode": "95469",
    "city": "Kellerhut"
  },
  {
    "postcode": "95469",
    "city": "Tauritzmühle"
  },
  {
    "postcode": "95469",
    "city": "Weiherhut"
  },
  {
    "postcode": "95469",
    "city": "Weißenreuth"
  },
  {
    "postcode": "95473",
    "city": "Altencreußen"
  },
  {
    "postcode": "95473",
    "city": "Altenkünsberg"
  },
  {
    "postcode": "95473",
    "city": "Althaidhof"
  },
  {
    "postcode": "95473",
    "city": "Bieberswöhr"
  },
  {
    "postcode": "95473",
    "city": "Bocksrück Oberfranken"
  },
  {
    "postcode": "95473",
    "city": "Bocksrück"
  },
  {
    "postcode": "95473",
    "city": "Boden"
  },
  {
    "postcode": "95473",
    "city": "Bühl"
  },
  {
    "postcode": "95473",
    "city": "Creußen"
  },
  {
    "postcode": "95473",
    "city": "Culmberg Kreis Bayreuth"
  },
  {
    "postcode": "95473",
    "city": "Culmberg"
  },
  {
    "postcode": "95473",
    "city": "Engelmannsreuth"
  },
  {
    "postcode": "95473",
    "city": "Funkendorf"
  },
  {
    "postcode": "95473",
    "city": "Gosen Kreis Bayreuth"
  },
  {
    "postcode": "95473",
    "city": "Gosen"
  },
  {
    "postcode": "95473",
    "city": "Gottsfeld"
  },
  {
    "postcode": "95473",
    "city": "Großweiglareuth"
  },
  {
    "postcode": "95473",
    "city": "Haag"
  },
  {
    "postcode": "95473",
    "city": "Haag Oberfranken"
  },
  {
    "postcode": "95473",
    "city": "Hagenohe Kreis Bayreuth"
  },
  {
    "postcode": "95473",
    "city": "Hagenohe"
  },
  {
    "postcode": "95473",
    "city": "Hörhof"
  },
  {
    "postcode": "95473",
    "city": "Hörlasreuth"
  },
  {
    "postcode": "95473",
    "city": "Kleinkorbis"
  },
  {
    "postcode": "95473",
    "city": "Kleinweiglareuth"
  },
  {
    "postcode": "95473",
    "city": "Kotzmannsreuth"
  },
  {
    "postcode": "95473",
    "city": "Lankenreuth"
  },
  {
    "postcode": "95473",
    "city": "Letten"
  },
  {
    "postcode": "95473",
    "city": "Lindenhardt"
  },
  {
    "postcode": "95473",
    "city": "Losau"
  },
  {
    "postcode": "95473",
    "city": "Neuenreuth Kreis Bayreuth"
  },
  {
    "postcode": "95473",
    "city": "Neuenreuth"
  },
  {
    "postcode": "95473",
    "city": "Neuhaidhof"
  },
  {
    "postcode": "95473",
    "city": "Neuhaus"
  },
  {
    "postcode": "95473",
    "city": "Neuhof"
  },
  {
    "postcode": "95473",
    "city": "Obernschreez Oberfranken"
  },
  {
    "postcode": "95473",
    "city": "Obernschreez"
  },
  {
    "postcode": "95473",
    "city": "Oberschwarzach"
  },
  {
    "postcode": "95473",
    "city": "Ottmannsreuth Kreis Bayreuth"
  },
  {
    "postcode": "95473",
    "city": "Ottmannsreuth"
  },
  {
    "postcode": "95473",
    "city": "Prebitz"
  },
  {
    "postcode": "95473",
    "city": "Preußling"
  },
  {
    "postcode": "95473",
    "city": "Ruspen"
  },
  {
    "postcode": "95473",
    "city": "Sand"
  },
  {
    "postcode": "95473",
    "city": "Schwürz"
  },
  {
    "postcode": "95473",
    "city": "Seidwitz"
  },
  {
    "postcode": "95473",
    "city": "Sorg"
  },
  {
    "postcode": "95473",
    "city": "Tiefenthal"
  },
  {
    "postcode": "95473",
    "city": "Unternschreez"
  },
  {
    "postcode": "95473",
    "city": "Unterschwarzach"
  },
  {
    "postcode": "95473",
    "city": "Voita"
  },
  {
    "postcode": "95473",
    "city": "Wasserkraut"
  },
  {
    "postcode": "95473",
    "city": "Bayreuth"
  },
  {
    "postcode": "95473",
    "city": "Brunnenhof"
  },
  {
    "postcode": "95473",
    "city": "Dorschenhof"
  },
  {
    "postcode": "95473",
    "city": "Eimersmühle"
  },
  {
    "postcode": "95473",
    "city": "Haaghaus"
  },
  {
    "postcode": "95473",
    "city": "Hagenreuth"
  },
  {
    "postcode": "95473",
    "city": "Hammermühle"
  },
  {
    "postcode": "95473",
    "city": "Kamerun"
  },
  {
    "postcode": "95473",
    "city": "Neueben"
  },
  {
    "postcode": "95473",
    "city": "Oberhöhlmühle"
  },
  {
    "postcode": "95473",
    "city": "Stockmühle"
  },
  {
    "postcode": "95473",
    "city": "Sägmühle"
  },
  {
    "postcode": "95473",
    "city": "Unterhöhlmühle"
  },
  {
    "postcode": "95473",
    "city": "Bockmühle"
  },
  {
    "postcode": "95473",
    "city": "Freileithen"
  },
  {
    "postcode": "95473",
    "city": "Huth"
  },
  {
    "postcode": "95473",
    "city": "Leismühle"
  },
  {
    "postcode": "95473",
    "city": "Sahrmühle"
  },
  {
    "postcode": "95473",
    "city": "Almosmühle"
  },
  {
    "postcode": "95473",
    "city": "Großkorbis"
  },
  {
    "postcode": "95473",
    "city": "Neu-Voita"
  },
  {
    "postcode": "95473",
    "city": "Rohrmühle"
  },
  {
    "postcode": "95478",
    "city": "Anzenberg Oberpfalz"
  },
  {
    "postcode": "95478",
    "city": "Anzenberg"
  },
  {
    "postcode": "95478",
    "city": "Atzmannsberg Oberpfalz"
  },
  {
    "postcode": "95478",
    "city": "Atzmannsberg"
  },
  {
    "postcode": "95478",
    "city": "Beringersreuth Oberpfalz"
  },
  {
    "postcode": "95478",
    "city": "Beringersreuth"
  },
  {
    "postcode": "95478",
    "city": "Berndorf Stadt"
  },
  {
    "postcode": "95478",
    "city": "Berndorf"
  },
  {
    "postcode": "95478",
    "city": "Bingarten Oberpfalz"
  },
  {
    "postcode": "95478",
    "city": "Bingarten"
  },
  {
    "postcode": "95478",
    "city": "Eisersdorf Stadt"
  },
  {
    "postcode": "95478",
    "city": "Eisersdorf"
  },
  {
    "postcode": "95478",
    "city": "Fortschau Stadt"
  },
  {
    "postcode": "95478",
    "city": "Fortschau"
  },
  {
    "postcode": "95478",
    "city": "Godas Oberpfalz"
  },
  {
    "postcode": "95478",
    "city": "Godas"
  },
  {
    "postcode": "95478",
    "city": "Guttenberg"
  },
  {
    "postcode": "95478",
    "city": "Hahneneggaten Oberpfalz"
  },
  {
    "postcode": "95478",
    "city": "Hahneneggaten"
  },
  {
    "postcode": "95478",
    "city": "Haunritz"
  },
  {
    "postcode": "95478",
    "city": "Höflas Stadt"
  },
  {
    "postcode": "95478",
    "city": "Höflas"
  },
  {
    "postcode": "95478",
    "city": "Hopfau"
  },
  {
    "postcode": "95478",
    "city": "Kaibitz"
  },
  {
    "postcode": "95478",
    "city": "Kemnath"
  },
  {
    "postcode": "95478",
    "city": "Kemnath Stadt"
  },
  {
    "postcode": "95478",
    "city": "Köglitz Oberpfalz"
  },
  {
    "postcode": "95478",
    "city": "Köglitz"
  },
  {
    "postcode": "95478",
    "city": "Kötzersdorf Stadt"
  },
  {
    "postcode": "95478",
    "city": "Kötzersdorf"
  },
  {
    "postcode": "95478",
    "city": "Kuchenreuth Stadt"
  },
  {
    "postcode": "95478",
    "city": "Kuchenreuth"
  },
  {
    "postcode": "95478",
    "city": "Löschwitz Stadt"
  },
  {
    "postcode": "95478",
    "city": "Löschwitz"
  },
  {
    "postcode": "95478",
    "city": "Neusteinreuth Oberpfalz"
  },
  {
    "postcode": "95478",
    "city": "Neusteinreuth"
  },
  {
    "postcode": "95478",
    "city": "Pinzenhof Oberpfalz"
  },
  {
    "postcode": "95478",
    "city": "Pinzenhof"
  },
  {
    "postcode": "95478",
    "city": "Rosenbühl Oberpfalz"
  },
  {
    "postcode": "95478",
    "city": "Rosenbühl"
  },
  {
    "postcode": "95478",
    "city": "Schlackenhof"
  },
  {
    "postcode": "95478",
    "city": "Schönreuth Oberpfalz"
  },
  {
    "postcode": "95478",
    "city": "Schönreuth"
  },
  {
    "postcode": "95478",
    "city": "Schweißenreuth Oberpfalz"
  },
  {
    "postcode": "95478",
    "city": "Schweißenreuth"
  },
  {
    "postcode": "95478",
    "city": "Waldeck Oberpfalz"
  },
  {
    "postcode": "95478",
    "city": "Waldeck"
  },
  {
    "postcode": "95478",
    "city": "Zwergau Oberpfalz"
  },
  {
    "postcode": "95478",
    "city": "Zwergau"
  },
  {
    "postcode": "95478",
    "city": "Tirschenreuth"
  },
  {
    "postcode": "95478",
    "city": "Albenreuth"
  },
  {
    "postcode": "95478",
    "city": "Bleyer"
  },
  {
    "postcode": "95478",
    "city": "Gmündmühle"
  },
  {
    "postcode": "95478",
    "city": "Lettenmühle"
  },
  {
    "postcode": "95478",
    "city": "Lichtenhof"
  },
  {
    "postcode": "95478",
    "city": "Lindenhof"
  },
  {
    "postcode": "95478",
    "city": "Neuwirtshaus"
  },
  {
    "postcode": "95478",
    "city": "Oberndorf"
  },
  {
    "postcode": "95478",
    "city": "Oberneumühle"
  },
  {
    "postcode": "95478",
    "city": "Reisach"
  },
  {
    "postcode": "95478",
    "city": "Schwabeneggaten"
  },
  {
    "postcode": "95478",
    "city": "Tiefenbach"
  },
  {
    "postcode": "95482",
    "city": "Böseneck"
  },
  {
    "postcode": "95482",
    "city": "Entenmühle"
  },
  {
    "postcode": "95482",
    "city": "Falls"
  },
  {
    "postcode": "95482",
    "city": "Gefrees"
  },
  {
    "postcode": "95482",
    "city": "Gottmannsberg"
  },
  {
    "postcode": "95482",
    "city": "Grünstein"
  },
  {
    "postcode": "95482",
    "city": "Haidlas"
  },
  {
    "postcode": "95482",
    "city": "Hämmerlas im Fichtelgebirge"
  },
  {
    "postcode": "95482",
    "city": "Hermersreuth im Fichtelgebirge"
  },
  {
    "postcode": "95482",
    "city": "Höflas"
  },
  {
    "postcode": "95482",
    "city": "Kornbach"
  },
  {
    "postcode": "95482",
    "city": "Lübnitz"
  },
  {
    "postcode": "95482",
    "city": "Lützenreuth"
  },
  {
    "postcode": "95482",
    "city": "Metzlersreuth"
  },
  {
    "postcode": "95482",
    "city": "Neuenreuth"
  },
  {
    "postcode": "95482",
    "city": "Schamlesberg"
  },
  {
    "postcode": "95482",
    "city": "Stein im Fichtelgebirge"
  },
  {
    "postcode": "95482",
    "city": "Witzleshofen"
  },
  {
    "postcode": "95482",
    "city": "Wundenbach"
  },
  {
    "postcode": "95482",
    "city": "Zettlitz"
  },
  {
    "postcode": "95482",
    "city": "Bayreuth"
  },
  {
    "postcode": "95482",
    "city": "Ackermannshof"
  },
  {
    "postcode": "95482",
    "city": "Bechertshöfen"
  },
  {
    "postcode": "95482",
    "city": "Streitau"
  },
  {
    "postcode": "95482",
    "city": "Bucheck"
  },
  {
    "postcode": "95482",
    "city": "Hermersreuth"
  },
  {
    "postcode": "95482",
    "city": "Hutschenreuth"
  },
  {
    "postcode": "95482",
    "city": "Hämmerlas"
  },
  {
    "postcode": "95482",
    "city": "Kirschbaumeinzel"
  },
  {
    "postcode": "95482",
    "city": "Knopfhammer"
  },
  {
    "postcode": "95482",
    "city": "Meyerhof"
  },
  {
    "postcode": "95482",
    "city": "Moos"
  },
  {
    "postcode": "95482",
    "city": "Oberneuenreuth"
  },
  {
    "postcode": "95482",
    "city": "Schweinsbach"
  },
  {
    "postcode": "95482",
    "city": "Stein"
  },
  {
    "postcode": "95485",
    "city": "Fleckl"
  },
  {
    "postcode": "95485",
    "city": "Grassemann"
  },
  {
    "postcode": "95485",
    "city": "Grenzhammer"
  },
  {
    "postcode": "95485",
    "city": "Oberwarmensteinach"
  },
  {
    "postcode": "95485",
    "city": "Warmensteinach"
  },
  {
    "postcode": "95485",
    "city": "Zainhammer"
  },
  {
    "postcode": "95485",
    "city": "Bayreuth"
  },
  {
    "postcode": "95485",
    "city": "Vordergeiersberg"
  },
  {
    "postcode": "95485",
    "city": "Hempelsberg"
  },
  {
    "postcode": "95485",
    "city": "Hintergeiersberg"
  },
  {
    "postcode": "95485",
    "city": "Hütten"
  },
  {
    "postcode": "95485",
    "city": "Neuwerk"
  },
  {
    "postcode": "95485",
    "city": "Pfeiferhaus"
  },
  {
    "postcode": "95485",
    "city": "Stechenberg"
  },
  {
    "postcode": "95488",
    "city": "Busbach Kreis Bayreuth"
  },
  {
    "postcode": "95488",
    "city": "Busbach"
  },
  {
    "postcode": "95488",
    "city": "Donndorf Oberfranken"
  },
  {
    "postcode": "95488",
    "city": "Donndorf"
  },
  {
    "postcode": "95488",
    "city": "Eckersdorf"
  },
  {
    "postcode": "95488",
    "city": "Eschen Oberfranken"
  },
  {
    "postcode": "95488",
    "city": "Eschen"
  },
  {
    "postcode": "95488",
    "city": "Forst Oberfranken"
  },
  {
    "postcode": "95488",
    "city": "Forst"
  },
  {
    "postcode": "95488",
    "city": "Hardt Oberfranken"
  },
  {
    "postcode": "95488",
    "city": "Hardt"
  },
  {
    "postcode": "95488",
    "city": "Heisenstein"
  },
  {
    "postcode": "95488",
    "city": "Lahm Oberfranken"
  },
  {
    "postcode": "95488",
    "city": "Lahm"
  },
  {
    "postcode": "95488",
    "city": "Lochau Kreis Bayreuth"
  },
  {
    "postcode": "95488",
    "city": "Lochau"
  },
  {
    "postcode": "95488",
    "city": "Lohe Oberfranken"
  },
  {
    "postcode": "95488",
    "city": "Lohe"
  },
  {
    "postcode": "95488",
    "city": "Melkendorf Kreis Bayreuth"
  },
  {
    "postcode": "95488",
    "city": "Melkendorf"
  },
  {
    "postcode": "95488",
    "city": "Neustädtlein am Forst"
  },
  {
    "postcode": "95488",
    "city": "Oberwaiz Oberfranken"
  },
  {
    "postcode": "95488",
    "city": "Oberwaiz"
  },
  {
    "postcode": "95488",
    "city": "Pleofen"
  },
  {
    "postcode": "95488",
    "city": "Schanz Oberfranken"
  },
  {
    "postcode": "95488",
    "city": "Schanz"
  },
  {
    "postcode": "95488",
    "city": "Simmelbuch Oberfranken"
  },
  {
    "postcode": "95488",
    "city": "Simmelbuch"
  },
  {
    "postcode": "95488",
    "city": "Tröbersdorf"
  },
  {
    "postcode": "95488",
    "city": "Vorlahm Kreis Bayreuth"
  },
  {
    "postcode": "95488",
    "city": "Vorlahm"
  },
  {
    "postcode": "95488",
    "city": "Windhof Oberfranken"
  },
  {
    "postcode": "95488",
    "city": "Windhof"
  },
  {
    "postcode": "95488",
    "city": "Bayreuth"
  },
  {
    "postcode": "95488",
    "city": "Neustädtlein"
  },
  {
    "postcode": "95488",
    "city": "Stein"
  },
  {
    "postcode": "95488",
    "city": "Wolfsgraben"
  },
  {
    "postcode": "95490",
    "city": "Außerleithen"
  },
  {
    "postcode": "95490",
    "city": "Bärnreuth"
  },
  {
    "postcode": "95490",
    "city": "Culm"
  },
  {
    "postcode": "95490",
    "city": "Engelmeß"
  },
  {
    "postcode": "95490",
    "city": "Frankenhaag"
  },
  {
    "postcode": "95490",
    "city": "Geislareuth"
  },
  {
    "postcode": "95490",
    "city": "Gollenbach"
  },
  {
    "postcode": "95490",
    "city": "Hardt"
  },
  {
    "postcode": "95490",
    "city": "Harloth"
  },
  {
    "postcode": "95490",
    "city": "Hundshof"
  },
  {
    "postcode": "95490",
    "city": "Lenz"
  },
  {
    "postcode": "95490",
    "city": "Mengersdorf"
  },
  {
    "postcode": "95490",
    "city": "Mistelgau"
  },
  {
    "postcode": "95490",
    "city": "Moosing"
  },
  {
    "postcode": "95490",
    "city": "Obernsees"
  },
  {
    "postcode": "95490",
    "city": "Ochsenholz"
  },
  {
    "postcode": "95490",
    "city": "Plösen"
  },
  {
    "postcode": "95490",
    "city": "Schobertsreuth"
  },
  {
    "postcode": "95490",
    "city": "Schöchleins"
  },
  {
    "postcode": "95490",
    "city": "Seitenbach"
  },
  {
    "postcode": "95490",
    "city": "Sorg"
  },
  {
    "postcode": "95490",
    "city": "Streit"
  },
  {
    "postcode": "95490",
    "city": "Tennig"
  },
  {
    "postcode": "95490",
    "city": "Truppach"
  },
  {
    "postcode": "95490",
    "city": "Wohnsgehaig"
  },
  {
    "postcode": "95490",
    "city": "Bayreuth"
  },
  {
    "postcode": "95490",
    "city": "Schöchleinsmühle"
  },
  {
    "postcode": "95490",
    "city": "Äußerer Graben"
  },
  {
    "postcode": "95490",
    "city": "Böhnershof"
  },
  {
    "postcode": "95490",
    "city": "Eschenmühle"
  },
  {
    "postcode": "95490",
    "city": "Göritzen"
  },
  {
    "postcode": "95490",
    "city": "Gries"
  },
  {
    "postcode": "95490",
    "city": "Klingenmühle"
  },
  {
    "postcode": "95490",
    "city": "Kreckenmühle"
  },
  {
    "postcode": "95490",
    "city": "Laimen"
  },
  {
    "postcode": "95490",
    "city": "Pensenleithen"
  },
  {
    "postcode": "95490",
    "city": "Schobertsberg"
  },
  {
    "postcode": "95490",
    "city": "Striegelhof"
  },
  {
    "postcode": "95491",
    "city": "Adlitz"
  },
  {
    "postcode": "95491",
    "city": "Ahorntal"
  },
  {
    "postcode": "95491",
    "city": "Brünnberg"
  },
  {
    "postcode": "95491",
    "city": "Christanz"
  },
  {
    "postcode": "95491",
    "city": "Eichig"
  },
  {
    "postcode": "95491",
    "city": "Freiahorn"
  },
  {
    "postcode": "95491",
    "city": "Hintergereuth"
  },
  {
    "postcode": "95491",
    "city": "Hundshof"
  },
  {
    "postcode": "95491",
    "city": "Kirchahorn"
  },
  {
    "postcode": "95491",
    "city": "Körzendorf"
  },
  {
    "postcode": "95491",
    "city": "Oberailsfeld"
  },
  {
    "postcode": "95491",
    "city": "Pfaffenberg"
  },
  {
    "postcode": "95491",
    "city": "Poppendorf"
  },
  {
    "postcode": "95491",
    "city": "Reizendorf"
  },
  {
    "postcode": "95491",
    "city": "Volsbach"
  },
  {
    "postcode": "95491",
    "city": "Vordergereuth"
  },
  {
    "postcode": "95491",
    "city": "Weiher"
  },
  {
    "postcode": "95491",
    "city": "Zauppenberg"
  },
  {
    "postcode": "95491",
    "city": "Bayreuth"
  },
  {
    "postcode": "95491",
    "city": "Dentlein"
  },
  {
    "postcode": "95491",
    "city": "Hütten"
  },
  {
    "postcode": "95491",
    "city": "Klausstein"
  },
  {
    "postcode": "95491",
    "city": "Langweil"
  },
  {
    "postcode": "95491",
    "city": "Neumühle"
  },
  {
    "postcode": "95491",
    "city": "Rabenstein"
  },
  {
    "postcode": "95491",
    "city": "Schweinsmühle"
  },
  {
    "postcode": "95491",
    "city": "Windmühle"
  },
  {
    "postcode": "95491",
    "city": "Wünschendorf"
  },
  {
    "postcode": "95493",
    "city": "Bischofsgrün"
  },
  {
    "postcode": "95493",
    "city": "Wülfersreuth"
  },
  {
    "postcode": "95493",
    "city": "Bayreuth"
  },
  {
    "postcode": "95493",
    "city": "Birnstengel"
  },
  {
    "postcode": "95493",
    "city": "Glasermühle"
  },
  {
    "postcode": "95493",
    "city": "Göhren"
  },
  {
    "postcode": "95493",
    "city": "Güßhügel"
  },
  {
    "postcode": "95493",
    "city": "Bischofsgrüner Forst"
  },
  {
    "postcode": "95493",
    "city": "Höhenklinik Bischofsgrün"
  },
  {
    "postcode": "95493",
    "city": "Hedlerreuth"
  },
  {
    "postcode": "95493",
    "city": "Hirschhaid"
  },
  {
    "postcode": "95493",
    "city": "Hohe Haid"
  },
  {
    "postcode": "95493",
    "city": "Karches"
  },
  {
    "postcode": "95493",
    "city": "Warmensteinacher Forst-Nord"
  },
  {
    "postcode": "95493",
    "city": "Rangen"
  },
  {
    "postcode": "95494",
    "city": "Eichenreuth"
  },
  {
    "postcode": "95494",
    "city": "Forkendorf"
  },
  {
    "postcode": "95494",
    "city": "Gesees"
  },
  {
    "postcode": "95494",
    "city": "Gesees bei Bayreuth"
  },
  {
    "postcode": "95494",
    "city": "Hohenfichten"
  },
  {
    "postcode": "95494",
    "city": "Bayreuth"
  },
  {
    "postcode": "95494",
    "city": "Forstmühle"
  },
  {
    "postcode": "95494",
    "city": "Spänfleck"
  },
  {
    "postcode": "95494",
    "city": "Thalmühle"
  },
  {
    "postcode": "95496",
    "city": "Glashütten"
  },
  {
    "postcode": "95496",
    "city": "Glashütten Oberfranken"
  },
  {
    "postcode": "95496",
    "city": "Bayreuth"
  },
  {
    "postcode": "95496",
    "city": "Glashüttener Forst"
  },
  {
    "postcode": "95496",
    "city": "Altenhimmel"
  },
  {
    "postcode": "95497",
    "city": "Brandholz"
  },
  {
    "postcode": "95497",
    "city": "Dressendorf"
  },
  {
    "postcode": "95497",
    "city": "Forthof"
  },
  {
    "postcode": "95497",
    "city": "Goldberg"
  },
  {
    "postcode": "95497",
    "city": "Goldkronach"
  },
  {
    "postcode": "95497",
    "city": "Kottersreuth"
  },
  {
    "postcode": "95497",
    "city": "Leisau"
  },
  {
    "postcode": "95497",
    "city": "Nemmersdorf"
  },
  {
    "postcode": "95497",
    "city": "Pfarrloh"
  },
  {
    "postcode": "95497",
    "city": "Pöllersdorf"
  },
  {
    "postcode": "95497",
    "city": "Reuth"
  },
  {
    "postcode": "95497",
    "city": "Sickenreuth"
  },
  {
    "postcode": "95497",
    "city": "Zoppaten"
  },
  {
    "postcode": "95497",
    "city": "Bayreuth"
  },
  {
    "postcode": "95499",
    "city": "Harsdorf"
  },
  {
    "postcode": "95499",
    "city": "Harsdorf Oberfranken"
  },
  {
    "postcode": "95499",
    "city": "Hettersreuth Oberfranken"
  },
  {
    "postcode": "95499",
    "city": "Hettersreuth"
  },
  {
    "postcode": "95499",
    "city": "Oberlaitsch Oberfranken"
  },
  {
    "postcode": "95499",
    "city": "Oberlaitsch"
  },
  {
    "postcode": "95499",
    "city": "Sandreuth Oberfranken"
  },
  {
    "postcode": "95499",
    "city": "Sandreuth"
  },
  {
    "postcode": "95499",
    "city": "Zettmeisel Oberfranken"
  },
  {
    "postcode": "95499",
    "city": "Zettmeisel"
  },
  {
    "postcode": "95499",
    "city": "Kulmbach"
  },
  {
    "postcode": "95499",
    "city": "Altenreuth"
  },
  {
    "postcode": "95499",
    "city": "Brauneck"
  },
  {
    "postcode": "95499",
    "city": "Haselbach"
  },
  {
    "postcode": "95499",
    "city": "Holzlucken"
  },
  {
    "postcode": "95499",
    "city": "Lettenhof"
  },
  {
    "postcode": "95499",
    "city": "Oberlohe"
  },
  {
    "postcode": "95499",
    "city": "Ritterleithen"
  },
  {
    "postcode": "95499",
    "city": "Unitz"
  },
  {
    "postcode": "95500",
    "city": "Altenplos"
  },
  {
    "postcode": "95500",
    "city": "Cottenbach Kreis Bayreuth"
  },
  {
    "postcode": "95500",
    "city": "Cottenbach"
  },
  {
    "postcode": "95500",
    "city": "Hahnenhof Kreis Bayreuth"
  },
  {
    "postcode": "95500",
    "city": "Hahnenhof"
  },
  {
    "postcode": "95500",
    "city": "Heinersreuth"
  },
  {
    "postcode": "95500",
    "city": "Heinersreuth Kreis Bayreuth"
  },
  {
    "postcode": "95500",
    "city": "Martinsreuth Kreis Bayreuth"
  },
  {
    "postcode": "95500",
    "city": "Martinsreuth"
  },
  {
    "postcode": "95500",
    "city": "Unterkonnersreuth Kreis Bayreuth"
  },
  {
    "postcode": "95500",
    "city": "Unterkonnersreuth"
  },
  {
    "postcode": "95500",
    "city": "Unterwaiz Kreis Bayreuth"
  },
  {
    "postcode": "95500",
    "city": "Unterwaiz"
  },
  {
    "postcode": "95500",
    "city": "Vollhof Kreis Bayreuth"
  },
  {
    "postcode": "95500",
    "city": "Vollhof"
  },
  {
    "postcode": "95500",
    "city": "Bayreuth"
  },
  {
    "postcode": "95502",
    "city": "Gleisenhof"
  },
  {
    "postcode": "95502",
    "city": "Gössenreuth"
  },
  {
    "postcode": "95502",
    "city": "Himmelkron"
  },
  {
    "postcode": "95502",
    "city": "Kieselhof Oberfranken"
  },
  {
    "postcode": "95502",
    "city": "Kieselhof"
  },
  {
    "postcode": "95502",
    "city": "Lanzendorf Oberfranken"
  },
  {
    "postcode": "95502",
    "city": "Lanzendorf"
  },
  {
    "postcode": "95502",
    "city": "Kulmbach"
  },
  {
    "postcode": "95502",
    "city": "Kremitz"
  },
  {
    "postcode": "95502",
    "city": "Ziegelhütte"
  },
  {
    "postcode": "95502",
    "city": "Hermeshof"
  },
  {
    "postcode": "95502",
    "city": "Kunigundenhof"
  },
  {
    "postcode": "95502",
    "city": "Schiefe Ebene"
  },
  {
    "postcode": "95502",
    "city": "Schwärzhof"
  },
  {
    "postcode": "95502",
    "city": "Streit"
  },
  {
    "postcode": "95502",
    "city": "Streitmühle"
  },
  {
    "postcode": "95503",
    "city": "Creez Oberfranken"
  },
  {
    "postcode": "95503",
    "city": "Creez"
  },
  {
    "postcode": "95503",
    "city": "Hinterkleebach"
  },
  {
    "postcode": "95503",
    "city": "Hummeltal"
  },
  {
    "postcode": "95503",
    "city": "Moritzreuth"
  },
  {
    "postcode": "95503",
    "city": "Muthmannsreuth"
  },
  {
    "postcode": "95503",
    "city": "Pettendorf Oberfranken"
  },
  {
    "postcode": "95503",
    "city": "Pettendorf"
  },
  {
    "postcode": "95503",
    "city": "Pittersdorf Oberfranken"
  },
  {
    "postcode": "95503",
    "city": "Pittersdorf"
  },
  {
    "postcode": "95503",
    "city": "Weiglathal"
  },
  {
    "postcode": "95503",
    "city": "Bayreuth"
  },
  {
    "postcode": "95505",
    "city": "Ahornberg"
  },
  {
    "postcode": "95505",
    "city": "Döberein"
  },
  {
    "postcode": "95505",
    "city": "Gabellohe"
  },
  {
    "postcode": "95505",
    "city": "Günzlas"
  },
  {
    "postcode": "95505",
    "city": "Immenreuth"
  },
  {
    "postcode": "95505",
    "city": "Katzenöd"
  },
  {
    "postcode": "95505",
    "city": "Plößberg"
  },
  {
    "postcode": "95505",
    "city": "Poppenberg"
  },
  {
    "postcode": "95505",
    "city": "Punreuth"
  },
  {
    "postcode": "95505",
    "city": "Schadersberg"
  },
  {
    "postcode": "95505",
    "city": "Tiefenlohe"
  },
  {
    "postcode": "95505",
    "city": "Zweifelau"
  },
  {
    "postcode": "95505",
    "city": "Tirschenreuth"
  },
  {
    "postcode": "95505",
    "city": "Hölzlmühle"
  },
  {
    "postcode": "95505",
    "city": "Haid am Forst"
  },
  {
    "postcode": "95505",
    "city": "Herzogshut"
  },
  {
    "postcode": "95506",
    "city": "Altköslarn Kreis Kemnath"
  },
  {
    "postcode": "95506",
    "city": "Altköslarn"
  },
  {
    "postcode": "95506",
    "city": "Birkhof"
  },
  {
    "postcode": "95506",
    "city": "Gründlhut Kreis Kemnath"
  },
  {
    "postcode": "95506",
    "city": "Gründlhut"
  },
  {
    "postcode": "95506",
    "city": "Haidhügl Kreis Kemnath"
  },
  {
    "postcode": "95506",
    "city": "Haidhügl"
  },
  {
    "postcode": "95506",
    "city": "Kastl"
  },
  {
    "postcode": "95506",
    "city": "Kastl bei Kemnath Stadt"
  },
  {
    "postcode": "95506",
    "city": "Kastl bei Kemnath"
  },
  {
    "postcode": "95506",
    "city": "Mühlhof Kreis Kemnath"
  },
  {
    "postcode": "95506",
    "city": "Mühlhof"
  },
  {
    "postcode": "95506",
    "city": "Neuenreuth Kreis Kemnath"
  },
  {
    "postcode": "95506",
    "city": "Neuenreuth"
  },
  {
    "postcode": "95506",
    "city": "Reuth bei Kastl"
  },
  {
    "postcode": "95506",
    "city": "Senkendorf"
  },
  {
    "postcode": "95506",
    "city": "Troglau Oberpfalz"
  },
  {
    "postcode": "95506",
    "city": "Troglau"
  },
  {
    "postcode": "95506",
    "city": "Unterbruck Kreis Kemnath"
  },
  {
    "postcode": "95506",
    "city": "Unterbruck"
  },
  {
    "postcode": "95506",
    "city": "Weha Kreis Kemnath"
  },
  {
    "postcode": "95506",
    "city": "Weha"
  },
  {
    "postcode": "95506",
    "city": "Wolframshof Kreis Kemnath"
  },
  {
    "postcode": "95506",
    "city": "Wolframshof"
  },
  {
    "postcode": "95506",
    "city": "Tirschenreuth"
  },
  {
    "postcode": "95508",
    "city": "Aign"
  },
  {
    "postcode": "95508",
    "city": "Altensteinreuth"
  },
  {
    "postcode": "95508",
    "city": "Babilon Oberpfalz"
  },
  {
    "postcode": "95508",
    "city": "Babilon"
  },
  {
    "postcode": "95508",
    "city": "Erdenweis"
  },
  {
    "postcode": "95508",
    "city": "Frankenreuth Oberpfalz"
  },
  {
    "postcode": "95508",
    "city": "Frankenreuth"
  },
  {
    "postcode": "95508",
    "city": "Kulmain"
  },
  {
    "postcode": "95508",
    "city": "Lenau"
  },
  {
    "postcode": "95508",
    "city": "Oberbruck"
  },
  {
    "postcode": "95508",
    "city": "Oberwappenöst"
  },
  {
    "postcode": "95508",
    "city": "Ölbrunn Oberpfalz"
  },
  {
    "postcode": "95508",
    "city": "Ölbrunn"
  },
  {
    "postcode": "95508",
    "city": "Rothenhof"
  },
  {
    "postcode": "95508",
    "city": "Unterwappenöst"
  },
  {
    "postcode": "95508",
    "city": "Witzlasreuth Oberpfalz"
  },
  {
    "postcode": "95508",
    "city": "Witzlasreuth"
  },
  {
    "postcode": "95508",
    "city": "Wunschenberg"
  },
  {
    "postcode": "95508",
    "city": "Zinst"
  },
  {
    "postcode": "95508",
    "city": "Tirschenreuth"
  },
  {
    "postcode": "95508",
    "city": "Armesberg"
  },
  {
    "postcode": "95508",
    "city": "Hofstetten"
  },
  {
    "postcode": "95508",
    "city": "Neugrünberg"
  },
  {
    "postcode": "95508",
    "city": "Ziegelhütte"
  },
  {
    "postcode": "95509",
    "city": "Grundmühle"
  },
  {
    "postcode": "95509",
    "city": "Marktschorgast"
  },
  {
    "postcode": "95509",
    "city": "Mittelpöllitz"
  },
  {
    "postcode": "95509",
    "city": "Oberpöllitz"
  },
  {
    "postcode": "95509",
    "city": "Pulst"
  },
  {
    "postcode": "95509",
    "city": "Rohrersreuth"
  },
  {
    "postcode": "95509",
    "city": "Unterpöllitz"
  },
  {
    "postcode": "95509",
    "city": "Ziegenburg"
  },
  {
    "postcode": "95509",
    "city": "Kulmbach"
  },
  {
    "postcode": "95509",
    "city": "Talmühle"
  },
  {
    "postcode": "95511",
    "city": "Mistelbach"
  },
  {
    "postcode": "95511",
    "city": "Mistelbach Oberfranken"
  },
  {
    "postcode": "95511",
    "city": "Bayreuth"
  },
  {
    "postcode": "95511",
    "city": "Finkenmühle"
  },
  {
    "postcode": "95511",
    "city": "Poppenmühle"
  },
  {
    "postcode": "95511",
    "city": "Schnörrleinsmühle"
  },
  {
    "postcode": "95511",
    "city": "Sonnenleite"
  },
  {
    "postcode": "95511",
    "city": "Trautscheit"
  },
  {
    "postcode": "95511",
    "city": "Zeckenmühle"
  },
  {
    "postcode": "95512",
    "city": "Altdrossenfeld"
  },
  {
    "postcode": "95512",
    "city": "Brücklein"
  },
  {
    "postcode": "95512",
    "city": "Buch am Sand"
  },
  {
    "postcode": "95512",
    "city": "Dreschen"
  },
  {
    "postcode": "95512",
    "city": "Dreschenau"
  },
  {
    "postcode": "95512",
    "city": "Eberhardtsreuth"
  },
  {
    "postcode": "95512",
    "city": "Hölle"
  },
  {
    "postcode": "95512",
    "city": "Hornungsreuth"
  },
  {
    "postcode": "95512",
    "city": "Jöslein"
  },
  {
    "postcode": "95512",
    "city": "Langenstadt"
  },
  {
    "postcode": "95512",
    "city": "Muckenreuth Oberfranken"
  },
  {
    "postcode": "95512",
    "city": "Muckenreuth"
  },
  {
    "postcode": "95512",
    "city": "Neudrossenfeld"
  },
  {
    "postcode": "95512",
    "city": "Neuenreuth am Main"
  },
  {
    "postcode": "95512",
    "city": "Oberbrücklein"
  },
  {
    "postcode": "95512",
    "city": "Pechgraben Oberfranken"
  },
  {
    "postcode": "95512",
    "city": "Pechgraben"
  },
  {
    "postcode": "95512",
    "city": "Rohr"
  },
  {
    "postcode": "95512",
    "city": "Schaitz Oberfranken"
  },
  {
    "postcode": "95512",
    "city": "Schaitz"
  },
  {
    "postcode": "95512",
    "city": "Schlappach"
  },
  {
    "postcode": "95512",
    "city": "Schwingen"
  },
  {
    "postcode": "95512",
    "city": "Unterbrücklein"
  },
  {
    "postcode": "95512",
    "city": "Untergräfenthal Oberfranken"
  },
  {
    "postcode": "95512",
    "city": "Untergräfenthal"
  },
  {
    "postcode": "95512",
    "city": "Unterlaitsch Oberfranken"
  },
  {
    "postcode": "95512",
    "city": "Unterlaitsch"
  },
  {
    "postcode": "95512",
    "city": "Unterobsang"
  },
  {
    "postcode": "95512",
    "city": "Waldau Oberfranken"
  },
  {
    "postcode": "95512",
    "city": "Waldau"
  },
  {
    "postcode": "95512",
    "city": "Wehelitz"
  },
  {
    "postcode": "95512",
    "city": "Kulmbach"
  },
  {
    "postcode": "95512",
    "city": "Aichen"
  },
  {
    "postcode": "95512",
    "city": "Berghaus"
  },
  {
    "postcode": "95512",
    "city": "Eichberg"
  },
  {
    "postcode": "95512",
    "city": "Eselslohe"
  },
  {
    "postcode": "95512",
    "city": "Fichtelhof"
  },
  {
    "postcode": "95512",
    "city": "Fohlenhof"
  },
  {
    "postcode": "95512",
    "city": "Grauenthal"
  },
  {
    "postcode": "95512",
    "city": "Hörethshof"
  },
  {
    "postcode": "95512",
    "city": "Hainbühl"
  },
  {
    "postcode": "95512",
    "city": "Heidelmühle"
  },
  {
    "postcode": "95512",
    "city": "Hintere Gemeinde"
  },
  {
    "postcode": "95512",
    "city": "Hintere Lehen"
  },
  {
    "postcode": "95512",
    "city": "Hirschgründlein"
  },
  {
    "postcode": "95512",
    "city": "Igelsreuth"
  },
  {
    "postcode": "95512",
    "city": "Mermettenreuth"
  },
  {
    "postcode": "95512",
    "city": "Oberkeil"
  },
  {
    "postcode": "95512",
    "city": "Oberzinkenflur"
  },
  {
    "postcode": "95512",
    "city": "Rudolphsberg"
  },
  {
    "postcode": "95512",
    "city": "Tauberhof"
  },
  {
    "postcode": "95512",
    "city": "Unterlettenrangen"
  },
  {
    "postcode": "95512",
    "city": "Vordere Lehen"
  },
  {
    "postcode": "95512",
    "city": "Waldmannsberg"
  },
  {
    "postcode": "95512",
    "city": "Zoltmühle"
  },
  {
    "postcode": "95514",
    "city": "Baumgartenhof am Kulm"
  },
  {
    "postcode": "95514",
    "city": "Filchendorf am Kulm"
  },
  {
    "postcode": "95514",
    "city": "Firkenhof am Kulm"
  },
  {
    "postcode": "95514",
    "city": "Lämmershof am Kulm"
  },
  {
    "postcode": "95514",
    "city": "Mockersdorf am Kulm"
  },
  {
    "postcode": "95514",
    "city": "Neustadt am Kulm"
  },
  {
    "postcode": "95514",
    "city": "Scheckenhof am Kulm"
  },
  {
    "postcode": "95514",
    "city": "Tremau am Kulm"
  },
  {
    "postcode": "95514",
    "city": "Neustadt an der Waldnaab"
  },
  {
    "postcode": "95514",
    "city": "Neustadt"
  },
  {
    "postcode": "95514",
    "city": "Mockersdorf"
  },
  {
    "postcode": "95514",
    "city": "Filchendorf"
  },
  {
    "postcode": "95514",
    "city": "Firkenhof"
  },
  {
    "postcode": "95514",
    "city": "Lämmershof"
  },
  {
    "postcode": "95514",
    "city": "Scheckenhof"
  },
  {
    "postcode": "95514",
    "city": "Tremau"
  },
  {
    "postcode": "95515",
    "city": "Meuschlitz"
  },
  {
    "postcode": "95515",
    "city": "Neuwelt"
  },
  {
    "postcode": "95515",
    "city": "Plankenfels"
  },
  {
    "postcode": "95515",
    "city": "Plankenstein"
  },
  {
    "postcode": "95515",
    "city": "Ringau"
  },
  {
    "postcode": "95515",
    "city": "Scherleithen"
  },
  {
    "postcode": "95515",
    "city": "Schnackenwöhr"
  },
  {
    "postcode": "95515",
    "city": "Schrenkersberg"
  },
  {
    "postcode": "95515",
    "city": "Schressendorf"
  },
  {
    "postcode": "95515",
    "city": "Wadendorf"
  },
  {
    "postcode": "95515",
    "city": "Bayreuth"
  },
  {
    "postcode": "95515",
    "city": "Eichenmühle"
  },
  {
    "postcode": "95515",
    "city": "Kaupersberg"
  },
  {
    "postcode": "95515",
    "city": "Neumühle"
  },
  {
    "postcode": "95517",
    "city": "Amoslohe"
  },
  {
    "postcode": "95517",
    "city": "Birk"
  },
  {
    "postcode": "95517",
    "city": "Bühl Oberfranken"
  },
  {
    "postcode": "95517",
    "city": "Bühl"
  },
  {
    "postcode": "95517",
    "city": "Döberschütz"
  },
  {
    "postcode": "95517",
    "city": "Draisenfeld"
  },
  {
    "postcode": "95517",
    "city": "Eichen"
  },
  {
    "postcode": "95517",
    "city": "Eichhammer"
  },
  {
    "postcode": "95517",
    "city": "Eichschlag"
  },
  {
    "postcode": "95517",
    "city": "Emtmannsberg"
  },
  {
    "postcode": "95517",
    "city": "Fenkensees"
  },
  {
    "postcode": "95517",
    "city": "Forst"
  },
  {
    "postcode": "95517",
    "city": "Hauendorf"
  },
  {
    "postcode": "95517",
    "city": "Hühl"
  },
  {
    "postcode": "95517",
    "city": "Oberölschnitz"
  },
  {
    "postcode": "95517",
    "city": "Schamelsberg"
  },
  {
    "postcode": "95517",
    "city": "Seybothenreuth"
  },
  {
    "postcode": "95517",
    "city": "Troschenreuth"
  },
  {
    "postcode": "95517",
    "city": "Unterölschnitz"
  },
  {
    "postcode": "95517",
    "city": "Wallenbrunn"
  },
  {
    "postcode": "95517",
    "city": "Wiedent"
  },
  {
    "postcode": "95517",
    "city": "Würnsreuth"
  },
  {
    "postcode": "95517",
    "city": "Bayreuth"
  },
  {
    "postcode": "95517",
    "city": "Gampelmühle"
  },
  {
    "postcode": "95517",
    "city": "Gottelhof"
  },
  {
    "postcode": "95517",
    "city": "Huth"
  },
  {
    "postcode": "95517",
    "city": "Linhardtshaus"
  },
  {
    "postcode": "95517",
    "city": "Pirschling"
  },
  {
    "postcode": "95517",
    "city": "Reuthaus"
  },
  {
    "postcode": "95517",
    "city": "Seidelmühle"
  },
  {
    "postcode": "95517",
    "city": "Einzigenhof"
  },
  {
    "postcode": "95517",
    "city": "Petzelmühle"
  },
  {
    "postcode": "95519",
    "city": "Ernstfeld Oberpfalz"
  },
  {
    "postcode": "95519",
    "city": "Ernstfeld"
  },
  {
    "postcode": "95519",
    "city": "Grün Oberpfalz"
  },
  {
    "postcode": "95519",
    "city": "Grün"
  },
  {
    "postcode": "95519",
    "city": "Haar Oberpfalz"
  },
  {
    "postcode": "95519",
    "city": "Haar"
  },
  {
    "postcode": "95519",
    "city": "Höflas Oberpfalz"
  },
  {
    "postcode": "95519",
    "city": "Höflas"
  },
  {
    "postcode": "95519",
    "city": "Holzmühle"
  },
  {
    "postcode": "95519",
    "city": "Menzlas Oberpfalz"
  },
  {
    "postcode": "95519",
    "city": "Menzlas"
  },
  {
    "postcode": "95519",
    "city": "Moos"
  },
  {
    "postcode": "95519",
    "city": "Naslitz Oberpfalz"
  },
  {
    "postcode": "95519",
    "city": "Naslitz"
  },
  {
    "postcode": "95519",
    "city": "Oberbibrach Oberpfalz"
  },
  {
    "postcode": "95519",
    "city": "Oberbibrach"
  },
  {
    "postcode": "95519",
    "city": "Schlammersdorf"
  },
  {
    "postcode": "95519",
    "city": "Schlammersdorf Oberpfalz"
  },
  {
    "postcode": "95519",
    "city": "Starkenacker Oberpfalz"
  },
  {
    "postcode": "95519",
    "city": "Starkenacker"
  },
  {
    "postcode": "95519",
    "city": "Unterbibrach Oberpfalz"
  },
  {
    "postcode": "95519",
    "city": "Unterbibrach"
  },
  {
    "postcode": "95519",
    "city": "Vorbach"
  },
  {
    "postcode": "95519",
    "city": "Vorbach Oberpfalz"
  },
  {
    "postcode": "95519",
    "city": "Neustadt an der Waldnaab"
  },
  {
    "postcode": "95519",
    "city": "Neumühle"
  },
  {
    "postcode": "95519",
    "city": "Weidenlohe"
  },
  {
    "postcode": "95519",
    "city": "Oberhammermühle"
  },
  {
    "postcode": "95519",
    "city": "Rosamühle"
  },
  {
    "postcode": "95615",
    "city": "Brand"
  },
  {
    "postcode": "95615",
    "city": "Glashütte"
  },
  {
    "postcode": "95615",
    "city": "Haag"
  },
  {
    "postcode": "95615",
    "city": "Katharinenhöhe"
  },
  {
    "postcode": "95615",
    "city": "Korbersdorf"
  },
  {
    "postcode": "95615",
    "city": "Leutendorf"
  },
  {
    "postcode": "95615",
    "city": "Lorenzreuth"
  },
  {
    "postcode": "95615",
    "city": "Manzenberg"
  },
  {
    "postcode": "95615",
    "city": "Marktredwitz"
  },
  {
    "postcode": "95615",
    "city": "Meußelsdorf"
  },
  {
    "postcode": "95615",
    "city": "Pfaffenreuth"
  },
  {
    "postcode": "95615",
    "city": "Reutlas"
  },
  {
    "postcode": "95615",
    "city": "Wölsau"
  },
  {
    "postcode": "95615",
    "city": "Wölsauerhammer"
  },
  {
    "postcode": "95615",
    "city": "Ziegelhütte"
  },
  {
    "postcode": "95615",
    "city": "Wunsiedel im Fichtelgebirge"
  },
  {
    "postcode": "95615",
    "city": "Grafenstein"
  },
  {
    "postcode": "95615",
    "city": "Grünitzmühle"
  },
  {
    "postcode": "95615",
    "city": "Haingrün"
  },
  {
    "postcode": "95615",
    "city": "Hammerberg"
  },
  {
    "postcode": "95615",
    "city": "Neu-Haag"
  },
  {
    "postcode": "95615",
    "city": "Thölau"
  },
  {
    "postcode": "95632",
    "city": "Breitenbrunn Kreis Wunsiedel"
  },
  {
    "postcode": "95632",
    "city": "Breitenbrunn"
  },
  {
    "postcode": "95632",
    "city": "Göringsreuth"
  },
  {
    "postcode": "95632",
    "city": "Hildenbach"
  },
  {
    "postcode": "95632",
    "city": "Holenbrunn"
  },
  {
    "postcode": "95632",
    "city": "Schönbrunn Kreis Wunsiedel"
  },
  {
    "postcode": "95632",
    "city": "Schönbrunn"
  },
  {
    "postcode": "95632",
    "city": "Valetsberg"
  },
  {
    "postcode": "95632",
    "city": "Wunsiedel"
  },
  {
    "postcode": "95632",
    "city": "Wunsiedel im Fichtelgebirge"
  },
  {
    "postcode": "95632",
    "city": "Furthammer"
  },
  {
    "postcode": "95643",
    "city": "Brunn"
  },
  {
    "postcode": "95643",
    "city": "Großklenau"
  },
  {
    "postcode": "95643",
    "city": "Gründlbach"
  },
  {
    "postcode": "95643",
    "city": "Hohenwald"
  },
  {
    "postcode": "95643",
    "city": "Kleinklenau"
  },
  {
    "postcode": "95643",
    "city": "Kleinkonreuth"
  },
  {
    "postcode": "95643",
    "city": "Lengenfeld bei Tirschenreuth"
  },
  {
    "postcode": "95643",
    "city": "Lohnsitz"
  },
  {
    "postcode": "95643",
    "city": "Marchaney"
  },
  {
    "postcode": "95643",
    "city": "Matzersreuth"
  },
  {
    "postcode": "95643",
    "city": "Mooslohe Gemeinde Tirschenreuth"
  },
  {
    "postcode": "95643",
    "city": "Mooslohe"
  },
  {
    "postcode": "95643",
    "city": "Pilmersreuth am Wald"
  },
  {
    "postcode": "95643",
    "city": "Pilmersreuth an der Straße"
  },
  {
    "postcode": "95643",
    "city": "Rosall"
  },
  {
    "postcode": "95643",
    "city": "Rothenbürg"
  },
  {
    "postcode": "95643",
    "city": "Tirschenreuth"
  },
  {
    "postcode": "95643",
    "city": "Wondreb"
  },
  {
    "postcode": "95643",
    "city": "Wondrebhammer"
  },
  {
    "postcode": "95643",
    "city": "Gebhardtshöhe"
  },
  {
    "postcode": "95643",
    "city": "Höfen"
  },
  {
    "postcode": "95643",
    "city": "Haid"
  },
  {
    "postcode": "95643",
    "city": "Haidhof"
  },
  {
    "postcode": "95643",
    "city": "Hendlmühle"
  },
  {
    "postcode": "95643",
    "city": "Holzmühle"
  },
  {
    "postcode": "95643",
    "city": "Lengenfeld"
  },
  {
    "postcode": "95643",
    "city": "Lodermühl"
  },
  {
    "postcode": "95643",
    "city": "Sägmühle"
  },
  {
    "postcode": "95643",
    "city": "Tröglersreuth"
  },
  {
    "postcode": "95643",
    "city": "Zeidlweid"
  },
  {
    "postcode": "95643",
    "city": "Ziegelhütte"
  },
  {
    "postcode": "95652",
    "city": "Egerteich"
  },
  {
    "postcode": "95652",
    "city": "Groppenheim"
  },
  {
    "postcode": "95652",
    "city": "Hatzenreuth"
  },
  {
    "postcode": "95652",
    "city": "Hundsbach"
  },
  {
    "postcode": "95652",
    "city": "Kondrau"
  },
  {
    "postcode": "95652",
    "city": "Mammersreuth"
  },
  {
    "postcode": "95652",
    "city": "Münchenreuth"
  },
  {
    "postcode": "95652",
    "city": "Netzstahl"
  },
  {
    "postcode": "95652",
    "city": "Pechtnersreuth"
  },
  {
    "postcode": "95652",
    "city": "Querenbach"
  },
  {
    "postcode": "95652",
    "city": "Schloppach"
  },
  {
    "postcode": "95652",
    "city": "Waldsassen"
  },
  {
    "postcode": "95652",
    "city": "Wolfsbühl"
  },
  {
    "postcode": "95652",
    "city": "Tirschenreuth"
  },
  {
    "postcode": "95652",
    "city": "Sauerbrunn"
  },
  {
    "postcode": "95652",
    "city": "Glasmühle"
  },
  {
    "postcode": "95652",
    "city": "Glaswies"
  },
  {
    "postcode": "95652",
    "city": "Kappel"
  },
  {
    "postcode": "95652",
    "city": "Mitterhof"
  },
  {
    "postcode": "95652",
    "city": "Naßgütl"
  },
  {
    "postcode": "95652",
    "city": "Neusorg"
  },
  {
    "postcode": "95652",
    "city": "Pfudermühle"
  },
  {
    "postcode": "95652",
    "city": "Schottenhof"
  },
  {
    "postcode": "95659",
    "city": "Arzberg"
  },
  {
    "postcode": "95659",
    "city": "Arzberg Oberfranken"
  },
  {
    "postcode": "95659",
    "city": "Bergnersreuth"
  },
  {
    "postcode": "95659",
    "city": "Oschwitz Oberfranken"
  },
  {
    "postcode": "95659",
    "city": "Oschwitz"
  },
  {
    "postcode": "95659",
    "city": "Rosenbühl"
  },
  {
    "postcode": "95659",
    "city": "Röthenbach Oberfranken"
  },
  {
    "postcode": "95659",
    "city": "Röthenbach"
  },
  {
    "postcode": "95659",
    "city": "Sandmühle Oberfranken"
  },
  {
    "postcode": "95659",
    "city": "Sandmühle"
  },
  {
    "postcode": "95659",
    "city": "Schacht Oberfranken"
  },
  {
    "postcode": "95659",
    "city": "Schacht"
  },
  {
    "postcode": "95659",
    "city": "Schlottenhof Oberfranken"
  },
  {
    "postcode": "95659",
    "city": "Schlottenhof"
  },
  {
    "postcode": "95659",
    "city": "Seußen"
  },
  {
    "postcode": "95659",
    "city": "Wunsiedel im Fichtelgebirge"
  },
  {
    "postcode": "95659",
    "city": "Preisdorf"
  },
  {
    "postcode": "95666",
    "city": "Altenhammer Bayern"
  },
  {
    "postcode": "95666",
    "city": "Altenhammer"
  },
  {
    "postcode": "95666",
    "city": "Dobrigau"
  },
  {
    "postcode": "95666",
    "city": "Großbüchlberg"
  },
  {
    "postcode": "95666",
    "city": "Großensees"
  },
  {
    "postcode": "95666",
    "city": "Großensterz"
  },
  {
    "postcode": "95666",
    "city": "Gulg"
  },
  {
    "postcode": "95666",
    "city": "Hofteich"
  },
  {
    "postcode": "95666",
    "city": "Hungenberg"
  },
  {
    "postcode": "95666",
    "city": "Kleinbüchlberg"
  },
  {
    "postcode": "95666",
    "city": "Kleinsterz"
  },
  {
    "postcode": "95666",
    "city": "Königshütte Bayern"
  },
  {
    "postcode": "95666",
    "city": "Königshütte"
  },
  {
    "postcode": "95666",
    "city": "Leonberg"
  },
  {
    "postcode": "95666",
    "city": "Leonberg Oberpfalz"
  },
  {
    "postcode": "95666",
    "city": "Mitterteich"
  },
  {
    "postcode": "95666",
    "city": "Münchsgrün"
  },
  {
    "postcode": "95666",
    "city": "Neuhof Bayern"
  },
  {
    "postcode": "95666",
    "city": "Neuhof"
  },
  {
    "postcode": "95666",
    "city": "Oberteich"
  },
  {
    "postcode": "95666",
    "city": "Pechofen"
  },
  {
    "postcode": "95666",
    "city": "Pfaffenreuth"
  },
  {
    "postcode": "95666",
    "city": "Pleußen Bayern"
  },
  {
    "postcode": "95666",
    "city": "Pleußen"
  },
  {
    "postcode": "95666",
    "city": "Steinmühle Bayern"
  },
  {
    "postcode": "95666",
    "city": "Steinmühle"
  },
  {
    "postcode": "95666",
    "city": "Themenreuth"
  },
  {
    "postcode": "95666",
    "city": "Zirkenreuth Bayern"
  },
  {
    "postcode": "95666",
    "city": "Zirkenreuth"
  },
  {
    "postcode": "95666",
    "city": "Tirschenreuth"
  },
  {
    "postcode": "95666",
    "city": "Forkatshof"
  },
  {
    "postcode": "95666",
    "city": "Kornmühle"
  },
  {
    "postcode": "95666",
    "city": "Kriegermühle"
  },
  {
    "postcode": "95666",
    "city": "Neumühle"
  },
  {
    "postcode": "95666",
    "city": "Terschnitz"
  },
  {
    "postcode": "95666",
    "city": "Hammermühle"
  },
  {
    "postcode": "95666",
    "city": "Gemeinde Leonberg"
  },
  {
    "postcode": "95671",
    "city": "Ahornberg"
  },
  {
    "postcode": "95671",
    "city": "Altglashütte Oberpfalz"
  },
  {
    "postcode": "95671",
    "city": "Altglashütte"
  },
  {
    "postcode": "95671",
    "city": "Bärnau"
  },
  {
    "postcode": "95671",
    "city": "Bärnau Oberpfalz"
  },
  {
    "postcode": "95671",
    "city": "Ellenfeld"
  },
  {
    "postcode": "95671",
    "city": "Grün"
  },
  {
    "postcode": "95671",
    "city": "Hasenbühl Oberpfalz"
  },
  {
    "postcode": "95671",
    "city": "Hasenbühl"
  },
  {
    "postcode": "95671",
    "city": "Hermannsreuth"
  },
  {
    "postcode": "95671",
    "city": "Hohenthan Oberpfalz"
  },
  {
    "postcode": "95671",
    "city": "Hohenthan"
  },
  {
    "postcode": "95671",
    "city": "Iglersreuth"
  },
  {
    "postcode": "95671",
    "city": "Naab"
  },
  {
    "postcode": "95671",
    "city": "Ödwaldhausen"
  },
  {
    "postcode": "95671",
    "city": "Schwarzenbach"
  },
  {
    "postcode": "95671",
    "city": "Silberhütte"
  },
  {
    "postcode": "95671",
    "city": "Thanhausen Oberpfalz"
  },
  {
    "postcode": "95671",
    "city": "Thanhausen"
  },
  {
    "postcode": "95671",
    "city": "Wendern"
  },
  {
    "postcode": "95671",
    "city": "Tirschenreuth"
  },
  {
    "postcode": "95671",
    "city": "Bartmühle"
  },
  {
    "postcode": "95671",
    "city": "Beierfeld"
  },
  {
    "postcode": "95671",
    "city": "Greim"
  },
  {
    "postcode": "95671",
    "city": "Heimhof"
  },
  {
    "postcode": "95671",
    "city": "Hermannsreuth Siedlung"
  },
  {
    "postcode": "95671",
    "city": "Kaltenmühle"
  },
  {
    "postcode": "95671",
    "city": "Klauberfeld"
  },
  {
    "postcode": "95671",
    "city": "Oberkellermühle"
  },
  {
    "postcode": "95671",
    "city": "Stöberlhof"
  },
  {
    "postcode": "95671",
    "city": "Tännersreuth"
  },
  {
    "postcode": "95671",
    "city": "Unterkellermühle"
  },
  {
    "postcode": "95671",
    "city": "Ziegelhütte"
  },
  {
    "postcode": "95676",
    "city": "Kornthan Oberpfalz"
  },
  {
    "postcode": "95676",
    "city": "Kornthan"
  },
  {
    "postcode": "95676",
    "city": "Leugas Oberpfalz"
  },
  {
    "postcode": "95676",
    "city": "Leugas"
  },
  {
    "postcode": "95676",
    "city": "Muckenthal Oberpfalz"
  },
  {
    "postcode": "95676",
    "city": "Muckenthal"
  },
  {
    "postcode": "95676",
    "city": "Mühlhof Oberpfalz"
  },
  {
    "postcode": "95676",
    "city": "Mühlhof"
  },
  {
    "postcode": "95676",
    "city": "Schönfeld"
  },
  {
    "postcode": "95676",
    "city": "Schönhaid Oberpfalz"
  },
  {
    "postcode": "95676",
    "city": "Schönhaid"
  },
  {
    "postcode": "95676",
    "city": "Triebendorf Oberpfalz"
  },
  {
    "postcode": "95676",
    "city": "Triebendorf"
  },
  {
    "postcode": "95676",
    "city": "Wiesau"
  },
  {
    "postcode": "95676",
    "city": "Tirschenreuth"
  },
  {
    "postcode": "95676",
    "city": "Hechtmühle"
  },
  {
    "postcode": "95676",
    "city": "König-Otto-Bad"
  },
  {
    "postcode": "95676",
    "city": "Tirschnitz"
  },
  {
    "postcode": "95676",
    "city": "Veitmühle"
  },
  {
    "postcode": "95679",
    "city": "Hard Oberpfalz"
  },
  {
    "postcode": "95679",
    "city": "Hard"
  },
  {
    "postcode": "95679",
    "city": "Hohenhard Oberpfalz"
  },
  {
    "postcode": "95679",
    "city": "Hohenhard"
  },
  {
    "postcode": "95679",
    "city": "Kössain"
  },
  {
    "postcode": "95679",
    "city": "Poppenreuth Oberpfalz"
  },
  {
    "postcode": "95679",
    "city": "Poppenreuth"
  },
  {
    "postcode": "95679",
    "city": "Rodenzenreuth"
  },
  {
    "postcode": "95679",
    "city": "Rosenhammer"
  },
  {
    "postcode": "95679",
    "city": "Waldershof"
  },
  {
    "postcode": "95679",
    "city": "Wolfersreuth"
  },
  {
    "postcode": "95679",
    "city": "Tirschenreuth"
  },
  {
    "postcode": "95679",
    "city": "Schurbach"
  },
  {
    "postcode": "95679",
    "city": "Lengenfeld bei Groschlattengrün"
  },
  {
    "postcode": "95679",
    "city": "Harlachberg"
  },
  {
    "postcode": "95680",
    "city": "Bad Alexandersbad"
  },
  {
    "postcode": "95680",
    "city": "Dünkelhammer"
  },
  {
    "postcode": "95680",
    "city": "Kleinwendern"
  },
  {
    "postcode": "95680",
    "city": "Sichersreuth"
  },
  {
    "postcode": "95680",
    "city": "Tiefenbach"
  },
  {
    "postcode": "95680",
    "city": "Wunsiedel im Fichtelgebirge"
  },
  {
    "postcode": "95682",
    "city": "Bernlohe"
  },
  {
    "postcode": "95682",
    "city": "Brand"
  },
  {
    "postcode": "95682",
    "city": "Brand Oberpfalz"
  },
  {
    "postcode": "95682",
    "city": "Fuhrmannsreuth Oberpfalz"
  },
  {
    "postcode": "95682",
    "city": "Fuhrmannsreuth"
  },
  {
    "postcode": "95682",
    "city": "Grünberg Oberpfalz"
  },
  {
    "postcode": "95682",
    "city": "Grünberg"
  },
  {
    "postcode": "95682",
    "city": "Neubrand Oberpfalz"
  },
  {
    "postcode": "95682",
    "city": "Neubrand"
  },
  {
    "postcode": "95682",
    "city": "Oberölbühl Oberpfalz"
  },
  {
    "postcode": "95682",
    "city": "Oberölbühl"
  },
  {
    "postcode": "95682",
    "city": "Tirschenreuth"
  },
  {
    "postcode": "95682",
    "city": "Grünlasmühle"
  },
  {
    "postcode": "95683",
    "city": "Ebnath"
  },
  {
    "postcode": "95683",
    "city": "Ebnath Oberpfalz"
  },
  {
    "postcode": "95683",
    "city": "Grünlas Oberpfalz"
  },
  {
    "postcode": "95683",
    "city": "Grünlas"
  },
  {
    "postcode": "95683",
    "city": "Haid"
  },
  {
    "postcode": "95683",
    "city": "Hermannsreuth Oberpfalz"
  },
  {
    "postcode": "95683",
    "city": "Hermannsreuth"
  },
  {
    "postcode": "95683",
    "city": "Hölzlashof Oberpfalz"
  },
  {
    "postcode": "95683",
    "city": "Hölzlashof"
  },
  {
    "postcode": "95683",
    "city": "Selingau Oberpfalz"
  },
  {
    "postcode": "95683",
    "city": "Selingau"
  },
  {
    "postcode": "95683",
    "city": "Zeckenberg Oberpfalz"
  },
  {
    "postcode": "95683",
    "city": "Zeckenberg"
  },
  {
    "postcode": "95683",
    "city": "Tirschenreuth"
  },
  {
    "postcode": "95685",
    "city": "Bodenreuth Oberpfalz"
  },
  {
    "postcode": "95685",
    "city": "Bodenreuth"
  },
  {
    "postcode": "95685",
    "city": "Falkenberg Oberpfalz"
  },
  {
    "postcode": "95685",
    "city": "Falkenberg"
  },
  {
    "postcode": "95685",
    "city": "Gumpen Oberpfalz"
  },
  {
    "postcode": "95685",
    "city": "Gumpen"
  },
  {
    "postcode": "95685",
    "city": "Pirk Oberpfalz"
  },
  {
    "postcode": "95685",
    "city": "Pirk"
  },
  {
    "postcode": "95685",
    "city": "Seidlersreuth Oberpfalz"
  },
  {
    "postcode": "95685",
    "city": "Seidlersreuth"
  },
  {
    "postcode": "95685",
    "city": "Thann"
  },
  {
    "postcode": "95685",
    "city": "Tirschenreuth"
  },
  {
    "postcode": "95685",
    "city": "Hammermühle"
  },
  {
    "postcode": "95685",
    "city": "Hanfmühl"
  },
  {
    "postcode": "95685",
    "city": "Holzmühl"
  },
  {
    "postcode": "95685",
    "city": "Tannenlohe"
  },
  {
    "postcode": "95685",
    "city": "Troglauermühle"
  },
  {
    "postcode": "95686",
    "city": "Fichtelberg"
  },
  {
    "postcode": "95686",
    "city": "Hüttstadl Bayern"
  },
  {
    "postcode": "95686",
    "city": "Hüttstadl"
  },
  {
    "postcode": "95686",
    "city": "Neubau Oberfranken"
  },
  {
    "postcode": "95686",
    "city": "Neubau"
  },
  {
    "postcode": "95686",
    "city": "Seehaus im Fichtelgebirge"
  },
  {
    "postcode": "95686",
    "city": "Bayreuth"
  },
  {
    "postcode": "95686",
    "city": "Hüttstadl-Sankt Veit"
  },
  {
    "postcode": "95688",
    "city": "Bärnhöhe"
  },
  {
    "postcode": "95688",
    "city": "Frauenreuth"
  },
  {
    "postcode": "95688",
    "city": "Friedenfels"
  },
  {
    "postcode": "95688",
    "city": "Köhlerlohe"
  },
  {
    "postcode": "95688",
    "city": "Oed"
  },
  {
    "postcode": "95688",
    "city": "Trettmanns"
  },
  {
    "postcode": "95688",
    "city": "Voitenthan"
  },
  {
    "postcode": "95688",
    "city": "Tirschenreuth"
  },
  {
    "postcode": "95688",
    "city": "Bobenwart"
  },
  {
    "postcode": "95688",
    "city": "Haferdeckmühle"
  },
  {
    "postcode": "95688",
    "city": "Schönfuß"
  },
  {
    "postcode": "95689",
    "city": "Fuchsmühl"
  },
  {
    "postcode": "95689",
    "city": "Fürstenhof Oberpfalz"
  },
  {
    "postcode": "95689",
    "city": "Fürstenhof"
  },
  {
    "postcode": "95689",
    "city": "Güttern Oberpfalz"
  },
  {
    "postcode": "95689",
    "city": "Güttern"
  },
  {
    "postcode": "95689",
    "city": "Herzogöd Oberpfalz"
  },
  {
    "postcode": "95689",
    "city": "Herzogöd"
  },
  {
    "postcode": "95689",
    "city": "Hurtingöd"
  },
  {
    "postcode": "95689",
    "city": "Tirschenreuth"
  },
  {
    "postcode": "95689",
    "city": "Mitterharlohmühle"
  },
  {
    "postcode": "95689",
    "city": "Plattenmühle"
  },
  {
    "postcode": "95689",
    "city": "Unterharlohmühle"
  },
  {
    "postcode": "95689",
    "city": "Ziegelhütte"
  },
  {
    "postcode": "95691",
    "city": "Hohenberg"
  },
  {
    "postcode": "95691",
    "city": "Hohenberg an der Eger"
  },
  {
    "postcode": "95691",
    "city": "Neuhaus an der Eger"
  },
  {
    "postcode": "95691",
    "city": "Wunsiedel im Fichtelgebirge"
  },
  {
    "postcode": "95691",
    "city": "Hohenberg a.d.Eger"
  },
  {
    "postcode": "95691",
    "city": "Neuhaus"
  },
  {
    "postcode": "95692",
    "city": "Dornhof"
  },
  {
    "postcode": "95692",
    "city": "Fockenfeld"
  },
  {
    "postcode": "95692",
    "city": "Grün"
  },
  {
    "postcode": "95692",
    "city": "Höflas"
  },
  {
    "postcode": "95692",
    "city": "Konnersreuth"
  },
  {
    "postcode": "95692",
    "city": "Konnersreuth Oberpfalz"
  },
  {
    "postcode": "95692",
    "city": "Neudorf"
  },
  {
    "postcode": "95692",
    "city": "Preisdorf"
  },
  {
    "postcode": "95692",
    "city": "Rosenbühl"
  },
  {
    "postcode": "95692",
    "city": "Schwalbenhof"
  },
  {
    "postcode": "95692",
    "city": "Tirschenreuth"
  },
  {
    "postcode": "95692",
    "city": "Brandmühle"
  },
  {
    "postcode": "95692",
    "city": "Dollermühle"
  },
  {
    "postcode": "95692",
    "city": "Geierhut"
  },
  {
    "postcode": "95692",
    "city": "Grünmühle"
  },
  {
    "postcode": "95692",
    "city": "Lippertsmühle"
  },
  {
    "postcode": "95692",
    "city": "Lodermühle"
  },
  {
    "postcode": "95692",
    "city": "Neuhof"
  },
  {
    "postcode": "95692",
    "city": "Siegelmühle"
  },
  {
    "postcode": "95694",
    "city": "Erllohe Bayern"
  },
  {
    "postcode": "95694",
    "city": "Erllohe"
  },
  {
    "postcode": "95694",
    "city": "Mehlmeisel"
  },
  {
    "postcode": "95694",
    "city": "Neugrün Bayern"
  },
  {
    "postcode": "95694",
    "city": "Neugrün"
  },
  {
    "postcode": "95694",
    "city": "Bayreuth"
  },
  {
    "postcode": "95694",
    "city": "Oberlind"
  },
  {
    "postcode": "95695",
    "city": "Asch Kreis Tirschenreuth"
  },
  {
    "postcode": "95695",
    "city": "Asch"
  },
  {
    "postcode": "95695",
    "city": "Dippersreuth"
  },
  {
    "postcode": "95695",
    "city": "Griesbach Kreis Tirschenreuth"
  },
  {
    "postcode": "95695",
    "city": "Griesbach"
  },
  {
    "postcode": "95695",
    "city": "Großkonreuth"
  },
  {
    "postcode": "95695",
    "city": "Hiltershof"
  },
  {
    "postcode": "95695",
    "city": "Laub Kreis Tirschenreuth"
  },
  {
    "postcode": "95695",
    "city": "Laub"
  },
  {
    "postcode": "95695",
    "city": "Lauterbach Kreis Tirschenreuth"
  },
  {
    "postcode": "95695",
    "city": "Lauterbach"
  },
  {
    "postcode": "95695",
    "city": "Mähring"
  },
  {
    "postcode": "95695",
    "city": "Mähring Oberpfalz"
  },
  {
    "postcode": "95695",
    "city": "Poppenreuth bei Tirschenreuth"
  },
  {
    "postcode": "95695",
    "city": "Redenbach Kreis Tirschenreuth"
  },
  {
    "postcode": "95695",
    "city": "Redenbach"
  },
  {
    "postcode": "95695",
    "city": "Treppenstein Oberpfalz"
  },
  {
    "postcode": "95695",
    "city": "Treppenstein"
  },
  {
    "postcode": "95695",
    "city": "Tirschenreuth"
  },
  {
    "postcode": "95695",
    "city": "Ebersberg"
  },
  {
    "postcode": "95695",
    "city": "Fiedlhof"
  },
  {
    "postcode": "95695",
    "city": "Frauenreuth"
  },
  {
    "postcode": "95695",
    "city": "Groppenmühle"
  },
  {
    "postcode": "95695",
    "city": "Neumühle"
  },
  {
    "postcode": "95695",
    "city": "Poppenreuth"
  },
  {
    "postcode": "95695",
    "city": "Reisach"
  },
  {
    "postcode": "95695",
    "city": "Ödhof"
  },
  {
    "postcode": "95697",
    "city": "Hohenbrand"
  },
  {
    "postcode": "95697",
    "city": "Lochbühl"
  },
  {
    "postcode": "95697",
    "city": "Mühlbühl"
  },
  {
    "postcode": "95697",
    "city": "Nagel"
  },
  {
    "postcode": "95697",
    "city": "Nagel Oberfranken"
  },
  {
    "postcode": "95697",
    "city": "Reichenbach"
  },
  {
    "postcode": "95697",
    "city": "Wurmloh"
  },
  {
    "postcode": "95697",
    "city": "Wunsiedel im Fichtelgebirge"
  },
  {
    "postcode": "95697",
    "city": "Reissingerhöhe"
  },
  {
    "postcode": "95697",
    "city": "Ölbühl"
  },
  {
    "postcode": "95698",
    "city": "Altmugl"
  },
  {
    "postcode": "95698",
    "city": "Ernestgrün"
  },
  {
    "postcode": "95698",
    "city": "Hardeck"
  },
  {
    "postcode": "95698",
    "city": "Maiersreuth"
  },
  {
    "postcode": "95698",
    "city": "Motzersreuth"
  },
  {
    "postcode": "95698",
    "city": "Neualbenreuth"
  },
  {
    "postcode": "95698",
    "city": "Ottengrün"
  },
  {
    "postcode": "95698",
    "city": "Poxdorf"
  },
  {
    "postcode": "95698",
    "city": "Schachten"
  },
  {
    "postcode": "95698",
    "city": "Wernersreuth"
  },
  {
    "postcode": "95698",
    "city": "Tirschenreuth"
  },
  {
    "postcode": "95698",
    "city": "Bad Neualbenreuth"
  },
  {
    "postcode": "95698",
    "city": "Buchgut"
  },
  {
    "postcode": "95698",
    "city": "Egglasgrün"
  },
  {
    "postcode": "95698",
    "city": "Habertsmühle"
  },
  {
    "postcode": "95698",
    "city": "Kappl"
  },
  {
    "postcode": "95698",
    "city": "Muglmühle"
  },
  {
    "postcode": "95698",
    "city": "Panzen"
  },
  {
    "postcode": "95698",
    "city": "Platzermühle"
  },
  {
    "postcode": "95698",
    "city": "Pointmühle"
  },
  {
    "postcode": "95698",
    "city": "Rennermühle"
  },
  {
    "postcode": "95698",
    "city": "Rothmühle"
  },
  {
    "postcode": "95698",
    "city": "Troglauermühle"
  },
  {
    "postcode": "95700",
    "city": "Neusorg"
  },
  {
    "postcode": "95700",
    "city": "Neusorg im Fichtelgebirge"
  },
  {
    "postcode": "95700",
    "city": "Riglasreuth"
  },
  {
    "postcode": "95700",
    "city": "Schwarzenreuth Oberpfalz"
  },
  {
    "postcode": "95700",
    "city": "Schwarzenreuth"
  },
  {
    "postcode": "95700",
    "city": "Stockau"
  },
  {
    "postcode": "95700",
    "city": "Stöcken Gemeinde Neusorg"
  },
  {
    "postcode": "95700",
    "city": "Stöcken"
  },
  {
    "postcode": "95700",
    "city": "Wernersreuth"
  },
  {
    "postcode": "95700",
    "city": "Tirschenreuth"
  },
  {
    "postcode": "95700",
    "city": "Weihermühle"
  },
  {
    "postcode": "95700",
    "city": "Wäsch"
  },
  {
    "postcode": "95701",
    "city": "Groschlattengrün"
  },
  {
    "postcode": "95701",
    "city": "Pechbrunn"
  },
  {
    "postcode": "95701",
    "city": "Tirschenreuth"
  },
  {
    "postcode": "95703",
    "city": "Albernhof Oberpfalz"
  },
  {
    "postcode": "95703",
    "city": "Albernhof"
  },
  {
    "postcode": "95703",
    "city": "Auerberg Oberpfalz"
  },
  {
    "postcode": "95703",
    "city": "Auerberg"
  },
  {
    "postcode": "95703",
    "city": "Beidl"
  },
  {
    "postcode": "95703",
    "city": "Dreihöf Kreis Tirschenreuth"
  },
  {
    "postcode": "95703",
    "city": "Dreihöf"
  },
  {
    "postcode": "95703",
    "city": "Dürnkonreuth"
  },
  {
    "postcode": "95703",
    "city": "Erkersreuth"
  },
  {
    "postcode": "95703",
    "city": "Frankengut Kreis Tirschenreuth"
  },
  {
    "postcode": "95703",
    "city": "Frankengut"
  },
  {
    "postcode": "95703",
    "city": "Geisleithen Kreis Tirschenreuth"
  },
  {
    "postcode": "95703",
    "city": "Geisleithen"
  },
  {
    "postcode": "95703",
    "city": "Honnersreuth"
  },
  {
    "postcode": "95703",
    "city": "Krähenhaus Kreis Tirschenreuth"
  },
  {
    "postcode": "95703",
    "city": "Krähenhaus"
  },
  {
    "postcode": "95703",
    "city": "Leichau"
  },
  {
    "postcode": "95703",
    "city": "Liebenstein"
  },
  {
    "postcode": "95703",
    "city": "Ödschönlind Kreis Tirschenreuth"
  },
  {
    "postcode": "95703",
    "city": "Ödschönlind"
  },
  {
    "postcode": "95703",
    "city": "Plößberg"
  },
  {
    "postcode": "95703",
    "city": "Plößberg Oberpfalz"
  },
  {
    "postcode": "95703",
    "city": "Prommenhof Kreis Tirschenreuth"
  },
  {
    "postcode": "95703",
    "city": "Prommenhof"
  },
  {
    "postcode": "95703",
    "city": "Rothhof Kreis Tirschenreuth"
  },
  {
    "postcode": "95703",
    "city": "Rothhof"
  },
  {
    "postcode": "95703",
    "city": "Schirnbrunn Oberpfalz"
  },
  {
    "postcode": "95703",
    "city": "Schirnbrunn"
  },
  {
    "postcode": "95703",
    "city": "Schleif"
  },
  {
    "postcode": "95703",
    "city": "Schönficht"
  },
  {
    "postcode": "95703",
    "city": "Schönkirch"
  },
  {
    "postcode": "95703",
    "city": "Schönthan"
  },
  {
    "postcode": "95703",
    "city": "Stein"
  },
  {
    "postcode": "95703",
    "city": "Streißenreuth Oberpfalz"
  },
  {
    "postcode": "95703",
    "city": "Streißenreuth"
  },
  {
    "postcode": "95703",
    "city": "Wildenau Oberpfalz"
  },
  {
    "postcode": "95703",
    "city": "Wildenau"
  },
  {
    "postcode": "95703",
    "city": "Tirschenreuth"
  },
  {
    "postcode": "95703",
    "city": "Betzenmühle"
  },
  {
    "postcode": "95703",
    "city": "Beidlmühle"
  },
  {
    "postcode": "95703",
    "city": "Bodenmühle"
  },
  {
    "postcode": "95703",
    "city": "Geißenreuth"
  },
  {
    "postcode": "95703",
    "city": "Kriegermühle"
  },
  {
    "postcode": "95703",
    "city": "Neuteichhof"
  },
  {
    "postcode": "95703",
    "city": "Schafmühle"
  },
  {
    "postcode": "95703",
    "city": "Waffenhammer"
  },
  {
    "postcode": "95703",
    "city": "Winkelmühle"
  },
  {
    "postcode": "95703",
    "city": "Zankelhut"
  },
  {
    "postcode": "95703",
    "city": "Ziegelhütte"
  },
  {
    "postcode": "95704",
    "city": "Arnoldsreuth"
  },
  {
    "postcode": "95704",
    "city": "Dechantsees"
  },
  {
    "postcode": "95704",
    "city": "Dreihäuser"
  },
  {
    "postcode": "95704",
    "city": "Haid"
  },
  {
    "postcode": "95704",
    "city": "Harlachberg Gemeinde Pullenreuth"
  },
  {
    "postcode": "95704",
    "city": "Harlachberg"
  },
  {
    "postcode": "95704",
    "city": "Haselbrunn"
  },
  {
    "postcode": "95704",
    "city": "Höll"
  },
  {
    "postcode": "95704",
    "city": "Kreuzweiher"
  },
  {
    "postcode": "95704",
    "city": "Kronau Oberpfalz"
  },
  {
    "postcode": "95704",
    "city": "Kronau"
  },
  {
    "postcode": "95704",
    "city": "Kunzenlohe"
  },
  {
    "postcode": "95704",
    "city": "Langentheilen"
  },
  {
    "postcode": "95704",
    "city": "Leimgruben"
  },
  {
    "postcode": "95704",
    "city": "Lochau"
  },
  {
    "postcode": "95704",
    "city": "Mengersreuth"
  },
  {
    "postcode": "95704",
    "city": "Neuhof"
  },
  {
    "postcode": "95704",
    "city": "Neuköslarn"
  },
  {
    "postcode": "95704",
    "city": "Pilgramsreuth"
  },
  {
    "postcode": "95704",
    "city": "Pullenreuth"
  },
  {
    "postcode": "95704",
    "city": "Rothenfurth"
  },
  {
    "postcode": "95704",
    "city": "Schindellohe"
  },
  {
    "postcode": "95704",
    "city": "Trevesen"
  },
  {
    "postcode": "95704",
    "city": "Trevesenhammer"
  },
  {
    "postcode": "95704",
    "city": "Tirschenreuth"
  },
  {
    "postcode": "95704",
    "city": "Funkenau"
  },
  {
    "postcode": "95704",
    "city": "Glasschleif"
  },
  {
    "postcode": "95704",
    "city": "Haidelfurth"
  },
  {
    "postcode": "95704",
    "city": "Kautzenhof"
  },
  {
    "postcode": "95704",
    "city": "Kellermühle"
  },
  {
    "postcode": "95704",
    "city": "Neuweiher"
  },
  {
    "postcode": "95704",
    "city": "Rehbühl"
  },
  {
    "postcode": "95704",
    "city": "Schlag"
  },
  {
    "postcode": "95704",
    "city": "Tannenhäusl"
  },
  {
    "postcode": "95704",
    "city": "Zottenwies"
  },
  {
    "postcode": "95706",
    "city": "Dietersgrün Oberfranken"
  },
  {
    "postcode": "95706",
    "city": "Dietersgrün"
  },
  {
    "postcode": "95706",
    "city": "Fischern Oberfranken"
  },
  {
    "postcode": "95706",
    "city": "Fischern"
  },
  {
    "postcode": "95706",
    "city": "Raithenbach Oberfranken"
  },
  {
    "postcode": "95706",
    "city": "Raithenbach"
  },
  {
    "postcode": "95706",
    "city": "Schirnding"
  },
  {
    "postcode": "95706",
    "city": "Seedorf Oberfranken"
  },
  {
    "postcode": "95706",
    "city": "Seedorf"
  },
  {
    "postcode": "95706",
    "city": "Wunsiedel im Fichtelgebirge"
  },
  {
    "postcode": "95706",
    "city": "Ottenlohe"
  },
  {
    "postcode": "95706",
    "city": "Weidighaus"
  },
  {
    "postcode": "95706",
    "city": "Ziegelhütte"
  },
  {
    "postcode": "95707",
    "city": "Grafenreuth"
  },
  {
    "postcode": "95707",
    "city": "Kothigenbibersbach"
  },
  {
    "postcode": "95707",
    "city": "Leutenberg"
  },
  {
    "postcode": "95707",
    "city": "Neuenreuth"
  },
  {
    "postcode": "95707",
    "city": "Stemmas"
  },
  {
    "postcode": "95707",
    "city": "Thiersheim"
  },
  {
    "postcode": "95707",
    "city": "Wampen"
  },
  {
    "postcode": "95707",
    "city": "Wunsiedel im Fichtelgebirge"
  },
  {
    "postcode": "95707",
    "city": "Altdürrlas"
  },
  {
    "postcode": "95707",
    "city": "Böhmmühle"
  },
  {
    "postcode": "95707",
    "city": "Berthardsruhe"
  },
  {
    "postcode": "95707",
    "city": "Kleehof"
  },
  {
    "postcode": "95707",
    "city": "Mittelmühle"
  },
  {
    "postcode": "95707",
    "city": "Putzenmühle"
  },
  {
    "postcode": "95707",
    "city": "Steinhaus"
  },
  {
    "postcode": "95709",
    "city": "Eulenloh"
  },
  {
    "postcode": "95709",
    "city": "Fahrenbach"
  },
  {
    "postcode": "95709",
    "city": "Furthammer"
  },
  {
    "postcode": "95709",
    "city": "Grötschenreuth"
  },
  {
    "postcode": "95709",
    "city": "Kühlgrün"
  },
  {
    "postcode": "95709",
    "city": "Leupoldsdorf"
  },
  {
    "postcode": "95709",
    "city": "Tröstau"
  },
  {
    "postcode": "95709",
    "city": "Vierst"
  },
  {
    "postcode": "95709",
    "city": "Vordorf"
  },
  {
    "postcode": "95709",
    "city": "Vordorfermühle"
  },
  {
    "postcode": "95709",
    "city": "Wunsiedel im Fichtelgebirge"
  },
  {
    "postcode": "95709",
    "city": "Leupoldshammer"
  },
  {
    "postcode": "95709",
    "city": "Grötschenmühle"
  },
  {
    "postcode": "95709",
    "city": "Tröstauer Forst-West"
  },
  {
    "postcode": "95709",
    "city": "Neuenhammer"
  },
  {
    "postcode": "95709",
    "city": "Rohrmühle"
  },
  {
    "postcode": "95709",
    "city": "Seehaus"
  },
  {
    "postcode": "95709",
    "city": "Waffenhammer"
  },
  {
    "postcode": "95709",
    "city": "Weißenstadter Forst-Süd"
  }
]