[
  {
    "postcode": "72070",
    "city": "Hagelloch"
  },
  {
    "postcode": "72070",
    "city": "Hirschau"
  },
  {
    "postcode": "72070",
    "city": "Innenstadt"
  },
  {
    "postcode": "72070",
    "city": "Tübingen"
  },
  {
    "postcode": "72070",
    "city": "Unterjesingen"
  },
  {
    "postcode": "72070",
    "city": "Weststadt"
  },
  {
    "postcode": "72070",
    "city": "Hohenentringen"
  },
  {
    "postcode": "72070",
    "city": "Rottenburg"
  },
  {
    "postcode": "72070",
    "city": "Rottenburg am Neckar"
  },
  {
    "postcode": "72072",
    "city": "Bühl"
  },
  {
    "postcode": "72072",
    "city": "Derendingen"
  },
  {
    "postcode": "72072",
    "city": "Gartenstadt"
  },
  {
    "postcode": "72072",
    "city": "Innenstadt"
  },
  {
    "postcode": "72072",
    "city": "Kilchberg"
  },
  {
    "postcode": "72072",
    "city": "Lustnau"
  },
  {
    "postcode": "72072",
    "city": "Südstadt"
  },
  {
    "postcode": "72072",
    "city": "Tübingen"
  },
  {
    "postcode": "72072",
    "city": "Weilheim"
  },
  {
    "postcode": "72072",
    "city": "Kreßbach"
  },
  {
    "postcode": "72074",
    "city": "Bebenhausen"
  },
  {
    "postcode": "72074",
    "city": "Denzenberg"
  },
  {
    "postcode": "72074",
    "city": "Innenstadt"
  },
  {
    "postcode": "72074",
    "city": "Lustnau"
  },
  {
    "postcode": "72074",
    "city": "Österberg"
  },
  {
    "postcode": "72074",
    "city": "Pfrondorf"
  },
  {
    "postcode": "72074",
    "city": "Tübingen"
  },
  {
    "postcode": "72074",
    "city": "Hirschau"
  },
  {
    "postcode": "72074",
    "city": "Unterjesingen"
  },
  {
    "postcode": "72076",
    "city": "Innenstadt"
  },
  {
    "postcode": "72076",
    "city": "Nordstadt"
  },
  {
    "postcode": "72076",
    "city": "Sand"
  },
  {
    "postcode": "72076",
    "city": "Tübingen"
  },
  {
    "postcode": "72076",
    "city": "Waldhäuser"
  },
  {
    "postcode": "72076",
    "city": "Waldhäuser-Ost"
  },
  {
    "postcode": "72076",
    "city": "Wanne"
  },
  {
    "postcode": "72076",
    "city": "Weilheim"
  },
  {
    "postcode": "72108",
    "city": "Bad Niedernau"
  },
  {
    "postcode": "72108",
    "city": "Baisingen"
  },
  {
    "postcode": "72108",
    "city": "Bieringen"
  },
  {
    "postcode": "72108",
    "city": "Dettingen"
  },
  {
    "postcode": "72108",
    "city": "Eckenweiler"
  },
  {
    "postcode": "72108",
    "city": "Ergenzingen"
  },
  {
    "postcode": "72108",
    "city": "Frommenhausen"
  },
  {
    "postcode": "72108",
    "city": "Hailfingen"
  },
  {
    "postcode": "72108",
    "city": "Hemmendorf"
  },
  {
    "postcode": "72108",
    "city": "Kiebingen"
  },
  {
    "postcode": "72108",
    "city": "Obernau"
  },
  {
    "postcode": "72108",
    "city": "Oberndorf"
  },
  {
    "postcode": "72108",
    "city": "Rottenburg"
  },
  {
    "postcode": "72108",
    "city": "Rottenburg am Neckar"
  },
  {
    "postcode": "72108",
    "city": "Schwalldorf"
  },
  {
    "postcode": "72108",
    "city": "Seebronn"
  },
  {
    "postcode": "72108",
    "city": "Weiler"
  },
  {
    "postcode": "72108",
    "city": "Wendelsheim"
  },
  {
    "postcode": "72108",
    "city": "Wurmlingen"
  },
  {
    "postcode": "72108",
    "city": "Tübingen"
  },
  {
    "postcode": "72108",
    "city": "Kloster Liebfrauenhöhe"
  },
  {
    "postcode": "72116",
    "city": "Bad Sebastiansweiler"
  },
  {
    "postcode": "72116",
    "city": "Belsen"
  },
  {
    "postcode": "72116",
    "city": "Mössingen"
  },
  {
    "postcode": "72116",
    "city": "Öschingen"
  },
  {
    "postcode": "72116",
    "city": "Talheim"
  },
  {
    "postcode": "72116",
    "city": "Tübingen"
  },
  {
    "postcode": "72119",
    "city": "Altingen"
  },
  {
    "postcode": "72119",
    "city": "Ammerbuch"
  },
  {
    "postcode": "72119",
    "city": "Breitenholz"
  },
  {
    "postcode": "72119",
    "city": "Entringen"
  },
  {
    "postcode": "72119",
    "city": "Pfäffingen"
  },
  {
    "postcode": "72119",
    "city": "Poltringen"
  },
  {
    "postcode": "72119",
    "city": "Reusten"
  },
  {
    "postcode": "72119",
    "city": "Tübingen"
  },
  {
    "postcode": "72124",
    "city": "Dörnach"
  },
  {
    "postcode": "72124",
    "city": "Gniebel"
  },
  {
    "postcode": "72124",
    "city": "Pliezhausen"
  },
  {
    "postcode": "72124",
    "city": "Rübgarten"
  },
  {
    "postcode": "72124",
    "city": "Reutlingen"
  },
  {
    "postcode": "72127",
    "city": "Immenhausen"
  },
  {
    "postcode": "72127",
    "city": "Jettenburg"
  },
  {
    "postcode": "72127",
    "city": "Kusterdingen"
  },
  {
    "postcode": "72127",
    "city": "Mähringen"
  },
  {
    "postcode": "72127",
    "city": "Wankheim"
  },
  {
    "postcode": "72127",
    "city": "Tübingen"
  },
  {
    "postcode": "72131",
    "city": "Ofterdingen"
  },
  {
    "postcode": "72131",
    "city": "Tübingen"
  },
  {
    "postcode": "72135",
    "city": "Dettenhausen (Württemberg)"
  },
  {
    "postcode": "72135",
    "city": "Dettenhausen"
  },
  {
    "postcode": "72135",
    "city": "Tübingen"
  },
  {
    "postcode": "72138",
    "city": "Kirchentellinsfurt"
  },
  {
    "postcode": "72138",
    "city": "Tübingen"
  },
  {
    "postcode": "72138",
    "city": "Im Hengstrain"
  },
  {
    "postcode": "72141",
    "city": "Häslach"
  },
  {
    "postcode": "72141",
    "city": "Walddorf"
  },
  {
    "postcode": "72141",
    "city": "Walddorfhäslach"
  },
  {
    "postcode": "72141",
    "city": "Reutlingen"
  },
  {
    "postcode": "72144",
    "city": "Dußlingen"
  },
  {
    "postcode": "72144",
    "city": "Tübingen"
  },
  {
    "postcode": "72144",
    "city": "Nehren"
  },
  {
    "postcode": "72145",
    "city": "Hirrlingen Kreis Tübingen"
  },
  {
    "postcode": "72145",
    "city": "Hirrlingen"
  },
  {
    "postcode": "72145",
    "city": "Tübingen"
  },
  {
    "postcode": "72147",
    "city": "Nehren (Württemberg)"
  },
  {
    "postcode": "72147",
    "city": "Nehren"
  },
  {
    "postcode": "72147",
    "city": "Tübingen"
  },
  {
    "postcode": "72149",
    "city": "Nellingsheim"
  },
  {
    "postcode": "72149",
    "city": "Neustetten (Württemberg)"
  },
  {
    "postcode": "72149",
    "city": "Neustetten"
  },
  {
    "postcode": "72149",
    "city": "Remmingsheim"
  },
  {
    "postcode": "72149",
    "city": "Wolfenhausen"
  },
  {
    "postcode": "72149",
    "city": "Tübingen"
  },
  {
    "postcode": "72160",
    "city": "Ahldorf"
  },
  {
    "postcode": "72160",
    "city": "Altheim"
  },
  {
    "postcode": "72160",
    "city": "Betra"
  },
  {
    "postcode": "72160",
    "city": "Bildechingen"
  },
  {
    "postcode": "72160",
    "city": "Bittelbronn"
  },
  {
    "postcode": "72160",
    "city": "Dettensee"
  },
  {
    "postcode": "72160",
    "city": "Dießen"
  },
  {
    "postcode": "72160",
    "city": "Egelstal"
  },
  {
    "postcode": "72160",
    "city": "Grünmettstetten"
  },
  {
    "postcode": "72160",
    "city": "Haidenhof"
  },
  {
    "postcode": "72160",
    "city": "Horb"
  },
  {
    "postcode": "72160",
    "city": "Horb am Neckar"
  },
  {
    "postcode": "72160",
    "city": "Ihlingen"
  },
  {
    "postcode": "72160",
    "city": "Isenburg"
  },
  {
    "postcode": "72160",
    "city": "Mühlen"
  },
  {
    "postcode": "72160",
    "city": "Mühringen"
  },
  {
    "postcode": "72160",
    "city": "Neckarhausen"
  },
  {
    "postcode": "72160",
    "city": "Nordstetten"
  },
  {
    "postcode": "72160",
    "city": "Oberhof (Neckar)"
  },
  {
    "postcode": "72160",
    "city": "Oberhof"
  },
  {
    "postcode": "72160",
    "city": "Obertalheim"
  },
  {
    "postcode": "72160",
    "city": "Priorberg"
  },
  {
    "postcode": "72160",
    "city": "Rexingen"
  },
  {
    "postcode": "72160",
    "city": "Untertalheim"
  },
  {
    "postcode": "72160",
    "city": "Freudenstadt"
  },
  {
    "postcode": "72160",
    "city": "Talheim"
  },
  {
    "postcode": "72160",
    "city": "Dettingen"
  },
  {
    "postcode": "72160",
    "city": "Dettlingen"
  },
  {
    "postcode": "72172",
    "city": "Bergfelden"
  },
  {
    "postcode": "72172",
    "city": "Dürrenmettstetten"
  },
  {
    "postcode": "72172",
    "city": "Fischingen"
  },
  {
    "postcode": "72172",
    "city": "Glatt"
  },
  {
    "postcode": "72172",
    "city": "Holzhausen"
  },
  {
    "postcode": "72172",
    "city": "Hopfau"
  },
  {
    "postcode": "72172",
    "city": "Mühlheim"
  },
  {
    "postcode": "72172",
    "city": "Neunthausen"
  },
  {
    "postcode": "72172",
    "city": "Renfrizhausen"
  },
  {
    "postcode": "72172",
    "city": "Sigmarswangen"
  },
  {
    "postcode": "72172",
    "city": "Sulz"
  },
  {
    "postcode": "72172",
    "city": "Sulz am Neckar"
  },
  {
    "postcode": "72172",
    "city": "Viehhaus"
  },
  {
    "postcode": "72172",
    "city": "Ziegelhütte"
  },
  {
    "postcode": "72172",
    "city": "Rottweil"
  },
  {
    "postcode": "72175",
    "city": "Aischfeld"
  },
  {
    "postcode": "72175",
    "city": "Bettenhausen"
  },
  {
    "postcode": "72175",
    "city": "Busenweiler"
  },
  {
    "postcode": "72175",
    "city": "Dobel"
  },
  {
    "postcode": "72175",
    "city": "Dornhan"
  },
  {
    "postcode": "72175",
    "city": "Fürnsal"
  },
  {
    "postcode": "72175",
    "city": "Gundelshausen"
  },
  {
    "postcode": "72175",
    "city": "Leinstetten"
  },
  {
    "postcode": "72175",
    "city": "Marschalkenzimmern"
  },
  {
    "postcode": "72175",
    "city": "Weiden"
  },
  {
    "postcode": "72175",
    "city": "Rottweil"
  },
  {
    "postcode": "72178",
    "city": "Cresbach"
  },
  {
    "postcode": "72178",
    "city": "Heiligenbronn"
  },
  {
    "postcode": "72178",
    "city": "Hörschweiler"
  },
  {
    "postcode": "72178",
    "city": "Lützenhardt"
  },
  {
    "postcode": "72178",
    "city": "Oberwaldach"
  },
  {
    "postcode": "72178",
    "city": "Salzstetten"
  },
  {
    "postcode": "72178",
    "city": "Tumlingen"
  },
  {
    "postcode": "72178",
    "city": "Unterwaldach"
  },
  {
    "postcode": "72178",
    "city": "Vesperweiler"
  },
  {
    "postcode": "72178",
    "city": "Vörbach"
  },
  {
    "postcode": "72178",
    "city": "Waldachtal"
  },
  {
    "postcode": "72178",
    "city": "Freudenstadt"
  },
  {
    "postcode": "72178",
    "city": "Feriendorf Waldachtal"
  },
  {
    "postcode": "72178",
    "city": "Oberwaldachtal"
  },
  {
    "postcode": "72181",
    "city": "Bierlingen"
  },
  {
    "postcode": "72181",
    "city": "Börstingen"
  },
  {
    "postcode": "72181",
    "city": "Felldorf"
  },
  {
    "postcode": "72181",
    "city": "Starzach"
  },
  {
    "postcode": "72181",
    "city": "Sulzau"
  },
  {
    "postcode": "72181",
    "city": "Wachendorf"
  },
  {
    "postcode": "72181",
    "city": "Weitenburg"
  },
  {
    "postcode": "72181",
    "city": "Tübingen"
  },
  {
    "postcode": "72181",
    "city": "Feriengebiet Holzwiesen"
  },
  {
    "postcode": "72184",
    "city": "Eutingen"
  },
  {
    "postcode": "72184",
    "city": "Eutingen im Gäu"
  },
  {
    "postcode": "72184",
    "city": "Göttelfingen"
  },
  {
    "postcode": "72184",
    "city": "Rohrdorf"
  },
  {
    "postcode": "72184",
    "city": "Weitingen"
  },
  {
    "postcode": "72184",
    "city": "Freudenstadt"
  },
  {
    "postcode": "72186",
    "city": "Dommelsberg"
  },
  {
    "postcode": "72186",
    "city": "Empfingen"
  },
  {
    "postcode": "72186",
    "city": "Wiesenstetten"
  },
  {
    "postcode": "72186",
    "city": "Freudenstadt"
  },
  {
    "postcode": "72189",
    "city": "Vöhringen"
  },
  {
    "postcode": "72189",
    "city": "Vöhringen (Württemberg)"
  },
  {
    "postcode": "72189",
    "city": "Wittershausen"
  },
  {
    "postcode": "72189",
    "city": "Rottweil"
  },
  {
    "postcode": "72189",
    "city": "Oberndorf"
  },
  {
    "postcode": "72189",
    "city": "Oberndorf am Neckar"
  },
  {
    "postcode": "72202",
    "city": "Emmingen"
  },
  {
    "postcode": "72202",
    "city": "Gündringen"
  },
  {
    "postcode": "72202",
    "city": "Hochdorf"
  },
  {
    "postcode": "72202",
    "city": "Iselshausen"
  },
  {
    "postcode": "72202",
    "city": "Mindersbach"
  },
  {
    "postcode": "72202",
    "city": "Nagold"
  },
  {
    "postcode": "72202",
    "city": "Pfrondorf"
  },
  {
    "postcode": "72202",
    "city": "Schietingen"
  },
  {
    "postcode": "72202",
    "city": "Vollmaringen"
  },
  {
    "postcode": "72202",
    "city": "Calw"
  },
  {
    "postcode": "72213",
    "city": "Altensteig"
  },
  {
    "postcode": "72213",
    "city": "Altensteig (Württemberg)"
  },
  {
    "postcode": "72213",
    "city": "Altensteigdorf"
  },
  {
    "postcode": "72213",
    "city": "Berneck"
  },
  {
    "postcode": "72213",
    "city": "Garrweiler"
  },
  {
    "postcode": "72213",
    "city": "Heselbronn"
  },
  {
    "postcode": "72213",
    "city": "Hornberg"
  },
  {
    "postcode": "72213",
    "city": "Lengenloch"
  },
  {
    "postcode": "72213",
    "city": "Monhardt"
  },
  {
    "postcode": "72213",
    "city": "Spielberg"
  },
  {
    "postcode": "72213",
    "city": "Walddorf"
  },
  {
    "postcode": "72213",
    "city": "Wart"
  },
  {
    "postcode": "72213",
    "city": "Zumweiler"
  },
  {
    "postcode": "72213",
    "city": "Calw"
  },
  {
    "postcode": "72213",
    "city": "Überberg"
  },
  {
    "postcode": "72213",
    "city": "Egenhausen"
  },
  {
    "postcode": "72218",
    "city": "Effringen"
  },
  {
    "postcode": "72218",
    "city": "Gültlingen"
  },
  {
    "postcode": "72218",
    "city": "Schönbronn"
  },
  {
    "postcode": "72218",
    "city": "Sulz am Eck"
  },
  {
    "postcode": "72218",
    "city": "Wildberg"
  },
  {
    "postcode": "72218",
    "city": "Wildberg (Württemberg)"
  },
  {
    "postcode": "72218",
    "city": "Calw"
  },
  {
    "postcode": "72221",
    "city": "Altnuifra"
  },
  {
    "postcode": "72221",
    "city": "Beihingen"
  },
  {
    "postcode": "72221",
    "city": "Haiterbach"
  },
  {
    "postcode": "72221",
    "city": "Haiterbach (Württemberg)"
  },
  {
    "postcode": "72221",
    "city": "Oberschwandorf"
  },
  {
    "postcode": "72221",
    "city": "Unterschwandorf"
  },
  {
    "postcode": "72221",
    "city": "Calw"
  },
  {
    "postcode": "72224",
    "city": "Ebershardt"
  },
  {
    "postcode": "72224",
    "city": "Ebhausen"
  },
  {
    "postcode": "72224",
    "city": "Rotfelden"
  },
  {
    "postcode": "72224",
    "city": "Wenden"
  },
  {
    "postcode": "72224",
    "city": "Calw"
  },
  {
    "postcode": "72226",
    "city": "Aichhalden"
  },
  {
    "postcode": "72226",
    "city": "Beuren"
  },
  {
    "postcode": "72226",
    "city": "Ettmannsweiler"
  },
  {
    "postcode": "72226",
    "city": "Fünfbronn"
  },
  {
    "postcode": "72226",
    "city": "Oberweiler"
  },
  {
    "postcode": "72226",
    "city": "Simmersfeld"
  },
  {
    "postcode": "72226",
    "city": "Calw"
  },
  {
    "postcode": "72226",
    "city": "Aichhalden-Oberweiler"
  },
  {
    "postcode": "72227",
    "city": "Egenhausen (Württemberg)"
  },
  {
    "postcode": "72227",
    "city": "Egenhausen"
  },
  {
    "postcode": "72227",
    "city": "Calw"
  },
  {
    "postcode": "72229",
    "city": "Rohrdorf bei Nagold"
  },
  {
    "postcode": "72229",
    "city": "Calw"
  },
  {
    "postcode": "72229",
    "city": "Rohrdorf"
  },
  {
    "postcode": "72250",
    "city": "Christophstal"
  },
  {
    "postcode": "72250",
    "city": "Dietersweiler"
  },
  {
    "postcode": "72250",
    "city": "Freudenstadt"
  },
  {
    "postcode": "72250",
    "city": "Frutenhof"
  },
  {
    "postcode": "72250",
    "city": "Grüntal"
  },
  {
    "postcode": "72250",
    "city": "Igelsberg"
  },
  {
    "postcode": "72250",
    "city": "Kniebis"
  },
  {
    "postcode": "72250",
    "city": "Lauterbad"
  },
  {
    "postcode": "72250",
    "city": "Obermusbach"
  },
  {
    "postcode": "72250",
    "city": "Untermusbach"
  },
  {
    "postcode": "72250",
    "city": "Wittlensweiler"
  },
  {
    "postcode": "72250",
    "city": "Musbach"
  },
  {
    "postcode": "72250",
    "city": "Zuflucht"
  },
  {
    "postcode": "72250",
    "city": "Zwieselberg"
  },
  {
    "postcode": "72270",
    "city": "Baiersbronn"
  },
  {
    "postcode": "72270",
    "city": "Buhlbach"
  },
  {
    "postcode": "72270",
    "city": "Friedrichstal"
  },
  {
    "postcode": "72270",
    "city": "Heselbach"
  },
  {
    "postcode": "72270",
    "city": "Huzenbach"
  },
  {
    "postcode": "72270",
    "city": "Klosterreichenbach"
  },
  {
    "postcode": "72270",
    "city": "Kohlwald"
  },
  {
    "postcode": "72270",
    "city": "Mitteltal"
  },
  {
    "postcode": "72270",
    "city": "Röt"
  },
  {
    "postcode": "72270",
    "city": "Ruhestein"
  },
  {
    "postcode": "72270",
    "city": "Schönegründ"
  },
  {
    "postcode": "72270",
    "city": "Schönmünzach"
  },
  {
    "postcode": "72270",
    "city": "Schwarzenberg"
  },
  {
    "postcode": "72270",
    "city": "Tonbach"
  },
  {
    "postcode": "72270",
    "city": "Vorderer Tonbach"
  },
  {
    "postcode": "72270",
    "city": "Zwickgabel"
  },
  {
    "postcode": "72270",
    "city": "Freudenstadt"
  },
  {
    "postcode": "72270",
    "city": "Obertal"
  },
  {
    "postcode": "72270",
    "city": "Schönmünz"
  },
  {
    "postcode": "72270",
    "city": "Leimiß"
  },
  {
    "postcode": "72270",
    "city": "Mittellangenbach"
  },
  {
    "postcode": "72270",
    "city": "Vorderlangenbach"
  },
  {
    "postcode": "72275",
    "city": "Alpirsbach"
  },
  {
    "postcode": "72275",
    "city": "Berneck"
  },
  {
    "postcode": "72275",
    "city": "Breitenwies"
  },
  {
    "postcode": "72275",
    "city": "Hönweiler"
  },
  {
    "postcode": "72275",
    "city": "Oberehlenbogen"
  },
  {
    "postcode": "72275",
    "city": "Oberes Dörfle"
  },
  {
    "postcode": "72275",
    "city": "Peterzell"
  },
  {
    "postcode": "72275",
    "city": "Reinerzau"
  },
  {
    "postcode": "72275",
    "city": "Reutin"
  },
  {
    "postcode": "72275",
    "city": "Römlinsdorf"
  },
  {
    "postcode": "72275",
    "city": "Rötenbach"
  },
  {
    "postcode": "72275",
    "city": "Rötenbächle"
  },
  {
    "postcode": "72275",
    "city": "Zelleracker"
  },
  {
    "postcode": "72275",
    "city": "Freudenstadt"
  },
  {
    "postcode": "72275",
    "city": "Ehlenbogen"
  },
  {
    "postcode": "72280",
    "city": "Aach"
  },
  {
    "postcode": "72280",
    "city": "Dornstetten"
  },
  {
    "postcode": "72280",
    "city": "Dornstetten (Württemberg)"
  },
  {
    "postcode": "72280",
    "city": "Hallwangen"
  },
  {
    "postcode": "72280",
    "city": "Lattenberg"
  },
  {
    "postcode": "72280",
    "city": "Freudenstadt"
  },
  {
    "postcode": "72280",
    "city": "Glatten"
  },
  {
    "postcode": "72285",
    "city": "Bösingen"
  },
  {
    "postcode": "72285",
    "city": "Durrweiler"
  },
  {
    "postcode": "72285",
    "city": "Edelweiler"
  },
  {
    "postcode": "72285",
    "city": "Herzogsweiler"
  },
  {
    "postcode": "72285",
    "city": "Kälberbronn"
  },
  {
    "postcode": "72285",
    "city": "Neunuifra"
  },
  {
    "postcode": "72285",
    "city": "Pfalzgrafenweiler"
  },
  {
    "postcode": "72285",
    "city": "Freudenstadt"
  },
  {
    "postcode": "72285",
    "city": "Neu-Nuifra"
  },
  {
    "postcode": "72290",
    "city": "Äußerer Vogelsberg"
  },
  {
    "postcode": "72290",
    "city": "Eichhof"
  },
  {
    "postcode": "72290",
    "city": "Grabenhof"
  },
  {
    "postcode": "72290",
    "city": "Innerer Vogelsberg"
  },
  {
    "postcode": "72290",
    "city": "Lindenbuch"
  },
  {
    "postcode": "72290",
    "city": "Lombach"
  },
  {
    "postcode": "72290",
    "city": "Loßburg"
  },
  {
    "postcode": "72290",
    "city": "Oberweiler"
  },
  {
    "postcode": "72290",
    "city": "Ödenwald"
  },
  {
    "postcode": "72290",
    "city": "Rodt"
  },
  {
    "postcode": "72290",
    "city": "Romishorn"
  },
  {
    "postcode": "72290",
    "city": "Romsgrund"
  },
  {
    "postcode": "72290",
    "city": "Schömberg"
  },
  {
    "postcode": "72290",
    "city": "Sterneck"
  },
  {
    "postcode": "72290",
    "city": "Sulzbach"
  },
  {
    "postcode": "72290",
    "city": "Trollenberg"
  },
  {
    "postcode": "72290",
    "city": "Vierundzwanzig Höfe"
  },
  {
    "postcode": "72290",
    "city": "Vordersteinwald"
  },
  {
    "postcode": "72290",
    "city": "Wittendorf"
  },
  {
    "postcode": "72290",
    "city": "Freudenstadt"
  },
  {
    "postcode": "72290",
    "city": "Betzweiler"
  },
  {
    "postcode": "72290",
    "city": "Wälde"
  },
  {
    "postcode": "72290",
    "city": "Oberbrändi"
  },
  {
    "postcode": "72290",
    "city": "Salzenweiler"
  },
  {
    "postcode": "72291",
    "city": "Betzweiler"
  },
  {
    "postcode": "72291",
    "city": "Betzweiler-Wälde"
  },
  {
    "postcode": "72291",
    "city": "Salzenweiler"
  },
  {
    "postcode": "72293",
    "city": "Böffingen"
  },
  {
    "postcode": "72293",
    "city": "Glatten"
  },
  {
    "postcode": "72293",
    "city": "Neuneck"
  },
  {
    "postcode": "72293",
    "city": "Freudenstadt"
  },
  {
    "postcode": "72294",
    "city": "Grömbach"
  },
  {
    "postcode": "72294",
    "city": "Freudenstadt"
  },
  {
    "postcode": "72296",
    "city": "Oberiflingen"
  },
  {
    "postcode": "72296",
    "city": "Schopfloch"
  },
  {
    "postcode": "72296",
    "city": "Schopfloch (Kreis Freudenstadt)"
  },
  {
    "postcode": "72296",
    "city": "Unteriflingen"
  },
  {
    "postcode": "72296",
    "city": "Freudenstadt"
  },
  {
    "postcode": "72297",
    "city": "Allmandle"
  },
  {
    "postcode": "72297",
    "city": "Besenfeld"
  },
  {
    "postcode": "72297",
    "city": "Eisenbach"
  },
  {
    "postcode": "72297",
    "city": "Erzgrube"
  },
  {
    "postcode": "72297",
    "city": "Göttelfingen"
  },
  {
    "postcode": "72297",
    "city": "Hochdorf"
  },
  {
    "postcode": "72297",
    "city": "Schernbach"
  },
  {
    "postcode": "72297",
    "city": "Schorrental Gemeinde Besenfeld"
  },
  {
    "postcode": "72297",
    "city": "Schorrental"
  },
  {
    "postcode": "72297",
    "city": "Seewald"
  },
  {
    "postcode": "72297",
    "city": "Urnagold"
  },
  {
    "postcode": "72297",
    "city": "Freudenstadt"
  },
  {
    "postcode": "72297",
    "city": "Morgental"
  },
  {
    "postcode": "72297",
    "city": "Omersbach"
  },
  {
    "postcode": "72297",
    "city": "Pfaffenstube"
  },
  {
    "postcode": "72297",
    "city": "Völmlesmühle"
  },
  {
    "postcode": "72299",
    "city": "Wörnersberg"
  },
  {
    "postcode": "72299",
    "city": "Freudenstadt"
  },
  {
    "postcode": "72336",
    "city": "Balingen"
  },
  {
    "postcode": "72336",
    "city": "Dürrwangen"
  },
  {
    "postcode": "72336",
    "city": "Endingen"
  },
  {
    "postcode": "72336",
    "city": "Engstlatt"
  },
  {
    "postcode": "72336",
    "city": "Erzingen"
  },
  {
    "postcode": "72336",
    "city": "Frommern"
  },
  {
    "postcode": "72336",
    "city": "Heselwangen"
  },
  {
    "postcode": "72336",
    "city": "Ostdorf"
  },
  {
    "postcode": "72336",
    "city": "Roßwangen"
  },
  {
    "postcode": "72336",
    "city": "Stockenhausen"
  },
  {
    "postcode": "72336",
    "city": "Streichen"
  },
  {
    "postcode": "72336",
    "city": "Weilstetten"
  },
  {
    "postcode": "72336",
    "city": "Zillhausen"
  },
  {
    "postcode": "72336",
    "city": "Zollernalbkreis"
  },
  {
    "postcode": "72348",
    "city": "Bickelsberg"
  },
  {
    "postcode": "72348",
    "city": "Brittheim"
  },
  {
    "postcode": "72348",
    "city": "Heiligenzimmern"
  },
  {
    "postcode": "72348",
    "city": "Isingen"
  },
  {
    "postcode": "72348",
    "city": "Leidringen"
  },
  {
    "postcode": "72348",
    "city": "Rosenfeld"
  },
  {
    "postcode": "72348",
    "city": "Rosenfeld (Württemberg)"
  },
  {
    "postcode": "72348",
    "city": "Seehof"
  },
  {
    "postcode": "72348",
    "city": "Täbingen"
  },
  {
    "postcode": "72348",
    "city": "Zollernalbkreis"
  },
  {
    "postcode": "72351",
    "city": "Binsdorf"
  },
  {
    "postcode": "72351",
    "city": "Erlaheim"
  },
  {
    "postcode": "72351",
    "city": "Geislingen"
  },
  {
    "postcode": "72351",
    "city": "Geislingen bei Balingen"
  },
  {
    "postcode": "72351",
    "city": "Zollernalbkreis"
  },
  {
    "postcode": "72355",
    "city": "Schömberg"
  },
  {
    "postcode": "72355",
    "city": "Schömberg bei Balingen"
  },
  {
    "postcode": "72355",
    "city": "Schörzingen"
  },
  {
    "postcode": "72355",
    "city": "Zollernalbkreis"
  },
  {
    "postcode": "72356",
    "city": "Dautmergen"
  },
  {
    "postcode": "72356",
    "city": "Zollernalbkreis"
  },
  {
    "postcode": "72358",
    "city": "Dormettingen"
  },
  {
    "postcode": "72358",
    "city": "Zollernalbkreis"
  },
  {
    "postcode": "72359",
    "city": "Dotternhausen"
  },
  {
    "postcode": "72359",
    "city": "Zollernalbkreis"
  },
  {
    "postcode": "72361",
    "city": "Hausen am Tann"
  },
  {
    "postcode": "72361",
    "city": "Oberhausen"
  },
  {
    "postcode": "72361",
    "city": "Zollernalbkreis"
  },
  {
    "postcode": "72362",
    "city": "Dietstaig"
  },
  {
    "postcode": "72362",
    "city": "Harthöfe"
  },
  {
    "postcode": "72362",
    "city": "Heidenstadt"
  },
  {
    "postcode": "72362",
    "city": "Nusplingen Württemberg"
  },
  {
    "postcode": "72362",
    "city": "Nusplingen"
  },
  {
    "postcode": "72362",
    "city": "Zollernalbkreis"
  },
  {
    "postcode": "72364",
    "city": "Obernheim Württemberg"
  },
  {
    "postcode": "72364",
    "city": "Obernheim"
  },
  {
    "postcode": "72364",
    "city": "Tanneck"
  },
  {
    "postcode": "72364",
    "city": "Zollernalbkreis"
  },
  {
    "postcode": "72365",
    "city": "Ratshausen"
  },
  {
    "postcode": "72365",
    "city": "Zollernalbkreis"
  },
  {
    "postcode": "72367",
    "city": "Weilen unter den Rinnen"
  },
  {
    "postcode": "72367",
    "city": "Zollernalbkreis"
  },
  {
    "postcode": "72369",
    "city": "Zimmern unter der Burg"
  },
  {
    "postcode": "72369",
    "city": "Zollernalbkreis"
  },
  {
    "postcode": "72379",
    "city": "Bechtoldsweiler"
  },
  {
    "postcode": "72379",
    "city": "Beuren"
  },
  {
    "postcode": "72379",
    "city": "Boll"
  },
  {
    "postcode": "72379",
    "city": "Hechingen"
  },
  {
    "postcode": "72379",
    "city": "Schlatt"
  },
  {
    "postcode": "72379",
    "city": "Sickingen"
  },
  {
    "postcode": "72379",
    "city": "Stein"
  },
  {
    "postcode": "72379",
    "city": "Stetten bei Hechingen"
  },
  {
    "postcode": "72379",
    "city": "Weilheim"
  },
  {
    "postcode": "72379",
    "city": "Zollernalbkreis"
  },
  {
    "postcode": "72379",
    "city": "Burg Hohenzollern"
  },
  {
    "postcode": "72379",
    "city": "Stetten"
  },
  {
    "postcode": "72393",
    "city": "Burladingen"
  },
  {
    "postcode": "72393",
    "city": "Gauselfingen"
  },
  {
    "postcode": "72393",
    "city": "Hausen"
  },
  {
    "postcode": "72393",
    "city": "Hörschwag"
  },
  {
    "postcode": "72393",
    "city": "Killer"
  },
  {
    "postcode": "72393",
    "city": "Küche"
  },
  {
    "postcode": "72393",
    "city": "Melchingen"
  },
  {
    "postcode": "72393",
    "city": "Ringingen"
  },
  {
    "postcode": "72393",
    "city": "Salmendingen"
  },
  {
    "postcode": "72393",
    "city": "Starzeln"
  },
  {
    "postcode": "72393",
    "city": "Stetten"
  },
  {
    "postcode": "72393",
    "city": "Zollernalbkreis"
  },
  {
    "postcode": "72393",
    "city": "Hermannsdorf"
  },
  {
    "postcode": "72401",
    "city": "Bad Imnau"
  },
  {
    "postcode": "72401",
    "city": "Bittelbronn"
  },
  {
    "postcode": "72401",
    "city": "Gruol"
  },
  {
    "postcode": "72401",
    "city": "Haigerloch"
  },
  {
    "postcode": "72401",
    "city": "Hart"
  },
  {
    "postcode": "72401",
    "city": "Owingen"
  },
  {
    "postcode": "72401",
    "city": "Stetten bei Haigerloch"
  },
  {
    "postcode": "72401",
    "city": "Trillfingen"
  },
  {
    "postcode": "72401",
    "city": "Weildorf"
  },
  {
    "postcode": "72401",
    "city": "Zollernalbkreis"
  },
  {
    "postcode": "72401",
    "city": "Stetten"
  },
  {
    "postcode": "72406",
    "city": "Bisingen"
  },
  {
    "postcode": "72406",
    "city": "Bisingen bei Hechingen"
  },
  {
    "postcode": "72406",
    "city": "Steinhofen"
  },
  {
    "postcode": "72406",
    "city": "Thanheim"
  },
  {
    "postcode": "72406",
    "city": "Wessingen"
  },
  {
    "postcode": "72406",
    "city": "Zimmern"
  },
  {
    "postcode": "72406",
    "city": "Zollernalbkreis"
  },
  {
    "postcode": "72411",
    "city": "Bodelshausen"
  },
  {
    "postcode": "72411",
    "city": "Oberhausen"
  },
  {
    "postcode": "72411",
    "city": "Tübingen"
  },
  {
    "postcode": "72414",
    "city": "Bietenhausen"
  },
  {
    "postcode": "72414",
    "city": "Höfendorf"
  },
  {
    "postcode": "72414",
    "city": "Rangendingen"
  },
  {
    "postcode": "72414",
    "city": "Zollernalbkreis"
  },
  {
    "postcode": "72415",
    "city": "Grosselfingen bei Hechingen"
  },
  {
    "postcode": "72415",
    "city": "Zollernalbkreis"
  },
  {
    "postcode": "72415",
    "city": "Grosselfingen"
  },
  {
    "postcode": "72417",
    "city": "Jungingen bei Hechingen"
  },
  {
    "postcode": "72417",
    "city": "Zollernalbkreis"
  },
  {
    "postcode": "72417",
    "city": "Jungingen"
  },
  {
    "postcode": "72419",
    "city": "Birkhof"
  },
  {
    "postcode": "72419",
    "city": "Freudenweiler"
  },
  {
    "postcode": "72419",
    "city": "Neufra"
  },
  {
    "postcode": "72419",
    "city": "Neufra Hohenzollern"
  },
  {
    "postcode": "72419",
    "city": "Sigmaringen"
  },
  {
    "postcode": "72419",
    "city": "Stollbeck"
  },
  {
    "postcode": "72458",
    "city": "Albstadt (Württemberg)"
  },
  {
    "postcode": "72458",
    "city": "Albstadt"
  },
  {
    "postcode": "72458",
    "city": "Ebingen"
  },
  {
    "postcode": "72458",
    "city": "Linderhof (Gemeinde Straßberg Hohenzollern)"
  },
  {
    "postcode": "72458",
    "city": "Linderhof (Gemeinde Straßberg"
  },
  {
    "postcode": "72458",
    "city": "Linderhof"
  },
  {
    "postcode": "72458",
    "city": "Zollernalbkreis"
  },
  {
    "postcode": "72458",
    "city": "Lautlingen"
  },
  {
    "postcode": "72458",
    "city": "Margrethausen"
  },
  {
    "postcode": "72458",
    "city": "Pfeffingen"
  },
  {
    "postcode": "72459",
    "city": "Albstadt (Württemberg)"
  },
  {
    "postcode": "72459",
    "city": "Albstadt"
  },
  {
    "postcode": "72459",
    "city": "Burgfelden"
  },
  {
    "postcode": "72459",
    "city": "Laufen"
  },
  {
    "postcode": "72459",
    "city": "Lautlingen"
  },
  {
    "postcode": "72459",
    "city": "Margrethausen"
  },
  {
    "postcode": "72459",
    "city": "Pfeffingen"
  },
  {
    "postcode": "72459",
    "city": "Zollernalbkreis"
  },
  {
    "postcode": "72461",
    "city": "Albstadt (Württemberg)"
  },
  {
    "postcode": "72461",
    "city": "Albstadt"
  },
  {
    "postcode": "72461",
    "city": "Neuweiler"
  },
  {
    "postcode": "72461",
    "city": "Onstmettingen"
  },
  {
    "postcode": "72461",
    "city": "Tailfingen"
  },
  {
    "postcode": "72461",
    "city": "Truchtelfingen"
  },
  {
    "postcode": "72461",
    "city": "Zollernalbkreis"
  },
  {
    "postcode": "72461",
    "city": "Pfeffingen"
  },
  {
    "postcode": "72469",
    "city": "Geyerbad"
  },
  {
    "postcode": "72469",
    "city": "Hartheim"
  },
  {
    "postcode": "72469",
    "city": "Heinstetten"
  },
  {
    "postcode": "72469",
    "city": "Hossingen"
  },
  {
    "postcode": "72469",
    "city": "Meßstetten"
  },
  {
    "postcode": "72469",
    "city": "Oberdigisheim"
  },
  {
    "postcode": "72469",
    "city": "Tieringen"
  },
  {
    "postcode": "72469",
    "city": "Unterdigisheim"
  },
  {
    "postcode": "72469",
    "city": "Zollernalbkreis"
  },
  {
    "postcode": "72474",
    "city": "Benzingen"
  },
  {
    "postcode": "72474",
    "city": "Blättringen"
  },
  {
    "postcode": "72474",
    "city": "Harthausen"
  },
  {
    "postcode": "72474",
    "city": "Kalkwerk"
  },
  {
    "postcode": "72474",
    "city": "Winterlingen"
  },
  {
    "postcode": "72474",
    "city": "Zollernalbkreis"
  },
  {
    "postcode": "72474",
    "city": "Straßberg"
  },
  {
    "postcode": "72475",
    "city": "Bitz (Württemberg)"
  },
  {
    "postcode": "72475",
    "city": "Bitz"
  },
  {
    "postcode": "72475",
    "city": "Zollernalbkreis"
  },
  {
    "postcode": "72475",
    "city": "Albstadt"
  },
  {
    "postcode": "72475",
    "city": "Burladingen"
  },
  {
    "postcode": "72477",
    "city": "Schwenningen (Baden)"
  },
  {
    "postcode": "72477",
    "city": "Schwenningen"
  },
  {
    "postcode": "72477",
    "city": "Sigmaringen"
  },
  {
    "postcode": "72479",
    "city": "Kaiseringen"
  },
  {
    "postcode": "72479",
    "city": "Straßberg (Hohenzollern)"
  },
  {
    "postcode": "72479",
    "city": "Straßberg"
  },
  {
    "postcode": "72479",
    "city": "Zollernalbkreis"
  },
  {
    "postcode": "72488",
    "city": "Gutenstein"
  },
  {
    "postcode": "72488",
    "city": "Jungnau"
  },
  {
    "postcode": "72488",
    "city": "Laiz"
  },
  {
    "postcode": "72488",
    "city": "Oberschmeien"
  },
  {
    "postcode": "72488",
    "city": "Sigmaringen"
  },
  {
    "postcode": "72488",
    "city": "Unterschmeien"
  },
  {
    "postcode": "72501",
    "city": "Bronnen"
  },
  {
    "postcode": "72501",
    "city": "Feldhausen"
  },
  {
    "postcode": "72501",
    "city": "Gammertingen"
  },
  {
    "postcode": "72501",
    "city": "Harthausen"
  },
  {
    "postcode": "72501",
    "city": "Kettenacker"
  },
  {
    "postcode": "72501",
    "city": "Mariaberg"
  },
  {
    "postcode": "72501",
    "city": "Pistre (Gemeinde Hettingen)"
  },
  {
    "postcode": "72501",
    "city": "Pistre"
  },
  {
    "postcode": "72501",
    "city": "Sigmaringen"
  },
  {
    "postcode": "72501",
    "city": "Eichert"
  },
  {
    "postcode": "72505",
    "city": "Ablach"
  },
  {
    "postcode": "72505",
    "city": "Bittelschieß"
  },
  {
    "postcode": "72505",
    "city": "Ettisweiler"
  },
  {
    "postcode": "72505",
    "city": "Göggingen"
  },
  {
    "postcode": "72505",
    "city": "Hausen"
  },
  {
    "postcode": "72505",
    "city": "Krauchenwies"
  },
  {
    "postcode": "72505",
    "city": "Sigmaringen"
  },
  {
    "postcode": "72510",
    "city": "Frohnstetten"
  },
  {
    "postcode": "72510",
    "city": "Glashütte"
  },
  {
    "postcode": "72510",
    "city": "Heuberg"
  },
  {
    "postcode": "72510",
    "city": "Stetten"
  },
  {
    "postcode": "72510",
    "city": "Stetten am kalten Markt"
  },
  {
    "postcode": "72510",
    "city": "Storzingen"
  },
  {
    "postcode": "72510",
    "city": "Sigmaringen"
  },
  {
    "postcode": "72510",
    "city": "Nusplingen"
  },
  {
    "postcode": "72510",
    "city": "Stadt Sigmaringen"
  },
  {
    "postcode": "72511",
    "city": "Bingen"
  },
  {
    "postcode": "72511",
    "city": "Bingen bei Sigmaringen"
  },
  {
    "postcode": "72511",
    "city": "Hitzkofen"
  },
  {
    "postcode": "72511",
    "city": "Hochberg"
  },
  {
    "postcode": "72511",
    "city": "Hornstein"
  },
  {
    "postcode": "72511",
    "city": "Sigmaringen"
  },
  {
    "postcode": "72513",
    "city": "Hettingen"
  },
  {
    "postcode": "72513",
    "city": "Hettingen (Kreis Sigmaringen)"
  },
  {
    "postcode": "72513",
    "city": "Inneringen"
  },
  {
    "postcode": "72513",
    "city": "Sigmaringen"
  },
  {
    "postcode": "72513",
    "city": "Bingen"
  },
  {
    "postcode": "72514",
    "city": "Dietfurt"
  },
  {
    "postcode": "72514",
    "city": "Engelswies"
  },
  {
    "postcode": "72514",
    "city": "Inzigkofen"
  },
  {
    "postcode": "72514",
    "city": "Vilsingen"
  },
  {
    "postcode": "72514",
    "city": "Sigmaringen"
  },
  {
    "postcode": "72516",
    "city": "Heudorf bei Mengen"
  },
  {
    "postcode": "72516",
    "city": "Loretto"
  },
  {
    "postcode": "72516",
    "city": "Scheer"
  },
  {
    "postcode": "72516",
    "city": "Sigmaringen"
  },
  {
    "postcode": "72516",
    "city": "Sigmaringendorf"
  },
  {
    "postcode": "72516",
    "city": "Heudorf"
  },
  {
    "postcode": "72517",
    "city": "Laucherthal"
  },
  {
    "postcode": "72517",
    "city": "Sigmaringendorf"
  },
  {
    "postcode": "72517",
    "city": "Sigmaringen"
  },
  {
    "postcode": "72519",
    "city": "Hermentingen"
  },
  {
    "postcode": "72519",
    "city": "Veringendorf"
  },
  {
    "postcode": "72519",
    "city": "Veringenstadt"
  },
  {
    "postcode": "72519",
    "city": "Sigmaringen"
  },
  {
    "postcode": "72525",
    "city": "Apfelstetten"
  },
  {
    "postcode": "72525",
    "city": "Auingen"
  },
  {
    "postcode": "72525",
    "city": "Bichishausen"
  },
  {
    "postcode": "72525",
    "city": "Böttingen"
  },
  {
    "postcode": "72525",
    "city": "Breithülen"
  },
  {
    "postcode": "72525",
    "city": "Bremelau"
  },
  {
    "postcode": "72525",
    "city": "Buttenhausen"
  },
  {
    "postcode": "72525",
    "city": "Dottingen"
  },
  {
    "postcode": "72525",
    "city": "Dürrenstetten"
  },
  {
    "postcode": "72525",
    "city": "Gundelfingen"
  },
  {
    "postcode": "72525",
    "city": "Hundersingen"
  },
  {
    "postcode": "72525",
    "city": "Magolsheim"
  },
  {
    "postcode": "72525",
    "city": "Münsingen"
  },
  {
    "postcode": "72525",
    "city": "Münsingen (Württemberg)"
  },
  {
    "postcode": "72525",
    "city": "Rietheim"
  },
  {
    "postcode": "72525",
    "city": "Steighof"
  },
  {
    "postcode": "72525",
    "city": "Trailfingen"
  },
  {
    "postcode": "72525",
    "city": "Wittsteig"
  },
  {
    "postcode": "72525",
    "city": "Reutlingen"
  },
  {
    "postcode": "72531",
    "city": "Bernloch"
  },
  {
    "postcode": "72531",
    "city": "Eglingen"
  },
  {
    "postcode": "72531",
    "city": "Hohenstein (Württemberg)"
  },
  {
    "postcode": "72531",
    "city": "Hohenstein"
  },
  {
    "postcode": "72531",
    "city": "Meidelstetten"
  },
  {
    "postcode": "72531",
    "city": "Oberstetten"
  },
  {
    "postcode": "72531",
    "city": "Ödenwaldstetten"
  },
  {
    "postcode": "72531",
    "city": "Reutlingen"
  },
  {
    "postcode": "72532",
    "city": "Dapfen"
  },
  {
    "postcode": "72532",
    "city": "Gomadingen"
  },
  {
    "postcode": "72532",
    "city": "Marbach"
  },
  {
    "postcode": "72532",
    "city": "Offenhausen"
  },
  {
    "postcode": "72532",
    "city": "Steingebronn"
  },
  {
    "postcode": "72532",
    "city": "Wasserstetten"
  },
  {
    "postcode": "72532",
    "city": "Reutlingen"
  },
  {
    "postcode": "72532",
    "city": "Grafeneck"
  },
  {
    "postcode": "72534",
    "city": "Anhausen"
  },
  {
    "postcode": "72534",
    "city": "Ehestetten"
  },
  {
    "postcode": "72534",
    "city": "Hayingen"
  },
  {
    "postcode": "72534",
    "city": "Indelhausen"
  },
  {
    "postcode": "72534",
    "city": "Kochstetten"
  },
  {
    "postcode": "72534",
    "city": "Maisenburg"
  },
  {
    "postcode": "72534",
    "city": "Münzdorf"
  },
  {
    "postcode": "72534",
    "city": "Oberwilzingen"
  },
  {
    "postcode": "72534",
    "city": "Weiler"
  },
  {
    "postcode": "72534",
    "city": "Reutlingen"
  },
  {
    "postcode": "72534",
    "city": "Maxfelden"
  },
  {
    "postcode": "72535",
    "city": "Ennabeuren"
  },
  {
    "postcode": "72535",
    "city": "Heroldstatt"
  },
  {
    "postcode": "72535",
    "city": "Sontheim"
  },
  {
    "postcode": "72535",
    "city": "Alb-Donau-Kreis"
  },
  {
    "postcode": "72535",
    "city": "Breithülen"
  },
  {
    "postcode": "72537",
    "city": "Mehrstetten"
  },
  {
    "postcode": "72537",
    "city": "Mehrstetten bei Münsingen Württemberg"
  },
  {
    "postcode": "72537",
    "city": "Mehrstetten bei Münsingen"
  },
  {
    "postcode": "72537",
    "city": "Reutlingen"
  },
  {
    "postcode": "72537",
    "city": "Greut-Ost"
  },
  {
    "postcode": "72537",
    "city": "Aussiedlungshöfe"
  },
  {
    "postcode": "72537",
    "city": "Greut-West"
  },
  {
    "postcode": "72537",
    "city": "Greut"
  },
  {
    "postcode": "72539",
    "city": "Aichelau"
  },
  {
    "postcode": "72539",
    "city": "Aichstetten"
  },
  {
    "postcode": "72539",
    "city": "Geisingen"
  },
  {
    "postcode": "72539",
    "city": "Huldstetten"
  },
  {
    "postcode": "72539",
    "city": "Pfronstetten"
  },
  {
    "postcode": "72539",
    "city": "Tigerfeld"
  },
  {
    "postcode": "72539",
    "city": "Reutlingen"
  },
  {
    "postcode": "72555",
    "city": "Glems"
  },
  {
    "postcode": "72555",
    "city": "Metzingen"
  },
  {
    "postcode": "72555",
    "city": "Metzingen (Württemberg)"
  },
  {
    "postcode": "72555",
    "city": "Neuhausen"
  },
  {
    "postcode": "72555",
    "city": "Reutlingen"
  },
  {
    "postcode": "72574",
    "city": "Bad Urach"
  },
  {
    "postcode": "72574",
    "city": "Hengen"
  },
  {
    "postcode": "72574",
    "city": "Seeburg"
  },
  {
    "postcode": "72574",
    "city": "Sirchingen"
  },
  {
    "postcode": "72574",
    "city": "Wittlingen"
  },
  {
    "postcode": "72574",
    "city": "Reutlingen"
  },
  {
    "postcode": "72581",
    "city": "Dettingen an der Erms"
  },
  {
    "postcode": "72581",
    "city": "Reutlingen"
  },
  {
    "postcode": "72582",
    "city": "Grabenstetten"
  },
  {
    "postcode": "72582",
    "city": "Reutlingen"
  },
  {
    "postcode": "72584",
    "city": "Hülben"
  },
  {
    "postcode": "72584",
    "city": "Reutlingen"
  },
  {
    "postcode": "72585",
    "city": "Riederich"
  },
  {
    "postcode": "72585",
    "city": "Reutlingen"
  },
  {
    "postcode": "72587",
    "city": "Böhringen"
  },
  {
    "postcode": "72587",
    "city": "Donnstetten"
  },
  {
    "postcode": "72587",
    "city": "Römerstein"
  },
  {
    "postcode": "72587",
    "city": "Strohweiler"
  },
  {
    "postcode": "72587",
    "city": "Zainingen"
  },
  {
    "postcode": "72587",
    "city": "Reutlingen"
  },
  {
    "postcode": "72587",
    "city": "Westerheim"
  },
  {
    "postcode": "72587",
    "city": "Aglishardt"
  },
  {
    "postcode": "72589",
    "city": "Heuberg"
  },
  {
    "postcode": "72589",
    "city": "Westerheim (Württemberg)"
  },
  {
    "postcode": "72589",
    "city": "Westerheim"
  },
  {
    "postcode": "72589",
    "city": "Alb-Donau-Kreis"
  },
  {
    "postcode": "72589",
    "city": "Laichingen"
  },
  {
    "postcode": "72622",
    "city": "Hardt"
  },
  {
    "postcode": "72622",
    "city": "Neckarhausen"
  },
  {
    "postcode": "72622",
    "city": "Neckartailfingen Bahnhof"
  },
  {
    "postcode": "72622",
    "city": "Neckartailfingen"
  },
  {
    "postcode": "72622",
    "city": "Nürtingen"
  },
  {
    "postcode": "72622",
    "city": "Oberensingen"
  },
  {
    "postcode": "72622",
    "city": "Raidwangen"
  },
  {
    "postcode": "72622",
    "city": "Reudern"
  },
  {
    "postcode": "72622",
    "city": "Zizishausen"
  },
  {
    "postcode": "72622",
    "city": "Esslingen"
  },
  {
    "postcode": "72622",
    "city": "Roßdorf"
  },
  {
    "postcode": "72631",
    "city": "Aich"
  },
  {
    "postcode": "72631",
    "city": "Aichtal"
  },
  {
    "postcode": "72631",
    "city": "Grötzingen"
  },
  {
    "postcode": "72631",
    "city": "Neuenhaus"
  },
  {
    "postcode": "72631",
    "city": "Esslingen"
  },
  {
    "postcode": "72636",
    "city": "Frickenhausen"
  },
  {
    "postcode": "72636",
    "city": "Frickenhausen (Württemberg)"
  },
  {
    "postcode": "72636",
    "city": "Linsenhofen"
  },
  {
    "postcode": "72636",
    "city": "Tischardt"
  },
  {
    "postcode": "72636",
    "city": "Esslingen"
  },
  {
    "postcode": "72639",
    "city": "Kappishäusern"
  },
  {
    "postcode": "72639",
    "city": "Neuffen"
  },
  {
    "postcode": "72639",
    "city": "Esslingen"
  },
  {
    "postcode": "72644",
    "city": "Oberboihingen"
  },
  {
    "postcode": "72644",
    "city": "Esslingen"
  },
  {
    "postcode": "72649",
    "city": "Wolfschlugen"
  },
  {
    "postcode": "72649",
    "city": "Esslingen"
  },
  {
    "postcode": "72654",
    "city": "Hammetweil"
  },
  {
    "postcode": "72654",
    "city": "Neckartenzlingen"
  },
  {
    "postcode": "72654",
    "city": "Esslingen"
  },
  {
    "postcode": "72655",
    "city": "Altdorf bei Nürtingen"
  },
  {
    "postcode": "72655",
    "city": "Esslingen"
  },
  {
    "postcode": "72655",
    "city": "Altdorf"
  },
  {
    "postcode": "72657",
    "city": "Altenriet"
  },
  {
    "postcode": "72657",
    "city": "Esslingen"
  },
  {
    "postcode": "72658",
    "city": "Bempflingen"
  },
  {
    "postcode": "72658",
    "city": "Kleinbettlingen"
  },
  {
    "postcode": "72658",
    "city": "Esslingen"
  },
  {
    "postcode": "72660",
    "city": "Balzholz"
  },
  {
    "postcode": "72660",
    "city": "Beuren bei Nürtingen"
  },
  {
    "postcode": "72660",
    "city": "Esslingen"
  },
  {
    "postcode": "72660",
    "city": "Beuren"
  },
  {
    "postcode": "72661",
    "city": "Grafenberg (Württemberg)"
  },
  {
    "postcode": "72661",
    "city": "Grafenberg"
  },
  {
    "postcode": "72661",
    "city": "Reutlingen"
  },
  {
    "postcode": "72663",
    "city": "Großbettlingen"
  },
  {
    "postcode": "72663",
    "city": "Esslingen"
  },
  {
    "postcode": "72664",
    "city": "Kohlberg (Württemberg)"
  },
  {
    "postcode": "72664",
    "city": "Kohlberg"
  },
  {
    "postcode": "72664",
    "city": "Esslingen"
  },
  {
    "postcode": "72666",
    "city": "Neckartailfingen"
  },
  {
    "postcode": "72666",
    "city": "Esslingen"
  },
  {
    "postcode": "72667",
    "city": "Schlaitdorf"
  },
  {
    "postcode": "72667",
    "city": "Esslingen"
  },
  {
    "postcode": "72669",
    "city": "Unterensingen"
  },
  {
    "postcode": "72669",
    "city": "Esslingen"
  },
  {
    "postcode": "72760",
    "city": "Betzingen"
  },
  {
    "postcode": "72760",
    "city": "Gmindersdorf"
  },
  {
    "postcode": "72760",
    "city": "Nordstadt"
  },
  {
    "postcode": "72760",
    "city": "Reutlingen"
  },
  {
    "postcode": "72760",
    "city": "Römerschanze"
  },
  {
    "postcode": "72760",
    "city": "Storlach"
  },
  {
    "postcode": "72760",
    "city": "Voller Brunnen"
  },
  {
    "postcode": "72760",
    "city": "Weststadt"
  },
  {
    "postcode": "72760",
    "city": "Orschel-Hagen"
  },
  {
    "postcode": "72760",
    "city": "Wagner Buckel"
  },
  {
    "postcode": "72762",
    "city": "Gaisbühl"
  },
  {
    "postcode": "72762",
    "city": "Georgenberg"
  },
  {
    "postcode": "72762",
    "city": "Innenstadt"
  },
  {
    "postcode": "72762",
    "city": "Lerchenbuckel"
  },
  {
    "postcode": "72762",
    "city": "Nordstadt"
  },
  {
    "postcode": "72762",
    "city": "Reutlingen"
  },
  {
    "postcode": "72762",
    "city": "Ringelbach"
  },
  {
    "postcode": "72762",
    "city": "Weststadt"
  },
  {
    "postcode": "72762",
    "city": "Hohbuch"
  },
  {
    "postcode": "72762",
    "city": "Katzensteg"
  },
  {
    "postcode": "72762",
    "city": "Kaibach"
  },
  {
    "postcode": "72762",
    "city": "Markwasen"
  },
  {
    "postcode": "72762",
    "city": "Vochezenholz"
  },
  {
    "postcode": "72764",
    "city": "Betzenried"
  },
  {
    "postcode": "72764",
    "city": "Georgenberg"
  },
  {
    "postcode": "72764",
    "city": "Innenstadt"
  },
  {
    "postcode": "72764",
    "city": "Oststadt"
  },
  {
    "postcode": "72764",
    "city": "Reutlingen"
  },
  {
    "postcode": "72764",
    "city": "Ringelbach"
  },
  {
    "postcode": "72764",
    "city": "Südstadt"
  },
  {
    "postcode": "72766",
    "city": "Achalm"
  },
  {
    "postcode": "72766",
    "city": "Betzenried"
  },
  {
    "postcode": "72766",
    "city": "Burgholz"
  },
  {
    "postcode": "72766",
    "city": "Efeu"
  },
  {
    "postcode": "72766",
    "city": "In Laisen"
  },
  {
    "postcode": "72766",
    "city": "Industriegebiet"
  },
  {
    "postcode": "72766",
    "city": "Innenstadt"
  },
  {
    "postcode": "72766",
    "city": "Mittelstadt"
  },
  {
    "postcode": "72766",
    "city": "Oststadt"
  },
  {
    "postcode": "72766",
    "city": "Reicheneck"
  },
  {
    "postcode": "72766",
    "city": "Reutlingen"
  },
  {
    "postcode": "72766",
    "city": "Sondelfingen"
  },
  {
    "postcode": "72766",
    "city": "Südstadt"
  },
  {
    "postcode": "72766",
    "city": "Voller Brunnen"
  },
  {
    "postcode": "72768",
    "city": "Altenburg"
  },
  {
    "postcode": "72768",
    "city": "Degerschlacht"
  },
  {
    "postcode": "72768",
    "city": "Oferdingen"
  },
  {
    "postcode": "72768",
    "city": "Reutlingen"
  },
  {
    "postcode": "72768",
    "city": "Römerschanze"
  },
  {
    "postcode": "72768",
    "city": "Rommelsbach"
  },
  {
    "postcode": "72768",
    "city": "Sickenhausen"
  },
  {
    "postcode": "72770",
    "city": "Betzingen"
  },
  {
    "postcode": "72770",
    "city": "Bronnweiler"
  },
  {
    "postcode": "72770",
    "city": "Gönningen"
  },
  {
    "postcode": "72770",
    "city": "Ohmenhausen"
  },
  {
    "postcode": "72770",
    "city": "Reutlingen"
  },
  {
    "postcode": "72793",
    "city": "Pfullingen"
  },
  {
    "postcode": "72793",
    "city": "Reutlingen"
  },
  {
    "postcode": "72800",
    "city": "Eningen unter Achalm"
  },
  {
    "postcode": "72800",
    "city": "Reutlingen"
  },
  {
    "postcode": "72805",
    "city": "Holzelfingen"
  },
  {
    "postcode": "72805",
    "city": "Honau"
  },
  {
    "postcode": "72805",
    "city": "Lichtenstein (Württemberg)"
  },
  {
    "postcode": "72805",
    "city": "Lichtenstein"
  },
  {
    "postcode": "72805",
    "city": "Traifelberg"
  },
  {
    "postcode": "72805",
    "city": "Unterhausen"
  },
  {
    "postcode": "72805",
    "city": "Reutlingen"
  },
  {
    "postcode": "72810",
    "city": "Gomaringen"
  },
  {
    "postcode": "72810",
    "city": "Hinterweiler"
  },
  {
    "postcode": "72810",
    "city": "Stockach"
  },
  {
    "postcode": "72810",
    "city": "Tübingen"
  },
  {
    "postcode": "72813",
    "city": "Bleichstetten"
  },
  {
    "postcode": "72813",
    "city": "Gächingen"
  },
  {
    "postcode": "72813",
    "city": "Lonsingen"
  },
  {
    "postcode": "72813",
    "city": "Ohnastetten"
  },
  {
    "postcode": "72813",
    "city": "Sankt Johann (Württemberg)"
  },
  {
    "postcode": "72813",
    "city": "Sankt Johann"
  },
  {
    "postcode": "72813",
    "city": "Upfingen"
  },
  {
    "postcode": "72813",
    "city": "Würtingen"
  },
  {
    "postcode": "72813",
    "city": "Reutlingen"
  },
  {
    "postcode": "72813",
    "city": "Oberer Lindenhof"
  },
  {
    "postcode": "72813",
    "city": "St. Johann"
  },
  {
    "postcode": "72818",
    "city": "Haidpost"
  },
  {
    "postcode": "72818",
    "city": "Hausen"
  },
  {
    "postcode": "72818",
    "city": "Mägerkingen"
  },
  {
    "postcode": "72818",
    "city": "Steinhilben"
  },
  {
    "postcode": "72818",
    "city": "Trochtelfingen"
  },
  {
    "postcode": "72818",
    "city": "Trochtelfingen (Hohenzollern)"
  },
  {
    "postcode": "72818",
    "city": "Wilsingen"
  },
  {
    "postcode": "72818",
    "city": "Reutlingen"
  },
  {
    "postcode": "72820",
    "city": "Erpfingen"
  },
  {
    "postcode": "72820",
    "city": "Genkingen"
  },
  {
    "postcode": "72820",
    "city": "Sonnenbühl"
  },
  {
    "postcode": "72820",
    "city": "Undingen"
  },
  {
    "postcode": "72820",
    "city": "Willmandingen"
  },
  {
    "postcode": "72820",
    "city": "Reutlingen"
  },
  {
    "postcode": "72827",
    "city": "Wannweil"
  },
  {
    "postcode": "72827",
    "city": "Reutlingen"
  },
  {
    "postcode": "72829",
    "city": "Engstingen"
  },
  {
    "postcode": "72829",
    "city": "Großengstingen"
  },
  {
    "postcode": "72829",
    "city": "Kleinengstingen"
  },
  {
    "postcode": "72829",
    "city": "Kohlstetten"
  },
  {
    "postcode": "72829",
    "city": "Reutlingen"
  }
]