[
  {
    "postcode": "4103",
    "city": "Leipzig"
  },
  {
    "postcode": "4103",
    "city": "Zentrum-Südost"
  },
  {
    "postcode": "4103",
    "city": "Zentrum"
  },
  {
    "postcode": "4103",
    "city": "Zentrum-Ost"
  },
  {
    "postcode": "4105",
    "city": "Leipzig"
  },
  {
    "postcode": "4105",
    "city": "Zentrum"
  },
  {
    "postcode": "4105",
    "city": "Zentrum-Nordwest"
  },
  {
    "postcode": "4105",
    "city": "Zentrum-Nord"
  },
  {
    "postcode": "4105",
    "city": "Zentrum-West"
  },
  {
    "postcode": "4107",
    "city": "Leipzig"
  },
  {
    "postcode": "4107",
    "city": "Zentrum-Süd"
  },
  {
    "postcode": "4107",
    "city": "Zentrum"
  },
  {
    "postcode": "4109",
    "city": "Leipzig"
  },
  {
    "postcode": "4109",
    "city": "Zentrum-West"
  },
  {
    "postcode": "4109",
    "city": "Zentrum"
  },
  {
    "postcode": "4109",
    "city": "Zentrum-Süd"
  },
  {
    "postcode": "4109",
    "city": "Zentrum-Nord"
  },
  {
    "postcode": "4129",
    "city": "Leipzig"
  },
  {
    "postcode": "4129",
    "city": "Eutritzsch"
  },
  {
    "postcode": "4155",
    "city": "Leipzig"
  },
  {
    "postcode": "4155",
    "city": "Gohlis-Süd"
  },
  {
    "postcode": "4155",
    "city": "Zentrum"
  },
  {
    "postcode": "4155",
    "city": "Gohlis-Mitte"
  },
  {
    "postcode": "4157",
    "city": "Leipzig"
  },
  {
    "postcode": "4157",
    "city": "Gohlis-Mitte"
  },
  {
    "postcode": "4157",
    "city": "Gohlis-Nord"
  },
  {
    "postcode": "4157",
    "city": "Möckern"
  },
  {
    "postcode": "4157",
    "city": "Wiederitzsch"
  },
  {
    "postcode": "4158",
    "city": "Leipzig"
  },
  {
    "postcode": "4158",
    "city": "Lindenthal"
  },
  {
    "postcode": "4158",
    "city": "Wiederitzsch"
  },
  {
    "postcode": "4158",
    "city": "Gohlis-Mitte"
  },
  {
    "postcode": "4158",
    "city": "Güterverkehrszentrum"
  },
  {
    "postcode": "4158",
    "city": "Lützschena-Stahmeln"
  },
  {
    "postcode": "4159",
    "city": "Leipzig"
  },
  {
    "postcode": "4159",
    "city": "Lützschena-Stahmeln"
  },
  {
    "postcode": "4159",
    "city": "Möckern"
  },
  {
    "postcode": "4159",
    "city": "Wahren"
  },
  {
    "postcode": "4159",
    "city": "Stahmeln"
  },
  {
    "postcode": "4177",
    "city": "Leipzig"
  },
  {
    "postcode": "4177",
    "city": "Altlindenau"
  },
  {
    "postcode": "4177",
    "city": "Lindenau"
  },
  {
    "postcode": "4178",
    "city": "Böhlitz-Ehrenberg"
  },
  {
    "postcode": "4178",
    "city": "Leipzig"
  },
  {
    "postcode": "4178",
    "city": "Burghausen-Rückmarsdorf"
  },
  {
    "postcode": "4178",
    "city": "Rückmarsdorf"
  },
  {
    "postcode": "4179",
    "city": "Leipzig"
  },
  {
    "postcode": "4179",
    "city": "Neulindenau"
  },
  {
    "postcode": "4179",
    "city": "Leutzsch"
  },
  {
    "postcode": "4179",
    "city": "Schönau"
  },
  {
    "postcode": "4179",
    "city": "Altlindenau"
  },
  {
    "postcode": "41061",
    "city": "Eicken"
  },
  {
    "postcode": "41061",
    "city": "Mönchengladbach"
  },
  {
    "postcode": "41061",
    "city": "Stadtmitte"
  },
  {
    "postcode": "41061",
    "city": "Waldhausen"
  },
  {
    "postcode": "41061",
    "city": "Innenstadt"
  },
  {
    "postcode": "41063",
    "city": "Eicken"
  },
  {
    "postcode": "41063",
    "city": "Großheide"
  },
  {
    "postcode": "41063",
    "city": "Mönchengladbach"
  },
  {
    "postcode": "41063",
    "city": "Windberg"
  },
  {
    "postcode": "41063",
    "city": "Stadtmitte"
  },
  {
    "postcode": "41063",
    "city": "Innenstadt"
  },
  {
    "postcode": "41065",
    "city": "Hardterbroich"
  },
  {
    "postcode": "41065",
    "city": "Lürrip"
  },
  {
    "postcode": "41065",
    "city": "Mönchengladbach"
  },
  {
    "postcode": "41065",
    "city": "Pesch"
  },
  {
    "postcode": "41065",
    "city": "Hermges"
  },
  {
    "postcode": "41065",
    "city": "Innenstadt"
  },
  {
    "postcode": "41066",
    "city": "Bettrath"
  },
  {
    "postcode": "41066",
    "city": "Mönchengladbach"
  },
  {
    "postcode": "41066",
    "city": "Neuwerk"
  },
  {
    "postcode": "41066",
    "city": "Uedding"
  },
  {
    "postcode": "41066",
    "city": "Bettrath-Hoven"
  },
  {
    "postcode": "41068",
    "city": "Beltinghoven"
  },
  {
    "postcode": "41068",
    "city": "Großheide"
  },
  {
    "postcode": "41068",
    "city": "Mönchengladbach"
  },
  {
    "postcode": "41068",
    "city": "Rönneter"
  },
  {
    "postcode": "41068",
    "city": "Venn"
  },
  {
    "postcode": "41068",
    "city": "Winkeln"
  },
  {
    "postcode": "41068",
    "city": "Waldhausen"
  },
  {
    "postcode": "41068",
    "city": "Poeth"
  },
  {
    "postcode": "41069",
    "city": "Dahl"
  },
  {
    "postcode": "41069",
    "city": "Hehn"
  },
  {
    "postcode": "41069",
    "city": "Mönchengladbach"
  },
  {
    "postcode": "41069",
    "city": "Ohler"
  },
  {
    "postcode": "41069",
    "city": "Holt"
  },
  {
    "postcode": "41169",
    "city": "Hardt"
  },
  {
    "postcode": "41169",
    "city": "Mönchengladbach"
  },
  {
    "postcode": "41169",
    "city": "Rasseln"
  },
  {
    "postcode": "41179",
    "city": "Bau"
  },
  {
    "postcode": "41179",
    "city": "Broich"
  },
  {
    "postcode": "41179",
    "city": "Dorthausen"
  },
  {
    "postcode": "41179",
    "city": "Gatzweiler"
  },
  {
    "postcode": "41179",
    "city": "Genhausen"
  },
  {
    "postcode": "41179",
    "city": "Genhodder"
  },
  {
    "postcode": "41179",
    "city": "Genholland"
  },
  {
    "postcode": "41179",
    "city": "Genhülsen"
  },
  {
    "postcode": "41179",
    "city": "Gerkerath"
  },
  {
    "postcode": "41179",
    "city": "Günhoven"
  },
  {
    "postcode": "41179",
    "city": "Herdt"
  },
  {
    "postcode": "41179",
    "city": "Hilderath"
  },
  {
    "postcode": "41179",
    "city": "Koch"
  },
  {
    "postcode": "41179",
    "city": "Kothausen"
  },
  {
    "postcode": "41179",
    "city": "Mennrath"
  },
  {
    "postcode": "41179",
    "city": "Mönchengladbach"
  },
  {
    "postcode": "41179",
    "city": "Rheindahlen"
  },
  {
    "postcode": "41179",
    "city": "Sittard"
  },
  {
    "postcode": "41179",
    "city": "Voosen"
  },
  {
    "postcode": "41179",
    "city": "Wolfsittard"
  },
  {
    "postcode": "41179",
    "city": "Woof"
  },
  {
    "postcode": "41179",
    "city": "NATO-Hauptquartier"
  },
  {
    "postcode": "41179",
    "city": "Merreter"
  },
  {
    "postcode": "41179",
    "city": "Schriefers"
  },
  {
    "postcode": "41189",
    "city": "Beckrath"
  },
  {
    "postcode": "41189",
    "city": "Buchholz"
  },
  {
    "postcode": "41189",
    "city": "Herrath"
  },
  {
    "postcode": "41189",
    "city": "Mönchengladbach"
  },
  {
    "postcode": "41189",
    "city": "Priorshof"
  },
  {
    "postcode": "41189",
    "city": "Wanlo"
  },
  {
    "postcode": "41189",
    "city": "Wickrath"
  },
  {
    "postcode": "41189",
    "city": "Wickrathberg"
  },
  {
    "postcode": "41189",
    "city": "Wickrathhahn"
  },
  {
    "postcode": "41189",
    "city": "Saarhof"
  },
  {
    "postcode": "41189",
    "city": "Voigtshof"
  },
  {
    "postcode": "41199",
    "city": "Geistenbeck"
  },
  {
    "postcode": "41199",
    "city": "Güdderath"
  },
  {
    "postcode": "41199",
    "city": "Mönchengladbach"
  },
  {
    "postcode": "41199",
    "city": "Mongshof"
  },
  {
    "postcode": "41199",
    "city": "Odenkirchen"
  },
  {
    "postcode": "41199",
    "city": "Sasserath"
  },
  {
    "postcode": "41199",
    "city": "Wetschewell"
  },
  {
    "postcode": "41199",
    "city": "Kamphausener Höhe"
  },
  {
    "postcode": "41199",
    "city": "Goerdshof"
  },
  {
    "postcode": "41199",
    "city": "Lenßenhof"
  },
  {
    "postcode": "41199",
    "city": "Schmitzhof"
  },
  {
    "postcode": "41236",
    "city": "Bonnenbroich"
  },
  {
    "postcode": "41236",
    "city": "Mönchengladbach"
  },
  {
    "postcode": "41236",
    "city": "Mülfort"
  },
  {
    "postcode": "41236",
    "city": "Rheydt"
  },
  {
    "postcode": "41236",
    "city": "Heyden"
  },
  {
    "postcode": "41236",
    "city": "Geneicken"
  },
  {
    "postcode": "41238",
    "city": "Bonnenbroich"
  },
  {
    "postcode": "41238",
    "city": "Dohr"
  },
  {
    "postcode": "41238",
    "city": "Giesenkirchen"
  },
  {
    "postcode": "41238",
    "city": "Mönchengladbach"
  },
  {
    "postcode": "41238",
    "city": "Mülfort"
  },
  {
    "postcode": "41238",
    "city": "Rheydt"
  },
  {
    "postcode": "41238",
    "city": "Schelsen"
  },
  {
    "postcode": "41238",
    "city": "Geneicken"
  },
  {
    "postcode": "41239",
    "city": "Hockstein"
  },
  {
    "postcode": "41239",
    "city": "Mönchengladbach"
  },
  {
    "postcode": "41239",
    "city": "Pongs"
  },
  {
    "postcode": "41239",
    "city": "Rheydt"
  },
  {
    "postcode": "41239",
    "city": "Rheydt-West"
  },
  {
    "postcode": "41239",
    "city": "Schrievers"
  },
  {
    "postcode": "41239",
    "city": "Schmölderpark"
  },
  {
    "postcode": "41334",
    "city": "Breyell"
  },
  {
    "postcode": "41334",
    "city": "Hinsbeck"
  },
  {
    "postcode": "41334",
    "city": "Kaldenkirchen Rheinland"
  },
  {
    "postcode": "41334",
    "city": "Kaldenkirchen"
  },
  {
    "postcode": "41334",
    "city": "Leuth"
  },
  {
    "postcode": "41334",
    "city": "Lobberich"
  },
  {
    "postcode": "41334",
    "city": "Nettetal"
  },
  {
    "postcode": "41334",
    "city": "Schaag"
  },
  {
    "postcode": "41334",
    "city": "Viersen"
  },
  {
    "postcode": "41334",
    "city": "Dyck"
  },
  {
    "postcode": "41334",
    "city": "Sassenfeld"
  },
  {
    "postcode": "41334",
    "city": "Leutherheide"
  },
  {
    "postcode": "41352",
    "city": "Glehn bei Neuss"
  },
  {
    "postcode": "41352",
    "city": "Kleinenbroich"
  },
  {
    "postcode": "41352",
    "city": "Korschenbroich"
  },
  {
    "postcode": "41352",
    "city": "Liedberg"
  },
  {
    "postcode": "41352",
    "city": "Steinforth"
  },
  {
    "postcode": "41352",
    "city": "Steinhausen"
  },
  {
    "postcode": "41352",
    "city": "Rhein-Kreis Neuss"
  },
  {
    "postcode": "41352",
    "city": "Glehn"
  },
  {
    "postcode": "41352",
    "city": "Raderbroich"
  },
  {
    "postcode": "41352",
    "city": "Pesch"
  },
  {
    "postcode": "41352",
    "city": "Rubbelrath"
  },
  {
    "postcode": "41363",
    "city": "Aldenhoven bei Neuss"
  },
  {
    "postcode": "41363",
    "city": "Bedburdyck"
  },
  {
    "postcode": "41363",
    "city": "Dürselen"
  },
  {
    "postcode": "41363",
    "city": "Garzweiler"
  },
  {
    "postcode": "41363",
    "city": "Gierath"
  },
  {
    "postcode": "41363",
    "city": "Gubberath"
  },
  {
    "postcode": "41363",
    "city": "Hackhausen"
  },
  {
    "postcode": "41363",
    "city": "Herberath"
  },
  {
    "postcode": "41363",
    "city": "Hochneukirch"
  },
  {
    "postcode": "41363",
    "city": "Holz"
  },
  {
    "postcode": "41363",
    "city": "Hoppers"
  },
  {
    "postcode": "41363",
    "city": "Jüchen"
  },
  {
    "postcode": "41363",
    "city": "Kamphausen"
  },
  {
    "postcode": "41363",
    "city": "Kelzenberg"
  },
  {
    "postcode": "41363",
    "city": "Mürmeln Ort"
  },
  {
    "postcode": "41363",
    "city": "Mürmeln"
  },
  {
    "postcode": "41363",
    "city": "Neuenhoven"
  },
  {
    "postcode": "41363",
    "city": "Otzenrath"
  },
  {
    "postcode": "41363",
    "city": "Priesterath"
  },
  {
    "postcode": "41363",
    "city": "Schaan"
  },
  {
    "postcode": "41363",
    "city": "Schloß Dyck"
  },
  {
    "postcode": "41363",
    "city": "Schloß Dyck"
  },
  {
    "postcode": "41363",
    "city": "Spenrath"
  },
  {
    "postcode": "41363",
    "city": "Stessen"
  },
  {
    "postcode": "41363",
    "city": "Waat"
  },
  {
    "postcode": "41363",
    "city": "Wallrath bei Neuss"
  },
  {
    "postcode": "41363",
    "city": "Wey"
  },
  {
    "postcode": "41363",
    "city": "Rhein-Kreis Neuss"
  },
  {
    "postcode": "41363",
    "city": "Otzenrath/Spenrath"
  },
  {
    "postcode": "41363",
    "city": "Schlich"
  },
  {
    "postcode": "41363",
    "city": "Garzweiler (Neu)"
  },
  {
    "postcode": "41363",
    "city": "Wallrath"
  },
  {
    "postcode": "41363",
    "city": "Aldenhoven"
  },
  {
    "postcode": "41363",
    "city": "Damm"
  },
  {
    "postcode": "41363",
    "city": "Rath"
  },
  {
    "postcode": "41363",
    "city": "Flaßrath"
  },
  {
    "postcode": "41363",
    "city": "Priesterath (Neu)"
  },
  {
    "postcode": "41363",
    "city": "Schloß Dyck"
  },
  {
    "postcode": "41366",
    "city": "Amern"
  },
  {
    "postcode": "41366",
    "city": "Birgen"
  },
  {
    "postcode": "41366",
    "city": "Dilkrath"
  },
  {
    "postcode": "41366",
    "city": "Eicken"
  },
  {
    "postcode": "41366",
    "city": "Hagen"
  },
  {
    "postcode": "41366",
    "city": "Hehler"
  },
  {
    "postcode": "41366",
    "city": "Leloh"
  },
  {
    "postcode": "41366",
    "city": "Linde"
  },
  {
    "postcode": "41366",
    "city": "Lüttelforst"
  },
  {
    "postcode": "41366",
    "city": "Naphausen"
  },
  {
    "postcode": "41366",
    "city": "Schagen"
  },
  {
    "postcode": "41366",
    "city": "Schier"
  },
  {
    "postcode": "41366",
    "city": "Schwalmtal Niederrhein"
  },
  {
    "postcode": "41366",
    "city": "Schwalmtal"
  },
  {
    "postcode": "41366",
    "city": "Ungerath"
  },
  {
    "postcode": "41366",
    "city": "Vogelsrath"
  },
  {
    "postcode": "41366",
    "city": "Waldniel"
  },
  {
    "postcode": "41366",
    "city": "Viersen"
  },
  {
    "postcode": "41366",
    "city": "Berg"
  },
  {
    "postcode": "41366",
    "city": "End"
  },
  {
    "postcode": "41366",
    "city": "Gemeinde Niederkrüchten"
  },
  {
    "postcode": "41366",
    "city": "Renneperstr."
  },
  {
    "postcode": "41372",
    "city": "Birth"
  },
  {
    "postcode": "41372",
    "city": "Boscherhausen"
  },
  {
    "postcode": "41372",
    "city": "Brempt"
  },
  {
    "postcode": "41372",
    "city": "Dam"
  },
  {
    "postcode": "41372",
    "city": "Elmpt"
  },
  {
    "postcode": "41372",
    "city": "Gützenrath"
  },
  {
    "postcode": "41372",
    "city": "Heyen"
  },
  {
    "postcode": "41372",
    "city": "Laar"
  },
  {
    "postcode": "41372",
    "city": "Niederkrüchten"
  },
  {
    "postcode": "41372",
    "city": "Oberkrüchten"
  },
  {
    "postcode": "41372",
    "city": "Overhetfeld"
  },
  {
    "postcode": "41372",
    "city": "Ryth"
  },
  {
    "postcode": "41372",
    "city": "Schwalmtal"
  },
  {
    "postcode": "41372",
    "city": "Silverbeek"
  },
  {
    "postcode": "41372",
    "city": "Varbrook"
  },
  {
    "postcode": "41372",
    "city": "Viersen"
  },
  {
    "postcode": "41372",
    "city": "Venekoten"
  },
  {
    "postcode": "41372",
    "city": "Blonderath"
  },
  {
    "postcode": "41379",
    "city": "Born Niederrhein"
  },
  {
    "postcode": "41379",
    "city": "Born"
  },
  {
    "postcode": "41379",
    "city": "Bracht Niederrhein"
  },
  {
    "postcode": "41379",
    "city": "Bracht"
  },
  {
    "postcode": "41379",
    "city": "Brüggen"
  },
  {
    "postcode": "41379",
    "city": "Brüggen Niederrhein"
  },
  {
    "postcode": "41379",
    "city": "Haverslohe Niederrhein"
  },
  {
    "postcode": "41379",
    "city": "Haverslohe"
  },
  {
    "postcode": "41379",
    "city": "Viersen"
  },
  {
    "postcode": "41379",
    "city": "Heidhausen"
  },
  {
    "postcode": "41379",
    "city": "Lüttelbracht"
  },
  {
    "postcode": "41460",
    "city": "Neuss"
  },
  {
    "postcode": "41460",
    "city": "Rhein-Kreis Neuss"
  },
  {
    "postcode": "41460",
    "city": "Innenstadt"
  },
  {
    "postcode": "41460",
    "city": "Barbaraviertel"
  },
  {
    "postcode": "41460",
    "city": "Hammfeld"
  },
  {
    "postcode": "41460",
    "city": "Hafengebiet"
  },
  {
    "postcode": "41462",
    "city": "Morgensternsheide"
  },
  {
    "postcode": "41462",
    "city": "Neuss"
  },
  {
    "postcode": "41462",
    "city": "Vogelsang"
  },
  {
    "postcode": "41462",
    "city": "Weissenberg"
  },
  {
    "postcode": "41462",
    "city": "Rhein-Kreis Neuss"
  },
  {
    "postcode": "41462",
    "city": "Furth-Mitte"
  },
  {
    "postcode": "41462",
    "city": "Furth-Süd"
  },
  {
    "postcode": "41462",
    "city": "Furth-Nord"
  },
  {
    "postcode": "41464",
    "city": "Neuss"
  },
  {
    "postcode": "41464",
    "city": "Rhein-Kreis Neuss"
  },
  {
    "postcode": "41464",
    "city": "Augustinusviertel"
  },
  {
    "postcode": "41464",
    "city": "Pomona"
  },
  {
    "postcode": "41464",
    "city": "Dreikönigenviertel"
  },
  {
    "postcode": "41464",
    "city": "Stadionviertel"
  },
  {
    "postcode": "41464",
    "city": "Westfeld"
  },
  {
    "postcode": "41466",
    "city": "Neuss"
  },
  {
    "postcode": "41466",
    "city": "Reuschenberg"
  },
  {
    "postcode": "41466",
    "city": "Weckhoven"
  },
  {
    "postcode": "41466",
    "city": "Rhein-Kreis Neuss"
  },
  {
    "postcode": "41466",
    "city": "Selikum"
  },
  {
    "postcode": "41468",
    "city": "Grimlinghausen"
  },
  {
    "postcode": "41468",
    "city": "Neuss"
  },
  {
    "postcode": "41468",
    "city": "Uedesheim"
  },
  {
    "postcode": "41468",
    "city": "Rhein-Kreis Neuss"
  },
  {
    "postcode": "41468",
    "city": "Gnadental"
  },
  {
    "postcode": "41468",
    "city": "Norf"
  },
  {
    "postcode": "41469",
    "city": "Hoisten"
  },
  {
    "postcode": "41469",
    "city": "Neuss"
  },
  {
    "postcode": "41469",
    "city": "Norf"
  },
  {
    "postcode": "41469",
    "city": "Rhein-Kreis Neuss"
  },
  {
    "postcode": "41469",
    "city": "Erfttal"
  },
  {
    "postcode": "41470",
    "city": "Neuss"
  },
  {
    "postcode": "41470",
    "city": "Rosellen"
  },
  {
    "postcode": "41470",
    "city": "Schlicherum"
  },
  {
    "postcode": "41470",
    "city": "Rhein-Kreis Neuss"
  },
  {
    "postcode": "41470",
    "city": "Allerheiligen"
  },
  {
    "postcode": "41470",
    "city": "Rosellerheide"
  },
  {
    "postcode": "41472",
    "city": "Grefrath bei Neuss"
  },
  {
    "postcode": "41472",
    "city": "Hoisten"
  },
  {
    "postcode": "41472",
    "city": "Holzheim Niederrhein"
  },
  {
    "postcode": "41472",
    "city": "Holzheim"
  },
  {
    "postcode": "41472",
    "city": "Neuss"
  },
  {
    "postcode": "41472",
    "city": "Speck"
  },
  {
    "postcode": "41472",
    "city": "Rhein-Kreis Neuss"
  },
  {
    "postcode": "41472",
    "city": "Grefrath"
  },
  {
    "postcode": "41472",
    "city": "Reuschenberg"
  },
  {
    "postcode": "41472",
    "city": "Wehl"
  },
  {
    "postcode": "41515",
    "city": "Allrath"
  },
  {
    "postcode": "41515",
    "city": "Barrenstein"
  },
  {
    "postcode": "41515",
    "city": "Elsen"
  },
  {
    "postcode": "41515",
    "city": "Grevenbroich"
  },
  {
    "postcode": "41515",
    "city": "Laach"
  },
  {
    "postcode": "41515",
    "city": "Noithausen"
  },
  {
    "postcode": "41515",
    "city": "Orken"
  },
  {
    "postcode": "41515",
    "city": "Rhein-Kreis Neuss"
  },
  {
    "postcode": "41515",
    "city": "Stadtmitte"
  },
  {
    "postcode": "41515",
    "city": "Gewerbegebiet Ost"
  },
  {
    "postcode": "41515",
    "city": "Südstadt"
  },
  {
    "postcode": "41515",
    "city": "Neu-Elfgen"
  },
  {
    "postcode": "41516",
    "city": "Busch"
  },
  {
    "postcode": "41516",
    "city": "Grevenbroich"
  },
  {
    "postcode": "41516",
    "city": "Gruissem Erft"
  },
  {
    "postcode": "41516",
    "city": "Gruissem"
  },
  {
    "postcode": "41516",
    "city": "Gubisrath bei Neuss"
  },
  {
    "postcode": "41516",
    "city": "Hemmerden Niederrhein"
  },
  {
    "postcode": "41516",
    "city": "Hemmerden"
  },
  {
    "postcode": "41516",
    "city": "Hülchrath"
  },
  {
    "postcode": "41516",
    "city": "Kapellen Erft"
  },
  {
    "postcode": "41516",
    "city": "Kapellen"
  },
  {
    "postcode": "41516",
    "city": "Langwaden"
  },
  {
    "postcode": "41516",
    "city": "Mühlrath Erft"
  },
  {
    "postcode": "41516",
    "city": "Mühlrath"
  },
  {
    "postcode": "41516",
    "city": "Münchrath Erft"
  },
  {
    "postcode": "41516",
    "city": "Münchrath"
  },
  {
    "postcode": "41516",
    "city": "Neubrück Erft"
  },
  {
    "postcode": "41516",
    "city": "Neubrück"
  },
  {
    "postcode": "41516",
    "city": "Neukirchen bei Neuss"
  },
  {
    "postcode": "41516",
    "city": "Tüschenbroich Erft"
  },
  {
    "postcode": "41516",
    "city": "Tüschenbroich"
  },
  {
    "postcode": "41516",
    "city": "Vierwinden Erft"
  },
  {
    "postcode": "41516",
    "city": "Vierwinden"
  },
  {
    "postcode": "41516",
    "city": "Wevelinghoven"
  },
  {
    "postcode": "41516",
    "city": "Rhein-Kreis Neuss"
  },
  {
    "postcode": "41516",
    "city": "Neukirchen"
  },
  {
    "postcode": "41516",
    "city": "Neukircher Heide"
  },
  {
    "postcode": "41516",
    "city": "Gubisrath"
  },
  {
    "postcode": "41517",
    "city": "Frimmersdorf Kreis Grevenbroich"
  },
  {
    "postcode": "41517",
    "city": "Frimmersdorf"
  },
  {
    "postcode": "41517",
    "city": "Gindorf Kreis Grevenbroich"
  },
  {
    "postcode": "41517",
    "city": "Gindorf"
  },
  {
    "postcode": "41517",
    "city": "Grevenbroich"
  },
  {
    "postcode": "41517",
    "city": "Gustorf Kreis Grevenbroich"
  },
  {
    "postcode": "41517",
    "city": "Gustorf"
  },
  {
    "postcode": "41517",
    "city": "Neuenhausen"
  },
  {
    "postcode": "41517",
    "city": "Neurath Niederrhein"
  },
  {
    "postcode": "41517",
    "city": "Neurath"
  },
  {
    "postcode": "41517",
    "city": "Rhein-Kreis Neuss"
  },
  {
    "postcode": "41539",
    "city": "Dormagen"
  },
  {
    "postcode": "41539",
    "city": "Rheinfeld"
  },
  {
    "postcode": "41539",
    "city": "Rhein-Kreis Neuss"
  },
  {
    "postcode": "41539",
    "city": "Dormagen-Nord"
  },
  {
    "postcode": "41539",
    "city": "Dormagen-Mitte"
  },
  {
    "postcode": "41540",
    "city": "Delhoven"
  },
  {
    "postcode": "41540",
    "city": "Dormagen"
  },
  {
    "postcode": "41540",
    "city": "Hackenbroich"
  },
  {
    "postcode": "41540",
    "city": "Horrem"
  },
  {
    "postcode": "41540",
    "city": "Straberg"
  },
  {
    "postcode": "41540",
    "city": "Rhein-Kreis Neuss"
  },
  {
    "postcode": "41540",
    "city": "Dormagen-Mitte"
  },
  {
    "postcode": "41541",
    "city": "Dormagen"
  },
  {
    "postcode": "41541",
    "city": "Stürzelberg"
  },
  {
    "postcode": "41541",
    "city": "Zons"
  },
  {
    "postcode": "41541",
    "city": "Rhein-Kreis Neuss"
  },
  {
    "postcode": "41541",
    "city": "Sankt Peter"
  },
  {
    "postcode": "41542",
    "city": "Delrath"
  },
  {
    "postcode": "41542",
    "city": "Dormagen"
  },
  {
    "postcode": "41542",
    "city": "Gohr Niederrhein"
  },
  {
    "postcode": "41542",
    "city": "Gohr"
  },
  {
    "postcode": "41542",
    "city": "Nievenheim"
  },
  {
    "postcode": "41542",
    "city": "Straberg"
  },
  {
    "postcode": "41542",
    "city": "Rhein-Kreis Neuss"
  },
  {
    "postcode": "41564",
    "city": "Broicherseite"
  },
  {
    "postcode": "41564",
    "city": "Büttgen"
  },
  {
    "postcode": "41564",
    "city": "Driesch"
  },
  {
    "postcode": "41564",
    "city": "Holzbüttgen"
  },
  {
    "postcode": "41564",
    "city": "Kaarst"
  },
  {
    "postcode": "41564",
    "city": "Vorst bei Neuß"
  },
  {
    "postcode": "41564",
    "city": "Rhein-Kreis Neuss"
  },
  {
    "postcode": "41564",
    "city": "Vorst"
  },
  {
    "postcode": "41564",
    "city": "Kaarst-Nord"
  },
  {
    "postcode": "41564",
    "city": "Kaarst-West"
  },
  {
    "postcode": "41564",
    "city": "Kaarst-Ost"
  },
  {
    "postcode": "41564",
    "city": "Kaarst-Mitte"
  },
  {
    "postcode": "41564",
    "city": "Kaarst-Nord/West"
  },
  {
    "postcode": "41564",
    "city": "Kaarst-Süd"
  },
  {
    "postcode": "41569",
    "city": "Anstel"
  },
  {
    "postcode": "41569",
    "city": "Butzheim"
  },
  {
    "postcode": "41569",
    "city": "Deelen"
  },
  {
    "postcode": "41569",
    "city": "Eckum"
  },
  {
    "postcode": "41569",
    "city": "Evinghoven"
  },
  {
    "postcode": "41569",
    "city": "Frixheim"
  },
  {
    "postcode": "41569",
    "city": "Gill"
  },
  {
    "postcode": "41569",
    "city": "Hoeningen"
  },
  {
    "postcode": "41569",
    "city": "Oekoven"
  },
  {
    "postcode": "41569",
    "city": "Ramrath"
  },
  {
    "postcode": "41569",
    "city": "Rommerskirchen"
  },
  {
    "postcode": "41569",
    "city": "Sinsteden"
  },
  {
    "postcode": "41569",
    "city": "Ueckinghoven"
  },
  {
    "postcode": "41569",
    "city": "Vanikum"
  },
  {
    "postcode": "41569",
    "city": "Villau"
  },
  {
    "postcode": "41569",
    "city": "Widdeshoven"
  },
  {
    "postcode": "41569",
    "city": "Rhein-Kreis Neuss"
  },
  {
    "postcode": "41569",
    "city": "Nettesheim"
  },
  {
    "postcode": "41747",
    "city": "Bockert"
  },
  {
    "postcode": "41747",
    "city": "Hamm"
  },
  {
    "postcode": "41747",
    "city": "Hoser"
  },
  {
    "postcode": "41747",
    "city": "Viersen"
  },
  {
    "postcode": "41747",
    "city": "Stadtmitte"
  },
  {
    "postcode": "41747",
    "city": "Rahser"
  },
  {
    "postcode": "41747",
    "city": "Beberich"
  },
  {
    "postcode": "41748",
    "city": "Bockert"
  },
  {
    "postcode": "41748",
    "city": "Hamm"
  },
  {
    "postcode": "41748",
    "city": "Helenabrunn"
  },
  {
    "postcode": "41748",
    "city": "Ummer"
  },
  {
    "postcode": "41748",
    "city": "Viersen"
  },
  {
    "postcode": "41748",
    "city": "Mönchengladbach"
  },
  {
    "postcode": "41748",
    "city": "Rahser"
  },
  {
    "postcode": "41748",
    "city": "Stadtmitte"
  },
  {
    "postcode": "41748",
    "city": "Beberich"
  },
  {
    "postcode": "41749",
    "city": "Dornbusch"
  },
  {
    "postcode": "41749",
    "city": "Hagen"
  },
  {
    "postcode": "41749",
    "city": "Johannistal"
  },
  {
    "postcode": "41749",
    "city": "Süchteln"
  },
  {
    "postcode": "41749",
    "city": "Viersen"
  },
  {
    "postcode": "41749",
    "city": "Sittard"
  },
  {
    "postcode": "41749",
    "city": "Vorst"
  },
  {
    "postcode": "41749",
    "city": "Clörath"
  },
  {
    "postcode": "41749",
    "city": "Hagenbroich"
  },
  {
    "postcode": "41749",
    "city": "Dahlhöfe"
  },
  {
    "postcode": "41751",
    "city": "Bistard"
  },
  {
    "postcode": "41751",
    "city": "Boisheim"
  },
  {
    "postcode": "41751",
    "city": "Dülken"
  },
  {
    "postcode": "41751",
    "city": "Hausen"
  },
  {
    "postcode": "41751",
    "city": "Lind"
  },
  {
    "postcode": "41751",
    "city": "Mackenstein"
  },
  {
    "postcode": "41751",
    "city": "Nette"
  },
  {
    "postcode": "41751",
    "city": "Pütterhöfe"
  },
  {
    "postcode": "41751",
    "city": "Ransberg"
  },
  {
    "postcode": "41751",
    "city": "Schirick"
  },
  {
    "postcode": "41751",
    "city": "Viersen"
  },
  {
    "postcode": "41751",
    "city": "Busch"
  },
  {
    "postcode": "41751",
    "city": "Heyerhöfe"
  },
  {
    "postcode": "41812",
    "city": "Bellinghoven"
  },
  {
    "postcode": "41812",
    "city": "Berverath"
  },
  {
    "postcode": "41812",
    "city": "Borschemich"
  },
  {
    "postcode": "41812",
    "city": "Erkelenz"
  },
  {
    "postcode": "41812",
    "city": "Fronderath"
  },
  {
    "postcode": "41812",
    "city": "Genehen"
  },
  {
    "postcode": "41812",
    "city": "Geneiken Kreis Erkelenz"
  },
  {
    "postcode": "41812",
    "city": "Geneiken"
  },
  {
    "postcode": "41812",
    "city": "Genfeld Kreis Erkelenz"
  },
  {
    "postcode": "41812",
    "city": "Genfeld"
  },
  {
    "postcode": "41812",
    "city": "Genhof Kreis Erkelenz"
  },
  {
    "postcode": "41812",
    "city": "Genhof"
  },
  {
    "postcode": "41812",
    "city": "Gerderath"
  },
  {
    "postcode": "41812",
    "city": "Gerderhahn"
  },
  {
    "postcode": "41812",
    "city": "Golkrath"
  },
  {
    "postcode": "41812",
    "city": "Grambusch Kreis Erkelenz"
  },
  {
    "postcode": "41812",
    "city": "Grambusch"
  },
  {
    "postcode": "41812",
    "city": "Granterath"
  },
  {
    "postcode": "41812",
    "city": "Hetzerath Kreis Erkelenz"
  },
  {
    "postcode": "41812",
    "city": "Hetzerath"
  },
  {
    "postcode": "41812",
    "city": "Holzweiler Kreis Erkelenz"
  },
  {
    "postcode": "41812",
    "city": "Holzweiler"
  },
  {
    "postcode": "41812",
    "city": "Houverath Kreis Erkelenz"
  },
  {
    "postcode": "41812",
    "city": "Houverath"
  },
  {
    "postcode": "41812",
    "city": "Immerath Kreis Erkelenz"
  },
  {
    "postcode": "41812",
    "city": "Immerath"
  },
  {
    "postcode": "41812",
    "city": "Katzem"
  },
  {
    "postcode": "41812",
    "city": "Kaulhausen"
  },
  {
    "postcode": "41812",
    "city": "Keyenberg"
  },
  {
    "postcode": "41812",
    "city": "Kleinbouslar Kreis Erkelenz"
  },
  {
    "postcode": "41812",
    "city": "Kleinbouslar"
  },
  {
    "postcode": "41812",
    "city": "Kückhoven"
  },
  {
    "postcode": "41812",
    "city": "Kuckum"
  },
  {
    "postcode": "41812",
    "city": "Lövenich Kreis Erkelenz"
  },
  {
    "postcode": "41812",
    "city": "Lövenich"
  },
  {
    "postcode": "41812",
    "city": "Lützerath"
  },
  {
    "postcode": "41812",
    "city": "Matzerath Kreis Erkelenz"
  },
  {
    "postcode": "41812",
    "city": "Matzerath"
  },
  {
    "postcode": "41812",
    "city": "Mennekrath"
  },
  {
    "postcode": "41812",
    "city": "Oerath"
  },
  {
    "postcode": "41812",
    "city": "Pesch Kreis Erkelenz"
  },
  {
    "postcode": "41812",
    "city": "Pesch"
  },
  {
    "postcode": "41812",
    "city": "Schwanenberg Kreis Erkelenz"
  },
  {
    "postcode": "41812",
    "city": "Schwanenberg"
  },
  {
    "postcode": "41812",
    "city": "Tenholt"
  },
  {
    "postcode": "41812",
    "city": "Terheeg"
  },
  {
    "postcode": "41812",
    "city": "Venrath"
  },
  {
    "postcode": "41812",
    "city": "Wockerath"
  },
  {
    "postcode": "41812",
    "city": "Heinsberg"
  },
  {
    "postcode": "41812",
    "city": "Immerath (Neu)"
  },
  {
    "postcode": "41812",
    "city": "Keyenberg (Neu)"
  },
  {
    "postcode": "41812",
    "city": "Etgenbusch"
  },
  {
    "postcode": "41812",
    "city": "Westrich"
  },
  {
    "postcode": "41836",
    "city": "Altmyhl"
  },
  {
    "postcode": "41836",
    "city": "Baal Kreis Erkelenz"
  },
  {
    "postcode": "41836",
    "city": "Baal"
  },
  {
    "postcode": "41836",
    "city": "Brachelen"
  },
  {
    "postcode": "41836",
    "city": "Doverack"
  },
  {
    "postcode": "41836",
    "city": "Doveren"
  },
  {
    "postcode": "41836",
    "city": "Hilfarth"
  },
  {
    "postcode": "41836",
    "city": "Hückelhoven"
  },
  {
    "postcode": "41836",
    "city": "Kleingladbach Kreis Erkelenz"
  },
  {
    "postcode": "41836",
    "city": "Kleingladbach"
  },
  {
    "postcode": "41836",
    "city": "Millich"
  },
  {
    "postcode": "41836",
    "city": "Ratheim"
  },
  {
    "postcode": "41836",
    "city": "Rurich"
  },
  {
    "postcode": "41836",
    "city": "Schaufenberg über Erkelenz"
  },
  {
    "postcode": "41836",
    "city": "Heinsberg"
  },
  {
    "postcode": "41836",
    "city": "Schaufenberg"
  },
  {
    "postcode": "41844",
    "city": "Arsbeck"
  },
  {
    "postcode": "41844",
    "city": "Beeck Kreis Erkelenz"
  },
  {
    "postcode": "41844",
    "city": "Beeck"
  },
  {
    "postcode": "41844",
    "city": "Beeckerheide Kreis Erkelenz"
  },
  {
    "postcode": "41844",
    "city": "Beeckerheide"
  },
  {
    "postcode": "41844",
    "city": "Bischofshütte"
  },
  {
    "postcode": "41844",
    "city": "Bissen bei Beeck"
  },
  {
    "postcode": "41844",
    "city": "Brunbeck"
  },
  {
    "postcode": "41844",
    "city": "Dalheim"
  },
  {
    "postcode": "41844",
    "city": "Ellinghoven Kreis Erkelenz"
  },
  {
    "postcode": "41844",
    "city": "Ellinghoven"
  },
  {
    "postcode": "41844",
    "city": "Felderhof"
  },
  {
    "postcode": "41844",
    "city": "Flassenberg"
  },
  {
    "postcode": "41844",
    "city": "Gripekoven Kreis Erkelenz"
  },
  {
    "postcode": "41844",
    "city": "Gripekoven"
  },
  {
    "postcode": "41844",
    "city": "Grossgerichhausen Kreis Erkelenz"
  },
  {
    "postcode": "41844",
    "city": "Grossgerichhausen"
  },
  {
    "postcode": "41844",
    "city": "Harbeck"
  },
  {
    "postcode": "41844",
    "city": "Holtum Kreis Erkelenz"
  },
  {
    "postcode": "41844",
    "city": "Holtum"
  },
  {
    "postcode": "41844",
    "city": "Isengraben"
  },
  {
    "postcode": "41844",
    "city": "Kehrbusch"
  },
  {
    "postcode": "41844",
    "city": "Kipshoven"
  },
  {
    "postcode": "41844",
    "city": "Kleingerichhausen Kreis Erkelenz"
  },
  {
    "postcode": "41844",
    "city": "Kleingerichhausen"
  },
  {
    "postcode": "41844",
    "city": "Klinkum"
  },
  {
    "postcode": "41844",
    "city": "Mehlbusch"
  },
  {
    "postcode": "41844",
    "city": "Merbeck Kreis Erkelenz"
  },
  {
    "postcode": "41844",
    "city": "Merbeck"
  },
  {
    "postcode": "41844",
    "city": "Moorshoven"
  },
  {
    "postcode": "41844",
    "city": "Petersholz"
  },
  {
    "postcode": "41844",
    "city": "Rickelrath"
  },
  {
    "postcode": "41844",
    "city": "Rödgen"
  },
  {
    "postcode": "41844",
    "city": "Schönhausen"
  },
  {
    "postcode": "41844",
    "city": "Schwaam"
  },
  {
    "postcode": "41844",
    "city": "Tetelrath"
  },
  {
    "postcode": "41844",
    "city": "Tüschenbroich Kreis Erkelenz"
  },
  {
    "postcode": "41844",
    "city": "Tüschenbroich"
  },
  {
    "postcode": "41844",
    "city": "Uevekoven"
  },
  {
    "postcode": "41844",
    "city": "Venheyde Kreis Erkelenz"
  },
  {
    "postcode": "41844",
    "city": "Venheyde"
  },
  {
    "postcode": "41844",
    "city": "Venn"
  },
  {
    "postcode": "41844",
    "city": "Watern"
  },
  {
    "postcode": "41844",
    "city": "Wegberg"
  },
  {
    "postcode": "41844",
    "city": "Wildenrath"
  },
  {
    "postcode": "41844",
    "city": "Heinsberg"
  },
  {
    "postcode": "41844",
    "city": "Rath-Anhoven"
  },
  {
    "postcode": "41844",
    "city": "Berg"
  },
  {
    "postcode": "41844",
    "city": "Holtmühle"
  },
  {
    "postcode": "41844",
    "city": "Busch"
  },
  {
    "postcode": "41844",
    "city": "Bissen"
  },
  {
    "postcode": "41844",
    "city": "Broich"
  },
  {
    "postcode": "41844",
    "city": "Großgerichhausen"
  },
  {
    "postcode": "41849",
    "city": "Birgelen"
  },
  {
    "postcode": "41849",
    "city": "Effeld"
  },
  {
    "postcode": "41849",
    "city": "Forst"
  },
  {
    "postcode": "41849",
    "city": "Luchtenberg"
  },
  {
    "postcode": "41849",
    "city": "Myhl"
  },
  {
    "postcode": "41849",
    "city": "Ophoven"
  },
  {
    "postcode": "41849",
    "city": "Orsbeck"
  },
  {
    "postcode": "41849",
    "city": "Wassenberg"
  },
  {
    "postcode": "41849",
    "city": "Heinsberg"
  }
]