[
  {
    "postcode": "1445",
    "city": "Radebeul"
  },
  {
    "postcode": "1445",
    "city": "Meißen"
  },
  {
    "postcode": "1454",
    "city": "Liegau-Augustusbad"
  },
  {
    "postcode": "1454",
    "city": "Radeberg Sachsen"
  },
  {
    "postcode": "1454",
    "city": "Radeberg"
  },
  {
    "postcode": "1454",
    "city": "Wachau bei Radeberg"
  },
  {
    "postcode": "1454",
    "city": "Bautzen"
  },
  {
    "postcode": "1454",
    "city": "Wachau"
  },
  {
    "postcode": "1454",
    "city": "Großerkmannsdorf"
  },
  {
    "postcode": "1454",
    "city": "Ullersdorf"
  },
  {
    "postcode": "1454",
    "city": "Leppersdorf"
  },
  {
    "postcode": "1454",
    "city": "Feldschlößchen"
  },
  {
    "postcode": "1454",
    "city": "Seifersdorf"
  },
  {
    "postcode": "1454",
    "city": "Lomnitz"
  },
  {
    "postcode": "1458",
    "city": "Ottendorf-Okrilla"
  },
  {
    "postcode": "1458",
    "city": "Bautzen"
  },
  {
    "postcode": "1458",
    "city": "Dresden"
  },
  {
    "postcode": "1458",
    "city": "Medingen"
  },
  {
    "postcode": "1458",
    "city": "Hermsdorf"
  },
  {
    "postcode": "1458",
    "city": "Grünberg"
  },
  {
    "postcode": "1462",
    "city": "Altfranken"
  },
  {
    "postcode": "1462",
    "city": "Cossebaude"
  },
  {
    "postcode": "1462",
    "city": "Dresden"
  },
  {
    "postcode": "1462",
    "city": "Gompitz"
  },
  {
    "postcode": "1462",
    "city": "Gorbitz"
  },
  {
    "postcode": "1462",
    "city": "Johannstadt"
  },
  {
    "postcode": "1462",
    "city": "Niederwartha"
  },
  {
    "postcode": "1462",
    "city": "Ockerwitz"
  },
  {
    "postcode": "1462",
    "city": "Pennrich"
  },
  {
    "postcode": "1462",
    "city": "Roitzsch bei Dresden"
  },
  {
    "postcode": "1462",
    "city": "Steinbach"
  },
  {
    "postcode": "1462",
    "city": "Stetzsch"
  },
  {
    "postcode": "1462",
    "city": "Unkersdorf"
  },
  {
    "postcode": "1462",
    "city": "Zöllmen"
  },
  {
    "postcode": "1465",
    "city": "Dresden"
  },
  {
    "postcode": "1465",
    "city": "Gorbitz"
  },
  {
    "postcode": "1465",
    "city": "Johannstadt"
  },
  {
    "postcode": "1465",
    "city": "Langebrück"
  },
  {
    "postcode": "1465",
    "city": "Stetzsch"
  },
  {
    "postcode": "1465",
    "city": "Schönborn"
  },
  {
    "postcode": "1468",
    "city": "Moritzburg bei Dresden"
  },
  {
    "postcode": "1468",
    "city": "Meißen"
  },
  {
    "postcode": "1468",
    "city": "Moritzburg"
  },
  {
    "postcode": "1468",
    "city": "Friedewald"
  },
  {
    "postcode": "1468",
    "city": "Boxdorf"
  },
  {
    "postcode": "1468",
    "city": "Reichenberg"
  },
  {
    "postcode": "1468",
    "city": "Steinbach b Moritzburg"
  },
  {
    "postcode": "1468",
    "city": "Auer"
  },
  {
    "postcode": "1471",
    "city": "Radeburg"
  },
  {
    "postcode": "1471",
    "city": "Meißen"
  },
  {
    "postcode": "1471",
    "city": "Großdittmannsdorf"
  },
  {
    "postcode": "1471",
    "city": "Kurort Volkersdorf"
  },
  {
    "postcode": "1471",
    "city": "Bärwalde"
  },
  {
    "postcode": "1471",
    "city": "Berbisdorf"
  },
  {
    "postcode": "1471",
    "city": "Bärnsdorf"
  },
  {
    "postcode": "1477",
    "city": "Arnsdorf bei Dresden"
  },
  {
    "postcode": "1477",
    "city": "Bautzen"
  },
  {
    "postcode": "1477",
    "city": "Arnsdorf"
  },
  {
    "postcode": "1477",
    "city": "Kleinwolmsdorf"
  },
  {
    "postcode": "1477",
    "city": "Wallroda"
  },
  {
    "postcode": "1477",
    "city": "Fischbach"
  },
  {
    "postcode": "1478",
    "city": "Dresden"
  },
  {
    "postcode": "1478",
    "city": "Gorbitz"
  },
  {
    "postcode": "1478",
    "city": "Johannstadt"
  },
  {
    "postcode": "1478",
    "city": "Stetzsch"
  },
  {
    "postcode": "14050",
    "city": "Berlin"
  },
  {
    "postcode": "14050",
    "city": "Charlottenburg"
  },
  {
    "postcode": "14050",
    "city": "Charlottenburg-Wilmersdorf"
  },
  {
    "postcode": "14050",
    "city": "Westend"
  },
  {
    "postcode": "14050",
    "city": "Kol. Westend"
  },
  {
    "postcode": "14050",
    "city": "Kol. Golfplatz"
  },
  {
    "postcode": "14052",
    "city": "Berlin"
  },
  {
    "postcode": "14052",
    "city": "Charlottenburg"
  },
  {
    "postcode": "14052",
    "city": "Charlottenburg-Wilmersdorf"
  },
  {
    "postcode": "14052",
    "city": "Westend"
  },
  {
    "postcode": "14052",
    "city": "Spandau"
  },
  {
    "postcode": "14053",
    "city": "Berlin"
  },
  {
    "postcode": "14053",
    "city": "Charlottenburg-Wilmersdorf"
  },
  {
    "postcode": "14053",
    "city": "Westend"
  },
  {
    "postcode": "14055",
    "city": "Berlin"
  },
  {
    "postcode": "14055",
    "city": "Charlottenburg"
  },
  {
    "postcode": "14055",
    "city": "Charlottenburg-Wilmersdorf"
  },
  {
    "postcode": "14055",
    "city": "Westend"
  },
  {
    "postcode": "14055",
    "city": "Grunewald"
  },
  {
    "postcode": "14055",
    "city": "Prenzlauer Berg"
  },
  {
    "postcode": "14057",
    "city": "Berlin"
  },
  {
    "postcode": "14057",
    "city": "Charlottenburg-Wilmersdorf"
  },
  {
    "postcode": "14057",
    "city": "Westend"
  },
  {
    "postcode": "14057",
    "city": "Charlottenburg"
  },
  {
    "postcode": "14059",
    "city": "Berlin"
  },
  {
    "postcode": "14059",
    "city": "Charlottenburg"
  },
  {
    "postcode": "14059",
    "city": "Charlottenburg-Wilmersdorf"
  },
  {
    "postcode": "14059",
    "city": "Westend"
  },
  {
    "postcode": "14089",
    "city": "Berlin"
  },
  {
    "postcode": "14089",
    "city": "Gatow"
  },
  {
    "postcode": "14089",
    "city": "Kladow"
  },
  {
    "postcode": "14089",
    "city": "Spandau"
  },
  {
    "postcode": "14089",
    "city": "Kol. Windmühlenberg"
  },
  {
    "postcode": "14089",
    "city": "Wedding"
  },
  {
    "postcode": "14109",
    "city": "Berlin"
  },
  {
    "postcode": "14109",
    "city": "Steglitz-Zehlendorf"
  },
  {
    "postcode": "14109",
    "city": "Wannsee"
  },
  {
    "postcode": "14109",
    "city": "Nikolassee"
  },
  {
    "postcode": "14109",
    "city": "Kaulsdorf"
  },
  {
    "postcode": "14129",
    "city": "Berlin"
  },
  {
    "postcode": "14129",
    "city": "Nikolassee"
  },
  {
    "postcode": "14129",
    "city": "Steglitz-Zehlendorf"
  },
  {
    "postcode": "14129",
    "city": "Zehlendorf"
  },
  {
    "postcode": "14163",
    "city": "Berlin"
  },
  {
    "postcode": "14163",
    "city": "Nikolassee"
  },
  {
    "postcode": "14163",
    "city": "Steglitz-Zehlendorf"
  },
  {
    "postcode": "14163",
    "city": "Zehlendorf"
  },
  {
    "postcode": "14163",
    "city": "Kol. Schlachtensee Süd"
  },
  {
    "postcode": "14165",
    "city": "Berlin"
  },
  {
    "postcode": "14165",
    "city": "Steglitz-Zehlendorf"
  },
  {
    "postcode": "14165",
    "city": "Zehlendorf"
  },
  {
    "postcode": "14167",
    "city": "Berlin"
  },
  {
    "postcode": "14167",
    "city": "Lichterfelde"
  },
  {
    "postcode": "14167",
    "city": "Steglitz-Zehlendorf"
  },
  {
    "postcode": "14167",
    "city": "Zehlendorf"
  },
  {
    "postcode": "14167",
    "city": "Kol. Abendruh"
  },
  {
    "postcode": "14167",
    "city": "Kol. Sonnenschein"
  },
  {
    "postcode": "14169",
    "city": "Berlin"
  },
  {
    "postcode": "14169",
    "city": "Dahlem"
  },
  {
    "postcode": "14169",
    "city": "Steglitz-Zehlendorf"
  },
  {
    "postcode": "14169",
    "city": "Zehlendorf"
  },
  {
    "postcode": "14169",
    "city": "Lichterfelde"
  },
  {
    "postcode": "14169",
    "city": "Märkisches Viertel"
  },
  {
    "postcode": "14193",
    "city": "Berlin"
  },
  {
    "postcode": "14193",
    "city": "Charlottenburg-Wilmersdorf"
  },
  {
    "postcode": "14193",
    "city": "Grunewald"
  },
  {
    "postcode": "14193",
    "city": "Nikolassee"
  },
  {
    "postcode": "14193",
    "city": "Schmargendorf"
  },
  {
    "postcode": "14193",
    "city": "Steglitz-Zehlendorf"
  },
  {
    "postcode": "14193",
    "city": "Dahlem"
  },
  {
    "postcode": "14193",
    "city": "Halensee"
  },
  {
    "postcode": "14195",
    "city": "Berlin"
  },
  {
    "postcode": "14195",
    "city": "Charlottenburg-Wilmersdorf"
  },
  {
    "postcode": "14195",
    "city": "Dahlem"
  },
  {
    "postcode": "14195",
    "city": "Steglitz-Zehlendorf"
  },
  {
    "postcode": "14195",
    "city": "Lichterfelde"
  },
  {
    "postcode": "14195",
    "city": "Schmargendorf"
  },
  {
    "postcode": "14195",
    "city": "Steglitz"
  },
  {
    "postcode": "14195",
    "city": "Wilmersdorf"
  },
  {
    "postcode": "14195",
    "city": "Grunewald"
  },
  {
    "postcode": "14197",
    "city": "Berlin"
  },
  {
    "postcode": "14197",
    "city": "Charlottenburg-Wilmersdorf"
  },
  {
    "postcode": "14197",
    "city": "Wilmersdorf"
  },
  {
    "postcode": "14197",
    "city": "Friedenau"
  },
  {
    "postcode": "14199",
    "city": "Berlin"
  },
  {
    "postcode": "14199",
    "city": "Charlottenburg-Wilmersdorf"
  },
  {
    "postcode": "14199",
    "city": "Schmargendorf"
  },
  {
    "postcode": "14199",
    "city": "Kol. Kissingen"
  },
  {
    "postcode": "14199",
    "city": "Kol. Oeynhausen"
  },
  {
    "postcode": "14199",
    "city": "Wilmersdorf"
  },
  {
    "postcode": "14199",
    "city": "Grunewald"
  },
  {
    "postcode": "14199",
    "city": "Kol. Mannheim"
  },
  {
    "postcode": "14199",
    "city": "Charlottenburg-Nord"
  },
  {
    "postcode": "14461",
    "city": "Potsdam"
  },
  {
    "postcode": "14467",
    "city": "Potsdam"
  },
  {
    "postcode": "14467",
    "city": "Nördliche Innenstadt"
  },
  {
    "postcode": "14467",
    "city": "Innenstadt"
  },
  {
    "postcode": "14467",
    "city": "Berliner Vorstadt"
  },
  {
    "postcode": "14467",
    "city": "Brandenburger Vorstadt"
  },
  {
    "postcode": "14469",
    "city": "Grube bei Potsdam"
  },
  {
    "postcode": "14469",
    "city": "Potsdam"
  },
  {
    "postcode": "14469",
    "city": "Potsdam-Eiche"
  },
  {
    "postcode": "14469",
    "city": "Bornstedter Feld"
  },
  {
    "postcode": "14469",
    "city": "Nauener Vorstadt"
  },
  {
    "postcode": "14469",
    "city": "Eiche"
  },
  {
    "postcode": "14469",
    "city": "Bornim"
  },
  {
    "postcode": "14469",
    "city": "Grube"
  },
  {
    "postcode": "14469",
    "city": "Bornstedt"
  },
  {
    "postcode": "14469",
    "city": "Sacrow"
  },
  {
    "postcode": "14469",
    "city": "Brandenburger Vorstadt"
  },
  {
    "postcode": "14469",
    "city": "Nördliche Innenstadt"
  },
  {
    "postcode": "14469",
    "city": "Nedlitz"
  },
  {
    "postcode": "14469",
    "city": "Potsdam West"
  },
  {
    "postcode": "14469",
    "city": "Jägervorstadt"
  },
  {
    "postcode": "14469",
    "city": "Satzkorn"
  },
  {
    "postcode": "14469",
    "city": "Golm"
  },
  {
    "postcode": "14471",
    "city": "Potsdam"
  },
  {
    "postcode": "14471",
    "city": "Brandenburger Vorstadt"
  },
  {
    "postcode": "14471",
    "city": "Potsdam West"
  },
  {
    "postcode": "14473",
    "city": "Potsdam"
  },
  {
    "postcode": "14473",
    "city": "Südliche Innenstadt"
  },
  {
    "postcode": "14473",
    "city": "Teltower Vorstadt"
  },
  {
    "postcode": "14473",
    "city": "Templiner Vorstadt"
  },
  {
    "postcode": "14473",
    "city": "Innenstadt"
  },
  {
    "postcode": "14473",
    "city": "Potsdam Süd"
  },
  {
    "postcode": "14476",
    "city": "Fahrland"
  },
  {
    "postcode": "14476",
    "city": "Golm bei Potsdam"
  },
  {
    "postcode": "14476",
    "city": "Groß Glienicke"
  },
  {
    "postcode": "14476",
    "city": "Leest bei Potsdam"
  },
  {
    "postcode": "14476",
    "city": "Marquardt"
  },
  {
    "postcode": "14476",
    "city": "Neu Fahrland"
  },
  {
    "postcode": "14476",
    "city": "Potsdam-Eiche"
  },
  {
    "postcode": "14476",
    "city": "Satzkorn"
  },
  {
    "postcode": "14476",
    "city": "Seeburg bei Potsdam"
  },
  {
    "postcode": "14476",
    "city": "Töplitz"
  },
  {
    "postcode": "14476",
    "city": "Uetz-Paaren"
  },
  {
    "postcode": "14476",
    "city": "Potsdam-Mittelmark"
  },
  {
    "postcode": "14476",
    "city": "Potsdam"
  },
  {
    "postcode": "14476",
    "city": "Golm"
  },
  {
    "postcode": "14476",
    "city": "Paaren"
  },
  {
    "postcode": "14476",
    "city": "Bornim"
  },
  {
    "postcode": "14476",
    "city": "Kartzow"
  },
  {
    "postcode": "14476",
    "city": "Krampnitz"
  },
  {
    "postcode": "14476",
    "city": "Uetz"
  },
  {
    "postcode": "14478",
    "city": "Potsdam"
  },
  {
    "postcode": "14478",
    "city": "Industriegelände"
  },
  {
    "postcode": "14478",
    "city": "Teltower Vorstadt"
  },
  {
    "postcode": "14478",
    "city": "Waldstadt I"
  },
  {
    "postcode": "14478",
    "city": "Waldstadt II"
  },
  {
    "postcode": "14478",
    "city": "Schlaatz"
  },
  {
    "postcode": "14478",
    "city": "Potsdam Süd"
  },
  {
    "postcode": "14480",
    "city": "Potsdam"
  },
  {
    "postcode": "14480",
    "city": "Drewitz"
  },
  {
    "postcode": "14480",
    "city": "Am Stern"
  },
  {
    "postcode": "14480",
    "city": "Kirchsteigfeld"
  },
  {
    "postcode": "14482",
    "city": "Potsdam"
  },
  {
    "postcode": "14482",
    "city": "Babelsberg Süd"
  },
  {
    "postcode": "14482",
    "city": "Babelsberg"
  },
  {
    "postcode": "14482",
    "city": "Babelsberg Nord"
  },
  {
    "postcode": "14482",
    "city": "Klein Glienicke"
  },
  {
    "postcode": "14513",
    "city": "Ruhlsdorf bei Potsdam"
  },
  {
    "postcode": "14513",
    "city": "Teltow"
  },
  {
    "postcode": "14513",
    "city": "Potsdam-Mittelmark"
  },
  {
    "postcode": "14513",
    "city": "Ruhlsdorf"
  },
  {
    "postcode": "14532",
    "city": "Fahlhorst"
  },
  {
    "postcode": "14532",
    "city": "Güterfelde"
  },
  {
    "postcode": "14532",
    "city": "Kleinmachnow"
  },
  {
    "postcode": "14532",
    "city": "Marggraffshof"
  },
  {
    "postcode": "14532",
    "city": "Nudow"
  },
  {
    "postcode": "14532",
    "city": "Nuthetal"
  },
  {
    "postcode": "14532",
    "city": "Philippsthal bei Potsdam"
  },
  {
    "postcode": "14532",
    "city": "Ruhlsdorf bei Potsdam"
  },
  {
    "postcode": "14532",
    "city": "Schenkenhorst"
  },
  {
    "postcode": "14532",
    "city": "Sputendorf"
  },
  {
    "postcode": "14532",
    "city": "Stahnsdorf"
  },
  {
    "postcode": "14532",
    "city": "Potsdam-Mittelmark"
  },
  {
    "postcode": "14532",
    "city": "Dreilinden"
  },
  {
    "postcode": "14532",
    "city": "Kienwerder"
  },
  {
    "postcode": "14542",
    "city": "Bliesendorf"
  },
  {
    "postcode": "14542",
    "city": "Derwitz"
  },
  {
    "postcode": "14542",
    "city": "Elisabethhöhe"
  },
  {
    "postcode": "14542",
    "city": "Geltow"
  },
  {
    "postcode": "14542",
    "city": "Glindow"
  },
  {
    "postcode": "14542",
    "city": "Göhlsdorf"
  },
  {
    "postcode": "14542",
    "city": "Kemnitz bei Potsdam"
  },
  {
    "postcode": "14542",
    "city": "Kloster Lehnin"
  },
  {
    "postcode": "14542",
    "city": "Leest bei Potsdam"
  },
  {
    "postcode": "14542",
    "city": "Petzow"
  },
  {
    "postcode": "14542",
    "city": "Phöben"
  },
  {
    "postcode": "14542",
    "city": "Plessow"
  },
  {
    "postcode": "14542",
    "city": "Plötzin"
  },
  {
    "postcode": "14542",
    "city": "Schwielowsee"
  },
  {
    "postcode": "14542",
    "city": "Töplitz"
  },
  {
    "postcode": "14542",
    "city": "Werder (Havel)"
  },
  {
    "postcode": "14542",
    "city": "Werder"
  },
  {
    "postcode": "14542",
    "city": "Wildpark West"
  },
  {
    "postcode": "14542",
    "city": "Potsdam-Mittelmark"
  },
  {
    "postcode": "14542",
    "city": "Kolonie Zern"
  },
  {
    "postcode": "14542",
    "city": "Kemnitz"
  },
  {
    "postcode": "14547",
    "city": "Beelitz Mark"
  },
  {
    "postcode": "14547",
    "city": "Beelitz"
  },
  {
    "postcode": "14547",
    "city": "Buchholz bei Beelitz"
  },
  {
    "postcode": "14547",
    "city": "Busendorf bei Beelitz Mark"
  },
  {
    "postcode": "14547",
    "city": "Busendorf bei Beelitz"
  },
  {
    "postcode": "14547",
    "city": "Elsholz"
  },
  {
    "postcode": "14547",
    "city": "Fichtenwalde"
  },
  {
    "postcode": "14547",
    "city": "Reesdorf bei Potsdam"
  },
  {
    "postcode": "14547",
    "city": "Rieben"
  },
  {
    "postcode": "14547",
    "city": "Salzbrunn"
  },
  {
    "postcode": "14547",
    "city": "Schäpe"
  },
  {
    "postcode": "14547",
    "city": "Schlunkendorf"
  },
  {
    "postcode": "14547",
    "city": "Stücken"
  },
  {
    "postcode": "14547",
    "city": "Wittbrietzen"
  },
  {
    "postcode": "14547",
    "city": "Zauchwitz"
  },
  {
    "postcode": "14547",
    "city": "Potsdam-Mittelmark"
  },
  {
    "postcode": "14547",
    "city": "Heilstätten"
  },
  {
    "postcode": "14547",
    "city": "Buchholz"
  },
  {
    "postcode": "14547",
    "city": "Busendorf"
  },
  {
    "postcode": "14547",
    "city": "Reesdorf"
  },
  {
    "postcode": "14547",
    "city": "Schönefeld"
  },
  {
    "postcode": "14547",
    "city": "Kanin"
  },
  {
    "postcode": "14547",
    "city": "Birkhorst"
  },
  {
    "postcode": "14547",
    "city": "Klaistow"
  },
  {
    "postcode": "14547",
    "city": "Körzin"
  },
  {
    "postcode": "14548",
    "city": "Caputh"
  },
  {
    "postcode": "14548",
    "city": "Ferch"
  },
  {
    "postcode": "14548",
    "city": "Geltow"
  },
  {
    "postcode": "14548",
    "city": "Schwielowsee"
  },
  {
    "postcode": "14548",
    "city": "Wildpark West"
  },
  {
    "postcode": "14548",
    "city": "Potsdam-Mittelmark"
  },
  {
    "postcode": "14550",
    "city": "Bochow bei Groß Kreutz"
  },
  {
    "postcode": "14550",
    "city": "Deetz bei Potsdam"
  },
  {
    "postcode": "14550",
    "city": "Derwitz"
  },
  {
    "postcode": "14550",
    "city": "Götz"
  },
  {
    "postcode": "14550",
    "city": "Groß Kreutz (Havel)"
  },
  {
    "postcode": "14550",
    "city": "Groß Kreutz"
  },
  {
    "postcode": "14550",
    "city": "Jeserig bei Brandenburg an der Havel"
  },
  {
    "postcode": "14550",
    "city": "Krielow"
  },
  {
    "postcode": "14550",
    "city": "Neu Bochow"
  },
  {
    "postcode": "14550",
    "city": "Schenkenberg bei Brandenburg"
  },
  {
    "postcode": "14550",
    "city": "Schmergow"
  },
  {
    "postcode": "14550",
    "city": "Potsdam-Mittelmark"
  },
  {
    "postcode": "14550",
    "city": "Schenkenberg"
  },
  {
    "postcode": "14550",
    "city": "Jeserig"
  },
  {
    "postcode": "14550",
    "city": "Deetz"
  },
  {
    "postcode": "14550",
    "city": "Bochow"
  },
  {
    "postcode": "14550",
    "city": "Bochow Bruch"
  },
  {
    "postcode": "14552",
    "city": "Fresdorf"
  },
  {
    "postcode": "14552",
    "city": "Michendorf"
  },
  {
    "postcode": "14552",
    "city": "Nuthetal"
  },
  {
    "postcode": "14552",
    "city": "Saarmund"
  },
  {
    "postcode": "14552",
    "city": "Tremsdorf"
  },
  {
    "postcode": "14552",
    "city": "Wildenbruch"
  },
  {
    "postcode": "14552",
    "city": "Potsdam-Mittelmark"
  },
  {
    "postcode": "14552",
    "city": "Wilhelmshorst"
  },
  {
    "postcode": "14552",
    "city": "Siedlung Six"
  },
  {
    "postcode": "14552",
    "city": "Langerwisch"
  },
  {
    "postcode": "14552",
    "city": "Stücken"
  },
  {
    "postcode": "14552",
    "city": "Bergheide"
  },
  {
    "postcode": "14552",
    "city": "Alt Langerwisch"
  },
  {
    "postcode": "14552",
    "city": "Neu Langerwisch"
  },
  {
    "postcode": "14554",
    "city": "Kähnsdorf bei Potsdam"
  },
  {
    "postcode": "14554",
    "city": "Neuseddin"
  },
  {
    "postcode": "14554",
    "city": "Seddin bei Potsdam"
  },
  {
    "postcode": "14554",
    "city": "Seddiner See"
  },
  {
    "postcode": "14554",
    "city": "Potsdam-Mittelmark"
  },
  {
    "postcode": "14554",
    "city": "Seddin"
  },
  {
    "postcode": "14554",
    "city": "Kähnsdorf"
  },
  {
    "postcode": "14557",
    "city": "Langerwisch"
  },
  {
    "postcode": "14557",
    "city": "Wilhelmshorst"
  },
  {
    "postcode": "14558",
    "city": "Bergholz-Rehbrücke"
  },
  {
    "postcode": "14558",
    "city": "Potsdam-Mittelmark"
  },
  {
    "postcode": "14558",
    "city": "Nuthetal"
  },
  {
    "postcode": "14558",
    "city": "Saarmund"
  },
  {
    "postcode": "14558",
    "city": "Tremsdorf"
  },
  {
    "postcode": "14558",
    "city": "Fahlhorst"
  },
  {
    "postcode": "14558",
    "city": "Nudow"
  },
  {
    "postcode": "14558",
    "city": "Nudow Ausbau"
  },
  {
    "postcode": "14558",
    "city": "Philippsthal"
  },
  {
    "postcode": "14612",
    "city": "Falkensee"
  },
  {
    "postcode": "14612",
    "city": "Havelland"
  },
  {
    "postcode": "14621",
    "city": "Grünefeld"
  },
  {
    "postcode": "14621",
    "city": "Paaren im Glien"
  },
  {
    "postcode": "14621",
    "city": "Pausin"
  },
  {
    "postcode": "14621",
    "city": "Perwenitz"
  },
  {
    "postcode": "14621",
    "city": "Schönwalde bei Falkensee"
  },
  {
    "postcode": "14621",
    "city": "Schönwalde-Glien"
  },
  {
    "postcode": "14621",
    "city": "Wansdorf"
  },
  {
    "postcode": "14621",
    "city": "Havelland"
  },
  {
    "postcode": "14621",
    "city": "Schönwalde-Dorf"
  },
  {
    "postcode": "14621",
    "city": "Schönwalde-Siedlung"
  },
  {
    "postcode": "14624",
    "city": "Dallgow"
  },
  {
    "postcode": "14624",
    "city": "Dallgow-Döberitz"
  },
  {
    "postcode": "14624",
    "city": "Seeburg bei Potsdam"
  },
  {
    "postcode": "14624",
    "city": "Havelland"
  },
  {
    "postcode": "14624",
    "city": "Rohrbeck"
  },
  {
    "postcode": "14624",
    "city": "Seeburg"
  },
  {
    "postcode": "14627",
    "city": "Elstal"
  },
  {
    "postcode": "14641",
    "city": "Berge bei Nauen"
  },
  {
    "postcode": "14641",
    "city": "Bergerdamm"
  },
  {
    "postcode": "14641",
    "city": "Börnicke bei Nauen"
  },
  {
    "postcode": "14641",
    "city": "Brädikow"
  },
  {
    "postcode": "14641",
    "city": "Bredow"
  },
  {
    "postcode": "14641",
    "city": "Buchow-Karpzow"
  },
  {
    "postcode": "14641",
    "city": "Elstal"
  },
  {
    "postcode": "14641",
    "city": "Etzin"
  },
  {
    "postcode": "14641",
    "city": "Falkenrehde"
  },
  {
    "postcode": "14641",
    "city": "Groß Behnitz"
  },
  {
    "postcode": "14641",
    "city": "Grünefeld"
  },
  {
    "postcode": "14641",
    "city": "Hoppenrade bei Nauen"
  },
  {
    "postcode": "14641",
    "city": "Kienberg bei Nauen"
  },
  {
    "postcode": "14641",
    "city": "Klein Behnitz"
  },
  {
    "postcode": "14641",
    "city": "Lietzow bei Nauen"
  },
  {
    "postcode": "14641",
    "city": "Markee"
  },
  {
    "postcode": "14641",
    "city": "Mühlenberge"
  },
  {
    "postcode": "14641",
    "city": "Nauen Havelland"
  },
  {
    "postcode": "14641",
    "city": "Nauen"
  },
  {
    "postcode": "14641",
    "city": "Paaren im Glien"
  },
  {
    "postcode": "14641",
    "city": "Paulinenaue"
  },
  {
    "postcode": "14641",
    "city": "Pausin"
  },
  {
    "postcode": "14641",
    "city": "Perwenitz"
  },
  {
    "postcode": "14641",
    "city": "Pessin"
  },
  {
    "postcode": "14641",
    "city": "Priort"
  },
  {
    "postcode": "14641",
    "city": "Retzow bei Nauen"
  },
  {
    "postcode": "14641",
    "city": "Ribbeck bei Nauen"
  },
  {
    "postcode": "14641",
    "city": "Schönwalde-Glien"
  },
  {
    "postcode": "14641",
    "city": "Selbelang"
  },
  {
    "postcode": "14641",
    "city": "Tietzow"
  },
  {
    "postcode": "14641",
    "city": "Tremmen"
  },
  {
    "postcode": "14641",
    "city": "Wachow"
  },
  {
    "postcode": "14641",
    "city": "Wagenitz"
  },
  {
    "postcode": "14641",
    "city": "Wansdorf"
  },
  {
    "postcode": "14641",
    "city": "Wernitz bei Nauen"
  },
  {
    "postcode": "14641",
    "city": "Wiesenaue"
  },
  {
    "postcode": "14641",
    "city": "Wustermark"
  },
  {
    "postcode": "14641",
    "city": "Zeestow"
  },
  {
    "postcode": "14641",
    "city": "Havelland"
  },
  {
    "postcode": "14641",
    "city": "Retzow"
  },
  {
    "postcode": "14641",
    "city": "Hanffabrik"
  },
  {
    "postcode": "14641",
    "city": "Ribbeck"
  },
  {
    "postcode": "14641",
    "city": "Gohlitz"
  },
  {
    "postcode": "14641",
    "city": "Niebede"
  },
  {
    "postcode": "14641",
    "city": "Kienberg"
  },
  {
    "postcode": "14641",
    "city": "Börnicke"
  },
  {
    "postcode": "14641",
    "city": "Berge"
  },
  {
    "postcode": "14641",
    "city": "Lietzow"
  },
  {
    "postcode": "14641",
    "city": "Weinberg Waldsiedlung"
  },
  {
    "postcode": "14641",
    "city": "Hertefeld"
  },
  {
    "postcode": "14641",
    "city": "Ebereschenhof"
  },
  {
    "postcode": "14641",
    "city": "Teufelshof"
  },
  {
    "postcode": "14641",
    "city": "Bergerdamm-Lager"
  },
  {
    "postcode": "14641",
    "city": "Markau"
  },
  {
    "postcode": "14641",
    "city": "Quermathen"
  },
  {
    "postcode": "14641",
    "city": "Dyrotz-Luch"
  },
  {
    "postcode": "14641",
    "city": "Hoppenrade"
  },
  {
    "postcode": "14641",
    "city": "Wernitz"
  },
  {
    "postcode": "14641",
    "city": "Dyrotz"
  },
  {
    "postcode": "14656",
    "city": "Brieselang"
  },
  {
    "postcode": "14656",
    "city": "Havelland"
  },
  {
    "postcode": "14656",
    "city": "Zeestow"
  },
  {
    "postcode": "14656",
    "city": "Bredow"
  },
  {
    "postcode": "14656",
    "city": "Alt Brieselang"
  },
  {
    "postcode": "14662",
    "city": "Brädikow"
  },
  {
    "postcode": "14662",
    "city": "Friesack"
  },
  {
    "postcode": "14662",
    "city": "Haage bei Nauen"
  },
  {
    "postcode": "14662",
    "city": "Jahnberge"
  },
  {
    "postcode": "14662",
    "city": "Klessener Zootzen"
  },
  {
    "postcode": "14662",
    "city": "Mühlenberge"
  },
  {
    "postcode": "14662",
    "city": "Senzke"
  },
  {
    "postcode": "14662",
    "city": "Vietznitz"
  },
  {
    "postcode": "14662",
    "city": "Wagenitz"
  },
  {
    "postcode": "14662",
    "city": "Warsow bei Nauen"
  },
  {
    "postcode": "14662",
    "city": "Wutzetz"
  },
  {
    "postcode": "14662",
    "city": "Zootzen Damm"
  },
  {
    "postcode": "14662",
    "city": "Havelland"
  },
  {
    "postcode": "14662",
    "city": "Wiesenaue"
  },
  {
    "postcode": "14662",
    "city": "Zootzen"
  },
  {
    "postcode": "14662",
    "city": "Haage"
  },
  {
    "postcode": "14662",
    "city": "Warsow"
  },
  {
    "postcode": "14669",
    "city": "Ketzin"
  },
  {
    "postcode": "14669",
    "city": "Zachow bei Nauen"
  },
  {
    "postcode": "14669",
    "city": "Havelland"
  },
  {
    "postcode": "14669",
    "city": "Ketzin/Havel"
  },
  {
    "postcode": "14669",
    "city": "Tremmen"
  },
  {
    "postcode": "14669",
    "city": "Zachow"
  },
  {
    "postcode": "14669",
    "city": "Falkenrehde"
  },
  {
    "postcode": "14669",
    "city": "Paretz"
  },
  {
    "postcode": "14669",
    "city": "Etzin"
  },
  {
    "postcode": "14669",
    "city": "Gutenpaaren"
  },
  {
    "postcode": "14669",
    "city": "Neu Falkenrehde"
  },
  {
    "postcode": "14712",
    "city": "Böhne bei Rathenow"
  },
  {
    "postcode": "14712",
    "city": "Göttlin"
  },
  {
    "postcode": "14712",
    "city": "Grütz"
  },
  {
    "postcode": "14712",
    "city": "Rathenow"
  },
  {
    "postcode": "14712",
    "city": "Semlin"
  },
  {
    "postcode": "14712",
    "city": "Steckelsdorf"
  },
  {
    "postcode": "14712",
    "city": "Havelland"
  },
  {
    "postcode": "14712",
    "city": "Stechow-Ferchesar"
  },
  {
    "postcode": "14712",
    "city": "Semlin Ausbau"
  },
  {
    "postcode": "14712",
    "city": "Böhne"
  },
  {
    "postcode": "14715",
    "city": "Bahnitz"
  },
  {
    "postcode": "14715",
    "city": "Bamme"
  },
  {
    "postcode": "14715",
    "city": "Barnewitz"
  },
  {
    "postcode": "14715",
    "city": "Böhne bei Rathenow"
  },
  {
    "postcode": "14715",
    "city": "Buckow bei Nennhausen"
  },
  {
    "postcode": "14715",
    "city": "Bünsche"
  },
  {
    "postcode": "14715",
    "city": "Buschow"
  },
  {
    "postcode": "14715",
    "city": "Bützer"
  },
  {
    "postcode": "14715",
    "city": "Damme bei Rathenow"
  },
  {
    "postcode": "14715",
    "city": "Ferchels"
  },
  {
    "postcode": "14715",
    "city": "Ferchesar"
  },
  {
    "postcode": "14715",
    "city": "Galm"
  },
  {
    "postcode": "14715",
    "city": "Garlitz bei Rathenow"
  },
  {
    "postcode": "14715",
    "city": "Göttlin"
  },
  {
    "postcode": "14715",
    "city": "Gräningen"
  },
  {
    "postcode": "14715",
    "city": "Großwudicke"
  },
  {
    "postcode": "14715",
    "city": "Grütz"
  },
  {
    "postcode": "14715",
    "city": "Gülpe"
  },
  {
    "postcode": "14715",
    "city": "Havelaue"
  },
  {
    "postcode": "14715",
    "city": "Hohennauen"
  },
  {
    "postcode": "14715",
    "city": "Hohenwinkel"
  },
  {
    "postcode": "14715",
    "city": "Jerchel bei Rathenow"
  },
  {
    "postcode": "14715",
    "city": "Kotzen"
  },
  {
    "postcode": "14715",
    "city": "Kriele"
  },
  {
    "postcode": "14715",
    "city": "Landin bei Rathenow"
  },
  {
    "postcode": "14715",
    "city": "Liepe bei Rathenow"
  },
  {
    "postcode": "14715",
    "city": "Mahlitz"
  },
  {
    "postcode": "14715",
    "city": "Märkisch Luch"
  },
  {
    "postcode": "14715",
    "city": "Marquede"
  },
  {
    "postcode": "14715",
    "city": "Milow bei Rathenow"
  },
  {
    "postcode": "14715",
    "city": "Milower Land"
  },
  {
    "postcode": "14715",
    "city": "Mögelin"
  },
  {
    "postcode": "14715",
    "city": "Möthlitz"
  },
  {
    "postcode": "14715",
    "city": "Möthlow"
  },
  {
    "postcode": "14715",
    "city": "Mützlitz"
  },
  {
    "postcode": "14715",
    "city": "Nennhausen"
  },
  {
    "postcode": "14715",
    "city": "Neumolkenberg"
  },
  {
    "postcode": "14715",
    "city": "Neuschollene"
  },
  {
    "postcode": "14715",
    "city": "Neuwartensleben"
  },
  {
    "postcode": "14715",
    "city": "Nierow"
  },
  {
    "postcode": "14715",
    "city": "Nitzahn"
  },
  {
    "postcode": "14715",
    "city": "Parey"
  },
  {
    "postcode": "14715",
    "city": "Schollene"
  },
  {
    "postcode": "14715",
    "city": "Seeblick"
  },
  {
    "postcode": "14715",
    "city": "Semlin"
  },
  {
    "postcode": "14715",
    "city": "Spaatz"
  },
  {
    "postcode": "14715",
    "city": "Stechow bei Rathenow"
  },
  {
    "postcode": "14715",
    "city": "Stechow-Ferchesar"
  },
  {
    "postcode": "14715",
    "city": "Steckelsdorf"
  },
  {
    "postcode": "14715",
    "city": "Strodehne"
  },
  {
    "postcode": "14715",
    "city": "Vieritz"
  },
  {
    "postcode": "14715",
    "city": "Wassersuppe"
  },
  {
    "postcode": "14715",
    "city": "Wendeberg"
  },
  {
    "postcode": "14715",
    "city": "Witzke"
  },
  {
    "postcode": "14715",
    "city": "Wolsier"
  },
  {
    "postcode": "14715",
    "city": "Zollchow bei Rathenow"
  },
  {
    "postcode": "14715",
    "city": "Havelland"
  },
  {
    "postcode": "14715",
    "city": "Landin"
  },
  {
    "postcode": "14715",
    "city": "Jerchel"
  },
  {
    "postcode": "14715",
    "city": "Schmetzdorf"
  },
  {
    "postcode": "14715",
    "city": "Milow"
  },
  {
    "postcode": "14715",
    "city": "Wolfsmühle"
  },
  {
    "postcode": "14715",
    "city": "Zollchow"
  },
  {
    "postcode": "14715",
    "city": "Knoblauch"
  },
  {
    "postcode": "14715",
    "city": "Garlitz"
  },
  {
    "postcode": "14715",
    "city": "Linde"
  },
  {
    "postcode": "14715",
    "city": "Damme"
  },
  {
    "postcode": "14715",
    "city": "Liepe"
  },
  {
    "postcode": "14715",
    "city": "Buckow b Nennhausen"
  },
  {
    "postcode": "14715",
    "city": "Spolierenberg"
  },
  {
    "postcode": "14715",
    "city": "Molkenberg"
  },
  {
    "postcode": "14715",
    "city": "Neu-Schollene"
  },
  {
    "postcode": "14715",
    "city": "Stechow"
  },
  {
    "postcode": "14727",
    "city": "Döberitz"
  },
  {
    "postcode": "14727",
    "city": "Gapel"
  },
  {
    "postcode": "14727",
    "city": "Mögelin"
  },
  {
    "postcode": "14727",
    "city": "Premnitz"
  },
  {
    "postcode": "14727",
    "city": "Havelland"
  },
  {
    "postcode": "14728",
    "city": "Gollenberg (Kreis Havelland)"
  },
  {
    "postcode": "14728",
    "city": "Gollenberg"
  },
  {
    "postcode": "14728",
    "city": "Görne"
  },
  {
    "postcode": "14728",
    "city": "Havelaue"
  },
  {
    "postcode": "14728",
    "city": "Kleßen"
  },
  {
    "postcode": "14728",
    "city": "Kleßen-Görne"
  },
  {
    "postcode": "14728",
    "city": "Rhinow"
  },
  {
    "postcode": "14728",
    "city": "Schönholz-Neuwerder"
  },
  {
    "postcode": "14728",
    "city": "Stölln bei Rhinow"
  },
  {
    "postcode": "14728",
    "city": "Strodehne"
  },
  {
    "postcode": "14728",
    "city": "Havelland"
  },
  {
    "postcode": "14728",
    "city": "Stölln"
  },
  {
    "postcode": "14728",
    "city": "Dickte"
  },
  {
    "postcode": "14728",
    "city": "Kietz"
  },
  {
    "postcode": "14770",
    "city": "Brandenburg an der Havel"
  },
  {
    "postcode": "14770",
    "city": "Altstadt"
  },
  {
    "postcode": "14770",
    "city": "Nord"
  },
  {
    "postcode": "14772",
    "city": "Brandenburg an der Havel"
  },
  {
    "postcode": "14772",
    "city": "Görden"
  },
  {
    "postcode": "14772",
    "city": "Altstadt"
  },
  {
    "postcode": "14772",
    "city": "Nord"
  },
  {
    "postcode": "14772",
    "city": "Hohenstücken"
  },
  {
    "postcode": "14774",
    "city": "Brandenburg an der Havel"
  },
  {
    "postcode": "14774",
    "city": "Kirchmöser"
  },
  {
    "postcode": "14774",
    "city": "Plaue"
  },
  {
    "postcode": "14774",
    "city": "Mahlenzien"
  },
  {
    "postcode": "14776",
    "city": "Brandenburg an der Havel"
  },
  {
    "postcode": "14776",
    "city": "Göttin bei Brandenburg"
  },
  {
    "postcode": "14776",
    "city": "Rotscherlinde"
  },
  {
    "postcode": "14776",
    "city": "Schmerzke"
  },
  {
    "postcode": "14776",
    "city": "Neustadt"
  },
  {
    "postcode": "14776",
    "city": "Gollwitz"
  },
  {
    "postcode": "14776",
    "city": "Dom"
  },
  {
    "postcode": "14776",
    "city": "Klein Kreutz"
  },
  {
    "postcode": "14776",
    "city": "Göttin"
  },
  {
    "postcode": "14776",
    "city": "Wust"
  },
  {
    "postcode": "14776",
    "city": "Kirchmöser"
  },
  {
    "postcode": "14776",
    "city": "Saaringen"
  },
  {
    "postcode": "14778",
    "city": "Beetzsee"
  },
  {
    "postcode": "14778",
    "city": "Beetzseeheide"
  },
  {
    "postcode": "14778",
    "city": "Böcke"
  },
  {
    "postcode": "14778",
    "city": "Brielow"
  },
  {
    "postcode": "14778",
    "city": "Butzow bei Brandenburg an der Havel"
  },
  {
    "postcode": "14778",
    "city": "Gollwitz bei Brandenburg an der Have"
  },
  {
    "postcode": "14778",
    "city": "Golzow bei Brandenburg an der Havel"
  },
  {
    "postcode": "14778",
    "city": "Gortz"
  },
  {
    "postcode": "14778",
    "city": "Götz"
  },
  {
    "postcode": "14778",
    "city": "Grüneiche"
  },
  {
    "postcode": "14778",
    "city": "Jeserig bei Brandenburg an der Havel"
  },
  {
    "postcode": "14778",
    "city": "Ketzür"
  },
  {
    "postcode": "14778",
    "city": "Klein Kreutz"
  },
  {
    "postcode": "14778",
    "city": "Kloster Lehnin"
  },
  {
    "postcode": "14778",
    "city": "Krahne"
  },
  {
    "postcode": "14778",
    "city": "Lucksfleiß"
  },
  {
    "postcode": "14778",
    "city": "Lünow"
  },
  {
    "postcode": "14778",
    "city": "Meßdunk"
  },
  {
    "postcode": "14778",
    "city": "Oberjünne"
  },
  {
    "postcode": "14778",
    "city": "Päwesin"
  },
  {
    "postcode": "14778",
    "city": "Pernitz"
  },
  {
    "postcode": "14778",
    "city": "Planebruch"
  },
  {
    "postcode": "14778",
    "city": "Planetal"
  },
  {
    "postcode": "14778",
    "city": "Radewege"
  },
  {
    "postcode": "14778",
    "city": "Reckahn"
  },
  {
    "postcode": "14778",
    "city": "Roskow"
  },
  {
    "postcode": "14778",
    "city": "Schenkenberg bei Brandenburg"
  },
  {
    "postcode": "14778",
    "city": "Trechwitz"
  },
  {
    "postcode": "14778",
    "city": "Wenzlow bei Brandenburg an der Havel"
  },
  {
    "postcode": "14778",
    "city": "Weseram"
  },
  {
    "postcode": "14778",
    "city": "Wollin bei Brandenburg an der Havel"
  },
  {
    "postcode": "14778",
    "city": "Wust bei Brandenburg an der Havel"
  },
  {
    "postcode": "14778",
    "city": "Potsdam-Mittelmark"
  },
  {
    "postcode": "14778",
    "city": "Golzow"
  },
  {
    "postcode": "14778",
    "city": "Wenzlow"
  },
  {
    "postcode": "14778",
    "city": "Wollin"
  },
  {
    "postcode": "14778",
    "city": "Radewege Siedlung"
  },
  {
    "postcode": "14778",
    "city": "Butzow"
  },
  {
    "postcode": "14778",
    "city": "Mötzow"
  },
  {
    "postcode": "14778",
    "city": "Bagow"
  },
  {
    "postcode": "14778",
    "city": "Bollmannsruh"
  },
  {
    "postcode": "14778",
    "city": "Riewend"
  },
  {
    "postcode": "14778",
    "city": "Grabow"
  },
  {
    "postcode": "14778",
    "city": "Boecke"
  },
  {
    "postcode": "14778",
    "city": "Grüningen"
  },
  {
    "postcode": "14789",
    "city": "Bensdorf"
  },
  {
    "postcode": "14789",
    "city": "Herrenhölzer"
  },
  {
    "postcode": "14789",
    "city": "Neubensdorf"
  },
  {
    "postcode": "14789",
    "city": "Rogäsen"
  },
  {
    "postcode": "14789",
    "city": "Rosenau bei Wusterwitz"
  },
  {
    "postcode": "14789",
    "city": "Viesen"
  },
  {
    "postcode": "14789",
    "city": "Warchau"
  },
  {
    "postcode": "14789",
    "city": "Wusterwitz"
  },
  {
    "postcode": "14789",
    "city": "Zitz"
  },
  {
    "postcode": "14789",
    "city": "Potsdam-Mittelmark"
  },
  {
    "postcode": "14789",
    "city": "Rosenau"
  },
  {
    "postcode": "14789",
    "city": "Woltersdorf"
  },
  {
    "postcode": "14789",
    "city": "Altbensdorf"
  },
  {
    "postcode": "14789",
    "city": "Vehlen"
  },
  {
    "postcode": "14793",
    "city": "Buckau bei Brandenburg an der Havel"
  },
  {
    "postcode": "14793",
    "city": "Buckautal"
  },
  {
    "postcode": "14793",
    "city": "Bücknitz"
  },
  {
    "postcode": "14793",
    "city": "Dretzen"
  },
  {
    "postcode": "14793",
    "city": "Glienecke"
  },
  {
    "postcode": "14793",
    "city": "Gräben bei Ziesar"
  },
  {
    "postcode": "14793",
    "city": "Köpernitz bei Brandenburg an der Havel"
  },
  {
    "postcode": "14793",
    "city": "Rottstock"
  },
  {
    "postcode": "14793",
    "city": "Steinberg bei Brandenburg an der Havel"
  },
  {
    "postcode": "14793",
    "city": "Ziesar"
  },
  {
    "postcode": "14793",
    "city": "Potsdam-Mittelmark"
  },
  {
    "postcode": "14793",
    "city": "Gräben"
  },
  {
    "postcode": "14793",
    "city": "Dahlen"
  },
  {
    "postcode": "14793",
    "city": "Köpernitz"
  },
  {
    "postcode": "14797",
    "city": "Damsdorf bei Brandenburg an der Havel"
  },
  {
    "postcode": "14797",
    "city": "Emstal bei Brandenburg an der Havel"
  },
  {
    "postcode": "14797",
    "city": "Göhlsdorf"
  },
  {
    "postcode": "14797",
    "city": "Grebs bei Lehnin"
  },
  {
    "postcode": "14797",
    "city": "Kloster Lehnin"
  },
  {
    "postcode": "14797",
    "city": "Krahne"
  },
  {
    "postcode": "14797",
    "city": "Lehnin"
  },
  {
    "postcode": "14797",
    "city": "Meßdunk"
  },
  {
    "postcode": "14797",
    "city": "Michelsdorf bei Lehnin"
  },
  {
    "postcode": "14797",
    "city": "Nahmitz"
  },
  {
    "postcode": "14797",
    "city": "Netzen"
  },
  {
    "postcode": "14797",
    "city": "Prützke"
  },
  {
    "postcode": "14797",
    "city": "Rädel"
  },
  {
    "postcode": "14797",
    "city": "Reckahn"
  },
  {
    "postcode": "14797",
    "city": "Rietz bei Brandenburg an der Havel"
  },
  {
    "postcode": "14797",
    "city": "Rotscherlinde"
  },
  {
    "postcode": "14797",
    "city": "Trechwitz"
  },
  {
    "postcode": "14797",
    "city": "Potsdam-Mittelmark"
  },
  {
    "postcode": "14797",
    "city": "Michelsdorf"
  },
  {
    "postcode": "14797",
    "city": "Damsdorf"
  },
  {
    "postcode": "14797",
    "city": "Rietz"
  },
  {
    "postcode": "14797",
    "city": "Emstal"
  },
  {
    "postcode": "14797",
    "city": "Grebs"
  },
  {
    "postcode": "14798",
    "city": "Briest bei Brandenburg an der Havel"
  },
  {
    "postcode": "14798",
    "city": "Fohrde"
  },
  {
    "postcode": "14798",
    "city": "Havelsee"
  },
  {
    "postcode": "14798",
    "city": "Hohenferchesar"
  },
  {
    "postcode": "14798",
    "city": "Krahnepuhl"
  },
  {
    "postcode": "14798",
    "city": "Kützkow"
  },
  {
    "postcode": "14798",
    "city": "Marzahne"
  },
  {
    "postcode": "14798",
    "city": "Pritzerbe"
  },
  {
    "postcode": "14798",
    "city": "Seelensdorf"
  },
  {
    "postcode": "14798",
    "city": "Tieckow"
  },
  {
    "postcode": "14798",
    "city": "Potsdam-Mittelmark"
  },
  {
    "postcode": "14798",
    "city": "Milower Land"
  },
  {
    "postcode": "14798",
    "city": "Briest"
  },
  {
    "postcode": "14806",
    "city": "Baitz"
  },
  {
    "postcode": "14806",
    "city": "Belzig"
  },
  {
    "postcode": "14806",
    "city": "Benken"
  },
  {
    "postcode": "14806",
    "city": "Bergholz bei Belzig"
  },
  {
    "postcode": "14806",
    "city": "Borne bei Belzig"
  },
  {
    "postcode": "14806",
    "city": "Dahnsdorf"
  },
  {
    "postcode": "14806",
    "city": "Dippmannsdorf"
  },
  {
    "postcode": "14806",
    "city": "Egelinde"
  },
  {
    "postcode": "14806",
    "city": "Fredersdorf bei Belzig"
  },
  {
    "postcode": "14806",
    "city": "Groß Briesen bei Belzig"
  },
  {
    "postcode": "14806",
    "city": "Hagelberg"
  },
  {
    "postcode": "14806",
    "city": "Kranepuhl"
  },
  {
    "postcode": "14806",
    "city": "Kuhlowitz"
  },
  {
    "postcode": "14806",
    "city": "Locktow"
  },
  {
    "postcode": "14806",
    "city": "Lübnitz"
  },
  {
    "postcode": "14806",
    "city": "Lüsse"
  },
  {
    "postcode": "14806",
    "city": "Lütte"
  },
  {
    "postcode": "14806",
    "city": "Mörz bei Belzig"
  },
  {
    "postcode": "14806",
    "city": "Neschholz"
  },
  {
    "postcode": "14806",
    "city": "Planetal"
  },
  {
    "postcode": "14806",
    "city": "Ragösen bei Belzig"
  },
  {
    "postcode": "14806",
    "city": "Schwanebeck bei Belzig"
  },
  {
    "postcode": "14806",
    "city": "Verlorenwasser"
  },
  {
    "postcode": "14806",
    "city": "Weitzgrund"
  },
  {
    "postcode": "14806",
    "city": "Werbig bei Belzig"
  },
  {
    "postcode": "14806",
    "city": "Potsdam-Mittelmark"
  },
  {
    "postcode": "14806",
    "city": "Bad Belzig"
  },
  {
    "postcode": "14806",
    "city": "Mörz"
  },
  {
    "postcode": "14806",
    "city": "Ziezow"
  },
  {
    "postcode": "14806",
    "city": "Borne"
  },
  {
    "postcode": "14806",
    "city": "Groß Briesen"
  },
  {
    "postcode": "14806",
    "city": "Schwanebeck"
  },
  {
    "postcode": "14806",
    "city": "Werbig"
  },
  {
    "postcode": "14806",
    "city": "Fredersdorf"
  },
  {
    "postcode": "14806",
    "city": "Bergholz"
  },
  {
    "postcode": "14806",
    "city": "Klein-Glien"
  },
  {
    "postcode": "14806",
    "city": "Ragösen"
  },
  {
    "postcode": "14806",
    "city": "Preußnitz"
  },
  {
    "postcode": "14806",
    "city": "Klein Briesen"
  },
  {
    "postcode": "14822",
    "city": "Alt Bork"
  },
  {
    "postcode": "14822",
    "city": "Borkheide"
  },
  {
    "postcode": "14822",
    "city": "Borkwalde"
  },
  {
    "postcode": "14822",
    "city": "Brachwitz bei Belzig"
  },
  {
    "postcode": "14822",
    "city": "Brück Mark"
  },
  {
    "postcode": "14822",
    "city": "Brück"
  },
  {
    "postcode": "14822",
    "city": "Cammer bei Brück Mark"
  },
  {
    "postcode": "14822",
    "city": "Cammer bei Brück"
  },
  {
    "postcode": "14822",
    "city": "Damelang-Freienthal"
  },
  {
    "postcode": "14822",
    "city": "Deutsch Bork"
  },
  {
    "postcode": "14822",
    "city": "Linthe"
  },
  {
    "postcode": "14822",
    "city": "Mühlenfließ"
  },
  {
    "postcode": "14822",
    "city": "Neuendorf bei Brück"
  },
  {
    "postcode": "14822",
    "city": "Nichel"
  },
  {
    "postcode": "14822",
    "city": "Niederwerbig"
  },
  {
    "postcode": "14822",
    "city": "Planebruch"
  },
  {
    "postcode": "14822",
    "city": "Schlalach"
  },
  {
    "postcode": "14822",
    "city": "Potsdam-Mittelmark"
  },
  {
    "postcode": "14822",
    "city": "Neuendorf"
  },
  {
    "postcode": "14822",
    "city": "Trebitz"
  },
  {
    "postcode": "14822",
    "city": "Baitz"
  },
  {
    "postcode": "14822",
    "city": "Brück-Ausbau"
  },
  {
    "postcode": "14822",
    "city": "Gömnigk"
  },
  {
    "postcode": "14822",
    "city": "Jeserig"
  },
  {
    "postcode": "14822",
    "city": "Damelang"
  },
  {
    "postcode": "14822",
    "city": "Cammer"
  },
  {
    "postcode": "14822",
    "city": "Freienthal"
  },
  {
    "postcode": "14822",
    "city": "Oberjünne"
  },
  {
    "postcode": "14823",
    "city": "Buchholz bei Niemegk"
  },
  {
    "postcode": "14823",
    "city": "Garrey"
  },
  {
    "postcode": "14823",
    "city": "Groß Marzehns"
  },
  {
    "postcode": "14823",
    "city": "Grubo"
  },
  {
    "postcode": "14823",
    "city": "Haseloff"
  },
  {
    "postcode": "14823",
    "city": "Haseloff-Grabow"
  },
  {
    "postcode": "14823",
    "city": "Klein Marzehns"
  },
  {
    "postcode": "14823",
    "city": "Klepzig"
  },
  {
    "postcode": "14823",
    "city": "Lehnsdorf"
  },
  {
    "postcode": "14823",
    "city": "Mühlenfließ"
  },
  {
    "postcode": "14823",
    "city": "Mützdorf"
  },
  {
    "postcode": "14823",
    "city": "Niemegk"
  },
  {
    "postcode": "14823",
    "city": "Raben bei Niemegk"
  },
  {
    "postcode": "14823",
    "city": "Rabenstein / Fläming"
  },
  {
    "postcode": "14823",
    "city": "Rabenstein"
  },
  {
    "postcode": "14823",
    "city": "Rädigke"
  },
  {
    "postcode": "14823",
    "city": "Potsdam-Mittelmark"
  },
  {
    "postcode": "14823",
    "city": "Buchholz"
  },
  {
    "postcode": "14823",
    "city": "Grabow"
  },
  {
    "postcode": "14823",
    "city": "Hohenwerbig"
  },
  {
    "postcode": "14823",
    "city": "Lühnsdorf"
  },
  {
    "postcode": "14823",
    "city": "Neuendorf b Niemegk"
  },
  {
    "postcode": "14823",
    "city": "Raben"
  },
  {
    "postcode": "14823",
    "city": "Rabenstein/Fläming"
  },
  {
    "postcode": "14823",
    "city": "Zixdorf"
  },
  {
    "postcode": "14827",
    "city": "Grubo"
  },
  {
    "postcode": "14827",
    "city": "Jeserig"
  },
  {
    "postcode": "14827",
    "city": "Jeserigerhütten"
  },
  {
    "postcode": "14827",
    "city": "Lehnsdorf"
  },
  {
    "postcode": "14827",
    "city": "Medewitz"
  },
  {
    "postcode": "14827",
    "city": "Mützdorf"
  },
  {
    "postcode": "14827",
    "city": "Neuehütten"
  },
  {
    "postcode": "14827",
    "city": "Reetz"
  },
  {
    "postcode": "14827",
    "city": "Reetzerhütten"
  },
  {
    "postcode": "14827",
    "city": "Reppinichen"
  },
  {
    "postcode": "14827",
    "city": "Schlamau"
  },
  {
    "postcode": "14827",
    "city": "Schmerwitz"
  },
  {
    "postcode": "14827",
    "city": "Setzsteig"
  },
  {
    "postcode": "14827",
    "city": "Spring"
  },
  {
    "postcode": "14827",
    "city": "Welsigke"
  },
  {
    "postcode": "14827",
    "city": "Wiesenburg / Mark"
  },
  {
    "postcode": "14827",
    "city": "Wiesenburg"
  },
  {
    "postcode": "14827",
    "city": "Wiesenburg Mark"
  },
  {
    "postcode": "14827",
    "city": "Potsdam-Mittelmark"
  },
  {
    "postcode": "14827",
    "city": "Wiesenburg/Mark"
  },
  {
    "postcode": "14827",
    "city": "Benken"
  },
  {
    "postcode": "14827",
    "city": "Wiesenburg Bahnhof"
  },
  {
    "postcode": "14827",
    "city": "Klepzig"
  },
  {
    "postcode": "14828",
    "city": "Görzke"
  },
  {
    "postcode": "14828",
    "city": "Hohenlobbese"
  },
  {
    "postcode": "14828",
    "city": "Reppinichen"
  },
  {
    "postcode": "14828",
    "city": "Potsdam-Mittelmark"
  },
  {
    "postcode": "14913",
    "city": "Altes Lager"
  },
  {
    "postcode": "14913",
    "city": "Bardenitz"
  },
  {
    "postcode": "14913",
    "city": "Blönsdorf"
  },
  {
    "postcode": "14913",
    "city": "Bochow bei Jüterbog"
  },
  {
    "postcode": "14913",
    "city": "Borgisdorf"
  },
  {
    "postcode": "14913",
    "city": "Buckow bei Jüterbog"
  },
  {
    "postcode": "14913",
    "city": "Danna"
  },
  {
    "postcode": "14913",
    "city": "Dennewitz"
  },
  {
    "postcode": "14913",
    "city": "Dietersdorf bei Jüterbog"
  },
  {
    "postcode": "14913",
    "city": "Feldheim bei Jüterbog"
  },
  {
    "postcode": "14913",
    "city": "Gräfendorf bei Jüterbog"
  },
  {
    "postcode": "14913",
    "city": "Grüna bei Jüterbog"
  },
  {
    "postcode": "14913",
    "city": "Herbersdorf bei Jüterbog"
  },
  {
    "postcode": "14913",
    "city": "Hohenahlsdorf"
  },
  {
    "postcode": "14913",
    "city": "Hohengörsdorf"
  },
  {
    "postcode": "14913",
    "city": "Hohenseefeld"
  },
  {
    "postcode": "14913",
    "city": "Ihlow bei Jüterbog"
  },
  {
    "postcode": "14913",
    "city": "Illmersdorf bei Jüterbog"
  },
  {
    "postcode": "14913",
    "city": "Jüterbog"
  },
  {
    "postcode": "14913",
    "city": "Kloster Zinna"
  },
  {
    "postcode": "14913",
    "city": "Langenlipsdorf"
  },
  {
    "postcode": "14913",
    "city": "Liepe bei Jüterbog"
  },
  {
    "postcode": "14913",
    "city": "Ließen"
  },
  {
    "postcode": "14913",
    "city": "Lobbese"
  },
  {
    "postcode": "14913",
    "city": "Malterhausen"
  },
  {
    "postcode": "14913",
    "city": "Markendorf bei Jüterbog"
  },
  {
    "postcode": "14913",
    "city": "Marzahna"
  },
  {
    "postcode": "14913",
    "city": "Meinsdorf bei Jüterbog"
  },
  {
    "postcode": "14913",
    "city": "Merzdorf bei Jüterbog"
  },
  {
    "postcode": "14913",
    "city": "Neuheim bei Jüterbog"
  },
  {
    "postcode": "14913",
    "city": "Neuhof bei Zinna"
  },
  {
    "postcode": "14913",
    "city": "Niebendorf-Heinsdorf"
  },
  {
    "postcode": "14913",
    "city": "Niederer Fläming"
  },
  {
    "postcode": "14913",
    "city": "Niedergörsdorf"
  },
  {
    "postcode": "14913",
    "city": "Nonnendorf bei Jüterbog"
  },
  {
    "postcode": "14913",
    "city": "Nuthe-Urstromtal"
  },
  {
    "postcode": "14913",
    "city": "Oehna bei Jüterbog"
  },
  {
    "postcode": "14913",
    "city": "Pechüle"
  },
  {
    "postcode": "14913",
    "city": "Petkus"
  },
  {
    "postcode": "14913",
    "city": "Pflügkuff"
  },
  {
    "postcode": "14913",
    "city": "Reinsdorf bei Jüterbog"
  },
  {
    "postcode": "14913",
    "city": "Riesdorf bei Jüterbog"
  },
  {
    "postcode": "14913",
    "city": "Rohrbeck bei Jüterbog"
  },
  {
    "postcode": "14913",
    "city": "Schlenzer"
  },
  {
    "postcode": "14913",
    "city": "Schmögelsdorf"
  },
  {
    "postcode": "14913",
    "city": "Schönefeld bei Jüterbog"
  },
  {
    "postcode": "14913",
    "city": "Schwabeck"
  },
  {
    "postcode": "14913",
    "city": "Seehausen bei Jüterbog"
  },
  {
    "postcode": "14913",
    "city": "Sernow"
  },
  {
    "postcode": "14913",
    "city": "Wahlsdorf bei Jüterbog"
  },
  {
    "postcode": "14913",
    "city": "Waltersdorf bei Jüterbog"
  },
  {
    "postcode": "14913",
    "city": "Welsickendorf"
  },
  {
    "postcode": "14913",
    "city": "Werbig bei Jüterbog"
  },
  {
    "postcode": "14913",
    "city": "Werder bei Jüterbog"
  },
  {
    "postcode": "14913",
    "city": "Wergzahna"
  },
  {
    "postcode": "14913",
    "city": "Wiepersdorf bei Jüterbog"
  },
  {
    "postcode": "14913",
    "city": "Zellendorf"
  },
  {
    "postcode": "14913",
    "city": "Zeuden"
  },
  {
    "postcode": "14913",
    "city": "Teltow-Fläming"
  },
  {
    "postcode": "14913",
    "city": "Bärwalde"
  },
  {
    "postcode": "14913",
    "city": "Gräfendorf"
  },
  {
    "postcode": "14913",
    "city": "Höfgen"
  },
  {
    "postcode": "14913",
    "city": "Herbersdorf"
  },
  {
    "postcode": "14913",
    "city": "Körbitz"
  },
  {
    "postcode": "14913",
    "city": "Kossin"
  },
  {
    "postcode": "14913",
    "city": "Lichterfelde"
  },
  {
    "postcode": "14913",
    "city": "Meinsdorf"
  },
  {
    "postcode": "14913",
    "city": "Nonnendorf"
  },
  {
    "postcode": "14913",
    "city": "Reinsdorf"
  },
  {
    "postcode": "14913",
    "city": "Riesdorf"
  },
  {
    "postcode": "14913",
    "city": "Rinow"
  },
  {
    "postcode": "14913",
    "city": "Waltersdorf"
  },
  {
    "postcode": "14913",
    "city": "Weißen"
  },
  {
    "postcode": "14913",
    "city": "Werbig"
  },
  {
    "postcode": "14913",
    "city": "Wiepersdorf"
  },
  {
    "postcode": "14913",
    "city": "Werder"
  },
  {
    "postcode": "14913",
    "city": "Neuheim"
  },
  {
    "postcode": "14913",
    "city": "Fröhden"
  },
  {
    "postcode": "14913",
    "city": "Markendorf"
  },
  {
    "postcode": "14913",
    "city": "Grüna"
  },
  {
    "postcode": "14913",
    "city": "Neuhof b Zinna"
  },
  {
    "postcode": "14913",
    "city": "Oehna"
  },
  {
    "postcode": "14913",
    "city": "Rohrbeck"
  },
  {
    "postcode": "14913",
    "city": "Wölmsdorf"
  },
  {
    "postcode": "14913",
    "city": "Bochow"
  },
  {
    "postcode": "14913",
    "city": "Dalichow"
  },
  {
    "postcode": "14913",
    "city": "Gölsdorf"
  },
  {
    "postcode": "14913",
    "city": "Kaltenborn"
  },
  {
    "postcode": "14913",
    "city": "Eckmannsdorf"
  },
  {
    "postcode": "14913",
    "city": "Kurzlipsdorf"
  },
  {
    "postcode": "14913",
    "city": "Lindow"
  },
  {
    "postcode": "14913",
    "city": "Mellnsdorf"
  },
  {
    "postcode": "14913",
    "city": "Seehausen"
  },
  {
    "postcode": "14913",
    "city": "Schönefeld"
  },
  {
    "postcode": "14929",
    "city": "Bardenitz"
  },
  {
    "postcode": "14929",
    "city": "Brachwitz bei Belzig"
  },
  {
    "postcode": "14929",
    "city": "Dietersdorf bei Jüterbog"
  },
  {
    "postcode": "14929",
    "city": "Feldheim bei Jüterbog"
  },
  {
    "postcode": "14929",
    "city": "Lobbese"
  },
  {
    "postcode": "14929",
    "city": "Lühsdorf"
  },
  {
    "postcode": "14929",
    "city": "Marzahna"
  },
  {
    "postcode": "14929",
    "city": "Niebel"
  },
  {
    "postcode": "14929",
    "city": "Niebelhorst"
  },
  {
    "postcode": "14929",
    "city": "Pechüle"
  },
  {
    "postcode": "14929",
    "city": "Pflügkuff"
  },
  {
    "postcode": "14929",
    "city": "Rietz bei Jüterbog"
  },
  {
    "postcode": "14929",
    "city": "Schmögelsdorf"
  },
  {
    "postcode": "14929",
    "city": "Schwabeck"
  },
  {
    "postcode": "14929",
    "city": "Tiefenbrunnen"
  },
  {
    "postcode": "14929",
    "city": "Treuenbrietzen"
  },
  {
    "postcode": "14929",
    "city": "Zeuden"
  },
  {
    "postcode": "14929",
    "city": "Potsdam-Mittelmark"
  },
  {
    "postcode": "14929",
    "city": "Frohnsdorf"
  },
  {
    "postcode": "14929",
    "city": "Brachwitz"
  },
  {
    "postcode": "14929",
    "city": "Rietz"
  },
  {
    "postcode": "14929",
    "city": "Dietersdorf"
  },
  {
    "postcode": "14929",
    "city": "Feldheim"
  },
  {
    "postcode": "14929",
    "city": "Klausdorf"
  },
  {
    "postcode": "14929",
    "city": "Treuenbrietzen-Ausbau"
  },
  {
    "postcode": "14929",
    "city": "Lüdendorf"
  },
  {
    "postcode": "14943",
    "city": "Berkenbrück bei Luckenwalde"
  },
  {
    "postcode": "14943",
    "city": "Dobbrikow"
  },
  {
    "postcode": "14943",
    "city": "Dümde"
  },
  {
    "postcode": "14943",
    "city": "Felgentreu"
  },
  {
    "postcode": "14943",
    "city": "Frankenfelde bei Luckenwalde"
  },
  {
    "postcode": "14943",
    "city": "Frankenförde"
  },
  {
    "postcode": "14943",
    "city": "Gottow"
  },
  {
    "postcode": "14943",
    "city": "Hennickendorf bei Luckenwalde"
  },
  {
    "postcode": "14943",
    "city": "Holbeck"
  },
  {
    "postcode": "14943",
    "city": "Jänickendorf bei Luckenwalde"
  },
  {
    "postcode": "14943",
    "city": "Kemnitz bei Luckenwalde"
  },
  {
    "postcode": "14943",
    "city": "Kolzenburg"
  },
  {
    "postcode": "14943",
    "city": "Luckenwalde"
  },
  {
    "postcode": "14943",
    "city": "Lüdersdorf bei Luckenwalde"
  },
  {
    "postcode": "14943",
    "city": "Lühsdorf"
  },
  {
    "postcode": "14943",
    "city": "Lynow"
  },
  {
    "postcode": "14943",
    "city": "Märtensmühle"
  },
  {
    "postcode": "14943",
    "city": "Nettgendorf"
  },
  {
    "postcode": "14943",
    "city": "Ruhlsdorf bei Luckenwalde"
  },
  {
    "postcode": "14943",
    "city": "Scharfenbrück"
  },
  {
    "postcode": "14943",
    "city": "Schönefeld bei Luckenwalde"
  },
  {
    "postcode": "14943",
    "city": "Schöneweide"
  },
  {
    "postcode": "14943",
    "city": "Stülpe"
  },
  {
    "postcode": "14943",
    "city": "Wiesenhagen"
  },
  {
    "postcode": "14943",
    "city": "Woltersdorf bei Luckenwalde"
  },
  {
    "postcode": "14943",
    "city": "Zülichendorf bei Luckenwalde"
  },
  {
    "postcode": "14943",
    "city": "Potsdam-Mittelmark"
  },
  {
    "postcode": "14943",
    "city": "Frankenfelde"
  },
  {
    "postcode": "14947",
    "city": "Berkenbrück bei Luckenwalde"
  },
  {
    "postcode": "14947",
    "city": "Dobbrikow"
  },
  {
    "postcode": "14947",
    "city": "Dümde"
  },
  {
    "postcode": "14947",
    "city": "Felgentreu"
  },
  {
    "postcode": "14947",
    "city": "Frankenförde"
  },
  {
    "postcode": "14947",
    "city": "Gottow"
  },
  {
    "postcode": "14947",
    "city": "Hennickendorf bei Luckenwalde"
  },
  {
    "postcode": "14947",
    "city": "Holbeck"
  },
  {
    "postcode": "14947",
    "city": "Jänickendorf bei Luckenwalde"
  },
  {
    "postcode": "14947",
    "city": "Kemnitz bei Luckenwalde"
  },
  {
    "postcode": "14947",
    "city": "Lynow"
  },
  {
    "postcode": "14947",
    "city": "Märtensmühle"
  },
  {
    "postcode": "14947",
    "city": "Nettgendorf"
  },
  {
    "postcode": "14947",
    "city": "Nuthe-Urstromtal"
  },
  {
    "postcode": "14947",
    "city": "Ruhlsdorf bei Luckenwalde"
  },
  {
    "postcode": "14947",
    "city": "Scharfenbrück"
  },
  {
    "postcode": "14947",
    "city": "Schönefeld bei Luckenwalde"
  },
  {
    "postcode": "14947",
    "city": "Schöneweide"
  },
  {
    "postcode": "14947",
    "city": "Stülpe"
  },
  {
    "postcode": "14947",
    "city": "Woltersdorf bei Luckenwalde"
  },
  {
    "postcode": "14947",
    "city": "Zülichendorf bei Luckenwalde"
  },
  {
    "postcode": "14947",
    "city": "Teltow-Fläming"
  },
  {
    "postcode": "14947",
    "city": "Zülichendorf"
  },
  {
    "postcode": "14947",
    "city": "Woltersdorf"
  },
  {
    "postcode": "14947",
    "city": "Jänickendorf"
  },
  {
    "postcode": "14947",
    "city": "Ruhlsdorf"
  },
  {
    "postcode": "14947",
    "city": "Berkenbrück"
  },
  {
    "postcode": "14947",
    "city": "Hennickendorf"
  },
  {
    "postcode": "14947",
    "city": "Gottsdorf"
  },
  {
    "postcode": "14947",
    "city": "Ahrensdorf"
  },
  {
    "postcode": "14947",
    "city": "Kemnitz"
  },
  {
    "postcode": "14947",
    "city": "Liebätz"
  },
  {
    "postcode": "14947",
    "city": "Schönefeld"
  },
  {
    "postcode": "14959",
    "city": "Blankensee bei Luckenwalde"
  },
  {
    "postcode": "14959",
    "city": "Glau"
  },
  {
    "postcode": "14959",
    "city": "Klein Schulzendorf"
  },
  {
    "postcode": "14959",
    "city": "Kliestow"
  },
  {
    "postcode": "14959",
    "city": "Schönhagen bei Luckenwalde"
  },
  {
    "postcode": "14959",
    "city": "Stangenhagen"
  },
  {
    "postcode": "14959",
    "city": "Trebbin"
  },
  {
    "postcode": "14959",
    "city": "Teltow-Fläming"
  },
  {
    "postcode": "14959",
    "city": "Thyrow"
  },
  {
    "postcode": "14959",
    "city": "Löwendorf"
  },
  {
    "postcode": "14959",
    "city": "Märkisch Wilmersdorf"
  },
  {
    "postcode": "14959",
    "city": "Großbeuthen"
  },
  {
    "postcode": "14959",
    "city": "Blankensee"
  },
  {
    "postcode": "14959",
    "city": "Schönhagen"
  },
  {
    "postcode": "14959",
    "city": "Wiesenhagen"
  },
  {
    "postcode": "14959",
    "city": "Christinendorf"
  },
  {
    "postcode": "14959",
    "city": "Lüdersdorf"
  },
  {
    "postcode": "14959",
    "city": "Kleinbeuthen"
  },
  {
    "postcode": "14959",
    "city": "Schönhagen Priedel"
  },
  {
    "postcode": "14974",
    "city": "Ahrensdorf bei Ludwigsfelde"
  },
  {
    "postcode": "14974",
    "city": "Genshagen"
  },
  {
    "postcode": "14974",
    "city": "Gröben bei Ludwigsfelde"
  },
  {
    "postcode": "14974",
    "city": "Groß Schulzendorf"
  },
  {
    "postcode": "14974",
    "city": "Großbeuthen"
  },
  {
    "postcode": "14974",
    "city": "Kerzendorf bei Ludwigsfelde"
  },
  {
    "postcode": "14974",
    "city": "Löwenbruch"
  },
  {
    "postcode": "14974",
    "city": "Ludwigsfelde"
  },
  {
    "postcode": "14974",
    "city": "Märkisch Wilmersdorf"
  },
  {
    "postcode": "14974",
    "city": "Siethen"
  },
  {
    "postcode": "14974",
    "city": "Thyrow"
  },
  {
    "postcode": "14974",
    "city": "Wietstock bei Ludwigsfelde"
  },
  {
    "postcode": "14974",
    "city": "Teltow-Fläming"
  },
  {
    "postcode": "14974",
    "city": "Gröben"
  },
  {
    "postcode": "14974",
    "city": "Ahrensdorf"
  },
  {
    "postcode": "14974",
    "city": "Wietstock"
  },
  {
    "postcode": "14974",
    "city": "Kerzendorf"
  },
  {
    "postcode": "14974",
    "city": "Schiaß"
  },
  {
    "postcode": "14974",
    "city": "Jütchendorf"
  },
  {
    "postcode": "14974",
    "city": "Mietgendorf"
  },
  {
    "postcode": "14979",
    "city": "Großbeeren"
  },
  {
    "postcode": "14979",
    "city": "Teltow-Fläming"
  },
  {
    "postcode": "14979",
    "city": "Diedersdorf"
  },
  {
    "postcode": "14979",
    "city": "Kleinbeeren"
  },
  {
    "postcode": "14979",
    "city": "Neubeeren"
  },
  {
    "postcode": "14979",
    "city": "Heinersdorf"
  },
  {
    "postcode": "14979",
    "city": "Birkenhain"
  },
  {
    "postcode": "14979",
    "city": "Birkholz"
  },
  {
    "postcode": "14979",
    "city": "Friederikenhof"
  },
  {
    "postcode": "14979",
    "city": "Osdorf"
  }
]