[
  {
    "postcode": "8107",
    "city": "Hartmannsdorf bei Kirchberg"
  },
  {
    "postcode": "8107",
    "city": "Hirschfeld bei Zwickau"
  },
  {
    "postcode": "8107",
    "city": "Kirchberg Sachsen"
  },
  {
    "postcode": "8107",
    "city": "Kirchberg"
  },
  {
    "postcode": "8107",
    "city": "Zwickau"
  },
  {
    "postcode": "8107",
    "city": "Hartmannsdorf"
  },
  {
    "postcode": "8107",
    "city": "Giegengrün"
  },
  {
    "postcode": "8107",
    "city": "Torfstich"
  },
  {
    "postcode": "8107",
    "city": "Cunersdorf"
  },
  {
    "postcode": "8107",
    "city": "Stangengrün"
  },
  {
    "postcode": "8107",
    "city": "Saupersdorf"
  },
  {
    "postcode": "8107",
    "city": "Burkersdorf"
  },
  {
    "postcode": "8107",
    "city": "Wolfersgrün"
  },
  {
    "postcode": "8107",
    "city": "Leutersbach"
  },
  {
    "postcode": "8112",
    "city": "Wilkau-Haßlau"
  },
  {
    "postcode": "8112",
    "city": "Zwickau"
  },
  {
    "postcode": "8112",
    "city": "Silberstraße"
  },
  {
    "postcode": "8112",
    "city": "Culitzsch"
  },
  {
    "postcode": "8115",
    "city": "Lichtentanne"
  },
  {
    "postcode": "8115",
    "city": "Zwickau"
  },
  {
    "postcode": "8115",
    "city": "Ebersbrunn"
  },
  {
    "postcode": "8115",
    "city": "Altrottmannsdorf"
  },
  {
    "postcode": "8115",
    "city": "Stenn"
  },
  {
    "postcode": "8115",
    "city": "Schönfels"
  },
  {
    "postcode": "8115",
    "city": "Thanhof"
  },
  {
    "postcode": "8115",
    "city": "Waldhaus"
  },
  {
    "postcode": "8118",
    "city": "Hartenstein"
  },
  {
    "postcode": "8118",
    "city": "Hartenstein bei Zwickau"
  },
  {
    "postcode": "8118",
    "city": "Stein"
  },
  {
    "postcode": "8118",
    "city": "Thierfeld"
  },
  {
    "postcode": "8118",
    "city": "Zschocken"
  },
  {
    "postcode": "8118",
    "city": "Zwickau"
  },
  {
    "postcode": "8132",
    "city": "Berthelsdorf bei Zwickau"
  },
  {
    "postcode": "8132",
    "city": "Marienau bei Zwickau"
  },
  {
    "postcode": "8132",
    "city": "Mülsen"
  },
  {
    "postcode": "8132",
    "city": "Neuschönburg"
  },
  {
    "postcode": "8132",
    "city": "Niedermülsen"
  },
  {
    "postcode": "8132",
    "city": "Ortmannsdorf"
  },
  {
    "postcode": "8132",
    "city": "Sankt Jacob"
  },
  {
    "postcode": "8132",
    "city": "Sankt Micheln"
  },
  {
    "postcode": "8132",
    "city": "Sankt Niclas"
  },
  {
    "postcode": "8132",
    "city": "Stangendorf"
  },
  {
    "postcode": "8132",
    "city": "Thurm"
  },
  {
    "postcode": "8132",
    "city": "Wulm"
  },
  {
    "postcode": "8132",
    "city": "Zwickau"
  },
  {
    "postcode": "8132",
    "city": "Mülsen St Niclas"
  },
  {
    "postcode": "8132",
    "city": "Mülsen St Micheln"
  },
  {
    "postcode": "8132",
    "city": "Mülsen St Jacob"
  },
  {
    "postcode": "8132",
    "city": "Marienau"
  },
  {
    "postcode": "8132",
    "city": "Berthelsdorf"
  },
  {
    "postcode": "8134",
    "city": "Grünau bei Zwickau"
  },
  {
    "postcode": "8134",
    "city": "Härtensdorf"
  },
  {
    "postcode": "8134",
    "city": "Langenbach bei Zwickau"
  },
  {
    "postcode": "8134",
    "city": "Langenweißbach"
  },
  {
    "postcode": "8134",
    "city": "Schönau bei Zwickau"
  },
  {
    "postcode": "8134",
    "city": "Weißbach bei Zwickau"
  },
  {
    "postcode": "8134",
    "city": "Wiesen bei Zwickau"
  },
  {
    "postcode": "8134",
    "city": "Wiesenburg Sachsen"
  },
  {
    "postcode": "8134",
    "city": "Wiesenburg"
  },
  {
    "postcode": "8134",
    "city": "Wildenfels"
  },
  {
    "postcode": "8134",
    "city": "Wildenfels bei Zwickau"
  },
  {
    "postcode": "8134",
    "city": "Zwickau"
  },
  {
    "postcode": "8134",
    "city": "Wilkau-Haßlau"
  },
  {
    "postcode": "8134",
    "city": "Weißbach"
  },
  {
    "postcode": "8134",
    "city": "Langenbach"
  },
  {
    "postcode": "8134",
    "city": "Grünau"
  },
  {
    "postcode": "8134",
    "city": "Schönau"
  },
  {
    "postcode": "8134",
    "city": "Wiesen"
  },
  {
    "postcode": "8141",
    "city": "Reinsdorf bei Zwickau"
  },
  {
    "postcode": "8141",
    "city": "Zwickau"
  },
  {
    "postcode": "8141",
    "city": "Reinsdorf"
  },
  {
    "postcode": "8141",
    "city": "Vielau"
  },
  {
    "postcode": "8141",
    "city": "Friedrichsgrün"
  },
  {
    "postcode": "8141",
    "city": "Wilhelmshöhe"
  },
  {
    "postcode": "8144",
    "city": "Hirschfeld bei Zwickau"
  },
  {
    "postcode": "8144",
    "city": "Zwickau"
  },
  {
    "postcode": "8144",
    "city": "Hirschfeld"
  },
  {
    "postcode": "8144",
    "city": "Voigtsgrün"
  },
  {
    "postcode": "8144",
    "city": "Niedercrinitz"
  },
  {
    "postcode": "8147",
    "city": "Crinitzberg"
  },
  {
    "postcode": "8147",
    "city": "Zwickau"
  },
  {
    "postcode": "8147",
    "city": "Obercrinitz"
  },
  {
    "postcode": "8147",
    "city": "Bärenwalde"
  },
  {
    "postcode": "8147",
    "city": "Lauterhofen"
  },
  {
    "postcode": "81241",
    "city": "München"
  },
  {
    "postcode": "81241",
    "city": "Pasing-Obermenzing"
  },
  {
    "postcode": "81241",
    "city": "Aubing-Lochhausen-Langwied"
  },
  {
    "postcode": "81243",
    "city": "München"
  },
  {
    "postcode": "81243",
    "city": "Aubing-Lochhausen-Langwied"
  },
  {
    "postcode": "81243",
    "city": "Pasing-Obermenzing"
  },
  {
    "postcode": "81245",
    "city": "München"
  },
  {
    "postcode": "81245",
    "city": "Pasing-Obermenzing"
  },
  {
    "postcode": "81245",
    "city": "Aubing-Lochhausen-Langwied"
  },
  {
    "postcode": "81247",
    "city": "München"
  },
  {
    "postcode": "81247",
    "city": "Pasing-Obermenzing"
  },
  {
    "postcode": "81247",
    "city": "Allach-Untermenzing"
  },
  {
    "postcode": "81249",
    "city": "München"
  },
  {
    "postcode": "81249",
    "city": "Streiflach"
  },
  {
    "postcode": "81249",
    "city": "Aubing-Lochhausen-Langwied"
  },
  {
    "postcode": "81249",
    "city": "Allach-Untermenzing"
  },
  {
    "postcode": "81249",
    "city": "Pasing-Obermenzing"
  },
  {
    "postcode": "81369",
    "city": "München"
  },
  {
    "postcode": "81369",
    "city": "Sendling-Westpark"
  },
  {
    "postcode": "81369",
    "city": "Sendling"
  },
  {
    "postcode": "81369",
    "city": "Thalk.Obersendl.-Forsten-Fürstenr.-Solln"
  },
  {
    "postcode": "81371",
    "city": "München"
  },
  {
    "postcode": "81371",
    "city": "Sendling"
  },
  {
    "postcode": "81371",
    "city": "Thalk.Obersendl.-Forsten-Fürstenr.-Solln"
  },
  {
    "postcode": "81373",
    "city": "München"
  },
  {
    "postcode": "81373",
    "city": "Sendling-Westpark"
  },
  {
    "postcode": "81373",
    "city": "Sendling"
  },
  {
    "postcode": "81375",
    "city": "München"
  },
  {
    "postcode": "81375",
    "city": "Hadern"
  },
  {
    "postcode": "81377",
    "city": "München"
  },
  {
    "postcode": "81377",
    "city": "Hadern"
  },
  {
    "postcode": "81377",
    "city": "Sendling-Westpark"
  },
  {
    "postcode": "81379",
    "city": "München"
  },
  {
    "postcode": "81379",
    "city": "Sendling-Westpark"
  },
  {
    "postcode": "81379",
    "city": "Thalk.Obersendl.-Forsten-Fürstenr.-Solln"
  },
  {
    "postcode": "81379",
    "city": "Sendling"
  },
  {
    "postcode": "81475",
    "city": "München"
  },
  {
    "postcode": "81475",
    "city": "Thalk.Obersendl.-Forsten-Fürstenr.-Solln"
  },
  {
    "postcode": "81476",
    "city": "München"
  },
  {
    "postcode": "81476",
    "city": "Thalk.Obersendl.-Forsten-Fürstenr.-Solln"
  },
  {
    "postcode": "81477",
    "city": "München"
  },
  {
    "postcode": "81477",
    "city": "Thalk.Obersendl.-Forsten-Fürstenr.-Solln"
  },
  {
    "postcode": "81479",
    "city": "München"
  },
  {
    "postcode": "81479",
    "city": "Thalk.Obersendl.-Forsten-Fürstenr.-Solln"
  },
  {
    "postcode": "81539",
    "city": "München"
  },
  {
    "postcode": "81539",
    "city": "Obergiesing"
  },
  {
    "postcode": "81539",
    "city": "Ramersdorf-Perlach"
  },
  {
    "postcode": "81539",
    "city": "Untergiesing-Harlaching"
  },
  {
    "postcode": "81541",
    "city": "München"
  },
  {
    "postcode": "81541",
    "city": "Au-Haidhausen"
  },
  {
    "postcode": "81541",
    "city": "Obergiesing"
  },
  {
    "postcode": "81541",
    "city": "Ramersdorf-Perlach"
  },
  {
    "postcode": "81543",
    "city": "München"
  },
  {
    "postcode": "81543",
    "city": "Untergiesing-Harlaching"
  },
  {
    "postcode": "81543",
    "city": "Au-Haidhausen"
  },
  {
    "postcode": "81545",
    "city": "München"
  },
  {
    "postcode": "81545",
    "city": "Untergiesing-Harlaching"
  },
  {
    "postcode": "81545",
    "city": "Perlacher Forst"
  },
  {
    "postcode": "81547",
    "city": "München"
  },
  {
    "postcode": "81547",
    "city": "Untergiesing-Harlaching"
  },
  {
    "postcode": "81547",
    "city": "Obergiesing"
  },
  {
    "postcode": "81549",
    "city": "München"
  },
  {
    "postcode": "81549",
    "city": "Obergiesing"
  },
  {
    "postcode": "81549",
    "city": "Ramersdorf-Perlach"
  },
  {
    "postcode": "81549",
    "city": "Gemeinde Neubiberg"
  },
  {
    "postcode": "81549",
    "city": "Untergiesing-Harlaching"
  },
  {
    "postcode": "81667",
    "city": "München"
  },
  {
    "postcode": "81667",
    "city": "Au-Haidhausen"
  },
  {
    "postcode": "81669",
    "city": "München"
  },
  {
    "postcode": "81669",
    "city": "Ramersdorf-Perlach"
  },
  {
    "postcode": "81669",
    "city": "Au-Haidhausen"
  },
  {
    "postcode": "81671",
    "city": "Berg am Laim"
  },
  {
    "postcode": "81671",
    "city": "München"
  },
  {
    "postcode": "81671",
    "city": "Ramersdorf-Perlach"
  },
  {
    "postcode": "81671",
    "city": "Au-Haidhausen"
  },
  {
    "postcode": "81673",
    "city": "Berg am Laim"
  },
  {
    "postcode": "81673",
    "city": "München"
  },
  {
    "postcode": "81675",
    "city": "Bogenhausen"
  },
  {
    "postcode": "81675",
    "city": "München"
  },
  {
    "postcode": "81675",
    "city": "Au-Haidhausen"
  },
  {
    "postcode": "81677",
    "city": "Berg am Laim"
  },
  {
    "postcode": "81677",
    "city": "Bogenhausen"
  },
  {
    "postcode": "81677",
    "city": "München"
  },
  {
    "postcode": "81677",
    "city": "Au-Haidhausen"
  },
  {
    "postcode": "81679",
    "city": "Bogenhausen"
  },
  {
    "postcode": "81679",
    "city": "München"
  },
  {
    "postcode": "81735",
    "city": "Berg am Laim"
  },
  {
    "postcode": "81735",
    "city": "München"
  },
  {
    "postcode": "81735",
    "city": "Ramersdorf-Perlach"
  },
  {
    "postcode": "81735",
    "city": "Trudering-Riem"
  },
  {
    "postcode": "81737",
    "city": "München"
  },
  {
    "postcode": "81737",
    "city": "Ramersdorf-Perlach"
  },
  {
    "postcode": "81739",
    "city": "München"
  },
  {
    "postcode": "81739",
    "city": "Ramersdorf-Perlach"
  },
  {
    "postcode": "81825",
    "city": "Berg am Laim"
  },
  {
    "postcode": "81825",
    "city": "München"
  },
  {
    "postcode": "81825",
    "city": "Trudering-Riem"
  },
  {
    "postcode": "81827",
    "city": "München"
  },
  {
    "postcode": "81827",
    "city": "Trudering-Riem"
  },
  {
    "postcode": "81827",
    "city": "Ramersdorf-Perlach"
  },
  {
    "postcode": "81829",
    "city": "München"
  },
  {
    "postcode": "81829",
    "city": "Trudering-Riem"
  },
  {
    "postcode": "81829",
    "city": "Berg am Laim"
  },
  {
    "postcode": "81925",
    "city": "Bogenhausen"
  },
  {
    "postcode": "81925",
    "city": "München"
  },
  {
    "postcode": "81927",
    "city": "Bogenhausen"
  },
  {
    "postcode": "81927",
    "city": "München"
  },
  {
    "postcode": "81929",
    "city": "Bogenhausen"
  },
  {
    "postcode": "81929",
    "city": "München"
  },
  {
    "postcode": "81929",
    "city": "Trudering-Riem"
  }
]