[
  {
    "postcode": "1108",
    "city": "Dresden"
  },
  {
    "postcode": "1108",
    "city": "Gorbitz"
  },
  {
    "postcode": "1108",
    "city": "Johannstadt"
  },
  {
    "postcode": "1108",
    "city": "Stetzsch"
  },
  {
    "postcode": "1108",
    "city": "Weixdorf"
  },
  {
    "postcode": "1108",
    "city": "Marsdorf"
  },
  {
    "postcode": "1109",
    "city": "Dresden"
  },
  {
    "postcode": "1109",
    "city": "Gorbitz"
  },
  {
    "postcode": "1109",
    "city": "Johannstadt"
  },
  {
    "postcode": "1109",
    "city": "Stetzsch"
  },
  {
    "postcode": "1109",
    "city": "Klotzsche"
  },
  {
    "postcode": "1109",
    "city": "Hellerau/Wilschdorf"
  },
  {
    "postcode": "1109",
    "city": "Hellerberge"
  },
  {
    "postcode": "1109",
    "city": "Industriegebiet Klotzsche"
  },
  {
    "postcode": "1109",
    "city": "Dresdener Heide"
  },
  {
    "postcode": "1109",
    "city": "Hellerau"
  },
  {
    "postcode": "1127",
    "city": "Dresden"
  },
  {
    "postcode": "1127",
    "city": "Gorbitz"
  },
  {
    "postcode": "1127",
    "city": "Johannstadt"
  },
  {
    "postcode": "1127",
    "city": "Stetzsch"
  },
  {
    "postcode": "1127",
    "city": "Leipziger Vorstadt"
  },
  {
    "postcode": "1127",
    "city": "Pieschen-Süd"
  },
  {
    "postcode": "1127",
    "city": "Pieschen-Nord/Trachenberge"
  },
  {
    "postcode": "1127",
    "city": "Pieschen"
  },
  {
    "postcode": "1127",
    "city": "Hellerberge"
  },
  {
    "postcode": "1127",
    "city": "Mickten"
  },
  {
    "postcode": "1127",
    "city": "Pieschen-Nord"
  },
  {
    "postcode": "1129",
    "city": "Dresden"
  },
  {
    "postcode": "1129",
    "city": "Gorbitz"
  },
  {
    "postcode": "1129",
    "city": "Johannstadt"
  },
  {
    "postcode": "1129",
    "city": "Stetzsch"
  },
  {
    "postcode": "1129",
    "city": "Trachau"
  },
  {
    "postcode": "1129",
    "city": "Pieschen-Nord/Trachenberge"
  },
  {
    "postcode": "1129",
    "city": "Pieschen"
  },
  {
    "postcode": "1129",
    "city": "Hellerberge"
  },
  {
    "postcode": "1129",
    "city": "Pieschen-Nord"
  },
  {
    "postcode": "1139",
    "city": "Dresden"
  },
  {
    "postcode": "1139",
    "city": "Gorbitz"
  },
  {
    "postcode": "1139",
    "city": "Johannstadt"
  },
  {
    "postcode": "1139",
    "city": "Stetzsch"
  },
  {
    "postcode": "1139",
    "city": "Radebeul"
  },
  {
    "postcode": "1139",
    "city": "Kaditz"
  },
  {
    "postcode": "1139",
    "city": "Mickten"
  },
  {
    "postcode": "1139",
    "city": "Trachau"
  },
  {
    "postcode": "1139",
    "city": "Pieschen"
  },
  {
    "postcode": "1139",
    "city": "Pieschen-Süd"
  },
  {
    "postcode": "1156",
    "city": "Altfranken"
  },
  {
    "postcode": "1156",
    "city": "Dresden"
  },
  {
    "postcode": "1156",
    "city": "Gompitz"
  },
  {
    "postcode": "1156",
    "city": "Gorbitz"
  },
  {
    "postcode": "1156",
    "city": "Johannstadt"
  },
  {
    "postcode": "1156",
    "city": "Ockerwitz"
  },
  {
    "postcode": "1156",
    "city": "Pennrich"
  },
  {
    "postcode": "1156",
    "city": "Roitzsch bei Dresden"
  },
  {
    "postcode": "1156",
    "city": "Steinbach"
  },
  {
    "postcode": "1156",
    "city": "Stetzsch"
  },
  {
    "postcode": "1156",
    "city": "Unkersdorf"
  },
  {
    "postcode": "1156",
    "city": "Zöllmen"
  },
  {
    "postcode": "1156",
    "city": "Cossebaude"
  },
  {
    "postcode": "1156",
    "city": "Alt-Leuteritz"
  },
  {
    "postcode": "1156",
    "city": "Mobschatz"
  },
  {
    "postcode": "1156",
    "city": "Podemus"
  },
  {
    "postcode": "1156",
    "city": "Niederwartha"
  },
  {
    "postcode": "1156",
    "city": "Brabschütz"
  },
  {
    "postcode": "1156",
    "city": "Merbitz"
  },
  {
    "postcode": "1156",
    "city": "Gohlis"
  },
  {
    "postcode": "1156",
    "city": "Oberwartha"
  },
  {
    "postcode": "1156",
    "city": "Cotta"
  },
  {
    "postcode": "1156",
    "city": "Rennersdorf"
  },
  {
    "postcode": "1156",
    "city": "Roitzsch"
  },
  {
    "postcode": "1157",
    "city": "Briesnitz"
  },
  {
    "postcode": "1157",
    "city": "Cotta"
  },
  {
    "postcode": "1157",
    "city": "Dresden"
  },
  {
    "postcode": "1157",
    "city": "Friedrichstadt"
  },
  {
    "postcode": "1157",
    "city": "Gorbitz"
  },
  {
    "postcode": "1157",
    "city": "Gorbitz-Ost"
  },
  {
    "postcode": "1157",
    "city": "Johannstadt"
  },
  {
    "postcode": "1157",
    "city": "Stetzsch"
  },
  {
    "postcode": "1157",
    "city": "Altstadt"
  },
  {
    "postcode": "1157",
    "city": "Gorbitz-Nord/Neu-Omsewitz"
  },
  {
    "postcode": "1157",
    "city": "Löbtau-Nord"
  },
  {
    "postcode": "1157",
    "city": "Gorbitz-Nord"
  },
  {
    "postcode": "1159",
    "city": "Cotta"
  },
  {
    "postcode": "1159",
    "city": "Dresden"
  },
  {
    "postcode": "1159",
    "city": "Friedrichstadt"
  },
  {
    "postcode": "1159",
    "city": "Gorbitz"
  },
  {
    "postcode": "1159",
    "city": "Gorbitz-Ost"
  },
  {
    "postcode": "1159",
    "city": "Johannstadt"
  },
  {
    "postcode": "1159",
    "city": "Naußlitz"
  },
  {
    "postcode": "1159",
    "city": "Stetzsch"
  },
  {
    "postcode": "1159",
    "city": "Löbtau-Süd"
  },
  {
    "postcode": "1159",
    "city": "Löbtau-Nord"
  },
  {
    "postcode": "1159",
    "city": "Altstadt"
  },
  {
    "postcode": "1159",
    "city": "Wilsdruffer Vorstadt/Seevorstadt-West"
  },
  {
    "postcode": "1159",
    "city": "Wilsdruffer Vorstadt"
  },
  {
    "postcode": "1169",
    "city": "Briesnitz"
  },
  {
    "postcode": "1169",
    "city": "Dresden"
  },
  {
    "postcode": "1169",
    "city": "Gorbitz"
  },
  {
    "postcode": "1169",
    "city": "Gorbitz-Ost"
  },
  {
    "postcode": "1169",
    "city": "Gorbitz-Süd"
  },
  {
    "postcode": "1169",
    "city": "Johannstadt"
  },
  {
    "postcode": "1169",
    "city": "Naußlitz"
  },
  {
    "postcode": "1169",
    "city": "Stetzsch"
  },
  {
    "postcode": "1169",
    "city": "Cotta"
  },
  {
    "postcode": "1169",
    "city": "Gorbitz-Nord/Neu-Omsewitz"
  },
  {
    "postcode": "1169",
    "city": "Gorbitz-Nord"
  },
  {
    "postcode": "1187",
    "city": "Dresden"
  },
  {
    "postcode": "1187",
    "city": "Gorbitz"
  },
  {
    "postcode": "1187",
    "city": "Johannstadt"
  },
  {
    "postcode": "1187",
    "city": "Naußlitz"
  },
  {
    "postcode": "1187",
    "city": "Stetzsch"
  },
  {
    "postcode": "1187",
    "city": "Löbtau-Nord"
  },
  {
    "postcode": "1187",
    "city": "Plauen"
  },
  {
    "postcode": "1187",
    "city": "Südvorstadt-West"
  },
  {
    "postcode": "1187",
    "city": "Löbtau-Süd"
  },
  {
    "postcode": "1187",
    "city": "Cotta"
  },
  {
    "postcode": "1187",
    "city": "Räcknitz/Zschertnitz"
  },
  {
    "postcode": "1187",
    "city": "Räcknitz"
  },
  {
    "postcode": "1189",
    "city": "Dresden"
  },
  {
    "postcode": "1189",
    "city": "Gorbitz"
  },
  {
    "postcode": "1189",
    "city": "Johannstadt"
  },
  {
    "postcode": "1189",
    "city": "Naußlitz"
  },
  {
    "postcode": "1189",
    "city": "Stetzsch"
  },
  {
    "postcode": "1189",
    "city": "Coschütz/Gittersee"
  },
  {
    "postcode": "1189",
    "city": "Plauen"
  },
  {
    "postcode": "1189",
    "city": "Kleinpestitz/Mockritz"
  },
  {
    "postcode": "1189",
    "city": "Räcknitz/Zschertnitz"
  },
  {
    "postcode": "1189",
    "city": "Coschütz"
  },
  {
    "postcode": "1189",
    "city": "Kleinpestitz"
  },
  {
    "postcode": "1189",
    "city": "Räcknitz"
  }
]