[
  {
    "postcode": "22041",
    "city": "Hamburg"
  },
  {
    "postcode": "22041",
    "city": "Hampuri"
  },
  {
    "postcode": "22041",
    "city": "Marienthal"
  },
  {
    "postcode": "22041",
    "city": "Tonndorf"
  },
  {
    "postcode": "22041",
    "city": "Wandsbek"
  },
  {
    "postcode": "22043",
    "city": "Hamburg"
  },
  {
    "postcode": "22043",
    "city": "Hampuri"
  },
  {
    "postcode": "22043",
    "city": "Jenfeld"
  },
  {
    "postcode": "22043",
    "city": "Marienthal"
  },
  {
    "postcode": "22043",
    "city": "Tonndorf"
  },
  {
    "postcode": "22043",
    "city": "Wandsbek"
  },
  {
    "postcode": "22045",
    "city": "Hamburg"
  },
  {
    "postcode": "22045",
    "city": "Hampuri"
  },
  {
    "postcode": "22045",
    "city": "Jenfeld"
  },
  {
    "postcode": "22045",
    "city": "Tonndorf"
  },
  {
    "postcode": "22045",
    "city": "Wandsbek"
  },
  {
    "postcode": "22047",
    "city": "Bramfeld"
  },
  {
    "postcode": "22047",
    "city": "Hamburg"
  },
  {
    "postcode": "22047",
    "city": "Hampuri"
  },
  {
    "postcode": "22047",
    "city": "Tonndorf"
  },
  {
    "postcode": "22047",
    "city": "Wandsbek"
  },
  {
    "postcode": "22049",
    "city": "Dulsberg"
  },
  {
    "postcode": "22049",
    "city": "Hamburg"
  },
  {
    "postcode": "22049",
    "city": "Hamburg-Nord"
  },
  {
    "postcode": "22049",
    "city": "Hampuri"
  },
  {
    "postcode": "22049",
    "city": "Wandsbek"
  },
  {
    "postcode": "22049",
    "city": "Barmbek-Nord"
  },
  {
    "postcode": "22081",
    "city": "Barmbek-Süd"
  },
  {
    "postcode": "22081",
    "city": "Hamburg"
  },
  {
    "postcode": "22081",
    "city": "Hamburg-Nord"
  },
  {
    "postcode": "22081",
    "city": "Hampuri"
  },
  {
    "postcode": "22081",
    "city": "Uhlenhorst"
  },
  {
    "postcode": "22083",
    "city": "Barmbek-Süd"
  },
  {
    "postcode": "22083",
    "city": "Hamburg"
  },
  {
    "postcode": "22083",
    "city": "Hamburg-Nord"
  },
  {
    "postcode": "22083",
    "city": "Hampuri"
  },
  {
    "postcode": "22085",
    "city": "Barmbek-Süd"
  },
  {
    "postcode": "22085",
    "city": "Hamburg"
  },
  {
    "postcode": "22085",
    "city": "Hamburg-Nord"
  },
  {
    "postcode": "22085",
    "city": "Hampuri"
  },
  {
    "postcode": "22085",
    "city": "Uhlenhorst"
  },
  {
    "postcode": "22085",
    "city": "Winterhude"
  },
  {
    "postcode": "22087",
    "city": "Eilbek"
  },
  {
    "postcode": "22087",
    "city": "Hamburg"
  },
  {
    "postcode": "22087",
    "city": "Hamburg-Mitte"
  },
  {
    "postcode": "22087",
    "city": "Hamburg-Nord"
  },
  {
    "postcode": "22087",
    "city": "Hamm-Nord"
  },
  {
    "postcode": "22087",
    "city": "Hampuri"
  },
  {
    "postcode": "22087",
    "city": "Hohenfelde"
  },
  {
    "postcode": "22087",
    "city": "Uhlenhorst"
  },
  {
    "postcode": "22087",
    "city": "Wandsbek"
  },
  {
    "postcode": "22087",
    "city": "Hamm"
  },
  {
    "postcode": "22087",
    "city": "St. Georg"
  },
  {
    "postcode": "22087",
    "city": "Borgfelde"
  },
  {
    "postcode": "22089",
    "city": "Eilbek"
  },
  {
    "postcode": "22089",
    "city": "Hamburg"
  },
  {
    "postcode": "22089",
    "city": "Hamburg-Mitte"
  },
  {
    "postcode": "22089",
    "city": "Hamburg-Nord"
  },
  {
    "postcode": "22089",
    "city": "Hamm-Nord"
  },
  {
    "postcode": "22089",
    "city": "Hampuri"
  },
  {
    "postcode": "22089",
    "city": "Hohenfelde"
  },
  {
    "postcode": "22089",
    "city": "Marienthal"
  },
  {
    "postcode": "22089",
    "city": "Wandsbek"
  },
  {
    "postcode": "22089",
    "city": "Barmbek-Süd"
  },
  {
    "postcode": "22089",
    "city": "Hamm"
  },
  {
    "postcode": "22111",
    "city": "Billbrook"
  },
  {
    "postcode": "22111",
    "city": "Billstedt"
  },
  {
    "postcode": "22111",
    "city": "Hamburg"
  },
  {
    "postcode": "22111",
    "city": "Hamburg-Mitte"
  },
  {
    "postcode": "22111",
    "city": "Hampuri"
  },
  {
    "postcode": "22111",
    "city": "Horn"
  },
  {
    "postcode": "22111",
    "city": "Hamm"
  },
  {
    "postcode": "22113",
    "city": "Allermöhe"
  },
  {
    "postcode": "22113",
    "city": "Bergedorf"
  },
  {
    "postcode": "22113",
    "city": "Billbrook"
  },
  {
    "postcode": "22113",
    "city": "Billstedt"
  },
  {
    "postcode": "22113",
    "city": "Billwerder"
  },
  {
    "postcode": "22113",
    "city": "Hamburg"
  },
  {
    "postcode": "22113",
    "city": "Hamburg-Mitte"
  },
  {
    "postcode": "22113",
    "city": "Hampuri"
  },
  {
    "postcode": "22113",
    "city": "Havighorst bei Hamburg"
  },
  {
    "postcode": "22113",
    "city": "Horn"
  },
  {
    "postcode": "22113",
    "city": "Lohbrügge"
  },
  {
    "postcode": "22113",
    "city": "Moorfleet"
  },
  {
    "postcode": "22113",
    "city": "Oststeinbek"
  },
  {
    "postcode": "22113",
    "city": "Havighorst"
  },
  {
    "postcode": "22115",
    "city": "Billstedt"
  },
  {
    "postcode": "22115",
    "city": "Hamburg"
  },
  {
    "postcode": "22115",
    "city": "Hamburg-Mitte"
  },
  {
    "postcode": "22115",
    "city": "Hampuri"
  },
  {
    "postcode": "22115",
    "city": "Lohbrügge"
  },
  {
    "postcode": "22117",
    "city": "Billstedt"
  },
  {
    "postcode": "22117",
    "city": "Hamburg"
  },
  {
    "postcode": "22117",
    "city": "Hamburg-Mitte"
  },
  {
    "postcode": "22117",
    "city": "Hampuri"
  },
  {
    "postcode": "22119",
    "city": "Billstedt"
  },
  {
    "postcode": "22119",
    "city": "Hamburg"
  },
  {
    "postcode": "22119",
    "city": "Hamburg-Mitte"
  },
  {
    "postcode": "22119",
    "city": "Hampuri"
  },
  {
    "postcode": "22119",
    "city": "Horn"
  },
  {
    "postcode": "22143",
    "city": "Hamburg"
  },
  {
    "postcode": "22143",
    "city": "Hampuri"
  },
  {
    "postcode": "22143",
    "city": "Rahlstedt"
  },
  {
    "postcode": "22143",
    "city": "Wandsbek"
  },
  {
    "postcode": "22145",
    "city": "Braak bei Hamburg"
  },
  {
    "postcode": "22145",
    "city": "Farmsen-Berne"
  },
  {
    "postcode": "22145",
    "city": "Hamburg"
  },
  {
    "postcode": "22145",
    "city": "Hampuri"
  },
  {
    "postcode": "22145",
    "city": "Rahlstedt"
  },
  {
    "postcode": "22145",
    "city": "Stapelfeld Bezirk Hamburg"
  },
  {
    "postcode": "22145",
    "city": "Stapelfeld"
  },
  {
    "postcode": "22145",
    "city": "Wandsbek"
  },
  {
    "postcode": "22145",
    "city": "Braak"
  },
  {
    "postcode": "22147",
    "city": "Hamburg"
  },
  {
    "postcode": "22147",
    "city": "Hampuri"
  },
  {
    "postcode": "22147",
    "city": "Rahlstedt"
  },
  {
    "postcode": "22147",
    "city": "Wandsbek"
  },
  {
    "postcode": "22149",
    "city": "Hamburg"
  },
  {
    "postcode": "22149",
    "city": "Hampuri"
  },
  {
    "postcode": "22149",
    "city": "Rahlstedt"
  },
  {
    "postcode": "22149",
    "city": "Tonndorf"
  },
  {
    "postcode": "22149",
    "city": "Wandsbek"
  },
  {
    "postcode": "22159",
    "city": "Bramfeld"
  },
  {
    "postcode": "22159",
    "city": "Farmsen-Berne"
  },
  {
    "postcode": "22159",
    "city": "Hamburg"
  },
  {
    "postcode": "22159",
    "city": "Hampuri"
  },
  {
    "postcode": "22159",
    "city": "Sasel"
  },
  {
    "postcode": "22159",
    "city": "Tonndorf"
  },
  {
    "postcode": "22159",
    "city": "Wandsbek"
  },
  {
    "postcode": "22159",
    "city": "Rahlstedt"
  },
  {
    "postcode": "22175",
    "city": "Bramfeld"
  },
  {
    "postcode": "22175",
    "city": "Hamburg"
  },
  {
    "postcode": "22175",
    "city": "Hampuri"
  },
  {
    "postcode": "22175",
    "city": "Wandsbek"
  },
  {
    "postcode": "22177",
    "city": "Bramfeld"
  },
  {
    "postcode": "22177",
    "city": "Hamburg"
  },
  {
    "postcode": "22177",
    "city": "Hampuri"
  },
  {
    "postcode": "22177",
    "city": "Steilshoop"
  },
  {
    "postcode": "22177",
    "city": "Wandsbek"
  },
  {
    "postcode": "22179",
    "city": "Bramfeld"
  },
  {
    "postcode": "22179",
    "city": "Hamburg"
  },
  {
    "postcode": "22179",
    "city": "Hampuri"
  },
  {
    "postcode": "22179",
    "city": "Wandsbek"
  },
  {
    "postcode": "22297",
    "city": "Alsterdorf"
  },
  {
    "postcode": "22297",
    "city": "Barmbek-Nord"
  },
  {
    "postcode": "22297",
    "city": "Groß Borstel"
  },
  {
    "postcode": "22297",
    "city": "Hamburg"
  },
  {
    "postcode": "22297",
    "city": "Hamburg-Nord"
  },
  {
    "postcode": "22297",
    "city": "Hampuri"
  },
  {
    "postcode": "22297",
    "city": "Winterhude"
  },
  {
    "postcode": "22299",
    "city": "Hamburg"
  },
  {
    "postcode": "22299",
    "city": "Hamburg-Nord"
  },
  {
    "postcode": "22299",
    "city": "Hampuri"
  },
  {
    "postcode": "22299",
    "city": "Winterhude"
  },
  {
    "postcode": "22301",
    "city": "Hamburg"
  },
  {
    "postcode": "22301",
    "city": "Hamburg-Nord"
  },
  {
    "postcode": "22301",
    "city": "Hampuri"
  },
  {
    "postcode": "22301",
    "city": "Winterhude"
  },
  {
    "postcode": "22303",
    "city": "Barmbek-Nord"
  },
  {
    "postcode": "22303",
    "city": "Hamburg"
  },
  {
    "postcode": "22303",
    "city": "Hamburg-Nord"
  },
  {
    "postcode": "22303",
    "city": "Hampuri"
  },
  {
    "postcode": "22303",
    "city": "Winterhude"
  },
  {
    "postcode": "22305",
    "city": "Barmbek-Nord"
  },
  {
    "postcode": "22305",
    "city": "Barmbek-Süd"
  },
  {
    "postcode": "22305",
    "city": "Hamburg"
  },
  {
    "postcode": "22305",
    "city": "Hamburg-Nord"
  },
  {
    "postcode": "22305",
    "city": "Hampuri"
  },
  {
    "postcode": "22305",
    "city": "Winterhude"
  },
  {
    "postcode": "22307",
    "city": "Barmbek-Nord"
  },
  {
    "postcode": "22307",
    "city": "Hamburg"
  },
  {
    "postcode": "22307",
    "city": "Hamburg-Nord"
  },
  {
    "postcode": "22307",
    "city": "Hampuri"
  },
  {
    "postcode": "22309",
    "city": "Barmbek-Nord"
  },
  {
    "postcode": "22309",
    "city": "Bramfeld"
  },
  {
    "postcode": "22309",
    "city": "Hamburg"
  },
  {
    "postcode": "22309",
    "city": "Hamburg-Nord"
  },
  {
    "postcode": "22309",
    "city": "Hampuri"
  },
  {
    "postcode": "22309",
    "city": "Ohlsdorf"
  },
  {
    "postcode": "22309",
    "city": "Steilshoop"
  },
  {
    "postcode": "22309",
    "city": "Wandsbek"
  },
  {
    "postcode": "22335",
    "city": "Alsterdorf"
  },
  {
    "postcode": "22335",
    "city": "Fuhlsbüttel"
  },
  {
    "postcode": "22335",
    "city": "Groß Borstel"
  },
  {
    "postcode": "22335",
    "city": "Hamburg"
  },
  {
    "postcode": "22335",
    "city": "Hamburg-Nord"
  },
  {
    "postcode": "22335",
    "city": "Hampuri"
  },
  {
    "postcode": "22335",
    "city": "Ohlsdorf"
  },
  {
    "postcode": "22337",
    "city": "Alsterdorf"
  },
  {
    "postcode": "22337",
    "city": "Hamburg"
  },
  {
    "postcode": "22337",
    "city": "Hamburg-Nord"
  },
  {
    "postcode": "22337",
    "city": "Hampuri"
  },
  {
    "postcode": "22337",
    "city": "Ohlsdorf"
  },
  {
    "postcode": "22339",
    "city": "Fuhlsbüttel"
  },
  {
    "postcode": "22339",
    "city": "Hamburg"
  },
  {
    "postcode": "22339",
    "city": "Hamburg-Nord"
  },
  {
    "postcode": "22339",
    "city": "Hampuri"
  },
  {
    "postcode": "22339",
    "city": "Hummelsbüttel"
  },
  {
    "postcode": "22339",
    "city": "Wandsbek"
  },
  {
    "postcode": "22359",
    "city": "Bergstedt"
  },
  {
    "postcode": "22359",
    "city": "Hamburg"
  },
  {
    "postcode": "22359",
    "city": "Hampuri"
  },
  {
    "postcode": "22359",
    "city": "Rahlstedt"
  },
  {
    "postcode": "22359",
    "city": "Volksdorf"
  },
  {
    "postcode": "22359",
    "city": "Wandsbek"
  },
  {
    "postcode": "22391",
    "city": "Bramfeld"
  },
  {
    "postcode": "22391",
    "city": "Hamburg"
  },
  {
    "postcode": "22391",
    "city": "Hamburg-Nord"
  },
  {
    "postcode": "22391",
    "city": "Hampuri"
  },
  {
    "postcode": "22391",
    "city": "Hummelsbüttel"
  },
  {
    "postcode": "22391",
    "city": "Ohlsdorf"
  },
  {
    "postcode": "22391",
    "city": "Poppenbüttel"
  },
  {
    "postcode": "22391",
    "city": "Sasel"
  },
  {
    "postcode": "22391",
    "city": "Wandsbek"
  },
  {
    "postcode": "22391",
    "city": "Wellingsbüttel"
  },
  {
    "postcode": "22393",
    "city": "Bramfeld"
  },
  {
    "postcode": "22393",
    "city": "Hamburg"
  },
  {
    "postcode": "22393",
    "city": "Hampuri"
  },
  {
    "postcode": "22393",
    "city": "Poppenbüttel"
  },
  {
    "postcode": "22393",
    "city": "Sasel"
  },
  {
    "postcode": "22393",
    "city": "Wandsbek"
  },
  {
    "postcode": "22393",
    "city": "Wellingsbüttel"
  },
  {
    "postcode": "22395",
    "city": "Bergstedt"
  },
  {
    "postcode": "22395",
    "city": "Hamburg"
  },
  {
    "postcode": "22395",
    "city": "Hampuri"
  },
  {
    "postcode": "22395",
    "city": "Poppenbüttel"
  },
  {
    "postcode": "22395",
    "city": "Sasel"
  },
  {
    "postcode": "22395",
    "city": "Wandsbek"
  },
  {
    "postcode": "22395",
    "city": "Wohldorf-Ohlstedt"
  },
  {
    "postcode": "22397",
    "city": "Duvenstedt"
  },
  {
    "postcode": "22397",
    "city": "Hamburg"
  },
  {
    "postcode": "22397",
    "city": "Hampuri"
  },
  {
    "postcode": "22397",
    "city": "Lemsahl-Mellingstedt"
  },
  {
    "postcode": "22397",
    "city": "Wandsbek"
  },
  {
    "postcode": "22397",
    "city": "Wohldorf-Ohlstedt"
  },
  {
    "postcode": "22399",
    "city": "Hamburg"
  },
  {
    "postcode": "22399",
    "city": "Hampuri"
  },
  {
    "postcode": "22399",
    "city": "Hummelsbüttel"
  },
  {
    "postcode": "22399",
    "city": "Lemsahl-Mellingstedt"
  },
  {
    "postcode": "22399",
    "city": "Poppenbüttel"
  },
  {
    "postcode": "22399",
    "city": "Wandsbek"
  },
  {
    "postcode": "22415",
    "city": "Fuhlsbüttel"
  },
  {
    "postcode": "22415",
    "city": "Hamburg"
  },
  {
    "postcode": "22415",
    "city": "Hamburg-Nord"
  },
  {
    "postcode": "22415",
    "city": "Hampuri"
  },
  {
    "postcode": "22415",
    "city": "Hummelsbüttel"
  },
  {
    "postcode": "22415",
    "city": "Langenhorn"
  },
  {
    "postcode": "22415",
    "city": "Wandsbek"
  },
  {
    "postcode": "22415",
    "city": "Niendorf"
  },
  {
    "postcode": "22417",
    "city": "Hamburg"
  },
  {
    "postcode": "22417",
    "city": "Hamburg-Nord"
  },
  {
    "postcode": "22417",
    "city": "Hampuri"
  },
  {
    "postcode": "22417",
    "city": "Hummelsbüttel"
  },
  {
    "postcode": "22417",
    "city": "Langenhorn"
  },
  {
    "postcode": "22417",
    "city": "Wandsbek"
  },
  {
    "postcode": "22419",
    "city": "Hamburg"
  },
  {
    "postcode": "22419",
    "city": "Hamburg-Nord"
  },
  {
    "postcode": "22419",
    "city": "Hampuri"
  },
  {
    "postcode": "22419",
    "city": "Langenhorn"
  },
  {
    "postcode": "22453",
    "city": "Eimsbüttel"
  },
  {
    "postcode": "22453",
    "city": "Fuhlsbüttel"
  },
  {
    "postcode": "22453",
    "city": "Groß Borstel"
  },
  {
    "postcode": "22453",
    "city": "Hamburg"
  },
  {
    "postcode": "22453",
    "city": "Hamburg-Nord"
  },
  {
    "postcode": "22453",
    "city": "Hampuri"
  },
  {
    "postcode": "22453",
    "city": "Niendorf"
  },
  {
    "postcode": "22455",
    "city": "Eimsbüttel"
  },
  {
    "postcode": "22455",
    "city": "Hamburg"
  },
  {
    "postcode": "22455",
    "city": "Hampuri"
  },
  {
    "postcode": "22455",
    "city": "Niendorf"
  },
  {
    "postcode": "22455",
    "city": "Schnelsen"
  },
  {
    "postcode": "22457",
    "city": "Eidelstedt"
  },
  {
    "postcode": "22457",
    "city": "Eimsbüttel"
  },
  {
    "postcode": "22457",
    "city": "Hamburg"
  },
  {
    "postcode": "22457",
    "city": "Hampuri"
  },
  {
    "postcode": "22457",
    "city": "Niendorf"
  },
  {
    "postcode": "22457",
    "city": "Schnelsen"
  },
  {
    "postcode": "22459",
    "city": "Eimsbüttel"
  },
  {
    "postcode": "22459",
    "city": "Hamburg"
  },
  {
    "postcode": "22459",
    "city": "Hampuri"
  },
  {
    "postcode": "22459",
    "city": "Niendorf"
  },
  {
    "postcode": "22459",
    "city": "Schnelsen"
  },
  {
    "postcode": "22523",
    "city": "Eidelstedt"
  },
  {
    "postcode": "22523",
    "city": "Eimsbüttel"
  },
  {
    "postcode": "22523",
    "city": "Hamburg"
  },
  {
    "postcode": "22523",
    "city": "Hampuri"
  },
  {
    "postcode": "22525",
    "city": "Altona"
  },
  {
    "postcode": "22525",
    "city": "Bahrenfeld"
  },
  {
    "postcode": "22525",
    "city": "Eidelstedt"
  },
  {
    "postcode": "22525",
    "city": "Eimsbüttel"
  },
  {
    "postcode": "22525",
    "city": "Hamburg"
  },
  {
    "postcode": "22525",
    "city": "Hampuri"
  },
  {
    "postcode": "22525",
    "city": "Lurup"
  },
  {
    "postcode": "22525",
    "city": "Stellingen"
  },
  {
    "postcode": "22527",
    "city": "Eidelstedt"
  },
  {
    "postcode": "22527",
    "city": "Eimsbüttel"
  },
  {
    "postcode": "22527",
    "city": "Hamburg"
  },
  {
    "postcode": "22527",
    "city": "Hampuri"
  },
  {
    "postcode": "22527",
    "city": "Lokstedt"
  },
  {
    "postcode": "22527",
    "city": "Stellingen"
  },
  {
    "postcode": "22529",
    "city": "Eimsbüttel"
  },
  {
    "postcode": "22529",
    "city": "Eppendorf"
  },
  {
    "postcode": "22529",
    "city": "Groß Borstel"
  },
  {
    "postcode": "22529",
    "city": "Hamburg"
  },
  {
    "postcode": "22529",
    "city": "Hamburg-Nord"
  },
  {
    "postcode": "22529",
    "city": "Hampuri"
  },
  {
    "postcode": "22529",
    "city": "Hoheluft-West"
  },
  {
    "postcode": "22529",
    "city": "Lokstedt"
  },
  {
    "postcode": "22529",
    "city": "Niendorf"
  },
  {
    "postcode": "22529",
    "city": "Stellingen"
  },
  {
    "postcode": "22547",
    "city": "Altona"
  },
  {
    "postcode": "22547",
    "city": "Bahrenfeld"
  },
  {
    "postcode": "22547",
    "city": "Eidelstedt"
  },
  {
    "postcode": "22547",
    "city": "Eimsbüttel"
  },
  {
    "postcode": "22547",
    "city": "Hamburg"
  },
  {
    "postcode": "22547",
    "city": "Hampuri"
  },
  {
    "postcode": "22547",
    "city": "Lurup"
  },
  {
    "postcode": "22547",
    "city": "Osdorf"
  },
  {
    "postcode": "22549",
    "city": "Altona"
  },
  {
    "postcode": "22549",
    "city": "Bahrenfeld"
  },
  {
    "postcode": "22549",
    "city": "Hamburg"
  },
  {
    "postcode": "22549",
    "city": "Hampuri"
  },
  {
    "postcode": "22549",
    "city": "Lurup"
  },
  {
    "postcode": "22549",
    "city": "Osdorf"
  },
  {
    "postcode": "22559",
    "city": "Altona"
  },
  {
    "postcode": "22559",
    "city": "Hamburg"
  },
  {
    "postcode": "22559",
    "city": "Hampuri"
  },
  {
    "postcode": "22559",
    "city": "Rissen"
  },
  {
    "postcode": "22587",
    "city": "Altona"
  },
  {
    "postcode": "22587",
    "city": "Blankenese"
  },
  {
    "postcode": "22587",
    "city": "Hamburg"
  },
  {
    "postcode": "22587",
    "city": "Hampuri"
  },
  {
    "postcode": "22587",
    "city": "Nienstedten"
  },
  {
    "postcode": "22587",
    "city": "Osdorf"
  },
  {
    "postcode": "22587",
    "city": "Rissen"
  },
  {
    "postcode": "22587",
    "city": "Sülldorf"
  },
  {
    "postcode": "22589",
    "city": "Altona"
  },
  {
    "postcode": "22589",
    "city": "Blankenese"
  },
  {
    "postcode": "22589",
    "city": "Hamburg"
  },
  {
    "postcode": "22589",
    "city": "Hampuri"
  },
  {
    "postcode": "22589",
    "city": "Iserbrook"
  },
  {
    "postcode": "22589",
    "city": "Osdorf"
  },
  {
    "postcode": "22589",
    "city": "Sülldorf"
  },
  {
    "postcode": "22605",
    "city": "Altona"
  },
  {
    "postcode": "22605",
    "city": "Bahrenfeld"
  },
  {
    "postcode": "22605",
    "city": "Groß Flottbek"
  },
  {
    "postcode": "22605",
    "city": "Hamburg"
  },
  {
    "postcode": "22605",
    "city": "Hampuri"
  },
  {
    "postcode": "22605",
    "city": "Othmarschen"
  },
  {
    "postcode": "22607",
    "city": "Altona"
  },
  {
    "postcode": "22607",
    "city": "Bahrenfeld"
  },
  {
    "postcode": "22607",
    "city": "Groß Flottbek"
  },
  {
    "postcode": "22607",
    "city": "Hamburg"
  },
  {
    "postcode": "22607",
    "city": "Hampuri"
  },
  {
    "postcode": "22607",
    "city": "Nienstedten"
  },
  {
    "postcode": "22607",
    "city": "Othmarschen"
  },
  {
    "postcode": "22609",
    "city": "Altona"
  },
  {
    "postcode": "22609",
    "city": "Groß Flottbek"
  },
  {
    "postcode": "22609",
    "city": "Hamburg"
  },
  {
    "postcode": "22609",
    "city": "Hampuri"
  },
  {
    "postcode": "22609",
    "city": "Nienstedten"
  },
  {
    "postcode": "22609",
    "city": "Osdorf"
  },
  {
    "postcode": "22609",
    "city": "Othmarschen"
  },
  {
    "postcode": "22761",
    "city": "Altona"
  },
  {
    "postcode": "22761",
    "city": "Bahrenfeld"
  },
  {
    "postcode": "22761",
    "city": "Hamburg"
  },
  {
    "postcode": "22761",
    "city": "Hampuri"
  },
  {
    "postcode": "22761",
    "city": "Altona-Nord"
  },
  {
    "postcode": "22763",
    "city": "Altona"
  },
  {
    "postcode": "22763",
    "city": "Hamburg"
  },
  {
    "postcode": "22763",
    "city": "Hampuri"
  },
  {
    "postcode": "22763",
    "city": "Othmarschen"
  },
  {
    "postcode": "22763",
    "city": "Ottensen"
  },
  {
    "postcode": "22765",
    "city": "Altona"
  },
  {
    "postcode": "22765",
    "city": "Altona-Altstadt"
  },
  {
    "postcode": "22765",
    "city": "Altona-Nord"
  },
  {
    "postcode": "22765",
    "city": "Hamburg"
  },
  {
    "postcode": "22765",
    "city": "Hampuri"
  },
  {
    "postcode": "22765",
    "city": "Ottensen"
  },
  {
    "postcode": "22767",
    "city": "Altona"
  },
  {
    "postcode": "22767",
    "city": "Altona-Altstadt"
  },
  {
    "postcode": "22767",
    "city": "Hamburg"
  },
  {
    "postcode": "22767",
    "city": "Hamburg-Mitte"
  },
  {
    "postcode": "22767",
    "city": "Hampuri"
  },
  {
    "postcode": "22767",
    "city": "Ottensen"
  },
  {
    "postcode": "22767",
    "city": "Sankt Pauli"
  },
  {
    "postcode": "22767",
    "city": "St. Pauli"
  },
  {
    "postcode": "22767",
    "city": "Sternschanze"
  },
  {
    "postcode": "22769",
    "city": "Altona"
  },
  {
    "postcode": "22769",
    "city": "Altona-Altstadt"
  },
  {
    "postcode": "22769",
    "city": "Altona-Nord"
  },
  {
    "postcode": "22769",
    "city": "Bahrenfeld"
  },
  {
    "postcode": "22769",
    "city": "Eimsbüttel"
  },
  {
    "postcode": "22769",
    "city": "Hamburg"
  },
  {
    "postcode": "22769",
    "city": "Hamburg-Mitte"
  },
  {
    "postcode": "22769",
    "city": "Hampuri"
  },
  {
    "postcode": "22769",
    "city": "Sankt Pauli"
  },
  {
    "postcode": "22769",
    "city": "Stellingen"
  },
  {
    "postcode": "22769",
    "city": "Sternschanze"
  },
  {
    "postcode": "22769",
    "city": "St. Pauli"
  },
  {
    "postcode": "22844",
    "city": "Friedrichsgabe"
  },
  {
    "postcode": "22844",
    "city": "Harksheide"
  },
  {
    "postcode": "22844",
    "city": "Norderstedt"
  },
  {
    "postcode": "22844",
    "city": "Segeberg"
  },
  {
    "postcode": "22846",
    "city": "Friedrichsgabe"
  },
  {
    "postcode": "22846",
    "city": "Garstedt bei Hamburg"
  },
  {
    "postcode": "22846",
    "city": "Harksheide"
  },
  {
    "postcode": "22846",
    "city": "Norderstedt"
  },
  {
    "postcode": "22846",
    "city": "Segeberg"
  },
  {
    "postcode": "22846",
    "city": "Garstedt"
  },
  {
    "postcode": "22848",
    "city": "Garstedt bei Hamburg"
  },
  {
    "postcode": "22848",
    "city": "Harksheide"
  },
  {
    "postcode": "22848",
    "city": "Norderstedt"
  },
  {
    "postcode": "22848",
    "city": "Segeberg"
  },
  {
    "postcode": "22848",
    "city": "Garstedt"
  },
  {
    "postcode": "22850",
    "city": "Garstedt bei Hamburg"
  },
  {
    "postcode": "22850",
    "city": "Harksheide"
  },
  {
    "postcode": "22850",
    "city": "Norderstedt"
  },
  {
    "postcode": "22850",
    "city": "Segeberg"
  },
  {
    "postcode": "22850",
    "city": "Garstedt"
  },
  {
    "postcode": "22851",
    "city": "Glashütte bei Hamburg"
  },
  {
    "postcode": "22851",
    "city": "Harksheide"
  },
  {
    "postcode": "22851",
    "city": "Norderstedt"
  },
  {
    "postcode": "22851",
    "city": "Segeberg"
  },
  {
    "postcode": "22851",
    "city": "Glashütte"
  },
  {
    "postcode": "22851",
    "city": "Garstedt"
  },
  {
    "postcode": "22869",
    "city": "Schenefeld bei Hamburg"
  },
  {
    "postcode": "22869",
    "city": "Pinneberg"
  },
  {
    "postcode": "22869",
    "city": "Schenefeld"
  },
  {
    "postcode": "22880",
    "city": "Wedel"
  },
  {
    "postcode": "22880",
    "city": "Pinneberg"
  },
  {
    "postcode": "22885",
    "city": "Barsbüttel"
  },
  {
    "postcode": "22885",
    "city": "Stellau"
  },
  {
    "postcode": "22885",
    "city": "Stemwarde"
  },
  {
    "postcode": "22885",
    "city": "Willinghusen"
  },
  {
    "postcode": "22885",
    "city": "Stormarn"
  },
  {
    "postcode": "22885",
    "city": "Stadt Glinde"
  },
  {
    "postcode": "22889",
    "city": "Ehlersberg Kreis Stormarn"
  },
  {
    "postcode": "22889",
    "city": "Ehlersberg"
  },
  {
    "postcode": "22889",
    "city": "Rade Kreis Stormarn"
  },
  {
    "postcode": "22889",
    "city": "Rade"
  },
  {
    "postcode": "22889",
    "city": "Tangstedt Bezirk Hamburg"
  },
  {
    "postcode": "22889",
    "city": "Tangstedt"
  },
  {
    "postcode": "22889",
    "city": "Tangstedt Kreis Stormarn"
  },
  {
    "postcode": "22889",
    "city": "Wiemerskamp Kreis Stormarn"
  },
  {
    "postcode": "22889",
    "city": "Wiemerskamp"
  },
  {
    "postcode": "22889",
    "city": "Wilstedt Kreis Stormarn"
  },
  {
    "postcode": "22889",
    "city": "Wilstedt"
  },
  {
    "postcode": "22889",
    "city": "Wulksfelde Bezirk Hamburg"
  },
  {
    "postcode": "22889",
    "city": "Wulksfelde"
  },
  {
    "postcode": "22889",
    "city": "Stormarn"
  },
  {
    "postcode": "22889",
    "city": "Wilstedt-Siedlung"
  },
  {
    "postcode": "22926",
    "city": "Ahrensburg"
  },
  {
    "postcode": "22926",
    "city": "Vierbergen"
  },
  {
    "postcode": "22926",
    "city": "Stormarn"
  },
  {
    "postcode": "22926",
    "city": "Wulfsdorf"
  },
  {
    "postcode": "22926",
    "city": "Am Hagen"
  },
  {
    "postcode": "22927",
    "city": "Großhansdorf"
  },
  {
    "postcode": "22927",
    "city": "Stormarn"
  },
  {
    "postcode": "22929",
    "city": "Delingsdorf"
  },
  {
    "postcode": "22929",
    "city": "Glashütte Kreis Stormarn"
  },
  {
    "postcode": "22929",
    "city": "Glashütte"
  },
  {
    "postcode": "22929",
    "city": "Hamfelde (Herzogtum Lauenburg)"
  },
  {
    "postcode": "22929",
    "city": "Hamfelde"
  },
  {
    "postcode": "22929",
    "city": "Hamfelde in Holstein (Kreis Stormarn)"
  },
  {
    "postcode": "22929",
    "city": "Hamfelde in Holstein"
  },
  {
    "postcode": "22929",
    "city": "Hammoor bei Ahrensburg"
  },
  {
    "postcode": "22929",
    "city": "Kasseburg bei Trittau"
  },
  {
    "postcode": "22929",
    "city": "Köthel (Herzogtum Lauenburg)"
  },
  {
    "postcode": "22929",
    "city": "Köthel"
  },
  {
    "postcode": "22929",
    "city": "Köthel (Stormarn)"
  },
  {
    "postcode": "22929",
    "city": "Rausdorf Kreis Stormarn"
  },
  {
    "postcode": "22929",
    "city": "Rausdorf"
  },
  {
    "postcode": "22929",
    "city": "Schönberg (Kreis Herzogtum Lauenburg)"
  },
  {
    "postcode": "22929",
    "city": "Schönberg"
  },
  {
    "postcode": "22929",
    "city": "Herzogtum Lauenburg"
  },
  {
    "postcode": "22929",
    "city": "Hamfelde Kr Hzgt Lauenburg"
  },
  {
    "postcode": "22929",
    "city": "Hamfelde Kr Stormarn"
  },
  {
    "postcode": "22929",
    "city": "Köthel Kr Hzgt Lauenburg"
  },
  {
    "postcode": "22929",
    "city": "Köthel Kr Stormarn"
  },
  {
    "postcode": "22929",
    "city": "Kasseburg"
  },
  {
    "postcode": "22941",
    "city": "Bargteheide"
  },
  {
    "postcode": "22941",
    "city": "Delingsdorf"
  },
  {
    "postcode": "22941",
    "city": "Hammoor bei Ahrensburg"
  },
  {
    "postcode": "22941",
    "city": "Jersbek"
  },
  {
    "postcode": "22941",
    "city": "Stormarn"
  },
  {
    "postcode": "22941",
    "city": "Hammoor"
  },
  {
    "postcode": "22946",
    "city": "Brunsbek"
  },
  {
    "postcode": "22946",
    "city": "Dahmker"
  },
  {
    "postcode": "22946",
    "city": "Grande"
  },
  {
    "postcode": "22946",
    "city": "Großensee Kreis Stormarn"
  },
  {
    "postcode": "22946",
    "city": "Großensee"
  },
  {
    "postcode": "22946",
    "city": "Hohenfelde Kreis Stormarn"
  },
  {
    "postcode": "22946",
    "city": "Hohenfelde"
  },
  {
    "postcode": "22946",
    "city": "Kronshorst"
  },
  {
    "postcode": "22946",
    "city": "Langelohe"
  },
  {
    "postcode": "22946",
    "city": "Papendorf Kreis Stormarn"
  },
  {
    "postcode": "22946",
    "city": "Papendorf"
  },
  {
    "postcode": "22946",
    "city": "Trittau"
  },
  {
    "postcode": "22946",
    "city": "Herzogtum Lauenburg"
  },
  {
    "postcode": "22946",
    "city": "Linau"
  },
  {
    "postcode": "22946",
    "city": "Granderheide"
  },
  {
    "postcode": "22946",
    "city": "Siekerberg"
  },
  {
    "postcode": "22946",
    "city": "Vogelfängerkaten"
  },
  {
    "postcode": "22949",
    "city": "Ammersbek"
  },
  {
    "postcode": "22949",
    "city": "Bünningstedt"
  },
  {
    "postcode": "22949",
    "city": "Hoisbüttel"
  },
  {
    "postcode": "22949",
    "city": "Rehagen"
  },
  {
    "postcode": "22949",
    "city": "Stormarn"
  },
  {
    "postcode": "22949",
    "city": "Siedlung Daheim-Heimgarten"
  },
  {
    "postcode": "22949",
    "city": "Schäferdresch"
  },
  {
    "postcode": "22949",
    "city": "Lottbek"
  },
  {
    "postcode": "22949",
    "city": "Bramkamp"
  },
  {
    "postcode": "22949",
    "city": "Steenhoop"
  },
  {
    "postcode": "22949",
    "city": "Lehmkuhle"
  },
  {
    "postcode": "22949",
    "city": "Siedlung Daheim"
  },
  {
    "postcode": "22952",
    "city": "Lütjensee"
  },
  {
    "postcode": "22952",
    "city": "Stormarn"
  },
  {
    "postcode": "22955",
    "city": "Hoisdorf"
  },
  {
    "postcode": "22955",
    "city": "Stormarn"
  },
  {
    "postcode": "22956",
    "city": "Drahtmühle Kreis Stormarn"
  },
  {
    "postcode": "22956",
    "city": "Drahtmühle"
  },
  {
    "postcode": "22956",
    "city": "Grönwohld Kreis Stormarn"
  },
  {
    "postcode": "22956",
    "city": "Grönwohld"
  },
  {
    "postcode": "22956",
    "city": "Papierholz Kreis Stormarn"
  },
  {
    "postcode": "22956",
    "city": "Papierholz"
  },
  {
    "postcode": "22956",
    "city": "Stormarn"
  },
  {
    "postcode": "22956",
    "city": "Steenern"
  },
  {
    "postcode": "22958",
    "city": "Kuddewörde"
  },
  {
    "postcode": "22958",
    "city": "Herzogtum Lauenburg"
  },
  {
    "postcode": "22959",
    "city": "Feilberg"
  },
  {
    "postcode": "22959",
    "city": "Linau"
  },
  {
    "postcode": "22959",
    "city": "Herzogtum Lauenburg"
  },
  {
    "postcode": "22962",
    "city": "Fleischgaffel Kreis Stormarn"
  },
  {
    "postcode": "22962",
    "city": "Fleischgaffel"
  },
  {
    "postcode": "22962",
    "city": "Meilsdorf Kreis Stormarn"
  },
  {
    "postcode": "22962",
    "city": "Meilsdorf"
  },
  {
    "postcode": "22962",
    "city": "Siek"
  },
  {
    "postcode": "22962",
    "city": "Siek Kreis Stormarn"
  },
  {
    "postcode": "22962",
    "city": "Stormarn"
  },
  {
    "postcode": "22964",
    "city": "Steinburg Kreis Stormarn"
  },
  {
    "postcode": "22964",
    "city": "Steinburg"
  },
  {
    "postcode": "22964",
    "city": "Stormarn"
  },
  {
    "postcode": "22965",
    "city": "Altenfelde Kreis Stormarn"
  },
  {
    "postcode": "22965",
    "city": "Altenfelde"
  },
  {
    "postcode": "22965",
    "city": "Todendorf Kreis Stormarn"
  },
  {
    "postcode": "22965",
    "city": "Todendorf"
  },
  {
    "postcode": "22965",
    "city": "Stormarn"
  },
  {
    "postcode": "22967",
    "city": "Tremsbüttel"
  },
  {
    "postcode": "22967",
    "city": "Vorburg"
  },
  {
    "postcode": "22967",
    "city": "Stormarn"
  },
  {
    "postcode": "22969",
    "city": "Witzhave"
  },
  {
    "postcode": "22969",
    "city": "Stormarn"
  },
  {
    "postcode": "22961",
    "city": "Stormarn"
  },
  {
    "postcode": "22961",
    "city": "Oetjendorf"
  }
]