[
  {
    "postcode": "53111",
    "city": "Bonn"
  },
  {
    "postcode": "53111",
    "city": "Zentrum"
  },
  {
    "postcode": "53111",
    "city": "Bonn-Zentrum"
  },
  {
    "postcode": "53111",
    "city": "Bonn-Castell"
  },
  {
    "postcode": "53113",
    "city": "Bonn"
  },
  {
    "postcode": "53113",
    "city": "Kessenich"
  },
  {
    "postcode": "53113",
    "city": "Poppelsdorf"
  },
  {
    "postcode": "53113",
    "city": "Gronau"
  },
  {
    "postcode": "53113",
    "city": "Zentrum"
  },
  {
    "postcode": "53113",
    "city": "Südstadt"
  },
  {
    "postcode": "53115",
    "city": "Bonn"
  },
  {
    "postcode": "53115",
    "city": "Endenich"
  },
  {
    "postcode": "53115",
    "city": "Kessenich"
  },
  {
    "postcode": "53115",
    "city": "Poppelsdorf"
  },
  {
    "postcode": "53115",
    "city": "Venusberg"
  },
  {
    "postcode": "53115",
    "city": "Weststadt"
  },
  {
    "postcode": "53115",
    "city": "Zentrum"
  },
  {
    "postcode": "53117",
    "city": "Bonn"
  },
  {
    "postcode": "53117",
    "city": "Buschdorf bei Bonn"
  },
  {
    "postcode": "53117",
    "city": "Buschdorf"
  },
  {
    "postcode": "53117",
    "city": "Auerberg"
  },
  {
    "postcode": "53117",
    "city": "Graurheindorf"
  },
  {
    "postcode": "53117",
    "city": "Zentrum"
  },
  {
    "postcode": "53117",
    "city": "Bonn-Castell"
  },
  {
    "postcode": "53117",
    "city": "Plittersdorf"
  },
  {
    "postcode": "53119",
    "city": "Bonn"
  },
  {
    "postcode": "53119",
    "city": "Zentrum"
  },
  {
    "postcode": "53119",
    "city": "Tannenbusch"
  },
  {
    "postcode": "53119",
    "city": "Nordstadt"
  },
  {
    "postcode": "53119",
    "city": "Auerberg"
  },
  {
    "postcode": "53121",
    "city": "Bonn"
  },
  {
    "postcode": "53121",
    "city": "Dransdorf"
  },
  {
    "postcode": "53121",
    "city": "Endenich"
  },
  {
    "postcode": "53121",
    "city": "Zentrum"
  },
  {
    "postcode": "53123",
    "city": "Bonn"
  },
  {
    "postcode": "53123",
    "city": "Duisdorf"
  },
  {
    "postcode": "53123",
    "city": "Lengsdorf"
  },
  {
    "postcode": "53123",
    "city": "Lessenich"
  },
  {
    "postcode": "53123",
    "city": "Messdorf"
  },
  {
    "postcode": "53123",
    "city": "Medinghoven"
  },
  {
    "postcode": "53123",
    "city": "Brüser Berg"
  },
  {
    "postcode": "53123",
    "city": "Zentrum"
  },
  {
    "postcode": "53125",
    "city": "Bonn"
  },
  {
    "postcode": "53125",
    "city": "Buschdorf bei Bonn"
  },
  {
    "postcode": "53125",
    "city": "Duisdorf"
  },
  {
    "postcode": "53125",
    "city": "Ippendorf"
  },
  {
    "postcode": "53125",
    "city": "Röttgen Kreis Bonn"
  },
  {
    "postcode": "53125",
    "city": "Röttgen"
  },
  {
    "postcode": "53125",
    "city": "Ückesdorf"
  },
  {
    "postcode": "53125",
    "city": "Brüser Berg"
  },
  {
    "postcode": "53125",
    "city": "Hardthöhe"
  },
  {
    "postcode": "53125",
    "city": "Friesdorf"
  },
  {
    "postcode": "53125",
    "city": "Endenich"
  },
  {
    "postcode": "53127",
    "city": "Bonn"
  },
  {
    "postcode": "53127",
    "city": "Duisdorf"
  },
  {
    "postcode": "53127",
    "city": "Ippendorf"
  },
  {
    "postcode": "53127",
    "city": "Lengsdorf"
  },
  {
    "postcode": "53127",
    "city": "Poppelsdorf"
  },
  {
    "postcode": "53127",
    "city": "Venusberg"
  },
  {
    "postcode": "53129",
    "city": "Bonn"
  },
  {
    "postcode": "53129",
    "city": "Dottendorf"
  },
  {
    "postcode": "53129",
    "city": "Kessenich"
  },
  {
    "postcode": "53129",
    "city": "Poppelsdorf"
  },
  {
    "postcode": "53129",
    "city": "Zentrum"
  },
  {
    "postcode": "53173",
    "city": "Bad Godesberg"
  },
  {
    "postcode": "53173",
    "city": "Bonn"
  },
  {
    "postcode": "53173",
    "city": "Plittersdorf"
  },
  {
    "postcode": "53173",
    "city": "Rüngsdorf"
  },
  {
    "postcode": "53173",
    "city": "Godesberg-Nord"
  },
  {
    "postcode": "53173",
    "city": "Godesberg-Villenviertel"
  },
  {
    "postcode": "53175",
    "city": "Bad Godesberg"
  },
  {
    "postcode": "53175",
    "city": "Bonn"
  },
  {
    "postcode": "53175",
    "city": "Friesdorf"
  },
  {
    "postcode": "53175",
    "city": "Plittersdorf"
  },
  {
    "postcode": "53175",
    "city": "Hochkreuz"
  },
  {
    "postcode": "53175",
    "city": "Godesberg-Villenviertel"
  },
  {
    "postcode": "53177",
    "city": "Bad Godesberg"
  },
  {
    "postcode": "53177",
    "city": "Bonn"
  },
  {
    "postcode": "53177",
    "city": "Lannesdorf"
  },
  {
    "postcode": "53177",
    "city": "Muffendorf"
  },
  {
    "postcode": "53177",
    "city": "Heiderhof"
  },
  {
    "postcode": "53177",
    "city": "Pennenfeld"
  },
  {
    "postcode": "53177",
    "city": "Schweinheim"
  },
  {
    "postcode": "53179",
    "city": "Bonn"
  },
  {
    "postcode": "53179",
    "city": "Lannesdorf"
  },
  {
    "postcode": "53179",
    "city": "Mehlem"
  },
  {
    "postcode": "53179",
    "city": "Muffendorf"
  },
  {
    "postcode": "53179",
    "city": "Rüngsdorf"
  },
  {
    "postcode": "53179",
    "city": "Pennenfeld"
  },
  {
    "postcode": "53225",
    "city": "Beuel"
  },
  {
    "postcode": "53225",
    "city": "Bonn"
  },
  {
    "postcode": "53225",
    "city": "Geislar"
  },
  {
    "postcode": "53225",
    "city": "Vilich"
  },
  {
    "postcode": "53225",
    "city": "Vilich-Rheindorf"
  },
  {
    "postcode": "53225",
    "city": "Schwarzrheindorf"
  },
  {
    "postcode": "53225",
    "city": "Beuel-Mitte"
  },
  {
    "postcode": "53225",
    "city": "Pützchen"
  },
  {
    "postcode": "53227",
    "city": "Beuel"
  },
  {
    "postcode": "53227",
    "city": "Bonn"
  },
  {
    "postcode": "53227",
    "city": "Küdinghoven"
  },
  {
    "postcode": "53227",
    "city": "Limperich"
  },
  {
    "postcode": "53227",
    "city": "Oberkassel Siegkreis"
  },
  {
    "postcode": "53227",
    "city": "Oberkassel"
  },
  {
    "postcode": "53227",
    "city": "Pützchen"
  },
  {
    "postcode": "53227",
    "city": "Ramersdorf"
  },
  {
    "postcode": "53227",
    "city": "Beuel-Mitte"
  },
  {
    "postcode": "53227",
    "city": "Beuel-Ost"
  },
  {
    "postcode": "53227",
    "city": "Röttgen"
  },
  {
    "postcode": "53229",
    "city": "Bechlinghoven"
  },
  {
    "postcode": "53229",
    "city": "Beuel"
  },
  {
    "postcode": "53229",
    "city": "Bonn"
  },
  {
    "postcode": "53229",
    "city": "Holzlar"
  },
  {
    "postcode": "53229",
    "city": "Küdinghoven"
  },
  {
    "postcode": "53229",
    "city": "Niederholtorf"
  },
  {
    "postcode": "53229",
    "city": "Pützchen"
  },
  {
    "postcode": "53229",
    "city": "Vilich"
  },
  {
    "postcode": "53229",
    "city": "Vilich-Müldorf"
  },
  {
    "postcode": "53229",
    "city": "Holtorf"
  },
  {
    "postcode": "53229",
    "city": "Röttgen"
  },
  {
    "postcode": "53229",
    "city": "Beuel-Mitte"
  },
  {
    "postcode": "53332",
    "city": "Bornheim Rheinland"
  },
  {
    "postcode": "53332",
    "city": "Bornheim"
  },
  {
    "postcode": "53332",
    "city": "Brenig"
  },
  {
    "postcode": "53332",
    "city": "Dersdorf"
  },
  {
    "postcode": "53332",
    "city": "Hemmerich Kreis Bonn"
  },
  {
    "postcode": "53332",
    "city": "Hemmerich"
  },
  {
    "postcode": "53332",
    "city": "Hersel"
  },
  {
    "postcode": "53332",
    "city": "Kardorf Rheinland"
  },
  {
    "postcode": "53332",
    "city": "Kardorf"
  },
  {
    "postcode": "53332",
    "city": "Merten Kreis Bonn"
  },
  {
    "postcode": "53332",
    "city": "Merten"
  },
  {
    "postcode": "53332",
    "city": "Roisdorf"
  },
  {
    "postcode": "53332",
    "city": "Rösberg"
  },
  {
    "postcode": "53332",
    "city": "Sechtem"
  },
  {
    "postcode": "53332",
    "city": "Uedorf"
  },
  {
    "postcode": "53332",
    "city": "Walberberg"
  },
  {
    "postcode": "53332",
    "city": "Waldorf bei Bonn"
  },
  {
    "postcode": "53332",
    "city": "Widdig"
  },
  {
    "postcode": "53332",
    "city": "Rhein-Sieg-Kreis"
  },
  {
    "postcode": "53332",
    "city": "Waldorf"
  },
  {
    "postcode": "53340",
    "city": "Altendorf Rheinland"
  },
  {
    "postcode": "53340",
    "city": "Altendorf"
  },
  {
    "postcode": "53340",
    "city": "Ersdorf"
  },
  {
    "postcode": "53340",
    "city": "Lüftelberg"
  },
  {
    "postcode": "53340",
    "city": "Meckenheim"
  },
  {
    "postcode": "53340",
    "city": "Meckenheim Rheinland"
  },
  {
    "postcode": "53340",
    "city": "Merl bei Rheinbach"
  },
  {
    "postcode": "53340",
    "city": "Rhein-Sieg-Kreis"
  },
  {
    "postcode": "53340",
    "city": "Merl"
  },
  {
    "postcode": "53343",
    "city": "Adendorf Rheinland"
  },
  {
    "postcode": "53343",
    "city": "Adendorf"
  },
  {
    "postcode": "53343",
    "city": "Arzdorf"
  },
  {
    "postcode": "53343",
    "city": "Berkum Rheinland"
  },
  {
    "postcode": "53343",
    "city": "Berkum"
  },
  {
    "postcode": "53343",
    "city": "Fritzdorf"
  },
  {
    "postcode": "53343",
    "city": "Gimmersdorf"
  },
  {
    "postcode": "53343",
    "city": "Holzem"
  },
  {
    "postcode": "53343",
    "city": "Ließem bei Bad Godesberg"
  },
  {
    "postcode": "53343",
    "city": "Niederbachem"
  },
  {
    "postcode": "53343",
    "city": "Oberbachem"
  },
  {
    "postcode": "53343",
    "city": "Pech bei Bad Godesberg"
  },
  {
    "postcode": "53343",
    "city": "Villip"
  },
  {
    "postcode": "53343",
    "city": "Wachtberg"
  },
  {
    "postcode": "53343",
    "city": "Werthhoven"
  },
  {
    "postcode": "53343",
    "city": "Züllighoven"
  },
  {
    "postcode": "53343",
    "city": "Rhein-Sieg-Kreis"
  },
  {
    "postcode": "53343",
    "city": "Pech"
  },
  {
    "postcode": "53343",
    "city": "Ließem"
  },
  {
    "postcode": "53347",
    "city": "Alfter"
  },
  {
    "postcode": "53347",
    "city": "Gielsdorf Kreis Bonn"
  },
  {
    "postcode": "53347",
    "city": "Gielsdorf"
  },
  {
    "postcode": "53347",
    "city": "Heidgen"
  },
  {
    "postcode": "53347",
    "city": "Impekoven"
  },
  {
    "postcode": "53347",
    "city": "Oedekoven Kreis Bonn"
  },
  {
    "postcode": "53347",
    "city": "Oedekoven"
  },
  {
    "postcode": "53347",
    "city": "Volmershoven"
  },
  {
    "postcode": "53347",
    "city": "Witterschlick Kreis Bonn"
  },
  {
    "postcode": "53347",
    "city": "Witterschlick"
  },
  {
    "postcode": "53347",
    "city": "Rhein-Sieg-Kreis"
  },
  {
    "postcode": "53359",
    "city": "Eichen"
  },
  {
    "postcode": "53359",
    "city": "Flerzheim bei Rheinbach"
  },
  {
    "postcode": "53359",
    "city": "Groß Schlebach"
  },
  {
    "postcode": "53359",
    "city": "Hilberath"
  },
  {
    "postcode": "53359",
    "city": "Irlenbusch bei Rheinbach"
  },
  {
    "postcode": "53359",
    "city": "Klein Altendorf"
  },
  {
    "postcode": "53359",
    "city": "Loch bei Rheinbach"
  },
  {
    "postcode": "53359",
    "city": "Merzbach Rheinland"
  },
  {
    "postcode": "53359",
    "city": "Merzbach"
  },
  {
    "postcode": "53359",
    "city": "Neukirchen bei Rheinbach"
  },
  {
    "postcode": "53359",
    "city": "Niederdrees"
  },
  {
    "postcode": "53359",
    "city": "Oberdrees"
  },
  {
    "postcode": "53359",
    "city": "Peppenhoven"
  },
  {
    "postcode": "53359",
    "city": "Queckenberg bei Rheinbach"
  },
  {
    "postcode": "53359",
    "city": "Ramershoven"
  },
  {
    "postcode": "53359",
    "city": "Rheinbach"
  },
  {
    "postcode": "53359",
    "city": "Sürst"
  },
  {
    "postcode": "53359",
    "city": "Todenfeld"
  },
  {
    "postcode": "53359",
    "city": "Wormersdorf"
  },
  {
    "postcode": "53359",
    "city": "Rhein-Sieg-Kreis"
  },
  {
    "postcode": "53359",
    "city": "Loch"
  },
  {
    "postcode": "53359",
    "city": "Berscheid"
  },
  {
    "postcode": "53359",
    "city": "Neukirchen"
  },
  {
    "postcode": "53359",
    "city": "Flerzheim"
  },
  {
    "postcode": "53359",
    "city": "Irlenbusch"
  },
  {
    "postcode": "53359",
    "city": "Queckenberg"
  },
  {
    "postcode": "53359",
    "city": "Hardt"
  },
  {
    "postcode": "53359",
    "city": "Krahforst"
  },
  {
    "postcode": "53359",
    "city": "Kurtenberg"
  },
  {
    "postcode": "53359",
    "city": "Klein Schlebach"
  },
  {
    "postcode": "53359",
    "city": "Scherbach"
  },
  {
    "postcode": "53424",
    "city": "Bandorf"
  },
  {
    "postcode": "53424",
    "city": "Kripp"
  },
  {
    "postcode": "53424",
    "city": "Oberwinter"
  },
  {
    "postcode": "53424",
    "city": "Oedingen Kreis Ahrweiler"
  },
  {
    "postcode": "53424",
    "city": "Oedingen"
  },
  {
    "postcode": "53424",
    "city": "Remagen"
  },
  {
    "postcode": "53424",
    "city": "Rolandseck"
  },
  {
    "postcode": "53424",
    "city": "Rolandswerth"
  },
  {
    "postcode": "53424",
    "city": "Unkelbach"
  },
  {
    "postcode": "53424",
    "city": "Ahrweiler"
  },
  {
    "postcode": "53426",
    "city": "Dedenbach"
  },
  {
    "postcode": "53426",
    "city": "Königsfeld Eifel"
  },
  {
    "postcode": "53426",
    "city": "Königsfeld"
  },
  {
    "postcode": "53426",
    "city": "Schalkenbach"
  },
  {
    "postcode": "53426",
    "city": "Ahrweiler"
  },
  {
    "postcode": "53426",
    "city": "Vinxt"
  },
  {
    "postcode": "53474",
    "city": "Ahrweiler"
  },
  {
    "postcode": "53474",
    "city": "Bachem"
  },
  {
    "postcode": "53474",
    "city": "Bad Neuenahr"
  },
  {
    "postcode": "53474",
    "city": "Bad Neuenahr-Ahrweiler"
  },
  {
    "postcode": "53474",
    "city": "Ehlingen"
  },
  {
    "postcode": "53474",
    "city": "Gimmigen"
  },
  {
    "postcode": "53474",
    "city": "Green"
  },
  {
    "postcode": "53474",
    "city": "Heimersheim Ahr"
  },
  {
    "postcode": "53474",
    "city": "Heimersheim"
  },
  {
    "postcode": "53474",
    "city": "Heppingen Ahr"
  },
  {
    "postcode": "53474",
    "city": "Heppingen"
  },
  {
    "postcode": "53474",
    "city": "Kirchdaun"
  },
  {
    "postcode": "53474",
    "city": "Lohrsdorf"
  },
  {
    "postcode": "53474",
    "city": "Ramersbach"
  },
  {
    "postcode": "53474",
    "city": "Walporzheim"
  },
  {
    "postcode": "53474",
    "city": "Marienthal"
  },
  {
    "postcode": "53489",
    "city": "Franken Eifel"
  },
  {
    "postcode": "53489",
    "city": "Franken"
  },
  {
    "postcode": "53489",
    "city": "Koisdorf"
  },
  {
    "postcode": "53489",
    "city": "Löhndorf"
  },
  {
    "postcode": "53489",
    "city": "Sinzig"
  },
  {
    "postcode": "53489",
    "city": "Sinzig Rhein"
  },
  {
    "postcode": "53489",
    "city": "Westum"
  },
  {
    "postcode": "53489",
    "city": "Ahrweiler"
  },
  {
    "postcode": "53489",
    "city": "Bad Bodendorf"
  },
  {
    "postcode": "53498",
    "city": "Bad Breisig"
  },
  {
    "postcode": "53498",
    "city": "Gönnersdorf Kreis Ahrweiler"
  },
  {
    "postcode": "53498",
    "city": "Gönnersdorf"
  },
  {
    "postcode": "53498",
    "city": "Niederbreisig"
  },
  {
    "postcode": "53498",
    "city": "Oberbreisig"
  },
  {
    "postcode": "53498",
    "city": "Rheineck"
  },
  {
    "postcode": "53498",
    "city": "Waldorf Kreis Ahrweiler"
  },
  {
    "postcode": "53498",
    "city": "Waldorf"
  },
  {
    "postcode": "53498",
    "city": "Ahrweiler"
  },
  {
    "postcode": "53501",
    "city": "Bengen"
  },
  {
    "postcode": "53501",
    "city": "Birresdorf"
  },
  {
    "postcode": "53501",
    "city": "Eckendorf Kreis Ahrweiler"
  },
  {
    "postcode": "53501",
    "city": "Eckendorf"
  },
  {
    "postcode": "53501",
    "city": "Gelsdorf Kreis Ahrweiler"
  },
  {
    "postcode": "53501",
    "city": "Gelsdorf"
  },
  {
    "postcode": "53501",
    "city": "Grafschaft bei Bad Neuenahr-Ahrweiler"
  },
  {
    "postcode": "53501",
    "city": "Holzweiler Kreis Ahrweiler"
  },
  {
    "postcode": "53501",
    "city": "Holzweiler"
  },
  {
    "postcode": "53501",
    "city": "Karweiler"
  },
  {
    "postcode": "53501",
    "city": "Lantershofen"
  },
  {
    "postcode": "53501",
    "city": "Leimersdorf"
  },
  {
    "postcode": "53501",
    "city": "Nierendorf"
  },
  {
    "postcode": "53501",
    "city": "Ringen Kreis Ahrweiler"
  },
  {
    "postcode": "53501",
    "city": "Ringen"
  },
  {
    "postcode": "53501",
    "city": "Vettelhoven"
  },
  {
    "postcode": "53501",
    "city": "Ahrweiler"
  },
  {
    "postcode": "53501",
    "city": "Grafschaft"
  },
  {
    "postcode": "53505",
    "city": "Altenahr"
  },
  {
    "postcode": "53505",
    "city": "Altenburg"
  },
  {
    "postcode": "53505",
    "city": "Berg Kreis Ahrweiler"
  },
  {
    "postcode": "53505",
    "city": "Berg"
  },
  {
    "postcode": "53505",
    "city": "Binzenbach"
  },
  {
    "postcode": "53505",
    "city": "Freisheim"
  },
  {
    "postcode": "53505",
    "city": "Kalenborn Kreis Ahrweiler"
  },
  {
    "postcode": "53505",
    "city": "Kalenborn"
  },
  {
    "postcode": "53505",
    "city": "Kirchsahr"
  },
  {
    "postcode": "53505",
    "city": "Kreuzberg Ahr"
  },
  {
    "postcode": "53505",
    "city": "Kreuzberg"
  },
  {
    "postcode": "53505",
    "city": "Ahrweiler"
  },
  {
    "postcode": "53505",
    "city": "Reimerzhoven"
  },
  {
    "postcode": "53505",
    "city": "Ober-Krälingen"
  },
  {
    "postcode": "53505",
    "city": "Unter-Krälingen"
  },
  {
    "postcode": "53505",
    "city": "Häselingen"
  },
  {
    "postcode": "53505",
    "city": "Vellen"
  },
  {
    "postcode": "53505",
    "city": "Vischel"
  },
  {
    "postcode": "53505",
    "city": "Burgsahr"
  },
  {
    "postcode": "53505",
    "city": "Hürnig"
  },
  {
    "postcode": "53505",
    "city": "Winnen"
  },
  {
    "postcode": "53506",
    "city": "Ahrbrück"
  },
  {
    "postcode": "53506",
    "city": "Blasweiler"
  },
  {
    "postcode": "53506",
    "city": "Brück Ahr"
  },
  {
    "postcode": "53506",
    "city": "Brück"
  },
  {
    "postcode": "53506",
    "city": "Cassel"
  },
  {
    "postcode": "53506",
    "city": "Heckenbach"
  },
  {
    "postcode": "53506",
    "city": "Hönningen"
  },
  {
    "postcode": "53506",
    "city": "Hönningen Ahr"
  },
  {
    "postcode": "53506",
    "city": "Kesseling"
  },
  {
    "postcode": "53506",
    "city": "Liers Kreis Ahrweiler"
  },
  {
    "postcode": "53506",
    "city": "Liers"
  },
  {
    "postcode": "53506",
    "city": "Lind Kreis Ahrweiler"
  },
  {
    "postcode": "53506",
    "city": "Lind"
  },
  {
    "postcode": "53506",
    "city": "Obliers"
  },
  {
    "postcode": "53506",
    "city": "Plittersdorf Kreis Ahrweiler"
  },
  {
    "postcode": "53506",
    "city": "Plittersdorf"
  },
  {
    "postcode": "53506",
    "city": "Pützfeld Ahr"
  },
  {
    "postcode": "53506",
    "city": "Pützfeld"
  },
  {
    "postcode": "53506",
    "city": "Rech Ahr"
  },
  {
    "postcode": "53506",
    "city": "Rech"
  },
  {
    "postcode": "53506",
    "city": "Staffel Eifel"
  },
  {
    "postcode": "53506",
    "city": "Staffel"
  },
  {
    "postcode": "53506",
    "city": "Ahrweiler"
  },
  {
    "postcode": "53506",
    "city": "Fronrath"
  },
  {
    "postcode": "53506",
    "city": "Beilstein"
  },
  {
    "postcode": "53506",
    "city": "Oberheckenbach"
  },
  {
    "postcode": "53506",
    "city": "Weidenbach"
  },
  {
    "postcode": "53507",
    "city": "Dernau"
  },
  {
    "postcode": "53507",
    "city": "Dernau Ahr"
  },
  {
    "postcode": "53507",
    "city": "Marienthal Gemeinde Dernau"
  },
  {
    "postcode": "53507",
    "city": "Marienthal"
  },
  {
    "postcode": "53507",
    "city": "Ahrweiler"
  },
  {
    "postcode": "53508",
    "city": "Mayschoß"
  },
  {
    "postcode": "53508",
    "city": "Ahrweiler"
  },
  {
    "postcode": "53508",
    "city": "Laach"
  },
  {
    "postcode": "53518",
    "city": "Adenau"
  },
  {
    "postcode": "53518",
    "city": "Breidscheid"
  },
  {
    "postcode": "53518",
    "city": "Gilgenbach bei Adenau"
  },
  {
    "postcode": "53518",
    "city": "Herschbroich"
  },
  {
    "postcode": "53518",
    "city": "Honerath bei Adenau"
  },
  {
    "postcode": "53518",
    "city": "Kottenborn"
  },
  {
    "postcode": "53518",
    "city": "Leimbach bei Adenau"
  },
  {
    "postcode": "53518",
    "city": "Quiddelbach"
  },
  {
    "postcode": "53518",
    "city": "Welcherath"
  },
  {
    "postcode": "53518",
    "city": "Wimbach bei Adenau"
  },
  {
    "postcode": "53518",
    "city": "Ahrweiler"
  },
  {
    "postcode": "53518",
    "city": "Honerath"
  },
  {
    "postcode": "53518",
    "city": "Kottenbornermühle"
  },
  {
    "postcode": "53518",
    "city": "Leimbach"
  },
  {
    "postcode": "53518",
    "city": "Wimbach"
  },
  {
    "postcode": "53518",
    "city": "Gilgenbach"
  },
  {
    "postcode": "53520",
    "city": "Blindert"
  },
  {
    "postcode": "53520",
    "city": "Bröhlingen Eifel"
  },
  {
    "postcode": "53520",
    "city": "Bröhlingen"
  },
  {
    "postcode": "53520",
    "city": "Dankerath"
  },
  {
    "postcode": "53520",
    "city": "Drees"
  },
  {
    "postcode": "53520",
    "city": "Dümpelfeld"
  },
  {
    "postcode": "53520",
    "city": "Falkenberg Eifel"
  },
  {
    "postcode": "53520",
    "city": "Falkenberg"
  },
  {
    "postcode": "53520",
    "city": "Harscheid bei Adenau"
  },
  {
    "postcode": "53520",
    "city": "Herschbach"
  },
  {
    "postcode": "53520",
    "city": "Hümmel"
  },
  {
    "postcode": "53520",
    "city": "Insul Ahr"
  },
  {
    "postcode": "53520",
    "city": "Insul"
  },
  {
    "postcode": "53520",
    "city": "Jammelshofen"
  },
  {
    "postcode": "53520",
    "city": "Kaltenborn bei Adenau"
  },
  {
    "postcode": "53520",
    "city": "Lückenbach"
  },
  {
    "postcode": "53520",
    "city": "Meuspath"
  },
  {
    "postcode": "53520",
    "city": "Müllenbach bei Adenau"
  },
  {
    "postcode": "53520",
    "city": "Niederadenau"
  },
  {
    "postcode": "53520",
    "city": "Nürburg"
  },
  {
    "postcode": "53520",
    "city": "Ohlenhard"
  },
  {
    "postcode": "53520",
    "city": "Pitscheid"
  },
  {
    "postcode": "53520",
    "city": "Reifferscheid bei Adenau"
  },
  {
    "postcode": "53520",
    "city": "Rodder bei Adenau"
  },
  {
    "postcode": "53520",
    "city": "Schuld"
  },
  {
    "postcode": "53520",
    "city": "Senscheid"
  },
  {
    "postcode": "53520",
    "city": "Sierscheid"
  },
  {
    "postcode": "53520",
    "city": "Trierscheid"
  },
  {
    "postcode": "53520",
    "city": "Wershofen"
  },
  {
    "postcode": "53520",
    "city": "Winnerath"
  },
  {
    "postcode": "53520",
    "city": "Ahrweiler"
  },
  {
    "postcode": "53520",
    "city": "Bierschbacher Mühle"
  },
  {
    "postcode": "53520",
    "city": "Döttinger Höhe"
  },
  {
    "postcode": "53520",
    "city": "Daubiansmühle"
  },
  {
    "postcode": "53520",
    "city": "Harscheid"
  },
  {
    "postcode": "53520",
    "city": "Kaltenborn"
  },
  {
    "postcode": "53520",
    "city": "Müllenbach"
  },
  {
    "postcode": "53520",
    "city": "Reifferscheid"
  },
  {
    "postcode": "53520",
    "city": "Rodder"
  },
  {
    "postcode": "53520",
    "city": "Marthel"
  },
  {
    "postcode": "53520",
    "city": "Heistert"
  },
  {
    "postcode": "53520",
    "city": "Hochacht"
  },
  {
    "postcode": "53533",
    "city": "Antweiler bei Adenau"
  },
  {
    "postcode": "53533",
    "city": "Aremberg Eifel"
  },
  {
    "postcode": "53533",
    "city": "Aremberg"
  },
  {
    "postcode": "53533",
    "city": "Dorsel"
  },
  {
    "postcode": "53533",
    "city": "Eichenbach"
  },
  {
    "postcode": "53533",
    "city": "Fuchshofen"
  },
  {
    "postcode": "53533",
    "city": "Müsch bei Adenau"
  },
  {
    "postcode": "53533",
    "city": "Ahrweiler"
  },
  {
    "postcode": "53533",
    "city": "Antweiler"
  },
  {
    "postcode": "53533",
    "city": "Müsch"
  },
  {
    "postcode": "53533",
    "city": "Frohnhofen"
  },
  {
    "postcode": "53534",
    "city": "Barweiler"
  },
  {
    "postcode": "53534",
    "city": "Bauler bei Barweiler"
  },
  {
    "postcode": "53534",
    "city": "Hoffeld Eifel"
  },
  {
    "postcode": "53534",
    "city": "Hoffeld"
  },
  {
    "postcode": "53534",
    "city": "Pomster"
  },
  {
    "postcode": "53534",
    "city": "Wiesemscheid"
  },
  {
    "postcode": "53534",
    "city": "Wirft"
  },
  {
    "postcode": "53534",
    "city": "Ahrweiler"
  },
  {
    "postcode": "53534",
    "city": "Bauler"
  },
  {
    "postcode": "53534",
    "city": "Kirmutscheid"
  },
  {
    "postcode": "53539",
    "city": "Bodenbach Eifel"
  },
  {
    "postcode": "53539",
    "city": "Bodenbach"
  },
  {
    "postcode": "53539",
    "city": "Bongard Eifel"
  },
  {
    "postcode": "53539",
    "city": "Bongard"
  },
  {
    "postcode": "53539",
    "city": "Borler"
  },
  {
    "postcode": "53539",
    "city": "Brücktal"
  },
  {
    "postcode": "53539",
    "city": "Gelenberg"
  },
  {
    "postcode": "53539",
    "city": "Hünerbach Eifel"
  },
  {
    "postcode": "53539",
    "city": "Hünerbach"
  },
  {
    "postcode": "53539",
    "city": "Kelberg"
  },
  {
    "postcode": "53539",
    "city": "Kirsbach"
  },
  {
    "postcode": "53539",
    "city": "Köttelbach Eifel"
  },
  {
    "postcode": "53539",
    "city": "Köttelbach"
  },
  {
    "postcode": "53539",
    "city": "Reimerath"
  },
  {
    "postcode": "53539",
    "city": "Rothenbach Eifel"
  },
  {
    "postcode": "53539",
    "city": "Rothenbach"
  },
  {
    "postcode": "53539",
    "city": "Welcherath"
  },
  {
    "postcode": "53539",
    "city": "Zermüllen"
  },
  {
    "postcode": "53539",
    "city": "Vulkaneifel"
  },
  {
    "postcode": "53539",
    "city": "Meisenthal"
  },
  {
    "postcode": "53545",
    "city": "Linz am Rhein"
  },
  {
    "postcode": "53545",
    "city": "Ockenfels"
  },
  {
    "postcode": "53545",
    "city": "Neuwied"
  },
  {
    "postcode": "53545",
    "city": "Linz"
  },
  {
    "postcode": "53545",
    "city": "Roniger Hof"
  },
  {
    "postcode": "53545",
    "city": "Gemeinde Dattenberg"
  },
  {
    "postcode": "53547",
    "city": "Breitscheid"
  },
  {
    "postcode": "53547",
    "city": "Breitscheid Kreis Neuwied"
  },
  {
    "postcode": "53547",
    "city": "Dattenberg bei Linz am Rhein"
  },
  {
    "postcode": "53547",
    "city": "Elsbach"
  },
  {
    "postcode": "53547",
    "city": "Frorath"
  },
  {
    "postcode": "53547",
    "city": "Girgenrath"
  },
  {
    "postcode": "53547",
    "city": "Goldscheid bei Linz am Rhein"
  },
  {
    "postcode": "53547",
    "city": "Hähnen Gemeinde Bremscheid"
  },
  {
    "postcode": "53547",
    "city": "Hähnen"
  },
  {
    "postcode": "53547",
    "city": "Hausen (Wied)"
  },
  {
    "postcode": "53547",
    "city": "Hausen"
  },
  {
    "postcode": "53547",
    "city": "Hochscheid bei Linz am Rhein"
  },
  {
    "postcode": "53547",
    "city": "Hollig bei Linz am Rhein"
  },
  {
    "postcode": "53547",
    "city": "Hümmerich"
  },
  {
    "postcode": "53547",
    "city": "Kasbach"
  },
  {
    "postcode": "53547",
    "city": "Kasbach-Ohlenberg"
  },
  {
    "postcode": "53547",
    "city": "Krumscheid bei Linz am Rhein"
  },
  {
    "postcode": "53547",
    "city": "Lache"
  },
  {
    "postcode": "53547",
    "city": "Leubsdorf Rhein"
  },
  {
    "postcode": "53547",
    "city": "Leubsdorf"
  },
  {
    "postcode": "53547",
    "city": "Nassen bei Linz am Rhein"
  },
  {
    "postcode": "53547",
    "city": "Niederbuchenau Wied"
  },
  {
    "postcode": "53547",
    "city": "Niederbuchenau"
  },
  {
    "postcode": "53547",
    "city": "Niederhümmerich"
  },
  {
    "postcode": "53547",
    "city": "Oberhümmerich"
  },
  {
    "postcode": "53547",
    "city": "Ohlenberg"
  },
  {
    "postcode": "53547",
    "city": "Reifert"
  },
  {
    "postcode": "53547",
    "city": "Roßbach Wied"
  },
  {
    "postcode": "53547",
    "city": "Roßbach"
  },
  {
    "postcode": "53547",
    "city": "Sankt Katharinen"
  },
  {
    "postcode": "53547",
    "city": "Siebenmorgen bei Linz am Rhein"
  },
  {
    "postcode": "53547",
    "city": "Solscheid"
  },
  {
    "postcode": "53547",
    "city": "Verscheid bei Linz am Rhein"
  },
  {
    "postcode": "53547",
    "city": "Weissfeld"
  },
  {
    "postcode": "53547",
    "city": "Neuwied"
  },
  {
    "postcode": "53547",
    "city": "Alsau"
  },
  {
    "postcode": "53547",
    "city": "Dattenberg"
  },
  {
    "postcode": "53547",
    "city": "Grübelsberg"
  },
  {
    "postcode": "53547",
    "city": "Krumscheid"
  },
  {
    "postcode": "53547",
    "city": "Reidenbruch"
  },
  {
    "postcode": "53547",
    "city": "Siebenmorgen"
  },
  {
    "postcode": "53547",
    "city": "Hochscheid"
  },
  {
    "postcode": "53547",
    "city": "Dasbach"
  },
  {
    "postcode": "53547",
    "city": "Goldscheid"
  },
  {
    "postcode": "53547",
    "city": "Verscheid"
  },
  {
    "postcode": "53547",
    "city": "Bleischeid"
  },
  {
    "postcode": "53547",
    "city": "Gersthahn"
  },
  {
    "postcode": "53547",
    "city": "Fichtelshohn"
  },
  {
    "postcode": "53547",
    "city": "Fockenbachsmühle"
  },
  {
    "postcode": "53547",
    "city": "Gersthahnsmühle"
  },
  {
    "postcode": "53547",
    "city": "Hollig"
  },
  {
    "postcode": "53547",
    "city": "Nassen"
  },
  {
    "postcode": "53547",
    "city": "Heeg"
  },
  {
    "postcode": "53547",
    "city": "Bitze"
  },
  {
    "postcode": "53547",
    "city": "Reuschenbach"
  },
  {
    "postcode": "53547",
    "city": "Seidenhahn"
  },
  {
    "postcode": "53547",
    "city": "Stopperich"
  },
  {
    "postcode": "53547",
    "city": "Langscheid"
  },
  {
    "postcode": "53547",
    "city": "Malberg"
  },
  {
    "postcode": "53547",
    "city": "Margarethenhof"
  },
  {
    "postcode": "53547",
    "city": "Marienhof"
  },
  {
    "postcode": "53547",
    "city": "Wallbachsmühle"
  },
  {
    "postcode": "53547",
    "city": "Rothekreuz"
  },
  {
    "postcode": "53547",
    "city": "Scheuerchen"
  },
  {
    "postcode": "53547",
    "city": "Spreitchen"
  },
  {
    "postcode": "53547",
    "city": "St. Katharinen"
  },
  {
    "postcode": "53547",
    "city": "Oberbuchenau"
  },
  {
    "postcode": "53547",
    "city": "Schimmelshahn"
  },
  {
    "postcode": "53547",
    "city": "Als-Au"
  },
  {
    "postcode": "53557",
    "city": "Ariendorf"
  },
  {
    "postcode": "53557",
    "city": "Bad Hönningen"
  },
  {
    "postcode": "53557",
    "city": "Neuwied"
  },
  {
    "postcode": "53560",
    "city": "Kalenborn bei Linz am Rhein"
  },
  {
    "postcode": "53560",
    "city": "Vettelschoß"
  },
  {
    "postcode": "53560",
    "city": "Neuwied"
  },
  {
    "postcode": "53560",
    "city": "Kretzhaus"
  },
  {
    "postcode": "53560",
    "city": "Kalenborn"
  },
  {
    "postcode": "53560",
    "city": "Willscheid"
  },
  {
    "postcode": "53562",
    "city": "Sankt Katharinen bei Linz am Rhein"
  },
  {
    "postcode": "53562",
    "city": "Neuwied"
  },
  {
    "postcode": "53562",
    "city": "Rothe-Kreuz"
  },
  {
    "postcode": "53562",
    "city": "St. Katharinen"
  },
  {
    "postcode": "53567",
    "city": "Altenburg Westerwald"
  },
  {
    "postcode": "53567",
    "city": "Altenburg"
  },
  {
    "postcode": "53567",
    "city": "Altenhofen Westerwald"
  },
  {
    "postcode": "53567",
    "city": "Altenhofen"
  },
  {
    "postcode": "53567",
    "city": "Asbach Westerwald"
  },
  {
    "postcode": "53567",
    "city": "Asbach"
  },
  {
    "postcode": "53567",
    "city": "Bennau bei Linz am Rhein"
  },
  {
    "postcode": "53567",
    "city": "Buchholz (Westerwald)"
  },
  {
    "postcode": "53567",
    "city": "Buchholz"
  },
  {
    "postcode": "53567",
    "city": "Diepenseifen Westerwald"
  },
  {
    "postcode": "53567",
    "city": "Diepenseifen"
  },
  {
    "postcode": "53567",
    "city": "Dinspel"
  },
  {
    "postcode": "53567",
    "city": "Ditscheid Westerwald"
  },
  {
    "postcode": "53567",
    "city": "Ditscheid"
  },
  {
    "postcode": "53567",
    "city": "Drinhausen Westerwald"
  },
  {
    "postcode": "53567",
    "city": "Drinhausen"
  },
  {
    "postcode": "53567",
    "city": "Elles"
  },
  {
    "postcode": "53567",
    "city": "Germscheid"
  },
  {
    "postcode": "53567",
    "city": "Griesenbach"
  },
  {
    "postcode": "53567",
    "city": "Hammelshahn Westerwald"
  },
  {
    "postcode": "53567",
    "city": "Hammelshahn"
  },
  {
    "postcode": "53567",
    "city": "Hinterplag Westerwald"
  },
  {
    "postcode": "53567",
    "city": "Hinterplag"
  },
  {
    "postcode": "53567",
    "city": "Hussen"
  },
  {
    "postcode": "53567",
    "city": "Jungeroth Westerwald"
  },
  {
    "postcode": "53567",
    "city": "Jungeroth"
  },
  {
    "postcode": "53567",
    "city": "Kalscheid Westerwald"
  },
  {
    "postcode": "53567",
    "city": "Kalscheid"
  },
  {
    "postcode": "53567",
    "city": "Köttingen Westerwald"
  },
  {
    "postcode": "53567",
    "city": "Köttingen"
  },
  {
    "postcode": "53567",
    "city": "Krankel"
  },
  {
    "postcode": "53567",
    "city": "Krautscheid Westerwald"
  },
  {
    "postcode": "53567",
    "city": "Krautscheid"
  },
  {
    "postcode": "53567",
    "city": "Krumbach Westerwald"
  },
  {
    "postcode": "53567",
    "city": "Krumbach"
  },
  {
    "postcode": "53567",
    "city": "Krumscheid Westerwald"
  },
  {
    "postcode": "53567",
    "city": "Krumscheid"
  },
  {
    "postcode": "53567",
    "city": "Limbach bei Linz am Rhein"
  },
  {
    "postcode": "53567",
    "city": "Löhe über Linz Rhein"
  },
  {
    "postcode": "53567",
    "city": "Löhe über Linz"
  },
  {
    "postcode": "53567",
    "city": "Mendt"
  },
  {
    "postcode": "53567",
    "city": "Muß Westerwald"
  },
  {
    "postcode": "53567",
    "city": "Muß"
  },
  {
    "postcode": "53567",
    "city": "Oberelles Westerwald"
  },
  {
    "postcode": "53567",
    "city": "Oberelles"
  },
  {
    "postcode": "53567",
    "city": "Oberplag"
  },
  {
    "postcode": "53567",
    "city": "Oberscheid Westerwald"
  },
  {
    "postcode": "53567",
    "city": "Oberscheid"
  },
  {
    "postcode": "53567",
    "city": "Parscheid Westerwald"
  },
  {
    "postcode": "53567",
    "city": "Parscheid"
  },
  {
    "postcode": "53567",
    "city": "Priestersberg"
  },
  {
    "postcode": "53567",
    "city": "Rauenhahn Westerwald"
  },
  {
    "postcode": "53567",
    "city": "Rauenhahn"
  },
  {
    "postcode": "53567",
    "city": "Rindhausen Westerwald"
  },
  {
    "postcode": "53567",
    "city": "Rindhausen"
  },
  {
    "postcode": "53567",
    "city": "Sessenhausen bei Linz am Rhein"
  },
  {
    "postcode": "53567",
    "city": "Solscheid Westerwald"
  },
  {
    "postcode": "53567",
    "city": "Solscheid"
  },
  {
    "postcode": "53567",
    "city": "Straßen Westerwald"
  },
  {
    "postcode": "53567",
    "city": "Straßen"
  },
  {
    "postcode": "53567",
    "city": "Thelenberg Westerwald"
  },
  {
    "postcode": "53567",
    "city": "Thelenberg"
  },
  {
    "postcode": "53567",
    "city": "Wahl Westerwald"
  },
  {
    "postcode": "53567",
    "city": "Wahl"
  },
  {
    "postcode": "53567",
    "city": "Walgenbach Westerwald"
  },
  {
    "postcode": "53567",
    "city": "Walgenbach"
  },
  {
    "postcode": "53567",
    "city": "Wallroth Westerwald"
  },
  {
    "postcode": "53567",
    "city": "Wallroth"
  },
  {
    "postcode": "53567",
    "city": "Wilsberg Westerwald"
  },
  {
    "postcode": "53567",
    "city": "Wilsberg"
  },
  {
    "postcode": "53567",
    "city": "Zurheiden Westerwald"
  },
  {
    "postcode": "53567",
    "city": "Zurheiden"
  },
  {
    "postcode": "53567",
    "city": "Neuwied"
  },
  {
    "postcode": "53567",
    "city": "Bennau"
  },
  {
    "postcode": "53567",
    "city": "Heide"
  },
  {
    "postcode": "53567",
    "city": "Limbach"
  },
  {
    "postcode": "53567",
    "city": "Löhe"
  },
  {
    "postcode": "53567",
    "city": "Bennauermühle"
  },
  {
    "postcode": "53567",
    "city": "Büsch"
  },
  {
    "postcode": "53567",
    "city": "Dasbach"
  },
  {
    "postcode": "53567",
    "city": "Diefenau"
  },
  {
    "postcode": "53567",
    "city": "Graben"
  },
  {
    "postcode": "53567",
    "city": "Heckenhahn"
  },
  {
    "postcode": "53567",
    "city": "Hofen"
  },
  {
    "postcode": "53567",
    "city": "Kaltehöhe"
  },
  {
    "postcode": "53567",
    "city": "Kapaunsmühle"
  },
  {
    "postcode": "53567",
    "city": "Krumbachsmühle"
  },
  {
    "postcode": "53567",
    "city": "Limberg"
  },
  {
    "postcode": "53567",
    "city": "Schöneberg"
  },
  {
    "postcode": "53567",
    "city": "Meierseifen"
  },
  {
    "postcode": "53567",
    "city": "Niedermühlen"
  },
  {
    "postcode": "53567",
    "city": "Pees"
  },
  {
    "postcode": "53567",
    "city": "Reeg"
  },
  {
    "postcode": "53567",
    "city": "Schluten"
  },
  {
    "postcode": "53567",
    "city": "Sessenhausen"
  },
  {
    "postcode": "53567",
    "city": "Wester"
  },
  {
    "postcode": "53567",
    "city": "Kölsch-Büllesbach"
  },
  {
    "postcode": "53567",
    "city": "Seifen"
  },
  {
    "postcode": "53567",
    "city": "Dammig"
  },
  {
    "postcode": "53567",
    "city": "Irmeroth"
  },
  {
    "postcode": "53567",
    "city": "Krummenast"
  },
  {
    "postcode": "53567",
    "city": "Sauerwiese"
  },
  {
    "postcode": "53567",
    "city": "Unterelles"
  },
  {
    "postcode": "53567",
    "city": "Vierwinden"
  },
  {
    "postcode": "53567",
    "city": "Wallau"
  },
  {
    "postcode": "53567",
    "city": "Wertenbruch"
  },
  {
    "postcode": "53572",
    "city": "Bruchhausen Westerwald"
  },
  {
    "postcode": "53572",
    "city": "Bruchhausen"
  },
  {
    "postcode": "53572",
    "city": "Unkel"
  },
  {
    "postcode": "53572",
    "city": "Neuwied"
  },
  {
    "postcode": "53572",
    "city": "Hohenunkel"
  },
  {
    "postcode": "53572",
    "city": "Scheuren"
  },
  {
    "postcode": "53577",
    "city": "Ammerich Wied"
  },
  {
    "postcode": "53577",
    "city": "Ammerich"
  },
  {
    "postcode": "53577",
    "city": "Bertenau Wied"
  },
  {
    "postcode": "53577",
    "city": "Bertenau"
  },
  {
    "postcode": "53577",
    "city": "Borscheid Wied"
  },
  {
    "postcode": "53577",
    "city": "Borscheid"
  },
  {
    "postcode": "53577",
    "city": "Brüchen Wied"
  },
  {
    "postcode": "53577",
    "city": "Brüchen"
  },
  {
    "postcode": "53577",
    "city": "Bühlingen Wied"
  },
  {
    "postcode": "53577",
    "city": "Bühlingen"
  },
  {
    "postcode": "53577",
    "city": "Dinkelbach Wied"
  },
  {
    "postcode": "53577",
    "city": "Dinkelbach"
  },
  {
    "postcode": "53577",
    "city": "Ehrenberg Wied"
  },
  {
    "postcode": "53577",
    "city": "Ehrenberg"
  },
  {
    "postcode": "53577",
    "city": "Ehrenstein"
  },
  {
    "postcode": "53577",
    "city": "Etscheid"
  },
  {
    "postcode": "53577",
    "city": "Fernthal"
  },
  {
    "postcode": "53577",
    "city": "Gerhardshahn Wied"
  },
  {
    "postcode": "53577",
    "city": "Gerhardshahn"
  },
  {
    "postcode": "53577",
    "city": "Hombach"
  },
  {
    "postcode": "53577",
    "city": "Kodden"
  },
  {
    "postcode": "53577",
    "city": "Krummenau Wied"
  },
  {
    "postcode": "53577",
    "city": "Krummenau"
  },
  {
    "postcode": "53577",
    "city": "Manroth"
  },
  {
    "postcode": "53577",
    "city": "Mittelelsaff"
  },
  {
    "postcode": "53577",
    "city": "Neschen über Linz Rhein"
  },
  {
    "postcode": "53577",
    "city": "Neschen über Linz"
  },
  {
    "postcode": "53577",
    "city": "Neustadt (Wied)"
  },
  {
    "postcode": "53577",
    "city": "Neustadt"
  },
  {
    "postcode": "53577",
    "city": "Niederetscheid"
  },
  {
    "postcode": "53577",
    "city": "Oberelsaff"
  },
  {
    "postcode": "53577",
    "city": "Oberetscheid"
  },
  {
    "postcode": "53577",
    "city": "Oberhoppen"
  },
  {
    "postcode": "53577",
    "city": "Prangenberg"
  },
  {
    "postcode": "53577",
    "city": "Rahms"
  },
  {
    "postcode": "53577",
    "city": "Rotterheide"
  },
  {
    "postcode": "53577",
    "city": "Rüddel"
  },
  {
    "postcode": "53577",
    "city": "Scharenberg"
  },
  {
    "postcode": "53577",
    "city": "Steeg"
  },
  {
    "postcode": "53577",
    "city": "Steinshof Wied"
  },
  {
    "postcode": "53577",
    "city": "Steinshof"
  },
  {
    "postcode": "53577",
    "city": "Strauscheid"
  },
  {
    "postcode": "53577",
    "city": "Unterelsaff"
  },
  {
    "postcode": "53577",
    "city": "Weißenfels"
  },
  {
    "postcode": "53577",
    "city": "Neuwied"
  },
  {
    "postcode": "53577",
    "city": "Rott"
  },
  {
    "postcode": "53577",
    "city": "Altenhütte"
  },
  {
    "postcode": "53577",
    "city": "Dasbach"
  },
  {
    "postcode": "53577",
    "city": "Jungfernhof"
  },
  {
    "postcode": "53577",
    "city": "Neschen"
  },
  {
    "postcode": "53577",
    "city": "Breitscheid"
  },
  {
    "postcode": "53577",
    "city": "Eilenberg"
  },
  {
    "postcode": "53577",
    "city": "Funkenhausen"
  },
  {
    "postcode": "53577",
    "city": "Grube Ferdinand"
  },
  {
    "postcode": "53577",
    "city": "Grübelshof"
  },
  {
    "postcode": "53577",
    "city": "Hammerhof"
  },
  {
    "postcode": "53577",
    "city": "Hombachsmühle"
  },
  {
    "postcode": "53577",
    "city": "Gemeinde Asbach"
  },
  {
    "postcode": "53577",
    "city": "Mettelshahn"
  },
  {
    "postcode": "53577",
    "city": "Neschermühle"
  },
  {
    "postcode": "53577",
    "city": "Niederhoppen"
  },
  {
    "postcode": "53577",
    "city": "Paffhausen"
  },
  {
    "postcode": "53577",
    "city": "Panau"
  },
  {
    "postcode": "53577",
    "city": "St. Katharinen"
  },
  {
    "postcode": "53577",
    "city": "Telegraf"
  },
  {
    "postcode": "53577",
    "city": "Thalhof"
  },
  {
    "postcode": "53577",
    "city": "Vogtslag"
  },
  {
    "postcode": "53577",
    "city": "Wahrenberg"
  },
  {
    "postcode": "53577",
    "city": "Wied"
  },
  {
    "postcode": "53577",
    "city": "Wiedmühle"
  },
  {
    "postcode": "53578",
    "city": "Birken bei Linz am Rhein"
  },
  {
    "postcode": "53578",
    "city": "Frohnen bei Linz am Rhein"
  },
  {
    "postcode": "53578",
    "city": "Günterscheid"
  },
  {
    "postcode": "53578",
    "city": "Hallerbach"
  },
  {
    "postcode": "53578",
    "city": "Hohn bei Linz am Rhein"
  },
  {
    "postcode": "53578",
    "city": "Hüngsberg Westerwald"
  },
  {
    "postcode": "53578",
    "city": "Hüngsberg"
  },
  {
    "postcode": "53578",
    "city": "Johannisberg Westerwald"
  },
  {
    "postcode": "53578",
    "city": "Johannisberg"
  },
  {
    "postcode": "53578",
    "city": "Köhlershohn Westerwald"
  },
  {
    "postcode": "53578",
    "city": "Köhlershohn"
  },
  {
    "postcode": "53578",
    "city": "Niederwindhagen Westerwald"
  },
  {
    "postcode": "53578",
    "city": "Niederwindhagen"
  },
  {
    "postcode": "53578",
    "city": "Oberwindhagen Westerwald"
  },
  {
    "postcode": "53578",
    "city": "Oberwindhagen"
  },
  {
    "postcode": "53578",
    "city": "Rederscheid"
  },
  {
    "postcode": "53578",
    "city": "Schweifeld"
  },
  {
    "postcode": "53578",
    "city": "Stockhausen bei Linz am Rhein"
  },
  {
    "postcode": "53578",
    "city": "Windhagen"
  },
  {
    "postcode": "53578",
    "city": "Windhagen Westerwald"
  },
  {
    "postcode": "53578",
    "city": "Neuwied"
  },
  {
    "postcode": "53578",
    "city": "Adamstal"
  },
  {
    "postcode": "53578",
    "city": "Hohn"
  },
  {
    "postcode": "53578",
    "city": "Stockhausen"
  },
  {
    "postcode": "53578",
    "city": "Birken"
  },
  {
    "postcode": "53578",
    "city": "Frohnen"
  },
  {
    "postcode": "53579",
    "city": "Erpel"
  },
  {
    "postcode": "53579",
    "city": "Erpel Rhein"
  },
  {
    "postcode": "53579",
    "city": "Orsberg Westerwald"
  },
  {
    "postcode": "53579",
    "city": "Orsberg"
  },
  {
    "postcode": "53579",
    "city": "Neuwied"
  },
  {
    "postcode": "53604",
    "city": "Aegidienberg"
  },
  {
    "postcode": "53604",
    "city": "Bad Honnef"
  },
  {
    "postcode": "53604",
    "city": "Menzenberg am Rhein"
  },
  {
    "postcode": "53604",
    "city": "Rhöndorf Rhein"
  },
  {
    "postcode": "53604",
    "city": "Rhöndorf"
  },
  {
    "postcode": "53604",
    "city": "Rottbitze"
  },
  {
    "postcode": "53604",
    "city": "Rhein-Sieg-Kreis"
  },
  {
    "postcode": "53604",
    "city": "Selhof"
  },
  {
    "postcode": "53604",
    "city": "Rommersdorf"
  },
  {
    "postcode": "53619",
    "city": "Rheinbreitbach"
  },
  {
    "postcode": "53619",
    "city": "Neuwied"
  },
  {
    "postcode": "53619",
    "city": "Breite Heide"
  },
  {
    "postcode": "53639",
    "city": "Bellinghausen"
  },
  {
    "postcode": "53639",
    "city": "Berghausen Siegkreis"
  },
  {
    "postcode": "53639",
    "city": "Berghausen"
  },
  {
    "postcode": "53639",
    "city": "Bockeroth"
  },
  {
    "postcode": "53639",
    "city": "Eudenbach"
  },
  {
    "postcode": "53639",
    "city": "Gratzfeld"
  },
  {
    "postcode": "53639",
    "city": "Heisterbacherrott"
  },
  {
    "postcode": "53639",
    "city": "Hühnerberg"
  },
  {
    "postcode": "53639",
    "city": "Hüscheid"
  },
  {
    "postcode": "53639",
    "city": "Ittenbach"
  },
  {
    "postcode": "53639",
    "city": "Komp"
  },
  {
    "postcode": "53639",
    "city": "Königswinter"
  },
  {
    "postcode": "53639",
    "city": "Niederdollendorf"
  },
  {
    "postcode": "53639",
    "city": "Nonnenberg"
  },
  {
    "postcode": "53639",
    "city": "Oberdollendorf"
  },
  {
    "postcode": "53639",
    "city": "Oberpleis"
  },
  {
    "postcode": "53639",
    "city": "Oelinghoven"
  },
  {
    "postcode": "53639",
    "city": "Pleiserhohn"
  },
  {
    "postcode": "53639",
    "city": "Quirrenbach"
  },
  {
    "postcode": "53639",
    "city": "Rauschendorf Siegkreis"
  },
  {
    "postcode": "53639",
    "city": "Rauschendorf"
  },
  {
    "postcode": "53639",
    "city": "Römlinghoven"
  },
  {
    "postcode": "53639",
    "city": "Rostingen"
  },
  {
    "postcode": "53639",
    "city": "Ruttscheid"
  },
  {
    "postcode": "53639",
    "city": "Sand Siegkreis"
  },
  {
    "postcode": "53639",
    "city": "Sand"
  },
  {
    "postcode": "53639",
    "city": "Sassenberg"
  },
  {
    "postcode": "53639",
    "city": "Stieldorf"
  },
  {
    "postcode": "53639",
    "city": "Stieldorferhohn"
  },
  {
    "postcode": "53639",
    "city": "Thomasberg Siegkreis"
  },
  {
    "postcode": "53639",
    "city": "Thomasberg"
  },
  {
    "postcode": "53639",
    "city": "Uthweiler"
  },
  {
    "postcode": "53639",
    "city": "Vinxel"
  },
  {
    "postcode": "53639",
    "city": "Willmeroth"
  },
  {
    "postcode": "53639",
    "city": "Rhein-Sieg-Kreis"
  },
  {
    "postcode": "53639",
    "city": "Eisbach"
  },
  {
    "postcode": "53639",
    "city": "Kellersboseroth"
  },
  {
    "postcode": "53639",
    "city": "Sonderbusch"
  },
  {
    "postcode": "53639",
    "city": "Hartenberg"
  },
  {
    "postcode": "53639",
    "city": "Gräfenhohn"
  },
  {
    "postcode": "53639",
    "city": "Düferoth"
  },
  {
    "postcode": "53639",
    "city": "Frohnhardt"
  },
  {
    "postcode": "53639",
    "city": "Bennerscheid"
  },
  {
    "postcode": "53639",
    "city": "Sandscheid"
  },
  {
    "postcode": "53639",
    "city": "Rübhausen"
  },
  {
    "postcode": "53639",
    "city": "Niederbuchholz"
  },
  {
    "postcode": "53639",
    "city": "Oberscheuren"
  },
  {
    "postcode": "53639",
    "city": "Bönschenhof"
  },
  {
    "postcode": "53639",
    "city": "Bellinghauser Hof"
  },
  {
    "postcode": "53639",
    "city": "Pützstück"
  },
  {
    "postcode": "53639",
    "city": "Freckwinkel"
  },
  {
    "postcode": "53639",
    "city": "Döttscheid"
  },
  {
    "postcode": "53639",
    "city": "Dahlhausen"
  },
  {
    "postcode": "53639",
    "city": "Oberbuchholz"
  },
  {
    "postcode": "53639",
    "city": "Elsfeld"
  },
  {
    "postcode": "53639",
    "city": "Eudenberg"
  },
  {
    "postcode": "53639",
    "city": "Faulenbitze"
  },
  {
    "postcode": "53639",
    "city": "Kippenhohn"
  },
  {
    "postcode": "53639",
    "city": "Höhnchen"
  },
  {
    "postcode": "53639",
    "city": "Höhnerhof"
  },
  {
    "postcode": "53639",
    "city": "Hasenboseroth"
  },
  {
    "postcode": "53639",
    "city": "Hünscheider Hof"
  },
  {
    "postcode": "53639",
    "city": "Waschpohl"
  },
  {
    "postcode": "53639",
    "city": "Niederscheuren"
  },
  {
    "postcode": "53639",
    "city": "Jüngsfeld"
  },
  {
    "postcode": "53639",
    "city": "Kochenbach"
  },
  {
    "postcode": "53639",
    "city": "Weiler"
  },
  {
    "postcode": "53639",
    "city": "Kotthausen"
  },
  {
    "postcode": "53639",
    "city": "Margarethenhöhe"
  },
  {
    "postcode": "53639",
    "city": "Wahlfeld"
  },
  {
    "postcode": "53639",
    "city": "Schneppenroth"
  },
  {
    "postcode": "53639",
    "city": "Friedrichshöhe"
  },
  {
    "postcode": "53639",
    "city": "Schwirzpohl"
  },
  {
    "postcode": "53639",
    "city": "Siefen"
  },
  {
    "postcode": "53639",
    "city": "Sonnenbergerhof"
  },
  {
    "postcode": "53639",
    "city": "Thelenbitze"
  },
  {
    "postcode": "53639",
    "city": "Blankenbach"
  },
  {
    "postcode": "53639",
    "city": "Wahlfelderhof"
  },
  {
    "postcode": "53721",
    "city": "Braschoß"
  },
  {
    "postcode": "53721",
    "city": "Kaldauen"
  },
  {
    "postcode": "53721",
    "city": "Münchshecke"
  },
  {
    "postcode": "53721",
    "city": "Schneffelrath"
  },
  {
    "postcode": "53721",
    "city": "Schreck"
  },
  {
    "postcode": "53721",
    "city": "Seligenthal Siegkreis"
  },
  {
    "postcode": "53721",
    "city": "Seligenthal"
  },
  {
    "postcode": "53721",
    "city": "Siegburg"
  },
  {
    "postcode": "53721",
    "city": "Stallberg"
  },
  {
    "postcode": "53721",
    "city": "Rhein-Sieg-Kreis"
  },
  {
    "postcode": "53721",
    "city": "Lohmar"
  },
  {
    "postcode": "53721",
    "city": "Heide"
  },
  {
    "postcode": "53757",
    "city": "Birlinghoven"
  },
  {
    "postcode": "53757",
    "city": "Buisdorf"
  },
  {
    "postcode": "53757",
    "city": "Hangelar"
  },
  {
    "postcode": "53757",
    "city": "Meindorf"
  },
  {
    "postcode": "53757",
    "city": "Menden Rheinland"
  },
  {
    "postcode": "53757",
    "city": "Menden"
  },
  {
    "postcode": "53757",
    "city": "Niederpleis"
  },
  {
    "postcode": "53757",
    "city": "Sankt Augustin"
  },
  {
    "postcode": "53757",
    "city": "Rhein-Sieg-Kreis"
  },
  {
    "postcode": "53757",
    "city": "Mülldorf"
  },
  {
    "postcode": "53773",
    "city": "Adscheid"
  },
  {
    "postcode": "53773",
    "city": "Allner"
  },
  {
    "postcode": "53773",
    "city": "Altenbödingen Siegkreis"
  },
  {
    "postcode": "53773",
    "city": "Altenbödingen"
  },
  {
    "postcode": "53773",
    "city": "Auel Siegkreis"
  },
  {
    "postcode": "53773",
    "city": "Auel"
  },
  {
    "postcode": "53773",
    "city": "Beiert"
  },
  {
    "postcode": "53773",
    "city": "Berg"
  },
  {
    "postcode": "53773",
    "city": "Bödingen Siegkreis"
  },
  {
    "postcode": "53773",
    "city": "Bödingen"
  },
  {
    "postcode": "53773",
    "city": "Bröl Bröltal"
  },
  {
    "postcode": "53773",
    "city": "Bröl"
  },
  {
    "postcode": "53773",
    "city": "Bülgenauel"
  },
  {
    "postcode": "53773",
    "city": "Büllesbach"
  },
  {
    "postcode": "53773",
    "city": "Dahlhausen bei Uckerath"
  },
  {
    "postcode": "53773",
    "city": "Dambroich"
  },
  {
    "postcode": "53773",
    "city": "Darscheid Siegkreis"
  },
  {
    "postcode": "53773",
    "city": "Darscheid"
  },
  {
    "postcode": "53773",
    "city": "Dondorf"
  },
  {
    "postcode": "53773",
    "city": "Eichholz Siegkreis"
  },
  {
    "postcode": "53773",
    "city": "Eichholz"
  },
  {
    "postcode": "53773",
    "city": "Fernegierscheid"
  },
  {
    "postcode": "53773",
    "city": "Greuelsiefen"
  },
  {
    "postcode": "53773",
    "city": "Halberg Siegkreis"
  },
  {
    "postcode": "53773",
    "city": "Halberg"
  },
  {
    "postcode": "53773",
    "city": "Halmshanf Westerwald"
  },
  {
    "postcode": "53773",
    "city": "Halmshanf"
  },
  {
    "postcode": "53773",
    "city": "Happerschoß"
  },
  {
    "postcode": "53773",
    "city": "Heisterschoß"
  },
  {
    "postcode": "53773",
    "city": "Hennef"
  },
  {
    "postcode": "53773",
    "city": "Hennef (Sieg)"
  },
  {
    "postcode": "53773",
    "city": "Hüchel"
  },
  {
    "postcode": "53773",
    "city": "Hülscheid"
  },
  {
    "postcode": "53773",
    "city": "Issertshof"
  },
  {
    "postcode": "53773",
    "city": "Käsberg bei Hennef Sieg"
  },
  {
    "postcode": "53773",
    "city": "Käsberg bei Hennef"
  },
  {
    "postcode": "53773",
    "city": "Knippgierscheid"
  },
  {
    "postcode": "53773",
    "city": "Köschbusch"
  },
  {
    "postcode": "53773",
    "city": "Kraheck Siegkreis"
  },
  {
    "postcode": "53773",
    "city": "Kraheck"
  },
  {
    "postcode": "53773",
    "city": "Kurscheid"
  },
  {
    "postcode": "53773",
    "city": "Lanzenbach"
  },
  {
    "postcode": "53773",
    "city": "Lauthausen"
  },
  {
    "postcode": "53773",
    "city": "Lichtenberg Siegkreis"
  },
  {
    "postcode": "53773",
    "city": "Lichtenberg"
  },
  {
    "postcode": "53773",
    "city": "Lückert Siegkreis"
  },
  {
    "postcode": "53773",
    "city": "Lückert"
  },
  {
    "postcode": "53773",
    "city": "Mittelscheid"
  },
  {
    "postcode": "53773",
    "city": "Niederhalberg Siegkreis"
  },
  {
    "postcode": "53773",
    "city": "Niederhalberg"
  },
  {
    "postcode": "53773",
    "city": "Oberauel Siegkreis"
  },
  {
    "postcode": "53773",
    "city": "Oberauel"
  },
  {
    "postcode": "53773",
    "city": "Ravenstein"
  },
  {
    "postcode": "53773",
    "city": "Scheuren"
  },
  {
    "postcode": "53773",
    "city": "Sommershof"
  },
  {
    "postcode": "53773",
    "city": "Söven"
  },
  {
    "postcode": "53773",
    "city": "Stadt Blankenberg"
  },
  {
    "postcode": "53773",
    "city": "Stoßdorf"
  },
  {
    "postcode": "53773",
    "city": "Striefen bei Hennef Sieg"
  },
  {
    "postcode": "53773",
    "city": "Striefen bei Hennef"
  },
  {
    "postcode": "53773",
    "city": "Süchterscheid"
  },
  {
    "postcode": "53773",
    "city": "Uckerath"
  },
  {
    "postcode": "53773",
    "city": "Wasserheß"
  },
  {
    "postcode": "53773",
    "city": "Weingartsgasse"
  },
  {
    "postcode": "53773",
    "city": "Weldergoven"
  },
  {
    "postcode": "53773",
    "city": "Wellesberg Siegkreis"
  },
  {
    "postcode": "53773",
    "city": "Wellesberg"
  },
  {
    "postcode": "53773",
    "city": "Westerhausen Siegkreis"
  },
  {
    "postcode": "53773",
    "city": "Westerhausen"
  },
  {
    "postcode": "53773",
    "city": "Wippenhohn"
  },
  {
    "postcode": "53773",
    "city": "Zumhof"
  },
  {
    "postcode": "53773",
    "city": "Rhein-Sieg-Kreis"
  },
  {
    "postcode": "53773",
    "city": "Hanf"
  },
  {
    "postcode": "53773",
    "city": "Eulenberg"
  },
  {
    "postcode": "53773",
    "city": "Rott"
  },
  {
    "postcode": "53773",
    "city": "Ahrenbach"
  },
  {
    "postcode": "53773",
    "city": "Hossenberg"
  },
  {
    "postcode": "53773",
    "city": "Altglück"
  },
  {
    "postcode": "53773",
    "city": "Stein"
  },
  {
    "postcode": "53773",
    "city": "Kningelthal"
  },
  {
    "postcode": "53773",
    "city": "Dahlhausen"
  },
  {
    "postcode": "53773",
    "city": "Meisenbach"
  },
  {
    "postcode": "53773",
    "city": "Striefen"
  },
  {
    "postcode": "53773",
    "city": "Kurenbach"
  },
  {
    "postcode": "53773",
    "city": "Oberhalberg"
  },
  {
    "postcode": "53773",
    "city": "Hove"
  },
  {
    "postcode": "53773",
    "city": "Büllesfeld"
  },
  {
    "postcode": "53773",
    "city": "Depensiefen"
  },
  {
    "postcode": "53773",
    "city": "Derenbach"
  },
  {
    "postcode": "53773",
    "city": "Dürresbach"
  },
  {
    "postcode": "53773",
    "city": "Hahnenhardt"
  },
  {
    "postcode": "53773",
    "city": "Haus Ölgarten"
  },
  {
    "postcode": "53773",
    "city": "Heckelsberg"
  },
  {
    "postcode": "53773",
    "city": "Hermesmühle"
  },
  {
    "postcode": "53773",
    "city": "Hofen"
  },
  {
    "postcode": "53773",
    "city": "Hommerich"
  },
  {
    "postcode": "53773",
    "city": "Kümpel"
  },
  {
    "postcode": "53773",
    "city": "Käsberg"
  },
  {
    "postcode": "53773",
    "city": "Löbach"
  },
  {
    "postcode": "53773",
    "city": "Lescheid"
  },
  {
    "postcode": "53773",
    "city": "Liesberg"
  },
  {
    "postcode": "53773",
    "city": "Michelshohn"
  },
  {
    "postcode": "53773",
    "city": "Petershohn"
  },
  {
    "postcode": "53773",
    "city": "Röttgen"
  },
  {
    "postcode": "53773",
    "city": "Raveneck"
  },
  {
    "postcode": "53773",
    "city": "Rütsch"
  },
  {
    "postcode": "53773",
    "city": "Scheurenmühle"
  },
  {
    "postcode": "53773",
    "city": "Schächer"
  },
  {
    "postcode": "53773",
    "city": "Theishohn"
  },
  {
    "postcode": "53773",
    "city": "Blankenbach"
  },
  {
    "postcode": "53773",
    "city": "Wiederschall"
  },
  {
    "postcode": "53773",
    "city": "Wiersberg"
  },
  {
    "postcode": "53783",
    "city": "Alzenbach"
  },
  {
    "postcode": "53783",
    "city": "Baleroth"
  },
  {
    "postcode": "53783",
    "city": "Büsch bei Eitorf"
  },
  {
    "postcode": "53783",
    "city": "Eitorf"
  },
  {
    "postcode": "53783",
    "city": "Halft"
  },
  {
    "postcode": "53783",
    "city": "Hönscheid"
  },
  {
    "postcode": "53783",
    "city": "Irlenborn"
  },
  {
    "postcode": "53783",
    "city": "Keuenhof"
  },
  {
    "postcode": "53783",
    "city": "Lascheid"
  },
  {
    "postcode": "53783",
    "city": "Lindscheid"
  },
  {
    "postcode": "53783",
    "city": "Merten Sieg"
  },
  {
    "postcode": "53783",
    "city": "Merten"
  },
  {
    "postcode": "53783",
    "city": "Mierscheid"
  },
  {
    "postcode": "53783",
    "city": "Mühleip"
  },
  {
    "postcode": "53783",
    "city": "Obenroth"
  },
  {
    "postcode": "53783",
    "city": "Obereip"
  },
  {
    "postcode": "53783",
    "city": "Rankenhohn"
  },
  {
    "postcode": "53783",
    "city": "Rodder"
  },
  {
    "postcode": "53783",
    "city": "Schellberg"
  },
  {
    "postcode": "53783",
    "city": "Stein"
  },
  {
    "postcode": "53783",
    "city": "Rhein-Sieg-Kreis"
  },
  {
    "postcode": "53783",
    "city": "Hove"
  },
  {
    "postcode": "53783",
    "city": "Bitze"
  },
  {
    "postcode": "53783",
    "city": "Niederottersbach"
  },
  {
    "postcode": "53783",
    "city": "Blumenhof"
  },
  {
    "postcode": "53783",
    "city": "Bohlscheid"
  },
  {
    "postcode": "53783",
    "city": "Bach"
  },
  {
    "postcode": "53783",
    "city": "Büsch"
  },
  {
    "postcode": "53783",
    "city": "Balenbach"
  },
  {
    "postcode": "53783",
    "city": "Baumhof"
  },
  {
    "postcode": "53783",
    "city": "Bruch"
  },
  {
    "postcode": "53783",
    "city": "Dickersbach"
  },
  {
    "postcode": "53783",
    "city": "Wassack"
  },
  {
    "postcode": "53783",
    "city": "Köttingen"
  },
  {
    "postcode": "53783",
    "city": "Scheidsbach"
  },
  {
    "postcode": "53783",
    "city": "Käsberg"
  },
  {
    "postcode": "53783",
    "city": "Hatzfeld"
  },
  {
    "postcode": "53783",
    "city": "Hausen"
  },
  {
    "postcode": "53783",
    "city": "Hecke"
  },
  {
    "postcode": "53783",
    "city": "Heckerhof"
  },
  {
    "postcode": "53783",
    "city": "Kehlenbach"
  },
  {
    "postcode": "53783",
    "city": "Hohn"
  },
  {
    "postcode": "53783",
    "city": "Josefshöhe"
  },
  {
    "postcode": "53783",
    "city": "Kreisfeld"
  },
  {
    "postcode": "53783",
    "city": "Leye"
  },
  {
    "postcode": "53783",
    "city": "Lützgenauel"
  },
  {
    "postcode": "53783",
    "city": "Mittelottersbach"
  },
  {
    "postcode": "53783",
    "city": "Nannenhohn"
  },
  {
    "postcode": "53783",
    "city": "Obereipermühle"
  },
  {
    "postcode": "53783",
    "city": "Oberottersbach"
  },
  {
    "postcode": "53783",
    "city": "Paulinenhof"
  },
  {
    "postcode": "53783",
    "city": "Plackenhohn"
  },
  {
    "postcode": "53783",
    "city": "Richardshohn"
  },
  {
    "postcode": "53783",
    "city": "Rosenthal"
  },
  {
    "postcode": "53783",
    "city": "Schellenbruch"
  },
  {
    "postcode": "53783",
    "city": "Schmelze"
  },
  {
    "postcode": "53783",
    "city": "Siebigteroth"
  },
  {
    "postcode": "53783",
    "city": "Weiden"
  },
  {
    "postcode": "53783",
    "city": "Welterode"
  },
  {
    "postcode": "53783",
    "city": "Wilbertzhohn"
  },
  {
    "postcode": "53783",
    "city": "Wilkomsfeld"
  },
  {
    "postcode": "53797",
    "city": "Albach"
  },
  {
    "postcode": "53797",
    "city": "Algert Siegkreis"
  },
  {
    "postcode": "53797",
    "city": "Algert"
  },
  {
    "postcode": "53797",
    "city": "Birk Siegkreis"
  },
  {
    "postcode": "53797",
    "city": "Birk"
  },
  {
    "postcode": "53797",
    "city": "Breidt"
  },
  {
    "postcode": "53797",
    "city": "Dahlhaus"
  },
  {
    "postcode": "53797",
    "city": "Deesem"
  },
  {
    "postcode": "53797",
    "city": "Donrath"
  },
  {
    "postcode": "53797",
    "city": "Durbusch"
  },
  {
    "postcode": "53797",
    "city": "Ellhausen Siegkreis"
  },
  {
    "postcode": "53797",
    "city": "Ellhausen"
  },
  {
    "postcode": "53797",
    "city": "Geber"
  },
  {
    "postcode": "53797",
    "city": "Grimberg Siegkreis"
  },
  {
    "postcode": "53797",
    "city": "Grimberg"
  },
  {
    "postcode": "53797",
    "city": "Hausen"
  },
  {
    "postcode": "53797",
    "city": "Heppenberg"
  },
  {
    "postcode": "53797",
    "city": "Höffen"
  },
  {
    "postcode": "53797",
    "city": "Honrath"
  },
  {
    "postcode": "53797",
    "city": "Hoven"
  },
  {
    "postcode": "53797",
    "city": "Inger Siegkreis"
  },
  {
    "postcode": "53797",
    "city": "Inger"
  },
  {
    "postcode": "53797",
    "city": "Lohmar"
  },
  {
    "postcode": "53797",
    "city": "Lohmar Rheinland"
  },
  {
    "postcode": "53797",
    "city": "Muchensiefen"
  },
  {
    "postcode": "53797",
    "city": "Neuhonrath"
  },
  {
    "postcode": "53797",
    "city": "Oberstehöhe"
  },
  {
    "postcode": "53797",
    "city": "Scheid Siegkreis"
  },
  {
    "postcode": "53797",
    "city": "Scheid"
  },
  {
    "postcode": "53797",
    "city": "Scheiderhöhe"
  },
  {
    "postcode": "53797",
    "city": "Wahlscheid Siegkreis"
  },
  {
    "postcode": "53797",
    "city": "Wahlscheid"
  },
  {
    "postcode": "53797",
    "city": "Wielpütz"
  },
  {
    "postcode": "53797",
    "city": "Rhein-Sieg-Kreis"
  },
  {
    "postcode": "53797",
    "city": "Agger"
  },
  {
    "postcode": "53797",
    "city": "Heide"
  },
  {
    "postcode": "53797",
    "city": "Weegen"
  },
  {
    "postcode": "53797",
    "city": "Krahwinkel"
  },
  {
    "postcode": "53797",
    "city": "Naaferberg"
  },
  {
    "postcode": "53797",
    "city": "Kern"
  },
  {
    "postcode": "53797",
    "city": "Weilerhohn"
  },
  {
    "postcode": "53804",
    "city": "Alefeld"
  },
  {
    "postcode": "53804",
    "city": "Altenhof"
  },
  {
    "postcode": "53804",
    "city": "Amtsknechtswahn"
  },
  {
    "postcode": "53804",
    "city": "Bennrath"
  },
  {
    "postcode": "53804",
    "city": "Berzbach"
  },
  {
    "postcode": "53804",
    "city": "Birken"
  },
  {
    "postcode": "53804",
    "city": "Birrenbachshöhe"
  },
  {
    "postcode": "53804",
    "city": "Bövingen"
  },
  {
    "postcode": "53804",
    "city": "Bröl"
  },
  {
    "postcode": "53804",
    "city": "Bruchhausen Bröl"
  },
  {
    "postcode": "53804",
    "city": "Bruchhausen"
  },
  {
    "postcode": "53804",
    "city": "Derscheid"
  },
  {
    "postcode": "53804",
    "city": "Eckhausen"
  },
  {
    "postcode": "53804",
    "city": "Esinghausen"
  },
  {
    "postcode": "53804",
    "city": "Gerlinghausen"
  },
  {
    "postcode": "53804",
    "city": "Gibbinghausen"
  },
  {
    "postcode": "53804",
    "city": "Heinenbusch"
  },
  {
    "postcode": "53804",
    "city": "Henningen"
  },
  {
    "postcode": "53804",
    "city": "Herchenrath"
  },
  {
    "postcode": "53804",
    "city": "Herfterath"
  },
  {
    "postcode": "53804",
    "city": "Hetzenholz"
  },
  {
    "postcode": "53804",
    "city": "Hevinghausen"
  },
  {
    "postcode": "53804",
    "city": "Hillesheim"
  },
  {
    "postcode": "53804",
    "city": "Hirtsiefen"
  },
  {
    "postcode": "53804",
    "city": "Höfferhof"
  },
  {
    "postcode": "53804",
    "city": "Hohn"
  },
  {
    "postcode": "53804",
    "city": "Hündekausen"
  },
  {
    "postcode": "53804",
    "city": "Huven"
  },
  {
    "postcode": "53804",
    "city": "Köbach"
  },
  {
    "postcode": "53804",
    "city": "Kranüchel"
  },
  {
    "postcode": "53804",
    "city": "Kreuzkapelle"
  },
  {
    "postcode": "53804",
    "city": "Leverath"
  },
  {
    "postcode": "53804",
    "city": "Löbach"
  },
  {
    "postcode": "53804",
    "city": "Marienfeld Siegkreis"
  },
  {
    "postcode": "53804",
    "city": "Marienfeld"
  },
  {
    "postcode": "53804",
    "city": "Much"
  },
  {
    "postcode": "53804",
    "city": "Müllerhof"
  },
  {
    "postcode": "53804",
    "city": "Neßhoven"
  },
  {
    "postcode": "53804",
    "city": "Neverdorf"
  },
  {
    "postcode": "53804",
    "city": "Niederbonrath"
  },
  {
    "postcode": "53804",
    "city": "Niederbruchhausen"
  },
  {
    "postcode": "53804",
    "city": "Niederheiden"
  },
  {
    "postcode": "53804",
    "city": "Niederheimbach"
  },
  {
    "postcode": "53804",
    "city": "Niederhof"
  },
  {
    "postcode": "53804",
    "city": "Niedermiebach"
  },
  {
    "postcode": "53804",
    "city": "Niederwahn"
  },
  {
    "postcode": "53804",
    "city": "Növerhof"
  },
  {
    "postcode": "53804",
    "city": "Oberbonrath"
  },
  {
    "postcode": "53804",
    "city": "Oberdreisbach"
  },
  {
    "postcode": "53804",
    "city": "Oberheimbach"
  },
  {
    "postcode": "53804",
    "city": "Obermiebach"
  },
  {
    "postcode": "53804",
    "city": "Reinshagen"
  },
  {
    "postcode": "53804",
    "city": "Schlichenbach"
  },
  {
    "postcode": "53804",
    "city": "Siefen"
  },
  {
    "postcode": "53804",
    "city": "Sommerhausen"
  },
  {
    "postcode": "53804",
    "city": "Söntgerath"
  },
  {
    "postcode": "53804",
    "city": "Springen"
  },
  {
    "postcode": "53804",
    "city": "Stompen"
  },
  {
    "postcode": "53804",
    "city": "Tillinghausen"
  },
  {
    "postcode": "53804",
    "city": "Walterscheid"
  },
  {
    "postcode": "53804",
    "city": "Wellerscheid"
  },
  {
    "postcode": "53804",
    "city": "Wersch"
  },
  {
    "postcode": "53804",
    "city": "Werschberg"
  },
  {
    "postcode": "53804",
    "city": "Rhein-Sieg-Kreis"
  },
  {
    "postcode": "53804",
    "city": "Bech"
  },
  {
    "postcode": "53804",
    "city": "Berghausen"
  },
  {
    "postcode": "53804",
    "city": "Bitzen"
  },
  {
    "postcode": "53804",
    "city": "Büscherhof"
  },
  {
    "postcode": "53804",
    "city": "Daushof"
  },
  {
    "postcode": "53804",
    "city": "Eichhof"
  },
  {
    "postcode": "53804",
    "city": "Eigen"
  },
  {
    "postcode": "53804",
    "city": "Engeld"
  },
  {
    "postcode": "53804",
    "city": "Erlen"
  },
  {
    "postcode": "53804",
    "city": "Feld"
  },
  {
    "postcode": "53804",
    "city": "Höhnchen"
  },
  {
    "postcode": "53804",
    "city": "Hardt"
  },
  {
    "postcode": "53804",
    "city": "Heckhaus"
  },
  {
    "postcode": "53804",
    "city": "Hoffnungsthal"
  },
  {
    "postcode": "53804",
    "city": "Hohr"
  },
  {
    "postcode": "53804",
    "city": "Kerzenhöhnchen"
  },
  {
    "postcode": "53804",
    "city": "Klauserhof"
  },
  {
    "postcode": "53804",
    "city": "Kreizhof"
  },
  {
    "postcode": "53804",
    "city": "Küttensiefen"
  },
  {
    "postcode": "53804",
    "city": "Leuscherath"
  },
  {
    "postcode": "53804",
    "city": "Loßkittel"
  },
  {
    "postcode": "53804",
    "city": "Markelsbach"
  },
  {
    "postcode": "53804",
    "city": "Neuenhaus"
  },
  {
    "postcode": "53804",
    "city": "Niederbech"
  },
  {
    "postcode": "53804",
    "city": "Niederdreisbach"
  },
  {
    "postcode": "53804",
    "city": "Oberbitzen"
  },
  {
    "postcode": "53804",
    "city": "Oberbruchhausen"
  },
  {
    "postcode": "53804",
    "city": "Oberbusch"
  },
  {
    "postcode": "53804",
    "city": "Oberdorf"
  },
  {
    "postcode": "53804",
    "city": "Oberdreisbach-Höhe"
  },
  {
    "postcode": "53804",
    "city": "Oberhausen"
  },
  {
    "postcode": "53804",
    "city": "Oberheiden"
  },
  {
    "postcode": "53804",
    "city": "Oberholz"
  },
  {
    "postcode": "53804",
    "city": "Oberwahn"
  },
  {
    "postcode": "53804",
    "city": "Ophausen"
  },
  {
    "postcode": "53804",
    "city": "Ortsiefen"
  },
  {
    "postcode": "53804",
    "city": "Weißenportz"
  },
  {
    "postcode": "53804",
    "city": "Pillenhof"
  },
  {
    "postcode": "53804",
    "city": "Rieserhof"
  },
  {
    "postcode": "53804",
    "city": "Roßbruch"
  },
  {
    "postcode": "53804",
    "city": "Roßhohn"
  },
  {
    "postcode": "53804",
    "city": "Scheid"
  },
  {
    "postcode": "53804",
    "city": "Scheidhof"
  },
  {
    "postcode": "53804",
    "city": "Schwellenbach"
  },
  {
    "postcode": "53804",
    "city": "Senschenhöhe"
  },
  {
    "postcode": "53804",
    "city": "Steinhaus"
  },
  {
    "postcode": "53804",
    "city": "Strießhardt"
  },
  {
    "postcode": "53804",
    "city": "Strünkerhof"
  },
  {
    "postcode": "53804",
    "city": "Todtenmann"
  },
  {
    "postcode": "53804",
    "city": "Tüschenbonnen"
  },
  {
    "postcode": "53804",
    "city": "Vogelsangen"
  },
  {
    "postcode": "53804",
    "city": "Weeg"
  },
  {
    "postcode": "53804",
    "city": "Wiese"
  },
  {
    "postcode": "53804",
    "city": "Wohlfarth"
  },
  {
    "postcode": "53804",
    "city": "Zeche Aachen"
  },
  {
    "postcode": "53809",
    "city": "Bechlingen Siegkreis"
  },
  {
    "postcode": "53809",
    "city": "Bechlingen"
  },
  {
    "postcode": "53809",
    "city": "Bölkum"
  },
  {
    "postcode": "53809",
    "city": "Bornscheid Bröl"
  },
  {
    "postcode": "53809",
    "city": "Bornscheid"
  },
  {
    "postcode": "53809",
    "city": "Bröleck"
  },
  {
    "postcode": "53809",
    "city": "Damm"
  },
  {
    "postcode": "53809",
    "city": "Ennenbach"
  },
  {
    "postcode": "53809",
    "city": "Fusshollen Siegkreis"
  },
  {
    "postcode": "53809",
    "city": "Fusshollen"
  },
  {
    "postcode": "53809",
    "city": "Giesselbach"
  },
  {
    "postcode": "53809",
    "city": "Hambuchen"
  },
  {
    "postcode": "53809",
    "city": "Hänscheid"
  },
  {
    "postcode": "53809",
    "city": "Harth"
  },
  {
    "postcode": "53809",
    "city": "Hatterscheid Siegkreis"
  },
  {
    "postcode": "53809",
    "city": "Hatterscheid"
  },
  {
    "postcode": "53809",
    "city": "Herrenbröl"
  },
  {
    "postcode": "53809",
    "city": "Hodgeroth"
  },
  {
    "postcode": "53809",
    "city": "Holenfeld"
  },
  {
    "postcode": "53809",
    "city": "Honscheid Siegkreis"
  },
  {
    "postcode": "53809",
    "city": "Honscheid"
  },
  {
    "postcode": "53809",
    "city": "Hove"
  },
  {
    "postcode": "53809",
    "city": "Kämerscheid"
  },
  {
    "postcode": "53809",
    "city": "Kammerich Bröltal"
  },
  {
    "postcode": "53809",
    "city": "Kammerich"
  },
  {
    "postcode": "53809",
    "city": "Kesselscheid"
  },
  {
    "postcode": "53809",
    "city": "Köttingen"
  },
  {
    "postcode": "53809",
    "city": "Krahwinkel"
  },
  {
    "postcode": "53809",
    "city": "Kuchem"
  },
  {
    "postcode": "53809",
    "city": "Litterscheid Siegkreis"
  },
  {
    "postcode": "53809",
    "city": "Litterscheid"
  },
  {
    "postcode": "53809",
    "city": "Millerscheid"
  },
  {
    "postcode": "53809",
    "city": "Mittelsaurenbach"
  },
  {
    "postcode": "53809",
    "city": "Niederlückerath Bröltal"
  },
  {
    "postcode": "53809",
    "city": "Niederlückerath"
  },
  {
    "postcode": "53809",
    "city": "Oberlückerath Bröltal"
  },
  {
    "postcode": "53809",
    "city": "Oberlückerath"
  },
  {
    "postcode": "53809",
    "city": "Obersaurenbach"
  },
  {
    "postcode": "53809",
    "city": "Oeleroth"
  },
  {
    "postcode": "53809",
    "city": "Reiferscheid"
  },
  {
    "postcode": "53809",
    "city": "Retscheroth"
  },
  {
    "postcode": "53809",
    "city": "Ruppichteroth"
  },
  {
    "postcode": "53809",
    "city": "Schmitzdörfgen Siegkreis"
  },
  {
    "postcode": "53809",
    "city": "Schmitzdörfgen"
  },
  {
    "postcode": "53809",
    "city": "Schreckenberg Siegkreis"
  },
  {
    "postcode": "53809",
    "city": "Schreckenberg"
  },
  {
    "postcode": "53809",
    "city": "Stranzenbach"
  },
  {
    "postcode": "53809",
    "city": "Velken"
  },
  {
    "postcode": "53809",
    "city": "Winterscheid Siegkreis"
  },
  {
    "postcode": "53809",
    "city": "Winterscheid"
  },
  {
    "postcode": "53809",
    "city": "Winterscheiderbröl"
  },
  {
    "postcode": "53809",
    "city": "Rhein-Sieg-Kreis"
  },
  {
    "postcode": "53809",
    "city": "Ahe"
  },
  {
    "postcode": "53809",
    "city": "Büchel"
  },
  {
    "postcode": "53809",
    "city": "Schönenberg"
  },
  {
    "postcode": "53809",
    "city": "Fußhollen"
  },
  {
    "postcode": "53809",
    "city": "Bacherhof"
  },
  {
    "postcode": "53809",
    "city": "Beiert"
  },
  {
    "postcode": "53809",
    "city": "Berg"
  },
  {
    "postcode": "53809",
    "city": "Brölerhof"
  },
  {
    "postcode": "53809",
    "city": "Broscheid"
  },
  {
    "postcode": "53809",
    "city": "Dörgen"
  },
  {
    "postcode": "53809",
    "city": "Derenbach"
  },
  {
    "postcode": "53809",
    "city": "Fußberg"
  },
  {
    "postcode": "53809",
    "city": "Gießelbach"
  },
  {
    "postcode": "53809",
    "city": "Herrnstein"
  },
  {
    "postcode": "53809",
    "city": "Ifang"
  },
  {
    "postcode": "53809",
    "city": "Ingersauelermühle"
  },
  {
    "postcode": "53809",
    "city": "Junkersaurenbach"
  },
  {
    "postcode": "53809",
    "city": "Paulinenthal"
  },
  {
    "postcode": "53809",
    "city": "Neuenhof"
  },
  {
    "postcode": "53809",
    "city": "Niederprobach"
  },
  {
    "postcode": "53809",
    "city": "Niedersaurenbach"
  },
  {
    "postcode": "53809",
    "city": "Pulvermühle"
  },
  {
    "postcode": "53809",
    "city": "Rose"
  },
  {
    "postcode": "53809",
    "city": "Rotscheroth"
  },
  {
    "postcode": "53809",
    "city": "Scheid"
  },
  {
    "postcode": "53809",
    "city": "Schmitzhöfgen"
  },
  {
    "postcode": "53809",
    "city": "Schneppe"
  },
  {
    "postcode": "53809",
    "city": "Stockum"
  },
  {
    "postcode": "53809",
    "city": "Straße"
  },
  {
    "postcode": "53809",
    "city": "Tanneck"
  },
  {
    "postcode": "53809",
    "city": "Thal"
  },
  {
    "postcode": "53809",
    "city": "Thilhove"
  },
  {
    "postcode": "53809",
    "city": "Wingenbach"
  },
  {
    "postcode": "53809",
    "city": "Wingenbacherhof"
  },
  {
    "postcode": "53809",
    "city": "Winterscheidermühle"
  },
  {
    "postcode": "53819",
    "city": "Brackemich Siegkreis"
  },
  {
    "postcode": "53819",
    "city": "Brackemich"
  },
  {
    "postcode": "53819",
    "city": "Bruchhausen"
  },
  {
    "postcode": "53819",
    "city": "Busch"
  },
  {
    "postcode": "53819",
    "city": "Effert"
  },
  {
    "postcode": "53819",
    "city": "Eich"
  },
  {
    "postcode": "53819",
    "city": "Eischeid"
  },
  {
    "postcode": "53819",
    "city": "Heister"
  },
  {
    "postcode": "53819",
    "city": "Herkenrath Siegkreis"
  },
  {
    "postcode": "53819",
    "city": "Herkenrath"
  },
  {
    "postcode": "53819",
    "city": "Hermerath"
  },
  {
    "postcode": "53819",
    "city": "Hochhausen Siegkreis"
  },
  {
    "postcode": "53819",
    "city": "Hochhausen"
  },
  {
    "postcode": "53819",
    "city": "Hohn Siegkreis"
  },
  {
    "postcode": "53819",
    "city": "Hohn"
  },
  {
    "postcode": "53819",
    "city": "Hülscheid"
  },
  {
    "postcode": "53819",
    "city": "Köbach"
  },
  {
    "postcode": "53819",
    "city": "Krawinkel Siegkreis"
  },
  {
    "postcode": "53819",
    "city": "Krawinkel"
  },
  {
    "postcode": "53819",
    "city": "Mohlscheid"
  },
  {
    "postcode": "53819",
    "city": "Neunkirchen"
  },
  {
    "postcode": "53819",
    "city": "Neunkirchen-Seelscheid"
  },
  {
    "postcode": "53819",
    "city": "Niederhorbach"
  },
  {
    "postcode": "53819",
    "city": "Niederwennerscheid Siegkreis"
  },
  {
    "postcode": "53819",
    "city": "Niederwennerscheid"
  },
  {
    "postcode": "53819",
    "city": "Oberdorst"
  },
  {
    "postcode": "53819",
    "city": "Oberwennerscheid Siegkreis"
  },
  {
    "postcode": "53819",
    "city": "Oberwennerscheid"
  },
  {
    "postcode": "53819",
    "city": "Pinn"
  },
  {
    "postcode": "53819",
    "city": "Pohlhausen Siegkreis"
  },
  {
    "postcode": "53819",
    "city": "Pohlhausen"
  },
  {
    "postcode": "53819",
    "city": "Remschoß Siegkreis"
  },
  {
    "postcode": "53819",
    "city": "Remschoß"
  },
  {
    "postcode": "53819",
    "city": "Rengert"
  },
  {
    "postcode": "53819",
    "city": "Renzert"
  },
  {
    "postcode": "53819",
    "city": "Rippert"
  },
  {
    "postcode": "53819",
    "city": "Schöneshof Siegkreis"
  },
  {
    "postcode": "53819",
    "city": "Schöneshof"
  },
  {
    "postcode": "53819",
    "city": "Seelscheid"
  },
  {
    "postcode": "53819",
    "city": "Söntgerath"
  },
  {
    "postcode": "53819",
    "city": "Stein"
  },
  {
    "postcode": "53819",
    "city": "Straßen"
  },
  {
    "postcode": "53819",
    "city": "Wahlen"
  },
  {
    "postcode": "53819",
    "city": "Wahn"
  },
  {
    "postcode": "53819",
    "city": "Weiert"
  },
  {
    "postcode": "53819",
    "city": "Wolperath Siegkreis"
  },
  {
    "postcode": "53819",
    "city": "Wolperath"
  },
  {
    "postcode": "53819",
    "city": "Rhein-Sieg-Kreis"
  },
  {
    "postcode": "53819",
    "city": "Scherpekotten"
  },
  {
    "postcode": "53819",
    "city": "Oberhorbach"
  },
  {
    "postcode": "53819",
    "city": "Nackhausen"
  },
  {
    "postcode": "53819",
    "city": "Gutmühle"
  },
  {
    "postcode": "53819",
    "city": "Hasenbach"
  },
  {
    "postcode": "53819",
    "city": "Balensiefen"
  },
  {
    "postcode": "53819",
    "city": "Birkenfeld"
  },
  {
    "postcode": "53819",
    "city": "Birkenmühle"
  },
  {
    "postcode": "53819",
    "city": "Ingersau"
  },
  {
    "postcode": "53819",
    "city": "Ingersauelermühle"
  },
  {
    "postcode": "53819",
    "city": "Oberheister"
  },
  {
    "postcode": "53819",
    "city": "Siefen"
  },
  {
    "postcode": "53819",
    "city": "Birken"
  },
  {
    "postcode": "53819",
    "city": "Hausermühle"
  },
  {
    "postcode": "53819",
    "city": "Hardt"
  },
  {
    "postcode": "53819",
    "city": "Wiescheid"
  },
  {
    "postcode": "53819",
    "city": "Krahwinkel"
  },
  {
    "postcode": "53819",
    "city": "Breiderheide"
  },
  {
    "postcode": "53819",
    "city": "Ohlig"
  },
  {
    "postcode": "53819",
    "city": "Kaule"
  },
  {
    "postcode": "53819",
    "city": "Ohmerath"
  },
  {
    "postcode": "53819",
    "city": "Pütz"
  },
  {
    "postcode": "53819",
    "city": "Steinermühle"
  },
  {
    "postcode": "53819",
    "city": "Schaaren"
  },
  {
    "postcode": "53819",
    "city": "Rehwiese"
  },
  {
    "postcode": "53819",
    "city": "Wende"
  },
  {
    "postcode": "53840",
    "city": "Troisdorf"
  },
  {
    "postcode": "53840",
    "city": "Rhein-Sieg-Kreis"
  },
  {
    "postcode": "53840",
    "city": "Friedrich-Wilhelms-Hütte"
  },
  {
    "postcode": "53840",
    "city": "Altenrath"
  },
  {
    "postcode": "53840",
    "city": "Spich"
  },
  {
    "postcode": "53840",
    "city": "Oberlar"
  },
  {
    "postcode": "53842",
    "city": "Altenrath"
  },
  {
    "postcode": "53842",
    "city": "Oberlar Siegkreis"
  },
  {
    "postcode": "53842",
    "city": "Oberlar"
  },
  {
    "postcode": "53842",
    "city": "Spich Siegkreis"
  },
  {
    "postcode": "53842",
    "city": "Spich"
  },
  {
    "postcode": "53842",
    "city": "Troisdorf"
  },
  {
    "postcode": "53842",
    "city": "Rhein-Sieg-Kreis"
  },
  {
    "postcode": "53842",
    "city": "Sieglar"
  },
  {
    "postcode": "53844",
    "city": "Bergheim Sieg"
  },
  {
    "postcode": "53844",
    "city": "Bergheim"
  },
  {
    "postcode": "53844",
    "city": "Eschmar"
  },
  {
    "postcode": "53844",
    "city": "Kriegsdorf Siegkreis"
  },
  {
    "postcode": "53844",
    "city": "Kriegsdorf"
  },
  {
    "postcode": "53844",
    "city": "Müllekoven"
  },
  {
    "postcode": "53844",
    "city": "Sieglar"
  },
  {
    "postcode": "53844",
    "city": "Troisdorf"
  },
  {
    "postcode": "53844",
    "city": "Rhein-Sieg-Kreis"
  },
  {
    "postcode": "53844",
    "city": "Rotter See"
  },
  {
    "postcode": "53859",
    "city": "Lülsdorf"
  },
  {
    "postcode": "53859",
    "city": "Mondorf Siegkreis"
  },
  {
    "postcode": "53859",
    "city": "Mondorf"
  },
  {
    "postcode": "53859",
    "city": "Niederkassel"
  },
  {
    "postcode": "53859",
    "city": "Niederkassel Rhein"
  },
  {
    "postcode": "53859",
    "city": "Ranzel über Troisdorf"
  },
  {
    "postcode": "53859",
    "city": "Rheidt Siegkreis"
  },
  {
    "postcode": "53859",
    "city": "Rheidt"
  },
  {
    "postcode": "53859",
    "city": "Stockem Siegkreis"
  },
  {
    "postcode": "53859",
    "city": "Stockem"
  },
  {
    "postcode": "53859",
    "city": "Uckendorf"
  },
  {
    "postcode": "53859",
    "city": "Rhein-Sieg-Kreis"
  },
  {
    "postcode": "53859",
    "city": "Ranzel"
  },
  {
    "postcode": "53879",
    "city": "Euskirchen"
  },
  {
    "postcode": "53879",
    "city": "Kuchenheim"
  },
  {
    "postcode": "53879",
    "city": "Innenstadt"
  },
  {
    "postcode": "53881",
    "city": "Billig"
  },
  {
    "postcode": "53881",
    "city": "Dom-Esch"
  },
  {
    "postcode": "53881",
    "city": "Elsig"
  },
  {
    "postcode": "53881",
    "city": "Euenheim"
  },
  {
    "postcode": "53881",
    "city": "Euskirchen"
  },
  {
    "postcode": "53881",
    "city": "Flamersheim"
  },
  {
    "postcode": "53881",
    "city": "Frauenberg Kreis Euskirchen"
  },
  {
    "postcode": "53881",
    "city": "Frauenberg"
  },
  {
    "postcode": "53881",
    "city": "Großbüllesheim"
  },
  {
    "postcode": "53881",
    "city": "Kessenich"
  },
  {
    "postcode": "53881",
    "city": "Kirchheim Kreis Euskirchen"
  },
  {
    "postcode": "53881",
    "city": "Kirchheim"
  },
  {
    "postcode": "53881",
    "city": "Kleinbüllesheim"
  },
  {
    "postcode": "53881",
    "city": "Kreuzweingarten"
  },
  {
    "postcode": "53881",
    "city": "Kuchenheim"
  },
  {
    "postcode": "53881",
    "city": "Niederkastenholz"
  },
  {
    "postcode": "53881",
    "city": "Oberwichterich"
  },
  {
    "postcode": "53881",
    "city": "Palmersheim"
  },
  {
    "postcode": "53881",
    "city": "Rheder Kreis Euskirchen"
  },
  {
    "postcode": "53881",
    "city": "Rheder"
  },
  {
    "postcode": "53881",
    "city": "Roitzheim"
  },
  {
    "postcode": "53881",
    "city": "Schweinheim"
  },
  {
    "postcode": "53881",
    "city": "Stotzheim Kreis Euskirchen"
  },
  {
    "postcode": "53881",
    "city": "Stotzheim"
  },
  {
    "postcode": "53881",
    "city": "Weidesheim"
  },
  {
    "postcode": "53881",
    "city": "Wißkirchen"
  },
  {
    "postcode": "53881",
    "city": "Wüschheim über Euskirchen"
  },
  {
    "postcode": "53881",
    "city": "Innenstadt"
  },
  {
    "postcode": "53881",
    "city": "Wüschheim"
  },
  {
    "postcode": "53894",
    "city": "Antweiler Kreis Euskirchen"
  },
  {
    "postcode": "53894",
    "city": "Antweiler"
  },
  {
    "postcode": "53894",
    "city": "Berg bei Euskirchen"
  },
  {
    "postcode": "53894",
    "city": "Bergbuir"
  },
  {
    "postcode": "53894",
    "city": "Bergheim"
  },
  {
    "postcode": "53894",
    "city": "Bescheid"
  },
  {
    "postcode": "53894",
    "city": "Bleibuir"
  },
  {
    "postcode": "53894",
    "city": "Breitenbenden"
  },
  {
    "postcode": "53894",
    "city": "Eicks"
  },
  {
    "postcode": "53894",
    "city": "Eiserfey"
  },
  {
    "postcode": "53894",
    "city": "Firmenich"
  },
  {
    "postcode": "53894",
    "city": "Floisdorf"
  },
  {
    "postcode": "53894",
    "city": "Gehn"
  },
  {
    "postcode": "53894",
    "city": "Glehn bei Euskirchen"
  },
  {
    "postcode": "53894",
    "city": "Harzheim"
  },
  {
    "postcode": "53894",
    "city": "Holzheim Eifel"
  },
  {
    "postcode": "53894",
    "city": "Holzheim"
  },
  {
    "postcode": "53894",
    "city": "Hostel"
  },
  {
    "postcode": "53894",
    "city": "Kalenberg Eifel"
  },
  {
    "postcode": "53894",
    "city": "Kalenberg"
  },
  {
    "postcode": "53894",
    "city": "Kallmuth"
  },
  {
    "postcode": "53894",
    "city": "Katzvey"
  },
  {
    "postcode": "53894",
    "city": "Kommern"
  },
  {
    "postcode": "53894",
    "city": "Kommern-Süd"
  },
  {
    "postcode": "53894",
    "city": "Lessenich Kreis Euskirchen"
  },
  {
    "postcode": "53894",
    "city": "Lessenich"
  },
  {
    "postcode": "53894",
    "city": "Lorbach"
  },
  {
    "postcode": "53894",
    "city": "Lückerath"
  },
  {
    "postcode": "53894",
    "city": "Mechernich"
  },
  {
    "postcode": "53894",
    "city": "Obergartzem"
  },
  {
    "postcode": "53894",
    "city": "Rißdorf"
  },
  {
    "postcode": "53894",
    "city": "Roggendorf Eifel"
  },
  {
    "postcode": "53894",
    "city": "Roggendorf"
  },
  {
    "postcode": "53894",
    "city": "Satzvey"
  },
  {
    "postcode": "53894",
    "city": "Schaven"
  },
  {
    "postcode": "53894",
    "city": "Schützendorf"
  },
  {
    "postcode": "53894",
    "city": "Strempt"
  },
  {
    "postcode": "53894",
    "city": "Voißel"
  },
  {
    "postcode": "53894",
    "city": "Vussem"
  },
  {
    "postcode": "53894",
    "city": "Wachendorf Kreis Euskirchen"
  },
  {
    "postcode": "53894",
    "city": "Wachendorf"
  },
  {
    "postcode": "53894",
    "city": "Weiler am Berge"
  },
  {
    "postcode": "53894",
    "city": "Weyer Eifel"
  },
  {
    "postcode": "53894",
    "city": "Weyer"
  },
  {
    "postcode": "53894",
    "city": "Euskirchen"
  },
  {
    "postcode": "53894",
    "city": "Berg"
  },
  {
    "postcode": "53894",
    "city": "Wielspütz"
  },
  {
    "postcode": "53894",
    "city": "Vollem"
  },
  {
    "postcode": "53894",
    "city": "Glehn"
  },
  {
    "postcode": "53894",
    "city": "Denrath"
  },
  {
    "postcode": "53894",
    "city": "Weißenbrunnen"
  },
  {
    "postcode": "53894",
    "city": "Urfey"
  },
  {
    "postcode": "53894",
    "city": "Heufahrtshütte"
  },
  {
    "postcode": "53894",
    "city": "Dreimühlen"
  },
  {
    "postcode": "53902",
    "city": "Arloff"
  },
  {
    "postcode": "53902",
    "city": "Bad Münstereifel"
  },
  {
    "postcode": "53902",
    "city": "Berresheim bei Bad Münstereifel"
  },
  {
    "postcode": "53902",
    "city": "Effelsberg"
  },
  {
    "postcode": "53902",
    "city": "Eicherscheid bei Bad Münstereifel"
  },
  {
    "postcode": "53902",
    "city": "Eschweiler bei Bad Münstereifel"
  },
  {
    "postcode": "53902",
    "city": "Giersberg"
  },
  {
    "postcode": "53902",
    "city": "Gilsdorf"
  },
  {
    "postcode": "53902",
    "city": "Hilterscheid"
  },
  {
    "postcode": "53902",
    "city": "Hohn bei Bad Münstereifel"
  },
  {
    "postcode": "53902",
    "city": "Holzem Eifel"
  },
  {
    "postcode": "53902",
    "city": "Holzem"
  },
  {
    "postcode": "53902",
    "city": "Honerath"
  },
  {
    "postcode": "53902",
    "city": "Houverath bei Rheinbach"
  },
  {
    "postcode": "53902",
    "city": "Hummerzheim"
  },
  {
    "postcode": "53902",
    "city": "Hünkhoven"
  },
  {
    "postcode": "53902",
    "city": "Iversheim"
  },
  {
    "postcode": "53902",
    "city": "Kalkar Kreis Euskirchen"
  },
  {
    "postcode": "53902",
    "city": "Kalkar"
  },
  {
    "postcode": "53902",
    "city": "Kirspenich"
  },
  {
    "postcode": "53902",
    "city": "Langscheid Eifel"
  },
  {
    "postcode": "53902",
    "city": "Langscheid"
  },
  {
    "postcode": "53902",
    "city": "Lanzerath über Rheinbach"
  },
  {
    "postcode": "53902",
    "city": "Limbach bei Rheinbach"
  },
  {
    "postcode": "53902",
    "city": "Mahlberg bei Bad Münstereifel"
  },
  {
    "postcode": "53902",
    "city": "Maulbach"
  },
  {
    "postcode": "53902",
    "city": "Mutscheid"
  },
  {
    "postcode": "53902",
    "city": "Neichen"
  },
  {
    "postcode": "53902",
    "city": "Nöthen"
  },
  {
    "postcode": "53902",
    "city": "Odesheim"
  },
  {
    "postcode": "53902",
    "city": "Ohlerath"
  },
  {
    "postcode": "53902",
    "city": "Reckerscheid"
  },
  {
    "postcode": "53902",
    "city": "Rodert"
  },
  {
    "postcode": "53902",
    "city": "Rupperath"
  },
  {
    "postcode": "53902",
    "city": "Sasserath"
  },
  {
    "postcode": "53902",
    "city": "Scheuerheck"
  },
  {
    "postcode": "53902",
    "city": "Scheuren bei Rheinbach"
  },
  {
    "postcode": "53902",
    "city": "Schönau Eifel"
  },
  {
    "postcode": "53902",
    "city": "Schönau"
  },
  {
    "postcode": "53902",
    "city": "Soller über Münstereifel"
  },
  {
    "postcode": "53902",
    "city": "Wald bei Rheinbach"
  },
  {
    "postcode": "53902",
    "city": "Willerscheid"
  },
  {
    "postcode": "53902",
    "city": "Euskirchen"
  },
  {
    "postcode": "53902",
    "city": "Hohn"
  },
  {
    "postcode": "53902",
    "city": "Eicherscheid"
  },
  {
    "postcode": "53902",
    "city": "Wald"
  },
  {
    "postcode": "53902",
    "city": "Lethert"
  },
  {
    "postcode": "53902",
    "city": "Houverath"
  },
  {
    "postcode": "53902",
    "city": "Lanzerath"
  },
  {
    "postcode": "53902",
    "city": "Mahlberg"
  },
  {
    "postcode": "53902",
    "city": "Eichen"
  },
  {
    "postcode": "53902",
    "city": "Eschweiler"
  },
  {
    "postcode": "53902",
    "city": "Limbach"
  },
  {
    "postcode": "53902",
    "city": "Bergrath"
  },
  {
    "postcode": "53902",
    "city": "Nitterscheid"
  },
  {
    "postcode": "53902",
    "city": "Scheuren"
  },
  {
    "postcode": "53902",
    "city": "Esch"
  },
  {
    "postcode": "53902",
    "city": "Ellesheim"
  },
  {
    "postcode": "53902",
    "city": "Soller"
  },
  {
    "postcode": "53902",
    "city": "Witscheiderhof"
  },
  {
    "postcode": "53902",
    "city": "Berresheim"
  },
  {
    "postcode": "53902",
    "city": "Kolvenbach"
  },
  {
    "postcode": "53902",
    "city": "Lingscheiderhof"
  },
  {
    "postcode": "53902",
    "city": "Vollmert"
  },
  {
    "postcode": "53902",
    "city": "Weißenstein"
  },
  {
    "postcode": "53909",
    "city": "Bessenich"
  },
  {
    "postcode": "53909",
    "city": "Bürvenich"
  },
  {
    "postcode": "53909",
    "city": "Dürscheven"
  },
  {
    "postcode": "53909",
    "city": "Enzen Kreis Euskirchen"
  },
  {
    "postcode": "53909",
    "city": "Enzen"
  },
  {
    "postcode": "53909",
    "city": "Eppenich"
  },
  {
    "postcode": "53909",
    "city": "Floren"
  },
  {
    "postcode": "53909",
    "city": "Füssenich"
  },
  {
    "postcode": "53909",
    "city": "Geich bei Füssenich"
  },
  {
    "postcode": "53909",
    "city": "Hoven"
  },
  {
    "postcode": "53909",
    "city": "Juntersdorf"
  },
  {
    "postcode": "53909",
    "city": "Langendorf Kreis Euskirchen"
  },
  {
    "postcode": "53909",
    "city": "Langendorf"
  },
  {
    "postcode": "53909",
    "city": "Linzenich über Euskirchen"
  },
  {
    "postcode": "53909",
    "city": "Lövenich Kreis Euskirchen"
  },
  {
    "postcode": "53909",
    "city": "Lövenich"
  },
  {
    "postcode": "53909",
    "city": "Merzenich Kreis Euskirchen"
  },
  {
    "postcode": "53909",
    "city": "Merzenich"
  },
  {
    "postcode": "53909",
    "city": "Mülheim"
  },
  {
    "postcode": "53909",
    "city": "Nemmenich"
  },
  {
    "postcode": "53909",
    "city": "Niederelvenich"
  },
  {
    "postcode": "53909",
    "city": "Oberelvenich"
  },
  {
    "postcode": "53909",
    "city": "Rövenich"
  },
  {
    "postcode": "53909",
    "city": "Schwerfen"
  },
  {
    "postcode": "53909",
    "city": "Sinzenich"
  },
  {
    "postcode": "53909",
    "city": "Ülpenich"
  },
  {
    "postcode": "53909",
    "city": "Weiler in der Ebene"
  },
  {
    "postcode": "53909",
    "city": "Wichterich"
  },
  {
    "postcode": "53909",
    "city": "Zülpich"
  },
  {
    "postcode": "53909",
    "city": "Euskirchen"
  },
  {
    "postcode": "53909",
    "city": "Lüssem"
  },
  {
    "postcode": "53909",
    "city": "Linzenich"
  },
  {
    "postcode": "53909",
    "city": "Geich"
  },
  {
    "postcode": "53909",
    "city": "Weiler i d Ebene"
  },
  {
    "postcode": "53913",
    "city": "Buschhoven"
  },
  {
    "postcode": "53913",
    "city": "Dünstekoven"
  },
  {
    "postcode": "53913",
    "city": "Essig"
  },
  {
    "postcode": "53913",
    "city": "Heimerzheim"
  },
  {
    "postcode": "53913",
    "city": "Ludendorf"
  },
  {
    "postcode": "53913",
    "city": "Miel"
  },
  {
    "postcode": "53913",
    "city": "Morenhoven"
  },
  {
    "postcode": "53913",
    "city": "Odendorf"
  },
  {
    "postcode": "53913",
    "city": "Ollheim"
  },
  {
    "postcode": "53913",
    "city": "Straßfeld"
  },
  {
    "postcode": "53913",
    "city": "Swisttal"
  },
  {
    "postcode": "53913",
    "city": "Rhein-Sieg-Kreis"
  },
  {
    "postcode": "53919",
    "city": "Bodenheim Kreis Euskirchen"
  },
  {
    "postcode": "53919",
    "city": "Bodenheim"
  },
  {
    "postcode": "53919",
    "city": "Derkum Kreis Euskirchen"
  },
  {
    "postcode": "53919",
    "city": "Derkum"
  },
  {
    "postcode": "53919",
    "city": "Hausweiler Kreis Euskirchen"
  },
  {
    "postcode": "53919",
    "city": "Hausweiler"
  },
  {
    "postcode": "53919",
    "city": "Lommersum"
  },
  {
    "postcode": "53919",
    "city": "Metternich Kreis Euskirchen"
  },
  {
    "postcode": "53919",
    "city": "Metternich"
  },
  {
    "postcode": "53919",
    "city": "Müggenhausen"
  },
  {
    "postcode": "53919",
    "city": "Neukirchen"
  },
  {
    "postcode": "53919",
    "city": "Ottenheim Kreis Euskirchen"
  },
  {
    "postcode": "53919",
    "city": "Ottenheim"
  },
  {
    "postcode": "53919",
    "city": "Schneppenheim"
  },
  {
    "postcode": "53919",
    "city": "Schwarzmaar"
  },
  {
    "postcode": "53919",
    "city": "Weilerswist"
  },
  {
    "postcode": "53919",
    "city": "Euskirchen"
  },
  {
    "postcode": "53919",
    "city": "Großvernich"
  },
  {
    "postcode": "53919",
    "city": "Kleinvernich"
  },
  {
    "postcode": "53919",
    "city": "Horchheim"
  },
  {
    "postcode": "53919",
    "city": "Neuheim"
  },
  {
    "postcode": "53925",
    "city": "Anstois"
  },
  {
    "postcode": "53925",
    "city": "Benenberg"
  },
  {
    "postcode": "53925",
    "city": "Diefenbach Eifel"
  },
  {
    "postcode": "53925",
    "city": "Diefenbach"
  },
  {
    "postcode": "53925",
    "city": "Dottel"
  },
  {
    "postcode": "53925",
    "city": "Frohnrath"
  },
  {
    "postcode": "53925",
    "city": "Gillenberg Eifel"
  },
  {
    "postcode": "53925",
    "city": "Gillenberg"
  },
  {
    "postcode": "53925",
    "city": "Golbach"
  },
  {
    "postcode": "53925",
    "city": "Kall"
  },
  {
    "postcode": "53925",
    "city": "Keldenich"
  },
  {
    "postcode": "53925",
    "city": "Krekel"
  },
  {
    "postcode": "53925",
    "city": "Rinnen Eifel"
  },
  {
    "postcode": "53925",
    "city": "Rinnen"
  },
  {
    "postcode": "53925",
    "city": "Roder"
  },
  {
    "postcode": "53925",
    "city": "Rüth Forsthaus"
  },
  {
    "postcode": "53925",
    "city": "Rüth"
  },
  {
    "postcode": "53925",
    "city": "Scheven Kreis Schleiden Eifel"
  },
  {
    "postcode": "53925",
    "city": "Scheven"
  },
  {
    "postcode": "53925",
    "city": "Sistig"
  },
  {
    "postcode": "53925",
    "city": "Sötenich"
  },
  {
    "postcode": "53925",
    "city": "Steinfeld bei Kall"
  },
  {
    "postcode": "53925",
    "city": "Steinfelderheistert Eifel"
  },
  {
    "postcode": "53925",
    "city": "Steinfelderheistert"
  },
  {
    "postcode": "53925",
    "city": "Urft"
  },
  {
    "postcode": "53925",
    "city": "Wahlen Eifel"
  },
  {
    "postcode": "53925",
    "city": "Wahlen"
  },
  {
    "postcode": "53925",
    "city": "Wallenthal"
  },
  {
    "postcode": "53925",
    "city": "Euskirchen"
  },
  {
    "postcode": "53925",
    "city": "Steinfeld"
  },
  {
    "postcode": "53925",
    "city": "Straßbüsch"
  },
  {
    "postcode": "53925",
    "city": "Wallenthalerhöhe"
  },
  {
    "postcode": "53937",
    "city": "Berescheid"
  },
  {
    "postcode": "53937",
    "city": "Bronsfeld"
  },
  {
    "postcode": "53937",
    "city": "Dreiborn"
  },
  {
    "postcode": "53937",
    "city": "Ettelscheid Eifel"
  },
  {
    "postcode": "53937",
    "city": "Ettelscheid"
  },
  {
    "postcode": "53937",
    "city": "Gemünd Eifel"
  },
  {
    "postcode": "53937",
    "city": "Gemünd"
  },
  {
    "postcode": "53937",
    "city": "Harperscheid"
  },
  {
    "postcode": "53937",
    "city": "Herhahn"
  },
  {
    "postcode": "53937",
    "city": "Kerperscheid Eifel"
  },
  {
    "postcode": "53937",
    "city": "Kerperscheid"
  },
  {
    "postcode": "53937",
    "city": "Morsbach Eifel"
  },
  {
    "postcode": "53937",
    "city": "Morsbach"
  },
  {
    "postcode": "53937",
    "city": "Nierfeld Eifel"
  },
  {
    "postcode": "53937",
    "city": "Nierfeld"
  },
  {
    "postcode": "53937",
    "city": "Oberhausen Eifel"
  },
  {
    "postcode": "53937",
    "city": "Oberhausen"
  },
  {
    "postcode": "53937",
    "city": "Olef"
  },
  {
    "postcode": "53937",
    "city": "Scheuren Eifel"
  },
  {
    "postcode": "53937",
    "city": "Scheuren"
  },
  {
    "postcode": "53937",
    "city": "Schleiden"
  },
  {
    "postcode": "53937",
    "city": "Schleiden Eifel"
  },
  {
    "postcode": "53937",
    "city": "Schöneseiffen"
  },
  {
    "postcode": "53937",
    "city": "Wintzen Eifel"
  },
  {
    "postcode": "53937",
    "city": "Wintzen"
  },
  {
    "postcode": "53937",
    "city": "Wolfgarten Eifel"
  },
  {
    "postcode": "53937",
    "city": "Wolfgarten"
  },
  {
    "postcode": "53937",
    "city": "Euskirchen"
  },
  {
    "postcode": "53937",
    "city": "Broich"
  },
  {
    "postcode": "53940",
    "city": "Blumenthal Kreis Schleiden Eifel"
  },
  {
    "postcode": "53940",
    "city": "Blumenthal"
  },
  {
    "postcode": "53940",
    "city": "Giescheid"
  },
  {
    "postcode": "53940",
    "city": "Hecken Eifel"
  },
  {
    "postcode": "53940",
    "city": "Hecken"
  },
  {
    "postcode": "53940",
    "city": "Hellenthal"
  },
  {
    "postcode": "53940",
    "city": "Hellenthal Eifel"
  },
  {
    "postcode": "53940",
    "city": "Hollerath"
  },
  {
    "postcode": "53940",
    "city": "Hönningen Eifel"
  },
  {
    "postcode": "53940",
    "city": "Hönningen"
  },
  {
    "postcode": "53940",
    "city": "Kamberg"
  },
  {
    "postcode": "53940",
    "city": "Kreuzberg Eifel"
  },
  {
    "postcode": "53940",
    "city": "Kreuzberg"
  },
  {
    "postcode": "53940",
    "city": "Losheim Eifel"
  },
  {
    "postcode": "53940",
    "city": "Losheim"
  },
  {
    "postcode": "53940",
    "city": "Miescheid"
  },
  {
    "postcode": "53940",
    "city": "Oberreifferscheid Kreis Schleiden Eifel"
  },
  {
    "postcode": "53940",
    "city": "Oberreifferscheid"
  },
  {
    "postcode": "53940",
    "city": "Oberschömbach Eifel"
  },
  {
    "postcode": "53940",
    "city": "Oberschömbach"
  },
  {
    "postcode": "53940",
    "city": "Ramscheid"
  },
  {
    "postcode": "53940",
    "city": "Reifferscheid Kreis Schleiden Eifel"
  },
  {
    "postcode": "53940",
    "city": "Reifferscheid"
  },
  {
    "postcode": "53940",
    "city": "Rescheid"
  },
  {
    "postcode": "53940",
    "city": "Schnorrenberg"
  },
  {
    "postcode": "53940",
    "city": "Udenbreth"
  },
  {
    "postcode": "53940",
    "city": "Wollenberg Kreis Schleiden Eifel"
  },
  {
    "postcode": "53940",
    "city": "Wollenberg"
  },
  {
    "postcode": "53940",
    "city": "Euskirchen"
  },
  {
    "postcode": "53940",
    "city": "Wolfert"
  },
  {
    "postcode": "53940",
    "city": "Aufbereitung I"
  },
  {
    "postcode": "53940",
    "city": "Aufbereitung II"
  },
  {
    "postcode": "53940",
    "city": "Bruch"
  },
  {
    "postcode": "53940",
    "city": "Bungenberg"
  },
  {
    "postcode": "53940",
    "city": "Büschem"
  },
  {
    "postcode": "53940",
    "city": "Dickerscheid"
  },
  {
    "postcode": "53940",
    "city": "Dommersbach"
  },
  {
    "postcode": "53940",
    "city": "Eichen"
  },
  {
    "postcode": "53940",
    "city": "Felser"
  },
  {
    "postcode": "53940",
    "city": "Zingscheid"
  },
  {
    "postcode": "53940",
    "city": "Grube Wohlfahrt"
  },
  {
    "postcode": "53940",
    "city": "Hahnenberg"
  },
  {
    "postcode": "53940",
    "city": "Haus Eichen"
  },
  {
    "postcode": "53940",
    "city": "Heiden"
  },
  {
    "postcode": "53940",
    "city": "Hescheld"
  },
  {
    "postcode": "53940",
    "city": "Wiesen"
  },
  {
    "postcode": "53940",
    "city": "Ingersberg"
  },
  {
    "postcode": "53940",
    "city": "Kammerwald"
  },
  {
    "postcode": "53940",
    "city": "Kehr"
  },
  {
    "postcode": "53940",
    "city": "Kradenhövel"
  },
  {
    "postcode": "53940",
    "city": "Linden"
  },
  {
    "postcode": "53940",
    "city": "Losheimergraben"
  },
  {
    "postcode": "53940",
    "city": "Manscheid"
  },
  {
    "postcode": "53940",
    "city": "Metzigeroder"
  },
  {
    "postcode": "53940",
    "city": "Miescheiderheide"
  },
  {
    "postcode": "53940",
    "city": "Neuhaus"
  },
  {
    "postcode": "53940",
    "city": "Oberdalmerscheid"
  },
  {
    "postcode": "53940",
    "city": "Oberpreth"
  },
  {
    "postcode": "53940",
    "city": "Paulushof"
  },
  {
    "postcode": "53940",
    "city": "Ramscheiderhöhe"
  },
  {
    "postcode": "53940",
    "city": "Rodenbusch"
  },
  {
    "postcode": "53940",
    "city": "Schwalenbach"
  },
  {
    "postcode": "53940",
    "city": "Sieberath"
  },
  {
    "postcode": "53940",
    "city": "Unterdalmerscheid"
  },
  {
    "postcode": "53940",
    "city": "Unterpreth"
  },
  {
    "postcode": "53940",
    "city": "Unterschömbach"
  },
  {
    "postcode": "53940",
    "city": "Wahld"
  },
  {
    "postcode": "53940",
    "city": "Wildenburg"
  },
  {
    "postcode": "53940",
    "city": "Winten"
  },
  {
    "postcode": "53940",
    "city": "Wittscheid"
  },
  {
    "postcode": "53940",
    "city": "Zehnstelle"
  },
  {
    "postcode": "53945",
    "city": "Ahrdorf"
  },
  {
    "postcode": "53945",
    "city": "Ahrhütte"
  },
  {
    "postcode": "53945",
    "city": "Alendorf"
  },
  {
    "postcode": "53945",
    "city": "Blankenheim"
  },
  {
    "postcode": "53945",
    "city": "Blankenheim Ahr"
  },
  {
    "postcode": "53945",
    "city": "Blankenheimerdorf"
  },
  {
    "postcode": "53945",
    "city": "Dollendorf Eifel"
  },
  {
    "postcode": "53945",
    "city": "Dollendorf"
  },
  {
    "postcode": "53945",
    "city": "Freilingen bei Blankenheim Ahr"
  },
  {
    "postcode": "53945",
    "city": "Freilingen bei Blankenheim"
  },
  {
    "postcode": "53945",
    "city": "Hüngersdorf"
  },
  {
    "postcode": "53945",
    "city": "Lindweiler"
  },
  {
    "postcode": "53945",
    "city": "Lommersdorf"
  },
  {
    "postcode": "53945",
    "city": "Mülheim bei Blankenheim Ahr"
  },
  {
    "postcode": "53945",
    "city": "Mülheim bei Blankenheim"
  },
  {
    "postcode": "53945",
    "city": "Nonnenbach"
  },
  {
    "postcode": "53945",
    "city": "Reetz Eifel"
  },
  {
    "postcode": "53945",
    "city": "Reetz"
  },
  {
    "postcode": "53945",
    "city": "Ripsdorf"
  },
  {
    "postcode": "53945",
    "city": "Rohr Eifel"
  },
  {
    "postcode": "53945",
    "city": "Rohr"
  },
  {
    "postcode": "53945",
    "city": "Uedelhoven"
  },
  {
    "postcode": "53945",
    "city": "Waldorf bei Blankenheim Ahr"
  },
  {
    "postcode": "53945",
    "city": "Waldorf bei Blankenheim"
  },
  {
    "postcode": "53945",
    "city": "Euskirchen"
  },
  {
    "postcode": "53945",
    "city": "Waldorf"
  },
  {
    "postcode": "53945",
    "city": "Freilingen"
  },
  {
    "postcode": "53945",
    "city": "Mülheim"
  },
  {
    "postcode": "53945",
    "city": "Feriendorf Freilingen"
  },
  {
    "postcode": "53947",
    "city": "Bouderath"
  },
  {
    "postcode": "53947",
    "city": "Buir Eifel"
  },
  {
    "postcode": "53947",
    "city": "Buir"
  },
  {
    "postcode": "53947",
    "city": "Engelgau"
  },
  {
    "postcode": "53947",
    "city": "Frohngau"
  },
  {
    "postcode": "53947",
    "city": "Holzmülheim"
  },
  {
    "postcode": "53947",
    "city": "Marmagen"
  },
  {
    "postcode": "53947",
    "city": "Nettersheim"
  },
  {
    "postcode": "53947",
    "city": "Pesch bei Bad Münstereifel"
  },
  {
    "postcode": "53947",
    "city": "Roderath"
  },
  {
    "postcode": "53947",
    "city": "Tondorf Eifel"
  },
  {
    "postcode": "53947",
    "city": "Tondorf"
  },
  {
    "postcode": "53947",
    "city": "Zingsheim"
  },
  {
    "postcode": "53947",
    "city": "Euskirchen"
  },
  {
    "postcode": "53947",
    "city": "Pesch"
  },
  {
    "postcode": "53949",
    "city": "Baasem"
  },
  {
    "postcode": "53949",
    "city": "Berk Eifel"
  },
  {
    "postcode": "53949",
    "city": "Berk"
  },
  {
    "postcode": "53949",
    "city": "Dahlem"
  },
  {
    "postcode": "53949",
    "city": "Dahlem bei Kall"
  },
  {
    "postcode": "53949",
    "city": "Frauenkron"
  },
  {
    "postcode": "53949",
    "city": "Kronenburg über Blankenheim Eifel"
  },
  {
    "postcode": "53949",
    "city": "Kronenburg über Blankenheim"
  },
  {
    "postcode": "53949",
    "city": "Schmidtheim"
  },
  {
    "postcode": "53949",
    "city": "Euskirchen"
  },
  {
    "postcode": "53949",
    "city": "Kronenburg"
  }
]