[
  {
    "postcode": "71032",
    "city": "Böblingen"
  },
  {
    "postcode": "71032",
    "city": "Rauher Kapf"
  },
  {
    "postcode": "71034",
    "city": "Böblingen"
  },
  {
    "postcode": "71034",
    "city": "Dagersheim"
  },
  {
    "postcode": "71034",
    "city": "Flugfeld"
  },
  {
    "postcode": "71063",
    "city": "Mitte"
  },
  {
    "postcode": "71063",
    "city": "Nord"
  },
  {
    "postcode": "71063",
    "city": "Ost"
  },
  {
    "postcode": "71063",
    "city": "Sindelfingen"
  },
  {
    "postcode": "71063",
    "city": "Böblingen"
  },
  {
    "postcode": "71063",
    "city": "Flugfeld"
  },
  {
    "postcode": "71065",
    "city": "Mitte"
  },
  {
    "postcode": "71065",
    "city": "Ost"
  },
  {
    "postcode": "71065",
    "city": "Sindelfingen"
  },
  {
    "postcode": "71065",
    "city": "Böblingen"
  },
  {
    "postcode": "71067",
    "city": "Mitte"
  },
  {
    "postcode": "71067",
    "city": "Nord"
  },
  {
    "postcode": "71067",
    "city": "Sindelfingen"
  },
  {
    "postcode": "71067",
    "city": "Böblingen"
  },
  {
    "postcode": "71069",
    "city": "Darmsheim"
  },
  {
    "postcode": "71069",
    "city": "Maichingen"
  },
  {
    "postcode": "71069",
    "city": "Sindelfingen"
  },
  {
    "postcode": "71069",
    "city": "Böblingen"
  },
  {
    "postcode": "71069",
    "city": "West"
  },
  {
    "postcode": "71069",
    "city": "Mitte"
  },
  {
    "postcode": "71083",
    "city": "Affstätt"
  },
  {
    "postcode": "71083",
    "city": "Gültstein"
  },
  {
    "postcode": "71083",
    "city": "Haslach"
  },
  {
    "postcode": "71083",
    "city": "Herrenberg"
  },
  {
    "postcode": "71083",
    "city": "Herrenberg (im Gäu)"
  },
  {
    "postcode": "71083",
    "city": "Kayh"
  },
  {
    "postcode": "71083",
    "city": "Kuppingen"
  },
  {
    "postcode": "71083",
    "city": "Mönchberg"
  },
  {
    "postcode": "71083",
    "city": "Oberjesingen"
  },
  {
    "postcode": "71083",
    "city": "Talhof"
  },
  {
    "postcode": "71083",
    "city": "Böblingen"
  },
  {
    "postcode": "71088",
    "city": "Holzgerlingen"
  },
  {
    "postcode": "71088",
    "city": "Böblingen"
  },
  {
    "postcode": "71093",
    "city": "Breitenstein"
  },
  {
    "postcode": "71093",
    "city": "Neuweiler"
  },
  {
    "postcode": "71093",
    "city": "Weil im Schönbuch"
  },
  {
    "postcode": "71093",
    "city": "Böblingen"
  },
  {
    "postcode": "71101",
    "city": "Schönaich (Württemberg)"
  },
  {
    "postcode": "71101",
    "city": "Schönaich"
  },
  {
    "postcode": "71101",
    "city": "Böblingen"
  },
  {
    "postcode": "71106",
    "city": "Grundhof bei Renningen"
  },
  {
    "postcode": "71106",
    "city": "Magstadt"
  },
  {
    "postcode": "71106",
    "city": "Böblingen"
  },
  {
    "postcode": "71111",
    "city": "Glashütte"
  },
  {
    "postcode": "71111",
    "city": "Hasenhof"
  },
  {
    "postcode": "71111",
    "city": "Liebenau"
  },
  {
    "postcode": "71111",
    "city": "Waldenbuch"
  },
  {
    "postcode": "71111",
    "city": "Böblingen"
  },
  {
    "postcode": "71111",
    "city": "Burkhardtsmühle"
  },
  {
    "postcode": "71111",
    "city": "Obere Kleinmichelesmühle"
  },
  {
    "postcode": "71111",
    "city": "Obere Rauhmühle"
  },
  {
    "postcode": "71111",
    "city": "Untere Kleinmichelesmühle"
  },
  {
    "postcode": "71111",
    "city": "Untere Rauhmühle"
  },
  {
    "postcode": "71116",
    "city": "Gärtringen"
  },
  {
    "postcode": "71116",
    "city": "Rohrau"
  },
  {
    "postcode": "71116",
    "city": "Böblingen"
  },
  {
    "postcode": "71120",
    "city": "Dätzingen"
  },
  {
    "postcode": "71120",
    "city": "Döffingen"
  },
  {
    "postcode": "71120",
    "city": "Grafenau (Württemberg)"
  },
  {
    "postcode": "71120",
    "city": "Grafenau"
  },
  {
    "postcode": "71120",
    "city": "Böblingen"
  },
  {
    "postcode": "71126",
    "city": "Gäufelden"
  },
  {
    "postcode": "71126",
    "city": "Nebringen"
  },
  {
    "postcode": "71126",
    "city": "Öschelbronn"
  },
  {
    "postcode": "71126",
    "city": "Tailfingen"
  },
  {
    "postcode": "71126",
    "city": "Böblingen"
  },
  {
    "postcode": "71131",
    "city": "Jettingen (Württemberg)"
  },
  {
    "postcode": "71131",
    "city": "Jettingen"
  },
  {
    "postcode": "71131",
    "city": "Oberjettingen"
  },
  {
    "postcode": "71131",
    "city": "Unterjettingen"
  },
  {
    "postcode": "71131",
    "city": "Böblingen"
  },
  {
    "postcode": "71131",
    "city": "Sindlingen"
  },
  {
    "postcode": "71134",
    "city": "Aidlingen"
  },
  {
    "postcode": "71134",
    "city": "Aidlingen (Württemberg)"
  },
  {
    "postcode": "71134",
    "city": "Dachtel"
  },
  {
    "postcode": "71134",
    "city": "Deufringen"
  },
  {
    "postcode": "71134",
    "city": "Lehenweiler"
  },
  {
    "postcode": "71134",
    "city": "Böblingen"
  },
  {
    "postcode": "71134",
    "city": "Sindelfingen"
  },
  {
    "postcode": "71139",
    "city": "Ehningen (Kreis Böblingen)"
  },
  {
    "postcode": "71139",
    "city": "Ehningen"
  },
  {
    "postcode": "71139",
    "city": "Mauren"
  },
  {
    "postcode": "71139",
    "city": "Böblingen"
  },
  {
    "postcode": "71139",
    "city": "Aidlingen"
  },
  {
    "postcode": "71144",
    "city": "Bahnhof Steinenbronn"
  },
  {
    "postcode": "71144",
    "city": "Steinenbronn (Württemberg)"
  },
  {
    "postcode": "71144",
    "city": "Steinenbronn"
  },
  {
    "postcode": "71144",
    "city": "Böblingen"
  },
  {
    "postcode": "71144",
    "city": "Leinfelden-Echterdingen"
  },
  {
    "postcode": "71149",
    "city": "Bondorf (Kreis Böblingen)"
  },
  {
    "postcode": "71149",
    "city": "Bondorf"
  },
  {
    "postcode": "71149",
    "city": "Niederreutin"
  },
  {
    "postcode": "71149",
    "city": "Wurmfeld"
  },
  {
    "postcode": "71149",
    "city": "Böblingen"
  },
  {
    "postcode": "71149",
    "city": "Gäufelden"
  },
  {
    "postcode": "71154",
    "city": "Nufringen"
  },
  {
    "postcode": "71154",
    "city": "Böblingen"
  },
  {
    "postcode": "71155",
    "city": "Altdorf (Kreis Böblingen)"
  },
  {
    "postcode": "71155",
    "city": "Altdorf"
  },
  {
    "postcode": "71155",
    "city": "Böblingen"
  },
  {
    "postcode": "71157",
    "city": "Hildrizhausen"
  },
  {
    "postcode": "71157",
    "city": "Böblingen"
  },
  {
    "postcode": "71159",
    "city": "Mötzingen"
  },
  {
    "postcode": "71159",
    "city": "Böblingen"
  },
  {
    "postcode": "71229",
    "city": "Eltingen"
  },
  {
    "postcode": "71229",
    "city": "Gebersheim"
  },
  {
    "postcode": "71229",
    "city": "Höfingen"
  },
  {
    "postcode": "71229",
    "city": "Leonberg"
  },
  {
    "postcode": "71229",
    "city": "Leonberg (Württemberg)"
  },
  {
    "postcode": "71229",
    "city": "Ramtel"
  },
  {
    "postcode": "71229",
    "city": "Silberberg"
  },
  {
    "postcode": "71229",
    "city": "Warmbronn"
  },
  {
    "postcode": "71229",
    "city": "Böblingen"
  },
  {
    "postcode": "71229",
    "city": "Rutesheim"
  },
  {
    "postcode": "71254",
    "city": "Ditzingen"
  },
  {
    "postcode": "71254",
    "city": "Heimerdingen"
  },
  {
    "postcode": "71254",
    "city": "Hirschlanden"
  },
  {
    "postcode": "71254",
    "city": "Schöckingen"
  },
  {
    "postcode": "71254",
    "city": "Ludwigsburg"
  },
  {
    "postcode": "71263",
    "city": "Hausen"
  },
  {
    "postcode": "71263",
    "city": "Merklingen"
  },
  {
    "postcode": "71263",
    "city": "Münklingen"
  },
  {
    "postcode": "71263",
    "city": "Schafhausen"
  },
  {
    "postcode": "71263",
    "city": "Weil der Stadt"
  },
  {
    "postcode": "71263",
    "city": "Böblingen"
  },
  {
    "postcode": "71272",
    "city": "Grundhof bei Renningen"
  },
  {
    "postcode": "71272",
    "city": "Malmsheim"
  },
  {
    "postcode": "71272",
    "city": "Renningen"
  },
  {
    "postcode": "71272",
    "city": "Böblingen"
  },
  {
    "postcode": "71272",
    "city": "Grundhof"
  },
  {
    "postcode": "71272",
    "city": "Magstadt"
  },
  {
    "postcode": "71272",
    "city": "Warmbronn"
  },
  {
    "postcode": "71277",
    "city": "Perouse"
  },
  {
    "postcode": "71277",
    "city": "Rutesheim"
  },
  {
    "postcode": "71277",
    "city": "Böblingen"
  },
  {
    "postcode": "71277",
    "city": "Heuweg"
  },
  {
    "postcode": "71282",
    "city": "Hemmingen (Württemberg)"
  },
  {
    "postcode": "71282",
    "city": "Hemmingen"
  },
  {
    "postcode": "71282",
    "city": "Ludwigsburg"
  },
  {
    "postcode": "71287",
    "city": "Flacht"
  },
  {
    "postcode": "71287",
    "city": "Weissach"
  },
  {
    "postcode": "71287",
    "city": "Weissach (Württemberg)"
  },
  {
    "postcode": "71287",
    "city": "Böblingen"
  },
  {
    "postcode": "71292",
    "city": "Friolzheim"
  },
  {
    "postcode": "71292",
    "city": "Enzkreis"
  },
  {
    "postcode": "71296",
    "city": "Heimsheim"
  },
  {
    "postcode": "71296",
    "city": "Enzkreis"
  },
  {
    "postcode": "71297",
    "city": "Mönsheim"
  },
  {
    "postcode": "71297",
    "city": "Enzkreis"
  },
  {
    "postcode": "71299",
    "city": "Wimsheim"
  },
  {
    "postcode": "71299",
    "city": "Enzkreis"
  },
  {
    "postcode": "71332",
    "city": "Waiblingen"
  },
  {
    "postcode": "71332",
    "city": "Waiblingen (Rems)"
  },
  {
    "postcode": "71332",
    "city": "Rems-Murr-Kreis"
  },
  {
    "postcode": "71334",
    "city": "Beinstein"
  },
  {
    "postcode": "71334",
    "city": "Hegnach"
  },
  {
    "postcode": "71334",
    "city": "Waiblingen"
  },
  {
    "postcode": "71334",
    "city": "Waiblingen (Rems)"
  },
  {
    "postcode": "71334",
    "city": "Rems-Murr-Kreis"
  },
  {
    "postcode": "71336",
    "city": "Bittenfeld"
  },
  {
    "postcode": "71336",
    "city": "Erbachhof"
  },
  {
    "postcode": "71336",
    "city": "Hohenacker"
  },
  {
    "postcode": "71336",
    "city": "Kleinhegnach"
  },
  {
    "postcode": "71336",
    "city": "Neustadt"
  },
  {
    "postcode": "71336",
    "city": "Waiblingen (Rems)"
  },
  {
    "postcode": "71336",
    "city": "Waiblingen"
  },
  {
    "postcode": "71336",
    "city": "Zillhardtshof"
  },
  {
    "postcode": "71336",
    "city": "Rems-Murr-Kreis"
  },
  {
    "postcode": "71336",
    "city": "Hegnach"
  },
  {
    "postcode": "71364",
    "city": "Baach"
  },
  {
    "postcode": "71364",
    "city": "Birkmannsweiler"
  },
  {
    "postcode": "71364",
    "city": "Breuningsweiler"
  },
  {
    "postcode": "71364",
    "city": "Bürg"
  },
  {
    "postcode": "71364",
    "city": "Burkhardshof"
  },
  {
    "postcode": "71364",
    "city": "Degenhof"
  },
  {
    "postcode": "71364",
    "city": "Hanweiler"
  },
  {
    "postcode": "71364",
    "city": "Hertmannsweiler"
  },
  {
    "postcode": "71364",
    "city": "Höfen"
  },
  {
    "postcode": "71364",
    "city": "Schelmenholz"
  },
  {
    "postcode": "71364",
    "city": "Schulerhof"
  },
  {
    "postcode": "71364",
    "city": "Steinächle"
  },
  {
    "postcode": "71364",
    "city": "Winnenden"
  },
  {
    "postcode": "71364",
    "city": "Winnenden (Württemberg)"
  },
  {
    "postcode": "71364",
    "city": "Rems-Murr-Kreis"
  },
  {
    "postcode": "71364",
    "city": "Birkachhof"
  },
  {
    "postcode": "71384",
    "city": "Baach"
  },
  {
    "postcode": "71384",
    "city": "Beutelsbach"
  },
  {
    "postcode": "71384",
    "city": "Endersbach"
  },
  {
    "postcode": "71384",
    "city": "Großheppach"
  },
  {
    "postcode": "71384",
    "city": "Gundelsbach"
  },
  {
    "postcode": "71384",
    "city": "Schnait"
  },
  {
    "postcode": "71384",
    "city": "Schönbühl"
  },
  {
    "postcode": "71384",
    "city": "Strümpfelbach"
  },
  {
    "postcode": "71384",
    "city": "Weinstadt"
  },
  {
    "postcode": "71384",
    "city": "Rems-Murr-Kreis"
  },
  {
    "postcode": "71394",
    "city": "Kernen im Remstal"
  },
  {
    "postcode": "71394",
    "city": "Rommelshausen"
  },
  {
    "postcode": "71394",
    "city": "Stetten"
  },
  {
    "postcode": "71394",
    "city": "Rems-Murr-Kreis"
  },
  {
    "postcode": "71397",
    "city": "Gollenhof"
  },
  {
    "postcode": "71397",
    "city": "Heidenhof"
  },
  {
    "postcode": "71397",
    "city": "Leutenbach"
  },
  {
    "postcode": "71397",
    "city": "Leutenbach (Württemberg)"
  },
  {
    "postcode": "71397",
    "city": "Nellmersbach"
  },
  {
    "postcode": "71397",
    "city": "Weiler"
  },
  {
    "postcode": "71397",
    "city": "Weiler zum Stein"
  },
  {
    "postcode": "71397",
    "city": "Rems-Murr-Kreis"
  },
  {
    "postcode": "71404",
    "city": "Kleinheppach"
  },
  {
    "postcode": "71404",
    "city": "Korb"
  },
  {
    "postcode": "71404",
    "city": "Korb (Remstal)"
  },
  {
    "postcode": "71404",
    "city": "Rems-Murr-Kreis"
  },
  {
    "postcode": "71409",
    "city": "Schwaikheim"
  },
  {
    "postcode": "71409",
    "city": "Rems-Murr-Kreis"
  },
  {
    "postcode": "71522",
    "city": "Backnang"
  },
  {
    "postcode": "71522",
    "city": "Germannsweiler"
  },
  {
    "postcode": "71522",
    "city": "Heiningen"
  },
  {
    "postcode": "71522",
    "city": "Horbach"
  },
  {
    "postcode": "71522",
    "city": "Maubach"
  },
  {
    "postcode": "71522",
    "city": "Mittelschöntal"
  },
  {
    "postcode": "71522",
    "city": "Oberschöntal"
  },
  {
    "postcode": "71522",
    "city": "Sachsenweiler"
  },
  {
    "postcode": "71522",
    "city": "Seehof"
  },
  {
    "postcode": "71522",
    "city": "Steinbach"
  },
  {
    "postcode": "71522",
    "city": "Stiftsgrundhof"
  },
  {
    "postcode": "71522",
    "city": "Strümpfelbach"
  },
  {
    "postcode": "71522",
    "city": "Unterschöntal"
  },
  {
    "postcode": "71522",
    "city": "Waldrems"
  },
  {
    "postcode": "71522",
    "city": "Rems-Murr-Kreis"
  },
  {
    "postcode": "71540",
    "city": "Eulenhöfle"
  },
  {
    "postcode": "71540",
    "city": "Fornsbach"
  },
  {
    "postcode": "71540",
    "city": "Gaisbühl"
  },
  {
    "postcode": "71540",
    "city": "Gänshof"
  },
  {
    "postcode": "71540",
    "city": "Gärtnershof"
  },
  {
    "postcode": "71540",
    "city": "Harbach"
  },
  {
    "postcode": "71540",
    "city": "Harnersberg"
  },
  {
    "postcode": "71540",
    "city": "Hausen"
  },
  {
    "postcode": "71540",
    "city": "Hinterbüchelberg"
  },
  {
    "postcode": "71540",
    "city": "Hintermurrhärle"
  },
  {
    "postcode": "71540",
    "city": "Hinterwestermurr"
  },
  {
    "postcode": "71540",
    "city": "Hoffeld"
  },
  {
    "postcode": "71540",
    "city": "Hördthof"
  },
  {
    "postcode": "71540",
    "city": "Karnsberg"
  },
  {
    "postcode": "71540",
    "city": "Käsbach"
  },
  {
    "postcode": "71540",
    "city": "Kieselhof"
  },
  {
    "postcode": "71540",
    "city": "Kirchenkirnberg"
  },
  {
    "postcode": "71540",
    "city": "Klingen"
  },
  {
    "postcode": "71540",
    "city": "Köchersberg"
  },
  {
    "postcode": "71540",
    "city": "Mettelbach"
  },
  {
    "postcode": "71540",
    "city": "Mettelberg"
  },
  {
    "postcode": "71540",
    "city": "Murrhardt"
  },
  {
    "postcode": "71540",
    "city": "Neuhaus"
  },
  {
    "postcode": "71540",
    "city": "Oberneustetten"
  },
  {
    "postcode": "71540",
    "city": "Sauerhöfle"
  },
  {
    "postcode": "71540",
    "city": "Schwammhof"
  },
  {
    "postcode": "71540",
    "city": "Siebenknie"
  },
  {
    "postcode": "71540",
    "city": "Siegelsberg"
  },
  {
    "postcode": "71540",
    "city": "Spechtshof"
  },
  {
    "postcode": "71540",
    "city": "Spielhof"
  },
  {
    "postcode": "71540",
    "city": "Steinberg"
  },
  {
    "postcode": "71540",
    "city": "Tiefenmad"
  },
  {
    "postcode": "71540",
    "city": "Unterneustetten"
  },
  {
    "postcode": "71540",
    "city": "Vordermurrhärle"
  },
  {
    "postcode": "71540",
    "city": "Vorderwestermurr"
  },
  {
    "postcode": "71540",
    "city": "Waltersberg"
  },
  {
    "postcode": "71540",
    "city": "Wolkenhof"
  },
  {
    "postcode": "71540",
    "city": "Rems-Murr-Kreis"
  },
  {
    "postcode": "71540",
    "city": "Hornberger Reute"
  },
  {
    "postcode": "71543",
    "city": "Bärenbronn"
  },
  {
    "postcode": "71543",
    "city": "Beilstein (Württemberg)"
  },
  {
    "postcode": "71543",
    "city": "Beilstein"
  },
  {
    "postcode": "71543",
    "city": "Berg Gemeinde Finsterrot"
  },
  {
    "postcode": "71543",
    "city": "Berg"
  },
  {
    "postcode": "71543",
    "city": "Bernbach"
  },
  {
    "postcode": "71543",
    "city": "Buchenbach"
  },
  {
    "postcode": "71543",
    "city": "Busch"
  },
  {
    "postcode": "71543",
    "city": "Dörfle"
  },
  {
    "postcode": "71543",
    "city": "Finsterrot"
  },
  {
    "postcode": "71543",
    "city": "Greuthof"
  },
  {
    "postcode": "71543",
    "city": "Happbühl"
  },
  {
    "postcode": "71543",
    "city": "Hasenhof"
  },
  {
    "postcode": "71543",
    "city": "Kreuzle"
  },
  {
    "postcode": "71543",
    "city": "Lauxenhof"
  },
  {
    "postcode": "71543",
    "city": "Maienfels"
  },
  {
    "postcode": "71543",
    "city": "Neuhütten"
  },
  {
    "postcode": "71543",
    "city": "Neulautern"
  },
  {
    "postcode": "71543",
    "city": "Oberheimbach"
  },
  {
    "postcode": "71543",
    "city": "Schmellenhof"
  },
  {
    "postcode": "71543",
    "city": "Schweizerhof"
  },
  {
    "postcode": "71543",
    "city": "Spatzenhof"
  },
  {
    "postcode": "71543",
    "city": "Stangenbach"
  },
  {
    "postcode": "71543",
    "city": "Stollenhof"
  },
  {
    "postcode": "71543",
    "city": "Walklensweiler"
  },
  {
    "postcode": "71543",
    "city": "Weihenbronn"
  },
  {
    "postcode": "71543",
    "city": "Wüstenrot"
  },
  {
    "postcode": "71543",
    "city": "Heilbronn"
  },
  {
    "postcode": "71543",
    "city": "Stocksberg Gem Beilstein"
  },
  {
    "postcode": "71546",
    "city": "Allmersbach am Weinberg"
  },
  {
    "postcode": "71546",
    "city": "Altersberg"
  },
  {
    "postcode": "71546",
    "city": "Aspach bei Backnang"
  },
  {
    "postcode": "71546",
    "city": "Einöd"
  },
  {
    "postcode": "71546",
    "city": "Fürstenhof"
  },
  {
    "postcode": "71546",
    "city": "Großaspach"
  },
  {
    "postcode": "71546",
    "city": "Hintervöhrenberg"
  },
  {
    "postcode": "71546",
    "city": "Karlshof"
  },
  {
    "postcode": "71546",
    "city": "Kleinaspach"
  },
  {
    "postcode": "71546",
    "city": "Rietenau"
  },
  {
    "postcode": "71546",
    "city": "Röhrach"
  },
  {
    "postcode": "71546",
    "city": "Sinzenburg"
  },
  {
    "postcode": "71546",
    "city": "Steinhausen"
  },
  {
    "postcode": "71546",
    "city": "Völkleshofen"
  },
  {
    "postcode": "71546",
    "city": "Vordervöhrenberg"
  },
  {
    "postcode": "71546",
    "city": "Wüstenbachhof"
  },
  {
    "postcode": "71546",
    "city": "Rems-Murr-Kreis"
  },
  {
    "postcode": "71546",
    "city": "Aspach"
  },
  {
    "postcode": "71549",
    "city": "Auenwald"
  },
  {
    "postcode": "71549",
    "city": "Däfern"
  },
  {
    "postcode": "71549",
    "city": "Ebersberg"
  },
  {
    "postcode": "71549",
    "city": "Ebersberg Schloß"
  },
  {
    "postcode": "71549",
    "city": "Heslachhof"
  },
  {
    "postcode": "71549",
    "city": "Hohnweiler"
  },
  {
    "postcode": "71549",
    "city": "Lippoldsweiler"
  },
  {
    "postcode": "71549",
    "city": "Mittelbrüden"
  },
  {
    "postcode": "71549",
    "city": "Oberbrüden"
  },
  {
    "postcode": "71549",
    "city": "Rottmannsberg"
  },
  {
    "postcode": "71549",
    "city": "Tiefental"
  },
  {
    "postcode": "71549",
    "city": "Unterbrüden"
  },
  {
    "postcode": "71549",
    "city": "Rems-Murr-Kreis"
  },
  {
    "postcode": "71554",
    "city": "Aichholzhof"
  },
  {
    "postcode": "71554",
    "city": "Bruch"
  },
  {
    "postcode": "71554",
    "city": "Cottenweiler"
  },
  {
    "postcode": "71554",
    "city": "Dresselhof"
  },
  {
    "postcode": "71554",
    "city": "Oberweissach"
  },
  {
    "postcode": "71554",
    "city": "Unterweissach"
  },
  {
    "postcode": "71554",
    "city": "Wattenweiler"
  },
  {
    "postcode": "71554",
    "city": "Weissach im Tal"
  },
  {
    "postcode": "71554",
    "city": "Rems-Murr-Kreis"
  },
  {
    "postcode": "71560",
    "city": "Bartenbach"
  },
  {
    "postcode": "71560",
    "city": "Bernhalden"
  },
  {
    "postcode": "71560",
    "city": "Berwinkel"
  },
  {
    "postcode": "71560",
    "city": "Bushof"
  },
  {
    "postcode": "71560",
    "city": "Eschelhof"
  },
  {
    "postcode": "71560",
    "city": "Eschenstruet"
  },
  {
    "postcode": "71560",
    "city": "Hammer"
  },
  {
    "postcode": "71560",
    "city": "Ittenberg"
  },
  {
    "postcode": "71560",
    "city": "Kleinhöchberg"
  },
  {
    "postcode": "71560",
    "city": "Lautern"
  },
  {
    "postcode": "71560",
    "city": "Liemannsklinge"
  },
  {
    "postcode": "71560",
    "city": "Schleißweiler"
  },
  {
    "postcode": "71560",
    "city": "Siebersbach"
  },
  {
    "postcode": "71560",
    "city": "Sulzbach"
  },
  {
    "postcode": "71560",
    "city": "Sulzbach an der Murr"
  },
  {
    "postcode": "71560",
    "city": "Unterfischbach bei Sulzbach an der Murr"
  },
  {
    "postcode": "71560",
    "city": "Zwerenberg"
  },
  {
    "postcode": "71560",
    "city": "Rems-Murr-Kreis"
  },
  {
    "postcode": "71560",
    "city": "Hager"
  },
  {
    "postcode": "71560",
    "city": "Harrenberg"
  },
  {
    "postcode": "71560",
    "city": "Haselbachmühle"
  },
  {
    "postcode": "71563",
    "city": "Affalterbach"
  },
  {
    "postcode": "71563",
    "city": "Affalterbach (Württemberg)"
  },
  {
    "postcode": "71563",
    "city": "Gemeinde Burgstetten"
  },
  {
    "postcode": "71563",
    "city": "Siegelhausen"
  },
  {
    "postcode": "71563",
    "city": "Wolfsölden"
  },
  {
    "postcode": "71563",
    "city": "Ludwigsburg"
  },
  {
    "postcode": "71563",
    "city": "Gem Burgstetten"
  },
  {
    "postcode": "71566",
    "city": "Althütte"
  },
  {
    "postcode": "71566",
    "city": "Althütte (Württemberg)"
  },
  {
    "postcode": "71566",
    "city": "Fautspach"
  },
  {
    "postcode": "71566",
    "city": "Gallenhof"
  },
  {
    "postcode": "71566",
    "city": "Hörschhof"
  },
  {
    "postcode": "71566",
    "city": "Kallenberg"
  },
  {
    "postcode": "71566",
    "city": "Lutzenberg"
  },
  {
    "postcode": "71566",
    "city": "Nonnenmühle"
  },
  {
    "postcode": "71566",
    "city": "Schlichenhöfle"
  },
  {
    "postcode": "71566",
    "city": "Schlichenweiler"
  },
  {
    "postcode": "71566",
    "city": "Schöllhütte"
  },
  {
    "postcode": "71566",
    "city": "Sechselberg"
  },
  {
    "postcode": "71566",
    "city": "Waldenweiler"
  },
  {
    "postcode": "71566",
    "city": "Rems-Murr-Kreis"
  },
  {
    "postcode": "71566",
    "city": "Glaitenhof"
  },
  {
    "postcode": "71566",
    "city": "Hörschhofer Sägmühle"
  },
  {
    "postcode": "71566",
    "city": "Hahnenhof"
  },
  {
    "postcode": "71566",
    "city": "Rottmannsberger Sägmühle"
  },
  {
    "postcode": "71566",
    "city": "Voggenhof"
  },
  {
    "postcode": "71570",
    "city": "Aichelbach"
  },
  {
    "postcode": "71570",
    "city": "Ellenweiler"
  },
  {
    "postcode": "71570",
    "city": "Oppenweiler"
  },
  {
    "postcode": "71570",
    "city": "Reichenbach"
  },
  {
    "postcode": "71570",
    "city": "Reichenberg"
  },
  {
    "postcode": "71570",
    "city": "Reutenhof"
  },
  {
    "postcode": "71570",
    "city": "Schiffrain"
  },
  {
    "postcode": "71570",
    "city": "Wilhelmsheim"
  },
  {
    "postcode": "71570",
    "city": "Zell"
  },
  {
    "postcode": "71570",
    "city": "Rems-Murr-Kreis"
  },
  {
    "postcode": "71570",
    "city": "Rüflensmühle"
  },
  {
    "postcode": "71570",
    "city": "Hinterer Rohrbach"
  },
  {
    "postcode": "71570",
    "city": "Vorderer Rohrbach"
  },
  {
    "postcode": "71573",
    "city": "Allmersbach"
  },
  {
    "postcode": "71573",
    "city": "Allmersbach im Tal"
  },
  {
    "postcode": "71573",
    "city": "Heutensbach"
  },
  {
    "postcode": "71573",
    "city": "Rems-Murr-Kreis"
  },
  {
    "postcode": "71576",
    "city": "Burgstall"
  },
  {
    "postcode": "71576",
    "city": "Burgstetten"
  },
  {
    "postcode": "71576",
    "city": "Erbstetten"
  },
  {
    "postcode": "71576",
    "city": "Kirschenhardthof"
  },
  {
    "postcode": "71576",
    "city": "Rems-Murr-Kreis"
  },
  {
    "postcode": "71577",
    "city": "Altfürstenhütte"
  },
  {
    "postcode": "71577",
    "city": "Böhringsweiler"
  },
  {
    "postcode": "71577",
    "city": "Erlach"
  },
  {
    "postcode": "71577",
    "city": "Frankenweiler"
  },
  {
    "postcode": "71577",
    "city": "Grab"
  },
  {
    "postcode": "71577",
    "city": "Großerlach"
  },
  {
    "postcode": "71577",
    "city": "Hals Gemeinde Großerlach"
  },
  {
    "postcode": "71577",
    "city": "Hals"
  },
  {
    "postcode": "71577",
    "city": "Hohenbrach"
  },
  {
    "postcode": "71577",
    "city": "Kleinerlach"
  },
  {
    "postcode": "71577",
    "city": "Kuhnweiler"
  },
  {
    "postcode": "71577",
    "city": "Liemersbach"
  },
  {
    "postcode": "71577",
    "city": "Mannenweiler"
  },
  {
    "postcode": "71577",
    "city": "Morbach"
  },
  {
    "postcode": "71577",
    "city": "Neufürstenhütte"
  },
  {
    "postcode": "71577",
    "city": "Oberfischbach"
  },
  {
    "postcode": "71577",
    "city": "Schönbronn"
  },
  {
    "postcode": "71577",
    "city": "Schöntalhöfle"
  },
  {
    "postcode": "71577",
    "city": "Schwalbenflug"
  },
  {
    "postcode": "71577",
    "city": "Trauzenbach"
  },
  {
    "postcode": "71577",
    "city": "Rems-Murr-Kreis"
  },
  {
    "postcode": "71577",
    "city": "Mittelfischbach"
  },
  {
    "postcode": "71577",
    "city": "Buzberg"
  },
  {
    "postcode": "71577",
    "city": "Platte"
  },
  {
    "postcode": "71577",
    "city": "Schöntalsägmühle"
  },
  {
    "postcode": "71577",
    "city": "Schweizerhof"
  },
  {
    "postcode": "71577",
    "city": "Unterfischbach"
  },
  {
    "postcode": "71577",
    "city": "Wiedhof"
  },
  {
    "postcode": "71579",
    "city": "Dauernberg"
  },
  {
    "postcode": "71579",
    "city": "Großhöchberg"
  },
  {
    "postcode": "71579",
    "city": "Hüttlen"
  },
  {
    "postcode": "71579",
    "city": "Jux"
  },
  {
    "postcode": "71579",
    "city": "Kurzach"
  },
  {
    "postcode": "71579",
    "city": "Nassach"
  },
  {
    "postcode": "71579",
    "city": "Roßstaig"
  },
  {
    "postcode": "71579",
    "city": "Spiegelberg"
  },
  {
    "postcode": "71579",
    "city": "Spiegelberg (Württemberg)"
  },
  {
    "postcode": "71579",
    "city": "Vorderbüchelberg"
  },
  {
    "postcode": "71579",
    "city": "Rems-Murr-Kreis"
  },
  {
    "postcode": "71579",
    "city": "Warthof"
  },
  {
    "postcode": "71579",
    "city": "Gieshof"
  },
  {
    "postcode": "71634",
    "city": "Eglosheim"
  },
  {
    "postcode": "71634",
    "city": "Ludwigsburg (Württemberg)"
  },
  {
    "postcode": "71634",
    "city": "Ludwigsburg"
  },
  {
    "postcode": "71634",
    "city": "Mitte"
  },
  {
    "postcode": "71634",
    "city": "Nord"
  },
  {
    "postcode": "71634",
    "city": "Stadt Asperg"
  },
  {
    "postcode": "71634",
    "city": "Ludwigsburg-Nord"
  },
  {
    "postcode": "71636",
    "city": "Ludwigsburg (Württemberg)"
  },
  {
    "postcode": "71636",
    "city": "Ludwigsburg"
  },
  {
    "postcode": "71636",
    "city": "Pflugfelden"
  },
  {
    "postcode": "71636",
    "city": "Süd"
  },
  {
    "postcode": "71636",
    "city": "West"
  },
  {
    "postcode": "71638",
    "city": "Grünbühl"
  },
  {
    "postcode": "71638",
    "city": "Ludwigsburg (Württemberg)"
  },
  {
    "postcode": "71638",
    "city": "Ludwigsburg"
  },
  {
    "postcode": "71638",
    "city": "Mitte"
  },
  {
    "postcode": "71638",
    "city": "Ost"
  },
  {
    "postcode": "71638",
    "city": "Süd"
  },
  {
    "postcode": "71638",
    "city": "Stadt Kornwestheim"
  },
  {
    "postcode": "71638",
    "city": "Grünbühl/Sonnenberg"
  },
  {
    "postcode": "71640",
    "city": "Ludwigsburg (Württemberg)"
  },
  {
    "postcode": "71640",
    "city": "Ludwigsburg"
  },
  {
    "postcode": "71640",
    "city": "Mitte"
  },
  {
    "postcode": "71640",
    "city": "Ost"
  },
  {
    "postcode": "71640",
    "city": "Oßweil"
  },
  {
    "postcode": "71642",
    "city": "Hoheneck"
  },
  {
    "postcode": "71642",
    "city": "Ludwigsburg (Württemberg)"
  },
  {
    "postcode": "71642",
    "city": "Ludwigsburg"
  },
  {
    "postcode": "71642",
    "city": "Neckarweihingen"
  },
  {
    "postcode": "71642",
    "city": "Nord"
  },
  {
    "postcode": "71642",
    "city": "Poppenweiler"
  },
  {
    "postcode": "71665",
    "city": "Aurich"
  },
  {
    "postcode": "71665",
    "city": "Ensingen"
  },
  {
    "postcode": "71665",
    "city": "Enzweihingen"
  },
  {
    "postcode": "71665",
    "city": "Gündelbach"
  },
  {
    "postcode": "71665",
    "city": "Horrheim"
  },
  {
    "postcode": "71665",
    "city": "Kleinglattbach"
  },
  {
    "postcode": "71665",
    "city": "Pulverdingen"
  },
  {
    "postcode": "71665",
    "city": "Riet"
  },
  {
    "postcode": "71665",
    "city": "Roßwag"
  },
  {
    "postcode": "71665",
    "city": "Vaihingen an der Enz"
  },
  {
    "postcode": "71665",
    "city": "Ludwigsburg"
  },
  {
    "postcode": "71672",
    "city": "Hörnle"
  },
  {
    "postcode": "71672",
    "city": "Marbach"
  },
  {
    "postcode": "71672",
    "city": "Marbach am Neckar"
  },
  {
    "postcode": "71672",
    "city": "Rielingshausen"
  },
  {
    "postcode": "71672",
    "city": "Ludwigsburg"
  },
  {
    "postcode": "71672",
    "city": "Makenhof"
  },
  {
    "postcode": "71672",
    "city": "Siegelhausen"
  },
  {
    "postcode": "71679",
    "city": "Asperg"
  },
  {
    "postcode": "71679",
    "city": "Hohenasperg"
  },
  {
    "postcode": "71679",
    "city": "Ludwigsburg"
  },
  {
    "postcode": "71686",
    "city": "Aldingen"
  },
  {
    "postcode": "71686",
    "city": "Hochberg"
  },
  {
    "postcode": "71686",
    "city": "Hochdorf Kreis Ludwigsburg"
  },
  {
    "postcode": "71686",
    "city": "Hochdorf"
  },
  {
    "postcode": "71686",
    "city": "Neckargröningen"
  },
  {
    "postcode": "71686",
    "city": "Neckarrems"
  },
  {
    "postcode": "71686",
    "city": "Remseck am Neckar"
  },
  {
    "postcode": "71686",
    "city": "Ludwigsburg"
  },
  {
    "postcode": "71686",
    "city": "Remseck-Pattonville"
  },
  {
    "postcode": "71686",
    "city": "Pattonville"
  },
  {
    "postcode": "71691",
    "city": "Beihingen"
  },
  {
    "postcode": "71691",
    "city": "Freiberg am Neckar"
  },
  {
    "postcode": "71691",
    "city": "Geisingen"
  },
  {
    "postcode": "71691",
    "city": "Heutingsheim"
  },
  {
    "postcode": "71691",
    "city": "Ludwigsburg"
  },
  {
    "postcode": "71696",
    "city": "Möglingen (Kreis Ludwigsburg Württemberg)"
  },
  {
    "postcode": "71696",
    "city": "Möglingen (Kreis Ludwigsburg)"
  },
  {
    "postcode": "71696",
    "city": "Möglingen"
  },
  {
    "postcode": "71696",
    "city": "Ludwigsburg"
  },
  {
    "postcode": "71701",
    "city": "Nippenburg"
  },
  {
    "postcode": "71701",
    "city": "Schwieberdingen"
  },
  {
    "postcode": "71701",
    "city": "Ludwigsburg"
  },
  {
    "postcode": "71706",
    "city": "Hardthof bei Markgröningen"
  },
  {
    "postcode": "71706",
    "city": "Markgröningen"
  },
  {
    "postcode": "71706",
    "city": "Schönbühlhof"
  },
  {
    "postcode": "71706",
    "city": "Talhausen"
  },
  {
    "postcode": "71706",
    "city": "Unterriexingen"
  },
  {
    "postcode": "71706",
    "city": "Ludwigsburg"
  },
  {
    "postcode": "71706",
    "city": "Hardthof"
  },
  {
    "postcode": "71706",
    "city": "Schwieberdingen"
  },
  {
    "postcode": "71706",
    "city": "Aichholzhof"
  },
  {
    "postcode": "71711",
    "city": "Hinterbirkenhof"
  },
  {
    "postcode": "71711",
    "city": "Höpfigheim"
  },
  {
    "postcode": "71711",
    "city": "Kleinbottwar"
  },
  {
    "postcode": "71711",
    "city": "Lehrhof"
  },
  {
    "postcode": "71711",
    "city": "Murr (Württemberg)"
  },
  {
    "postcode": "71711",
    "city": "Murr"
  },
  {
    "postcode": "71711",
    "city": "Steinheim"
  },
  {
    "postcode": "71711",
    "city": "Steinheim an der Murr"
  },
  {
    "postcode": "71711",
    "city": "Ludwigsburg"
  },
  {
    "postcode": "71711",
    "city": "Marbach"
  },
  {
    "postcode": "71711",
    "city": "Marbach am Neckar"
  },
  {
    "postcode": "71717",
    "city": "Beilstein"
  },
  {
    "postcode": "71717",
    "city": "Beilstein (Württemberg)"
  },
  {
    "postcode": "71717",
    "city": "Billensbach"
  },
  {
    "postcode": "71717",
    "city": "Etzlenswenden"
  },
  {
    "postcode": "71717",
    "city": "Farnersberg"
  },
  {
    "postcode": "71717",
    "city": "Gagernberg"
  },
  {
    "postcode": "71717",
    "city": "Jettenbach"
  },
  {
    "postcode": "71717",
    "city": "Kaisersbach"
  },
  {
    "postcode": "71717",
    "city": "Klingen"
  },
  {
    "postcode": "71717",
    "city": "Maad"
  },
  {
    "postcode": "71717",
    "city": "Schmidhausen"
  },
  {
    "postcode": "71717",
    "city": "Söhlbach"
  },
  {
    "postcode": "71717",
    "city": "Stocksberg (Gemeinde Beilstein Württemberg)"
  },
  {
    "postcode": "71717",
    "city": "Stocksberg (Gemeinde Beilstein"
  },
  {
    "postcode": "71717",
    "city": "Stocksberg"
  },
  {
    "postcode": "71717",
    "city": "Heilbronn"
  },
  {
    "postcode": "71718",
    "city": "Billensbach"
  },
  {
    "postcode": "71720",
    "city": "Gronau"
  },
  {
    "postcode": "71720",
    "city": "Oberstenfeld"
  },
  {
    "postcode": "71720",
    "city": "Prevorst"
  },
  {
    "postcode": "71720",
    "city": "Ludwigsburg"
  },
  {
    "postcode": "71720",
    "city": "Obere Ölmühle"
  },
  {
    "postcode": "71720",
    "city": "Untere Ölmühle"
  },
  {
    "postcode": "71723",
    "city": "Großbottwar"
  },
  {
    "postcode": "71723",
    "city": "Holzweiler Hof"
  },
  {
    "postcode": "71723",
    "city": "Sauserhof"
  },
  {
    "postcode": "71723",
    "city": "Winzerhausen"
  },
  {
    "postcode": "71723",
    "city": "Ludwigsburg"
  },
  {
    "postcode": "71723",
    "city": "Beilstein"
  },
  {
    "postcode": "71723",
    "city": "Mundelsheim"
  },
  {
    "postcode": "71723",
    "city": "Hof und Lembach"
  },
  {
    "postcode": "71726",
    "city": "Benningen am Neckar"
  },
  {
    "postcode": "71726",
    "city": "Ludwigsburg"
  },
  {
    "postcode": "71729",
    "city": "Erdmannhausen"
  },
  {
    "postcode": "71729",
    "city": "Ludwigsburg"
  },
  {
    "postcode": "71729",
    "city": "Kirchberg"
  },
  {
    "postcode": "71729",
    "city": "Rundsmühlhof"
  },
  {
    "postcode": "71729",
    "city": "Kirchberg an der Murr"
  },
  {
    "postcode": "71732",
    "city": "Fißlerhof"
  },
  {
    "postcode": "71732",
    "city": "Hohenstange"
  },
  {
    "postcode": "71732",
    "city": "Tamm"
  },
  {
    "postcode": "71732",
    "city": "Ludwigsburg"
  },
  {
    "postcode": "71735",
    "city": "Eberdingen"
  },
  {
    "postcode": "71735",
    "city": "Hochdorf an der Enz"
  },
  {
    "postcode": "71735",
    "city": "Nussdorf"
  },
  {
    "postcode": "71735",
    "city": "Sonnenberg"
  },
  {
    "postcode": "71735",
    "city": "Ludwigsburg"
  },
  {
    "postcode": "71735",
    "city": "Hochdorf"
  },
  {
    "postcode": "71737",
    "city": "Frühmeßhof"
  },
  {
    "postcode": "71737",
    "city": "Kirchberg"
  },
  {
    "postcode": "71737",
    "city": "Kirchberg an der Murr"
  },
  {
    "postcode": "71737",
    "city": "Neuhof"
  },
  {
    "postcode": "71737",
    "city": "Zwingelhausen"
  },
  {
    "postcode": "71737",
    "city": "Rems-Murr-Kreis"
  },
  {
    "postcode": "71737",
    "city": "Obertorhöfe"
  },
  {
    "postcode": "71739",
    "city": "Oberriexingen"
  },
  {
    "postcode": "71739",
    "city": "Ludwigsburg"
  }
]