[
  {
    "postcode": "24103",
    "city": "Kiel"
  },
  {
    "postcode": "24103",
    "city": "Exerzierplatz"
  },
  {
    "postcode": "24103",
    "city": "Altstadt"
  },
  {
    "postcode": "24103",
    "city": "Vorstadt"
  },
  {
    "postcode": "24103",
    "city": "Damperhof"
  },
  {
    "postcode": "24103",
    "city": "Ravensberg"
  },
  {
    "postcode": "24105",
    "city": "Düsternbrook"
  },
  {
    "postcode": "24105",
    "city": "Kiel"
  },
  {
    "postcode": "24105",
    "city": "Blücherplatz"
  },
  {
    "postcode": "24105",
    "city": "Brunswik"
  },
  {
    "postcode": "24105",
    "city": "Ravensberg"
  },
  {
    "postcode": "24105",
    "city": "Schreventeich"
  },
  {
    "postcode": "24106",
    "city": "Kiel"
  },
  {
    "postcode": "24106",
    "city": "Wik"
  },
  {
    "postcode": "24107",
    "city": "Flemhude"
  },
  {
    "postcode": "24107",
    "city": "Kiel"
  },
  {
    "postcode": "24107",
    "city": "Landwehr Gemeinde Quarnbek"
  },
  {
    "postcode": "24107",
    "city": "Landwehr"
  },
  {
    "postcode": "24107",
    "city": "Ottendorf bei Kiel"
  },
  {
    "postcode": "24107",
    "city": "Quarnbek"
  },
  {
    "postcode": "24107",
    "city": "Rajensdorf"
  },
  {
    "postcode": "24107",
    "city": "Stampe"
  },
  {
    "postcode": "24107",
    "city": "Strohbrück"
  },
  {
    "postcode": "24107",
    "city": "Suchsdorf"
  },
  {
    "postcode": "24107",
    "city": "Ottendorf"
  },
  {
    "postcode": "24107",
    "city": "Ziegelhof"
  },
  {
    "postcode": "24109",
    "city": "Kiel"
  },
  {
    "postcode": "24109",
    "city": "Melsdorf"
  },
  {
    "postcode": "24109",
    "city": "Mettenhof"
  },
  {
    "postcode": "24109",
    "city": "Hasseldieksdamm"
  },
  {
    "postcode": "24111",
    "city": "Kiel"
  },
  {
    "postcode": "24111",
    "city": "Russee"
  },
  {
    "postcode": "24113",
    "city": "Hassee"
  },
  {
    "postcode": "24113",
    "city": "Kiel"
  },
  {
    "postcode": "24113",
    "city": "Molfsee"
  },
  {
    "postcode": "24113",
    "city": "Rammsee"
  },
  {
    "postcode": "24113",
    "city": "Schulensee"
  },
  {
    "postcode": "24113",
    "city": "Gaarden-Süd"
  },
  {
    "postcode": "24114",
    "city": "Kiel"
  },
  {
    "postcode": "24114",
    "city": "Südfriedhof"
  },
  {
    "postcode": "24116",
    "city": "Kiel"
  },
  {
    "postcode": "24116",
    "city": "Schreventeich"
  },
  {
    "postcode": "24118",
    "city": "Kiel"
  },
  {
    "postcode": "24118",
    "city": "Ravensberg"
  },
  {
    "postcode": "24119",
    "city": "Kronshagen"
  },
  {
    "postcode": "24119",
    "city": "Rendsburg-Eckernförde"
  },
  {
    "postcode": "24143",
    "city": "Kiel"
  },
  {
    "postcode": "24143",
    "city": "Gaarden-Süd"
  },
  {
    "postcode": "24143",
    "city": "Gaarden-Ost"
  },
  {
    "postcode": "24143",
    "city": "Ellerbek"
  },
  {
    "postcode": "24145",
    "city": "Kiel"
  },
  {
    "postcode": "24145",
    "city": "Meimersdorf"
  },
  {
    "postcode": "24145",
    "city": "Moorsee Holstein"
  },
  {
    "postcode": "24145",
    "city": "Moorsee"
  },
  {
    "postcode": "24145",
    "city": "Poppenbrügge"
  },
  {
    "postcode": "24145",
    "city": "Rönne Holstein"
  },
  {
    "postcode": "24145",
    "city": "Rönne"
  },
  {
    "postcode": "24145",
    "city": "Wellsee"
  },
  {
    "postcode": "24145",
    "city": "Kronsburg"
  },
  {
    "postcode": "24145",
    "city": "Neumeimersdorf"
  },
  {
    "postcode": "24145",
    "city": "Schlüsbek"
  },
  {
    "postcode": "24145",
    "city": "Gaarden-Süd"
  },
  {
    "postcode": "24145",
    "city": "Elmschenhagen-Süd"
  },
  {
    "postcode": "24146",
    "city": "Kiel"
  },
  {
    "postcode": "24146",
    "city": "Elmschenhagen-Süd"
  },
  {
    "postcode": "24146",
    "city": "Elmschenhagen"
  },
  {
    "postcode": "24147",
    "city": "Dreikronen Schwentine"
  },
  {
    "postcode": "24147",
    "city": "Dreikronen"
  },
  {
    "postcode": "24147",
    "city": "Kiel"
  },
  {
    "postcode": "24147",
    "city": "Klausdorf / Kiel"
  },
  {
    "postcode": "24147",
    "city": "Klausdorf"
  },
  {
    "postcode": "24147",
    "city": "Elmschenhagen-Nord"
  },
  {
    "postcode": "24147",
    "city": "Elmschenhagen"
  },
  {
    "postcode": "24148",
    "city": "Ellerbek"
  },
  {
    "postcode": "24148",
    "city": "Kiel"
  },
  {
    "postcode": "24148",
    "city": "Wellingdorf"
  },
  {
    "postcode": "24149",
    "city": "Kiel"
  },
  {
    "postcode": "24149",
    "city": "Neumühlen-Dietrichsdorf"
  },
  {
    "postcode": "24159",
    "city": "Holtenau"
  },
  {
    "postcode": "24159",
    "city": "Kiel"
  },
  {
    "postcode": "24159",
    "city": "Pries"
  },
  {
    "postcode": "24159",
    "city": "Schilksee"
  },
  {
    "postcode": "24159",
    "city": "Wik"
  },
  {
    "postcode": "24159",
    "city": "Friedrichsort"
  },
  {
    "postcode": "24161",
    "city": "Altenholz"
  },
  {
    "postcode": "24161",
    "city": "Knoop"
  },
  {
    "postcode": "24161",
    "city": "Stift"
  },
  {
    "postcode": "24161",
    "city": "Rendsburg-Eckernförde"
  },
  {
    "postcode": "24161",
    "city": "Levensau"
  },
  {
    "postcode": "24161",
    "city": "Rathmannsdorf"
  },
  {
    "postcode": "24161",
    "city": "Klausdorf"
  },
  {
    "postcode": "24211",
    "city": "Bredeneek Holstein"
  },
  {
    "postcode": "24211",
    "city": "Bredeneek"
  },
  {
    "postcode": "24211",
    "city": "Falkendorf Holstein"
  },
  {
    "postcode": "24211",
    "city": "Falkendorf"
  },
  {
    "postcode": "24211",
    "city": "Hohenleuchte Holstein"
  },
  {
    "postcode": "24211",
    "city": "Hohenleuchte"
  },
  {
    "postcode": "24211",
    "city": "Honigsee"
  },
  {
    "postcode": "24211",
    "city": "Kühren"
  },
  {
    "postcode": "24211",
    "city": "Kühren bei Preetz"
  },
  {
    "postcode": "24211",
    "city": "Kührsdorf Holstein"
  },
  {
    "postcode": "24211",
    "city": "Kührsdorf"
  },
  {
    "postcode": "24211",
    "city": "Lehmkuhlen bei Preetz"
  },
  {
    "postcode": "24211",
    "city": "Lepahn Holstein"
  },
  {
    "postcode": "24211",
    "city": "Lepahn"
  },
  {
    "postcode": "24211",
    "city": "Pohnsdorf"
  },
  {
    "postcode": "24211",
    "city": "Pohnsdorf bei Preetz"
  },
  {
    "postcode": "24211",
    "city": "Postfeld"
  },
  {
    "postcode": "24211",
    "city": "Preetz Holstein"
  },
  {
    "postcode": "24211",
    "city": "Preetz"
  },
  {
    "postcode": "24211",
    "city": "Rastorf Holstein"
  },
  {
    "postcode": "24211",
    "city": "Rastorf"
  },
  {
    "postcode": "24211",
    "city": "Rethwisch Holstein"
  },
  {
    "postcode": "24211",
    "city": "Rethwisch"
  },
  {
    "postcode": "24211",
    "city": "Rosenfeld Holstein"
  },
  {
    "postcode": "24211",
    "city": "Rosenfeld"
  },
  {
    "postcode": "24211",
    "city": "Schellhorn"
  },
  {
    "postcode": "24211",
    "city": "Schellhorn bei Preetz"
  },
  {
    "postcode": "24211",
    "city": "Sieversdorf bei Preetz Holstein"
  },
  {
    "postcode": "24211",
    "city": "Sieversdorf bei Preetz"
  },
  {
    "postcode": "24211",
    "city": "Trent Holstein"
  },
  {
    "postcode": "24211",
    "city": "Trent"
  },
  {
    "postcode": "24211",
    "city": "Trenthorst Holstein"
  },
  {
    "postcode": "24211",
    "city": "Trenthorst"
  },
  {
    "postcode": "24211",
    "city": "Wahlstorf bei Preetz"
  },
  {
    "postcode": "24211",
    "city": "Wielen Holstein"
  },
  {
    "postcode": "24211",
    "city": "Wielen"
  },
  {
    "postcode": "24211",
    "city": "Plön"
  },
  {
    "postcode": "24211",
    "city": "Lehmkuhlen"
  },
  {
    "postcode": "24211",
    "city": "Wahlstorf"
  },
  {
    "postcode": "24211",
    "city": "Kleinkühren"
  },
  {
    "postcode": "24211",
    "city": "Lehmkuhlen-Gut"
  },
  {
    "postcode": "24211",
    "city": "Christiansruhe"
  },
  {
    "postcode": "24211",
    "city": "Düsternbusch"
  },
  {
    "postcode": "24211",
    "city": "Marienwarder"
  },
  {
    "postcode": "24211",
    "city": "Hohenhütten"
  },
  {
    "postcode": "24211",
    "city": "Lassabek"
  },
  {
    "postcode": "24211",
    "city": "Nienwohld"
  },
  {
    "postcode": "24211",
    "city": "Dammdorf"
  },
  {
    "postcode": "24211",
    "city": "Sieversdorf"
  },
  {
    "postcode": "24211",
    "city": "Hörnsee"
  },
  {
    "postcode": "24211",
    "city": "Kronsredder"
  },
  {
    "postcode": "24211",
    "city": "Pohnsdorfer Feld"
  },
  {
    "postcode": "24211",
    "city": "Pohnsdorfer Stauung"
  },
  {
    "postcode": "24211",
    "city": "Rönnerholz"
  },
  {
    "postcode": "24211",
    "city": "Rastorfer Passau"
  },
  {
    "postcode": "24211",
    "city": "Wildenhorst"
  },
  {
    "postcode": "24211",
    "city": "Sophienhof"
  },
  {
    "postcode": "24211",
    "city": "Scharstorf"
  },
  {
    "postcode": "24211",
    "city": "Wahlstorfer Mühle"
  },
  {
    "postcode": "24214",
    "city": "Blickstedt"
  },
  {
    "postcode": "24214",
    "city": "Bornstein"
  },
  {
    "postcode": "24214",
    "city": "Gettorf"
  },
  {
    "postcode": "24214",
    "city": "Lindau"
  },
  {
    "postcode": "24214",
    "city": "Lindau bei Kiel"
  },
  {
    "postcode": "24214",
    "city": "Lindhöft"
  },
  {
    "postcode": "24214",
    "city": "Neudorf-Bornstein"
  },
  {
    "postcode": "24214",
    "city": "Neuwittenbek"
  },
  {
    "postcode": "24214",
    "city": "Noer"
  },
  {
    "postcode": "24214",
    "city": "Revensdorf"
  },
  {
    "postcode": "24214",
    "city": "Schinkel bei Gettorf"
  },
  {
    "postcode": "24214",
    "city": "Tüttendorf"
  },
  {
    "postcode": "24214",
    "city": "Wulfshagenerhütten"
  },
  {
    "postcode": "24214",
    "city": "Rendsburg-Eckernförde"
  },
  {
    "postcode": "24214",
    "city": "Altwittenbek"
  },
  {
    "postcode": "24214",
    "city": "Großkönigsförde"
  },
  {
    "postcode": "24214",
    "city": "Schinkel"
  },
  {
    "postcode": "24214",
    "city": "Waterdiek"
  },
  {
    "postcode": "24214",
    "city": "Neu-Ruckforde"
  },
  {
    "postcode": "24214",
    "city": "Ruckforde"
  },
  {
    "postcode": "24214",
    "city": "Neudorf"
  },
  {
    "postcode": "24214",
    "city": "Sprengel"
  },
  {
    "postcode": "24214",
    "city": "Krummland"
  },
  {
    "postcode": "24214",
    "city": "Rosenkranz"
  },
  {
    "postcode": "24214",
    "city": "Warleberger Mühle"
  },
  {
    "postcode": "24214",
    "city": "Eckholz"
  },
  {
    "postcode": "24217",
    "city": "Barsbek"
  },
  {
    "postcode": "24217",
    "city": "Bendfeld"
  },
  {
    "postcode": "24217",
    "city": "Fiefbergen"
  },
  {
    "postcode": "24217",
    "city": "Höhndorf"
  },
  {
    "postcode": "24217",
    "city": "Holm Holstein"
  },
  {
    "postcode": "24217",
    "city": "Holm"
  },
  {
    "postcode": "24217",
    "city": "Kalifornien Holstein"
  },
  {
    "postcode": "24217",
    "city": "Kalifornien"
  },
  {
    "postcode": "24217",
    "city": "Krokau"
  },
  {
    "postcode": "24217",
    "city": "Krummbek Holstein"
  },
  {
    "postcode": "24217",
    "city": "Krummbek"
  },
  {
    "postcode": "24217",
    "city": "Schönberg (Holstein)"
  },
  {
    "postcode": "24217",
    "city": "Schönberg"
  },
  {
    "postcode": "24217",
    "city": "Schönberger Strand"
  },
  {
    "postcode": "24217",
    "city": "Stakendorf"
  },
  {
    "postcode": "24217",
    "city": "Wisch bei Kiel"
  },
  {
    "postcode": "24217",
    "city": "Plön"
  },
  {
    "postcode": "24217",
    "city": "Wisch"
  },
  {
    "postcode": "24217",
    "city": "Gödersdorf"
  },
  {
    "postcode": "24217",
    "city": "Neuschönberg"
  },
  {
    "postcode": "24220",
    "city": "Böhnhusen"
  },
  {
    "postcode": "24220",
    "city": "Boksee"
  },
  {
    "postcode": "24220",
    "city": "Flintbek"
  },
  {
    "postcode": "24220",
    "city": "Schönhorst Holstein"
  },
  {
    "postcode": "24220",
    "city": "Schönhorst"
  },
  {
    "postcode": "24220",
    "city": "Techelsdorf"
  },
  {
    "postcode": "24220",
    "city": "Plön"
  },
  {
    "postcode": "24220",
    "city": "Voorde"
  },
  {
    "postcode": "24222",
    "city": "Klausdorf / Kiel"
  },
  {
    "postcode": "24222",
    "city": "Klausdorf"
  },
  {
    "postcode": "24222",
    "city": "Schwentinental"
  },
  {
    "postcode": "24222",
    "city": "Plön"
  },
  {
    "postcode": "24222",
    "city": "Dreikronen"
  },
  {
    "postcode": "24223",
    "city": "Raisdorf"
  },
  {
    "postcode": "24223",
    "city": "Schwentinental"
  },
  {
    "postcode": "24223",
    "city": "Plön"
  },
  {
    "postcode": "24223",
    "city": "Neuwühren"
  },
  {
    "postcode": "24226",
    "city": "Heikendorf"
  },
  {
    "postcode": "24226",
    "city": "Kitzeberg"
  },
  {
    "postcode": "24226",
    "city": "Möltenort"
  },
  {
    "postcode": "24226",
    "city": "Neuheikendorf"
  },
  {
    "postcode": "24226",
    "city": "Plön"
  },
  {
    "postcode": "24226",
    "city": "Altheikendorf"
  },
  {
    "postcode": "24226",
    "city": "Schrevenborn"
  },
  {
    "postcode": "24229",
    "city": "Birkenmoor"
  },
  {
    "postcode": "24229",
    "city": "Dänischenhagen"
  },
  {
    "postcode": "24229",
    "city": "Jellenbek bei Kiel"
  },
  {
    "postcode": "24229",
    "city": "Kaltenhof"
  },
  {
    "postcode": "24229",
    "city": "Krusendorf bei Kiel"
  },
  {
    "postcode": "24229",
    "city": "Marienfelde"
  },
  {
    "postcode": "24229",
    "city": "Rabendorf"
  },
  {
    "postcode": "24229",
    "city": "Scharnhagen"
  },
  {
    "postcode": "24229",
    "city": "Schwedeneck"
  },
  {
    "postcode": "24229",
    "city": "Sprenge"
  },
  {
    "postcode": "24229",
    "city": "Stohl"
  },
  {
    "postcode": "24229",
    "city": "Strande"
  },
  {
    "postcode": "24229",
    "city": "Strande Holstein"
  },
  {
    "postcode": "24229",
    "city": "Surendorf"
  },
  {
    "postcode": "24229",
    "city": "Rendsburg-Eckernförde"
  },
  {
    "postcode": "24229",
    "city": "Freidorf"
  },
  {
    "postcode": "24229",
    "city": "Kuhholz"
  },
  {
    "postcode": "24229",
    "city": "Lehmkaten"
  },
  {
    "postcode": "24229",
    "city": "Dänisch-Nienhof"
  },
  {
    "postcode": "24229",
    "city": "Krusendorf"
  },
  {
    "postcode": "24229",
    "city": "Jellenbek"
  },
  {
    "postcode": "24229",
    "city": "Grönwohld"
  },
  {
    "postcode": "24229",
    "city": "Fischerberg"
  },
  {
    "postcode": "24229",
    "city": "Hohenhain"
  },
  {
    "postcode": "24229",
    "city": "Elisendorf"
  },
  {
    "postcode": "24229",
    "city": "Mühlenberg"
  },
  {
    "postcode": "24229",
    "city": "Hoheluft"
  },
  {
    "postcode": "24229",
    "city": "Alt Bülk"
  },
  {
    "postcode": "24232",
    "city": "Dobersdorf"
  },
  {
    "postcode": "24232",
    "city": "Dobersdorf Holstein"
  },
  {
    "postcode": "24232",
    "city": "Flüggendorf Holstein"
  },
  {
    "postcode": "24232",
    "city": "Flüggendorf"
  },
  {
    "postcode": "24232",
    "city": "Friedrichsberg Holstein"
  },
  {
    "postcode": "24232",
    "city": "Friedrichsberg"
  },
  {
    "postcode": "24232",
    "city": "Jasdorf"
  },
  {
    "postcode": "24232",
    "city": "Landgraben Holstein"
  },
  {
    "postcode": "24232",
    "city": "Landgraben"
  },
  {
    "postcode": "24232",
    "city": "Lilienthal"
  },
  {
    "postcode": "24232",
    "city": "Oppendorf Siedlung"
  },
  {
    "postcode": "24232",
    "city": "Oppendorf"
  },
  {
    "postcode": "24232",
    "city": "Schönhorst"
  },
  {
    "postcode": "24232",
    "city": "Schönkirchen"
  },
  {
    "postcode": "24232",
    "city": "Schönkirchen Holstein"
  },
  {
    "postcode": "24232",
    "city": "Tökendorf Holstein"
  },
  {
    "postcode": "24232",
    "city": "Tökendorf"
  },
  {
    "postcode": "24232",
    "city": "Wildhaus"
  },
  {
    "postcode": "24232",
    "city": "Plön"
  },
  {
    "postcode": "24232",
    "city": "Mörken"
  },
  {
    "postcode": "24232",
    "city": "Moorsehden"
  },
  {
    "postcode": "24232",
    "city": "Neuenkrug"
  },
  {
    "postcode": "24232",
    "city": "Neuenteich"
  },
  {
    "postcode": "24232",
    "city": "Rehburg"
  },
  {
    "postcode": "24232",
    "city": "Timmbrook"
  },
  {
    "postcode": "24232",
    "city": "Vossberg"
  },
  {
    "postcode": "24235",
    "city": "Brodersdorf"
  },
  {
    "postcode": "24235",
    "city": "Laboe"
  },
  {
    "postcode": "24235",
    "city": "Lutterbek"
  },
  {
    "postcode": "24235",
    "city": "Stein bei Laboe"
  },
  {
    "postcode": "24235",
    "city": "Wendtorf"
  },
  {
    "postcode": "24235",
    "city": "Plön"
  },
  {
    "postcode": "24235",
    "city": "Stein"
  },
  {
    "postcode": "24235",
    "city": "Feldscheide"
  },
  {
    "postcode": "24235",
    "city": "Wendtorfer Strand"
  },
  {
    "postcode": "24235",
    "city": "Gem Wisch"
  },
  {
    "postcode": "24235",
    "city": "Marina Wendtorf"
  },
  {
    "postcode": "24238",
    "city": "Bauersdorf Holstein"
  },
  {
    "postcode": "24238",
    "city": "Bauersdorf"
  },
  {
    "postcode": "24238",
    "city": "Bellin Holstein"
  },
  {
    "postcode": "24238",
    "city": "Bellin"
  },
  {
    "postcode": "24238",
    "city": "Brook Holstein"
  },
  {
    "postcode": "24238",
    "city": "Brook"
  },
  {
    "postcode": "24238",
    "city": "Ellhornsberg"
  },
  {
    "postcode": "24238",
    "city": "Hasselburg"
  },
  {
    "postcode": "24238",
    "city": "Lammershagen"
  },
  {
    "postcode": "24238",
    "city": "Lammershagen Holstein"
  },
  {
    "postcode": "24238",
    "city": "Martensrade"
  },
  {
    "postcode": "24238",
    "city": "Mucheln"
  },
  {
    "postcode": "24238",
    "city": "Selent Holstein"
  },
  {
    "postcode": "24238",
    "city": "Selent"
  },
  {
    "postcode": "24238",
    "city": "Sellin Holstein"
  },
  {
    "postcode": "24238",
    "city": "Sellin"
  },
  {
    "postcode": "24238",
    "city": "Stellböken bei Preetz Holstein"
  },
  {
    "postcode": "24238",
    "city": "Stellböken bei Preetz"
  },
  {
    "postcode": "24238",
    "city": "Plön"
  },
  {
    "postcode": "24238",
    "city": "Friedeburg"
  },
  {
    "postcode": "24238",
    "city": "Wittenberger-Passau"
  },
  {
    "postcode": "24238",
    "city": "Grabensee"
  },
  {
    "postcode": "24238",
    "city": "Wittenberger-Passau/Grabensee"
  },
  {
    "postcode": "24238",
    "city": "Grebinsrade"
  },
  {
    "postcode": "24238",
    "city": "Klinten"
  },
  {
    "postcode": "24238",
    "city": "Hohenklampen"
  },
  {
    "postcode": "24238",
    "city": "Kollstedt"
  },
  {
    "postcode": "24238",
    "city": "Marienhorst"
  },
  {
    "postcode": "24238",
    "city": "Wittenberger-Passau/Martensrade"
  },
  {
    "postcode": "24238",
    "city": "Speckeln"
  },
  {
    "postcode": "24238",
    "city": "Stellböken"
  },
  {
    "postcode": "24238",
    "city": "Windberg"
  },
  {
    "postcode": "24238",
    "city": "Buchholz"
  },
  {
    "postcode": "24238",
    "city": "Tresdorf"
  },
  {
    "postcode": "24239",
    "city": "Achterwehr"
  },
  {
    "postcode": "24239",
    "city": "Hohenschulen"
  },
  {
    "postcode": "24239",
    "city": "Rendsburg-Eckernförde"
  },
  {
    "postcode": "24239",
    "city": "Schönwohld"
  },
  {
    "postcode": "24241",
    "city": "Blumenthal Holstein"
  },
  {
    "postcode": "24241",
    "city": "Blumenthal"
  },
  {
    "postcode": "24241",
    "city": "Grevenkrug"
  },
  {
    "postcode": "24241",
    "city": "Reesdorf bei Kiel"
  },
  {
    "postcode": "24241",
    "city": "Schierensee Holstein"
  },
  {
    "postcode": "24241",
    "city": "Schierensee"
  },
  {
    "postcode": "24241",
    "city": "Schmalstede"
  },
  {
    "postcode": "24241",
    "city": "Sören"
  },
  {
    "postcode": "24241",
    "city": "Rendsburg-Eckernförde"
  },
  {
    "postcode": "24241",
    "city": "Reesdorf"
  },
  {
    "postcode": "24241",
    "city": "Dieksrade"
  },
  {
    "postcode": "24241",
    "city": "Eiderkaten"
  },
  {
    "postcode": "24242",
    "city": "Brandsbek Holstein"
  },
  {
    "postcode": "24242",
    "city": "Brandsbek"
  },
  {
    "postcode": "24242",
    "city": "Felde Holstein"
  },
  {
    "postcode": "24242",
    "city": "Felde"
  },
  {
    "postcode": "24242",
    "city": "Rendsburg-Eckernförde"
  },
  {
    "postcode": "24244",
    "city": "Dehnhöft"
  },
  {
    "postcode": "24244",
    "city": "Felm"
  },
  {
    "postcode": "24244",
    "city": "Krück"
  },
  {
    "postcode": "24244",
    "city": "Rendsburg-Eckernförde"
  },
  {
    "postcode": "24244",
    "city": "Felmerholz"
  },
  {
    "postcode": "24245",
    "city": "Barmissen"
  },
  {
    "postcode": "24245",
    "city": "Fiefhusen"
  },
  {
    "postcode": "24245",
    "city": "Großbarkau"
  },
  {
    "postcode": "24245",
    "city": "Kirchbarkau"
  },
  {
    "postcode": "24245",
    "city": "Klein Barkau"
  },
  {
    "postcode": "24245",
    "city": "Plön"
  },
  {
    "postcode": "24245",
    "city": "Barmisserfeld"
  },
  {
    "postcode": "24245",
    "city": "Brammerhof"
  },
  {
    "postcode": "24247",
    "city": "Annenhof"
  },
  {
    "postcode": "24247",
    "city": "Hohenhude"
  },
  {
    "postcode": "24247",
    "city": "Mielkendorf"
  },
  {
    "postcode": "24247",
    "city": "Rodenbek"
  },
  {
    "postcode": "24247",
    "city": "Rodenbek bei Kiel"
  },
  {
    "postcode": "24247",
    "city": "Steinfurth"
  },
  {
    "postcode": "24247",
    "city": "Rendsburg-Eckernförde"
  },
  {
    "postcode": "24247",
    "city": "Ruhm"
  },
  {
    "postcode": "24248",
    "city": "Mönkeberg"
  },
  {
    "postcode": "24248",
    "city": "Plön"
  },
  {
    "postcode": "24250",
    "city": "Bothkamp"
  },
  {
    "postcode": "24250",
    "city": "Hohenwühren"
  },
  {
    "postcode": "24250",
    "city": "Löptin"
  },
  {
    "postcode": "24250",
    "city": "Nettelsee"
  },
  {
    "postcode": "24250",
    "city": "Warnau bei Nettelsee"
  },
  {
    "postcode": "24250",
    "city": "Plön"
  },
  {
    "postcode": "24250",
    "city": "Warnau"
  },
  {
    "postcode": "24250",
    "city": "Weizenland"
  },
  {
    "postcode": "24250",
    "city": "Behnkenmühlen"
  },
  {
    "postcode": "24251",
    "city": "Borghorst bei Kiel"
  },
  {
    "postcode": "24251",
    "city": "Osdorf bei Kiel"
  },
  {
    "postcode": "24251",
    "city": "Stubbendorf bei Kiel"
  },
  {
    "postcode": "24251",
    "city": "Rendsburg-Eckernförde"
  },
  {
    "postcode": "24251",
    "city": "Osdorf"
  },
  {
    "postcode": "24253",
    "city": "Bokholt"
  },
  {
    "postcode": "24253",
    "city": "Fahren Holstein"
  },
  {
    "postcode": "24253",
    "city": "Fahren"
  },
  {
    "postcode": "24253",
    "city": "Freienfelde Siedlung"
  },
  {
    "postcode": "24253",
    "city": "Freienfelde"
  },
  {
    "postcode": "24253",
    "city": "Muxall"
  },
  {
    "postcode": "24253",
    "city": "Passade"
  },
  {
    "postcode": "24253",
    "city": "Prasdorf"
  },
  {
    "postcode": "24253",
    "city": "Probsteierhagen"
  },
  {
    "postcode": "24253",
    "city": "Röbsdorf"
  },
  {
    "postcode": "24253",
    "city": "Plön"
  },
  {
    "postcode": "24253",
    "city": "Hagener Weg"
  },
  {
    "postcode": "24254",
    "city": "Bornhorst"
  },
  {
    "postcode": "24254",
    "city": "Rumohr"
  },
  {
    "postcode": "24254",
    "city": "Rumohrhütten"
  },
  {
    "postcode": "24254",
    "city": "Rendsburg-Eckernförde"
  },
  {
    "postcode": "24256",
    "city": "Fargau"
  },
  {
    "postcode": "24256",
    "city": "Fargau-Pratjau"
  },
  {
    "postcode": "24256",
    "city": "Pratjau"
  },
  {
    "postcode": "24256",
    "city": "Schlesen"
  },
  {
    "postcode": "24256",
    "city": "Stoltenberg"
  },
  {
    "postcode": "24256",
    "city": "Plön"
  },
  {
    "postcode": "24256",
    "city": "Grabensee"
  },
  {
    "postcode": "24257",
    "city": "Grünberg bei Kiel"
  },
  {
    "postcode": "24257",
    "city": "Hohenfelde bei Kiel"
  },
  {
    "postcode": "24257",
    "city": "Köhn"
  },
  {
    "postcode": "24257",
    "city": "Malmsteg bei Kiel"
  },
  {
    "postcode": "24257",
    "city": "Pülsen"
  },
  {
    "postcode": "24257",
    "city": "Rögen Holstein"
  },
  {
    "postcode": "24257",
    "city": "Rögen"
  },
  {
    "postcode": "24257",
    "city": "Schwartbuck"
  },
  {
    "postcode": "24257",
    "city": "Plön"
  },
  {
    "postcode": "24257",
    "city": "Hohenfelde"
  },
  {
    "postcode": "24257",
    "city": "Köhnerbrücke"
  },
  {
    "postcode": "24257",
    "city": "Bullenbrook"
  },
  {
    "postcode": "24259",
    "city": "Bossee"
  },
  {
    "postcode": "24259",
    "city": "Brux"
  },
  {
    "postcode": "24259",
    "city": "Trentrade"
  },
  {
    "postcode": "24259",
    "city": "Westensee"
  },
  {
    "postcode": "24259",
    "city": "Wrohe"
  },
  {
    "postcode": "24259",
    "city": "Rendsburg-Eckernförde"
  },
  {
    "postcode": "24259",
    "city": "Deutsch-Nienhof"
  },
  {
    "postcode": "24259",
    "city": "Schönhagen"
  },
  {
    "postcode": "24306",
    "city": "Börnsdorf"
  },
  {
    "postcode": "24306",
    "city": "Bösdorf"
  },
  {
    "postcode": "24306",
    "city": "Bösdorf bei Plön"
  },
  {
    "postcode": "24306",
    "city": "Fegetasche"
  },
  {
    "postcode": "24306",
    "city": "Franzenburg"
  },
  {
    "postcode": "24306",
    "city": "Kleinmeinsdorf"
  },
  {
    "postcode": "24306",
    "city": "Lebrade"
  },
  {
    "postcode": "24306",
    "city": "Niederkleveez"
  },
  {
    "postcode": "24306",
    "city": "Oberkleveez"
  },
  {
    "postcode": "24306",
    "city": "Pfingstberg"
  },
  {
    "postcode": "24306",
    "city": "Plön / Holstein"
  },
  {
    "postcode": "24306",
    "city": "Plön"
  },
  {
    "postcode": "24306",
    "city": "Rathjensdorf"
  },
  {
    "postcode": "24306",
    "city": "Rixdorf"
  },
  {
    "postcode": "24306",
    "city": "Sandkaten"
  },
  {
    "postcode": "24306",
    "city": "Stadtheide"
  },
  {
    "postcode": "24306",
    "city": "Theresienhof"
  },
  {
    "postcode": "24306",
    "city": "Tramm"
  },
  {
    "postcode": "24306",
    "city": "Wittmoldt"
  },
  {
    "postcode": "24306",
    "city": "Hinterste Wache"
  },
  {
    "postcode": "24306",
    "city": "Augstfelde"
  },
  {
    "postcode": "24306",
    "city": "Ruhleben"
  },
  {
    "postcode": "24306",
    "city": "Waldshagen"
  },
  {
    "postcode": "24306",
    "city": "Kossau"
  },
  {
    "postcode": "24306",
    "city": "Neutramm"
  },
  {
    "postcode": "24321",
    "city": "Behrensdorf (Ostsee)"
  },
  {
    "postcode": "24321",
    "city": "Behrensdorf"
  },
  {
    "postcode": "24321",
    "city": "Darry"
  },
  {
    "postcode": "24321",
    "city": "Dransau"
  },
  {
    "postcode": "24321",
    "city": "Emkendorf"
  },
  {
    "postcode": "24321",
    "city": "Engelau"
  },
  {
    "postcode": "24321",
    "city": "Fresendorf"
  },
  {
    "postcode": "24321",
    "city": "Gadendorf"
  },
  {
    "postcode": "24321",
    "city": "Giekau"
  },
  {
    "postcode": "24321",
    "city": "Gleschendorf"
  },
  {
    "postcode": "24321",
    "city": "Gottesgabe"
  },
  {
    "postcode": "24321",
    "city": "Haßberg Ostsee"
  },
  {
    "postcode": "24321",
    "city": "Haßberg"
  },
  {
    "postcode": "24321",
    "city": "Helmstorf bei Lütjenburg"
  },
  {
    "postcode": "24321",
    "city": "Hohwacht (Ostsee)"
  },
  {
    "postcode": "24321",
    "city": "Hohwacht"
  },
  {
    "postcode": "24321",
    "city": "Klamp"
  },
  {
    "postcode": "24321",
    "city": "Kühren"
  },
  {
    "postcode": "24321",
    "city": "Lütjenburg Holstein"
  },
  {
    "postcode": "24321",
    "city": "Lütjenburg"
  },
  {
    "postcode": "24321",
    "city": "Matzwitz"
  },
  {
    "postcode": "24321",
    "city": "Neuhaus"
  },
  {
    "postcode": "24321",
    "city": "Panker"
  },
  {
    "postcode": "24321",
    "city": "Rantzau"
  },
  {
    "postcode": "24321",
    "city": "Rönfeldholz"
  },
  {
    "postcode": "24321",
    "city": "Satjendorf"
  },
  {
    "postcode": "24321",
    "city": "Stöfs"
  },
  {
    "postcode": "24321",
    "city": "Tröndel"
  },
  {
    "postcode": "24321",
    "city": "Vogelsdorf"
  },
  {
    "postcode": "24321",
    "city": "Waterneverstorf"
  },
  {
    "postcode": "24321",
    "city": "Wentorf"
  },
  {
    "postcode": "24321",
    "city": "Plön"
  },
  {
    "postcode": "24321",
    "city": "Helmstorf"
  },
  {
    "postcode": "24321",
    "city": "Seekamp"
  },
  {
    "postcode": "24321",
    "city": "Vörstenmoor"
  },
  {
    "postcode": "24321",
    "city": "Weide"
  },
  {
    "postcode": "24321",
    "city": "Tannbrook"
  },
  {
    "postcode": "24326",
    "city": "Ascheberg (Holstein)"
  },
  {
    "postcode": "24326",
    "city": "Ascheberg"
  },
  {
    "postcode": "24326",
    "city": "Bredenbek bei Plön"
  },
  {
    "postcode": "24326",
    "city": "Dersau Kreis Plön"
  },
  {
    "postcode": "24326",
    "city": "Dersau"
  },
  {
    "postcode": "24326",
    "city": "Dörnick"
  },
  {
    "postcode": "24326",
    "city": "Glasholz Holstein"
  },
  {
    "postcode": "24326",
    "city": "Glasholz"
  },
  {
    "postcode": "24326",
    "city": "Godau Kreis Plön"
  },
  {
    "postcode": "24326",
    "city": "Godau"
  },
  {
    "postcode": "24326",
    "city": "Hohenfichel Kreis Plön"
  },
  {
    "postcode": "24326",
    "city": "Hohenfichel"
  },
  {
    "postcode": "24326",
    "city": "Kalübbe Holstein"
  },
  {
    "postcode": "24326",
    "city": "Kalübbe"
  },
  {
    "postcode": "24326",
    "city": "Kalübberholz Holstein"
  },
  {
    "postcode": "24326",
    "city": "Kalübberholz"
  },
  {
    "postcode": "24326",
    "city": "Langenrade Holstein"
  },
  {
    "postcode": "24326",
    "city": "Langenrade"
  },
  {
    "postcode": "24326",
    "city": "Nachtschatten Holstein"
  },
  {
    "postcode": "24326",
    "city": "Nachtschatten"
  },
  {
    "postcode": "24326",
    "city": "Nehmten"
  },
  {
    "postcode": "24326",
    "city": "Sande"
  },
  {
    "postcode": "24326",
    "city": "Sepel Kreis Plön"
  },
  {
    "postcode": "24326",
    "city": "Sepel"
  },
  {
    "postcode": "24326",
    "city": "Stocksee"
  },
  {
    "postcode": "24326",
    "city": "Stockseehof"
  },
  {
    "postcode": "24326",
    "city": "Plön"
  },
  {
    "postcode": "24326",
    "city": "Stadtbek Gem Bosau"
  },
  {
    "postcode": "24326",
    "city": "Stadtbek Gem Seedorf"
  },
  {
    "postcode": "24326",
    "city": "Idstedt"
  },
  {
    "postcode": "24326",
    "city": "Sonnenhof"
  },
  {
    "postcode": "24326",
    "city": "Hof Nehmten"
  },
  {
    "postcode": "24326",
    "city": "Bredenbek"
  },
  {
    "postcode": "24326",
    "city": "Stadtbek"
  },
  {
    "postcode": "24326",
    "city": "Im Sande"
  },
  {
    "postcode": "24326",
    "city": "Vogelsang"
  },
  {
    "postcode": "24326",
    "city": "Moorkate"
  },
  {
    "postcode": "24327",
    "city": "Blekendorf"
  },
  {
    "postcode": "24327",
    "city": "Flehm"
  },
  {
    "postcode": "24327",
    "city": "Futterkamp"
  },
  {
    "postcode": "24327",
    "city": "Högsdorf"
  },
  {
    "postcode": "24327",
    "city": "Kaköhl"
  },
  {
    "postcode": "24327",
    "city": "Kletkamp"
  },
  {
    "postcode": "24327",
    "city": "Nessendorf"
  },
  {
    "postcode": "24327",
    "city": "Rathlau"
  },
  {
    "postcode": "24327",
    "city": "Sechendorf"
  },
  {
    "postcode": "24327",
    "city": "Sehlendorf"
  },
  {
    "postcode": "24327",
    "city": "Plön"
  },
  {
    "postcode": "24327",
    "city": "Tivoli"
  },
  {
    "postcode": "24327",
    "city": "Friederikenthal"
  },
  {
    "postcode": "24327",
    "city": "Hähnersaal"
  },
  {
    "postcode": "24329",
    "city": "Behl"
  },
  {
    "postcode": "24329",
    "city": "Dannau"
  },
  {
    "postcode": "24329",
    "city": "Dannau Kreis Plön"
  },
  {
    "postcode": "24329",
    "city": "Görnitz"
  },
  {
    "postcode": "24329",
    "city": "Gowens"
  },
  {
    "postcode": "24329",
    "city": "Grebin"
  },
  {
    "postcode": "24329",
    "city": "Grellenkamp Kreis Plön"
  },
  {
    "postcode": "24329",
    "city": "Grellenkamp"
  },
  {
    "postcode": "24329",
    "city": "Placken"
  },
  {
    "postcode": "24329",
    "city": "Rantzau"
  },
  {
    "postcode": "24329",
    "city": "Sasel"
  },
  {
    "postcode": "24329",
    "city": "Schönweide"
  },
  {
    "postcode": "24329",
    "city": "Plön"
  },
  {
    "postcode": "24329",
    "city": "Gerstenkamp"
  },
  {
    "postcode": "24329",
    "city": "Gänsekrug"
  },
  {
    "postcode": "24329",
    "city": "Hahnenberg"
  },
  {
    "postcode": "24329",
    "city": "Heisch"
  },
  {
    "postcode": "24329",
    "city": "Luxrade"
  },
  {
    "postcode": "24329",
    "city": "Treufeld"
  },
  {
    "postcode": "24329",
    "city": "Schierensee"
  },
  {
    "postcode": "24329",
    "city": "Breitenstein"
  },
  {
    "postcode": "24329",
    "city": "Dorf Rantzau"
  },
  {
    "postcode": "24329",
    "city": "Großkoppel"
  },
  {
    "postcode": "24329",
    "city": "Hohenhof"
  },
  {
    "postcode": "24329",
    "city": "Rantzauer Papiermühle"
  },
  {
    "postcode": "24340",
    "city": "Altenhof bei Eckernförde"
  },
  {
    "postcode": "24340",
    "city": "Eckernförde"
  },
  {
    "postcode": "24340",
    "city": "Gammelby bei Eckernförde"
  },
  {
    "postcode": "24340",
    "city": "Goosefeld"
  },
  {
    "postcode": "24340",
    "city": "Louisenberg"
  },
  {
    "postcode": "24340",
    "city": "Windeby"
  },
  {
    "postcode": "24340",
    "city": "Rendsburg-Eckernförde"
  },
  {
    "postcode": "24340",
    "city": "Altenhof"
  },
  {
    "postcode": "24340",
    "city": "Gammelby"
  },
  {
    "postcode": "24340",
    "city": "Pletterberg"
  },
  {
    "postcode": "24340",
    "city": "Kochendorf"
  },
  {
    "postcode": "24340",
    "city": "Friedland"
  },
  {
    "postcode": "24340",
    "city": "Friedensthal"
  },
  {
    "postcode": "24351",
    "city": "Damp"
  },
  {
    "postcode": "24351",
    "city": "Neuteich bei Eckernförde"
  },
  {
    "postcode": "24351",
    "city": "Thumby Schwansen"
  },
  {
    "postcode": "24351",
    "city": "Thumby"
  },
  {
    "postcode": "24351",
    "city": "Rendsburg-Eckernförde"
  },
  {
    "postcode": "24351",
    "city": "Karlsburgerholz"
  },
  {
    "postcode": "24351",
    "city": "Maasleben-Mühle"
  },
  {
    "postcode": "24354",
    "city": "Kosel bei Eckernförde"
  },
  {
    "postcode": "24354",
    "city": "Norby"
  },
  {
    "postcode": "24354",
    "city": "Rieseby"
  },
  {
    "postcode": "24354",
    "city": "Sönderby"
  },
  {
    "postcode": "24354",
    "city": "Weseby bei Eckernförde"
  },
  {
    "postcode": "24354",
    "city": "Zimmert"
  },
  {
    "postcode": "24354",
    "city": "Rendsburg-Eckernförde"
  },
  {
    "postcode": "24354",
    "city": "Bösby"
  },
  {
    "postcode": "24354",
    "city": "Gammelby"
  },
  {
    "postcode": "24354",
    "city": "Kosel"
  },
  {
    "postcode": "24354",
    "city": "Pukholt"
  },
  {
    "postcode": "24354",
    "city": "Eschelsmark"
  },
  {
    "postcode": "24354",
    "city": "Lundshof"
  },
  {
    "postcode": "24354",
    "city": "Basdorf"
  },
  {
    "postcode": "24357",
    "city": "Fleckeby"
  },
  {
    "postcode": "24357",
    "city": "Güby"
  },
  {
    "postcode": "24357",
    "city": "Hummelfeld"
  },
  {
    "postcode": "24357",
    "city": "Rendsburg-Eckernförde"
  },
  {
    "postcode": "24357",
    "city": "Krummland"
  },
  {
    "postcode": "24357",
    "city": "Fellhorst"
  },
  {
    "postcode": "24358",
    "city": "Ascheffel"
  },
  {
    "postcode": "24358",
    "city": "Bistensee"
  },
  {
    "postcode": "24358",
    "city": "Hütten bei Ascheffel"
  },
  {
    "postcode": "24358",
    "city": "Vogelsang"
  },
  {
    "postcode": "24358",
    "city": "Rendsburg-Eckernförde"
  },
  {
    "postcode": "24358",
    "city": "Ahlefeld-Bistensee"
  },
  {
    "postcode": "24358",
    "city": "Fresenboje"
  },
  {
    "postcode": "24358",
    "city": "Hütten"
  },
  {
    "postcode": "24358",
    "city": "Ahlefeld"
  },
  {
    "postcode": "24358",
    "city": "Bistenseemühle"
  },
  {
    "postcode": "24360",
    "city": "Barkelsby"
  },
  {
    "postcode": "24360",
    "city": "Böhnrüh"
  },
  {
    "postcode": "24360",
    "city": "Rendsburg-Eckernförde"
  },
  {
    "postcode": "24360",
    "city": "Rögen Gut"
  },
  {
    "postcode": "24361",
    "city": "Belfort"
  },
  {
    "postcode": "24361",
    "city": "Damendorf"
  },
  {
    "postcode": "24361",
    "city": "Groß Wittensee"
  },
  {
    "postcode": "24361",
    "city": "Haby"
  },
  {
    "postcode": "24361",
    "city": "Holzbunge"
  },
  {
    "postcode": "24361",
    "city": "Klein Wittensee"
  },
  {
    "postcode": "24361",
    "city": "Langhorst"
  },
  {
    "postcode": "24361",
    "city": "Lehmsiek Gemeinde Holtsee"
  },
  {
    "postcode": "24361",
    "city": "Lehmsiek"
  },
  {
    "postcode": "24361",
    "city": "Rendsburg-Eckernförde"
  },
  {
    "postcode": "24361",
    "city": "Profit"
  },
  {
    "postcode": "24361",
    "city": "Sande"
  },
  {
    "postcode": "24361",
    "city": "Petersburg"
  },
  {
    "postcode": "24363",
    "city": "Harfe"
  },
  {
    "postcode": "24363",
    "city": "Harzhof"
  },
  {
    "postcode": "24363",
    "city": "Hohenlieth"
  },
  {
    "postcode": "24363",
    "city": "Holtsee"
  },
  {
    "postcode": "24363",
    "city": "Rendsburg-Eckernförde"
  },
  {
    "postcode": "24364",
    "city": "Holzdorf bei Eckernförde"
  },
  {
    "postcode": "24364",
    "city": "Hühnerland bei Eckernförde"
  },
  {
    "postcode": "24364",
    "city": "Seeholz bei Eckernförde"
  },
  {
    "postcode": "24364",
    "city": "Söby bei Eckernförde"
  },
  {
    "postcode": "24364",
    "city": "Rendsburg-Eckernförde"
  },
  {
    "postcode": "24364",
    "city": "Holzdorf"
  },
  {
    "postcode": "24366",
    "city": "Loose bei Eckernförde"
  },
  {
    "postcode": "24366",
    "city": "Rendsburg-Eckernförde"
  },
  {
    "postcode": "24366",
    "city": "Loose"
  },
  {
    "postcode": "24367",
    "city": "Osterby bei Eckernförde"
  },
  {
    "postcode": "24367",
    "city": "Rendsburg-Eckernförde"
  },
  {
    "postcode": "24367",
    "city": "Osterby"
  },
  {
    "postcode": "24367",
    "city": "Suhrbrook"
  },
  {
    "postcode": "24369",
    "city": "Waabs"
  },
  {
    "postcode": "24369",
    "city": "Rendsburg-Eckernförde"
  },
  {
    "postcode": "24376",
    "city": "Arnis"
  },
  {
    "postcode": "24376",
    "city": "Grimsnis Schlei"
  },
  {
    "postcode": "24376",
    "city": "Grimsnis"
  },
  {
    "postcode": "24376",
    "city": "Grödersby"
  },
  {
    "postcode": "24376",
    "city": "Grummark Schlei"
  },
  {
    "postcode": "24376",
    "city": "Grummark"
  },
  {
    "postcode": "24376",
    "city": "Haarmark"
  },
  {
    "postcode": "24376",
    "city": "Hasselberg Ostsee"
  },
  {
    "postcode": "24376",
    "city": "Hasselberg"
  },
  {
    "postcode": "24376",
    "city": "Kappelholz Schlei"
  },
  {
    "postcode": "24376",
    "city": "Kappelholz"
  },
  {
    "postcode": "24376",
    "city": "Kappeln Schlei"
  },
  {
    "postcode": "24376",
    "city": "Kappeln"
  },
  {
    "postcode": "24376",
    "city": "Rabel"
  },
  {
    "postcode": "24376",
    "city": "Stutebüll Schlei"
  },
  {
    "postcode": "24376",
    "city": "Stutebüll"
  },
  {
    "postcode": "24376",
    "city": "Wormshöft Gemeinde Maasholm"
  },
  {
    "postcode": "24376",
    "city": "Wormshöft"
  },
  {
    "postcode": "24376",
    "city": "Schleswig-Flensburg"
  },
  {
    "postcode": "24376",
    "city": "Hauheck"
  },
  {
    "postcode": "24376",
    "city": "Habertwedt"
  },
  {
    "postcode": "24376",
    "city": "Klein Grödersby"
  },
  {
    "postcode": "24376",
    "city": "Fegetasch"
  },
  {
    "postcode": "24376",
    "city": "Hüholz"
  },
  {
    "postcode": "24376",
    "city": "Kleefeld"
  },
  {
    "postcode": "24376",
    "city": "Sandbek"
  },
  {
    "postcode": "24376",
    "city": "Ruhkrog"
  },
  {
    "postcode": "24376",
    "city": "Scheideheck"
  },
  {
    "postcode": "24392",
    "city": "Bicken Gemeinde Rabenkirchen-Faulück"
  },
  {
    "postcode": "24392",
    "city": "Bicken"
  },
  {
    "postcode": "24392",
    "city": "Boren"
  },
  {
    "postcode": "24392",
    "city": "Brarupholz"
  },
  {
    "postcode": "24392",
    "city": "Brebel"
  },
  {
    "postcode": "24392",
    "city": "Dollrottfeld"
  },
  {
    "postcode": "24392",
    "city": "Ekenis"
  },
  {
    "postcode": "24392",
    "city": "Güderott"
  },
  {
    "postcode": "24392",
    "city": "Kaltoft"
  },
  {
    "postcode": "24392",
    "city": "Karschau Gemeinde Ekenis"
  },
  {
    "postcode": "24392",
    "city": "Karschau"
  },
  {
    "postcode": "24392",
    "city": "Kiesby"
  },
  {
    "postcode": "24392",
    "city": "Norderbrarup"
  },
  {
    "postcode": "24392",
    "city": "Nottfeld"
  },
  {
    "postcode": "24392",
    "city": "Saustrup"
  },
  {
    "postcode": "24392",
    "city": "Scheggerott"
  },
  {
    "postcode": "24392",
    "city": "Süderbrarup"
  },
  {
    "postcode": "24392",
    "city": "Wagersrott"
  },
  {
    "postcode": "24392",
    "city": "Schleswig-Flensburg"
  },
  {
    "postcode": "24392",
    "city": "Ruruplund"
  },
  {
    "postcode": "24392",
    "city": "Niefeld"
  },
  {
    "postcode": "24392",
    "city": "Groß-Brebel"
  },
  {
    "postcode": "24395",
    "city": "Bosiek Angeln"
  },
  {
    "postcode": "24395",
    "city": "Bosiek"
  },
  {
    "postcode": "24395",
    "city": "Falshöft Gemeinde Nieby"
  },
  {
    "postcode": "24395",
    "city": "Falshöft"
  },
  {
    "postcode": "24395",
    "city": "Gammellück Angeln"
  },
  {
    "postcode": "24395",
    "city": "Gammellück"
  },
  {
    "postcode": "24395",
    "city": "Gelting Angeln"
  },
  {
    "postcode": "24395",
    "city": "Gelting"
  },
  {
    "postcode": "24395",
    "city": "Goldhöft Angeln"
  },
  {
    "postcode": "24395",
    "city": "Goldhöft"
  },
  {
    "postcode": "24395",
    "city": "Koppelheck"
  },
  {
    "postcode": "24395",
    "city": "Kronsgaard"
  },
  {
    "postcode": "24395",
    "city": "Kronsgaarderdrecht"
  },
  {
    "postcode": "24395",
    "city": "Langfeld"
  },
  {
    "postcode": "24395",
    "city": "Lehbek Angeln"
  },
  {
    "postcode": "24395",
    "city": "Lehbek"
  },
  {
    "postcode": "24395",
    "city": "Mühlenbrück"
  },
  {
    "postcode": "24395",
    "city": "Mühlendamm"
  },
  {
    "postcode": "24395",
    "city": "Nadelhöft Angeln"
  },
  {
    "postcode": "24395",
    "city": "Nadelhöft"
  },
  {
    "postcode": "24395",
    "city": "Nieby bei Gelting Angeln"
  },
  {
    "postcode": "24395",
    "city": "Nieby bei Gelting"
  },
  {
    "postcode": "24395",
    "city": "Niebywesterfeld"
  },
  {
    "postcode": "24395",
    "city": "Niesgrau"
  },
  {
    "postcode": "24395",
    "city": "Pommerby bei Gelting Angeln"
  },
  {
    "postcode": "24395",
    "city": "Pommerby bei Gelting"
  },
  {
    "postcode": "24395",
    "city": "Rabenholz bei Gelting Angeln"
  },
  {
    "postcode": "24395",
    "city": "Rabenholz bei Gelting"
  },
  {
    "postcode": "24395",
    "city": "Röhrmoos Gemeinde Esgrus"
  },
  {
    "postcode": "24395",
    "city": "Röhrmoos"
  },
  {
    "postcode": "24395",
    "city": "Stangheck"
  },
  {
    "postcode": "24395",
    "city": "Stausmark"
  },
  {
    "postcode": "24395",
    "city": "Wackerballig Angeln"
  },
  {
    "postcode": "24395",
    "city": "Wackerballig"
  },
  {
    "postcode": "24395",
    "city": "Wattsfeld"
  },
  {
    "postcode": "24395",
    "city": "Schleswig-Flensburg"
  },
  {
    "postcode": "24395",
    "city": "Nieby"
  },
  {
    "postcode": "24395",
    "city": "Pommerby"
  },
  {
    "postcode": "24395",
    "city": "Rabenholz"
  },
  {
    "postcode": "24395",
    "city": "Kleinnadelhöft"
  },
  {
    "postcode": "24395",
    "city": "Niedamm"
  },
  {
    "postcode": "24395",
    "city": "Hermannshöh"
  },
  {
    "postcode": "24395",
    "city": "Westerfeld"
  },
  {
    "postcode": "24398",
    "city": "Brodersby bei Kappeln Schlei"
  },
  {
    "postcode": "24398",
    "city": "Brodersby bei Kappeln"
  },
  {
    "postcode": "24398",
    "city": "Dörphof"
  },
  {
    "postcode": "24398",
    "city": "Karby Schwansen"
  },
  {
    "postcode": "24398",
    "city": "Karby"
  },
  {
    "postcode": "24398",
    "city": "Winnemark"
  },
  {
    "postcode": "24398",
    "city": "Rendsburg-Eckernförde"
  },
  {
    "postcode": "24398",
    "city": "Brodersby"
  },
  {
    "postcode": "24398",
    "city": "Kniepenberg"
  },
  {
    "postcode": "24398",
    "city": "Steinerholz"
  },
  {
    "postcode": "24398",
    "city": "Langacker"
  },
  {
    "postcode": "24398",
    "city": "Nübbelfeld"
  },
  {
    "postcode": "24398",
    "city": "Brodersbyermühle"
  },
  {
    "postcode": "24398",
    "city": "Höxmark"
  },
  {
    "postcode": "24398",
    "city": "Nordhagen"
  },
  {
    "postcode": "24398",
    "city": "Schönhagen"
  },
  {
    "postcode": "24398",
    "city": "Westerfeld"
  },
  {
    "postcode": "24399",
    "city": "Arnis"
  },
  {
    "postcode": "24399",
    "city": "Schleswig-Flensburg"
  },
  {
    "postcode": "24401",
    "city": "Böel Angeln"
  },
  {
    "postcode": "24401",
    "city": "Böel"
  },
  {
    "postcode": "24401",
    "city": "Böelschuby Angeln"
  },
  {
    "postcode": "24401",
    "city": "Böelschuby"
  },
  {
    "postcode": "24401",
    "city": "Schleswig-Flensburg"
  },
  {
    "postcode": "24402",
    "city": "Atzbüll"
  },
  {
    "postcode": "24402",
    "city": "Esgrus"
  },
  {
    "postcode": "24402",
    "city": "Schleswig-Flensburg"
  },
  {
    "postcode": "24402",
    "city": "Holzkoppel"
  },
  {
    "postcode": "24402",
    "city": "Röhrmoos"
  },
  {
    "postcode": "24404",
    "city": "Maasholm"
  },
  {
    "postcode": "24404",
    "city": "Schleswig-Flensburg"
  },
  {
    "postcode": "24404",
    "city": "Exhöft"
  },
  {
    "postcode": "24405",
    "city": "Fraulund Gemeinde Saustrup"
  },
  {
    "postcode": "24405",
    "city": "Fraulund"
  },
  {
    "postcode": "24405",
    "city": "Mohrkirch"
  },
  {
    "postcode": "24405",
    "city": "Rügge"
  },
  {
    "postcode": "24405",
    "city": "Schleswig-Flensburg"
  },
  {
    "postcode": "24405",
    "city": "Stoltoft"
  },
  {
    "postcode": "24405",
    "city": "Thiesholz"
  },
  {
    "postcode": "24407",
    "city": "Arrild"
  },
  {
    "postcode": "24407",
    "city": "Kragelund Gemeinde Stoltebüll"
  },
  {
    "postcode": "24407",
    "city": "Kragelund"
  },
  {
    "postcode": "24407",
    "city": "Oersberg"
  },
  {
    "postcode": "24407",
    "city": "Rabenkirchen-Faulück"
  },
  {
    "postcode": "24407",
    "city": "Schleswig-Flensburg"
  },
  {
    "postcode": "24407",
    "city": "Schnorum"
  },
  {
    "postcode": "24409",
    "city": "Stoltebüll"
  },
  {
    "postcode": "24409",
    "city": "Sünnerschau"
  },
  {
    "postcode": "24409",
    "city": "Schleswig-Flensburg"
  },
  {
    "postcode": "24534",
    "city": "Neumünster Holstein"
  },
  {
    "postcode": "24534",
    "city": "Neumünster"
  },
  {
    "postcode": "24534",
    "city": "Innenstadt"
  },
  {
    "postcode": "24536",
    "city": "Brachenfeld"
  },
  {
    "postcode": "24536",
    "city": "Einfeld"
  },
  {
    "postcode": "24536",
    "city": "Neumünster Holstein"
  },
  {
    "postcode": "24536",
    "city": "Neumünster"
  },
  {
    "postcode": "24536",
    "city": "Tasdorf"
  },
  {
    "postcode": "24536",
    "city": "Tungendorf"
  },
  {
    "postcode": "24536",
    "city": "Bornrüm"
  },
  {
    "postcode": "24537",
    "city": "Gartenstadt"
  },
  {
    "postcode": "24537",
    "city": "Neumünster Holstein"
  },
  {
    "postcode": "24537",
    "city": "Neumünster"
  },
  {
    "postcode": "24537",
    "city": "Faldera"
  },
  {
    "postcode": "24537",
    "city": "Böcklersiedlung"
  },
  {
    "postcode": "24539",
    "city": "Gadeland"
  },
  {
    "postcode": "24539",
    "city": "Neumünster Holstein"
  },
  {
    "postcode": "24539",
    "city": "Neumünster"
  },
  {
    "postcode": "24539",
    "city": "Wittorf"
  },
  {
    "postcode": "24539",
    "city": "Stör"
  },
  {
    "postcode": "24539",
    "city": "Ruthenberg"
  },
  {
    "postcode": "24558",
    "city": "Henstedt-Ulzburg"
  },
  {
    "postcode": "24558",
    "city": "Wakendorf bei Henstedt-Ulzburg"
  },
  {
    "postcode": "24558",
    "city": "Segeberg"
  },
  {
    "postcode": "24558",
    "city": "Wakendorf II"
  },
  {
    "postcode": "24558",
    "city": "Henstedt"
  },
  {
    "postcode": "24558",
    "city": "Ulzburg"
  },
  {
    "postcode": "24568",
    "city": "Kaltenkirchen Holstein"
  },
  {
    "postcode": "24568",
    "city": "Kaltenkirchen"
  },
  {
    "postcode": "24568",
    "city": "Kampen"
  },
  {
    "postcode": "24568",
    "city": "Kattendorf"
  },
  {
    "postcode": "24568",
    "city": "Moorkaten Holstein"
  },
  {
    "postcode": "24568",
    "city": "Moorkaten"
  },
  {
    "postcode": "24568",
    "city": "Nützen"
  },
  {
    "postcode": "24568",
    "city": "Oersdorf bei Neumünster"
  },
  {
    "postcode": "24568",
    "city": "Springhirsch Siedlung"
  },
  {
    "postcode": "24568",
    "city": "Springhirsch"
  },
  {
    "postcode": "24568",
    "city": "Winsen bei Neumünster"
  },
  {
    "postcode": "24568",
    "city": "Segeberg"
  },
  {
    "postcode": "24568",
    "city": "Oersdorf"
  },
  {
    "postcode": "24568",
    "city": "Winsen"
  },
  {
    "postcode": "24576",
    "city": "Bad Bramstedt"
  },
  {
    "postcode": "24576",
    "city": "Bimöhlen"
  },
  {
    "postcode": "24576",
    "city": "Bissenmoor"
  },
  {
    "postcode": "24576",
    "city": "Hagen bei Bad Bramstedt"
  },
  {
    "postcode": "24576",
    "city": "Hitzhusen"
  },
  {
    "postcode": "24576",
    "city": "Krücken"
  },
  {
    "postcode": "24576",
    "city": "Mönkloh"
  },
  {
    "postcode": "24576",
    "city": "Weddelbrook"
  },
  {
    "postcode": "24576",
    "city": "Segeberg"
  },
  {
    "postcode": "24576",
    "city": "Hagen"
  },
  {
    "postcode": "24576",
    "city": "Hegebuchenbusch"
  },
  {
    "postcode": "24576",
    "city": "Reesmoor"
  },
  {
    "postcode": "24576",
    "city": "Aukamp"
  },
  {
    "postcode": "24582",
    "city": "Bissee"
  },
  {
    "postcode": "24582",
    "city": "Bordesholm"
  },
  {
    "postcode": "24582",
    "city": "Brügge Holstein"
  },
  {
    "postcode": "24582",
    "city": "Brügge"
  },
  {
    "postcode": "24582",
    "city": "Brüggerholz Holstein"
  },
  {
    "postcode": "24582",
    "city": "Brüggerholz"
  },
  {
    "postcode": "24582",
    "city": "Groß Buchwald"
  },
  {
    "postcode": "24582",
    "city": "Hoffeld bei Bordesholm"
  },
  {
    "postcode": "24582",
    "city": "Hohenhorst"
  },
  {
    "postcode": "24582",
    "city": "Mühbrook"
  },
  {
    "postcode": "24582",
    "city": "Neuer Haidkrug"
  },
  {
    "postcode": "24582",
    "city": "Sahrendorf"
  },
  {
    "postcode": "24582",
    "city": "Schönbek Holstein"
  },
  {
    "postcode": "24582",
    "city": "Schönbek"
  },
  {
    "postcode": "24582",
    "city": "Wattenbek"
  },
  {
    "postcode": "24582",
    "city": "Rendsburg-Eckernförde"
  },
  {
    "postcode": "24582",
    "city": "Hoffeld"
  },
  {
    "postcode": "24582",
    "city": "Reesdorf"
  },
  {
    "postcode": "24589",
    "city": "Borgdorf-Seedorf"
  },
  {
    "postcode": "24589",
    "city": "Dätgen"
  },
  {
    "postcode": "24589",
    "city": "Eisendorf Holstein"
  },
  {
    "postcode": "24589",
    "city": "Eisendorf"
  },
  {
    "postcode": "24589",
    "city": "Ellerdorf"
  },
  {
    "postcode": "24589",
    "city": "Nortorf bei Neumünster"
  },
  {
    "postcode": "24589",
    "city": "Schülp bei Nortorf"
  },
  {
    "postcode": "24589",
    "city": "Rendsburg-Eckernförde"
  },
  {
    "postcode": "24589",
    "city": "Nortorf"
  },
  {
    "postcode": "24589",
    "city": "Schülp"
  },
  {
    "postcode": "24589",
    "city": "Seedorf"
  },
  {
    "postcode": "24589",
    "city": "In de Loh"
  },
  {
    "postcode": "24589",
    "city": "Looper Weg"
  },
  {
    "postcode": "24589",
    "city": "Torfwerk Schülp"
  },
  {
    "postcode": "24589",
    "city": "Timmasper Weg"
  },
  {
    "postcode": "24594",
    "city": "Feldscheide"
  },
  {
    "postcode": "24594",
    "city": "Glüsing"
  },
  {
    "postcode": "24594",
    "city": "Grauel"
  },
  {
    "postcode": "24594",
    "city": "Heinkenborstel"
  },
  {
    "postcode": "24594",
    "city": "Hohenwestedt"
  },
  {
    "postcode": "24594",
    "city": "Jahrsdorf Holstein"
  },
  {
    "postcode": "24594",
    "city": "Jahrsdorf"
  },
  {
    "postcode": "24594",
    "city": "Meezen"
  },
  {
    "postcode": "24594",
    "city": "Mörel bei Hohenwestedt"
  },
  {
    "postcode": "24594",
    "city": "Nindorf bei Neumünster"
  },
  {
    "postcode": "24594",
    "city": "Papenhöhe"
  },
  {
    "postcode": "24594",
    "city": "Rade bei Hohenwestedt"
  },
  {
    "postcode": "24594",
    "city": "Remmels"
  },
  {
    "postcode": "24594",
    "city": "Tappendorf"
  },
  {
    "postcode": "24594",
    "city": "Vaasbüttel"
  },
  {
    "postcode": "24594",
    "city": "Wapelfeld"
  },
  {
    "postcode": "24594",
    "city": "Rendsburg-Eckernförde"
  },
  {
    "postcode": "24594",
    "city": "Mörel"
  },
  {
    "postcode": "24594",
    "city": "Nindorf"
  },
  {
    "postcode": "24594",
    "city": "Rade b. Hohenwestedt"
  },
  {
    "postcode": "24594",
    "city": "Papenau"
  },
  {
    "postcode": "24598",
    "city": "Boostedt"
  },
  {
    "postcode": "24598",
    "city": "Braak"
  },
  {
    "postcode": "24598",
    "city": "Heidmühlen Holstein"
  },
  {
    "postcode": "24598",
    "city": "Heidmühlen"
  },
  {
    "postcode": "24598",
    "city": "Klint"
  },
  {
    "postcode": "24598",
    "city": "Latendorf"
  },
  {
    "postcode": "24598",
    "city": "Segeberg"
  },
  {
    "postcode": "24598",
    "city": "Twel"
  },
  {
    "postcode": "24598",
    "city": "Mühlenholz"
  },
  {
    "postcode": "24598",
    "city": "Braak-Siedlung"
  },
  {
    "postcode": "24598",
    "city": "Hinter dem Mühlenberg"
  },
  {
    "postcode": "24601",
    "city": "Belau bei Wankendorf"
  },
  {
    "postcode": "24601",
    "city": "Köllingbek Gemeinde Wankendorf"
  },
  {
    "postcode": "24601",
    "city": "Köllingbek"
  },
  {
    "postcode": "24601",
    "city": "Ruhwinkel"
  },
  {
    "postcode": "24601",
    "city": "Stolpe bei Neumünster"
  },
  {
    "postcode": "24601",
    "city": "Wankendorf"
  },
  {
    "postcode": "24601",
    "city": "Wittenberg bei Neumünster"
  },
  {
    "postcode": "24601",
    "city": "Plön"
  },
  {
    "postcode": "24601",
    "city": "Belau"
  },
  {
    "postcode": "24601",
    "city": "Stolpe"
  },
  {
    "postcode": "24601",
    "city": "Schönböken"
  },
  {
    "postcode": "24610",
    "city": "Gönnebek"
  },
  {
    "postcode": "24610",
    "city": "Trappenkamp"
  },
  {
    "postcode": "24610",
    "city": "Segeberg"
  },
  {
    "postcode": "24613",
    "city": "Aukrug"
  },
  {
    "postcode": "24613",
    "city": "Bucken"
  },
  {
    "postcode": "24613",
    "city": "Viertshöhe"
  },
  {
    "postcode": "24613",
    "city": "Wiedenborstel"
  },
  {
    "postcode": "24613",
    "city": "Rendsburg-Eckernförde"
  },
  {
    "postcode": "24616",
    "city": "Armstedt"
  },
  {
    "postcode": "24616",
    "city": "Borstel bei Neumünster"
  },
  {
    "postcode": "24616",
    "city": "Brokstedt"
  },
  {
    "postcode": "24616",
    "city": "Hardebek"
  },
  {
    "postcode": "24616",
    "city": "Hasenkrug bei Brokstedt"
  },
  {
    "postcode": "24616",
    "city": "Rotensande"
  },
  {
    "postcode": "24616",
    "city": "Sarlhusen"
  },
  {
    "postcode": "24616",
    "city": "Willenscharen"
  },
  {
    "postcode": "24616",
    "city": "Segeberg"
  },
  {
    "postcode": "24616",
    "city": "Borstel"
  },
  {
    "postcode": "24616",
    "city": "Hasenkrug"
  },
  {
    "postcode": "24619",
    "city": "Bornhöved"
  },
  {
    "postcode": "24619",
    "city": "Rendswühren"
  },
  {
    "postcode": "24619",
    "city": "Tarbek"
  },
  {
    "postcode": "24619",
    "city": "Plön"
  },
  {
    "postcode": "24619",
    "city": "Am Stromberg"
  },
  {
    "postcode": "24620",
    "city": "Bönebüttel"
  },
  {
    "postcode": "24620",
    "city": "Husbergermoor Gemeinde Bönebüttel"
  },
  {
    "postcode": "24620",
    "city": "Husbergermoor"
  },
  {
    "postcode": "24620",
    "city": "Plön"
  },
  {
    "postcode": "24620",
    "city": "Husberg"
  },
  {
    "postcode": "24622",
    "city": "Gnutz"
  },
  {
    "postcode": "24622",
    "city": "Hoffeld"
  },
  {
    "postcode": "24622",
    "city": "Rosenkamp"
  },
  {
    "postcode": "24622",
    "city": "Rendsburg-Eckernförde"
  },
  {
    "postcode": "24623",
    "city": "Brokenlande"
  },
  {
    "postcode": "24623",
    "city": "Großenaspe"
  },
  {
    "postcode": "24623",
    "city": "Großenasperfeld"
  },
  {
    "postcode": "24623",
    "city": "Segeberg"
  },
  {
    "postcode": "24623",
    "city": "Freiweide"
  },
  {
    "postcode": "24625",
    "city": "Fiefharrie"
  },
  {
    "postcode": "24625",
    "city": "Großharrie"
  },
  {
    "postcode": "24625",
    "city": "Kleinharrie Forsthaus"
  },
  {
    "postcode": "24625",
    "city": "Kleinharrie"
  },
  {
    "postcode": "24625",
    "city": "Negenharrie"
  },
  {
    "postcode": "24625",
    "city": "Plön"
  },
  {
    "postcode": "24625",
    "city": "Brauner Hirsch"
  },
  {
    "postcode": "24625",
    "city": "Großharriefeld"
  },
  {
    "postcode": "24625",
    "city": "Vogelsang"
  },
  {
    "postcode": "24626",
    "city": "Groß Kummerfeld"
  },
  {
    "postcode": "24626",
    "city": "Klein Kummerfeld"
  },
  {
    "postcode": "24626",
    "city": "Willingrade"
  },
  {
    "postcode": "24626",
    "city": "Segeberg"
  },
  {
    "postcode": "24626",
    "city": "Kleinkummerfeld"
  },
  {
    "postcode": "24628",
    "city": "Hahneneck"
  },
  {
    "postcode": "24628",
    "city": "Hartenholm"
  },
  {
    "postcode": "24628",
    "city": "Segeberg"
  },
  {
    "postcode": "24629",
    "city": "Kisdorf Holstein"
  },
  {
    "postcode": "24629",
    "city": "Kisdorf"
  },
  {
    "postcode": "24629",
    "city": "Kisdorferwohld Holstein"
  },
  {
    "postcode": "24629",
    "city": "Kisdorferwohld"
  },
  {
    "postcode": "24629",
    "city": "Segeberg"
  },
  {
    "postcode": "24631",
    "city": "Langwedel Holstein"
  },
  {
    "postcode": "24631",
    "city": "Langwedel"
  },
  {
    "postcode": "24631",
    "city": "Langwedelerfeld Holstein"
  },
  {
    "postcode": "24631",
    "city": "Langwedelerfeld"
  },
  {
    "postcode": "24631",
    "city": "Langwedelerholz Holstein"
  },
  {
    "postcode": "24631",
    "city": "Langwedelerholz"
  },
  {
    "postcode": "24631",
    "city": "Rendsburg-Eckernförde"
  },
  {
    "postcode": "24632",
    "city": "Heidmoor Holstein"
  },
  {
    "postcode": "24632",
    "city": "Heidmoor"
  },
  {
    "postcode": "24632",
    "city": "Lentföhrden"
  },
  {
    "postcode": "24632",
    "city": "Segeberg"
  },
  {
    "postcode": "24634",
    "city": "Arpsdorf"
  },
  {
    "postcode": "24634",
    "city": "Padenstedt"
  },
  {
    "postcode": "24634",
    "city": "Rendsburg-Eckernförde"
  },
  {
    "postcode": "24635",
    "city": "Daldorf"
  },
  {
    "postcode": "24635",
    "city": "Fehrenbötel"
  },
  {
    "postcode": "24635",
    "city": "Rickling"
  },
  {
    "postcode": "24635",
    "city": "Schönmoor"
  },
  {
    "postcode": "24635",
    "city": "Segeberg"
  },
  {
    "postcode": "24635",
    "city": "Hoheluft"
  },
  {
    "postcode": "24637",
    "city": "Schillsdorf"
  },
  {
    "postcode": "24637",
    "city": "Plön"
  },
  {
    "postcode": "24637",
    "city": "Ovendorferredder"
  },
  {
    "postcode": "24637",
    "city": "Busdorf"
  },
  {
    "postcode": "24638",
    "city": "Schmalensee"
  },
  {
    "postcode": "24638",
    "city": "Segeberg"
  },
  {
    "postcode": "24640",
    "city": "Brook"
  },
  {
    "postcode": "24640",
    "city": "Fuhlenrüe"
  },
  {
    "postcode": "24640",
    "city": "Hasenmoor"
  },
  {
    "postcode": "24640",
    "city": "Schmalfeld Holstein"
  },
  {
    "postcode": "24640",
    "city": "Schmalfeld"
  },
  {
    "postcode": "24640",
    "city": "Wierenkamp Gemeinde Lentföhrden"
  },
  {
    "postcode": "24640",
    "city": "Wierenkamp"
  },
  {
    "postcode": "24640",
    "city": "Segeberg"
  },
  {
    "postcode": "24640",
    "city": "Bollweg"
  },
  {
    "postcode": "24641",
    "city": "Hüttblek"
  },
  {
    "postcode": "24641",
    "city": "Sievershütten"
  },
  {
    "postcode": "24641",
    "city": "Stuvenborn"
  },
  {
    "postcode": "24641",
    "city": "Segeberg"
  },
  {
    "postcode": "24643",
    "city": "Bentfurt"
  },
  {
    "postcode": "24643",
    "city": "Bredenbekshorst"
  },
  {
    "postcode": "24643",
    "city": "Deich"
  },
  {
    "postcode": "24643",
    "city": "Struvenhütten"
  },
  {
    "postcode": "24643",
    "city": "Ziegelei"
  },
  {
    "postcode": "24643",
    "city": "Segeberg"
  },
  {
    "postcode": "24644",
    "city": "Krogaspe"
  },
  {
    "postcode": "24644",
    "city": "Loop Holstein"
  },
  {
    "postcode": "24644",
    "city": "Loop"
  },
  {
    "postcode": "24644",
    "city": "Timmaspe"
  },
  {
    "postcode": "24644",
    "city": "Rendsburg-Eckernförde"
  },
  {
    "postcode": "24646",
    "city": "Warder bei Neumünster"
  },
  {
    "postcode": "24646",
    "city": "Rendsburg-Eckernförde"
  },
  {
    "postcode": "24646",
    "city": "Warder"
  },
  {
    "postcode": "24647",
    "city": "Ehndorf"
  },
  {
    "postcode": "24647",
    "city": "Ehndorfermoor"
  },
  {
    "postcode": "24647",
    "city": "Prehnsfelde"
  },
  {
    "postcode": "24647",
    "city": "Wasbek"
  },
  {
    "postcode": "24647",
    "city": "Rendsburg-Eckernförde"
  },
  {
    "postcode": "24649",
    "city": "Fuhlendorf bei Wiemersdorf"
  },
  {
    "postcode": "24649",
    "city": "Harzhorn"
  },
  {
    "postcode": "24649",
    "city": "Wiemersdorf"
  },
  {
    "postcode": "24649",
    "city": "Segeberg"
  },
  {
    "postcode": "24649",
    "city": "Fuhlendorf"
  },
  {
    "postcode": "24768",
    "city": "Nübbel Lotsenstation"
  },
  {
    "postcode": "24768",
    "city": "Nübbel"
  },
  {
    "postcode": "24768",
    "city": "Rendsburg"
  },
  {
    "postcode": "24768",
    "city": "Rendsburg-Eckernförde"
  },
  {
    "postcode": "24768",
    "city": "Schülp"
  },
  {
    "postcode": "24768",
    "city": "Schülp bei Rendsburg"
  },
  {
    "postcode": "24782",
    "city": "Büdelsdorf"
  },
  {
    "postcode": "24782",
    "city": "Rickert"
  },
  {
    "postcode": "24782",
    "city": "Rendsburg-Eckernförde"
  },
  {
    "postcode": "24783",
    "city": "Osterrönfeld"
  },
  {
    "postcode": "24783",
    "city": "Rendsburg-Eckernförde"
  },
  {
    "postcode": "24784",
    "city": "Westerrönfeld"
  },
  {
    "postcode": "24784",
    "city": "Rendsburg-Eckernförde"
  },
  {
    "postcode": "24787",
    "city": "Fockbek"
  },
  {
    "postcode": "24787",
    "city": "Rendsburg-Eckernförde"
  },
  {
    "postcode": "24787",
    "city": "Ahrenstedt"
  },
  {
    "postcode": "24790",
    "city": "Haßmoor"
  },
  {
    "postcode": "24790",
    "city": "Heidkrug Gemeinde Osterrönfeld"
  },
  {
    "postcode": "24790",
    "city": "Heidkrug"
  },
  {
    "postcode": "24790",
    "city": "Ohe"
  },
  {
    "postcode": "24790",
    "city": "Ostenfeld (Rendsburg)"
  },
  {
    "postcode": "24790",
    "city": "Ostenfeld"
  },
  {
    "postcode": "24790",
    "city": "Rade bei Rendsburg"
  },
  {
    "postcode": "24790",
    "city": "Rade Signalstation"
  },
  {
    "postcode": "24790",
    "city": "Rade"
  },
  {
    "postcode": "24790",
    "city": "Schacht-Audorf"
  },
  {
    "postcode": "24790",
    "city": "Schülldorf"
  },
  {
    "postcode": "24790",
    "city": "Rendsburg-Eckernförde"
  },
  {
    "postcode": "24790",
    "city": "Rade b. Rendsburg"
  },
  {
    "postcode": "24790",
    "city": "Grellkamp"
  },
  {
    "postcode": "24791",
    "city": "Alt Duvenstedt"
  },
  {
    "postcode": "24791",
    "city": "Krummenort"
  },
  {
    "postcode": "24791",
    "city": "Rendsburg-Eckernförde"
  },
  {
    "postcode": "24791",
    "city": "Neu Duvenstedt-Nord"
  },
  {
    "postcode": "24793",
    "city": "Bargstedt Holstein"
  },
  {
    "postcode": "24793",
    "city": "Bargstedt"
  },
  {
    "postcode": "24793",
    "city": "Brammer bei Rendsburg"
  },
  {
    "postcode": "24793",
    "city": "Brammerau"
  },
  {
    "postcode": "24793",
    "city": "Holtdorf Holstein"
  },
  {
    "postcode": "24793",
    "city": "Holtdorf"
  },
  {
    "postcode": "24793",
    "city": "Oldenhütten"
  },
  {
    "postcode": "24793",
    "city": "Rendsburg-Eckernförde"
  },
  {
    "postcode": "24793",
    "city": "Brammer"
  },
  {
    "postcode": "24794",
    "city": "Borgstedt bei Rendsburg"
  },
  {
    "postcode": "24794",
    "city": "Bünsdorf"
  },
  {
    "postcode": "24794",
    "city": "Lehmbek bei Rendsburg"
  },
  {
    "postcode": "24794",
    "city": "Neu Duvenstedt"
  },
  {
    "postcode": "24794",
    "city": "Rendsburg-Eckernförde"
  },
  {
    "postcode": "24794",
    "city": "Borgstedt"
  },
  {
    "postcode": "24794",
    "city": "Inselhof"
  },
  {
    "postcode": "24794",
    "city": "Neu Duvenstedt-Süd"
  },
  {
    "postcode": "24796",
    "city": "Bovenau"
  },
  {
    "postcode": "24796",
    "city": "Bredenbek bei Rendsburg"
  },
  {
    "postcode": "24796",
    "city": "Kronsburg bei Rendsburg"
  },
  {
    "postcode": "24796",
    "city": "Krummwisch"
  },
  {
    "postcode": "24796",
    "city": "Wakendorf"
  },
  {
    "postcode": "24796",
    "city": "Rendsburg-Eckernförde"
  },
  {
    "postcode": "24796",
    "city": "Bredenbek"
  },
  {
    "postcode": "24797",
    "city": "Breiholz"
  },
  {
    "postcode": "24797",
    "city": "Breiholzfähre"
  },
  {
    "postcode": "24797",
    "city": "Hörsten bei Rendsburg"
  },
  {
    "postcode": "24797",
    "city": "Klaustal"
  },
  {
    "postcode": "24797",
    "city": "Lohklindt"
  },
  {
    "postcode": "24797",
    "city": "Tackesdorf"
  },
  {
    "postcode": "24797",
    "city": "Rendsburg-Eckernförde"
  },
  {
    "postcode": "24797",
    "city": "Bokelhoop"
  },
  {
    "postcode": "24797",
    "city": "Gieselauschleuse"
  },
  {
    "postcode": "24797",
    "city": "Hörsten"
  },
  {
    "postcode": "24797",
    "city": "Jevenberg"
  },
  {
    "postcode": "24797",
    "city": "Tackesdorf-Nord"
  },
  {
    "postcode": "24799",
    "city": "Christiansholm"
  },
  {
    "postcode": "24799",
    "city": "Friedrichsgraben"
  },
  {
    "postcode": "24799",
    "city": "Friedrichsholm"
  },
  {
    "postcode": "24799",
    "city": "Hölken"
  },
  {
    "postcode": "24799",
    "city": "Königshügel"
  },
  {
    "postcode": "24799",
    "city": "Meggerdorf"
  },
  {
    "postcode": "24799",
    "city": "Meggerkoog"
  },
  {
    "postcode": "24799",
    "city": "Rendsburg-Eckernförde"
  },
  {
    "postcode": "24799",
    "city": "Süderholm"
  },
  {
    "postcode": "24799",
    "city": "Meggerholm"
  },
  {
    "postcode": "24800",
    "city": "Elsdorf-Westermühlen"
  },
  {
    "postcode": "24800",
    "city": "Vordamm"
  },
  {
    "postcode": "24800",
    "city": "Rendsburg-Eckernförde"
  },
  {
    "postcode": "24802",
    "city": "Bokel bei Rendsburg"
  },
  {
    "postcode": "24802",
    "city": "Emkendorf bei Rendsburg"
  },
  {
    "postcode": "24802",
    "city": "Groß Vollstedt"
  },
  {
    "postcode": "24802",
    "city": "Rendsburg-Eckernförde"
  },
  {
    "postcode": "24802",
    "city": "Bokel"
  },
  {
    "postcode": "24802",
    "city": "Emkendorf"
  },
  {
    "postcode": "24803",
    "city": "Bargen"
  },
  {
    "postcode": "24803",
    "city": "Ekel"
  },
  {
    "postcode": "24803",
    "city": "Erfde"
  },
  {
    "postcode": "24803",
    "city": "Erfderfeld"
  },
  {
    "postcode": "24803",
    "city": "Hanrade"
  },
  {
    "postcode": "24803",
    "city": "Pahlhorn bei Rendsburg"
  },
  {
    "postcode": "24803",
    "city": "Scheppern"
  },
  {
    "postcode": "24803",
    "city": "Tielen bei Erfde"
  },
  {
    "postcode": "24803",
    "city": "Schleswig-Flensburg"
  },
  {
    "postcode": "24803",
    "city": "Tielen"
  },
  {
    "postcode": "24805",
    "city": "Hamdorf bei Rendsburg"
  },
  {
    "postcode": "24805",
    "city": "Prinzenmoor"
  },
  {
    "postcode": "24805",
    "city": "Rendsburg-Eckernförde"
  },
  {
    "postcode": "24805",
    "city": "Hamdorf"
  },
  {
    "postcode": "24805",
    "city": "Langenberg"
  },
  {
    "postcode": "24806",
    "city": "Bargstall"
  },
  {
    "postcode": "24806",
    "city": "Hohn bei Rendsburg"
  },
  {
    "postcode": "24806",
    "city": "Julianenebene bei Rendsburg"
  },
  {
    "postcode": "24806",
    "city": "Lohe-Föhrden"
  },
  {
    "postcode": "24806",
    "city": "Oha"
  },
  {
    "postcode": "24806",
    "city": "Sophienhamm"
  },
  {
    "postcode": "24806",
    "city": "Rendsburg-Eckernförde"
  },
  {
    "postcode": "24806",
    "city": "Hohn"
  },
  {
    "postcode": "24808",
    "city": "Altenkattbek"
  },
  {
    "postcode": "24808",
    "city": "Dammstedt"
  },
  {
    "postcode": "24808",
    "city": "Jevenstedt"
  },
  {
    "postcode": "24808",
    "city": "Jevenstedterteich"
  },
  {
    "postcode": "24808",
    "city": "Pollhorn"
  },
  {
    "postcode": "24808",
    "city": "Schwabe"
  },
  {
    "postcode": "24808",
    "city": "Rendsburg-Eckernförde"
  },
  {
    "postcode": "24808",
    "city": "Plirup"
  },
  {
    "postcode": "24808",
    "city": "Nienkattbek"
  },
  {
    "postcode": "24808",
    "city": "Nienlanden"
  },
  {
    "postcode": "24809",
    "city": "Moholz"
  },
  {
    "postcode": "24809",
    "city": "Nübbel bei Rendsburg"
  },
  {
    "postcode": "24809",
    "city": "Rendsburg-Eckernförde"
  },
  {
    "postcode": "24809",
    "city": "Nübbel"
  },
  {
    "postcode": "24811",
    "city": "Ahlefeld bei Rendsburg"
  },
  {
    "postcode": "24811",
    "city": "Brekendorf"
  },
  {
    "postcode": "24811",
    "city": "Langenberg"
  },
  {
    "postcode": "24811",
    "city": "Norby"
  },
  {
    "postcode": "24811",
    "city": "Owschlag"
  },
  {
    "postcode": "24811",
    "city": "Ramsdorf"
  },
  {
    "postcode": "24811",
    "city": "Steinsieken"
  },
  {
    "postcode": "24811",
    "city": "Rendsburg-Eckernförde"
  },
  {
    "postcode": "24811",
    "city": "Stenten"
  },
  {
    "postcode": "24813",
    "city": "Schülp bei Rendsburg"
  },
  {
    "postcode": "24813",
    "city": "Rendsburg-Eckernförde"
  },
  {
    "postcode": "24813",
    "city": "Schülp b. Rendsburg"
  },
  {
    "postcode": "24814",
    "city": "Freienberg Eider"
  },
  {
    "postcode": "24814",
    "city": "Freienberg"
  },
  {
    "postcode": "24814",
    "city": "Sehestedt Eider"
  },
  {
    "postcode": "24814",
    "city": "Sehestedt"
  },
  {
    "postcode": "24814",
    "city": "Rendsburg-Eckernförde"
  },
  {
    "postcode": "24816",
    "city": "Brinjahe"
  },
  {
    "postcode": "24816",
    "city": "Hamweddel"
  },
  {
    "postcode": "24816",
    "city": "Hennstedt Gemeinde Hamweddel"
  },
  {
    "postcode": "24816",
    "city": "Hennstedt"
  },
  {
    "postcode": "24816",
    "city": "Kollmoor"
  },
  {
    "postcode": "24816",
    "city": "Legan"
  },
  {
    "postcode": "24816",
    "city": "Luhnstedt"
  },
  {
    "postcode": "24816",
    "city": "Stafstedt bei Rendsburg"
  },
  {
    "postcode": "24816",
    "city": "Rendsburg-Eckernförde"
  },
  {
    "postcode": "24816",
    "city": "Freudenberg"
  },
  {
    "postcode": "24816",
    "city": "Luhnvie"
  },
  {
    "postcode": "24816",
    "city": "Stafstedt"
  },
  {
    "postcode": "24817",
    "city": "Friedrichswiese Gemeinde Tetenhusen"
  },
  {
    "postcode": "24817",
    "city": "Friedrichswiese"
  },
  {
    "postcode": "24817",
    "city": "Tetenhusen"
  },
  {
    "postcode": "24817",
    "city": "Schleswig-Flensburg"
  },
  {
    "postcode": "24819",
    "city": "Barlohe"
  },
  {
    "postcode": "24819",
    "city": "Dörpstedt"
  },
  {
    "postcode": "24819",
    "city": "Embühren"
  },
  {
    "postcode": "24819",
    "city": "Haale"
  },
  {
    "postcode": "24819",
    "city": "Hütten"
  },
  {
    "postcode": "24819",
    "city": "Krambek Gemeinde Todenbüttel"
  },
  {
    "postcode": "24819",
    "city": "Krambek"
  },
  {
    "postcode": "24819",
    "city": "Lust"
  },
  {
    "postcode": "24819",
    "city": "Maisborstel"
  },
  {
    "postcode": "24819",
    "city": "Nienborstel"
  },
  {
    "postcode": "24819",
    "city": "Todenbüttel"
  },
  {
    "postcode": "24819",
    "city": "Wettersberg Gemeinde Todenbüttel"
  },
  {
    "postcode": "24819",
    "city": "Wettersberg"
  },
  {
    "postcode": "24819",
    "city": "Ziegelhof"
  },
  {
    "postcode": "24819",
    "city": "Rendsburg-Eckernförde"
  },
  {
    "postcode": "24819",
    "city": "Grotenknöll"
  },
  {
    "postcode": "24837",
    "city": "Schleswig"
  },
  {
    "postcode": "24837",
    "city": "Schleswig-Flensburg"
  },
  {
    "postcode": "24837",
    "city": "Königswill"
  },
  {
    "postcode": "24848",
    "city": "Alt Bennebek"
  },
  {
    "postcode": "24848",
    "city": "Boklund"
  },
  {
    "postcode": "24848",
    "city": "Groß Rheide"
  },
  {
    "postcode": "24848",
    "city": "Heidbunge"
  },
  {
    "postcode": "24848",
    "city": "Klein Bennebek"
  },
  {
    "postcode": "24848",
    "city": "Klein Rheide"
  },
  {
    "postcode": "24848",
    "city": "Kropp bei Schleswig"
  },
  {
    "postcode": "24848",
    "city": "Mielberg Gemeinde Jagel"
  },
  {
    "postcode": "24848",
    "city": "Mielberg"
  },
  {
    "postcode": "24848",
    "city": "Schleswig-Flensburg"
  },
  {
    "postcode": "24848",
    "city": "Kropp"
  },
  {
    "postcode": "24850",
    "city": "Hüsby"
  },
  {
    "postcode": "24850",
    "city": "Kroy"
  },
  {
    "postcode": "24850",
    "city": "Lürschau"
  },
  {
    "postcode": "24850",
    "city": "Schuby bei Schleswig"
  },
  {
    "postcode": "24850",
    "city": "Schleswig-Flensburg"
  },
  {
    "postcode": "24850",
    "city": "Schuby"
  },
  {
    "postcode": "24850",
    "city": "Hüsbygaard"
  },
  {
    "postcode": "24850",
    "city": "Wilhelmslust"
  },
  {
    "postcode": "24852",
    "city": "Eggebek"
  },
  {
    "postcode": "24852",
    "city": "Langstedt"
  },
  {
    "postcode": "24852",
    "city": "Quellental"
  },
  {
    "postcode": "24852",
    "city": "Sollbrück"
  },
  {
    "postcode": "24852",
    "city": "Sollerup"
  },
  {
    "postcode": "24852",
    "city": "Sollerupmühle"
  },
  {
    "postcode": "24852",
    "city": "Süderhackstedt"
  },
  {
    "postcode": "24852",
    "city": "Schleswig-Flensburg"
  },
  {
    "postcode": "24855",
    "city": "Bollingstedt"
  },
  {
    "postcode": "24855",
    "city": "Engbrück"
  },
  {
    "postcode": "24855",
    "city": "Jübek"
  },
  {
    "postcode": "24855",
    "city": "Schleswig-Flensburg"
  },
  {
    "postcode": "24855",
    "city": "Gammellund"
  },
  {
    "postcode": "24855",
    "city": "Friedrichsau"
  },
  {
    "postcode": "24857",
    "city": "Borgwedel"
  },
  {
    "postcode": "24857",
    "city": "Fahrdorf"
  },
  {
    "postcode": "24857",
    "city": "Loopstedt"
  },
  {
    "postcode": "24857",
    "city": "Stexwig"
  },
  {
    "postcode": "24857",
    "city": "Schleswig-Flensburg"
  },
  {
    "postcode": "24860",
    "city": "Böklund"
  },
  {
    "postcode": "24860",
    "city": "Klappholz"
  },
  {
    "postcode": "24860",
    "city": "Uelsby"
  },
  {
    "postcode": "24860",
    "city": "Ülsbyholz"
  },
  {
    "postcode": "24860",
    "city": "Westscheide"
  },
  {
    "postcode": "24860",
    "city": "Schleswig-Flensburg"
  },
  {
    "postcode": "24860",
    "city": "Weißes Ross"
  },
  {
    "postcode": "24861",
    "city": "Bergenhusen"
  },
  {
    "postcode": "24861",
    "city": "Brunsholm"
  },
  {
    "postcode": "24861",
    "city": "Kleinsee"
  },
  {
    "postcode": "24861",
    "city": "Papenbrook"
  },
  {
    "postcode": "24861",
    "city": "Wassermühle Bergenhusen"
  },
  {
    "postcode": "24861",
    "city": "Schleswig-Flensburg"
  },
  {
    "postcode": "24861",
    "city": "Reppel"
  },
  {
    "postcode": "24861",
    "city": "Wassermühle"
  },
  {
    "postcode": "24863",
    "city": "Barkhorn bei Schleswig"
  },
  {
    "postcode": "24863",
    "city": "Börm bei Schleswig"
  },
  {
    "postcode": "24863",
    "city": "Börmerkoog"
  },
  {
    "postcode": "24863",
    "city": "Meer"
  },
  {
    "postcode": "24863",
    "city": "Schleswig-Flensburg"
  },
  {
    "postcode": "24863",
    "city": "Börm"
  },
  {
    "postcode": "24863",
    "city": "Barkhorn"
  },
  {
    "postcode": "24863",
    "city": "Klein Bennebek"
  },
  {
    "postcode": "24864",
    "city": "Brodersby bei Schleswig"
  },
  {
    "postcode": "24864",
    "city": "Geel bei Schleswig"
  },
  {
    "postcode": "24864",
    "city": "Geelbyholz bei Schleswig"
  },
  {
    "postcode": "24864",
    "city": "Goltoft"
  },
  {
    "postcode": "24864",
    "city": "Missunde bei Schleswig"
  },
  {
    "postcode": "24864",
    "city": "Schleswig-Flensburg"
  },
  {
    "postcode": "24864",
    "city": "Brodersby-Goltoft"
  },
  {
    "postcode": "24864",
    "city": "Brodersby"
  },
  {
    "postcode": "24864",
    "city": "Norderfeld"
  },
  {
    "postcode": "24866",
    "city": "Busdorf bei Schleswig"
  },
  {
    "postcode": "24866",
    "city": "Schleswig-Flensburg"
  },
  {
    "postcode": "24866",
    "city": "Busdorf"
  },
  {
    "postcode": "24867",
    "city": "Dannewerk"
  },
  {
    "postcode": "24867",
    "city": "Kurburg"
  },
  {
    "postcode": "24867",
    "city": "Schleswig-Flensburg"
  },
  {
    "postcode": "24867",
    "city": "Großdannewerk"
  },
  {
    "postcode": "24869",
    "city": "Bünge"
  },
  {
    "postcode": "24869",
    "city": "Dörpstedt bei Schleswig"
  },
  {
    "postcode": "24869",
    "city": "Klove"
  },
  {
    "postcode": "24869",
    "city": "Thiesburg"
  },
  {
    "postcode": "24869",
    "city": "Schleswig-Flensburg"
  },
  {
    "postcode": "24869",
    "city": "Dörpstedt"
  },
  {
    "postcode": "24870",
    "city": "Ellingstedt"
  },
  {
    "postcode": "24870",
    "city": "Ellingstedtfeld"
  },
  {
    "postcode": "24870",
    "city": "Morgenstern"
  },
  {
    "postcode": "24870",
    "city": "Schleswig-Flensburg"
  },
  {
    "postcode": "24870",
    "city": "Busholm"
  },
  {
    "postcode": "24872",
    "city": "Groß Rheide"
  },
  {
    "postcode": "24872",
    "city": "Schleswig-Flensburg"
  },
  {
    "postcode": "24873",
    "city": "Havetoft"
  },
  {
    "postcode": "24873",
    "city": "Schleswig-Flensburg"
  },
  {
    "postcode": "24875",
    "city": "Havetoftloit"
  },
  {
    "postcode": "24876",
    "city": "Friedrichsfeld bei Schleswig"
  },
  {
    "postcode": "24876",
    "city": "Hollingstedt bei Schleswig"
  },
  {
    "postcode": "24876",
    "city": "Schleswig-Flensburg"
  },
  {
    "postcode": "24876",
    "city": "Hollingstedt"
  },
  {
    "postcode": "24876",
    "city": "Friedrichsfeld"
  },
  {
    "postcode": "24876",
    "city": "Hye"
  },
  {
    "postcode": "24878",
    "city": "Jagel bei Schleswig"
  },
  {
    "postcode": "24878",
    "city": "Lottorf"
  },
  {
    "postcode": "24878",
    "city": "Schleswig-Flensburg"
  },
  {
    "postcode": "24878",
    "city": "Jagel"
  },
  {
    "postcode": "24879",
    "city": "Idstedt"
  },
  {
    "postcode": "24879",
    "city": "Neuberend"
  },
  {
    "postcode": "24879",
    "city": "Schleswig-Flensburg"
  },
  {
    "postcode": "24879",
    "city": "Idstedtholzkrug"
  },
  {
    "postcode": "24879",
    "city": "Kattenhund"
  },
  {
    "postcode": "24881",
    "city": "Nübel bei Schleswig"
  },
  {
    "postcode": "24881",
    "city": "Schleswig-Flensburg"
  },
  {
    "postcode": "24881",
    "city": "Nübel"
  },
  {
    "postcode": "24882",
    "city": "Moldenit"
  },
  {
    "postcode": "24882",
    "city": "Schaalby"
  },
  {
    "postcode": "24882",
    "city": "Schleswig-Flensburg"
  },
  {
    "postcode": "24884",
    "city": "Altmühl Gemeinde Selk"
  },
  {
    "postcode": "24884",
    "city": "Altmühl"
  },
  {
    "postcode": "24884",
    "city": "Geltorf"
  },
  {
    "postcode": "24884",
    "city": "Niederselk"
  },
  {
    "postcode": "24884",
    "city": "Oberselk"
  },
  {
    "postcode": "24884",
    "city": "Selk"
  },
  {
    "postcode": "24884",
    "city": "Schleswig-Flensburg"
  },
  {
    "postcode": "24884",
    "city": "Güby"
  },
  {
    "postcode": "24884",
    "city": "Esprehm"
  },
  {
    "postcode": "24884",
    "city": "Wedelspang"
  },
  {
    "postcode": "24885",
    "city": "Jalm"
  },
  {
    "postcode": "24885",
    "city": "Sieverstedt"
  },
  {
    "postcode": "24885",
    "city": "Süderholz"
  },
  {
    "postcode": "24885",
    "city": "Schleswig-Flensburg"
  },
  {
    "postcode": "24887",
    "city": "Friedrichsfeld"
  },
  {
    "postcode": "24887",
    "city": "Holm"
  },
  {
    "postcode": "24887",
    "city": "Rosacker"
  },
  {
    "postcode": "24887",
    "city": "Silberstedt"
  },
  {
    "postcode": "24887",
    "city": "Schleswig-Flensburg"
  },
  {
    "postcode": "24887",
    "city": "Esperstoft"
  },
  {
    "postcode": "24887",
    "city": "Hünning"
  },
  {
    "postcode": "24887",
    "city": "Krauheide"
  },
  {
    "postcode": "24888",
    "city": "Brebelholz bei Schleswig"
  },
  {
    "postcode": "24888",
    "city": "Krock bei Schleswig"
  },
  {
    "postcode": "24888",
    "city": "Loit"
  },
  {
    "postcode": "24888",
    "city": "Steinfeld bei Schleswig"
  },
  {
    "postcode": "24888",
    "city": "Wackerade bei Schleswig"
  },
  {
    "postcode": "24888",
    "city": "Schleswig-Flensburg"
  },
  {
    "postcode": "24888",
    "city": "Schmedeland"
  },
  {
    "postcode": "24888",
    "city": "Steinfeld"
  },
  {
    "postcode": "24888",
    "city": "Loit-Muschau"
  },
  {
    "postcode": "24890",
    "city": "Stolk"
  },
  {
    "postcode": "24890",
    "city": "Stolkerfeld"
  },
  {
    "postcode": "24890",
    "city": "Süderfahrenstedt"
  },
  {
    "postcode": "24890",
    "city": "Schleswig-Flensburg"
  },
  {
    "postcode": "24890",
    "city": "Wellspang"
  },
  {
    "postcode": "24891",
    "city": "Hollmühle Gemeinde Uelsby"
  },
  {
    "postcode": "24891",
    "city": "Hollmühle"
  },
  {
    "postcode": "24891",
    "city": "Schnarup-Thumby"
  },
  {
    "postcode": "24891",
    "city": "Struxdorf"
  },
  {
    "postcode": "24891",
    "city": "Schleswig-Flensburg"
  },
  {
    "postcode": "24891",
    "city": "Eslingholz"
  },
  {
    "postcode": "24891",
    "city": "Boholz"
  },
  {
    "postcode": "24893",
    "city": "Taarstedt"
  },
  {
    "postcode": "24893",
    "city": "Schleswig-Flensburg"
  },
  {
    "postcode": "24894",
    "city": "Hoffnungstal Gemeinde Loit"
  },
  {
    "postcode": "24894",
    "city": "Hoffnungstal"
  },
  {
    "postcode": "24894",
    "city": "Lobacker"
  },
  {
    "postcode": "24894",
    "city": "Tolk"
  },
  {
    "postcode": "24894",
    "city": "Tolkschuby"
  },
  {
    "postcode": "24894",
    "city": "Twedt bei Schleswig"
  },
  {
    "postcode": "24894",
    "city": "Schleswig-Flensburg"
  },
  {
    "postcode": "24894",
    "city": "Twedt"
  },
  {
    "postcode": "24896",
    "city": "Geilwang bei Schleswig"
  },
  {
    "postcode": "24896",
    "city": "Goosholz bei Schleswig"
  },
  {
    "postcode": "24896",
    "city": "Grüft bei Schleswig"
  },
  {
    "postcode": "24896",
    "city": "Harenburg bei Schleswig"
  },
  {
    "postcode": "24896",
    "city": "Ipland bei Schleswig"
  },
  {
    "postcode": "24896",
    "city": "Treia bei Schleswig"
  },
  {
    "postcode": "24896",
    "city": "Schleswig-Flensburg"
  },
  {
    "postcode": "24896",
    "city": "Treia"
  },
  {
    "postcode": "24896",
    "city": "Vogelsang"
  },
  {
    "postcode": "24896",
    "city": "Geilwang"
  },
  {
    "postcode": "24896",
    "city": "Schwittschau"
  },
  {
    "postcode": "24897",
    "city": "Hestoft"
  },
  {
    "postcode": "24897",
    "city": "Ulsnis"
  },
  {
    "postcode": "24897",
    "city": "Ulsnisland"
  },
  {
    "postcode": "24897",
    "city": "Schleswig-Flensburg"
  },
  {
    "postcode": "24899",
    "city": "Wohlde bei Schleswig"
  },
  {
    "postcode": "24899",
    "city": "Schleswig-Flensburg"
  },
  {
    "postcode": "24899",
    "city": "Wohlde"
  },
  {
    "postcode": "24937",
    "city": "Flensborg"
  },
  {
    "postcode": "24937",
    "city": "Flensburg"
  },
  {
    "postcode": "24937",
    "city": "Friesischer Berg"
  },
  {
    "postcode": "24937",
    "city": "Fruerlund"
  },
  {
    "postcode": "24937",
    "city": "Jürgensby"
  },
  {
    "postcode": "24937",
    "city": "Sandberg"
  },
  {
    "postcode": "24937",
    "city": "Südstadt"
  },
  {
    "postcode": "24937",
    "city": "Altstadt"
  },
  {
    "postcode": "24937",
    "city": "Westliche Höhe"
  },
  {
    "postcode": "24939",
    "city": "Flensborg"
  },
  {
    "postcode": "24939",
    "city": "Flensburg"
  },
  {
    "postcode": "24939",
    "city": "Neustadt"
  },
  {
    "postcode": "24939",
    "city": "Nordstadt"
  },
  {
    "postcode": "24939",
    "city": "Altstadt"
  },
  {
    "postcode": "24939",
    "city": "Westliche Höhe"
  },
  {
    "postcode": "24941",
    "city": "Flensborg"
  },
  {
    "postcode": "24941",
    "city": "Flensburg"
  },
  {
    "postcode": "24941",
    "city": "Friesischer Berg"
  },
  {
    "postcode": "24941",
    "city": "Jarplund"
  },
  {
    "postcode": "24941",
    "city": "Jarplund-Weding"
  },
  {
    "postcode": "24941",
    "city": "Sandberg"
  },
  {
    "postcode": "24941",
    "city": "Südstadt"
  },
  {
    "postcode": "24941",
    "city": "Weding"
  },
  {
    "postcode": "24941",
    "city": "Weiche"
  },
  {
    "postcode": "24941",
    "city": "Westliche Höhe"
  },
  {
    "postcode": "24943",
    "city": "Engelsby"
  },
  {
    "postcode": "24943",
    "city": "Flensborg"
  },
  {
    "postcode": "24943",
    "city": "Flensburg"
  },
  {
    "postcode": "24943",
    "city": "Fruerlund"
  },
  {
    "postcode": "24943",
    "city": "Jürgensby"
  },
  {
    "postcode": "24943",
    "city": "Sandberg"
  },
  {
    "postcode": "24943",
    "city": "Tarup"
  },
  {
    "postcode": "24943",
    "city": "Tastrup bei Flensburg"
  },
  {
    "postcode": "24943",
    "city": "Twedt"
  },
  {
    "postcode": "24943",
    "city": "Tastrup"
  },
  {
    "postcode": "24943",
    "city": "Sünderup"
  },
  {
    "postcode": "24944",
    "city": "Flensborg"
  },
  {
    "postcode": "24944",
    "city": "Flensburg"
  },
  {
    "postcode": "24944",
    "city": "Mürwik"
  },
  {
    "postcode": "24944",
    "city": "Fruerlund"
  },
  {
    "postcode": "24955",
    "city": "Harrislee"
  },
  {
    "postcode": "24955",
    "city": "Kupfermühle"
  },
  {
    "postcode": "24955",
    "city": "Niehuus"
  },
  {
    "postcode": "24955",
    "city": "Wassersleben"
  },
  {
    "postcode": "24955",
    "city": "Schleswig-Flensburg"
  },
  {
    "postcode": "24960",
    "city": "Bockholm Ostsee"
  },
  {
    "postcode": "24960",
    "city": "Bockholm"
  },
  {
    "postcode": "24960",
    "city": "Glücksburg (Ostsee)"
  },
  {
    "postcode": "24960",
    "city": "Glücksburg"
  },
  {
    "postcode": "24960",
    "city": "Holnis Ostsee"
  },
  {
    "postcode": "24960",
    "city": "Holnis"
  },
  {
    "postcode": "24960",
    "city": "Kobbellück Ostsee"
  },
  {
    "postcode": "24960",
    "city": "Kobbellück"
  },
  {
    "postcode": "24960",
    "city": "Munkbrarup"
  },
  {
    "postcode": "24960",
    "city": "Schausende Ostsee"
  },
  {
    "postcode": "24960",
    "city": "Schausende"
  },
  {
    "postcode": "24960",
    "city": "Schleswig-Flensburg"
  },
  {
    "postcode": "24960",
    "city": "Meierwik"
  },
  {
    "postcode": "24960",
    "city": "Rüdeheck"
  },
  {
    "postcode": "24960",
    "city": "Sandwig"
  },
  {
    "postcode": "24960",
    "city": "Ulstrupfeld"
  },
  {
    "postcode": "24960",
    "city": "Rüde"
  },
  {
    "postcode": "24960",
    "city": "Bockholmwik"
  },
  {
    "postcode": "24963",
    "city": "Jerrishoe"
  },
  {
    "postcode": "24963",
    "city": "Tarp"
  },
  {
    "postcode": "24963",
    "city": "Schleswig-Flensburg"
  },
  {
    "postcode": "24966",
    "city": "Barg"
  },
  {
    "postcode": "24966",
    "city": "Flatzby"
  },
  {
    "postcode": "24966",
    "city": "Flatzbyholz"
  },
  {
    "postcode": "24966",
    "city": "Gammelbyholz"
  },
  {
    "postcode": "24966",
    "city": "Hardesby"
  },
  {
    "postcode": "24966",
    "city": "Hollehitt"
  },
  {
    "postcode": "24966",
    "city": "Iverslund"
  },
  {
    "postcode": "24966",
    "city": "Löstrup"
  },
  {
    "postcode": "24966",
    "city": "Möllmark"
  },
  {
    "postcode": "24966",
    "city": "Mühlenholz"
  },
  {
    "postcode": "24966",
    "city": "Schwensby"
  },
  {
    "postcode": "24966",
    "city": "Sörup"
  },
  {
    "postcode": "24966",
    "city": "Sörupholz"
  },
  {
    "postcode": "24966",
    "city": "Sörupmühle"
  },
  {
    "postcode": "24966",
    "city": "Südensee"
  },
  {
    "postcode": "24966",
    "city": "Winderatt"
  },
  {
    "postcode": "24966",
    "city": "Schleswig-Flensburg"
  },
  {
    "postcode": "24966",
    "city": "See-Ende"
  },
  {
    "postcode": "24966",
    "city": "Mooswatt"
  },
  {
    "postcode": "24966",
    "city": "Dingholz"
  },
  {
    "postcode": "24966",
    "city": "Südenseeholz"
  },
  {
    "postcode": "24966",
    "city": "Gammelby"
  },
  {
    "postcode": "24966",
    "city": "Gammelbymoor"
  },
  {
    "postcode": "24966",
    "city": "Schauby"
  },
  {
    "postcode": "24966",
    "city": "Staffel"
  },
  {
    "postcode": "24969",
    "city": "Großenwiehe"
  },
  {
    "postcode": "24969",
    "city": "Kleinwiehe"
  },
  {
    "postcode": "24969",
    "city": "Lindewitt"
  },
  {
    "postcode": "24969",
    "city": "Linnau"
  },
  {
    "postcode": "24969",
    "city": "Loftlund"
  },
  {
    "postcode": "24969",
    "city": "Lüngerau"
  },
  {
    "postcode": "24969",
    "city": "Nordwiehe"
  },
  {
    "postcode": "24969",
    "city": "Oxlund"
  },
  {
    "postcode": "24969",
    "city": "Riesbriek"
  },
  {
    "postcode": "24969",
    "city": "Sillerup"
  },
  {
    "postcode": "24969",
    "city": "Schleswig-Flensburg"
  },
  {
    "postcode": "24969",
    "city": "Schobüll"
  },
  {
    "postcode": "24969",
    "city": "Wiehekrug"
  },
  {
    "postcode": "24969",
    "city": "Ostlinnau"
  },
  {
    "postcode": "24972",
    "city": "Gintoft"
  },
  {
    "postcode": "24972",
    "city": "Gintoftholm"
  },
  {
    "postcode": "24972",
    "city": "Quern"
  },
  {
    "postcode": "24972",
    "city": "Quern-Dingholz"
  },
  {
    "postcode": "24972",
    "city": "Steinberg bei Flensburg"
  },
  {
    "postcode": "24972",
    "city": "Steinbergkirche"
  },
  {
    "postcode": "24972",
    "city": "Wolsroi"
  },
  {
    "postcode": "24972",
    "city": "Schleswig-Flensburg"
  },
  {
    "postcode": "24972",
    "city": "Steinberg"
  },
  {
    "postcode": "24972",
    "city": "Hattlundmoor"
  },
  {
    "postcode": "24972",
    "city": "Nieby"
  },
  {
    "postcode": "24972",
    "city": "Bredegatt"
  },
  {
    "postcode": "24972",
    "city": "Nübelfeld"
  },
  {
    "postcode": "24972",
    "city": "Schiol"
  },
  {
    "postcode": "24975",
    "city": "Ausacker"
  },
  {
    "postcode": "24975",
    "city": "Hodderup Kreis Flensburg"
  },
  {
    "postcode": "24975",
    "city": "Hodderup"
  },
  {
    "postcode": "24975",
    "city": "Hürup"
  },
  {
    "postcode": "24975",
    "city": "Husby bei Flensburg"
  },
  {
    "postcode": "24975",
    "city": "Kielsgaard Kreis Flensburg"
  },
  {
    "postcode": "24975",
    "city": "Kielsgaard"
  },
  {
    "postcode": "24975",
    "city": "Maasbüll bei Flensburg"
  },
  {
    "postcode": "24975",
    "city": "Ruhnmark"
  },
  {
    "postcode": "24975",
    "city": "Rüllschau"
  },
  {
    "postcode": "24975",
    "city": "Wattschaukrug Gemeinde Husby"
  },
  {
    "postcode": "24975",
    "city": "Wattschaukrug"
  },
  {
    "postcode": "24975",
    "city": "Schleswig-Flensburg"
  },
  {
    "postcode": "24975",
    "city": "Husby"
  },
  {
    "postcode": "24975",
    "city": "Maasbüll"
  },
  {
    "postcode": "24975",
    "city": "Dammende"
  },
  {
    "postcode": "24975",
    "city": "Gremmerup"
  },
  {
    "postcode": "24975",
    "city": "Markerup"
  },
  {
    "postcode": "24975",
    "city": "Markerupfeld"
  },
  {
    "postcode": "24975",
    "city": "Stendels"
  },
  {
    "postcode": "24975",
    "city": "Neukrug"
  },
  {
    "postcode": "24977",
    "city": "Bönstrup"
  },
  {
    "postcode": "24977",
    "city": "Dollerupholz"
  },
  {
    "postcode": "24977",
    "city": "Grundhof bei Flensburg"
  },
  {
    "postcode": "24977",
    "city": "Langballig"
  },
  {
    "postcode": "24977",
    "city": "Langballigholz"
  },
  {
    "postcode": "24977",
    "city": "Lutzhöft Kreis Flensburg"
  },
  {
    "postcode": "24977",
    "city": "Lutzhöft"
  },
  {
    "postcode": "24977",
    "city": "Ranmark"
  },
  {
    "postcode": "24977",
    "city": "Ringsberg"
  },
  {
    "postcode": "24977",
    "city": "Unewatt"
  },
  {
    "postcode": "24977",
    "city": "Unewattfeld"
  },
  {
    "postcode": "24977",
    "city": "Westerholz"
  },
  {
    "postcode": "24977",
    "city": "Westerholz bei Langballig"
  },
  {
    "postcode": "24977",
    "city": "Schleswig-Flensburg"
  },
  {
    "postcode": "24977",
    "city": "Grundhof"
  },
  {
    "postcode": "24980",
    "city": "Hörup"
  },
  {
    "postcode": "24980",
    "city": "Hörupfeld"
  },
  {
    "postcode": "24980",
    "city": "Meyn"
  },
  {
    "postcode": "24980",
    "city": "Nordhackstedt"
  },
  {
    "postcode": "24980",
    "city": "Schafflund"
  },
  {
    "postcode": "24980",
    "city": "Wallsbüll bei Flensburg"
  },
  {
    "postcode": "24980",
    "city": "Schleswig-Flensburg"
  },
  {
    "postcode": "24980",
    "city": "Wallsbüll"
  },
  {
    "postcode": "24983",
    "city": "Ellund"
  },
  {
    "postcode": "24983",
    "city": "Gottrupel"
  },
  {
    "postcode": "24983",
    "city": "Handewitt"
  },
  {
    "postcode": "24983",
    "city": "Haurup"
  },
  {
    "postcode": "24983",
    "city": "Hüllerup"
  },
  {
    "postcode": "24983",
    "city": "Langberg"
  },
  {
    "postcode": "24983",
    "city": "Timmersiek"
  },
  {
    "postcode": "24983",
    "city": "Unaften"
  },
  {
    "postcode": "24983",
    "city": "Schleswig-Flensburg"
  },
  {
    "postcode": "24983",
    "city": "Simondys"
  },
  {
    "postcode": "24986",
    "city": "Heineberg"
  },
  {
    "postcode": "24986",
    "city": "Rehberg"
  },
  {
    "postcode": "24986",
    "city": "Rüde bei Satrup"
  },
  {
    "postcode": "24986",
    "city": "Satrup"
  },
  {
    "postcode": "24986",
    "city": "Schleswig-Flensburg"
  },
  {
    "postcode": "24986",
    "city": "Mittelangeln"
  },
  {
    "postcode": "24986",
    "city": "Rüde"
  },
  {
    "postcode": "24986",
    "city": "Havetoftloit"
  },
  {
    "postcode": "24986",
    "city": "Klein Rüde"
  },
  {
    "postcode": "24988",
    "city": "Barderup"
  },
  {
    "postcode": "24988",
    "city": "Munkwolstrup"
  },
  {
    "postcode": "24988",
    "city": "Oeversee"
  },
  {
    "postcode": "24988",
    "city": "Oeverseefeld"
  },
  {
    "postcode": "24988",
    "city": "Sankelmark"
  },
  {
    "postcode": "24988",
    "city": "Schleswig-Flensburg"
  },
  {
    "postcode": "24988",
    "city": "Frörup"
  },
  {
    "postcode": "24988",
    "city": "Bilschau"
  },
  {
    "postcode": "24989",
    "city": "Dollerup"
  },
  {
    "postcode": "24989",
    "city": "Nordballig"
  },
  {
    "postcode": "24989",
    "city": "Streichmühle"
  },
  {
    "postcode": "24989",
    "city": "Terkelstoft"
  },
  {
    "postcode": "24989",
    "city": "Schleswig-Flensburg"
  },
  {
    "postcode": "24989",
    "city": "Tiefengruft"
  },
  {
    "postcode": "24991",
    "city": "Bistoftholz"
  },
  {
    "postcode": "24991",
    "city": "Freienwill bei Flensburg"
  },
  {
    "postcode": "24991",
    "city": "Großsolt"
  },
  {
    "postcode": "24991",
    "city": "Schleswig-Flensburg"
  },
  {
    "postcode": "24991",
    "city": "Freienwill"
  },
  {
    "postcode": "24991",
    "city": "Bistoft"
  },
  {
    "postcode": "24992",
    "city": "Gravelund"
  },
  {
    "postcode": "24992",
    "city": "Janneby"
  },
  {
    "postcode": "24992",
    "city": "Jannebyfeld"
  },
  {
    "postcode": "24992",
    "city": "Jörl"
  },
  {
    "postcode": "24992",
    "city": "Süderhackstedtfeld bei Jörl"
  },
  {
    "postcode": "24992",
    "city": "Süderzollhaus"
  },
  {
    "postcode": "24992",
    "city": "Schleswig-Flensburg"
  },
  {
    "postcode": "24992",
    "city": "Süderhackstedtfeld"
  },
  {
    "postcode": "24992",
    "city": "Kleinjörl"
  },
  {
    "postcode": "24992",
    "city": "Großjörl"
  },
  {
    "postcode": "24994",
    "city": "Böxlund"
  },
  {
    "postcode": "24994",
    "city": "Holt bei Medelby"
  },
  {
    "postcode": "24994",
    "city": "Jardelund"
  },
  {
    "postcode": "24994",
    "city": "Medelby"
  },
  {
    "postcode": "24994",
    "city": "Osterby bei Medelby"
  },
  {
    "postcode": "24994",
    "city": "Weesby"
  },
  {
    "postcode": "24994",
    "city": "Schleswig-Flensburg"
  },
  {
    "postcode": "24994",
    "city": "Holt"
  },
  {
    "postcode": "24994",
    "city": "Osterby"
  },
  {
    "postcode": "24996",
    "city": "Ahneby"
  },
  {
    "postcode": "24996",
    "city": "Birristoft"
  },
  {
    "postcode": "24996",
    "city": "Boltoft"
  },
  {
    "postcode": "24996",
    "city": "Brunsbüll"
  },
  {
    "postcode": "24996",
    "city": "Brunsbüllund"
  },
  {
    "postcode": "24996",
    "city": "Grünholz"
  },
  {
    "postcode": "24996",
    "city": "Jordan"
  },
  {
    "postcode": "24996",
    "city": "Osterholm"
  },
  {
    "postcode": "24996",
    "city": "Schnabe"
  },
  {
    "postcode": "24996",
    "city": "Sterup"
  },
  {
    "postcode": "24996",
    "city": "Sterup-Dingholz"
  },
  {
    "postcode": "24996",
    "city": "Sterupgaard"
  },
  {
    "postcode": "24996",
    "city": "Schleswig-Flensburg"
  },
  {
    "postcode": "24996",
    "city": "Sünnerhof"
  },
  {
    "postcode": "24997",
    "city": "Kieracker"
  },
  {
    "postcode": "24997",
    "city": "Kragstedt"
  },
  {
    "postcode": "24997",
    "city": "Wanderup"
  },
  {
    "postcode": "24997",
    "city": "Wanderupfeld"
  },
  {
    "postcode": "24997",
    "city": "Schleswig-Flensburg"
  },
  {
    "postcode": "24999",
    "city": "Oxbüll"
  },
  {
    "postcode": "24999",
    "city": "Rosgaard"
  },
  {
    "postcode": "24999",
    "city": "Ulstrup Ostsee"
  },
  {
    "postcode": "24999",
    "city": "Ulstrup"
  },
  {
    "postcode": "24999",
    "city": "Wees"
  },
  {
    "postcode": "24999",
    "city": "Weesries"
  },
  {
    "postcode": "24999",
    "city": "Schleswig-Flensburg"
  },
  {
    "postcode": "24999",
    "city": "Himmershoi"
  },
  {
    "postcode": "24976",
    "city": "Schleswig-Flensburg"
  },
  {
    "postcode": "24976",
    "city": "Handewitt"
  },
  {
    "postcode": "24976",
    "city": "Weding"
  },
  {
    "postcode": "24976",
    "city": "Jarplund"
  },
  {
    "postcode": "24976",
    "city": "Wedingfeld"
  }
]