[
  {
    "postcode": "2906",
    "city": "Hohendubrau"
  },
  {
    "postcode": "2906",
    "city": "Klitten"
  },
  {
    "postcode": "2906",
    "city": "Kreba-Neudorf"
  },
  {
    "postcode": "2906",
    "city": "Mücka"
  },
  {
    "postcode": "2906",
    "city": "Niesky"
  },
  {
    "postcode": "2906",
    "city": "Quitzdorf am See"
  },
  {
    "postcode": "2906",
    "city": "Stannewisch"
  },
  {
    "postcode": "2906",
    "city": "Waldhufen"
  },
  {
    "postcode": "2906",
    "city": "Görlitz"
  },
  {
    "postcode": "2906",
    "city": "Groß Radisch"
  },
  {
    "postcode": "2906",
    "city": "Groß Saubernitz"
  },
  {
    "postcode": "2906",
    "city": "Weigersdorf"
  },
  {
    "postcode": "2906",
    "city": "Gebelzig"
  },
  {
    "postcode": "2906",
    "city": "Sandförstgen"
  },
  {
    "postcode": "2906",
    "city": "Dauban"
  },
  {
    "postcode": "2906",
    "city": "Ober Prauske"
  },
  {
    "postcode": "2906",
    "city": "Thräna"
  },
  {
    "postcode": "2906",
    "city": "Jerchwitz"
  },
  {
    "postcode": "2906",
    "city": "Neudorf"
  },
  {
    "postcode": "2906",
    "city": "Kreba"
  },
  {
    "postcode": "2906",
    "city": "Lache"
  },
  {
    "postcode": "2906",
    "city": "Tschernske"
  },
  {
    "postcode": "2906",
    "city": "Förstgen-Ost"
  },
  {
    "postcode": "2906",
    "city": "Förstgen/Ost"
  },
  {
    "postcode": "2906",
    "city": "Förstgen"
  },
  {
    "postcode": "2906",
    "city": "Förstgen/Leipgen"
  },
  {
    "postcode": "2906",
    "city": "Leipgen"
  },
  {
    "postcode": "2906",
    "city": "See"
  },
  {
    "postcode": "2906",
    "city": "Zeche Moholz"
  },
  {
    "postcode": "2906",
    "city": "Moholz"
  },
  {
    "postcode": "2906",
    "city": "Kosel"
  },
  {
    "postcode": "2906",
    "city": "Ödernitz"
  },
  {
    "postcode": "2906",
    "city": "Sandschenke"
  },
  {
    "postcode": "2906",
    "city": "Kollm"
  },
  {
    "postcode": "2906",
    "city": "Sproitz"
  },
  {
    "postcode": "2906",
    "city": "Steinölsa"
  },
  {
    "postcode": "2906",
    "city": "Petershain"
  },
  {
    "postcode": "2906",
    "city": "Horscha"
  },
  {
    "postcode": "2906",
    "city": "Diehsa"
  },
  {
    "postcode": "2906",
    "city": "Jänkendorf"
  },
  {
    "postcode": "2906",
    "city": "Nieder Seifersdorf"
  },
  {
    "postcode": "2906",
    "city": "Thiemendorf"
  },
  {
    "postcode": "2923",
    "city": "Hähnichen"
  },
  {
    "postcode": "2923",
    "city": "Horka Oberlausitz"
  },
  {
    "postcode": "2923",
    "city": "Horka"
  },
  {
    "postcode": "2923",
    "city": "Kodersdorf"
  },
  {
    "postcode": "2923",
    "city": "Neißeaue"
  },
  {
    "postcode": "2923",
    "city": "Quolsdorf"
  },
  {
    "postcode": "2923",
    "city": "Sandschenke"
  },
  {
    "postcode": "2923",
    "city": "Spree"
  },
  {
    "postcode": "2923",
    "city": "Stannewisch"
  },
  {
    "postcode": "2923",
    "city": "Görlitz"
  },
  {
    "postcode": "2923",
    "city": "Mückenhain"
  },
  {
    "postcode": "2923",
    "city": "Biehain"
  },
  {
    "postcode": "2923",
    "city": "Trebus"
  },
  {
    "postcode": "2923",
    "city": "Kodersdorf-Bahnhof"
  },
  {
    "postcode": "2923",
    "city": "Särichen"
  },
  {
    "postcode": "2923",
    "city": "Wiesa"
  },
  {
    "postcode": "2923",
    "city": "Torga"
  },
  {
    "postcode": "2929",
    "city": "Rothenburg / Oberlausitz"
  },
  {
    "postcode": "2929",
    "city": "Rothenburg"
  },
  {
    "postcode": "2929",
    "city": "Görlitz"
  },
  {
    "postcode": "2929",
    "city": "Rothenburg/O.L."
  },
  {
    "postcode": "2929",
    "city": "Uhsmannsdorf"
  },
  {
    "postcode": "2929",
    "city": "Lodenau"
  },
  {
    "postcode": "2929",
    "city": "Geheege"
  },
  {
    "postcode": "2929",
    "city": "Nieder-Neundorf"
  },
  {
    "postcode": "2929",
    "city": "Bremenhain"
  },
  {
    "postcode": "2929",
    "city": "Neusorge"
  },
  {
    "postcode": "2929",
    "city": "Dunkelhäuser"
  },
  {
    "postcode": "2929",
    "city": "Steinbach"
  },
  {
    "postcode": "2929",
    "city": "Kahlemeile"
  },
  {
    "postcode": "2929",
    "city": "Spreehammer"
  },
  {
    "postcode": "2943",
    "city": "Boxberg / Oberlausitz"
  },
  {
    "postcode": "2943",
    "city": "Boxberg"
  },
  {
    "postcode": "2943",
    "city": "Weißwasser / Oberlausitz"
  },
  {
    "postcode": "2943",
    "city": "Weißwasser"
  },
  {
    "postcode": "2943",
    "city": "Görlitz"
  },
  {
    "postcode": "2943",
    "city": "Boxberg/O.L."
  },
  {
    "postcode": "2943",
    "city": "Weißwasser/O.L."
  },
  {
    "postcode": "2943",
    "city": "Dürrbach"
  },
  {
    "postcode": "2943",
    "city": "Reichwalde"
  },
  {
    "postcode": "2943",
    "city": "Klitten"
  },
  {
    "postcode": "2943",
    "city": "Klein-Oelsa"
  },
  {
    "postcode": "2943",
    "city": "Bärwalde"
  },
  {
    "postcode": "2943",
    "city": "Uhyst"
  },
  {
    "postcode": "2943",
    "city": "Sprey"
  },
  {
    "postcode": "2943",
    "city": "Jahmen"
  },
  {
    "postcode": "2943",
    "city": "Nochten"
  },
  {
    "postcode": "2943",
    "city": "Mönau"
  },
  {
    "postcode": "2943",
    "city": "Tauer"
  },
  {
    "postcode": "2943",
    "city": "Kringelsdorf"
  },
  {
    "postcode": "2943",
    "city": "Kaschel"
  },
  {
    "postcode": "2943",
    "city": "Rauden"
  },
  {
    "postcode": "2943",
    "city": "Klein Radisch"
  },
  {
    "postcode": "2943",
    "city": "Drehna"
  },
  {
    "postcode": "2943",
    "city": "Zimpel"
  },
  {
    "postcode": "2953",
    "city": "Bad Muskau"
  },
  {
    "postcode": "2953",
    "city": "Gablenz Oberlausitz"
  },
  {
    "postcode": "2953",
    "city": "Gablenz"
  },
  {
    "postcode": "2953",
    "city": "Görlitz"
  },
  {
    "postcode": "2953",
    "city": "Gablenz-Kromlau"
  },
  {
    "postcode": "2953",
    "city": "Groß Düben"
  },
  {
    "postcode": "2953",
    "city": "Halbendorf"
  },
  {
    "postcode": "2953",
    "city": "Jämlitz-Klein Düben"
  },
  {
    "postcode": "2953",
    "city": "Köbeln"
  },
  {
    "postcode": "2953",
    "city": "Zschorno"
  },
  {
    "postcode": "2956",
    "city": "Rietschen"
  },
  {
    "postcode": "2956",
    "city": "Görlitz"
  },
  {
    "postcode": "2956",
    "city": "Neuliebel"
  },
  {
    "postcode": "2956",
    "city": "Daubitz"
  },
  {
    "postcode": "2956",
    "city": "Hammerstadt"
  },
  {
    "postcode": "2956",
    "city": "Altliebel"
  },
  {
    "postcode": "2956",
    "city": "Teicha"
  },
  {
    "postcode": "2957",
    "city": "Krauschwitz Oberlausitz"
  },
  {
    "postcode": "2957",
    "city": "Krauschwitz"
  },
  {
    "postcode": "2957",
    "city": "Weißkeißel"
  },
  {
    "postcode": "2957",
    "city": "Görlitz"
  },
  {
    "postcode": "2957",
    "city": "Krauschwitz i.d. O.L."
  },
  {
    "postcode": "2957",
    "city": "Podrosche"
  },
  {
    "postcode": "2957",
    "city": "Sagar"
  },
  {
    "postcode": "2957",
    "city": "Klein Priebus"
  },
  {
    "postcode": "2957",
    "city": "Skerbersdorf"
  },
  {
    "postcode": "2957",
    "city": "Pechern"
  },
  {
    "postcode": "2957",
    "city": "Werdeck"
  },
  {
    "postcode": "2957",
    "city": "Haide"
  },
  {
    "postcode": "2959",
    "city": "Groß Düben"
  },
  {
    "postcode": "2959",
    "city": "Schleife Oberlausitz"
  },
  {
    "postcode": "2959",
    "city": "Schleife"
  },
  {
    "postcode": "2959",
    "city": "Trebendorf bei Weißwasser"
  },
  {
    "postcode": "2959",
    "city": "Görlitz"
  },
  {
    "postcode": "2959",
    "city": "Schleife-Mulkwitz"
  },
  {
    "postcode": "2959",
    "city": "Schleife-Rohne"
  },
  {
    "postcode": "2959",
    "city": "Trebendorf"
  },
  {
    "postcode": "2959",
    "city": "Trebendorf-Mühlrose"
  },
  {
    "postcode": "2959",
    "city": "Mulkwitz"
  },
  {
    "postcode": "2959",
    "city": "Trebendorf NEU"
  },
  {
    "postcode": "2959",
    "city": "Trebendorf ALT"
  },
  {
    "postcode": "2977",
    "city": "Hoyerswerda"
  },
  {
    "postcode": "2977",
    "city": "Bautzen"
  },
  {
    "postcode": "2977",
    "city": "Zeißig"
  },
  {
    "postcode": "2977",
    "city": "Dörgenhausen"
  },
  {
    "postcode": "2977",
    "city": "Bröthen-Michalken"
  },
  {
    "postcode": "2977",
    "city": "Knappenrode"
  },
  {
    "postcode": "2977",
    "city": "Schwarzkollm"
  },
  {
    "postcode": "2977",
    "city": "Altstadt"
  },
  {
    "postcode": "2977",
    "city": "Neustadt"
  },
  {
    "postcode": "2977",
    "city": "Kühnicht"
  },
  {
    "postcode": "2977",
    "city": "Neida"
  },
  {
    "postcode": "2979",
    "city": "Elsterheide"
  },
  {
    "postcode": "2979",
    "city": "Spreetal"
  },
  {
    "postcode": "2979",
    "city": "Bautzen"
  },
  {
    "postcode": "2979",
    "city": "Bergen"
  },
  {
    "postcode": "2979",
    "city": "Sabrodt"
  },
  {
    "postcode": "2979",
    "city": "Nardt"
  },
  {
    "postcode": "2979",
    "city": "Bluno"
  },
  {
    "postcode": "2979",
    "city": "Seidewinkel"
  },
  {
    "postcode": "2979",
    "city": "Tätzschwitz"
  },
  {
    "postcode": "2979",
    "city": "Geierswalde"
  },
  {
    "postcode": "2979",
    "city": "Neuwiese"
  },
  {
    "postcode": "2979",
    "city": "Klein-Partwitz"
  },
  {
    "postcode": "2979",
    "city": "Burg"
  },
  {
    "postcode": "2979",
    "city": "Spreewitz"
  },
  {
    "postcode": "2979",
    "city": "Burghammer"
  },
  {
    "postcode": "2979",
    "city": "Burgneudorf"
  },
  {
    "postcode": "2979",
    "city": "Neustadt"
  },
  {
    "postcode": "2979",
    "city": "Zerre"
  },
  {
    "postcode": "2991",
    "city": "Elsterheide"
  },
  {
    "postcode": "2991",
    "city": "Lauta bei Hoyerswerda"
  },
  {
    "postcode": "2991",
    "city": "Leippe-Torno"
  },
  {
    "postcode": "2991",
    "city": "Bautzen"
  },
  {
    "postcode": "2991",
    "city": "Laubusch"
  },
  {
    "postcode": "2991",
    "city": "Lauta"
  },
  {
    "postcode": "2991",
    "city": "Lauta Dorf"
  },
  {
    "postcode": "2991",
    "city": "Laubusch-Siedlung"
  },
  {
    "postcode": "2991",
    "city": "Industrie- und Gewerbegebiet"
  },
  {
    "postcode": "2991",
    "city": "Leippe"
  },
  {
    "postcode": "2991",
    "city": "Torno"
  },
  {
    "postcode": "2994",
    "city": "Bernsdorf Oberlausitz"
  },
  {
    "postcode": "2994",
    "city": "Bernsdorf"
  },
  {
    "postcode": "2994",
    "city": "Wiednitz"
  },
  {
    "postcode": "2994",
    "city": "Bautzen"
  },
  {
    "postcode": "2994",
    "city": "Großgrabe"
  },
  {
    "postcode": "2994",
    "city": "Straßgräbchen"
  },
  {
    "postcode": "2994",
    "city": "Zeißholz"
  },
  {
    "postcode": "2997",
    "city": "Wittichenau"
  },
  {
    "postcode": "2997",
    "city": "Bautzen"
  },
  {
    "postcode": "2997",
    "city": "Maukendorf"
  },
  {
    "postcode": "2997",
    "city": "Brischko"
  },
  {
    "postcode": "2997",
    "city": "Dubring"
  },
  {
    "postcode": "2997",
    "city": "Hoske"
  },
  {
    "postcode": "2997",
    "city": "Keula"
  },
  {
    "postcode": "2997",
    "city": "Kotten"
  },
  {
    "postcode": "2997",
    "city": "Neudorf-Klösterlich"
  },
  {
    "postcode": "2997",
    "city": "Neudorf-Teichhaus"
  },
  {
    "postcode": "2997",
    "city": "Rachlau"
  },
  {
    "postcode": "2997",
    "city": "Saalau"
  },
  {
    "postcode": "2997",
    "city": "Sollschwitz"
  },
  {
    "postcode": "2997",
    "city": "Spohla"
  },
  {
    "postcode": "2999",
    "city": "Knappensee"
  },
  {
    "postcode": "2999",
    "city": "Lohsa"
  },
  {
    "postcode": "2999",
    "city": "Uhyst Spree"
  },
  {
    "postcode": "2999",
    "city": "Uhyst"
  },
  {
    "postcode": "2999",
    "city": "Bautzen"
  },
  {
    "postcode": "2999",
    "city": "Steinitz"
  },
  {
    "postcode": "2999",
    "city": "Groß Särchen"
  },
  {
    "postcode": "2999",
    "city": "Weißkollm"
  },
  {
    "postcode": "2999",
    "city": "Mortka"
  },
  {
    "postcode": "2999",
    "city": "Knappensee-Koblenz"
  },
  {
    "postcode": "2999",
    "city": "Friedersdorf"
  },
  {
    "postcode": "2999",
    "city": "Driewitz"
  },
  {
    "postcode": "2999",
    "city": "Litschen"
  },
  {
    "postcode": "2999",
    "city": "Weißig"
  },
  {
    "postcode": "2999",
    "city": "Tiegling"
  },
  {
    "postcode": "2999",
    "city": "Hermsdorf/Spree"
  },
  {
    "postcode": "2999",
    "city": "Riegel"
  },
  {
    "postcode": "2999",
    "city": "Lippen"
  },
  {
    "postcode": "2999",
    "city": "Neu Buchwalde"
  },
  {
    "postcode": "2999",
    "city": "Dreiweibern"
  },
  {
    "postcode": "2999",
    "city": "Hermsdorf"
  },
  {
    "postcode": "29221",
    "city": "Altencelle"
  },
  {
    "postcode": "29221",
    "city": "Celle"
  },
  {
    "postcode": "29221",
    "city": "Westercelle"
  },
  {
    "postcode": "29221",
    "city": "Blumlage"
  },
  {
    "postcode": "29221",
    "city": "Neuenhäusen"
  },
  {
    "postcode": "29221",
    "city": "Altstadt"
  },
  {
    "postcode": "29221",
    "city": "Hehlentor"
  },
  {
    "postcode": "29223",
    "city": "Altenhagen"
  },
  {
    "postcode": "29223",
    "city": "Boye"
  },
  {
    "postcode": "29223",
    "city": "Celle"
  },
  {
    "postcode": "29223",
    "city": "Klein Hehlen"
  },
  {
    "postcode": "29223",
    "city": "Lachtehausen"
  },
  {
    "postcode": "29223",
    "city": "Hehlentor"
  },
  {
    "postcode": "29223",
    "city": "Altstadt"
  },
  {
    "postcode": "29225",
    "city": "Celle"
  },
  {
    "postcode": "29225",
    "city": "Wietzenbruch"
  },
  {
    "postcode": "29225",
    "city": "Heese"
  },
  {
    "postcode": "29227",
    "city": "Altencelle"
  },
  {
    "postcode": "29227",
    "city": "Celle"
  },
  {
    "postcode": "29227",
    "city": "Westercelle"
  },
  {
    "postcode": "29227",
    "city": "Blumlage"
  },
  {
    "postcode": "29229",
    "city": "Altenhagen"
  },
  {
    "postcode": "29229",
    "city": "Bostel"
  },
  {
    "postcode": "29229",
    "city": "Celle"
  },
  {
    "postcode": "29229",
    "city": "Garßen"
  },
  {
    "postcode": "29229",
    "city": "Groß Hehlen"
  },
  {
    "postcode": "29229",
    "city": "Hustedt"
  },
  {
    "postcode": "29229",
    "city": "Scheuen"
  },
  {
    "postcode": "29229",
    "city": "Vorwerk"
  },
  {
    "postcode": "29229",
    "city": "Wittbeck"
  },
  {
    "postcode": "29229",
    "city": "Klein Hehlen"
  },
  {
    "postcode": "29303",
    "city": "Becklingen bei Wietzendorf"
  },
  {
    "postcode": "29303",
    "city": "Belsen Kreis Celle"
  },
  {
    "postcode": "29303",
    "city": "Belsen"
  },
  {
    "postcode": "29303",
    "city": "Bergen (Kreis Celle)"
  },
  {
    "postcode": "29303",
    "city": "Bergen"
  },
  {
    "postcode": "29303",
    "city": "Bleckmar"
  },
  {
    "postcode": "29303",
    "city": "Diesten Kreis Celle"
  },
  {
    "postcode": "29303",
    "city": "Diesten"
  },
  {
    "postcode": "29303",
    "city": "Dohnsen Kreis Celle"
  },
  {
    "postcode": "29303",
    "city": "Dohnsen"
  },
  {
    "postcode": "29303",
    "city": "Eversen Kreis Celle"
  },
  {
    "postcode": "29303",
    "city": "Eversen"
  },
  {
    "postcode": "29303",
    "city": "Hagen bei Bleckmar"
  },
  {
    "postcode": "29303",
    "city": "Hassel Kreis Celle"
  },
  {
    "postcode": "29303",
    "city": "Hassel"
  },
  {
    "postcode": "29303",
    "city": "Nindorf bei Soltau"
  },
  {
    "postcode": "29303",
    "city": "Offen"
  },
  {
    "postcode": "29303",
    "city": "Sülze Kreis Celle"
  },
  {
    "postcode": "29303",
    "city": "Sülze"
  },
  {
    "postcode": "29303",
    "city": "Wardböhmen"
  },
  {
    "postcode": "29303",
    "city": "Wohlde Kreis Celle"
  },
  {
    "postcode": "29303",
    "city": "Wohlde"
  },
  {
    "postcode": "29303",
    "city": "Celle"
  },
  {
    "postcode": "29303",
    "city": "Lohheide gemfr. Bezirk"
  },
  {
    "postcode": "29303",
    "city": "Miele"
  },
  {
    "postcode": "29303",
    "city": "Rehwinkel"
  },
  {
    "postcode": "29303",
    "city": "Südheide"
  },
  {
    "postcode": "29303",
    "city": "Becklingen"
  },
  {
    "postcode": "29303",
    "city": "Hagen"
  },
  {
    "postcode": "29303",
    "city": "Nindorf"
  },
  {
    "postcode": "29303",
    "city": "Bergen-Belsen"
  },
  {
    "postcode": "29303",
    "city": "Bergen-Hohne"
  },
  {
    "postcode": "29303",
    "city": "Hasselhorst"
  },
  {
    "postcode": "29303",
    "city": "Hörsten"
  },
  {
    "postcode": "29303",
    "city": "Vor dem Holze"
  },
  {
    "postcode": "29308",
    "city": "Bannetze"
  },
  {
    "postcode": "29308",
    "city": "Lohheide"
  },
  {
    "postcode": "29308",
    "city": "Meißendorf"
  },
  {
    "postcode": "29308",
    "city": "Stedden"
  },
  {
    "postcode": "29308",
    "city": "Südwinsen Aller"
  },
  {
    "postcode": "29308",
    "city": "Südwinsen"
  },
  {
    "postcode": "29308",
    "city": "Thören"
  },
  {
    "postcode": "29308",
    "city": "Walle Kreis Celle"
  },
  {
    "postcode": "29308",
    "city": "Walle"
  },
  {
    "postcode": "29308",
    "city": "Winsen"
  },
  {
    "postcode": "29308",
    "city": "Winsen (Aller)"
  },
  {
    "postcode": "29308",
    "city": "Wolthausen"
  },
  {
    "postcode": "29308",
    "city": "Celle"
  },
  {
    "postcode": "29308",
    "city": "Gemfr. Bezirk Lohheide"
  },
  {
    "postcode": "29313",
    "city": "Hambühren"
  },
  {
    "postcode": "29313",
    "city": "Hambühren I"
  },
  {
    "postcode": "29313",
    "city": "Oldau"
  },
  {
    "postcode": "29313",
    "city": "Ovelgönne Kreis Celle"
  },
  {
    "postcode": "29313",
    "city": "Ovelgönne"
  },
  {
    "postcode": "29313",
    "city": "Celle"
  },
  {
    "postcode": "29313",
    "city": "Hambühren II"
  },
  {
    "postcode": "29313",
    "city": "Allerhop"
  },
  {
    "postcode": "29313",
    "city": "Schönhop"
  },
  {
    "postcode": "29320",
    "city": "Barmbostel"
  },
  {
    "postcode": "29320",
    "city": "Baven Kreis Celle"
  },
  {
    "postcode": "29320",
    "city": "Baven"
  },
  {
    "postcode": "29320",
    "city": "Beckedorf Kreis Celle"
  },
  {
    "postcode": "29320",
    "city": "Beckedorf"
  },
  {
    "postcode": "29320",
    "city": "Bonstorf"
  },
  {
    "postcode": "29320",
    "city": "Hermannsburg"
  },
  {
    "postcode": "29320",
    "city": "Hetendorf"
  },
  {
    "postcode": "29320",
    "city": "Oldendorf Kreis Celle"
  },
  {
    "postcode": "29320",
    "city": "Oldendorf"
  },
  {
    "postcode": "29320",
    "city": "Weesen"
  },
  {
    "postcode": "29320",
    "city": "Celle"
  },
  {
    "postcode": "29320",
    "city": "Südheide"
  },
  {
    "postcode": "29323",
    "city": "Hornbostel"
  },
  {
    "postcode": "29323",
    "city": "Jeversen"
  },
  {
    "postcode": "29323",
    "city": "Wieckenberg"
  },
  {
    "postcode": "29323",
    "city": "Wietze"
  },
  {
    "postcode": "29323",
    "city": "Celle"
  },
  {
    "postcode": "29328",
    "city": "Faßberg"
  },
  {
    "postcode": "29328",
    "city": "Müden / Örtze"
  },
  {
    "postcode": "29328",
    "city": "Müden"
  },
  {
    "postcode": "29328",
    "city": "Poitzen"
  },
  {
    "postcode": "29328",
    "city": "Schmarbeck"
  },
  {
    "postcode": "29328",
    "city": "Celle"
  },
  {
    "postcode": "29328",
    "city": "Müden/Örtze"
  },
  {
    "postcode": "29331",
    "city": "Bunkenburg"
  },
  {
    "postcode": "29331",
    "city": "Gockenholz"
  },
  {
    "postcode": "29331",
    "city": "Jarnsen"
  },
  {
    "postcode": "29331",
    "city": "Lachendorf"
  },
  {
    "postcode": "29331",
    "city": "Lachendorf Kreis Celle"
  },
  {
    "postcode": "29331",
    "city": "Celle"
  },
  {
    "postcode": "29336",
    "city": "Nienhagen bei Celle"
  },
  {
    "postcode": "29336",
    "city": "Nienhorst"
  },
  {
    "postcode": "29336",
    "city": "Papenhorst"
  },
  {
    "postcode": "29336",
    "city": "Celle"
  },
  {
    "postcode": "29336",
    "city": "Nienhagen"
  },
  {
    "postcode": "29339",
    "city": "Kolonie"
  },
  {
    "postcode": "29339",
    "city": "Wathlingen"
  },
  {
    "postcode": "29339",
    "city": "Celle"
  },
  {
    "postcode": "29342",
    "city": "Bockelskamp"
  },
  {
    "postcode": "29342",
    "city": "Nordburg Kreis Celle"
  },
  {
    "postcode": "29342",
    "city": "Nordburg"
  },
  {
    "postcode": "29342",
    "city": "Offensen Kreis Celle"
  },
  {
    "postcode": "29342",
    "city": "Offensen"
  },
  {
    "postcode": "29342",
    "city": "Oppershausen Kreis Celle"
  },
  {
    "postcode": "29342",
    "city": "Oppershausen"
  },
  {
    "postcode": "29342",
    "city": "Schwachhausen Kreis Celle"
  },
  {
    "postcode": "29342",
    "city": "Schwachhausen"
  },
  {
    "postcode": "29342",
    "city": "Wienhausen"
  },
  {
    "postcode": "29342",
    "city": "Celle"
  },
  {
    "postcode": "29345",
    "city": "Lutterloh"
  },
  {
    "postcode": "29345",
    "city": "Unterlüß"
  },
  {
    "postcode": "29345",
    "city": "Celle"
  },
  {
    "postcode": "29345",
    "city": "Südheide"
  },
  {
    "postcode": "29345",
    "city": "Altensothrieth"
  },
  {
    "postcode": "29345",
    "city": "Lünsholz"
  },
  {
    "postcode": "29348",
    "city": "Dalle Kreis Celle"
  },
  {
    "postcode": "29348",
    "city": "Dalle"
  },
  {
    "postcode": "29348",
    "city": "Endeholz"
  },
  {
    "postcode": "29348",
    "city": "Eschede"
  },
  {
    "postcode": "29348",
    "city": "Kragen"
  },
  {
    "postcode": "29348",
    "city": "Lohe"
  },
  {
    "postcode": "29348",
    "city": "Marwede"
  },
  {
    "postcode": "29348",
    "city": "Rebberlah Kreis Celle"
  },
  {
    "postcode": "29348",
    "city": "Rebberlah"
  },
  {
    "postcode": "29348",
    "city": "Scharnhorst"
  },
  {
    "postcode": "29348",
    "city": "Scharnhorst Kreis Celle"
  },
  {
    "postcode": "29348",
    "city": "Schelploh"
  },
  {
    "postcode": "29348",
    "city": "Starkshorn Kreis Celle"
  },
  {
    "postcode": "29348",
    "city": "Starkshorn"
  },
  {
    "postcode": "29348",
    "city": "Weyhausen Kreis Celle"
  },
  {
    "postcode": "29348",
    "city": "Weyhausen"
  },
  {
    "postcode": "29348",
    "city": "Celle"
  },
  {
    "postcode": "29348",
    "city": "Queloh"
  },
  {
    "postcode": "29351",
    "city": "Bargfeld Kreis Celle"
  },
  {
    "postcode": "29351",
    "city": "Bargfeld"
  },
  {
    "postcode": "29351",
    "city": "Eldingen"
  },
  {
    "postcode": "29351",
    "city": "Grebshorn"
  },
  {
    "postcode": "29351",
    "city": "Heese Kreis Celle"
  },
  {
    "postcode": "29351",
    "city": "Heese"
  },
  {
    "postcode": "29351",
    "city": "Hohnhorst Kreis Celle"
  },
  {
    "postcode": "29351",
    "city": "Hohnhorst"
  },
  {
    "postcode": "29351",
    "city": "Luttern Kreis Celle"
  },
  {
    "postcode": "29351",
    "city": "Luttern"
  },
  {
    "postcode": "29351",
    "city": "Metzingen Kreis Celle"
  },
  {
    "postcode": "29351",
    "city": "Metzingen"
  },
  {
    "postcode": "29351",
    "city": "Wohlenrode"
  },
  {
    "postcode": "29351",
    "city": "Celle"
  },
  {
    "postcode": "29352",
    "city": "Adelheidsdorf"
  },
  {
    "postcode": "29352",
    "city": "Dasselsbruch Kreis Celle"
  },
  {
    "postcode": "29352",
    "city": "Dasselsbruch"
  },
  {
    "postcode": "29352",
    "city": "Großmoor Kreis Celle"
  },
  {
    "postcode": "29352",
    "city": "Großmoor"
  },
  {
    "postcode": "29352",
    "city": "Celle"
  },
  {
    "postcode": "29353",
    "city": "Ahnsbeck"
  },
  {
    "postcode": "29353",
    "city": "Celle"
  },
  {
    "postcode": "29355",
    "city": "Beedenbostel"
  },
  {
    "postcode": "29355",
    "city": "Celle"
  },
  {
    "postcode": "29356",
    "city": "Bröckel Kreis Celle"
  },
  {
    "postcode": "29356",
    "city": "Bröckel"
  },
  {
    "postcode": "29356",
    "city": "Celle"
  },
  {
    "postcode": "29358",
    "city": "Eicklingen"
  },
  {
    "postcode": "29358",
    "city": "Groß Eicklingen"
  },
  {
    "postcode": "29358",
    "city": "Klein Eicklingen"
  },
  {
    "postcode": "29358",
    "city": "Paulmannshavekost"
  },
  {
    "postcode": "29358",
    "city": "Sandlingen"
  },
  {
    "postcode": "29358",
    "city": "Schepelse"
  },
  {
    "postcode": "29358",
    "city": "Celle"
  },
  {
    "postcode": "29358",
    "city": "Neu-Schepelse"
  },
  {
    "postcode": "29359",
    "city": "Habighorst"
  },
  {
    "postcode": "29359",
    "city": "Celle"
  },
  {
    "postcode": "29359",
    "city": "Habighorster-Höhe"
  },
  {
    "postcode": "29359",
    "city": "Burghorn"
  },
  {
    "postcode": "29361",
    "city": "Höfer Kreis Celle"
  },
  {
    "postcode": "29361",
    "city": "Höfer"
  },
  {
    "postcode": "29361",
    "city": "Ohe Kreis Celle"
  },
  {
    "postcode": "29361",
    "city": "Ohe"
  },
  {
    "postcode": "29361",
    "city": "Celle"
  },
  {
    "postcode": "29362",
    "city": "Hohne bei Celle"
  },
  {
    "postcode": "29362",
    "city": "Spechtshorn Kreis Celle"
  },
  {
    "postcode": "29362",
    "city": "Spechtshorn"
  },
  {
    "postcode": "29362",
    "city": "Celle"
  },
  {
    "postcode": "29362",
    "city": "Hohne"
  },
  {
    "postcode": "29364",
    "city": "Hohnebostel Kreis Celle"
  },
  {
    "postcode": "29364",
    "city": "Hohnebostel"
  },
  {
    "postcode": "29364",
    "city": "Langlingen"
  },
  {
    "postcode": "29364",
    "city": "Langlingen bei Celle"
  },
  {
    "postcode": "29364",
    "city": "Nienhof über Celle"
  },
  {
    "postcode": "29364",
    "city": "Wiedenrode"
  },
  {
    "postcode": "29364",
    "city": "Celle"
  },
  {
    "postcode": "29364",
    "city": "Nienhof"
  },
  {
    "postcode": "29365",
    "city": "Behren"
  },
  {
    "postcode": "29365",
    "city": "Blickwedel"
  },
  {
    "postcode": "29365",
    "city": "Bokel Niedersachsen"
  },
  {
    "postcode": "29365",
    "city": "Bokel"
  },
  {
    "postcode": "29365",
    "city": "Hagen bei Sprakensehl"
  },
  {
    "postcode": "29365",
    "city": "Masel"
  },
  {
    "postcode": "29365",
    "city": "Sprakensehl"
  },
  {
    "postcode": "29365",
    "city": "Gifhorn"
  },
  {
    "postcode": "29365",
    "city": "Hagen"
  },
  {
    "postcode": "29367",
    "city": "Lüsche Niedersachsen"
  },
  {
    "postcode": "29367",
    "city": "Lüsche"
  },
  {
    "postcode": "29367",
    "city": "Räderloh"
  },
  {
    "postcode": "29367",
    "city": "Steinhorst"
  },
  {
    "postcode": "29367",
    "city": "Steinhorst Niedersachsen"
  },
  {
    "postcode": "29367",
    "city": "Gifhorn"
  },
  {
    "postcode": "29367",
    "city": "Auermühle"
  },
  {
    "postcode": "29369",
    "city": "Pollhöfen"
  },
  {
    "postcode": "29369",
    "city": "Ummern"
  },
  {
    "postcode": "29369",
    "city": "Gifhorn"
  },
  {
    "postcode": "29378",
    "city": "Boitzenhagen"
  },
  {
    "postcode": "29378",
    "city": "Darrigsdorf bei Wittingen Niedersachsen"
  },
  {
    "postcode": "29378",
    "city": "Darrigsdorf bei Wittingen"
  },
  {
    "postcode": "29378",
    "city": "Erpensen Niedersachsen"
  },
  {
    "postcode": "29378",
    "city": "Erpensen"
  },
  {
    "postcode": "29378",
    "city": "Eutzen"
  },
  {
    "postcode": "29378",
    "city": "Gannerwinkel"
  },
  {
    "postcode": "29378",
    "city": "Glüsingen bei Wittingen Niedersachsen"
  },
  {
    "postcode": "29378",
    "city": "Glüsingen bei Wittingen"
  },
  {
    "postcode": "29378",
    "city": "Kakerbeck bei Wittingen Niedersachsen"
  },
  {
    "postcode": "29378",
    "city": "Kakerbeck bei Wittingen"
  },
  {
    "postcode": "29378",
    "city": "Küstorf"
  },
  {
    "postcode": "29378",
    "city": "Lüben Niedersachsen"
  },
  {
    "postcode": "29378",
    "city": "Lüben"
  },
  {
    "postcode": "29378",
    "city": "Ohrdorf"
  },
  {
    "postcode": "29378",
    "city": "Plastau"
  },
  {
    "postcode": "29378",
    "city": "Rade Niedersachsen"
  },
  {
    "postcode": "29378",
    "city": "Rade"
  },
  {
    "postcode": "29378",
    "city": "Radenbeck bei Wittingen Niedersachsen"
  },
  {
    "postcode": "29378",
    "city": "Radenbeck bei Wittingen"
  },
  {
    "postcode": "29378",
    "city": "Schneflingen"
  },
  {
    "postcode": "29378",
    "city": "Stöcken bei Wittingen Niedersachsen"
  },
  {
    "postcode": "29378",
    "city": "Stöcken bei Wittingen"
  },
  {
    "postcode": "29378",
    "city": "Suderwittingen"
  },
  {
    "postcode": "29378",
    "city": "Teschendorf Niedersachsen"
  },
  {
    "postcode": "29378",
    "city": "Teschendorf"
  },
  {
    "postcode": "29378",
    "city": "Wittingen"
  },
  {
    "postcode": "29378",
    "city": "Wittingen Niedersachsen"
  },
  {
    "postcode": "29378",
    "city": "Wollerstorf bei Wittingen Niedersachsen"
  },
  {
    "postcode": "29378",
    "city": "Wollerstorf bei Wittingen"
  },
  {
    "postcode": "29378",
    "city": "Zasenbeck"
  },
  {
    "postcode": "29378",
    "city": "Gifhorn"
  },
  {
    "postcode": "29378",
    "city": "Radenbeck"
  },
  {
    "postcode": "29378",
    "city": "Darrigsdorf"
  },
  {
    "postcode": "29378",
    "city": "Glüsingen"
  },
  {
    "postcode": "29378",
    "city": "Kakerbeck"
  },
  {
    "postcode": "29378",
    "city": "Stöcken"
  },
  {
    "postcode": "29378",
    "city": "Wollerstorf"
  },
  {
    "postcode": "29379",
    "city": "Hagen bei Knesebeck"
  },
  {
    "postcode": "29379",
    "city": "Knesebeck"
  },
  {
    "postcode": "29379",
    "city": "Mahnburg"
  },
  {
    "postcode": "29379",
    "city": "Transvaal"
  },
  {
    "postcode": "29379",
    "city": "Vorhop"
  },
  {
    "postcode": "29379",
    "city": "Wittingen Niedersachsen"
  },
  {
    "postcode": "29379",
    "city": "Wittingen"
  },
  {
    "postcode": "29379",
    "city": "Wunderbüttel"
  },
  {
    "postcode": "29379",
    "city": "Gifhorn"
  },
  {
    "postcode": "29379",
    "city": "Hagen"
  },
  {
    "postcode": "29386",
    "city": "Allersehl"
  },
  {
    "postcode": "29386",
    "city": "Bottendorf"
  },
  {
    "postcode": "29386",
    "city": "Dedelstorf"
  },
  {
    "postcode": "29386",
    "city": "Emmen bei Wittingen Niedersachsen"
  },
  {
    "postcode": "29386",
    "city": "Emmen bei Wittingen"
  },
  {
    "postcode": "29386",
    "city": "Hankensbüttel"
  },
  {
    "postcode": "29386",
    "city": "Isenhagen"
  },
  {
    "postcode": "29386",
    "city": "Langwedel bei Wittingen Niedersachsen"
  },
  {
    "postcode": "29386",
    "city": "Langwedel bei Wittingen"
  },
  {
    "postcode": "29386",
    "city": "Lingwedel bei Wittingen Niedersachsen"
  },
  {
    "postcode": "29386",
    "city": "Lingwedel bei Wittingen"
  },
  {
    "postcode": "29386",
    "city": "Obernholz"
  },
  {
    "postcode": "29386",
    "city": "Oerrel bei Wittingen Niedersachsen"
  },
  {
    "postcode": "29386",
    "city": "Oerrel bei Wittingen"
  },
  {
    "postcode": "29386",
    "city": "Repke"
  },
  {
    "postcode": "29386",
    "city": "Schweimke"
  },
  {
    "postcode": "29386",
    "city": "Steimke bei Wittingen Niedersachsen"
  },
  {
    "postcode": "29386",
    "city": "Steimke bei Wittingen"
  },
  {
    "postcode": "29386",
    "city": "Weddersehl"
  },
  {
    "postcode": "29386",
    "city": "Wentorf"
  },
  {
    "postcode": "29386",
    "city": "Wettendorf"
  },
  {
    "postcode": "29386",
    "city": "Wierstorf"
  },
  {
    "postcode": "29386",
    "city": "Gifhorn"
  },
  {
    "postcode": "29386",
    "city": "Langwedel"
  },
  {
    "postcode": "29386",
    "city": "Lingwedel"
  },
  {
    "postcode": "29386",
    "city": "Oerrel"
  },
  {
    "postcode": "29386",
    "city": "Alt-Isenhagen"
  },
  {
    "postcode": "29386",
    "city": "Emmen"
  },
  {
    "postcode": "29386",
    "city": "Steimke"
  },
  {
    "postcode": "29389",
    "city": "Abbendorf bei Bodenteich"
  },
  {
    "postcode": "29389",
    "city": "Bad Bodenteich"
  },
  {
    "postcode": "29389",
    "city": "Bodenteich"
  },
  {
    "postcode": "29389",
    "city": "Bomke"
  },
  {
    "postcode": "29389",
    "city": "Flinten"
  },
  {
    "postcode": "29389",
    "city": "Häcklingen"
  },
  {
    "postcode": "29389",
    "city": "Overstedt"
  },
  {
    "postcode": "29389",
    "city": "Schafwedel"
  },
  {
    "postcode": "29389",
    "city": "Schostorf"
  },
  {
    "postcode": "29389",
    "city": "Uelzen"
  },
  {
    "postcode": "29389",
    "city": "Abbendorf"
  },
  {
    "postcode": "29389",
    "city": "Kuckstorf"
  },
  {
    "postcode": "29392",
    "city": "Wesendorf"
  },
  {
    "postcode": "29392",
    "city": "Wesendorf Niedersachsen"
  },
  {
    "postcode": "29392",
    "city": "Westerholz bei Wittingen Niedersachsen"
  },
  {
    "postcode": "29392",
    "city": "Westerholz bei Wittingen"
  },
  {
    "postcode": "29392",
    "city": "Gifhorn"
  },
  {
    "postcode": "29392",
    "city": "Westerholz"
  },
  {
    "postcode": "29392",
    "city": "Hammerstein-Siedlung"
  },
  {
    "postcode": "29393",
    "city": "Groß Oesingen"
  },
  {
    "postcode": "29393",
    "city": "Klein Oesingen"
  },
  {
    "postcode": "29393",
    "city": "Mahrenholz"
  },
  {
    "postcode": "29393",
    "city": "Zahrenholz"
  },
  {
    "postcode": "29393",
    "city": "Gifhorn"
  },
  {
    "postcode": "29393",
    "city": "Teichgut"
  },
  {
    "postcode": "29393",
    "city": "Wichelnförth"
  },
  {
    "postcode": "29394",
    "city": "Langenbrügge Niedersachsen"
  },
  {
    "postcode": "29394",
    "city": "Langenbrügge"
  },
  {
    "postcode": "29394",
    "city": "Lüder"
  },
  {
    "postcode": "29394",
    "city": "Reinstorf bei Bodenteich"
  },
  {
    "postcode": "29394",
    "city": "Röhrsen bei Bodenteich"
  },
  {
    "postcode": "29394",
    "city": "Uelzen"
  },
  {
    "postcode": "29394",
    "city": "Reinstorf"
  },
  {
    "postcode": "29394",
    "city": "Röhrsen"
  },
  {
    "postcode": "29396",
    "city": "Schönewörde"
  },
  {
    "postcode": "29396",
    "city": "Gifhorn"
  },
  {
    "postcode": "29399",
    "city": "Betzhorn"
  },
  {
    "postcode": "29399",
    "city": "Wahrenholz"
  },
  {
    "postcode": "29399",
    "city": "Weißes Moor"
  },
  {
    "postcode": "29399",
    "city": "Gifhorn"
  },
  {
    "postcode": "29399",
    "city": "Weißen Berge"
  },
  {
    "postcode": "29399",
    "city": "Teichgut"
  },
  {
    "postcode": "29410",
    "city": "Chüden"
  },
  {
    "postcode": "29410",
    "city": "Hansestadt Salzwedel"
  },
  {
    "postcode": "29410",
    "city": "Klein Chüden"
  },
  {
    "postcode": "29410",
    "city": "Altmarkkreis Salzwedel"
  },
  {
    "postcode": "29410",
    "city": "Salzwedel Hansestadt"
  },
  {
    "postcode": "29410",
    "city": "Brietz"
  },
  {
    "postcode": "29410",
    "city": "Kricheldorf"
  },
  {
    "postcode": "29410",
    "city": "Salzwedel"
  },
  {
    "postcode": "29410",
    "city": "Pretzier"
  },
  {
    "postcode": "29410",
    "city": "Mahlsdorf"
  },
  {
    "postcode": "29410",
    "city": "Cheine"
  },
  {
    "postcode": "29410",
    "city": "Chüttlitz"
  },
  {
    "postcode": "29410",
    "city": "Langenapel"
  },
  {
    "postcode": "29410",
    "city": "Dambeck"
  },
  {
    "postcode": "29410",
    "city": "Buchwitz"
  },
  {
    "postcode": "29410",
    "city": "Kemnitz"
  },
  {
    "postcode": "29410",
    "city": "Brewitz"
  },
  {
    "postcode": "29410",
    "city": "Groß Chüden"
  },
  {
    "postcode": "29410",
    "city": "Tylsen"
  },
  {
    "postcode": "29410",
    "city": "Seeben"
  },
  {
    "postcode": "29410",
    "city": "Niephagen"
  },
  {
    "postcode": "29410",
    "city": "Darsekau"
  },
  {
    "postcode": "29410",
    "city": "Hoyersburg"
  },
  {
    "postcode": "29410",
    "city": "Stappenbeck"
  },
  {
    "postcode": "29410",
    "city": "Ziethnitz"
  },
  {
    "postcode": "29410",
    "city": "Andorf"
  },
  {
    "postcode": "29410",
    "city": "Ritze"
  },
  {
    "postcode": "29410",
    "city": "Böddenstedt"
  },
  {
    "postcode": "29410",
    "city": "Barnebeck"
  },
  {
    "postcode": "29410",
    "city": "Benkendorf"
  },
  {
    "postcode": "29410",
    "city": "Bombeck"
  },
  {
    "postcode": "29410",
    "city": "Büssen"
  },
  {
    "postcode": "29410",
    "city": "Depekolk"
  },
  {
    "postcode": "29410",
    "city": "Eversdorf"
  },
  {
    "postcode": "29410",
    "city": "Groß Gerstedt"
  },
  {
    "postcode": "29410",
    "city": "Groß Grabenstedt"
  },
  {
    "postcode": "29410",
    "city": "Groß Wieblitz"
  },
  {
    "postcode": "29410",
    "city": "Henningen"
  },
  {
    "postcode": "29410",
    "city": "Hestedt"
  },
  {
    "postcode": "29410",
    "city": "Jeebel"
  },
  {
    "postcode": "29410",
    "city": "Liesten"
  },
  {
    "postcode": "29410",
    "city": "Königstedt"
  },
  {
    "postcode": "29410",
    "city": "Klein Gartz"
  },
  {
    "postcode": "29410",
    "city": "Klein Gerstedt"
  },
  {
    "postcode": "29410",
    "city": "Klein Grabenstedt"
  },
  {
    "postcode": "29410",
    "city": "Klein Wieblitz"
  },
  {
    "postcode": "29410",
    "city": "Sienau"
  },
  {
    "postcode": "29410",
    "city": "Maxdorf"
  },
  {
    "postcode": "29410",
    "city": "Osterwohle"
  },
  {
    "postcode": "29410",
    "city": "Riebau"
  },
  {
    "postcode": "29410",
    "city": "Rockenthin"
  },
  {
    "postcode": "29410",
    "city": "Wistedt"
  },
  {
    "postcode": "29413",
    "city": "Bonese"
  },
  {
    "postcode": "29413",
    "city": "Bornsen bei Salzwedel"
  },
  {
    "postcode": "29413",
    "city": "Dähre"
  },
  {
    "postcode": "29413",
    "city": "Ellenberg Altmark"
  },
  {
    "postcode": "29413",
    "city": "Ellenberg"
  },
  {
    "postcode": "29413",
    "city": "Flecken Diesdorf"
  },
  {
    "postcode": "29413",
    "city": "Gieseritz"
  },
  {
    "postcode": "29413",
    "city": "Henningen bei Salzwedel"
  },
  {
    "postcode": "29413",
    "city": "Lagendorf"
  },
  {
    "postcode": "29413",
    "city": "Langenapel"
  },
  {
    "postcode": "29413",
    "city": "Mehmke"
  },
  {
    "postcode": "29413",
    "city": "Neuekrug bei Salzwedel"
  },
  {
    "postcode": "29413",
    "city": "Osterwohle"
  },
  {
    "postcode": "29413",
    "city": "Seebenau"
  },
  {
    "postcode": "29413",
    "city": "Tylsen"
  },
  {
    "postcode": "29413",
    "city": "Wallstawe"
  },
  {
    "postcode": "29413",
    "city": "Altmarkkreis Salzwedel"
  },
  {
    "postcode": "29413",
    "city": "Diesdorf"
  },
  {
    "postcode": "29413",
    "city": "Abbendorf"
  },
  {
    "postcode": "29413",
    "city": "Reddigau"
  },
  {
    "postcode": "29413",
    "city": "Bergmoor"
  },
  {
    "postcode": "29413",
    "city": "Neuekrug"
  },
  {
    "postcode": "29413",
    "city": "Dankensen"
  },
  {
    "postcode": "29413",
    "city": "Wüllmersen"
  },
  {
    "postcode": "29413",
    "city": "Waddekath"
  },
  {
    "postcode": "29413",
    "city": "Dülseberg"
  },
  {
    "postcode": "29413",
    "city": "Haselhorst"
  },
  {
    "postcode": "29413",
    "city": "Höddelsen"
  },
  {
    "postcode": "29413",
    "city": "Hohenböddenstedt"
  },
  {
    "postcode": "29413",
    "city": "Hohengrieben"
  },
  {
    "postcode": "29413",
    "city": "Lindhof"
  },
  {
    "postcode": "29413",
    "city": "Molmke"
  },
  {
    "postcode": "29413",
    "city": "Peckensen"
  },
  {
    "postcode": "29413",
    "city": "Schadeberg"
  },
  {
    "postcode": "29413",
    "city": "Schadewohl"
  },
  {
    "postcode": "29413",
    "city": "Winkelstedt"
  },
  {
    "postcode": "29413",
    "city": "Rustenbeck"
  },
  {
    "postcode": "29413",
    "city": "Dahrendorf"
  },
  {
    "postcode": "29413",
    "city": "Eickhorst"
  },
  {
    "postcode": "29413",
    "city": "Fahrendorf"
  },
  {
    "postcode": "29413",
    "city": "Hohendolsleben"
  },
  {
    "postcode": "29413",
    "city": "Holzhausen"
  },
  {
    "postcode": "29413",
    "city": "Kleistau"
  },
  {
    "postcode": "29413",
    "city": "Kortenbeck"
  },
  {
    "postcode": "29413",
    "city": "Markau"
  },
  {
    "postcode": "29413",
    "city": "Schmölau"
  },
  {
    "postcode": "29413",
    "city": "Siedendolsleben"
  },
  {
    "postcode": "29413",
    "city": "Wendischhorst"
  },
  {
    "postcode": "29413",
    "city": "Wiewohl"
  },
  {
    "postcode": "29413",
    "city": "Wiersdorf"
  },
  {
    "postcode": "29413",
    "city": "Umfelde"
  },
  {
    "postcode": "29413",
    "city": "Nipkendey"
  },
  {
    "postcode": "29413",
    "city": "Hilmsen"
  },
  {
    "postcode": "29413",
    "city": "Deutschhorst"
  },
  {
    "postcode": "29416",
    "city": "Altensalzwedel"
  },
  {
    "postcode": "29416",
    "city": "Benkendorf bei Salzwedel"
  },
  {
    "postcode": "29416",
    "city": "Bierstedt"
  },
  {
    "postcode": "29416",
    "city": "Binde"
  },
  {
    "postcode": "29416",
    "city": "Chüden"
  },
  {
    "postcode": "29416",
    "city": "Fleetmark"
  },
  {
    "postcode": "29416",
    "city": "Gischau"
  },
  {
    "postcode": "29416",
    "city": "Jeggeleben"
  },
  {
    "postcode": "29416",
    "city": "Kaulitz"
  },
  {
    "postcode": "29416",
    "city": "Kerkau"
  },
  {
    "postcode": "29416",
    "city": "Klein Gartz"
  },
  {
    "postcode": "29416",
    "city": "Kuhfelde"
  },
  {
    "postcode": "29416",
    "city": "Liesten"
  },
  {
    "postcode": "29416",
    "city": "Mechau"
  },
  {
    "postcode": "29416",
    "city": "Pretzier"
  },
  {
    "postcode": "29416",
    "city": "Püggen bei Salzwedel"
  },
  {
    "postcode": "29416",
    "city": "Rademin"
  },
  {
    "postcode": "29416",
    "city": "Riebau"
  },
  {
    "postcode": "29416",
    "city": "Siedenlangenbeck"
  },
  {
    "postcode": "29416",
    "city": "Stappenbeck"
  },
  {
    "postcode": "29416",
    "city": "Steinitz Altmark"
  },
  {
    "postcode": "29416",
    "city": "Steinitz"
  },
  {
    "postcode": "29416",
    "city": "Valfitz"
  },
  {
    "postcode": "29416",
    "city": "Vissum"
  },
  {
    "postcode": "29416",
    "city": "Wieblitz-Eversdorf"
  },
  {
    "postcode": "29416",
    "city": "Winterfeld bei Salzwedel"
  },
  {
    "postcode": "29416",
    "city": "Altmarkkreis Salzwedel"
  },
  {
    "postcode": "29416",
    "city": "Leetze"
  },
  {
    "postcode": "29416",
    "city": "Hohenlangenbeck"
  },
  {
    "postcode": "29416",
    "city": "Püggen"
  },
  {
    "postcode": "29416",
    "city": "Schieben"
  },
  {
    "postcode": "29416",
    "city": "Vitzke"
  },
  {
    "postcode": "29416",
    "city": "Wöpel"
  },
  {
    "postcode": "29416",
    "city": "Wötz"
  },
  {
    "postcode": "29439",
    "city": "Banneick"
  },
  {
    "postcode": "29439",
    "city": "Beutow"
  },
  {
    "postcode": "29439",
    "city": "Bösel Kreis Lüchow-Dannenberg"
  },
  {
    "postcode": "29439",
    "city": "Bösel"
  },
  {
    "postcode": "29439",
    "city": "Gollau"
  },
  {
    "postcode": "29439",
    "city": "Grabow Kreis Lüchow-Dannenberg"
  },
  {
    "postcode": "29439",
    "city": "Grabow"
  },
  {
    "postcode": "29439",
    "city": "Jabel"
  },
  {
    "postcode": "29439",
    "city": "Jeetzel Kreis Lüchow-Dannenberg"
  },
  {
    "postcode": "29439",
    "city": "Jeetzel"
  },
  {
    "postcode": "29439",
    "city": "Kolborn"
  },
  {
    "postcode": "29439",
    "city": "Krautze"
  },
  {
    "postcode": "29439",
    "city": "Künsche"
  },
  {
    "postcode": "29439",
    "city": "Loge"
  },
  {
    "postcode": "29439",
    "city": "Lüchow (Wendland)"
  },
  {
    "postcode": "29439",
    "city": "Lüchow"
  },
  {
    "postcode": "29439",
    "city": "Lüsen"
  },
  {
    "postcode": "29439",
    "city": "Müggenburg Kreis Lüchow-Dannenberg"
  },
  {
    "postcode": "29439",
    "city": "Müggenburg"
  },
  {
    "postcode": "29439",
    "city": "Plate Kreis Lüchow-Dannenberg"
  },
  {
    "postcode": "29439",
    "city": "Plate"
  },
  {
    "postcode": "29439",
    "city": "Ranzau"
  },
  {
    "postcode": "29439",
    "city": "Reddebeitz Kreis Lüchow-Dannenberg"
  },
  {
    "postcode": "29439",
    "city": "Reddebeitz"
  },
  {
    "postcode": "29439",
    "city": "Reetze"
  },
  {
    "postcode": "29439",
    "city": "Rehbeck in der Lucie"
  },
  {
    "postcode": "29439",
    "city": "Saaße Kreis Lüchow-Dannenberg"
  },
  {
    "postcode": "29439",
    "city": "Saaße"
  },
  {
    "postcode": "29439",
    "city": "Satemin"
  },
  {
    "postcode": "29439",
    "city": "Seerau in der Lucie"
  },
  {
    "postcode": "29439",
    "city": "Tarmitz"
  },
  {
    "postcode": "29439",
    "city": "Weitsche"
  },
  {
    "postcode": "29439",
    "city": "Lüchow-Dannenberg"
  },
  {
    "postcode": "29439",
    "city": "Rehbeck"
  },
  {
    "postcode": "29439",
    "city": "Obergut"
  },
  {
    "postcode": "29451",
    "city": "Breese in der Marsch"
  },
  {
    "postcode": "29451",
    "city": "Bückau"
  },
  {
    "postcode": "29451",
    "city": "Dambeck"
  },
  {
    "postcode": "29451",
    "city": "Dannenberg"
  },
  {
    "postcode": "29451",
    "city": "Dannenberg (Elbe)"
  },
  {
    "postcode": "29451",
    "city": "Groß Heide Kreis Lüchow-Dannenberg"
  },
  {
    "postcode": "29451",
    "city": "Groß Heide"
  },
  {
    "postcode": "29451",
    "city": "Gümse"
  },
  {
    "postcode": "29451",
    "city": "Klein Heide Kreis Lüchow-Dannenberg"
  },
  {
    "postcode": "29451",
    "city": "Klein Heide"
  },
  {
    "postcode": "29451",
    "city": "Liepehöfen"
  },
  {
    "postcode": "29451",
    "city": "Lüggau Elbe"
  },
  {
    "postcode": "29451",
    "city": "Lüggau"
  },
  {
    "postcode": "29451",
    "city": "Nebenstedt"
  },
  {
    "postcode": "29451",
    "city": "Neu Tramm Kreis Lüchow-Dannenberg"
  },
  {
    "postcode": "29451",
    "city": "Neu Tramm"
  },
  {
    "postcode": "29451",
    "city": "Niestedt Elbe"
  },
  {
    "postcode": "29451",
    "city": "Niestedt"
  },
  {
    "postcode": "29451",
    "city": "Penkefitz"
  },
  {
    "postcode": "29451",
    "city": "Pisselberg Elbe"
  },
  {
    "postcode": "29451",
    "city": "Pisselberg"
  },
  {
    "postcode": "29451",
    "city": "Prabstorf Kreis Lüchow-Dannenberg"
  },
  {
    "postcode": "29451",
    "city": "Prabstorf"
  },
  {
    "postcode": "29451",
    "city": "Predöhlsau Elbe"
  },
  {
    "postcode": "29451",
    "city": "Predöhlsau"
  },
  {
    "postcode": "29451",
    "city": "Prisser"
  },
  {
    "postcode": "29451",
    "city": "Riekau Kreis Lüchow-Dannenberg"
  },
  {
    "postcode": "29451",
    "city": "Riekau"
  },
  {
    "postcode": "29451",
    "city": "Riskau Kreis Lüchow-Dannenberg"
  },
  {
    "postcode": "29451",
    "city": "Riskau"
  },
  {
    "postcode": "29451",
    "city": "Schaafhausen Kreis Lüchow-Dannenberg"
  },
  {
    "postcode": "29451",
    "city": "Schaafhausen"
  },
  {
    "postcode": "29451",
    "city": "Schmarsau"
  },
  {
    "postcode": "29451",
    "city": "Seedorf"
  },
  {
    "postcode": "29451",
    "city": "Seybruch"
  },
  {
    "postcode": "29451",
    "city": "Sipnitz Elbe"
  },
  {
    "postcode": "29451",
    "city": "Sipnitz"
  },
  {
    "postcode": "29451",
    "city": "Soven"
  },
  {
    "postcode": "29451",
    "city": "Splietau"
  },
  {
    "postcode": "29451",
    "city": "Streetz Kreis Lüchow-Dannenberg"
  },
  {
    "postcode": "29451",
    "city": "Streetz"
  },
  {
    "postcode": "29451",
    "city": "Tramm Kreis Lüchow-Dannenberg"
  },
  {
    "postcode": "29451",
    "city": "Tramm"
  },
  {
    "postcode": "29451",
    "city": "Tripkau Kreis Lüchow-Dannenberg"
  },
  {
    "postcode": "29451",
    "city": "Tripkau"
  },
  {
    "postcode": "29451",
    "city": "Lüchow-Dannenberg"
  },
  {
    "postcode": "29451",
    "city": "Gem Gusborn"
  },
  {
    "postcode": "29456",
    "city": "Bahrendorf"
  },
  {
    "postcode": "29456",
    "city": "Eichengrund"
  },
  {
    "postcode": "29456",
    "city": "Grabau Elbe"
  },
  {
    "postcode": "29456",
    "city": "Grabau"
  },
  {
    "postcode": "29456",
    "city": "Hagen Gut"
  },
  {
    "postcode": "29456",
    "city": "Hagen"
  },
  {
    "postcode": "29456",
    "city": "Harlingen"
  },
  {
    "postcode": "29456",
    "city": "Hitzacker"
  },
  {
    "postcode": "29456",
    "city": "Hitzacker (Elbe)"
  },
  {
    "postcode": "29456",
    "city": "Kähmen"
  },
  {
    "postcode": "29456",
    "city": "Leitstade"
  },
  {
    "postcode": "29456",
    "city": "Meudelfitz Gut"
  },
  {
    "postcode": "29456",
    "city": "Meudelfitz"
  },
  {
    "postcode": "29456",
    "city": "Meudelfitz Siedlung"
  },
  {
    "postcode": "29456",
    "city": "Nienwedel Elbe"
  },
  {
    "postcode": "29456",
    "city": "Nienwedel"
  },
  {
    "postcode": "29456",
    "city": "Posade Forsthaus"
  },
  {
    "postcode": "29456",
    "city": "Posade"
  },
  {
    "postcode": "29456",
    "city": "Pussade"
  },
  {
    "postcode": "29456",
    "city": "Sarchem"
  },
  {
    "postcode": "29456",
    "city": "Seerau"
  },
  {
    "postcode": "29456",
    "city": "Tießau"
  },
  {
    "postcode": "29456",
    "city": "Tiesmesland"
  },
  {
    "postcode": "29456",
    "city": "Wietzetze bei Hitzacker"
  },
  {
    "postcode": "29456",
    "city": "Wussegel"
  },
  {
    "postcode": "29456",
    "city": "Lüchow-Dannenberg"
  },
  {
    "postcode": "29456",
    "city": "Wietzetze"
  },
  {
    "postcode": "29456",
    "city": "Siedlung Meudelfitz"
  },
  {
    "postcode": "29459",
    "city": "Bausen Kreis Lüchow-Dannenberg"
  },
  {
    "postcode": "29459",
    "city": "Bausen"
  },
  {
    "postcode": "29459",
    "city": "Beseland"
  },
  {
    "postcode": "29459",
    "city": "Bösen"
  },
  {
    "postcode": "29459",
    "city": "Braudel"
  },
  {
    "postcode": "29459",
    "city": "Bussau"
  },
  {
    "postcode": "29459",
    "city": "Clenze"
  },
  {
    "postcode": "29459",
    "city": "Dalitz"
  },
  {
    "postcode": "29459",
    "city": "Gistenbeck"
  },
  {
    "postcode": "29459",
    "city": "Gohlefanz"
  },
  {
    "postcode": "29459",
    "city": "Granstedt Kreis Lüchow-Dannenberg"
  },
  {
    "postcode": "29459",
    "city": "Granstedt"
  },
  {
    "postcode": "29459",
    "city": "Groß Sachau"
  },
  {
    "postcode": "29459",
    "city": "Guhreitzen"
  },
  {
    "postcode": "29459",
    "city": "Kassau Niedersachsen"
  },
  {
    "postcode": "29459",
    "city": "Kassau"
  },
  {
    "postcode": "29459",
    "city": "Kloster"
  },
  {
    "postcode": "29459",
    "city": "Korvin"
  },
  {
    "postcode": "29459",
    "city": "Kussebode"
  },
  {
    "postcode": "29459",
    "city": "Lefitz"
  },
  {
    "postcode": "29459",
    "city": "Meußließen"
  },
  {
    "postcode": "29459",
    "city": "Mützen"
  },
  {
    "postcode": "29459",
    "city": "Prießeck"
  },
  {
    "postcode": "29459",
    "city": "Quartzau"
  },
  {
    "postcode": "29459",
    "city": "Reddereitz"
  },
  {
    "postcode": "29459",
    "city": "Satkau"
  },
  {
    "postcode": "29459",
    "city": "Schlannau"
  },
  {
    "postcode": "29459",
    "city": "Seelwig"
  },
  {
    "postcode": "29459",
    "city": "Vaddensen"
  },
  {
    "postcode": "29459",
    "city": "Lüchow-Dannenberg"
  },
  {
    "postcode": "29459",
    "city": "Klein Sachau"
  },
  {
    "postcode": "29462",
    "city": "Blütlingen"
  },
  {
    "postcode": "29462",
    "city": "Dolgow"
  },
  {
    "postcode": "29462",
    "city": "Ganse"
  },
  {
    "postcode": "29462",
    "city": "Güstritz"
  },
  {
    "postcode": "29462",
    "city": "Lensian"
  },
  {
    "postcode": "29462",
    "city": "Neritz"
  },
  {
    "postcode": "29462",
    "city": "Schreyahn"
  },
  {
    "postcode": "29462",
    "city": "Teplingen"
  },
  {
    "postcode": "29462",
    "city": "Wustrow (Wendland)"
  },
  {
    "postcode": "29462",
    "city": "Wustrow"
  },
  {
    "postcode": "29462",
    "city": "Lüchow-Dannenberg"
  },
  {
    "postcode": "29462",
    "city": "Königshorst"
  },
  {
    "postcode": "29462",
    "city": "Klennow"
  },
  {
    "postcode": "29462",
    "city": "Teutonia"
  },
  {
    "postcode": "29465",
    "city": "Bahnhof Varbitz"
  },
  {
    "postcode": "29465",
    "city": "Billerbeck Kreis Lüchow-Dannenberg"
  },
  {
    "postcode": "29465",
    "city": "Billerbeck"
  },
  {
    "postcode": "29465",
    "city": "Gielau Kreis Lüchow-Dannenberg"
  },
  {
    "postcode": "29465",
    "city": "Gielau"
  },
  {
    "postcode": "29465",
    "city": "Gielauer Mühle"
  },
  {
    "postcode": "29465",
    "city": "Gledeberg Kreis Lüchow-Dannenberg"
  },
  {
    "postcode": "29465",
    "city": "Gledeberg"
  },
  {
    "postcode": "29465",
    "city": "Göhr"
  },
  {
    "postcode": "29465",
    "city": "Grotenhof"
  },
  {
    "postcode": "29465",
    "city": "Harpe Kreis Lüchow-Dannenberg"
  },
  {
    "postcode": "29465",
    "city": "Harpe"
  },
  {
    "postcode": "29465",
    "city": "Harper Mühle"
  },
  {
    "postcode": "29465",
    "city": "Kreyenhagen"
  },
  {
    "postcode": "29465",
    "city": "Külitz Kreis Lüchow-Dannenberg"
  },
  {
    "postcode": "29465",
    "city": "Külitz"
  },
  {
    "postcode": "29465",
    "city": "Leisten"
  },
  {
    "postcode": "29465",
    "city": "Loitze"
  },
  {
    "postcode": "29465",
    "city": "Lütenthien"
  },
  {
    "postcode": "29465",
    "city": "Molden"
  },
  {
    "postcode": "29465",
    "city": "Oldendorf"
  },
  {
    "postcode": "29465",
    "city": "Oldendorfer Mühle"
  },
  {
    "postcode": "29465",
    "city": "Proitze"
  },
  {
    "postcode": "29465",
    "city": "Proitzer Mühle"
  },
  {
    "postcode": "29465",
    "city": "Schäpingen Kreis Lüchow-Dannenberg"
  },
  {
    "postcode": "29465",
    "city": "Schäpingen"
  },
  {
    "postcode": "29465",
    "city": "Schnega"
  },
  {
    "postcode": "29465",
    "city": "Schnega / Bahnhof"
  },
  {
    "postcode": "29465",
    "city": "Solkau"
  },
  {
    "postcode": "29465",
    "city": "Starrel"
  },
  {
    "postcode": "29465",
    "city": "Thune Kreis Lüchow-Dannenberg"
  },
  {
    "postcode": "29465",
    "city": "Thune"
  },
  {
    "postcode": "29465",
    "city": "Warpke Kreis Lüchow-Dannenberg"
  },
  {
    "postcode": "29465",
    "city": "Warpke"
  },
  {
    "postcode": "29465",
    "city": "Winterweyhe"
  },
  {
    "postcode": "29465",
    "city": "Lüchow-Dannenberg"
  },
  {
    "postcode": "29465",
    "city": "Schnega-Bahnhof"
  },
  {
    "postcode": "29465",
    "city": "Eggerling"
  },
  {
    "postcode": "29465",
    "city": "Galley Berg"
  },
  {
    "postcode": "29468",
    "city": "Banzau Dumme"
  },
  {
    "postcode": "29468",
    "city": "Banzau"
  },
  {
    "postcode": "29468",
    "city": "Belau Dumme"
  },
  {
    "postcode": "29468",
    "city": "Belau"
  },
  {
    "postcode": "29468",
    "city": "Bergen"
  },
  {
    "postcode": "29468",
    "city": "Bergen an der Dumme"
  },
  {
    "postcode": "29468",
    "city": "Brüchauer Mühle"
  },
  {
    "postcode": "29468",
    "city": "Jiggel"
  },
  {
    "postcode": "29468",
    "city": "Malsleben Dumme"
  },
  {
    "postcode": "29468",
    "city": "Malsleben"
  },
  {
    "postcode": "29468",
    "city": "Nienbergen Dumme"
  },
  {
    "postcode": "29468",
    "city": "Nienbergen"
  },
  {
    "postcode": "29468",
    "city": "Spithal"
  },
  {
    "postcode": "29468",
    "city": "Wöhningen Dumme"
  },
  {
    "postcode": "29468",
    "city": "Wöhningen"
  },
  {
    "postcode": "29468",
    "city": "Lüchow-Dannenberg"
  },
  {
    "postcode": "29471",
    "city": "Falkenmoor Elbe"
  },
  {
    "postcode": "29471",
    "city": "Falkenmoor"
  },
  {
    "postcode": "29471",
    "city": "Gartow"
  },
  {
    "postcode": "29471",
    "city": "Gartow Elbe"
  },
  {
    "postcode": "29471",
    "city": "Laasche Elbe"
  },
  {
    "postcode": "29471",
    "city": "Laasche"
  },
  {
    "postcode": "29471",
    "city": "Nienwalde"
  },
  {
    "postcode": "29471",
    "city": "Quarnstedt Elbe"
  },
  {
    "postcode": "29471",
    "city": "Quarnstedt"
  },
  {
    "postcode": "29471",
    "city": "Rondel Elbe"
  },
  {
    "postcode": "29471",
    "city": "Rondel"
  },
  {
    "postcode": "29471",
    "city": "Rucksmoor"
  },
  {
    "postcode": "29471",
    "city": "Lüchow-Dannenberg"
  },
  {
    "postcode": "29472",
    "city": "Barnitz"
  },
  {
    "postcode": "29472",
    "city": "Damnatz"
  },
  {
    "postcode": "29472",
    "city": "Jasebeck"
  },
  {
    "postcode": "29472",
    "city": "Kamerun"
  },
  {
    "postcode": "29472",
    "city": "Landsatz"
  },
  {
    "postcode": "29472",
    "city": "Lüchow-Dannenberg"
  },
  {
    "postcode": "29472",
    "city": "Uhlenhorst"
  },
  {
    "postcode": "29473",
    "city": "Bredenbock"
  },
  {
    "postcode": "29473",
    "city": "Dübbekold"
  },
  {
    "postcode": "29473",
    "city": "Göhrde"
  },
  {
    "postcode": "29473",
    "city": "Govelin"
  },
  {
    "postcode": "29473",
    "city": "Kollase"
  },
  {
    "postcode": "29473",
    "city": "Mailage Kreis Lüchow-Dannenberg"
  },
  {
    "postcode": "29473",
    "city": "Mailage"
  },
  {
    "postcode": "29473",
    "city": "Metzingen Niedersachsen"
  },
  {
    "postcode": "29473",
    "city": "Metzingen"
  },
  {
    "postcode": "29473",
    "city": "Nadlitz"
  },
  {
    "postcode": "29473",
    "city": "Plumbohm Kreis Lüchow-Dannenberg"
  },
  {
    "postcode": "29473",
    "city": "Plumbohm"
  },
  {
    "postcode": "29473",
    "city": "Sarenseck"
  },
  {
    "postcode": "29473",
    "city": "Schmardau Kreis Lüchow-Dannenberg"
  },
  {
    "postcode": "29473",
    "city": "Schmardau"
  },
  {
    "postcode": "29473",
    "city": "Schmessau Kreis Lüchow-Dannenberg"
  },
  {
    "postcode": "29473",
    "city": "Schmessau"
  },
  {
    "postcode": "29473",
    "city": "Schnadlitz"
  },
  {
    "postcode": "29473",
    "city": "Tollendorf"
  },
  {
    "postcode": "29473",
    "city": "Wedderien Kreis Lüchow-Dannenberg"
  },
  {
    "postcode": "29473",
    "city": "Wedderien"
  },
  {
    "postcode": "29473",
    "city": "Zienitz Elbe"
  },
  {
    "postcode": "29473",
    "city": "Zienitz"
  },
  {
    "postcode": "29473",
    "city": "Lüchow-Dannenberg"
  },
  {
    "postcode": "29475",
    "city": "Gorleben"
  },
  {
    "postcode": "29475",
    "city": "Meetschow"
  },
  {
    "postcode": "29475",
    "city": "Lüchow-Dannenberg"
  },
  {
    "postcode": "29476",
    "city": "Groß Gusborn"
  },
  {
    "postcode": "29476",
    "city": "Gusborn"
  },
  {
    "postcode": "29476",
    "city": "Klein Gusborn"
  },
  {
    "postcode": "29476",
    "city": "Quickborn Kreis Lüchow-Dannenberg"
  },
  {
    "postcode": "29476",
    "city": "Quickborn"
  },
  {
    "postcode": "29476",
    "city": "Siemen"
  },
  {
    "postcode": "29476",
    "city": "Zadrau"
  },
  {
    "postcode": "29476",
    "city": "Lüchow-Dannenberg"
  },
  {
    "postcode": "29478",
    "city": "Brünkendorf Elbe"
  },
  {
    "postcode": "29478",
    "city": "Brünkendorf"
  },
  {
    "postcode": "29478",
    "city": "Höhbeck"
  },
  {
    "postcode": "29478",
    "city": "Pevestorf"
  },
  {
    "postcode": "29478",
    "city": "Restorf"
  },
  {
    "postcode": "29478",
    "city": "Schwedenschanze"
  },
  {
    "postcode": "29478",
    "city": "Vietze"
  },
  {
    "postcode": "29478",
    "city": "Lüchow-Dannenberg"
  },
  {
    "postcode": "29479",
    "city": "Breese im Bruche"
  },
  {
    "postcode": "29479",
    "city": "Breselenz"
  },
  {
    "postcode": "29479",
    "city": "Breustian"
  },
  {
    "postcode": "29479",
    "city": "Hoheluft"
  },
  {
    "postcode": "29479",
    "city": "Jameln"
  },
  {
    "postcode": "29479",
    "city": "Jamelner Mühle"
  },
  {
    "postcode": "29479",
    "city": "Langenhorst"
  },
  {
    "postcode": "29479",
    "city": "Mehlfien"
  },
  {
    "postcode": "29479",
    "city": "Platenlaase"
  },
  {
    "postcode": "29479",
    "city": "Teichlosen"
  },
  {
    "postcode": "29479",
    "city": "Volkfien"
  },
  {
    "postcode": "29479",
    "city": "Wibbese"
  },
  {
    "postcode": "29479",
    "city": "Lüchow-Dannenberg"
  },
  {
    "postcode": "29481",
    "city": "Dragahn"
  },
  {
    "postcode": "29481",
    "city": "Gamehlen"
  },
  {
    "postcode": "29481",
    "city": "Karwitz"
  },
  {
    "postcode": "29481",
    "city": "Lebbien"
  },
  {
    "postcode": "29481",
    "city": "Lenzen"
  },
  {
    "postcode": "29481",
    "city": "Nausen"
  },
  {
    "postcode": "29481",
    "city": "Pudripp"
  },
  {
    "postcode": "29481",
    "city": "Pudripp / Bahnhof"
  },
  {
    "postcode": "29481",
    "city": "Thunpadel"
  },
  {
    "postcode": "29481",
    "city": "Lüchow-Dannenberg"
  },
  {
    "postcode": "29481",
    "city": "Bahnhof Pudripp"
  },
  {
    "postcode": "29482",
    "city": "Belitz"
  },
  {
    "postcode": "29482",
    "city": "Göttien"
  },
  {
    "postcode": "29482",
    "city": "Gühlitz"
  },
  {
    "postcode": "29482",
    "city": "Karmitz"
  },
  {
    "postcode": "29482",
    "city": "Klein Witzeetze"
  },
  {
    "postcode": "29482",
    "city": "Krummasel"
  },
  {
    "postcode": "29482",
    "city": "Küsten"
  },
  {
    "postcode": "29482",
    "city": "Lübeln"
  },
  {
    "postcode": "29482",
    "city": "Meuchefitz"
  },
  {
    "postcode": "29482",
    "city": "Naulitz"
  },
  {
    "postcode": "29482",
    "city": "Oldemühle"
  },
  {
    "postcode": "29482",
    "city": "Reitze"
  },
  {
    "postcode": "29482",
    "city": "Saggrian"
  },
  {
    "postcode": "29482",
    "city": "Sallahn"
  },
  {
    "postcode": "29482",
    "city": "Schwiepke"
  },
  {
    "postcode": "29482",
    "city": "Seerau im Drawehn"
  },
  {
    "postcode": "29482",
    "city": "Süthen"
  },
  {
    "postcode": "29482",
    "city": "Tolstefanz"
  },
  {
    "postcode": "29482",
    "city": "Tüschau"
  },
  {
    "postcode": "29482",
    "city": "Lüchow-Dannenberg"
  },
  {
    "postcode": "29484",
    "city": "Brandleben"
  },
  {
    "postcode": "29484",
    "city": "Grippel Kreis Lüchow-Dannenberg"
  },
  {
    "postcode": "29484",
    "city": "Grippel"
  },
  {
    "postcode": "29484",
    "city": "Kacherien Elbe"
  },
  {
    "postcode": "29484",
    "city": "Kacherien"
  },
  {
    "postcode": "29484",
    "city": "Kaltenhof"
  },
  {
    "postcode": "29484",
    "city": "Laase Kreis Lüchow-Dannenberg"
  },
  {
    "postcode": "29484",
    "city": "Laase"
  },
  {
    "postcode": "29484",
    "city": "Langendorf Elbe"
  },
  {
    "postcode": "29484",
    "city": "Langendorf"
  },
  {
    "postcode": "29484",
    "city": "Pretzetze Kreis Lüchow-Dannenberg"
  },
  {
    "postcode": "29484",
    "city": "Pretzetze"
  },
  {
    "postcode": "29484",
    "city": "Lüchow-Dannenberg"
  },
  {
    "postcode": "29484",
    "city": "Wulfsahl"
  },
  {
    "postcode": "29485",
    "city": "Bockleben"
  },
  {
    "postcode": "29485",
    "city": "Großwitzeetze"
  },
  {
    "postcode": "29485",
    "city": "Kriwitz"
  },
  {
    "postcode": "29485",
    "city": "Lemgow Niedersachsen"
  },
  {
    "postcode": "29485",
    "city": "Lemgow"
  },
  {
    "postcode": "29485",
    "city": "Predöhl"
  },
  {
    "postcode": "29485",
    "city": "Prezier"
  },
  {
    "postcode": "29485",
    "city": "Puttball"
  },
  {
    "postcode": "29485",
    "city": "Schletau"
  },
  {
    "postcode": "29485",
    "city": "Schmarsau"
  },
  {
    "postcode": "29485",
    "city": "Schweskau"
  },
  {
    "postcode": "29485",
    "city": "Simander"
  },
  {
    "postcode": "29485",
    "city": "Trabuhn"
  },
  {
    "postcode": "29485",
    "city": "Volzendorf"
  },
  {
    "postcode": "29485",
    "city": "Lüchow-Dannenberg"
  },
  {
    "postcode": "29485",
    "city": "Predöhl-Hohenkrug"
  },
  {
    "postcode": "29487",
    "city": "Beesem Kreis Lüchow-Dannenberg"
  },
  {
    "postcode": "29487",
    "city": "Beesem"
  },
  {
    "postcode": "29487",
    "city": "Bülitz Kreis Lüchow-Dannenberg"
  },
  {
    "postcode": "29487",
    "city": "Bülitz"
  },
  {
    "postcode": "29487",
    "city": "Köhlen Kreis Lüchow-Dannenberg"
  },
  {
    "postcode": "29487",
    "city": "Köhlen"
  },
  {
    "postcode": "29487",
    "city": "Kremlin Kreis Lüchow-Dannenberg"
  },
  {
    "postcode": "29487",
    "city": "Kremlin"
  },
  {
    "postcode": "29487",
    "city": "Luckau (Wendland)"
  },
  {
    "postcode": "29487",
    "city": "Luckau"
  },
  {
    "postcode": "29487",
    "city": "Luckau Wendland"
  },
  {
    "postcode": "29487",
    "city": "Mammoißel Kreis Lüchow-Dannenberg"
  },
  {
    "postcode": "29487",
    "city": "Mammoißel"
  },
  {
    "postcode": "29487",
    "city": "Nauden Kreis Lüchow-Dannenberg"
  },
  {
    "postcode": "29487",
    "city": "Nauden"
  },
  {
    "postcode": "29487",
    "city": "Steine Kreis Lüchow-Dannenberg"
  },
  {
    "postcode": "29487",
    "city": "Steine"
  },
  {
    "postcode": "29487",
    "city": "Zeetze Kreis Lüchow-Dannenberg"
  },
  {
    "postcode": "29487",
    "city": "Zeetze"
  },
  {
    "postcode": "29487",
    "city": "Lüchow-Dannenberg"
  },
  {
    "postcode": "29487",
    "city": "Püggen"
  },
  {
    "postcode": "29487",
    "city": "Zargleben"
  },
  {
    "postcode": "29488",
    "city": "Dangenstorf"
  },
  {
    "postcode": "29488",
    "city": "Lübbow"
  },
  {
    "postcode": "29488",
    "city": "Rebenstorf"
  },
  {
    "postcode": "29488",
    "city": "Lüchow-Dannenberg"
  },
  {
    "postcode": "29490",
    "city": "Darzau"
  },
  {
    "postcode": "29490",
    "city": "Drethem"
  },
  {
    "postcode": "29490",
    "city": "Glienitz"
  },
  {
    "postcode": "29490",
    "city": "Katemin"
  },
  {
    "postcode": "29490",
    "city": "Klein Kühren Niedersachsen"
  },
  {
    "postcode": "29490",
    "city": "Klein Kühren"
  },
  {
    "postcode": "29490",
    "city": "Neu Darchau"
  },
  {
    "postcode": "29490",
    "city": "Quarstedt"
  },
  {
    "postcode": "29490",
    "city": "Sammatz"
  },
  {
    "postcode": "29490",
    "city": "Schutschur"
  },
  {
    "postcode": "29490",
    "city": "Lüchow-Dannenberg"
  },
  {
    "postcode": "29491",
    "city": "Lanze Niedersachsen"
  },
  {
    "postcode": "29491",
    "city": "Lanze"
  },
  {
    "postcode": "29491",
    "city": "Lomitz"
  },
  {
    "postcode": "29491",
    "city": "Prezelle"
  },
  {
    "postcode": "29491",
    "city": "Wirl"
  },
  {
    "postcode": "29491",
    "city": "Lüchow-Dannenberg"
  },
  {
    "postcode": "29493",
    "city": "Gummern"
  },
  {
    "postcode": "29493",
    "city": "Holtorf Elbe"
  },
  {
    "postcode": "29493",
    "city": "Holtorf"
  },
  {
    "postcode": "29493",
    "city": "Kapern"
  },
  {
    "postcode": "29493",
    "city": "Schnackenburg"
  },
  {
    "postcode": "29493",
    "city": "Lüchow-Dannenberg"
  },
  {
    "postcode": "29494",
    "city": "Dünsche"
  },
  {
    "postcode": "29494",
    "city": "Gedelitz"
  },
  {
    "postcode": "29494",
    "city": "Groß Breese"
  },
  {
    "postcode": "29494",
    "city": "Klautze"
  },
  {
    "postcode": "29494",
    "city": "Liepe"
  },
  {
    "postcode": "29494",
    "city": "Marleben"
  },
  {
    "postcode": "29494",
    "city": "Nemitz"
  },
  {
    "postcode": "29494",
    "city": "Pannecke"
  },
  {
    "postcode": "29494",
    "city": "Tobringen"
  },
  {
    "postcode": "29494",
    "city": "Trebel"
  },
  {
    "postcode": "29494",
    "city": "Vasenthien"
  },
  {
    "postcode": "29494",
    "city": "Lüchow-Dannenberg"
  },
  {
    "postcode": "29496",
    "city": "Bischof"
  },
  {
    "postcode": "29496",
    "city": "Diahren"
  },
  {
    "postcode": "29496",
    "city": "Dickfeitzen"
  },
  {
    "postcode": "29496",
    "city": "Dommatzen"
  },
  {
    "postcode": "29496",
    "city": "Gohlau"
  },
  {
    "postcode": "29496",
    "city": "Groß Gaddau"
  },
  {
    "postcode": "29496",
    "city": "Groß Wittfeitzen"
  },
  {
    "postcode": "29496",
    "city": "Hohenvolkfien"
  },
  {
    "postcode": "29496",
    "city": "Kiefen"
  },
  {
    "postcode": "29496",
    "city": "Klein Gaddau"
  },
  {
    "postcode": "29496",
    "city": "Klein Wittfeitzen"
  },
  {
    "postcode": "29496",
    "city": "Kröte"
  },
  {
    "postcode": "29496",
    "city": "Kukate"
  },
  {
    "postcode": "29496",
    "city": "Maddau"
  },
  {
    "postcode": "29496",
    "city": "Marlin"
  },
  {
    "postcode": "29496",
    "city": "Salderatzen"
  },
  {
    "postcode": "29496",
    "city": "Sareitz"
  },
  {
    "postcode": "29496",
    "city": "Schlanze"
  },
  {
    "postcode": "29496",
    "city": "Waddeweitz"
  },
  {
    "postcode": "29496",
    "city": "Wittfeitzen"
  },
  {
    "postcode": "29496",
    "city": "Zebelin"
  },
  {
    "postcode": "29496",
    "city": "Lüchow-Dannenberg"
  },
  {
    "postcode": "29497",
    "city": "Klein Breese Kreis Lüchow-Dannenberg"
  },
  {
    "postcode": "29497",
    "city": "Klein Breese"
  },
  {
    "postcode": "29497",
    "city": "Lichtenberg Niedersachsen"
  },
  {
    "postcode": "29497",
    "city": "Lichtenberg"
  },
  {
    "postcode": "29497",
    "city": "Thurau Niedersachsen"
  },
  {
    "postcode": "29497",
    "city": "Thurau"
  },
  {
    "postcode": "29497",
    "city": "Woltersdorf Niedersachsen"
  },
  {
    "postcode": "29497",
    "city": "Woltersdorf"
  },
  {
    "postcode": "29497",
    "city": "Lüchow-Dannenberg"
  },
  {
    "postcode": "29497",
    "city": "Oerenburg"
  },
  {
    "postcode": "29499",
    "city": "Bellahn"
  },
  {
    "postcode": "29499",
    "city": "Braasche"
  },
  {
    "postcode": "29499",
    "city": "Breese an der Göhrde"
  },
  {
    "postcode": "29499",
    "city": "Fließau"
  },
  {
    "postcode": "29499",
    "city": "Glieneitz Niedersachsen"
  },
  {
    "postcode": "29499",
    "city": "Glieneitz"
  },
  {
    "postcode": "29499",
    "city": "Gülden"
  },
  {
    "postcode": "29499",
    "city": "Keddien"
  },
  {
    "postcode": "29499",
    "city": "Middefeitz"
  },
  {
    "postcode": "29499",
    "city": "Mützingen"
  },
  {
    "postcode": "29499",
    "city": "Prepow"
  },
  {
    "postcode": "29499",
    "city": "Reddien Niedersachsen"
  },
  {
    "postcode": "29499",
    "city": "Reddien"
  },
  {
    "postcode": "29499",
    "city": "Redemoißel"
  },
  {
    "postcode": "29499",
    "city": "Riebrau"
  },
  {
    "postcode": "29499",
    "city": "Sellien Niedersachsen"
  },
  {
    "postcode": "29499",
    "city": "Sellien"
  },
  {
    "postcode": "29499",
    "city": "Spranz"
  },
  {
    "postcode": "29499",
    "city": "Timmeitz Niedersachsen"
  },
  {
    "postcode": "29499",
    "city": "Timmeitz"
  },
  {
    "postcode": "29499",
    "city": "Zernien"
  },
  {
    "postcode": "29499",
    "city": "Zernien Niedersachsen"
  },
  {
    "postcode": "29499",
    "city": "Lüchow-Dannenberg"
  },
  {
    "postcode": "29525",
    "city": "Borne Kreis Uelzen"
  },
  {
    "postcode": "29525",
    "city": "Borne"
  },
  {
    "postcode": "29525",
    "city": "Groß Liedern Meilereiweg"
  },
  {
    "postcode": "29525",
    "city": "Groß Liedern"
  },
  {
    "postcode": "29525",
    "city": "Halligdorf"
  },
  {
    "postcode": "29525",
    "city": "Hambrock"
  },
  {
    "postcode": "29525",
    "city": "Hansen Kreis Uelzen"
  },
  {
    "postcode": "29525",
    "city": "Hansen"
  },
  {
    "postcode": "29525",
    "city": "Holdenstedt Kreis Uelzen"
  },
  {
    "postcode": "29525",
    "city": "Holdenstedt"
  },
  {
    "postcode": "29525",
    "city": "Kirchweyhe Kreis Uelzen"
  },
  {
    "postcode": "29525",
    "city": "Kirchweyhe"
  },
  {
    "postcode": "29525",
    "city": "Klein Liedern"
  },
  {
    "postcode": "29525",
    "city": "Klein Süstedt"
  },
  {
    "postcode": "29525",
    "city": "Masendorf"
  },
  {
    "postcode": "29525",
    "city": "Mehre"
  },
  {
    "postcode": "29525",
    "city": "Molzen"
  },
  {
    "postcode": "29525",
    "city": "Oldenstadt West"
  },
  {
    "postcode": "29525",
    "city": "Oldenstadt"
  },
  {
    "postcode": "29525",
    "city": "Pieperhöfen"
  },
  {
    "postcode": "29525",
    "city": "Riestedt Kreis Uelzen"
  },
  {
    "postcode": "29525",
    "city": "Riestedt"
  },
  {
    "postcode": "29525",
    "city": "Ripdorf"
  },
  {
    "postcode": "29525",
    "city": "Tatern"
  },
  {
    "postcode": "29525",
    "city": "Uelzen"
  },
  {
    "postcode": "29525",
    "city": "Uelzen Lüneburger Heide"
  },
  {
    "postcode": "29525",
    "city": "Veerßen"
  },
  {
    "postcode": "29525",
    "city": "Westerweyhe"
  },
  {
    "postcode": "29525",
    "city": "Woltersburg"
  },
  {
    "postcode": "29525",
    "city": "Hanstedt II"
  },
  {
    "postcode": "29525",
    "city": "Am Haspel"
  },
  {
    "postcode": "29549",
    "city": "Bad Bevensen"
  },
  {
    "postcode": "29549",
    "city": "Gollern"
  },
  {
    "postcode": "29549",
    "city": "Groß Hesebeck"
  },
  {
    "postcode": "29549",
    "city": "Jastorf"
  },
  {
    "postcode": "29549",
    "city": "Klein Bünstorf"
  },
  {
    "postcode": "29549",
    "city": "Klein Hesebeck"
  },
  {
    "postcode": "29549",
    "city": "Medingen Niedersachsen"
  },
  {
    "postcode": "29549",
    "city": "Medingen"
  },
  {
    "postcode": "29549",
    "city": "Röbbel"
  },
  {
    "postcode": "29549",
    "city": "Sasendorf Lüneburger Heide"
  },
  {
    "postcode": "29549",
    "city": "Sasendorf"
  },
  {
    "postcode": "29549",
    "city": "Seedorf bei Bevensen Lüneburger Heide"
  },
  {
    "postcode": "29549",
    "city": "Seedorf bei Bevensen"
  },
  {
    "postcode": "29549",
    "city": "Uelzen"
  },
  {
    "postcode": "29549",
    "city": "Seedorf"
  },
  {
    "postcode": "29553",
    "city": "Bargdorf"
  },
  {
    "postcode": "29553",
    "city": "Beverbeck"
  },
  {
    "postcode": "29553",
    "city": "Bienenbüttel"
  },
  {
    "postcode": "29553",
    "city": "Bornsen Kreis Uelzen"
  },
  {
    "postcode": "29553",
    "city": "Bornsen"
  },
  {
    "postcode": "29553",
    "city": "Edendorf"
  },
  {
    "postcode": "29553",
    "city": "Eitzen I"
  },
  {
    "postcode": "29553",
    "city": "Grünhagen"
  },
  {
    "postcode": "29553",
    "city": "Hohenbostel Lüneburger Heide"
  },
  {
    "postcode": "29553",
    "city": "Hohenbostel"
  },
  {
    "postcode": "29553",
    "city": "Hohnstorf Lüneburger Heide"
  },
  {
    "postcode": "29553",
    "city": "Hohnstorf"
  },
  {
    "postcode": "29553",
    "city": "Niendorf bei Bienenbüttel"
  },
  {
    "postcode": "29553",
    "city": "Rieste bei Bad Bevensen"
  },
  {
    "postcode": "29553",
    "city": "Steddorf Lüneburger Heide"
  },
  {
    "postcode": "29553",
    "city": "Steddorf"
  },
  {
    "postcode": "29553",
    "city": "Varendorf"
  },
  {
    "postcode": "29553",
    "city": "Wichmannsburg"
  },
  {
    "postcode": "29553",
    "city": "Wulfstorf"
  },
  {
    "postcode": "29553",
    "city": "Uelzen"
  },
  {
    "postcode": "29553",
    "city": "Eitzen I"
  },
  {
    "postcode": "29553",
    "city": "Rieste"
  },
  {
    "postcode": "29553",
    "city": "Bröckel"
  },
  {
    "postcode": "29553",
    "city": "Brummelkamp"
  },
  {
    "postcode": "29553",
    "city": "Niendorf"
  },
  {
    "postcode": "29553",
    "city": "Lerchen-Meyer"
  },
  {
    "postcode": "29553",
    "city": "Lietzberg"
  },
  {
    "postcode": "29553",
    "city": "Schloohof"
  },
  {
    "postcode": "29553",
    "city": "Findorfsmühle"
  },
  {
    "postcode": "29556",
    "city": "Bahnsen"
  },
  {
    "postcode": "29556",
    "city": "Böddenstedt Kreis Uelzen"
  },
  {
    "postcode": "29556",
    "city": "Böddenstedt"
  },
  {
    "postcode": "29556",
    "city": "Hamerstorf"
  },
  {
    "postcode": "29556",
    "city": "Holxen"
  },
  {
    "postcode": "29556",
    "city": "Hösseringen"
  },
  {
    "postcode": "29556",
    "city": "Räber"
  },
  {
    "postcode": "29556",
    "city": "Suderburg"
  },
  {
    "postcode": "29556",
    "city": "Uelzen"
  },
  {
    "postcode": "29556",
    "city": "Graulingen"
  },
  {
    "postcode": "29559",
    "city": "Esterholz Kreis Uelzen"
  },
  {
    "postcode": "29559",
    "city": "Esterholz"
  },
  {
    "postcode": "29559",
    "city": "Klein Bollensen"
  },
  {
    "postcode": "29559",
    "city": "Lehmke"
  },
  {
    "postcode": "29559",
    "city": "Niendorf II"
  },
  {
    "postcode": "29559",
    "city": "Stederdorf Kreis Uelzen"
  },
  {
    "postcode": "29559",
    "city": "Stederdorf"
  },
  {
    "postcode": "29559",
    "city": "Wrestedt"
  },
  {
    "postcode": "29559",
    "city": "Uelzen"
  },
  {
    "postcode": "29559",
    "city": "Stadensen"
  },
  {
    "postcode": "29559",
    "city": "Niendorf II"
  },
  {
    "postcode": "29559",
    "city": "Nienwohlde"
  },
  {
    "postcode": "29559",
    "city": "Emern"
  },
  {
    "postcode": "29559",
    "city": "Wieren"
  },
  {
    "postcode": "29559",
    "city": "Ostedt"
  },
  {
    "postcode": "29559",
    "city": "Nettelkamp"
  },
  {
    "postcode": "29559",
    "city": "Bollensen"
  },
  {
    "postcode": "29559",
    "city": "Breitenhees"
  },
  {
    "postcode": "29559",
    "city": "Drohe"
  },
  {
    "postcode": "29559",
    "city": "Gavendorf"
  },
  {
    "postcode": "29559",
    "city": "Groß Pretzier"
  },
  {
    "postcode": "29559",
    "city": "Hamborg"
  },
  {
    "postcode": "29559",
    "city": "Könau"
  },
  {
    "postcode": "29559",
    "city": "Kahlstorf"
  },
  {
    "postcode": "29559",
    "city": "Kallenbrock"
  },
  {
    "postcode": "29559",
    "city": "Klein Pretzier"
  },
  {
    "postcode": "29559",
    "city": "Kroetze"
  },
  {
    "postcode": "29559",
    "city": "Kroetzmühle"
  },
  {
    "postcode": "29562",
    "city": "Batensen"
  },
  {
    "postcode": "29562",
    "city": "Dallahn Kreis Uelzen"
  },
  {
    "postcode": "29562",
    "city": "Dallahn"
  },
  {
    "postcode": "29562",
    "city": "Dalldorf Kreis Uelzen"
  },
  {
    "postcode": "29562",
    "city": "Dalldorf"
  },
  {
    "postcode": "29562",
    "city": "Grabau Kreis Uelzen"
  },
  {
    "postcode": "29562",
    "city": "Grabau"
  },
  {
    "postcode": "29562",
    "city": "Groß Ellenberg"
  },
  {
    "postcode": "29562",
    "city": "Güstau"
  },
  {
    "postcode": "29562",
    "city": "Klein Ellenberg"
  },
  {
    "postcode": "29562",
    "city": "Kölau"
  },
  {
    "postcode": "29562",
    "city": "Molbath"
  },
  {
    "postcode": "29562",
    "city": "Nestau"
  },
  {
    "postcode": "29562",
    "city": "Növenthien"
  },
  {
    "postcode": "29562",
    "city": "Rassau"
  },
  {
    "postcode": "29562",
    "city": "Schlieckau"
  },
  {
    "postcode": "29562",
    "city": "Suhlendorf"
  },
  {
    "postcode": "29562",
    "city": "Wellendorf Kreis Uelzen"
  },
  {
    "postcode": "29562",
    "city": "Wellendorf"
  },
  {
    "postcode": "29562",
    "city": "Uelzen"
  },
  {
    "postcode": "29562",
    "city": "Klein Malchau"
  },
  {
    "postcode": "29562",
    "city": "St. Omer"
  },
  {
    "postcode": "29565",
    "city": "Arendorf"
  },
  {
    "postcode": "29565",
    "city": "Brambostel"
  },
  {
    "postcode": "29565",
    "city": "Brockhöfe Bahnhof"
  },
  {
    "postcode": "29565",
    "city": "Holthusen I"
  },
  {
    "postcode": "29565",
    "city": "Lintzel"
  },
  {
    "postcode": "29565",
    "city": "Schatensen"
  },
  {
    "postcode": "29565",
    "city": "Wettenbostel"
  },
  {
    "postcode": "29565",
    "city": "Wriedel"
  },
  {
    "postcode": "29565",
    "city": "Wulfsode"
  },
  {
    "postcode": "29565",
    "city": "Uelzen"
  },
  {
    "postcode": "29565",
    "city": "Brockhöfe Bhf"
  },
  {
    "postcode": "29565",
    "city": "Brockhöfe"
  },
  {
    "postcode": "29565",
    "city": "Holthusen I"
  },
  {
    "postcode": "29568",
    "city": "Bollensen Kreis Uelzen"
  },
  {
    "postcode": "29568",
    "city": "Bollensen"
  },
  {
    "postcode": "29568",
    "city": "Drohe Kreis Uelzen"
  },
  {
    "postcode": "29568",
    "city": "Drohe"
  },
  {
    "postcode": "29568",
    "city": "Emern"
  },
  {
    "postcode": "29568",
    "city": "Gavendorf"
  },
  {
    "postcode": "29568",
    "city": "Groß Pretzier"
  },
  {
    "postcode": "29568",
    "city": "Kahlstorf"
  },
  {
    "postcode": "29568",
    "city": "Klein Pretzier"
  },
  {
    "postcode": "29568",
    "city": "Könau"
  },
  {
    "postcode": "29568",
    "city": "Kroetze"
  },
  {
    "postcode": "29568",
    "city": "Ostedt"
  },
  {
    "postcode": "29568",
    "city": "Wieren"
  },
  {
    "postcode": "29571",
    "city": "Borg Kreis Uelzen"
  },
  {
    "postcode": "29571",
    "city": "Borg"
  },
  {
    "postcode": "29571",
    "city": "Gauel"
  },
  {
    "postcode": "29571",
    "city": "Göddenstedt"
  },
  {
    "postcode": "29571",
    "city": "Hohenweddrien"
  },
  {
    "postcode": "29571",
    "city": "Katzien Kreis Uelzen"
  },
  {
    "postcode": "29571",
    "city": "Katzien"
  },
  {
    "postcode": "29571",
    "city": "Nateln"
  },
  {
    "postcode": "29571",
    "city": "Neumühle Kreis Uelzen"
  },
  {
    "postcode": "29571",
    "city": "Neumühle"
  },
  {
    "postcode": "29571",
    "city": "Polau"
  },
  {
    "postcode": "29571",
    "city": "Probien"
  },
  {
    "postcode": "29571",
    "city": "Retzien"
  },
  {
    "postcode": "29571",
    "city": "Rosche"
  },
  {
    "postcode": "29571",
    "city": "Schmölau"
  },
  {
    "postcode": "29571",
    "city": "Schwemlitz"
  },
  {
    "postcode": "29571",
    "city": "Stütensen Kreis Uelzen"
  },
  {
    "postcode": "29571",
    "city": "Stütensen"
  },
  {
    "postcode": "29571",
    "city": "Teyendorf"
  },
  {
    "postcode": "29571",
    "city": "Zarenthien"
  },
  {
    "postcode": "29571",
    "city": "Uelzen"
  },
  {
    "postcode": "29571",
    "city": "Gut Göddenstedt"
  },
  {
    "postcode": "29574",
    "city": "Altenebstorf Kreis Uelzen"
  },
  {
    "postcode": "29574",
    "city": "Altenebstorf"
  },
  {
    "postcode": "29574",
    "city": "Ebstorf"
  },
  {
    "postcode": "29574",
    "city": "Oetzfelde Kreis Uelzen"
  },
  {
    "postcode": "29574",
    "city": "Oetzfelde"
  },
  {
    "postcode": "29574",
    "city": "Tatendorf Kreis Uelzen"
  },
  {
    "postcode": "29574",
    "city": "Tatendorf"
  },
  {
    "postcode": "29574",
    "city": "Uelzen"
  },
  {
    "postcode": "29575",
    "city": "Aljarn"
  },
  {
    "postcode": "29575",
    "city": "Altenmedingen"
  },
  {
    "postcode": "29575",
    "city": "Bohndorf"
  },
  {
    "postcode": "29575",
    "city": "Bostelwiebeck"
  },
  {
    "postcode": "29575",
    "city": "Eddelstorf"
  },
  {
    "postcode": "29575",
    "city": "Haaßel"
  },
  {
    "postcode": "29575",
    "city": "Secklendorf"
  },
  {
    "postcode": "29575",
    "city": "Vorwerk bei Bevensen Lüneburger Heide"
  },
  {
    "postcode": "29575",
    "city": "Vorwerk bei Bevensen"
  },
  {
    "postcode": "29575",
    "city": "Uelzen"
  },
  {
    "postcode": "29575",
    "city": "Reisenmoor"
  },
  {
    "postcode": "29575",
    "city": "Vorwerk"
  },
  {
    "postcode": "29576",
    "city": "Barum"
  },
  {
    "postcode": "29576",
    "city": "Barum bei Bad Bevensen"
  },
  {
    "postcode": "29576",
    "city": "Tätendorf-Eppensen"
  },
  {
    "postcode": "29576",
    "city": "Uelzen"
  },
  {
    "postcode": "29578",
    "city": "Dreilingen"
  },
  {
    "postcode": "29578",
    "city": "Eimke"
  },
  {
    "postcode": "29578",
    "city": "Ellerndorf"
  },
  {
    "postcode": "29578",
    "city": "Wichtenbeck"
  },
  {
    "postcode": "29578",
    "city": "Uelzen"
  },
  {
    "postcode": "29578",
    "city": "Forsthaus Niebeck"
  },
  {
    "postcode": "29579",
    "city": "Emmendorf"
  },
  {
    "postcode": "29579",
    "city": "Heitbrack"
  },
  {
    "postcode": "29579",
    "city": "Nassennottorf"
  },
  {
    "postcode": "29579",
    "city": "Walmstorf"
  },
  {
    "postcode": "29579",
    "city": "Uelzen"
  },
  {
    "postcode": "29581",
    "city": "Bargfeld Kreis Uelzen"
  },
  {
    "postcode": "29581",
    "city": "Bargfeld"
  },
  {
    "postcode": "29581",
    "city": "Barnsen"
  },
  {
    "postcode": "29581",
    "city": "Bohlsen"
  },
  {
    "postcode": "29581",
    "city": "Gerdau"
  },
  {
    "postcode": "29581",
    "city": "Groß Süstedt"
  },
  {
    "postcode": "29581",
    "city": "Holthusen II"
  },
  {
    "postcode": "29581",
    "city": "Uelzen"
  },
  {
    "postcode": "29582",
    "city": "Allenbostel Kreis Uelzen"
  },
  {
    "postcode": "29582",
    "city": "Allenbostel"
  },
  {
    "postcode": "29582",
    "city": "Bode Kreis Uelzen"
  },
  {
    "postcode": "29582",
    "city": "Bode"
  },
  {
    "postcode": "29582",
    "city": "Brauel Kreis Uelzen"
  },
  {
    "postcode": "29582",
    "city": "Brauel"
  },
  {
    "postcode": "29582",
    "city": "Eitzen II"
  },
  {
    "postcode": "29582",
    "city": "Eitzen II"
  },
  {
    "postcode": "29582",
    "city": "Hanstedt I"
  },
  {
    "postcode": "29582",
    "city": "Hanstedt Kreis Uelzen"
  },
  {
    "postcode": "29582",
    "city": "Hanstedt"
  },
  {
    "postcode": "29582",
    "city": "Teendorf Kreis Uelzen"
  },
  {
    "postcode": "29582",
    "city": "Teendorf"
  },
  {
    "postcode": "29582",
    "city": "Velgen"
  },
  {
    "postcode": "29582",
    "city": "Uelzen"
  },
  {
    "postcode": "29582",
    "city": "Eitzen II"
  },
  {
    "postcode": "29582",
    "city": "Oechtringen"
  },
  {
    "postcode": "29584",
    "city": "Almstorf"
  },
  {
    "postcode": "29584",
    "city": "Brockhimbergen"
  },
  {
    "postcode": "29584",
    "city": "Groß Thondorf"
  },
  {
    "postcode": "29584",
    "city": "Himbergen"
  },
  {
    "postcode": "29584",
    "city": "Himbergen Göhrde"
  },
  {
    "postcode": "29584",
    "city": "Kettelstorf"
  },
  {
    "postcode": "29584",
    "city": "Klein Thondorf"
  },
  {
    "postcode": "29584",
    "city": "Kollendorf"
  },
  {
    "postcode": "29584",
    "city": "Rohrstorf Göhrde"
  },
  {
    "postcode": "29584",
    "city": "Rohrstorf"
  },
  {
    "postcode": "29584",
    "city": "Strothe bei Bevensen Lüneburger Heide"
  },
  {
    "postcode": "29584",
    "city": "Strothe bei Bevensen"
  },
  {
    "postcode": "29584",
    "city": "Uelzen"
  },
  {
    "postcode": "29584",
    "city": "Hohenfier"
  },
  {
    "postcode": "29584",
    "city": "Strothe"
  },
  {
    "postcode": "29585",
    "city": "Addenstorf"
  },
  {
    "postcode": "29585",
    "city": "Bruchtorf"
  },
  {
    "postcode": "29585",
    "city": "Jelmstorf"
  },
  {
    "postcode": "29585",
    "city": "Uelzen"
  },
  {
    "postcode": "29585",
    "city": "Rockenmühle"
  },
  {
    "postcode": "29587",
    "city": "Gut Golste"
  },
  {
    "postcode": "29587",
    "city": "Haarstorf"
  },
  {
    "postcode": "29587",
    "city": "Hohenbünstorf bei Bevensen Lüneburger Heide"
  },
  {
    "postcode": "29587",
    "city": "Hohenbünstorf bei Bevensen"
  },
  {
    "postcode": "29587",
    "city": "Luttmissen"
  },
  {
    "postcode": "29587",
    "city": "Natendorf"
  },
  {
    "postcode": "29587",
    "city": "Oldendorf II"
  },
  {
    "postcode": "29587",
    "city": "Oldendorf II"
  },
  {
    "postcode": "29587",
    "city": "Schier Kreis Uelzen"
  },
  {
    "postcode": "29587",
    "city": "Schier"
  },
  {
    "postcode": "29587",
    "city": "Vinstedt"
  },
  {
    "postcode": "29587",
    "city": "Wessenstedt"
  },
  {
    "postcode": "29587",
    "city": "Uelzen"
  },
  {
    "postcode": "29587",
    "city": "Gut Nienbüttel"
  },
  {
    "postcode": "29587",
    "city": "Hohenbünstorf"
  },
  {
    "postcode": "29587",
    "city": "Nienbüttel"
  },
  {
    "postcode": "29587",
    "city": "Oldendorf II"
  },
  {
    "postcode": "29588",
    "city": "Bruchwedel"
  },
  {
    "postcode": "29588",
    "city": "Dörmte Kreis Uelzen"
  },
  {
    "postcode": "29588",
    "city": "Dörmte"
  },
  {
    "postcode": "29588",
    "city": "Jarlitz"
  },
  {
    "postcode": "29588",
    "city": "Oetzen"
  },
  {
    "postcode": "29588",
    "city": "Stöcken Kreis Uelzen"
  },
  {
    "postcode": "29588",
    "city": "Stöcken"
  },
  {
    "postcode": "29588",
    "city": "Süttorf Kreis Uelzen"
  },
  {
    "postcode": "29588",
    "city": "Süttorf"
  },
  {
    "postcode": "29588",
    "city": "Uelzen"
  },
  {
    "postcode": "29590",
    "city": "Rätzlingen Kreis Uelzen"
  },
  {
    "postcode": "29590",
    "city": "Rätzlingen"
  },
  {
    "postcode": "29590",
    "city": "Uelzen"
  },
  {
    "postcode": "29591",
    "city": "Drögennottorf"
  },
  {
    "postcode": "29591",
    "city": "Havekost bei Bevensen Lüneburger Heide"
  },
  {
    "postcode": "29591",
    "city": "Havekost bei Bevensen"
  },
  {
    "postcode": "29591",
    "city": "Masbrock"
  },
  {
    "postcode": "29591",
    "city": "Niendorf I"
  },
  {
    "postcode": "29591",
    "city": "Römstedt"
  },
  {
    "postcode": "29591",
    "city": "Uelzen"
  },
  {
    "postcode": "29591",
    "city": "Havekost"
  },
  {
    "postcode": "29593",
    "city": "Linden Kreis Uelzen"
  },
  {
    "postcode": "29593",
    "city": "Linden"
  },
  {
    "postcode": "29593",
    "city": "Melzingen"
  },
  {
    "postcode": "29593",
    "city": "Schwienau"
  },
  {
    "postcode": "29593",
    "city": "Stadorf"
  },
  {
    "postcode": "29593",
    "city": "Wittenwater Kreis Uelzen"
  },
  {
    "postcode": "29593",
    "city": "Wittenwater"
  },
  {
    "postcode": "29593",
    "city": "Uelzen"
  },
  {
    "postcode": "29593",
    "city": "Lindenverhorn"
  },
  {
    "postcode": "29594",
    "city": "Bockholt"
  },
  {
    "postcode": "29594",
    "city": "Heuerstorf"
  },
  {
    "postcode": "29594",
    "city": "Kakau"
  },
  {
    "postcode": "29594",
    "city": "Kattien"
  },
  {
    "postcode": "29594",
    "city": "Müssingen"
  },
  {
    "postcode": "29594",
    "city": "Soltendieck"
  },
  {
    "postcode": "29594",
    "city": "Thielitz"
  },
  {
    "postcode": "29594",
    "city": "Varbitz"
  },
  {
    "postcode": "29594",
    "city": "Uelzen"
  },
  {
    "postcode": "29594",
    "city": "Bomke"
  },
  {
    "postcode": "29596",
    "city": "Breitenhees"
  },
  {
    "postcode": "29596",
    "city": "Hamborg"
  },
  {
    "postcode": "29596",
    "city": "Kallenbrock"
  },
  {
    "postcode": "29596",
    "city": "Nettelkamp"
  },
  {
    "postcode": "29596",
    "city": "Nienwohlde"
  },
  {
    "postcode": "29596",
    "city": "Stadensen"
  },
  {
    "postcode": "29597",
    "city": "Bankewitz"
  },
  {
    "postcode": "29597",
    "city": "Groß Malchau"
  },
  {
    "postcode": "29597",
    "city": "Hohenzethen"
  },
  {
    "postcode": "29597",
    "city": "Nievelitz"
  },
  {
    "postcode": "29597",
    "city": "Schlankau"
  },
  {
    "postcode": "29597",
    "city": "Stoetze"
  },
  {
    "postcode": "29597",
    "city": "Törwe"
  },
  {
    "postcode": "29597",
    "city": "Zieritz"
  },
  {
    "postcode": "29597",
    "city": "Uelzen"
  },
  {
    "postcode": "29597",
    "city": "Boecke"
  },
  {
    "postcode": "29597",
    "city": "Hof Rohrstorf"
  },
  {
    "postcode": "29599",
    "city": "Hagen bei Bevensen Lüneburger Heide"
  },
  {
    "postcode": "29599",
    "city": "Hagen bei Bevensen"
  },
  {
    "postcode": "29599",
    "city": "Höver Lüneburger Heide"
  },
  {
    "postcode": "29599",
    "city": "Höver"
  },
  {
    "postcode": "29599",
    "city": "Oetzendorf"
  },
  {
    "postcode": "29599",
    "city": "Schlagte bei Bevensen Lüneburger Heide"
  },
  {
    "postcode": "29599",
    "city": "Schlagte bei Bevensen"
  },
  {
    "postcode": "29599",
    "city": "Testorf Niedersachsen"
  },
  {
    "postcode": "29599",
    "city": "Testorf"
  },
  {
    "postcode": "29599",
    "city": "Weste"
  },
  {
    "postcode": "29599",
    "city": "Uelzen"
  },
  {
    "postcode": "29599",
    "city": "Weste/Bahnhof"
  },
  {
    "postcode": "29599",
    "city": "Hagen"
  },
  {
    "postcode": "29599",
    "city": "Schlagte"
  },
  {
    "postcode": "29599",
    "city": "Siedlung Weste"
  },
  {
    "postcode": "29599",
    "city": "Westersunderberg"
  },
  {
    "postcode": "29614",
    "city": "Ahlften"
  },
  {
    "postcode": "29614",
    "city": "Alm"
  },
  {
    "postcode": "29614",
    "city": "Barmbruch Siedlung"
  },
  {
    "postcode": "29614",
    "city": "Barmbruch"
  },
  {
    "postcode": "29614",
    "city": "Dannhorn"
  },
  {
    "postcode": "29614",
    "city": "Deimern"
  },
  {
    "postcode": "29614",
    "city": "Dittmern"
  },
  {
    "postcode": "29614",
    "city": "Eitze"
  },
  {
    "postcode": "29614",
    "city": "Ellingen"
  },
  {
    "postcode": "29614",
    "city": "Falshorn"
  },
  {
    "postcode": "29614",
    "city": "Friedrichseck"
  },
  {
    "postcode": "29614",
    "city": "Frielingen"
  },
  {
    "postcode": "29614",
    "city": "Großeholz"
  },
  {
    "postcode": "29614",
    "city": "Hambostel"
  },
  {
    "postcode": "29614",
    "city": "Harber Moor"
  },
  {
    "postcode": "29614",
    "city": "Harber"
  },
  {
    "postcode": "29614",
    "city": "Harmelingen"
  },
  {
    "postcode": "29614",
    "city": "Hötzingen"
  },
  {
    "postcode": "29614",
    "city": "Königskrug"
  },
  {
    "postcode": "29614",
    "city": "Leitzingen"
  },
  {
    "postcode": "29614",
    "city": "Marbostel bei Soltau"
  },
  {
    "postcode": "29614",
    "city": "Meinern"
  },
  {
    "postcode": "29614",
    "city": "Meßhausen"
  },
  {
    "postcode": "29614",
    "city": "Mittelstendorf"
  },
  {
    "postcode": "29614",
    "city": "Moide"
  },
  {
    "postcode": "29614",
    "city": "Oeningen"
  },
  {
    "postcode": "29614",
    "city": "Soltau"
  },
  {
    "postcode": "29614",
    "city": "Stübeckshorn"
  },
  {
    "postcode": "29614",
    "city": "Tetendorf"
  },
  {
    "postcode": "29614",
    "city": "Tiegen"
  },
  {
    "postcode": "29614",
    "city": "Timmerloh"
  },
  {
    "postcode": "29614",
    "city": "Wiedingen"
  },
  {
    "postcode": "29614",
    "city": "Willingen"
  },
  {
    "postcode": "29614",
    "city": "Woltem"
  },
  {
    "postcode": "29614",
    "city": "Wolterdingen Kreis Soltau"
  },
  {
    "postcode": "29614",
    "city": "Wolterdingen"
  },
  {
    "postcode": "29614",
    "city": "Heidekreis"
  },
  {
    "postcode": "29614",
    "city": "Abelbeck"
  },
  {
    "postcode": "29614",
    "city": "Auer"
  },
  {
    "postcode": "29614",
    "city": "Bassel"
  },
  {
    "postcode": "29614",
    "city": "Bostel"
  },
  {
    "postcode": "29614",
    "city": "Marbostel"
  },
  {
    "postcode": "29614",
    "city": "Brock"
  },
  {
    "postcode": "29614",
    "city": "Lütjeholz"
  },
  {
    "postcode": "29614",
    "city": "Penzhorn"
  },
  {
    "postcode": "29614",
    "city": "Weiher"
  },
  {
    "postcode": "29614",
    "city": "Willenbockel"
  },
  {
    "postcode": "29633",
    "city": "Alvern"
  },
  {
    "postcode": "29633",
    "city": "Breloh Kreis Soltau"
  },
  {
    "postcode": "29633",
    "city": "Breloh"
  },
  {
    "postcode": "29633",
    "city": "Dethlingen Kreis Soltau"
  },
  {
    "postcode": "29633",
    "city": "Dethlingen"
  },
  {
    "postcode": "29633",
    "city": "Ilster Kreis Soltau"
  },
  {
    "postcode": "29633",
    "city": "Ilster"
  },
  {
    "postcode": "29633",
    "city": "Kohlenbissen Kreis Soltau"
  },
  {
    "postcode": "29633",
    "city": "Kohlenbissen"
  },
  {
    "postcode": "29633",
    "city": "Kreutzen Kreis Soltau"
  },
  {
    "postcode": "29633",
    "city": "Kreutzen"
  },
  {
    "postcode": "29633",
    "city": "Munster"
  },
  {
    "postcode": "29633",
    "city": "Munster Örtze"
  },
  {
    "postcode": "29633",
    "city": "Oerrel Kreis Soltau"
  },
  {
    "postcode": "29633",
    "city": "Oerrel"
  },
  {
    "postcode": "29633",
    "city": "Töpingen"
  },
  {
    "postcode": "29633",
    "city": "Trauen"
  },
  {
    "postcode": "29633",
    "city": "Heidekreis"
  },
  {
    "postcode": "29633",
    "city": "Hermannseck"
  },
  {
    "postcode": "29633",
    "city": "Hermannshorst"
  },
  {
    "postcode": "29633",
    "city": "Lopau"
  },
  {
    "postcode": "29640",
    "city": "Ehrhorn Kreis Soltau"
  },
  {
    "postcode": "29640",
    "city": "Ehrhorn"
  },
  {
    "postcode": "29640",
    "city": "Groß Todtshorn"
  },
  {
    "postcode": "29640",
    "city": "Großenwede"
  },
  {
    "postcode": "29640",
    "city": "Heber"
  },
  {
    "postcode": "29640",
    "city": "Hemsen"
  },
  {
    "postcode": "29640",
    "city": "Hillern"
  },
  {
    "postcode": "29640",
    "city": "Insel Kreis Soltau"
  },
  {
    "postcode": "29640",
    "city": "Insel"
  },
  {
    "postcode": "29640",
    "city": "Langeloh"
  },
  {
    "postcode": "29640",
    "city": "Lünzen"
  },
  {
    "postcode": "29640",
    "city": "Meyerhof"
  },
  {
    "postcode": "29640",
    "city": "Osterwede"
  },
  {
    "postcode": "29640",
    "city": "Reimerdingen"
  },
  {
    "postcode": "29640",
    "city": "Reinsehlen"
  },
  {
    "postcode": "29640",
    "city": "Schneverdingen"
  },
  {
    "postcode": "29640",
    "city": "Schülern"
  },
  {
    "postcode": "29640",
    "city": "Surbostel"
  },
  {
    "postcode": "29640",
    "city": "Wesseloh"
  },
  {
    "postcode": "29640",
    "city": "Wieckhorst"
  },
  {
    "postcode": "29640",
    "city": "Wintermoor an der Chaussee"
  },
  {
    "postcode": "29640",
    "city": "Zahrensen"
  },
  {
    "postcode": "29640",
    "city": "Heidekreis"
  },
  {
    "postcode": "29640",
    "city": "Heimbuch"
  },
  {
    "postcode": "29640",
    "city": "Wintermoor"
  },
  {
    "postcode": "29640",
    "city": "Barrl"
  },
  {
    "postcode": "29640",
    "city": "Gallhorn"
  },
  {
    "postcode": "29640",
    "city": "Todtshorn"
  },
  {
    "postcode": "29640",
    "city": "Schultenwede"
  },
  {
    "postcode": "29643",
    "city": "Behningen Lüneburger Heide"
  },
  {
    "postcode": "29643",
    "city": "Behningen"
  },
  {
    "postcode": "29643",
    "city": "Brochdorf"
  },
  {
    "postcode": "29643",
    "city": "Delmsen Lüneburger Heide"
  },
  {
    "postcode": "29643",
    "city": "Delmsen"
  },
  {
    "postcode": "29643",
    "city": "Gilmerdingen Lüneburger Heide"
  },
  {
    "postcode": "29643",
    "city": "Gilmerdingen"
  },
  {
    "postcode": "29643",
    "city": "Grauen Kreis Soltau"
  },
  {
    "postcode": "29643",
    "city": "Grauen"
  },
  {
    "postcode": "29643",
    "city": "Hertel Lüneburger Heide"
  },
  {
    "postcode": "29643",
    "city": "Hertel"
  },
  {
    "postcode": "29643",
    "city": "Ilhorn"
  },
  {
    "postcode": "29643",
    "city": "Leverdingen"
  },
  {
    "postcode": "29643",
    "city": "Neuenkirchen Lüneburger Heide"
  },
  {
    "postcode": "29643",
    "city": "Neuenkirchen"
  },
  {
    "postcode": "29643",
    "city": "Schwalingen"
  },
  {
    "postcode": "29643",
    "city": "Sprengel Lüneburger Heide"
  },
  {
    "postcode": "29643",
    "city": "Sprengel"
  },
  {
    "postcode": "29643",
    "city": "Tewel Kreis Soltau"
  },
  {
    "postcode": "29643",
    "city": "Tewel"
  },
  {
    "postcode": "29643",
    "city": "Vahlzen Lüneburger Heide"
  },
  {
    "postcode": "29643",
    "city": "Vahlzen"
  },
  {
    "postcode": "29643",
    "city": "Heidekreis"
  },
  {
    "postcode": "29643",
    "city": "Rutenmühle"
  },
  {
    "postcode": "29646",
    "city": "Behringen Kreis Soltau"
  },
  {
    "postcode": "29646",
    "city": "Behringen"
  },
  {
    "postcode": "29646",
    "city": "Bispingen"
  },
  {
    "postcode": "29646",
    "city": "Borstel in der Kuhle"
  },
  {
    "postcode": "29646",
    "city": "Hörpel"
  },
  {
    "postcode": "29646",
    "city": "Hützel"
  },
  {
    "postcode": "29646",
    "city": "Niederhaverbeck Kreis Soltau"
  },
  {
    "postcode": "29646",
    "city": "Niederhaverbeck"
  },
  {
    "postcode": "29646",
    "city": "Oberhaverbeck Kreis Soltau"
  },
  {
    "postcode": "29646",
    "city": "Oberhaverbeck"
  },
  {
    "postcode": "29646",
    "city": "Steinbeck / Luhe"
  },
  {
    "postcode": "29646",
    "city": "Steinbeck"
  },
  {
    "postcode": "29646",
    "city": "Steinkenhöfen"
  },
  {
    "postcode": "29646",
    "city": "Volkwardingen"
  },
  {
    "postcode": "29646",
    "city": "Wilsede Kreis Soltau"
  },
  {
    "postcode": "29646",
    "city": "Wilsede"
  },
  {
    "postcode": "29646",
    "city": "Heidekreis"
  },
  {
    "postcode": "29646",
    "city": "Steinbeck/Luhe"
  },
  {
    "postcode": "29649",
    "city": "Dehnernbockel"
  },
  {
    "postcode": "29649",
    "city": "Halmern"
  },
  {
    "postcode": "29649",
    "city": "Lührsbockel"
  },
  {
    "postcode": "29649",
    "city": "Marbostel bei Wietzendorf"
  },
  {
    "postcode": "29649",
    "city": "Meinholz"
  },
  {
    "postcode": "29649",
    "city": "Reddingen"
  },
  {
    "postcode": "29649",
    "city": "Reiningen"
  },
  {
    "postcode": "29649",
    "city": "Rodehorst"
  },
  {
    "postcode": "29649",
    "city": "Suroide"
  },
  {
    "postcode": "29649",
    "city": "Wietzendorf"
  },
  {
    "postcode": "29649",
    "city": "Wroge"
  },
  {
    "postcode": "29649",
    "city": "Heidekreis"
  },
  {
    "postcode": "29649",
    "city": "Bockel"
  },
  {
    "postcode": "29649",
    "city": "Auhaus"
  },
  {
    "postcode": "29649",
    "city": "Lehmberg"
  },
  {
    "postcode": "29649",
    "city": "Marbostel"
  },
  {
    "postcode": "29649",
    "city": "Südsee-Camp"
  },
  {
    "postcode": "29664",
    "city": "Altenboitzen"
  },
  {
    "postcode": "29664",
    "city": "Benzen"
  },
  {
    "postcode": "29664",
    "city": "Bockhorn Kreis Fallingbostel"
  },
  {
    "postcode": "29664",
    "city": "Bockhorn"
  },
  {
    "postcode": "29664",
    "city": "Borg"
  },
  {
    "postcode": "29664",
    "city": "Dreikronen"
  },
  {
    "postcode": "29664",
    "city": "Düshorn"
  },
  {
    "postcode": "29664",
    "city": "Ebbingen"
  },
  {
    "postcode": "29664",
    "city": "Fulde"
  },
  {
    "postcode": "29664",
    "city": "Groß Eilstorf"
  },
  {
    "postcode": "29664",
    "city": "Hamwiede"
  },
  {
    "postcode": "29664",
    "city": "Hollige"
  },
  {
    "postcode": "29664",
    "city": "Honerdingen"
  },
  {
    "postcode": "29664",
    "city": "Hünzingen"
  },
  {
    "postcode": "29664",
    "city": "Idsingen"
  },
  {
    "postcode": "29664",
    "city": "Kirchboitzen"
  },
  {
    "postcode": "29664",
    "city": "Klein Eilstorf"
  },
  {
    "postcode": "29664",
    "city": "Krelingen"
  },
  {
    "postcode": "29664",
    "city": "Meinerdingen"
  },
  {
    "postcode": "29664",
    "city": "Nordkampen"
  },
  {
    "postcode": "29664",
    "city": "Ostenholz"
  },
  {
    "postcode": "29664",
    "city": "Schneeheide"
  },
  {
    "postcode": "29664",
    "city": "Sieverdingen"
  },
  {
    "postcode": "29664",
    "city": "Stellichte"
  },
  {
    "postcode": "29664",
    "city": "Südkampen"
  },
  {
    "postcode": "29664",
    "city": "Vethem"
  },
  {
    "postcode": "29664",
    "city": "Walsrode"
  },
  {
    "postcode": "29664",
    "city": "Westenholz Kreis Fallingbostel"
  },
  {
    "postcode": "29664",
    "city": "Westenholz"
  },
  {
    "postcode": "29664",
    "city": "Heidekreis"
  },
  {
    "postcode": "29664",
    "city": "Osterheide"
  },
  {
    "postcode": "29664",
    "city": "Bomlitz"
  },
  {
    "postcode": "29664",
    "city": "Berg"
  },
  {
    "postcode": "29664",
    "city": "Blankemühlen"
  },
  {
    "postcode": "29664",
    "city": "Forsthof"
  },
  {
    "postcode": "29664",
    "city": "Hegersberg"
  },
  {
    "postcode": "29664",
    "city": "Im Felde"
  },
  {
    "postcode": "29664",
    "city": "Sindorf"
  },
  {
    "postcode": "29664",
    "city": "Maienbruch"
  },
  {
    "postcode": "29664",
    "city": "Meierkamp"
  },
  {
    "postcode": "29664",
    "city": "Meirehmen"
  },
  {
    "postcode": "29664",
    "city": "Nünningen"
  },
  {
    "postcode": "29683",
    "city": "Adolphsheide"
  },
  {
    "postcode": "29683",
    "city": "Bad Fallingbostel"
  },
  {
    "postcode": "29683",
    "city": "Dorfmark"
  },
  {
    "postcode": "29683",
    "city": "Fallingbostel"
  },
  {
    "postcode": "29683",
    "city": "Jettebruch"
  },
  {
    "postcode": "29683",
    "city": "Mengebostel"
  },
  {
    "postcode": "29683",
    "city": "Oerbke bei Fallingbostel"
  },
  {
    "postcode": "29683",
    "city": "Riepe bei Dorfmark"
  },
  {
    "postcode": "29683",
    "city": "Vierde"
  },
  {
    "postcode": "29683",
    "city": "Wense bei Dorfmark"
  },
  {
    "postcode": "29683",
    "city": "Heidekreis"
  },
  {
    "postcode": "29683",
    "city": "Oerbke"
  },
  {
    "postcode": "29683",
    "city": "Wense"
  },
  {
    "postcode": "29683",
    "city": "Amtsfelde"
  },
  {
    "postcode": "29683",
    "city": "Avenriep"
  },
  {
    "postcode": "29683",
    "city": "Dieckhus"
  },
  {
    "postcode": "29683",
    "city": "Elferdingen"
  },
  {
    "postcode": "29683",
    "city": "Riepe"
  },
  {
    "postcode": "29683",
    "city": "Bömme"
  },
  {
    "postcode": "29683",
    "city": "Fuhrhop"
  },
  {
    "postcode": "29683",
    "city": "Allerhop"
  },
  {
    "postcode": "29683",
    "city": "Obernhausen"
  },
  {
    "postcode": "29683",
    "city": "Klint"
  },
  {
    "postcode": "29683",
    "city": "Küddelse"
  },
  {
    "postcode": "29683",
    "city": "Oerbke-Lager"
  },
  {
    "postcode": "29690",
    "city": "Bothmer"
  },
  {
    "postcode": "29690",
    "city": "Buchholz (Aller)"
  },
  {
    "postcode": "29690",
    "city": "Buchholz"
  },
  {
    "postcode": "29690",
    "city": "Büchten"
  },
  {
    "postcode": "29690",
    "city": "Engehausen"
  },
  {
    "postcode": "29690",
    "city": "Essel"
  },
  {
    "postcode": "29690",
    "city": "Essel Aller"
  },
  {
    "postcode": "29690",
    "city": "Gilten"
  },
  {
    "postcode": "29690",
    "city": "Gilten Bahnhof"
  },
  {
    "postcode": "29690",
    "city": "Grethem"
  },
  {
    "postcode": "29690",
    "city": "Grindau"
  },
  {
    "postcode": "29690",
    "city": "Hope Kreis Fallingbostel"
  },
  {
    "postcode": "29690",
    "city": "Hope"
  },
  {
    "postcode": "29690",
    "city": "Lindwedel"
  },
  {
    "postcode": "29690",
    "city": "Lust"
  },
  {
    "postcode": "29690",
    "city": "Marklendorf"
  },
  {
    "postcode": "29690",
    "city": "Nienhagen Kreis Fallingbostel"
  },
  {
    "postcode": "29690",
    "city": "Nienhagen"
  },
  {
    "postcode": "29690",
    "city": "Norddrebber"
  },
  {
    "postcode": "29690",
    "city": "Schwarmstedt"
  },
  {
    "postcode": "29690",
    "city": "Suderbruch"
  },
  {
    "postcode": "29690",
    "city": "Heidekreis"
  },
  {
    "postcode": "29690",
    "city": "Ostenholzer Moor"
  },
  {
    "postcode": "29690",
    "city": "Stillenhöfen"
  },
  {
    "postcode": "29690",
    "city": "Eschenworth"
  },
  {
    "postcode": "29693",
    "city": "Ahlden"
  },
  {
    "postcode": "29693",
    "city": "Ahlden (Aller)"
  },
  {
    "postcode": "29693",
    "city": "Altenwahlingen"
  },
  {
    "postcode": "29693",
    "city": "Bierde Kreis Fallingbostel"
  },
  {
    "postcode": "29693",
    "city": "Bierde"
  },
  {
    "postcode": "29693",
    "city": "Böhme"
  },
  {
    "postcode": "29693",
    "city": "Eickeloh"
  },
  {
    "postcode": "29693",
    "city": "Eilte"
  },
  {
    "postcode": "29693",
    "city": "Hademstorf"
  },
  {
    "postcode": "29693",
    "city": "Hodenhagen"
  },
  {
    "postcode": "29693",
    "city": "Kirchwahlingen"
  },
  {
    "postcode": "29693",
    "city": "Heidekreis"
  },
  {
    "postcode": "29693",
    "city": "Bahnhof Böhme"
  },
  {
    "postcode": "29693",
    "city": "Stadt Rethem"
  },
  {
    "postcode": "29699",
    "city": "Ahrsen"
  },
  {
    "postcode": "29699",
    "city": "Benefeld"
  },
  {
    "postcode": "29699",
    "city": "Bomlitz"
  },
  {
    "postcode": "29699",
    "city": "Bommelsen"
  },
  {
    "postcode": "29699",
    "city": "Cordingen"
  },
  {
    "postcode": "29699",
    "city": "Elferdingen"
  },
  {
    "postcode": "29699",
    "city": "Jarlingen"
  },
  {
    "postcode": "29699",
    "city": "Kleinharl Kreis Fallingbostel"
  },
  {
    "postcode": "29699",
    "city": "Kleinharl"
  },
  {
    "postcode": "29699",
    "city": "Kroge Kreis Fallingbostel"
  },
  {
    "postcode": "29699",
    "city": "Kroge"
  },
  {
    "postcode": "29699",
    "city": "Uetzingen"
  },
  {
    "postcode": "29699",
    "city": "Wenzingen"
  },
  {
    "postcode": "29699",
    "city": "Westerharl"
  },
  {
    "postcode": "29699",
    "city": "Heidekreis"
  },
  {
    "postcode": "29699",
    "city": "Walsrode"
  },
  {
    "postcode": "29699",
    "city": "Borg"
  },
  {
    "postcode": "29699",
    "city": "Beck"
  },
  {
    "postcode": "29699",
    "city": "Dehnbostel"
  },
  {
    "postcode": "29699",
    "city": "Hasberg"
  },
  {
    "postcode": "29699",
    "city": "Löverschen"
  },
  {
    "postcode": "29699",
    "city": "Lönsheide"
  }
]