[
  {
    "postcode": "6800",
    "city": "Altjeßnitz"
  },
  {
    "postcode": "6800",
    "city": "Jeßnitz (Anhalt)"
  },
  {
    "postcode": "6800",
    "city": "Jeßnitz"
  },
  {
    "postcode": "6800",
    "city": "Anhalt-Bitterfeld"
  },
  {
    "postcode": "6800",
    "city": "Raguhn-Jeßnitz"
  },
  {
    "postcode": "6800",
    "city": "Roßdorf"
  },
  {
    "postcode": "6803",
    "city": "Greppin"
  },
  {
    "postcode": "6803",
    "city": "Anhalt-Bitterfeld"
  },
  {
    "postcode": "6803",
    "city": "Bitterfeld-Wolfen"
  },
  {
    "postcode": "6803",
    "city": "Wachtendorf"
  },
  {
    "postcode": "6803",
    "city": "Wolfen"
  },
  {
    "postcode": "6804",
    "city": "Burgkemnitz"
  },
  {
    "postcode": "6804",
    "city": "Muldenstein"
  },
  {
    "postcode": "6808",
    "city": "Bitterfeld-Wolfen"
  },
  {
    "postcode": "6808",
    "city": "Holzweißig"
  },
  {
    "postcode": "6808",
    "city": "Anhalt-Bitterfeld"
  },
  {
    "postcode": "6809",
    "city": "Petersroda"
  },
  {
    "postcode": "6809",
    "city": "Roitzsch bei Bitterfeld"
  },
  {
    "postcode": "6809",
    "city": "Anhalt-Bitterfeld"
  },
  {
    "postcode": "6809",
    "city": "Roitzsch"
  },
  {
    "postcode": "6809",
    "city": "Sandersdorf-Brehna"
  },
  {
    "postcode": "6842",
    "city": "Dessau Anhalt"
  },
  {
    "postcode": "6842",
    "city": "Dessau"
  },
  {
    "postcode": "6842",
    "city": "Dessau-Roßlau"
  },
  {
    "postcode": "6842",
    "city": "Kleutsch"
  },
  {
    "postcode": "6842",
    "city": "Mildensee"
  },
  {
    "postcode": "6842",
    "city": "Innenstadt"
  },
  {
    "postcode": "6842",
    "city": "Sollnitz"
  },
  {
    "postcode": "6842",
    "city": "Süd"
  },
  {
    "postcode": "6844",
    "city": "Dessau Anhalt"
  },
  {
    "postcode": "6844",
    "city": "Dessau"
  },
  {
    "postcode": "6844",
    "city": "Dessau-Roßlau"
  },
  {
    "postcode": "6844",
    "city": "Waldersee"
  },
  {
    "postcode": "6844",
    "city": "Innenstadt"
  },
  {
    "postcode": "6844",
    "city": "Mildensee"
  },
  {
    "postcode": "6846",
    "city": "Alten"
  },
  {
    "postcode": "6846",
    "city": "Dessau Anhalt"
  },
  {
    "postcode": "6846",
    "city": "Dessau"
  },
  {
    "postcode": "6846",
    "city": "Dessau-Roßlau"
  },
  {
    "postcode": "6846",
    "city": "Großkühnau"
  },
  {
    "postcode": "6846",
    "city": "Kleinkühnau"
  },
  {
    "postcode": "6846",
    "city": "Ziebigk"
  },
  {
    "postcode": "6846",
    "city": "Siedlung"
  },
  {
    "postcode": "6847",
    "city": "Alten"
  },
  {
    "postcode": "6847",
    "city": "Dessau Anhalt"
  },
  {
    "postcode": "6847",
    "city": "Dessau"
  },
  {
    "postcode": "6847",
    "city": "Dessau-Roßlau"
  },
  {
    "postcode": "6847",
    "city": "Kochstedt"
  },
  {
    "postcode": "6847",
    "city": "Mosigkau"
  },
  {
    "postcode": "6847",
    "city": "West"
  },
  {
    "postcode": "6847",
    "city": "Innenstadt"
  },
  {
    "postcode": "6847",
    "city": "Haideburg"
  },
  {
    "postcode": "6847",
    "city": "Süd"
  },
  {
    "postcode": "6847",
    "city": "Zoberberg"
  },
  {
    "postcode": "6847",
    "city": "Siedlung"
  },
  {
    "postcode": "6849",
    "city": "Dessau Anhalt"
  },
  {
    "postcode": "6849",
    "city": "Dessau"
  },
  {
    "postcode": "6849",
    "city": "Dessau-Roßlau"
  },
  {
    "postcode": "6849",
    "city": "Törten"
  },
  {
    "postcode": "6849",
    "city": "Süd"
  },
  {
    "postcode": "6849",
    "city": "Haideburg"
  },
  {
    "postcode": "6861",
    "city": "Dessau-Roßlau"
  },
  {
    "postcode": "6861",
    "city": "Rodleben"
  },
  {
    "postcode": "6862",
    "city": "Brambach bei Roßlau Elbe"
  },
  {
    "postcode": "6862",
    "city": "Brambach bei Roßlau"
  },
  {
    "postcode": "6862",
    "city": "Bräsen"
  },
  {
    "postcode": "6862",
    "city": "Dessau-Roßlau"
  },
  {
    "postcode": "6862",
    "city": "Göritz"
  },
  {
    "postcode": "6862",
    "city": "Grochewitz"
  },
  {
    "postcode": "6862",
    "city": "Hundeluft"
  },
  {
    "postcode": "6862",
    "city": "Jeber-Bergfrieden"
  },
  {
    "postcode": "6862",
    "city": "Meinsdorf"
  },
  {
    "postcode": "6862",
    "city": "Ragösen bei Dessau Anhalt"
  },
  {
    "postcode": "6862",
    "city": "Ragösen bei Dessau"
  },
  {
    "postcode": "6862",
    "city": "Rodleben"
  },
  {
    "postcode": "6862",
    "city": "Roßlau (Elbe)"
  },
  {
    "postcode": "6862",
    "city": "Roßlau"
  },
  {
    "postcode": "6862",
    "city": "Serno"
  },
  {
    "postcode": "6862",
    "city": "Stackelitz"
  },
  {
    "postcode": "6862",
    "city": "Streetz"
  },
  {
    "postcode": "6862",
    "city": "Thießen bei Dessau Anhalt"
  },
  {
    "postcode": "6862",
    "city": "Thießen bei Dessau"
  },
  {
    "postcode": "6862",
    "city": "Weiden"
  },
  {
    "postcode": "6862",
    "city": "Wittenberg"
  },
  {
    "postcode": "6862",
    "city": "Natho"
  },
  {
    "postcode": "6862",
    "city": "Brambach"
  },
  {
    "postcode": "6862",
    "city": "Mühlstedt"
  },
  {
    "postcode": "6862",
    "city": "Innenstadt"
  },
  {
    "postcode": "6862",
    "city": "Dessau"
  },
  {
    "postcode": "6869",
    "city": "Buko"
  },
  {
    "postcode": "6869",
    "city": "Buro"
  },
  {
    "postcode": "6869",
    "city": "Cobbelsdorf"
  },
  {
    "postcode": "6869",
    "city": "Coswig (Anhalt)"
  },
  {
    "postcode": "6869",
    "city": "Coswig"
  },
  {
    "postcode": "6869",
    "city": "Düben"
  },
  {
    "postcode": "6869",
    "city": "Griebo"
  },
  {
    "postcode": "6869",
    "city": "Klieken"
  },
  {
    "postcode": "6869",
    "city": "Köselitz"
  },
  {
    "postcode": "6869",
    "city": "Luko"
  },
  {
    "postcode": "6869",
    "city": "Möllensdorf"
  },
  {
    "postcode": "6869",
    "city": "Pülzig"
  },
  {
    "postcode": "6869",
    "city": "Senst"
  },
  {
    "postcode": "6869",
    "city": "Steinmühle"
  },
  {
    "postcode": "6869",
    "city": "Wahlsdorf"
  },
  {
    "postcode": "6869",
    "city": "Wörpen"
  },
  {
    "postcode": "6869",
    "city": "Zieko"
  },
  {
    "postcode": "6869",
    "city": "Wittenberg"
  },
  {
    "postcode": "6869",
    "city": "Göritz"
  },
  {
    "postcode": "6869",
    "city": "Hubertusberg"
  },
  {
    "postcode": "6886",
    "city": "Lutherstadt Wittenberg"
  },
  {
    "postcode": "6886",
    "city": "Wittenberg"
  },
  {
    "postcode": "6886",
    "city": "Griebo"
  },
  {
    "postcode": "6886",
    "city": "Apollensdorf"
  },
  {
    "postcode": "6886",
    "city": "Kleinwittenberg"
  },
  {
    "postcode": "6886",
    "city": "Lindenfeld"
  },
  {
    "postcode": "6886",
    "city": "Elstervorstadt"
  },
  {
    "postcode": "6886",
    "city": "Pratau"
  },
  {
    "postcode": "6886",
    "city": "Wittenberg Lutherstadt"
  },
  {
    "postcode": "6886",
    "city": "Lerchenbergsiedlung"
  },
  {
    "postcode": "6888",
    "city": "Abtsdorf bei Wittenberg"
  },
  {
    "postcode": "6888",
    "city": "Dabrun"
  },
  {
    "postcode": "6888",
    "city": "Dietrichsdorf bei Lutherstadt Wittenberg"
  },
  {
    "postcode": "6888",
    "city": "Eutzsch"
  },
  {
    "postcode": "6888",
    "city": "Mochau bei Lutherstadt Wittenberg"
  },
  {
    "postcode": "6888",
    "city": "Mühlanger"
  },
  {
    "postcode": "6888",
    "city": "Zörnigall"
  },
  {
    "postcode": "6888",
    "city": "Wittenberg"
  },
  {
    "postcode": "6888",
    "city": "Lutherstadt Wittenberg"
  },
  {
    "postcode": "6888",
    "city": "Pratau"
  },
  {
    "postcode": "6888",
    "city": "Seegrehna"
  },
  {
    "postcode": "6888",
    "city": "Abtsdorf"
  },
  {
    "postcode": "6888",
    "city": "Euper"
  },
  {
    "postcode": "6888",
    "city": "Karlsfeld"
  },
  {
    "postcode": "6888",
    "city": "Mochau"
  },
  {
    "postcode": "6888",
    "city": "Thießen"
  },
  {
    "postcode": "6895",
    "city": "Boßdorf"
  },
  {
    "postcode": "6895",
    "city": "Bülzig"
  },
  {
    "postcode": "6895",
    "city": "Kropstädt"
  },
  {
    "postcode": "6895",
    "city": "Leetza"
  },
  {
    "postcode": "6895",
    "city": "Rahnsdorf bei Lutherstadt Wittenberg"
  },
  {
    "postcode": "6895",
    "city": "Zahna"
  },
  {
    "postcode": "6895",
    "city": "Wittenberg"
  },
  {
    "postcode": "6895",
    "city": "Zahna-Elster"
  },
  {
    "postcode": "6895",
    "city": "Elster"
  },
  {
    "postcode": "6895",
    "city": "Listerfehrda"
  },
  {
    "postcode": "6895",
    "city": "Mühlanger"
  },
  {
    "postcode": "6895",
    "city": "Klebitz"
  },
  {
    "postcode": "6895",
    "city": "Zörnigall"
  },
  {
    "postcode": "6895",
    "city": "Dietrichsdorf"
  },
  {
    "postcode": "6895",
    "city": "Rahnsdorf"
  },
  {
    "postcode": "6895",
    "city": "Gadegast"
  },
  {
    "postcode": "6895",
    "city": "Gielsdorf"
  },
  {
    "postcode": "6895",
    "city": "Iserbegka"
  },
  {
    "postcode": "6895",
    "city": "Külso"
  },
  {
    "postcode": "6895",
    "city": "Meltendorf"
  },
  {
    "postcode": "6895",
    "city": "Ottmannsdorf"
  },
  {
    "postcode": "6895",
    "city": "Raßdorf"
  },
  {
    "postcode": "6895",
    "city": "Zemnick"
  },
  {
    "postcode": "6895",
    "city": "Woltersdorf"
  },
  {
    "postcode": "6895",
    "city": "Zallmsdorf"
  },
  {
    "postcode": "6896",
    "city": "Nudersdorf"
  },
  {
    "postcode": "6896",
    "city": "Schmilkendorf"
  },
  {
    "postcode": "6896",
    "city": "Straach"
  },
  {
    "postcode": "68159",
    "city": "Jungbusch"
  },
  {
    "postcode": "68159",
    "city": "Mannheim Universitätsstadt"
  },
  {
    "postcode": "68159",
    "city": "Mannheim"
  },
  {
    "postcode": "68159",
    "city": "Quadrate"
  },
  {
    "postcode": "68159",
    "city": "Mühlauhafen"
  },
  {
    "postcode": "68161",
    "city": "Mannheim Universitätsstadt"
  },
  {
    "postcode": "68161",
    "city": "Mannheim"
  },
  {
    "postcode": "68161",
    "city": "Oststadt"
  },
  {
    "postcode": "68161",
    "city": "Schwetzingerstadt"
  },
  {
    "postcode": "68161",
    "city": "Quadrate"
  },
  {
    "postcode": "68161",
    "city": "Innenstadt"
  },
  {
    "postcode": "68163",
    "city": "Fabrikstation"
  },
  {
    "postcode": "68163",
    "city": "Lindenhof"
  },
  {
    "postcode": "68163",
    "city": "Mannheim Universitätsstadt"
  },
  {
    "postcode": "68163",
    "city": "Mannheim"
  },
  {
    "postcode": "68163",
    "city": "Neuhermsheim"
  },
  {
    "postcode": "68163",
    "city": "Neuostheim"
  },
  {
    "postcode": "68163",
    "city": "Neckarau"
  },
  {
    "postcode": "68163",
    "city": "Almenhof"
  },
  {
    "postcode": "68165",
    "city": "Mannheim Universitätsstadt"
  },
  {
    "postcode": "68165",
    "city": "Mannheim"
  },
  {
    "postcode": "68165",
    "city": "Oststadt"
  },
  {
    "postcode": "68165",
    "city": "Schwetzingerstadt"
  },
  {
    "postcode": "68165",
    "city": "Fahrlach"
  },
  {
    "postcode": "68167",
    "city": "Mannheim Universitätsstadt"
  },
  {
    "postcode": "68167",
    "city": "Mannheim"
  },
  {
    "postcode": "68167",
    "city": "Neckarstadt"
  },
  {
    "postcode": "68167",
    "city": "Wohlgelegen"
  },
  {
    "postcode": "68169",
    "city": "Mannheim Universitätsstadt"
  },
  {
    "postcode": "68169",
    "city": "Mannheim"
  },
  {
    "postcode": "68169",
    "city": "Neckarstadt"
  },
  {
    "postcode": "68169",
    "city": "Industriehafen"
  },
  {
    "postcode": "68169",
    "city": "Friesenheimer Insel"
  },
  {
    "postcode": "68199",
    "city": "Almenhof"
  },
  {
    "postcode": "68199",
    "city": "Mannheim Universitätsstadt"
  },
  {
    "postcode": "68199",
    "city": "Mannheim"
  },
  {
    "postcode": "68199",
    "city": "Neckarau"
  },
  {
    "postcode": "68199",
    "city": "Rheinau"
  },
  {
    "postcode": "68219",
    "city": "Mannheim Universitätsstadt"
  },
  {
    "postcode": "68219",
    "city": "Mannheim"
  },
  {
    "postcode": "68219",
    "city": "Rheinau"
  },
  {
    "postcode": "68219",
    "city": "Friedrichsfeld"
  },
  {
    "postcode": "68219",
    "city": "Neckarau"
  },
  {
    "postcode": "68229",
    "city": "Friedrichsfeld"
  },
  {
    "postcode": "68229",
    "city": "Mannheim Universitätsstadt"
  },
  {
    "postcode": "68229",
    "city": "Mannheim"
  },
  {
    "postcode": "68239",
    "city": "Mannheim Universitätsstadt"
  },
  {
    "postcode": "68239",
    "city": "Mannheim"
  },
  {
    "postcode": "68239",
    "city": "Seckenheim"
  },
  {
    "postcode": "68259",
    "city": "Feudenheim"
  },
  {
    "postcode": "68259",
    "city": "Mannheim Universitätsstadt"
  },
  {
    "postcode": "68259",
    "city": "Mannheim"
  },
  {
    "postcode": "68259",
    "city": "Wallstadt"
  },
  {
    "postcode": "68305",
    "city": "Gartenstadt"
  },
  {
    "postcode": "68305",
    "city": "Mannheim Universitätsstadt"
  },
  {
    "postcode": "68305",
    "city": "Mannheim"
  },
  {
    "postcode": "68305",
    "city": "Schönau"
  },
  {
    "postcode": "68305",
    "city": "Waldhof"
  },
  {
    "postcode": "68305",
    "city": "Luzenberg"
  },
  {
    "postcode": "68305",
    "city": "Käfertal"
  },
  {
    "postcode": "68307",
    "city": "Blumenau"
  },
  {
    "postcode": "68307",
    "city": "Mannheim Universitätsstadt"
  },
  {
    "postcode": "68307",
    "city": "Mannheim"
  },
  {
    "postcode": "68307",
    "city": "Sandhofen"
  },
  {
    "postcode": "68307",
    "city": "Schönau"
  },
  {
    "postcode": "68307",
    "city": "Kirschgartshausen"
  },
  {
    "postcode": "68309",
    "city": "Käfertal"
  },
  {
    "postcode": "68309",
    "city": "Mannheim Universitätsstadt"
  },
  {
    "postcode": "68309",
    "city": "Mannheim"
  },
  {
    "postcode": "68309",
    "city": "Vogelstang"
  },
  {
    "postcode": "68519",
    "city": "Viernheim"
  },
  {
    "postcode": "68519",
    "city": "Bergstraße"
  },
  {
    "postcode": "68526",
    "city": "Ladenburg"
  },
  {
    "postcode": "68526",
    "city": "Rhein-Neckar-Kreis"
  },
  {
    "postcode": "68535",
    "city": "Edingen"
  },
  {
    "postcode": "68535",
    "city": "Edingen-Neckarhausen"
  },
  {
    "postcode": "68535",
    "city": "Neckarhausen"
  },
  {
    "postcode": "68535",
    "city": "Rhein-Neckar-Kreis"
  },
  {
    "postcode": "68535",
    "city": "Neu-Edingen"
  },
  {
    "postcode": "68542",
    "city": "Heddesheim (Baden)"
  },
  {
    "postcode": "68542",
    "city": "Heddesheim"
  },
  {
    "postcode": "68542",
    "city": "Rhein-Neckar-Kreis"
  },
  {
    "postcode": "68549",
    "city": "Ilvesheim"
  },
  {
    "postcode": "68549",
    "city": "Rhein-Neckar-Kreis"
  },
  {
    "postcode": "68623",
    "city": "Hofheim Ried"
  },
  {
    "postcode": "68623",
    "city": "Hofheim"
  },
  {
    "postcode": "68623",
    "city": "Hüttenfeld"
  },
  {
    "postcode": "68623",
    "city": "Lampertheim"
  },
  {
    "postcode": "68623",
    "city": "Lampertheim Hessen"
  },
  {
    "postcode": "68623",
    "city": "Neuschloß Hessen"
  },
  {
    "postcode": "68623",
    "city": "Neuschloß"
  },
  {
    "postcode": "68623",
    "city": "Rosengarten Ried"
  },
  {
    "postcode": "68623",
    "city": "Rosengarten"
  },
  {
    "postcode": "68623",
    "city": "Bergstraße"
  },
  {
    "postcode": "68623",
    "city": "Forsthaus Heide"
  },
  {
    "postcode": "68642",
    "city": "Bobstadt Hessen"
  },
  {
    "postcode": "68642",
    "city": "Bobstadt"
  },
  {
    "postcode": "68642",
    "city": "Bürstadt"
  },
  {
    "postcode": "68642",
    "city": "Riedrode"
  },
  {
    "postcode": "68642",
    "city": "Bergstraße"
  },
  {
    "postcode": "68647",
    "city": "Biblis"
  },
  {
    "postcode": "68647",
    "city": "Nordheim Hessen"
  },
  {
    "postcode": "68647",
    "city": "Nordheim"
  },
  {
    "postcode": "68647",
    "city": "Wattenheim Hessen"
  },
  {
    "postcode": "68647",
    "city": "Wattenheim"
  },
  {
    "postcode": "68647",
    "city": "Bergstraße"
  },
  {
    "postcode": "68649",
    "city": "Groß-Rohrheim"
  },
  {
    "postcode": "68649",
    "city": "Bergstraße"
  },
  {
    "postcode": "68723",
    "city": "Oftersheim"
  },
  {
    "postcode": "68723",
    "city": "Plankstadt"
  },
  {
    "postcode": "68723",
    "city": "Schwetzingen"
  },
  {
    "postcode": "68723",
    "city": "Rhein-Neckar-Kreis"
  },
  {
    "postcode": "68753",
    "city": "Kirrlach"
  },
  {
    "postcode": "68753",
    "city": "Waghäusel"
  },
  {
    "postcode": "68753",
    "city": "Wiesental Baden"
  },
  {
    "postcode": "68753",
    "city": "Wiesental"
  },
  {
    "postcode": "68753",
    "city": "Karlsruhe"
  },
  {
    "postcode": "68766",
    "city": "Hockenheim"
  },
  {
    "postcode": "68766",
    "city": "Rhein-Neckar-Kreis"
  },
  {
    "postcode": "68766",
    "city": "Siegelhain"
  },
  {
    "postcode": "68775",
    "city": "Ketsch (Rhein)"
  },
  {
    "postcode": "68775",
    "city": "Ketsch"
  },
  {
    "postcode": "68775",
    "city": "Rhein-Neckar-Kreis"
  },
  {
    "postcode": "68782",
    "city": "Brühl (Baden)"
  },
  {
    "postcode": "68782",
    "city": "Brühl"
  },
  {
    "postcode": "68782",
    "city": "Rhein-Neckar-Kreis"
  },
  {
    "postcode": "68789",
    "city": "Rot bei Wiesloch"
  },
  {
    "postcode": "68789",
    "city": "Sankt Leon"
  },
  {
    "postcode": "68789",
    "city": "Sankt Leon-Rot"
  },
  {
    "postcode": "68789",
    "city": "Rhein-Neckar-Kreis"
  },
  {
    "postcode": "68789",
    "city": "St. Leon-Rot"
  },
  {
    "postcode": "68789",
    "city": "St. Leon"
  },
  {
    "postcode": "68789",
    "city": "Rot"
  },
  {
    "postcode": "68794",
    "city": "Oberhausen"
  },
  {
    "postcode": "68794",
    "city": "Oberhausen-Rheinhausen"
  },
  {
    "postcode": "68794",
    "city": "Rheinhausen"
  },
  {
    "postcode": "68794",
    "city": "Karlsruhe"
  },
  {
    "postcode": "68799",
    "city": "Reilingen"
  },
  {
    "postcode": "68799",
    "city": "Rhein-Neckar-Kreis"
  },
  {
    "postcode": "68804",
    "city": "Altlußheim"
  },
  {
    "postcode": "68804",
    "city": "Rhein-Neckar-Kreis"
  },
  {
    "postcode": "68809",
    "city": "Neulußheim"
  },
  {
    "postcode": "68809",
    "city": "Rhein-Neckar-Kreis"
  },
  {
    "postcode": "6868",
    "city": "Wittenberg"
  },
  {
    "postcode": "6868",
    "city": "Coswig (Anhalt)"
  },
  {
    "postcode": "6868",
    "city": "Jeber-Bergfrieden"
  },
  {
    "postcode": "6868",
    "city": "Thießen"
  },
  {
    "postcode": "6868",
    "city": "Hundeluft"
  },
  {
    "postcode": "6868",
    "city": "Serno"
  },
  {
    "postcode": "6868",
    "city": "Grochewitz"
  },
  {
    "postcode": "6868",
    "city": "Bräsen"
  },
  {
    "postcode": "6868",
    "city": "Weiden"
  },
  {
    "postcode": "6868",
    "city": "Stackelitz"
  },
  {
    "postcode": "6868",
    "city": "Krakau"
  },
  {
    "postcode": "6868",
    "city": "Ragösen"
  },
  {
    "postcode": "6868",
    "city": "Coswig"
  },
  {
    "postcode": "6889",
    "city": "Wittenberg"
  },
  {
    "postcode": "6889",
    "city": "Lutherstadt Wittenberg"
  },
  {
    "postcode": "6889",
    "city": "Zahna-Elster"
  },
  {
    "postcode": "6889",
    "city": "Straach"
  },
  {
    "postcode": "6889",
    "city": "Reinsdorf"
  },
  {
    "postcode": "6889",
    "city": "Braunsdorf"
  },
  {
    "postcode": "6889",
    "city": "Kropstädt"
  },
  {
    "postcode": "6889",
    "city": "Dobien"
  },
  {
    "postcode": "6889",
    "city": "Assau"
  },
  {
    "postcode": "6889",
    "city": "Nudersdorf"
  },
  {
    "postcode": "6889",
    "city": "Berkau"
  },
  {
    "postcode": "6889",
    "city": "Boßdorf"
  },
  {
    "postcode": "6889",
    "city": "Schmilkendorf"
  },
  {
    "postcode": "6889",
    "city": "Grabo"
  },
  {
    "postcode": "6889",
    "city": "Jahmo"
  },
  {
    "postcode": "6889",
    "city": "Köpnick"
  },
  {
    "postcode": "6889",
    "city": "Kerzendorf"
  },
  {
    "postcode": "6889",
    "city": "Weddin"
  },
  {
    "postcode": "6889",
    "city": "Wüstemark"
  }
]