[
  {
    "postcode": "7607",
    "city": "Eisenberg Thüringen"
  },
  {
    "postcode": "7607",
    "city": "Eisenberg"
  },
  {
    "postcode": "7607",
    "city": "Gösen bei Eisenberg"
  },
  {
    "postcode": "7607",
    "city": "Hainspitz"
  },
  {
    "postcode": "7607",
    "city": "Heideland bei Eisenberg"
  },
  {
    "postcode": "7607",
    "city": "Saale-Holzland-Kreis"
  },
  {
    "postcode": "7607",
    "city": "Gösen"
  },
  {
    "postcode": "7607",
    "city": "Kursdorf"
  },
  {
    "postcode": "7613",
    "city": "Crossen an der Elster"
  },
  {
    "postcode": "7613",
    "city": "Hartmannsdorf bei Eisenberg"
  },
  {
    "postcode": "7613",
    "city": "Heideland bei Eisenberg"
  },
  {
    "postcode": "7613",
    "city": "Rauda"
  },
  {
    "postcode": "7613",
    "city": "Seifartsdorf"
  },
  {
    "postcode": "7613",
    "city": "Silbitz"
  },
  {
    "postcode": "7613",
    "city": "Walpernhain"
  },
  {
    "postcode": "7613",
    "city": "Saale-Holzland-Kreis"
  },
  {
    "postcode": "7613",
    "city": "Hartmannsdorf"
  },
  {
    "postcode": "7613",
    "city": "Heideland"
  },
  {
    "postcode": "7613",
    "city": "Ahlendorf"
  },
  {
    "postcode": "7613",
    "city": "Crossen"
  },
  {
    "postcode": "7613",
    "city": "Nickelsdorf"
  },
  {
    "postcode": "7613",
    "city": "Tauchlitz"
  },
  {
    "postcode": "7613",
    "city": "Thiemendorf"
  },
  {
    "postcode": "7613",
    "city": "Etzdorf"
  },
  {
    "postcode": "7613",
    "city": "Lindau"
  },
  {
    "postcode": "7613",
    "city": "Rudelsdorf"
  },
  {
    "postcode": "7613",
    "city": "Buchheim"
  },
  {
    "postcode": "7613",
    "city": "Törpla"
  },
  {
    "postcode": "7613",
    "city": "Königshofen"
  },
  {
    "postcode": "7613",
    "city": "Großhelmsdorf"
  },
  {
    "postcode": "7616",
    "city": "Bürgel Thüringen"
  },
  {
    "postcode": "7616",
    "city": "Bürgel"
  },
  {
    "postcode": "7616",
    "city": "Graitschen bei Bürgel"
  },
  {
    "postcode": "7616",
    "city": "Nausnitz"
  },
  {
    "postcode": "7616",
    "city": "Petersberg bei Eisenberg"
  },
  {
    "postcode": "7616",
    "city": "Poxdorf bei Eisenberg"
  },
  {
    "postcode": "7616",
    "city": "Rauschwitz bei Eisenberg"
  },
  {
    "postcode": "7616",
    "city": "Serba"
  },
  {
    "postcode": "7616",
    "city": "Saale-Holzland-Kreis"
  },
  {
    "postcode": "7616",
    "city": "Graitschen b. Bürgel"
  },
  {
    "postcode": "7616",
    "city": "Petersberg"
  },
  {
    "postcode": "7616",
    "city": "Poxdorf"
  },
  {
    "postcode": "7616",
    "city": "Rauschwitz"
  },
  {
    "postcode": "7616",
    "city": "Droschka"
  },
  {
    "postcode": "7616",
    "city": "Gniebsdorf"
  },
  {
    "postcode": "7616",
    "city": "Thalbürgel"
  },
  {
    "postcode": "7616",
    "city": "Taupadel"
  },
  {
    "postcode": "7616",
    "city": "Silbertal"
  },
  {
    "postcode": "7616",
    "city": "Hetzdorf"
  },
  {
    "postcode": "7616",
    "city": "Beulbar"
  },
  {
    "postcode": "7616",
    "city": "Rodigast"
  },
  {
    "postcode": "7616",
    "city": "Göritzberg"
  },
  {
    "postcode": "7616",
    "city": "Gerega"
  },
  {
    "postcode": "7616",
    "city": "Hohendorf"
  },
  {
    "postcode": "7616",
    "city": "Ilmsdorf"
  },
  {
    "postcode": "7616",
    "city": "Lochmühle"
  },
  {
    "postcode": "7616",
    "city": "Nischwitz"
  },
  {
    "postcode": "7616",
    "city": "Lucka"
  },
  {
    "postcode": "7616",
    "city": "Langethalsmühle"
  },
  {
    "postcode": "7616",
    "city": "Ölmühle"
  },
  {
    "postcode": "7616",
    "city": "Wilhelmshöhe"
  },
  {
    "postcode": "7616",
    "city": "Gewerbegebiet"
  },
  {
    "postcode": "7616",
    "city": "Aubitz"
  },
  {
    "postcode": "7616",
    "city": "Kischlitz"
  },
  {
    "postcode": "7616",
    "city": "Stünzmühle"
  },
  {
    "postcode": "7616",
    "city": "Döllschütz"
  },
  {
    "postcode": "7616",
    "city": "Karsdorfberg"
  },
  {
    "postcode": "7616",
    "city": "Pretschwitz"
  },
  {
    "postcode": "7616",
    "city": "Schmörschwitz"
  },
  {
    "postcode": "7616",
    "city": "Trotz"
  },
  {
    "postcode": "7616",
    "city": "Klengel"
  },
  {
    "postcode": "7619",
    "city": "Mertendorf bei Eisenberg"
  },
  {
    "postcode": "7619",
    "city": "Schkölen bei Eisenberg"
  },
  {
    "postcode": "7619",
    "city": "Saale-Holzland-Kreis"
  },
  {
    "postcode": "7619",
    "city": "Mertendorf"
  },
  {
    "postcode": "7619",
    "city": "Schkölen"
  },
  {
    "postcode": "7619",
    "city": "Nautschütz"
  },
  {
    "postcode": "7619",
    "city": "Dothen"
  },
  {
    "postcode": "7619",
    "city": "Graitschen"
  },
  {
    "postcode": "7619",
    "city": "Hainchen"
  },
  {
    "postcode": "7619",
    "city": "Rockau"
  },
  {
    "postcode": "7619",
    "city": "Wetzdorf"
  },
  {
    "postcode": "7629",
    "city": "Hermsdorf Thüringen"
  },
  {
    "postcode": "7629",
    "city": "Hermsdorf"
  },
  {
    "postcode": "7629",
    "city": "Reichenbach bei Hermsdorf"
  },
  {
    "postcode": "7629",
    "city": "Sankt Gangloff"
  },
  {
    "postcode": "7629",
    "city": "Schleifreisen"
  },
  {
    "postcode": "7629",
    "city": "Saale-Holzland-Kreis"
  },
  {
    "postcode": "7629",
    "city": "Reichenbach"
  },
  {
    "postcode": "7629",
    "city": "St. Gangloff"
  },
  {
    "postcode": "7639",
    "city": "Bad Klosterlausnitz"
  },
  {
    "postcode": "7639",
    "city": "Tautenhain bei Hermsdorf"
  },
  {
    "postcode": "7639",
    "city": "Weißenborn bei Hermsdorf"
  },
  {
    "postcode": "7639",
    "city": "Saale-Holzland-Kreis"
  },
  {
    "postcode": "7639",
    "city": "Tautenhain"
  },
  {
    "postcode": "7639",
    "city": "Weißenborn"
  },
  {
    "postcode": "7646",
    "city": "Albersdorf bei Stadtroda"
  },
  {
    "postcode": "7646",
    "city": "Bobeck bei Stadtroda"
  },
  {
    "postcode": "7646",
    "city": "Bollberg"
  },
  {
    "postcode": "7646",
    "city": "Bremsnitz"
  },
  {
    "postcode": "7646",
    "city": "Eineborn"
  },
  {
    "postcode": "7646",
    "city": "Geisenhain"
  },
  {
    "postcode": "7646",
    "city": "Gneus"
  },
  {
    "postcode": "7646",
    "city": "Großbockedra"
  },
  {
    "postcode": "7646",
    "city": "Karlsdorf bei Stadtroda"
  },
  {
    "postcode": "7646",
    "city": "Kleinbockedra"
  },
  {
    "postcode": "7646",
    "city": "Kleinebersdorf"
  },
  {
    "postcode": "7646",
    "city": "Laasdorf"
  },
  {
    "postcode": "7646",
    "city": "Lippersdorf-Erdmannsdorf"
  },
  {
    "postcode": "7646",
    "city": "Meusebach"
  },
  {
    "postcode": "7646",
    "city": "Möckern bei Stadtroda"
  },
  {
    "postcode": "7646",
    "city": "Mörsdorf bei Stadtroda"
  },
  {
    "postcode": "7646",
    "city": "Oberbodnitz"
  },
  {
    "postcode": "7646",
    "city": "Ottendorf bei Stadtroda"
  },
  {
    "postcode": "7646",
    "city": "Quirla"
  },
  {
    "postcode": "7646",
    "city": "Rattelsdorf bei Stadtroda"
  },
  {
    "postcode": "7646",
    "city": "Rausdorf bei Stadtroda"
  },
  {
    "postcode": "7646",
    "city": "Renthendorf"
  },
  {
    "postcode": "7646",
    "city": "Ruttersdorf-Lotschen"
  },
  {
    "postcode": "7646",
    "city": "Scheiditz"
  },
  {
    "postcode": "7646",
    "city": "Schlöben"
  },
  {
    "postcode": "7646",
    "city": "Schöngleina"
  },
  {
    "postcode": "7646",
    "city": "Stadtroda"
  },
  {
    "postcode": "7646",
    "city": "Tautendorf bei Stadtroda"
  },
  {
    "postcode": "7646",
    "city": "Tissa"
  },
  {
    "postcode": "7646",
    "city": "Tröbnitz"
  },
  {
    "postcode": "7646",
    "city": "Trockenborn-Wolfersdorf"
  },
  {
    "postcode": "7646",
    "city": "Unterbodnitz"
  },
  {
    "postcode": "7646",
    "city": "Waldeck bei Stadtroda"
  },
  {
    "postcode": "7646",
    "city": "Waltersdorf bei Stadtroda"
  },
  {
    "postcode": "7646",
    "city": "Weißbach bei Stadtroda"
  },
  {
    "postcode": "7646",
    "city": "Saale-Holzland-Kreis"
  },
  {
    "postcode": "7646",
    "city": "Albersdorf"
  },
  {
    "postcode": "7646",
    "city": "Bobeck"
  },
  {
    "postcode": "7646",
    "city": "Karlsdorf"
  },
  {
    "postcode": "7646",
    "city": "Möckern"
  },
  {
    "postcode": "7646",
    "city": "Mörsdorf"
  },
  {
    "postcode": "7646",
    "city": "Ottendorf"
  },
  {
    "postcode": "7646",
    "city": "Rattelsdorf"
  },
  {
    "postcode": "7646",
    "city": "Rausdorf"
  },
  {
    "postcode": "7646",
    "city": "Tautendorf"
  },
  {
    "postcode": "7646",
    "city": "Waldeck"
  },
  {
    "postcode": "7646",
    "city": "Waltersdorf"
  },
  {
    "postcode": "7646",
    "city": "Weißbach"
  },
  {
    "postcode": "7646",
    "city": "Obergneus"
  },
  {
    "postcode": "7646",
    "city": "Untergneus"
  },
  {
    "postcode": "7646",
    "city": "Lippersdorf"
  },
  {
    "postcode": "7646",
    "city": "Erdmannsdorf"
  },
  {
    "postcode": "7646",
    "city": "Seitenbrück"
  },
  {
    "postcode": "7646",
    "city": "Hellborn"
  },
  {
    "postcode": "7646",
    "city": "Ruttersdorf"
  },
  {
    "postcode": "7646",
    "city": "Lotschen"
  },
  {
    "postcode": "7646",
    "city": "Fraitsch"
  },
  {
    "postcode": "7646",
    "city": "Gröben"
  },
  {
    "postcode": "7646",
    "city": "Mennewitz"
  },
  {
    "postcode": "7646",
    "city": "Rabis"
  },
  {
    "postcode": "7646",
    "city": "Trockhausen"
  },
  {
    "postcode": "7646",
    "city": "Zöttnitz"
  },
  {
    "postcode": "7646",
    "city": "Hainbücht"
  },
  {
    "postcode": "7646",
    "city": "Gernewitz"
  },
  {
    "postcode": "7646",
    "city": "Dorna"
  },
  {
    "postcode": "7646",
    "city": "Podelsatz"
  },
  {
    "postcode": "7646",
    "city": "Ulrichswalde"
  },
  {
    "postcode": "7646",
    "city": "Wolfersdorf"
  },
  {
    "postcode": "7646",
    "city": "Trockenborn"
  },
  {
    "postcode": "7646",
    "city": "Magersdorf"
  },
  {
    "postcode": "76131",
    "city": "Hagsfeld"
  },
  {
    "postcode": "76131",
    "city": "Innenstadt-Ost"
  },
  {
    "postcode": "76131",
    "city": "Innenstadt-West"
  },
  {
    "postcode": "76131",
    "city": "Karlsruhe (Baden)"
  },
  {
    "postcode": "76131",
    "city": "Karlsruhe"
  },
  {
    "postcode": "76131",
    "city": "Nordstadt"
  },
  {
    "postcode": "76131",
    "city": "Oststadt"
  },
  {
    "postcode": "76131",
    "city": "Rintheim"
  },
  {
    "postcode": "76131",
    "city": "Waldstadt"
  },
  {
    "postcode": "76131",
    "city": "Neureut"
  },
  {
    "postcode": "76133",
    "city": "Innenstadt"
  },
  {
    "postcode": "76133",
    "city": "Innenstadt-Ost"
  },
  {
    "postcode": "76133",
    "city": "Innenstadt-West"
  },
  {
    "postcode": "76133",
    "city": "Karlsruhe (Baden)"
  },
  {
    "postcode": "76133",
    "city": "Karlsruhe"
  },
  {
    "postcode": "76133",
    "city": "Nordstadt"
  },
  {
    "postcode": "76133",
    "city": "Südweststadt"
  },
  {
    "postcode": "76133",
    "city": "Weststadt"
  },
  {
    "postcode": "76135",
    "city": "Beiertheim"
  },
  {
    "postcode": "76135",
    "city": "Beiertheim-Bulach"
  },
  {
    "postcode": "76135",
    "city": "Bulach"
  },
  {
    "postcode": "76135",
    "city": "Karlsruhe (Baden)"
  },
  {
    "postcode": "76135",
    "city": "Karlsruhe"
  },
  {
    "postcode": "76135",
    "city": "Oberreut"
  },
  {
    "postcode": "76135",
    "city": "Scheibenhardt"
  },
  {
    "postcode": "76135",
    "city": "Südweststadt"
  },
  {
    "postcode": "76135",
    "city": "Weststadt"
  },
  {
    "postcode": "76137",
    "city": "Hagsfeld"
  },
  {
    "postcode": "76137",
    "city": "Innenstadt-West"
  },
  {
    "postcode": "76137",
    "city": "Karlsruhe (Baden)"
  },
  {
    "postcode": "76137",
    "city": "Karlsruhe"
  },
  {
    "postcode": "76137",
    "city": "Oststadt"
  },
  {
    "postcode": "76137",
    "city": "Rintheim"
  },
  {
    "postcode": "76137",
    "city": "Südstadt"
  },
  {
    "postcode": "76137",
    "city": "Südweststadt"
  },
  {
    "postcode": "76137",
    "city": "Weiherfeld-Dammerstock"
  },
  {
    "postcode": "76139",
    "city": "Hagsfeld"
  },
  {
    "postcode": "76139",
    "city": "Karlsruhe (Baden)"
  },
  {
    "postcode": "76139",
    "city": "Karlsruhe"
  },
  {
    "postcode": "76139",
    "city": "Rintheim"
  },
  {
    "postcode": "76139",
    "city": "Waldstadt"
  },
  {
    "postcode": "76149",
    "city": "Karlsruhe (Baden)"
  },
  {
    "postcode": "76149",
    "city": "Karlsruhe"
  },
  {
    "postcode": "76149",
    "city": "Neureut"
  },
  {
    "postcode": "76149",
    "city": "Nordstadt"
  },
  {
    "postcode": "76185",
    "city": "Daxlanden"
  },
  {
    "postcode": "76185",
    "city": "Grünwinkel"
  },
  {
    "postcode": "76185",
    "city": "Karlsruhe (Baden)"
  },
  {
    "postcode": "76185",
    "city": "Karlsruhe"
  },
  {
    "postcode": "76185",
    "city": "Mühlburg"
  },
  {
    "postcode": "76185",
    "city": "Nordstadt"
  },
  {
    "postcode": "76185",
    "city": "Nordweststadt"
  },
  {
    "postcode": "76185",
    "city": "Weststadt"
  },
  {
    "postcode": "76187",
    "city": "Karlsruhe (Baden)"
  },
  {
    "postcode": "76187",
    "city": "Karlsruhe"
  },
  {
    "postcode": "76187",
    "city": "Knielingen"
  },
  {
    "postcode": "76187",
    "city": "Maxau"
  },
  {
    "postcode": "76187",
    "city": "Mühlburg"
  },
  {
    "postcode": "76187",
    "city": "Nordweststadt"
  },
  {
    "postcode": "76189",
    "city": "Daxlanden"
  },
  {
    "postcode": "76189",
    "city": "Grünwinkel"
  },
  {
    "postcode": "76189",
    "city": "Karlsruhe (Baden)"
  },
  {
    "postcode": "76189",
    "city": "Karlsruhe"
  },
  {
    "postcode": "76189",
    "city": "Knielingen"
  },
  {
    "postcode": "76189",
    "city": "Mühlburg"
  },
  {
    "postcode": "76189",
    "city": "Oberreut"
  },
  {
    "postcode": "76199",
    "city": "Dammerstock"
  },
  {
    "postcode": "76199",
    "city": "Karlsruhe (Baden)"
  },
  {
    "postcode": "76199",
    "city": "Karlsruhe"
  },
  {
    "postcode": "76199",
    "city": "Rüppurr"
  },
  {
    "postcode": "76199",
    "city": "Weiherfeld-Dammerstock"
  },
  {
    "postcode": "76227",
    "city": "Durlach"
  },
  {
    "postcode": "76227",
    "city": "Hohenwettersbach"
  },
  {
    "postcode": "76227",
    "city": "Karlsruhe (Baden)"
  },
  {
    "postcode": "76227",
    "city": "Karlsruhe"
  },
  {
    "postcode": "76227",
    "city": "Stupferich"
  },
  {
    "postcode": "76227",
    "city": "Thomashof"
  },
  {
    "postcode": "76227",
    "city": "Hagsfeld"
  },
  {
    "postcode": "76228",
    "city": "Bergwald"
  },
  {
    "postcode": "76228",
    "city": "Grünwettersbach"
  },
  {
    "postcode": "76228",
    "city": "Hohenwettersbach"
  },
  {
    "postcode": "76228",
    "city": "Karlsruhe (Baden)"
  },
  {
    "postcode": "76228",
    "city": "Karlsruhe"
  },
  {
    "postcode": "76228",
    "city": "Palmbach"
  },
  {
    "postcode": "76228",
    "city": "Stupferich"
  },
  {
    "postcode": "76228",
    "city": "Wolfartsweier"
  },
  {
    "postcode": "76229",
    "city": "Durlach"
  },
  {
    "postcode": "76229",
    "city": "Grötzingen"
  },
  {
    "postcode": "76229",
    "city": "Karlsruhe (Baden)"
  },
  {
    "postcode": "76229",
    "city": "Karlsruhe"
  },
  {
    "postcode": "76275",
    "city": "Bruchhausen"
  },
  {
    "postcode": "76275",
    "city": "Ettlingen"
  },
  {
    "postcode": "76275",
    "city": "Ettlingenweier"
  },
  {
    "postcode": "76275",
    "city": "Oberweier"
  },
  {
    "postcode": "76275",
    "city": "Schluttenbach"
  },
  {
    "postcode": "76275",
    "city": "Schöllbronn"
  },
  {
    "postcode": "76275",
    "city": "Spessart"
  },
  {
    "postcode": "76275",
    "city": "Karlsruhe"
  },
  {
    "postcode": "76287",
    "city": "Forchheim"
  },
  {
    "postcode": "76287",
    "city": "Mörsch"
  },
  {
    "postcode": "76287",
    "city": "Neuburgweier"
  },
  {
    "postcode": "76287",
    "city": "Rheinstetten (Baden)"
  },
  {
    "postcode": "76287",
    "city": "Rheinstetten"
  },
  {
    "postcode": "76287",
    "city": "Karlsruhe"
  },
  {
    "postcode": "76287",
    "city": "Silberstreifen"
  },
  {
    "postcode": "76297",
    "city": "Blankenloch"
  },
  {
    "postcode": "76297",
    "city": "Büchig"
  },
  {
    "postcode": "76297",
    "city": "Friedrichstal"
  },
  {
    "postcode": "76297",
    "city": "Spöck"
  },
  {
    "postcode": "76297",
    "city": "Staffort"
  },
  {
    "postcode": "76297",
    "city": "Stutensee"
  },
  {
    "postcode": "76297",
    "city": "Karlsruhe"
  },
  {
    "postcode": "76307",
    "city": "Auerbach"
  },
  {
    "postcode": "76307",
    "city": "Ittersbach"
  },
  {
    "postcode": "76307",
    "city": "Karlsbad"
  },
  {
    "postcode": "76307",
    "city": "Langensteinbach"
  },
  {
    "postcode": "76307",
    "city": "Mutschelbach"
  },
  {
    "postcode": "76307",
    "city": "Spielberg"
  },
  {
    "postcode": "76307",
    "city": "Karlsruhe"
  },
  {
    "postcode": "76316",
    "city": "Malsch"
  },
  {
    "postcode": "76316",
    "city": "Malsch (Kreis Karlsruhe)"
  },
  {
    "postcode": "76316",
    "city": "Neumalsch"
  },
  {
    "postcode": "76316",
    "city": "Sulzbach"
  },
  {
    "postcode": "76316",
    "city": "Völkersbach"
  },
  {
    "postcode": "76316",
    "city": "Waldprechtsweier"
  },
  {
    "postcode": "76316",
    "city": "Karlsruhe"
  },
  {
    "postcode": "76327",
    "city": "Berghausen"
  },
  {
    "postcode": "76327",
    "city": "Kleinsteinbach"
  },
  {
    "postcode": "76327",
    "city": "Pfinztal"
  },
  {
    "postcode": "76327",
    "city": "Söllingen"
  },
  {
    "postcode": "76327",
    "city": "Wöschbach"
  },
  {
    "postcode": "76327",
    "city": "Karlsruhe"
  },
  {
    "postcode": "76332",
    "city": "Bad Herrenalb"
  },
  {
    "postcode": "76332",
    "city": "Bernbach"
  },
  {
    "postcode": "76332",
    "city": "Gaistal"
  },
  {
    "postcode": "76332",
    "city": "Loffenau"
  },
  {
    "postcode": "76332",
    "city": "Neusatz"
  },
  {
    "postcode": "76332",
    "city": "Rotensol"
  },
  {
    "postcode": "76332",
    "city": "Calw"
  },
  {
    "postcode": "76332",
    "city": "Plotzsägemühle"
  },
  {
    "postcode": "76332",
    "city": "Kullenmühle"
  },
  {
    "postcode": "76332",
    "city": "Oberes Gaistal"
  },
  {
    "postcode": "76337",
    "city": "Busenbach"
  },
  {
    "postcode": "76337",
    "city": "Etzenrot"
  },
  {
    "postcode": "76337",
    "city": "Reichenbach"
  },
  {
    "postcode": "76337",
    "city": "Waldbronn (Albtal)"
  },
  {
    "postcode": "76337",
    "city": "Waldbronn"
  },
  {
    "postcode": "76337",
    "city": "Karlsruhe"
  },
  {
    "postcode": "76337",
    "city": "Neurod"
  },
  {
    "postcode": "76344",
    "city": "Eggenstein"
  },
  {
    "postcode": "76344",
    "city": "Eggenstein-Leopoldshafen"
  },
  {
    "postcode": "76344",
    "city": "Leopoldshafen"
  },
  {
    "postcode": "76344",
    "city": "Karlsruhe"
  },
  {
    "postcode": "76344",
    "city": "Gemeinde Karlsruhe"
  },
  {
    "postcode": "76351",
    "city": "Hochstetten"
  },
  {
    "postcode": "76351",
    "city": "Linkenheim"
  },
  {
    "postcode": "76351",
    "city": "Linkenheim-Hochstetten"
  },
  {
    "postcode": "76351",
    "city": "Karlsruhe"
  },
  {
    "postcode": "76356",
    "city": "Sallenbusch"
  },
  {
    "postcode": "76356",
    "city": "Weingarten (Baden)"
  },
  {
    "postcode": "76356",
    "city": "Weingarten"
  },
  {
    "postcode": "76356",
    "city": "Werrabronn"
  },
  {
    "postcode": "76356",
    "city": "Karlsruhe"
  },
  {
    "postcode": "76359",
    "city": "Burbach"
  },
  {
    "postcode": "76359",
    "city": "Frauenalb"
  },
  {
    "postcode": "76359",
    "city": "Marxzell"
  },
  {
    "postcode": "76359",
    "city": "Pfaffenrot"
  },
  {
    "postcode": "76359",
    "city": "Schielberg"
  },
  {
    "postcode": "76359",
    "city": "Karlsruhe"
  },
  {
    "postcode": "76359",
    "city": "Fischweier"
  },
  {
    "postcode": "76437",
    "city": "Förch"
  },
  {
    "postcode": "76437",
    "city": "Niederbühl"
  },
  {
    "postcode": "76437",
    "city": "Ottersdorf"
  },
  {
    "postcode": "76437",
    "city": "Plittersdorf"
  },
  {
    "postcode": "76437",
    "city": "Rastatt"
  },
  {
    "postcode": "76437",
    "city": "Rauental"
  },
  {
    "postcode": "76437",
    "city": "Wintersdorf"
  },
  {
    "postcode": "76448",
    "city": "Durmersheim"
  },
  {
    "postcode": "76448",
    "city": "Würmersheim"
  },
  {
    "postcode": "76448",
    "city": "Rastatt"
  },
  {
    "postcode": "76456",
    "city": "Kuppenheim"
  },
  {
    "postcode": "76456",
    "city": "Oberndorf"
  },
  {
    "postcode": "76456",
    "city": "Rastatt"
  },
  {
    "postcode": "76461",
    "city": "Muggensturm"
  },
  {
    "postcode": "76461",
    "city": "Rastatt"
  },
  {
    "postcode": "76467",
    "city": "Bietigheim (Baden)"
  },
  {
    "postcode": "76467",
    "city": "Bietigheim"
  },
  {
    "postcode": "76467",
    "city": "Rastatt"
  },
  {
    "postcode": "76470",
    "city": "Ötigheim"
  },
  {
    "postcode": "76470",
    "city": "Rastatt"
  },
  {
    "postcode": "76473",
    "city": "Iffezheim"
  },
  {
    "postcode": "76473",
    "city": "Rastatt"
  },
  {
    "postcode": "76474",
    "city": "Au am Rhein"
  },
  {
    "postcode": "76474",
    "city": "Rastatt"
  },
  {
    "postcode": "76476",
    "city": "Bischweier"
  },
  {
    "postcode": "76476",
    "city": "Rastatt"
  },
  {
    "postcode": "76477",
    "city": "Elchesheim"
  },
  {
    "postcode": "76477",
    "city": "Elchesheim-Illingen"
  },
  {
    "postcode": "76477",
    "city": "Illingen"
  },
  {
    "postcode": "76477",
    "city": "Rastatt"
  },
  {
    "postcode": "76479",
    "city": "Steinmauern"
  },
  {
    "postcode": "76479",
    "city": "Rastatt"
  },
  {
    "postcode": "76530",
    "city": "Baden-Baden"
  },
  {
    "postcode": "76530",
    "city": "Ebersteinburg"
  },
  {
    "postcode": "76530",
    "city": "Fremersberg"
  },
  {
    "postcode": "76530",
    "city": "Innenstadt"
  },
  {
    "postcode": "76530",
    "city": "Lichtental"
  },
  {
    "postcode": "76530",
    "city": "Varnhalt"
  },
  {
    "postcode": "76530",
    "city": "Weststadt"
  },
  {
    "postcode": "76532",
    "city": "Baden-Baden"
  },
  {
    "postcode": "76532",
    "city": "Balg"
  },
  {
    "postcode": "76532",
    "city": "Ebersteinburg"
  },
  {
    "postcode": "76532",
    "city": "Haueneberstein"
  },
  {
    "postcode": "76532",
    "city": "Oos"
  },
  {
    "postcode": "76532",
    "city": "Sandweier"
  },
  {
    "postcode": "76532",
    "city": "Weststadt"
  },
  {
    "postcode": "76534",
    "city": "Baden-Baden"
  },
  {
    "postcode": "76534",
    "city": "Geroldsau"
  },
  {
    "postcode": "76534",
    "city": "Innenstadt"
  },
  {
    "postcode": "76534",
    "city": "Lichtental"
  },
  {
    "postcode": "76534",
    "city": "Malschbach"
  },
  {
    "postcode": "76534",
    "city": "Neuweier"
  },
  {
    "postcode": "76534",
    "city": "Oberbeuern"
  },
  {
    "postcode": "76534",
    "city": "Steinbach"
  },
  {
    "postcode": "76534",
    "city": "Varnhalt"
  },
  {
    "postcode": "76534",
    "city": "Gaisbach"
  },
  {
    "postcode": "76534",
    "city": "Müllenbach"
  },
  {
    "postcode": "76534",
    "city": "Schmalbach"
  },
  {
    "postcode": "76547",
    "city": "Halberstung"
  },
  {
    "postcode": "76547",
    "city": "Kartung"
  },
  {
    "postcode": "76547",
    "city": "Leiberstung"
  },
  {
    "postcode": "76547",
    "city": "Müllhofen"
  },
  {
    "postcode": "76547",
    "city": "Ortsgebiet"
  },
  {
    "postcode": "76547",
    "city": "Schiftung"
  },
  {
    "postcode": "76547",
    "city": "Sinzheim bei Baden-Baden"
  },
  {
    "postcode": "76547",
    "city": "Vormberg"
  },
  {
    "postcode": "76547",
    "city": "Winden"
  },
  {
    "postcode": "76547",
    "city": "Rastatt"
  },
  {
    "postcode": "76547",
    "city": "Sinzheim"
  },
  {
    "postcode": "76549",
    "city": "Hügelsheim"
  },
  {
    "postcode": "76549",
    "city": "Rastatt"
  },
  {
    "postcode": "76571",
    "city": "Bad Rotenfels"
  },
  {
    "postcode": "76571",
    "city": "Freiolsheim"
  },
  {
    "postcode": "76571",
    "city": "Gaggenau"
  },
  {
    "postcode": "76571",
    "city": "Hörden"
  },
  {
    "postcode": "76571",
    "city": "Michelbach"
  },
  {
    "postcode": "76571",
    "city": "Mittelberg"
  },
  {
    "postcode": "76571",
    "city": "Moosbronn"
  },
  {
    "postcode": "76571",
    "city": "Oberweier"
  },
  {
    "postcode": "76571",
    "city": "Ottenau"
  },
  {
    "postcode": "76571",
    "city": "Rotenfels"
  },
  {
    "postcode": "76571",
    "city": "Selbach"
  },
  {
    "postcode": "76571",
    "city": "Sulzbach"
  },
  {
    "postcode": "76571",
    "city": "Winkel"
  },
  {
    "postcode": "76571",
    "city": "Rastatt"
  },
  {
    "postcode": "76593",
    "city": "Gernsbach"
  },
  {
    "postcode": "76593",
    "city": "Hilpertsau"
  },
  {
    "postcode": "76593",
    "city": "Lautenbach"
  },
  {
    "postcode": "76593",
    "city": "Obertsrot"
  },
  {
    "postcode": "76593",
    "city": "Reichental"
  },
  {
    "postcode": "76593",
    "city": "Scheuern"
  },
  {
    "postcode": "76593",
    "city": "Staufenberg"
  },
  {
    "postcode": "76593",
    "city": "Rastatt"
  },
  {
    "postcode": "76593",
    "city": "Kaltenbronn"
  },
  {
    "postcode": "76596",
    "city": "Bermersbach"
  },
  {
    "postcode": "76596",
    "city": "Erbersbronn"
  },
  {
    "postcode": "76596",
    "city": "Forbach"
  },
  {
    "postcode": "76596",
    "city": "Forbach (Baden)"
  },
  {
    "postcode": "76596",
    "city": "Gausbach"
  },
  {
    "postcode": "76596",
    "city": "Herrenwies"
  },
  {
    "postcode": "76596",
    "city": "Hundsbach"
  },
  {
    "postcode": "76596",
    "city": "Kirschbaumwasen"
  },
  {
    "postcode": "76596",
    "city": "Langenbrand"
  },
  {
    "postcode": "76596",
    "city": "Raumünzach"
  },
  {
    "postcode": "76596",
    "city": "Rastatt"
  },
  {
    "postcode": "76596",
    "city": "Ottersweier"
  },
  {
    "postcode": "76597",
    "city": "Loffenau"
  },
  {
    "postcode": "76597",
    "city": "Rastatt"
  },
  {
    "postcode": "76599",
    "city": "Au"
  },
  {
    "postcode": "76599",
    "city": "Weisenbach"
  },
  {
    "postcode": "76599",
    "city": "Weisenbach (Murgtal)"
  },
  {
    "postcode": "76599",
    "city": "Rastatt"
  },
  {
    "postcode": "76599",
    "city": "Neudorf"
  },
  {
    "postcode": "76599",
    "city": "Weisenbachfabrik"
  },
  {
    "postcode": "76646",
    "city": "Bruchsal"
  },
  {
    "postcode": "76646",
    "city": "Büchenau"
  },
  {
    "postcode": "76646",
    "city": "Heidelsheim"
  },
  {
    "postcode": "76646",
    "city": "Helmsheim"
  },
  {
    "postcode": "76646",
    "city": "Obergrombach"
  },
  {
    "postcode": "76646",
    "city": "Untergrombach"
  },
  {
    "postcode": "76646",
    "city": "Karlsruhe"
  },
  {
    "postcode": "76661",
    "city": "Huttenheim"
  },
  {
    "postcode": "76661",
    "city": "Philippsburg"
  },
  {
    "postcode": "76661",
    "city": "Philippsburg (Baden)"
  },
  {
    "postcode": "76661",
    "city": "Rheinsheim"
  },
  {
    "postcode": "76661",
    "city": "Karlsruhe"
  },
  {
    "postcode": "76669",
    "city": "Bad Schönborn"
  },
  {
    "postcode": "76669",
    "city": "Kislau"
  },
  {
    "postcode": "76669",
    "city": "Langenbrücken"
  },
  {
    "postcode": "76669",
    "city": "Mingolsheim"
  },
  {
    "postcode": "76669",
    "city": "Karlsruhe"
  },
  {
    "postcode": "76676",
    "city": "Graben"
  },
  {
    "postcode": "76676",
    "city": "Graben-Neudorf"
  },
  {
    "postcode": "76676",
    "city": "Neudorf"
  },
  {
    "postcode": "76676",
    "city": "Karlsruhe"
  },
  {
    "postcode": "76684",
    "city": "Eichelberg"
  },
  {
    "postcode": "76684",
    "city": "Odenheim"
  },
  {
    "postcode": "76684",
    "city": "Östringen"
  },
  {
    "postcode": "76684",
    "city": "Tiefenbach"
  },
  {
    "postcode": "76684",
    "city": "Karlsruhe"
  },
  {
    "postcode": "76689",
    "city": "Karlsdorf"
  },
  {
    "postcode": "76689",
    "city": "Karlsdorf-Neuthard"
  },
  {
    "postcode": "76689",
    "city": "Neuthard"
  },
  {
    "postcode": "76689",
    "city": "Karlsruhe"
  },
  {
    "postcode": "76694",
    "city": "Forst (Baden)"
  },
  {
    "postcode": "76694",
    "city": "Forst"
  },
  {
    "postcode": "76694",
    "city": "Karlsruhe"
  },
  {
    "postcode": "76698",
    "city": "Stettfeld"
  },
  {
    "postcode": "76698",
    "city": "Ubstadt"
  },
  {
    "postcode": "76698",
    "city": "Ubstadt-Weiher"
  },
  {
    "postcode": "76698",
    "city": "Weiher"
  },
  {
    "postcode": "76698",
    "city": "Zeutern"
  },
  {
    "postcode": "76698",
    "city": "Karlsruhe"
  },
  {
    "postcode": "76703",
    "city": "Bahnbrücken"
  },
  {
    "postcode": "76703",
    "city": "Gochsheim"
  },
  {
    "postcode": "76703",
    "city": "Kraichtal"
  },
  {
    "postcode": "76703",
    "city": "Landshausen"
  },
  {
    "postcode": "76703",
    "city": "Menzingen"
  },
  {
    "postcode": "76703",
    "city": "Münzesheim"
  },
  {
    "postcode": "76703",
    "city": "Neuenbürg"
  },
  {
    "postcode": "76703",
    "city": "Oberacker"
  },
  {
    "postcode": "76703",
    "city": "Oberöwisheim"
  },
  {
    "postcode": "76703",
    "city": "Unteröwisheim"
  },
  {
    "postcode": "76703",
    "city": "Karlsruhe"
  },
  {
    "postcode": "76706",
    "city": "Dettenheim (Baden)"
  },
  {
    "postcode": "76706",
    "city": "Dettenheim"
  },
  {
    "postcode": "76706",
    "city": "Liedolsheim"
  },
  {
    "postcode": "76706",
    "city": "Rußheim"
  },
  {
    "postcode": "76706",
    "city": "Karlsruhe"
  },
  {
    "postcode": "76707",
    "city": "Hambrücken"
  },
  {
    "postcode": "76707",
    "city": "Karlsruhe"
  },
  {
    "postcode": "76709",
    "city": "Kronau (Baden)"
  },
  {
    "postcode": "76709",
    "city": "Kronau"
  },
  {
    "postcode": "76709",
    "city": "Karlsruhe"
  },
  {
    "postcode": "76726",
    "city": "Germersheim"
  },
  {
    "postcode": "76726",
    "city": "Sondernheim"
  },
  {
    "postcode": "76726",
    "city": "Altbrand"
  },
  {
    "postcode": "76744",
    "city": "Büchelberg Pfalz"
  },
  {
    "postcode": "76744",
    "city": "Büchelberg"
  },
  {
    "postcode": "76744",
    "city": "Langenberg Pfalz"
  },
  {
    "postcode": "76744",
    "city": "Langenberg"
  },
  {
    "postcode": "76744",
    "city": "Maximiliansau"
  },
  {
    "postcode": "76744",
    "city": "Schaidt"
  },
  {
    "postcode": "76744",
    "city": "Vollmersweiler"
  },
  {
    "postcode": "76744",
    "city": "Wörth am Rhein"
  },
  {
    "postcode": "76744",
    "city": "Germersheim"
  },
  {
    "postcode": "76744",
    "city": "Höllenmühle"
  },
  {
    "postcode": "76744",
    "city": "Wörth"
  },
  {
    "postcode": "76751",
    "city": "Jockgrim"
  },
  {
    "postcode": "76751",
    "city": "Germersheim"
  },
  {
    "postcode": "76756",
    "city": "Bellheim"
  },
  {
    "postcode": "76756",
    "city": "Germersheim"
  },
  {
    "postcode": "76761",
    "city": "Rülzheim"
  },
  {
    "postcode": "76761",
    "city": "Germersheim"
  },
  {
    "postcode": "76764",
    "city": "Rheinzabern"
  },
  {
    "postcode": "76764",
    "city": "Germersheim"
  },
  {
    "postcode": "76767",
    "city": "Hagenbach Pfalz"
  },
  {
    "postcode": "76767",
    "city": "Hagenbach"
  },
  {
    "postcode": "76767",
    "city": "Germersheim"
  },
  {
    "postcode": "76768",
    "city": "Berg (Pfalz)"
  },
  {
    "postcode": "76768",
    "city": "Berg"
  },
  {
    "postcode": "76768",
    "city": "Germersheim"
  },
  {
    "postcode": "76770",
    "city": "Hatzenbühl"
  },
  {
    "postcode": "76770",
    "city": "Germersheim"
  },
  {
    "postcode": "76771",
    "city": "Hördt Pfalz"
  },
  {
    "postcode": "76771",
    "city": "Hördt"
  },
  {
    "postcode": "76771",
    "city": "Germersheim"
  },
  {
    "postcode": "76773",
    "city": "Kuhardt"
  },
  {
    "postcode": "76773",
    "city": "Germersheim"
  },
  {
    "postcode": "76774",
    "city": "Leimersheim"
  },
  {
    "postcode": "76774",
    "city": "Germersheim"
  },
  {
    "postcode": "76776",
    "city": "Neuburg am Rhein"
  },
  {
    "postcode": "76776",
    "city": "Germersheim"
  },
  {
    "postcode": "76777",
    "city": "Neupotz"
  },
  {
    "postcode": "76777",
    "city": "Germersheim"
  },
  {
    "postcode": "76779",
    "city": "Scheibenhardt"
  },
  {
    "postcode": "76779",
    "city": "Scheibenhardt Pfalz"
  },
  {
    "postcode": "76779",
    "city": "Germersheim"
  },
  {
    "postcode": "76779",
    "city": "Salmbacher Passage"
  },
  {
    "postcode": "76779",
    "city": "Bienwaldmühle"
  },
  {
    "postcode": "76829",
    "city": "Arzheim Pfalz"
  },
  {
    "postcode": "76829",
    "city": "Arzheim"
  },
  {
    "postcode": "76829",
    "city": "Dammheim"
  },
  {
    "postcode": "76829",
    "city": "Godramstein"
  },
  {
    "postcode": "76829",
    "city": "Landau"
  },
  {
    "postcode": "76829",
    "city": "Landau in der Pfalz"
  },
  {
    "postcode": "76829",
    "city": "Leinsweiler"
  },
  {
    "postcode": "76829",
    "city": "Mörlheim"
  },
  {
    "postcode": "76829",
    "city": "Mörzheim"
  },
  {
    "postcode": "76829",
    "city": "Nußdorf Pfalz"
  },
  {
    "postcode": "76829",
    "city": "Nußdorf"
  },
  {
    "postcode": "76829",
    "city": "Queichheim"
  },
  {
    "postcode": "76829",
    "city": "Ranschbach"
  },
  {
    "postcode": "76829",
    "city": "Wollmesheim"
  },
  {
    "postcode": "76829",
    "city": "Modenbacherhof"
  },
  {
    "postcode": "76831",
    "city": "Appenhofen"
  },
  {
    "postcode": "76831",
    "city": "Billigheim"
  },
  {
    "postcode": "76831",
    "city": "Billigheim-Ingenheim"
  },
  {
    "postcode": "76831",
    "city": "Birkweiler"
  },
  {
    "postcode": "76831",
    "city": "Eschbach Pfalz"
  },
  {
    "postcode": "76831",
    "city": "Eschbach"
  },
  {
    "postcode": "76831",
    "city": "Gertrudenhof"
  },
  {
    "postcode": "76831",
    "city": "Göcklingen"
  },
  {
    "postcode": "76831",
    "city": "Heuchelheim"
  },
  {
    "postcode": "76831",
    "city": "Heuchelheim-Klingen"
  },
  {
    "postcode": "76831",
    "city": "Ilbesheim bei Landau in der Pfalz"
  },
  {
    "postcode": "76831",
    "city": "Impflingen"
  },
  {
    "postcode": "76831",
    "city": "Ingenheim"
  },
  {
    "postcode": "76831",
    "city": "Klingen"
  },
  {
    "postcode": "76831",
    "city": "Mühlhofen Pfalz"
  },
  {
    "postcode": "76831",
    "city": "Mühlhofen"
  },
  {
    "postcode": "76831",
    "city": "Südliche Weinstraße"
  },
  {
    "postcode": "76831",
    "city": "Ilbesheim bei Landau in der Pf"
  },
  {
    "postcode": "76833",
    "city": "Böchingen"
  },
  {
    "postcode": "76833",
    "city": "Frankweiler Pfalz"
  },
  {
    "postcode": "76833",
    "city": "Frankweiler"
  },
  {
    "postcode": "76833",
    "city": "Knöringen Pfalz"
  },
  {
    "postcode": "76833",
    "city": "Knöringen"
  },
  {
    "postcode": "76833",
    "city": "Siebeldingen"
  },
  {
    "postcode": "76833",
    "city": "Walsheim Pfalz"
  },
  {
    "postcode": "76833",
    "city": "Walsheim"
  },
  {
    "postcode": "76833",
    "city": "Südliche Weinstraße"
  },
  {
    "postcode": "76835",
    "city": "Burrweiler"
  },
  {
    "postcode": "76835",
    "city": "Flemlingen"
  },
  {
    "postcode": "76835",
    "city": "Gleisweiler"
  },
  {
    "postcode": "76835",
    "city": "Hainfeld Pfalz"
  },
  {
    "postcode": "76835",
    "city": "Hainfeld"
  },
  {
    "postcode": "76835",
    "city": "Rhodt unter Rietburg"
  },
  {
    "postcode": "76835",
    "city": "Roschbach"
  },
  {
    "postcode": "76835",
    "city": "Weyher in der Pfalz"
  },
  {
    "postcode": "76835",
    "city": "Südliche Weinstraße"
  },
  {
    "postcode": "76835",
    "city": "Wolfseck Forsthaus"
  },
  {
    "postcode": "76846",
    "city": "Hauenstein Pfalz"
  },
  {
    "postcode": "76846",
    "city": "Hauenstein"
  },
  {
    "postcode": "76846",
    "city": "Südwestpfalz"
  },
  {
    "postcode": "76848",
    "city": "Darstein Pfalz"
  },
  {
    "postcode": "76848",
    "city": "Darstein"
  },
  {
    "postcode": "76848",
    "city": "Dimbach Pfalz"
  },
  {
    "postcode": "76848",
    "city": "Dimbach"
  },
  {
    "postcode": "76848",
    "city": "Hofstätten Pfalz"
  },
  {
    "postcode": "76848",
    "city": "Hofstätten"
  },
  {
    "postcode": "76848",
    "city": "Lug Pfalz"
  },
  {
    "postcode": "76848",
    "city": "Lug"
  },
  {
    "postcode": "76848",
    "city": "Schwanheim Pfalz"
  },
  {
    "postcode": "76848",
    "city": "Schwanheim"
  },
  {
    "postcode": "76848",
    "city": "Spirkelbach"
  },
  {
    "postcode": "76848",
    "city": "Wilgartswiesen"
  },
  {
    "postcode": "76848",
    "city": "Südwestpfalz"
  },
  {
    "postcode": "76848",
    "city": "Hermersbergerhof"
  },
  {
    "postcode": "76855",
    "city": "Annweiler am Trifels"
  },
  {
    "postcode": "76855",
    "city": "Annweiler Forsthaus"
  },
  {
    "postcode": "76855",
    "city": "Annweiler"
  },
  {
    "postcode": "76855",
    "city": "Bindersbach"
  },
  {
    "postcode": "76855",
    "city": "Gräfenhausen Pfalz"
  },
  {
    "postcode": "76855",
    "city": "Gräfenhausen"
  },
  {
    "postcode": "76855",
    "city": "Queichhambach"
  },
  {
    "postcode": "76855",
    "city": "Sarnstall"
  },
  {
    "postcode": "76855",
    "city": "Südliche Weinstraße"
  },
  {
    "postcode": "76855",
    "city": "Kaisermühle"
  },
  {
    "postcode": "76855",
    "city": "Knochenmühle"
  },
  {
    "postcode": "76857",
    "city": "Albersweiler"
  },
  {
    "postcode": "76857",
    "city": "Dernbach (Pfalz)"
  },
  {
    "postcode": "76857",
    "city": "Dernbach"
  },
  {
    "postcode": "76857",
    "city": "Eußerthal"
  },
  {
    "postcode": "76857",
    "city": "Gossersweiler-Stein"
  },
  {
    "postcode": "76857",
    "city": "Münchweiler am Klingbach"
  },
  {
    "postcode": "76857",
    "city": "Ramberg Pfalz"
  },
  {
    "postcode": "76857",
    "city": "Ramberg"
  },
  {
    "postcode": "76857",
    "city": "Rinnthal"
  },
  {
    "postcode": "76857",
    "city": "Silz Pfalz"
  },
  {
    "postcode": "76857",
    "city": "Silz"
  },
  {
    "postcode": "76857",
    "city": "Völkersweiler"
  },
  {
    "postcode": "76857",
    "city": "Waldeck bei Landau Pfalz"
  },
  {
    "postcode": "76857",
    "city": "Waldeck bei Landau"
  },
  {
    "postcode": "76857",
    "city": "Waldhambach Pfalz"
  },
  {
    "postcode": "76857",
    "city": "Waldhambach"
  },
  {
    "postcode": "76857",
    "city": "Waldrohrbach"
  },
  {
    "postcode": "76857",
    "city": "Wernersberg Pfalz"
  },
  {
    "postcode": "76857",
    "city": "Wernersberg"
  },
  {
    "postcode": "76857",
    "city": "Südliche Weinstraße"
  },
  {
    "postcode": "76857",
    "city": "Hoecker Haus"
  },
  {
    "postcode": "76857",
    "city": "Waldeck"
  },
  {
    "postcode": "76863",
    "city": "Hayna Pfalz"
  },
  {
    "postcode": "76863",
    "city": "Hayna"
  },
  {
    "postcode": "76863",
    "city": "Herxheim bei Landau / Pfalz"
  },
  {
    "postcode": "76863",
    "city": "Herxheim bei Landau"
  },
  {
    "postcode": "76863",
    "city": "Herxheim bei Landau/Pf."
  },
  {
    "postcode": "76863",
    "city": "Herxheimweyher bei Landau"
  },
  {
    "postcode": "76863",
    "city": "Südliche Weinstraße"
  },
  {
    "postcode": "76863",
    "city": "Herxheim"
  },
  {
    "postcode": "76863",
    "city": "Herxheimweyher"
  },
  {
    "postcode": "76865",
    "city": "Insheim"
  },
  {
    "postcode": "76865",
    "city": "Rohrbach Pfalz"
  },
  {
    "postcode": "76865",
    "city": "Rohrbach"
  },
  {
    "postcode": "76865",
    "city": "Südliche Weinstraße"
  },
  {
    "postcode": "76870",
    "city": "Höfen Pfalz"
  },
  {
    "postcode": "76870",
    "city": "Höfen"
  },
  {
    "postcode": "76870",
    "city": "Kandel Pfalz"
  },
  {
    "postcode": "76870",
    "city": "Kandel"
  },
  {
    "postcode": "76870",
    "city": "Germersheim"
  },
  {
    "postcode": "76872",
    "city": "Erlenbach bei Kandel"
  },
  {
    "postcode": "76872",
    "city": "Freckenfeld"
  },
  {
    "postcode": "76872",
    "city": "Hergersweiler"
  },
  {
    "postcode": "76872",
    "city": "Minfeld"
  },
  {
    "postcode": "76872",
    "city": "Steinweiler Pfalz"
  },
  {
    "postcode": "76872",
    "city": "Steinweiler"
  },
  {
    "postcode": "76872",
    "city": "Winden Pfalz"
  },
  {
    "postcode": "76872",
    "city": "Winden"
  },
  {
    "postcode": "76872",
    "city": "Germersheim"
  },
  {
    "postcode": "76877",
    "city": "Fuchsmühle Queich"
  },
  {
    "postcode": "76877",
    "city": "Fuchsmühle"
  },
  {
    "postcode": "76877",
    "city": "Offenbach an der Queich"
  },
  {
    "postcode": "76877",
    "city": "Südliche Weinstraße"
  },
  {
    "postcode": "76879",
    "city": "Bornheim Pfalz"
  },
  {
    "postcode": "76879",
    "city": "Bornheim"
  },
  {
    "postcode": "76879",
    "city": "Dreihof"
  },
  {
    "postcode": "76879",
    "city": "Essingen Pfalz"
  },
  {
    "postcode": "76879",
    "city": "Essingen"
  },
  {
    "postcode": "76879",
    "city": "Hochstadt (Pfalz)"
  },
  {
    "postcode": "76879",
    "city": "Hochstadt"
  },
  {
    "postcode": "76879",
    "city": "Knittelsheim"
  },
  {
    "postcode": "76879",
    "city": "Ottersheim bei Landau"
  },
  {
    "postcode": "76879",
    "city": "Germersheim"
  },
  {
    "postcode": "76879",
    "city": "Ottersheim"
  },
  {
    "postcode": "76887",
    "city": "Bad Bergzabern"
  },
  {
    "postcode": "76887",
    "city": "Blankenborn"
  },
  {
    "postcode": "76887",
    "city": "Böllenborn"
  },
  {
    "postcode": "76887",
    "city": "Dörrenbach"
  },
  {
    "postcode": "76887",
    "city": "Erlenbach"
  },
  {
    "postcode": "76887",
    "city": "Niederhorbach"
  },
  {
    "postcode": "76887",
    "city": "Oberhausen bei Bad Bergzabern"
  },
  {
    "postcode": "76887",
    "city": "Reisdorf"
  },
  {
    "postcode": "76887",
    "city": "Vorderweidenthal"
  },
  {
    "postcode": "76887",
    "city": "Südliche Weinstraße"
  },
  {
    "postcode": "76887",
    "city": "Oberhausen"
  },
  {
    "postcode": "76887",
    "city": "Sandbühlerhof"
  },
  {
    "postcode": "76889",
    "city": "Barbelroth"
  },
  {
    "postcode": "76889",
    "city": "Birkenhördt"
  },
  {
    "postcode": "76889",
    "city": "Dierbach"
  },
  {
    "postcode": "76889",
    "city": "Dörrenbach Pfalz"
  },
  {
    "postcode": "76889",
    "city": "Dörrenbach"
  },
  {
    "postcode": "76889",
    "city": "Gleiszellen-Gleishorbach"
  },
  {
    "postcode": "76889",
    "city": "Kapellen-Drusweiler"
  },
  {
    "postcode": "76889",
    "city": "Kaplaneihof"
  },
  {
    "postcode": "76889",
    "city": "Kapsweyer"
  },
  {
    "postcode": "76889",
    "city": "Kleinsteinfeld"
  },
  {
    "postcode": "76889",
    "city": "Klingenmünster"
  },
  {
    "postcode": "76889",
    "city": "Niederhorbach"
  },
  {
    "postcode": "76889",
    "city": "Niederotterbach"
  },
  {
    "postcode": "76889",
    "city": "Oberotterbach Pfalz"
  },
  {
    "postcode": "76889",
    "city": "Oberotterbach"
  },
  {
    "postcode": "76889",
    "city": "Oberschlettenbach"
  },
  {
    "postcode": "76889",
    "city": "Pleisweiler-Oberhofen"
  },
  {
    "postcode": "76889",
    "city": "Rechtenbach"
  },
  {
    "postcode": "76889",
    "city": "Schweigen"
  },
  {
    "postcode": "76889",
    "city": "Schweigen-Rechtenbach"
  },
  {
    "postcode": "76889",
    "city": "Schweighofen"
  },
  {
    "postcode": "76889",
    "city": "Steinfeld (Pfalz)"
  },
  {
    "postcode": "76889",
    "city": "Steinfeld"
  },
  {
    "postcode": "76889",
    "city": "Vorderweidenthal"
  },
  {
    "postcode": "76889",
    "city": "Südliche Weinstraße"
  },
  {
    "postcode": "76889",
    "city": "Gleishorbach"
  },
  {
    "postcode": "76891",
    "city": "Bobenthal"
  },
  {
    "postcode": "76891",
    "city": "Bruchweiler-Bärenbach"
  },
  {
    "postcode": "76891",
    "city": "Bundenthal"
  },
  {
    "postcode": "76891",
    "city": "Busenberg Pfalz"
  },
  {
    "postcode": "76891",
    "city": "Busenberg"
  },
  {
    "postcode": "76891",
    "city": "Erlenbach bei Bad Bergzabern"
  },
  {
    "postcode": "76891",
    "city": "Erlenbach bei Dahn"
  },
  {
    "postcode": "76891",
    "city": "Lauterschwan"
  },
  {
    "postcode": "76891",
    "city": "Niederschlettenbach"
  },
  {
    "postcode": "76891",
    "city": "Nothweiler"
  },
  {
    "postcode": "76891",
    "city": "Rumbach"
  },
  {
    "postcode": "76891",
    "city": "Südwestpfalz"
  },
  {
    "postcode": "76891",
    "city": "Falkenmühle"
  },
  {
    "postcode": "76891",
    "city": "Erlenbach b Dahn"
  }
]