[
  {
    "postcode": "6712",
    "city": "Bergisdorf"
  },
  {
    "postcode": "6712",
    "city": "Bornitz bei Zeitz Elster"
  },
  {
    "postcode": "6712",
    "city": "Bornitz bei Zeitz"
  },
  {
    "postcode": "6712",
    "city": "Breitenbach bei Zeitz Elster"
  },
  {
    "postcode": "6712",
    "city": "Breitenbach bei Zeitz"
  },
  {
    "postcode": "6712",
    "city": "Döschwitz"
  },
  {
    "postcode": "6712",
    "city": "Draschwitz bei Zeitz Elster"
  },
  {
    "postcode": "6712",
    "city": "Draschwitz bei Zeitz"
  },
  {
    "postcode": "6712",
    "city": "Droßdorf bei Zeitz Elster"
  },
  {
    "postcode": "6712",
    "city": "Droßdorf bei Zeitz"
  },
  {
    "postcode": "6712",
    "city": "Elsteraue"
  },
  {
    "postcode": "6712",
    "city": "Geußnitz"
  },
  {
    "postcode": "6712",
    "city": "Göbitz"
  },
  {
    "postcode": "6712",
    "city": "Grana"
  },
  {
    "postcode": "6712",
    "city": "Haynsburg"
  },
  {
    "postcode": "6712",
    "city": "Heuckewalde"
  },
  {
    "postcode": "6712",
    "city": "Könderitz"
  },
  {
    "postcode": "6712",
    "city": "Kretzschau"
  },
  {
    "postcode": "6712",
    "city": "Schellbach bei Zeitz Elster"
  },
  {
    "postcode": "6712",
    "city": "Schellbach bei Zeitz"
  },
  {
    "postcode": "6712",
    "city": "Wittgendorf bei Zeitz Elster"
  },
  {
    "postcode": "6712",
    "city": "Wittgendorf bei Zeitz"
  },
  {
    "postcode": "6712",
    "city": "Würchwitz"
  },
  {
    "postcode": "6712",
    "city": "Zeitz Elster"
  },
  {
    "postcode": "6712",
    "city": "Zeitz"
  },
  {
    "postcode": "6712",
    "city": "Burgenlandkreis"
  },
  {
    "postcode": "6712",
    "city": "Gutenborn"
  },
  {
    "postcode": "6712",
    "city": "Schnaudertal"
  },
  {
    "postcode": "6712",
    "city": "Lonzig"
  },
  {
    "postcode": "6712",
    "city": "Schellbach"
  },
  {
    "postcode": "6712",
    "city": "Loitzschütz"
  },
  {
    "postcode": "6712",
    "city": "Ossig"
  },
  {
    "postcode": "6712",
    "city": "Frauenhain"
  },
  {
    "postcode": "6712",
    "city": "Rippicha"
  },
  {
    "postcode": "6712",
    "city": "Großosida"
  },
  {
    "postcode": "6712",
    "city": "Droßdorf"
  },
  {
    "postcode": "6712",
    "city": "Kuhndorf"
  },
  {
    "postcode": "6712",
    "city": "Röden"
  },
  {
    "postcode": "6712",
    "city": "Giebelroth"
  },
  {
    "postcode": "6712",
    "city": "Golben"
  },
  {
    "postcode": "6712",
    "city": "Zetzschdorf"
  },
  {
    "postcode": "6712",
    "city": "Salsitz"
  },
  {
    "postcode": "6712",
    "city": "Gladitz"
  },
  {
    "postcode": "6712",
    "city": "Hollsteitz"
  },
  {
    "postcode": "6712",
    "city": "Mannsdorf"
  },
  {
    "postcode": "6712",
    "city": "Groitzschen"
  },
  {
    "postcode": "6712",
    "city": "Kirchsteitz"
  },
  {
    "postcode": "6712",
    "city": "Kleinosida"
  },
  {
    "postcode": "6712",
    "city": "Näthern"
  },
  {
    "postcode": "6712",
    "city": "Wittgendorf"
  },
  {
    "postcode": "6712",
    "city": "Nedissen"
  },
  {
    "postcode": "6712",
    "city": "Großpörthen"
  },
  {
    "postcode": "6712",
    "city": "Dragsdorf"
  },
  {
    "postcode": "6712",
    "city": "Bröckau"
  },
  {
    "postcode": "6712",
    "city": "Hohenkirchen"
  },
  {
    "postcode": "6712",
    "city": "Kleinpörthen"
  },
  {
    "postcode": "6712",
    "city": "Kayna"
  },
  {
    "postcode": "6712",
    "city": "Stockhausen"
  },
  {
    "postcode": "6712",
    "city": "Lobas"
  },
  {
    "postcode": "6712",
    "city": "Bockwitz"
  },
  {
    "postcode": "6712",
    "city": "Loitsch"
  },
  {
    "postcode": "6712",
    "city": "Wildenborn"
  },
  {
    "postcode": "6712",
    "city": "Lindenberg"
  },
  {
    "postcode": "6712",
    "city": "Roda"
  },
  {
    "postcode": "6712",
    "city": "Suxdorf"
  },
  {
    "postcode": "6712",
    "city": "Zettweil"
  },
  {
    "postcode": "6721",
    "city": "Goldschau bei Zeitz Elster"
  },
  {
    "postcode": "6721",
    "city": "Goldschau bei Zeitz"
  },
  {
    "postcode": "6721",
    "city": "Meineweh"
  },
  {
    "postcode": "6721",
    "city": "Osterfeld bei Naumburg Saale"
  },
  {
    "postcode": "6721",
    "city": "Osterfeld bei Naumburg"
  },
  {
    "postcode": "6721",
    "city": "Unterkaka"
  },
  {
    "postcode": "6721",
    "city": "Waldau bei Zeitz Elster"
  },
  {
    "postcode": "6721",
    "city": "Waldau bei Zeitz"
  },
  {
    "postcode": "6721",
    "city": "Burgenlandkreis"
  },
  {
    "postcode": "6721",
    "city": "Osterfeld"
  },
  {
    "postcode": "6721",
    "city": "Schleinitz"
  },
  {
    "postcode": "6721",
    "city": "Pretzsch"
  },
  {
    "postcode": "6721",
    "city": "Quesnitz"
  },
  {
    "postcode": "6721",
    "city": "Thierbach"
  },
  {
    "postcode": "6721",
    "city": "Oberkaka"
  },
  {
    "postcode": "6721",
    "city": "Zellschen"
  },
  {
    "postcode": "6721",
    "city": "Priesen"
  },
  {
    "postcode": "6721",
    "city": "Kleinhelmsdorf"
  },
  {
    "postcode": "6721",
    "city": "Weickelsdorf"
  },
  {
    "postcode": "6721",
    "city": "Waldau"
  },
  {
    "postcode": "6721",
    "city": "Haardorf"
  },
  {
    "postcode": "6721",
    "city": "Roda"
  },
  {
    "postcode": "6721",
    "city": "Goldschau"
  },
  {
    "postcode": "6722",
    "city": "Droyßig"
  },
  {
    "postcode": "6722",
    "city": "Heidegrund"
  },
  {
    "postcode": "6722",
    "city": "Kleinhelmsdorf"
  },
  {
    "postcode": "6722",
    "city": "Stolzenhain bei Zeitz Elster"
  },
  {
    "postcode": "6722",
    "city": "Stolzenhain bei Zeitz"
  },
  {
    "postcode": "6722",
    "city": "Weickelsdorf"
  },
  {
    "postcode": "6722",
    "city": "Weißenborn bei Droyßig"
  },
  {
    "postcode": "6722",
    "city": "Wetterzeube"
  },
  {
    "postcode": "6722",
    "city": "Burgenlandkreis"
  },
  {
    "postcode": "6722",
    "city": "Weißenborn"
  },
  {
    "postcode": "6722",
    "city": "Romsdorf"
  },
  {
    "postcode": "6722",
    "city": "Stolzenhain"
  },
  {
    "postcode": "6722",
    "city": "Pötewitz"
  },
  {
    "postcode": "6722",
    "city": "Sautzschen"
  },
  {
    "postcode": "6722",
    "city": "Breitenbach"
  },
  {
    "postcode": "6722",
    "city": "Koßweda"
  },
  {
    "postcode": "6722",
    "city": "Rossendorf"
  },
  {
    "postcode": "6722",
    "city": "Haynsburg"
  },
  {
    "postcode": "6722",
    "city": "Raba"
  },
  {
    "postcode": "6722",
    "city": "Goßra"
  },
  {
    "postcode": "6722",
    "city": "Trebnitz"
  },
  {
    "postcode": "6722",
    "city": "Dietendorf"
  },
  {
    "postcode": "6722",
    "city": "Schkauditz"
  },
  {
    "postcode": "6722",
    "city": "Schleckweda"
  },
  {
    "postcode": "6722",
    "city": "Katersdobersdorf"
  },
  {
    "postcode": "6722",
    "city": "Obersiedel"
  },
  {
    "postcode": "6722",
    "city": "Schlottweh"
  },
  {
    "postcode": "6724",
    "city": "Bröckau"
  },
  {
    "postcode": "6724",
    "city": "Kayna"
  },
  {
    "postcode": "6724",
    "city": "Spora"
  },
  {
    "postcode": "6724",
    "city": "Weißenborn bei Droyßig"
  },
  {
    "postcode": "6725",
    "city": "Profen"
  },
  {
    "postcode": "6725",
    "city": "Reuden bei Zeitz"
  },
  {
    "postcode": "6727",
    "city": "Döbris"
  },
  {
    "postcode": "6727",
    "city": "Luckenau"
  },
  {
    "postcode": "6727",
    "city": "Nonnewitz"
  },
  {
    "postcode": "6727",
    "city": "Theißen"
  },
  {
    "postcode": "6729",
    "city": "Elsteraue"
  },
  {
    "postcode": "6729",
    "city": "Langendorf bei Zeitz Elster"
  },
  {
    "postcode": "6729",
    "city": "Langendorf bei Zeitz"
  },
  {
    "postcode": "6729",
    "city": "Rehmsdorf"
  },
  {
    "postcode": "6729",
    "city": "Tröglitz"
  },
  {
    "postcode": "6729",
    "city": "Burgenlandkreis"
  },
  {
    "postcode": "6729",
    "city": "Reuden"
  },
  {
    "postcode": "6729",
    "city": "Langendorf"
  },
  {
    "postcode": "6729",
    "city": "Penkwitz"
  },
  {
    "postcode": "6729",
    "city": "Profen"
  },
  {
    "postcode": "6729",
    "city": "Draschwitz"
  },
  {
    "postcode": "6729",
    "city": "Göbitz"
  },
  {
    "postcode": "6729",
    "city": "Nißma"
  },
  {
    "postcode": "6729",
    "city": "Maßnitz"
  },
  {
    "postcode": "6729",
    "city": "Bornitz"
  },
  {
    "postcode": "6729",
    "city": "Staschwitz"
  },
  {
    "postcode": "6729",
    "city": "Gleina"
  },
  {
    "postcode": "6729",
    "city": "Oelsen"
  },
  {
    "postcode": "6729",
    "city": "Beersdorf"
  },
  {
    "postcode": "6729",
    "city": "Prehlitz-Penkwitz"
  },
  {
    "postcode": "6729",
    "city": "Döbitzschen"
  },
  {
    "postcode": "6729",
    "city": "Spora"
  },
  {
    "postcode": "6729",
    "city": "Lützkewitz"
  },
  {
    "postcode": "6729",
    "city": "Alttröglitz"
  },
  {
    "postcode": "6729",
    "city": "Könderitz"
  },
  {
    "postcode": "6729",
    "city": "Kadischen"
  },
  {
    "postcode": "6729",
    "city": "Predel"
  },
  {
    "postcode": "6729",
    "city": "Traupitz"
  },
  {
    "postcode": "6729",
    "city": "Krimmitzschen"
  },
  {
    "postcode": "6729",
    "city": "Minkwitz"
  },
  {
    "postcode": "6729",
    "city": "Ostrau"
  },
  {
    "postcode": "6729",
    "city": "Sprossen"
  },
  {
    "postcode": "6729",
    "city": "Stocksdorf"
  },
  {
    "postcode": "6729",
    "city": "Torna"
  },
  {
    "postcode": "6731",
    "city": "Bitterfeld-Wolfen"
  },
  {
    "postcode": "6749",
    "city": "Bitterfeld"
  },
  {
    "postcode": "6749",
    "city": "Friedersdorf bei Bitterfeld"
  },
  {
    "postcode": "6749",
    "city": "Anhalt-Bitterfeld"
  },
  {
    "postcode": "6749",
    "city": "Bitterfeld-Wolfen"
  },
  {
    "postcode": "6749",
    "city": "Wolfen"
  },
  {
    "postcode": "6766",
    "city": "Bobbau"
  },
  {
    "postcode": "6766",
    "city": "Rödgen bei Wolfen"
  },
  {
    "postcode": "6766",
    "city": "Thalheim bei Wolfen"
  },
  {
    "postcode": "6766",
    "city": "Wolfen Anhalt"
  },
  {
    "postcode": "6766",
    "city": "Wolfen"
  },
  {
    "postcode": "6766",
    "city": "Anhalt-Bitterfeld"
  },
  {
    "postcode": "6766",
    "city": "Bitterfeld-Wolfen"
  },
  {
    "postcode": "6766",
    "city": "Rödgen"
  },
  {
    "postcode": "6766",
    "city": "Thalheim"
  },
  {
    "postcode": "6766",
    "city": "Reuden a d Fuhne"
  },
  {
    "postcode": "6766",
    "city": "Zschepkau"
  },
  {
    "postcode": "6773",
    "city": "Bergwitz"
  },
  {
    "postcode": "6773",
    "city": "Gossa"
  },
  {
    "postcode": "6773",
    "city": "Gräfenhainichen"
  },
  {
    "postcode": "6773",
    "city": "Gröbern bei Bitterfeld"
  },
  {
    "postcode": "6773",
    "city": "Jüdenberg"
  },
  {
    "postcode": "6773",
    "city": "Kemberg"
  },
  {
    "postcode": "6773",
    "city": "Klitzschena"
  },
  {
    "postcode": "6773",
    "city": "Radis"
  },
  {
    "postcode": "6773",
    "city": "Rotta"
  },
  {
    "postcode": "6773",
    "city": "Schköna"
  },
  {
    "postcode": "6773",
    "city": "Selbitz bei Bitterfeld"
  },
  {
    "postcode": "6773",
    "city": "Uthausen"
  },
  {
    "postcode": "6773",
    "city": "Anhalt-Bitterfeld"
  },
  {
    "postcode": "6773",
    "city": "Buchholz"
  },
  {
    "postcode": "6773",
    "city": "Hohenlubast"
  },
  {
    "postcode": "6774",
    "city": "Krina"
  },
  {
    "postcode": "6774",
    "city": "Mühlbeck"
  },
  {
    "postcode": "6774",
    "city": "Plodda"
  },
  {
    "postcode": "6774",
    "city": "Pouch"
  },
  {
    "postcode": "6774",
    "city": "Rösa"
  },
  {
    "postcode": "6774",
    "city": "Schlaitz"
  },
  {
    "postcode": "6774",
    "city": "Schwemsal"
  },
  {
    "postcode": "6774",
    "city": "Söllichau"
  },
  {
    "postcode": "6774",
    "city": "Tornau bei Gräfenhainichen"
  },
  {
    "postcode": "6774",
    "city": "Anhalt-Bitterfeld"
  },
  {
    "postcode": "6774",
    "city": "Muldestausee"
  },
  {
    "postcode": "6774",
    "city": "Muldenstein"
  },
  {
    "postcode": "6774",
    "city": "Gröbern"
  },
  {
    "postcode": "6774",
    "city": "Brösa"
  },
  {
    "postcode": "6774",
    "city": "Burgkemnitz"
  },
  {
    "postcode": "6774",
    "city": "Gossa"
  },
  {
    "postcode": "6774",
    "city": "Friedersdorf"
  },
  {
    "postcode": "6774",
    "city": "Schmerz"
  },
  {
    "postcode": "6779",
    "city": "Marke Anhalt"
  },
  {
    "postcode": "6779",
    "city": "Marke"
  },
  {
    "postcode": "6779",
    "city": "Raguhn"
  },
  {
    "postcode": "6779",
    "city": "Retzau"
  },
  {
    "postcode": "6779",
    "city": "Salzfurtkapelle"
  },
  {
    "postcode": "6779",
    "city": "Schierau"
  },
  {
    "postcode": "6779",
    "city": "Thurland"
  },
  {
    "postcode": "6779",
    "city": "Tornau vor der Heide"
  },
  {
    "postcode": "6779",
    "city": "Zörbig"
  },
  {
    "postcode": "6779",
    "city": "Anhalt-Bitterfeld"
  },
  {
    "postcode": "6779",
    "city": "Raguhn-Jeßnitz"
  },
  {
    "postcode": "6779",
    "city": "Lingenau"
  },
  {
    "postcode": "6779",
    "city": "Priorau"
  },
  {
    "postcode": "6779",
    "city": "Möst"
  },
  {
    "postcode": "6779",
    "city": "Tornau v d Heide"
  },
  {
    "postcode": "6779",
    "city": "Hoyersdorf"
  },
  {
    "postcode": "6779",
    "city": "Niesau"
  },
  {
    "postcode": "6780",
    "city": "Göttnitz"
  },
  {
    "postcode": "6780",
    "city": "Großzöberitz"
  },
  {
    "postcode": "6780",
    "city": "Heideloh Sachsen-Anhalt"
  },
  {
    "postcode": "6780",
    "city": "Heideloh"
  },
  {
    "postcode": "6780",
    "city": "Löberitz"
  },
  {
    "postcode": "6780",
    "city": "Quetzdölsdorf"
  },
  {
    "postcode": "6780",
    "city": "Schrenz"
  },
  {
    "postcode": "6780",
    "city": "Spören"
  },
  {
    "postcode": "6780",
    "city": "Stumsdorf"
  },
  {
    "postcode": "6780",
    "city": "Zörbig"
  },
  {
    "postcode": "6780",
    "city": "Anhalt-Bitterfeld"
  },
  {
    "postcode": "6780",
    "city": "Schortewitz"
  },
  {
    "postcode": "6780",
    "city": "Prussendorf"
  },
  {
    "postcode": "6780",
    "city": "Salzfurtkapelle"
  },
  {
    "postcode": "6780",
    "city": "Cösitz"
  },
  {
    "postcode": "6780",
    "city": "Werben"
  },
  {
    "postcode": "6780",
    "city": "Löbersdorf"
  },
  {
    "postcode": "6780",
    "city": "Wadendorf"
  },
  {
    "postcode": "6780",
    "city": "Rieda"
  },
  {
    "postcode": "6780",
    "city": "Priesdorf"
  },
  {
    "postcode": "6785",
    "city": "Brandhorst Sachsen-Anhalt"
  },
  {
    "postcode": "6785",
    "city": "Brandhorst"
  },
  {
    "postcode": "6785",
    "city": "Horstdorf"
  },
  {
    "postcode": "6785",
    "city": "Kakau bei Dessau"
  },
  {
    "postcode": "6785",
    "city": "Oranienbaum"
  },
  {
    "postcode": "6785",
    "city": "Schleesen"
  },
  {
    "postcode": "6785",
    "city": "Wittenberg"
  },
  {
    "postcode": "6785",
    "city": "Oranienbaum-Wörlitz"
  },
  {
    "postcode": "6785",
    "city": "Kakau"
  },
  {
    "postcode": "6785",
    "city": "Gohrau"
  },
  {
    "postcode": "6785",
    "city": "Wörlitz"
  },
  {
    "postcode": "6785",
    "city": "Goltewitz"
  },
  {
    "postcode": "6785",
    "city": "Vockerode"
  },
  {
    "postcode": "6785",
    "city": "Riesigk"
  },
  {
    "postcode": "6785",
    "city": "Griesen"
  },
  {
    "postcode": "6785",
    "city": "Kapen"
  },
  {
    "postcode": "6785",
    "city": "Rehsen"
  },
  {
    "postcode": "6786",
    "city": "Gohrau"
  },
  {
    "postcode": "6786",
    "city": "Griesen Sachsen-Anhalt"
  },
  {
    "postcode": "6786",
    "city": "Griesen"
  },
  {
    "postcode": "6786",
    "city": "Rehsen"
  },
  {
    "postcode": "6786",
    "city": "Riesigk"
  },
  {
    "postcode": "6786",
    "city": "Vockerode bei Dessau Anhalt"
  },
  {
    "postcode": "6786",
    "city": "Vockerode bei Dessau"
  },
  {
    "postcode": "6786",
    "city": "Wörlitz"
  },
  {
    "postcode": "6791",
    "city": "Möhlau"
  },
  {
    "postcode": "6791",
    "city": "Zschornewitz"
  },
  {
    "postcode": "6792",
    "city": "Sandersdorf Sachsen-Anhalt"
  },
  {
    "postcode": "6792",
    "city": "Sandersdorf"
  },
  {
    "postcode": "6792",
    "city": "Anhalt-Bitterfeld"
  },
  {
    "postcode": "6792",
    "city": "Heideloh"
  },
  {
    "postcode": "6792",
    "city": "Renneritz"
  },
  {
    "postcode": "6792",
    "city": "Ramsin"
  },
  {
    "postcode": "6792",
    "city": "Sandersdorf-Brehna"
  },
  {
    "postcode": "6792",
    "city": "Zscherndorf"
  },
  {
    "postcode": "6794",
    "city": "Glebitzsch"
  },
  {
    "postcode": "6794",
    "city": "Ramsin"
  },
  {
    "postcode": "6794",
    "city": "Renneritz"
  },
  {
    "postcode": "6794",
    "city": "Zscherndorf"
  },
  {
    "postcode": "6794",
    "city": "Anhalt-Bitterfeld"
  },
  {
    "postcode": "6794",
    "city": "Sandersdorf-Brehna"
  },
  {
    "postcode": "6794",
    "city": "Köckern"
  },
  {
    "postcode": "6794",
    "city": "Beyersdorf"
  },
  {
    "postcode": "6796",
    "city": "Brehna"
  },
  {
    "postcode": "6796",
    "city": "Anhalt-Bitterfeld"
  },
  {
    "postcode": "67059",
    "city": "Friesenheim / Nord"
  },
  {
    "postcode": "67059",
    "city": "Friesenheim"
  },
  {
    "postcode": "67059",
    "city": "Ludwigshafen am Rhein"
  },
  {
    "postcode": "67059",
    "city": "West"
  },
  {
    "postcode": "67059",
    "city": "Mitte"
  },
  {
    "postcode": "67059",
    "city": "Mundenheim"
  },
  {
    "postcode": "67061",
    "city": "Ludwigshafen am Rhein"
  },
  {
    "postcode": "67061",
    "city": "Süd"
  },
  {
    "postcode": "67061",
    "city": "Mitte"
  },
  {
    "postcode": "67061",
    "city": "Mundenheim"
  },
  {
    "postcode": "67063",
    "city": "Friesenheim / Nord"
  },
  {
    "postcode": "67063",
    "city": "Friesenheim"
  },
  {
    "postcode": "67063",
    "city": "Ludwigshafen am Rhein"
  },
  {
    "postcode": "67063",
    "city": "Friesenheim/Nord"
  },
  {
    "postcode": "67063",
    "city": "Hemshof"
  },
  {
    "postcode": "67063",
    "city": "Mitte"
  },
  {
    "postcode": "67065",
    "city": "Ludwigshafen am Rhein"
  },
  {
    "postcode": "67065",
    "city": "Maudach"
  },
  {
    "postcode": "67065",
    "city": "Mundenheim"
  },
  {
    "postcode": "67065",
    "city": "Gartenstadt"
  },
  {
    "postcode": "67065",
    "city": "Rheingönheim"
  },
  {
    "postcode": "67065",
    "city": "Mitte"
  },
  {
    "postcode": "67065",
    "city": "West"
  },
  {
    "postcode": "67067",
    "city": "Ludwigshafen am Rhein"
  },
  {
    "postcode": "67067",
    "city": "Maudach"
  },
  {
    "postcode": "67067",
    "city": "Rheingönheim"
  },
  {
    "postcode": "67067",
    "city": "Gartenstadt"
  },
  {
    "postcode": "67067",
    "city": "Mundenheim"
  },
  {
    "postcode": "67069",
    "city": "Edigheim"
  },
  {
    "postcode": "67069",
    "city": "Ludwigshafen am Rhein"
  },
  {
    "postcode": "67069",
    "city": "Pfingstweide"
  },
  {
    "postcode": "67069",
    "city": "Oppau"
  },
  {
    "postcode": "67071",
    "city": "Ludwigshafen am Rhein"
  },
  {
    "postcode": "67071",
    "city": "Oggersheim"
  },
  {
    "postcode": "67071",
    "city": "Ruchheim"
  },
  {
    "postcode": "67071",
    "city": "Melm-Notwende"
  },
  {
    "postcode": "67098",
    "city": "Bad Dürkheim"
  },
  {
    "postcode": "67098",
    "city": "Bad Dürkheim an der Weinstraße"
  },
  {
    "postcode": "67098",
    "city": "Hardenburg"
  },
  {
    "postcode": "67098",
    "city": "Leistadt"
  },
  {
    "postcode": "67098",
    "city": "Pfeffingen"
  },
  {
    "postcode": "67098",
    "city": "Seebach"
  },
  {
    "postcode": "67098",
    "city": "Ungstein"
  },
  {
    "postcode": "67098",
    "city": "Lindemannsruhe"
  },
  {
    "postcode": "67098",
    "city": "Grethen"
  },
  {
    "postcode": "67105",
    "city": "Schifferstadt"
  },
  {
    "postcode": "67105",
    "city": "Ludwigshafen am Rhein"
  },
  {
    "postcode": "67112",
    "city": "Mutterstadt"
  },
  {
    "postcode": "67112",
    "city": "Ludwigshafen am Rhein"
  },
  {
    "postcode": "67117",
    "city": "Limburgerhof"
  },
  {
    "postcode": "67117",
    "city": "Rehhütte"
  },
  {
    "postcode": "67117",
    "city": "Ludwigshafen am Rhein"
  },
  {
    "postcode": "67122",
    "city": "Altrip Kreis Ludwigshafen am Rhein"
  },
  {
    "postcode": "67122",
    "city": "Altrip"
  },
  {
    "postcode": "67122",
    "city": "Rhein-Pfalz-Kreis"
  },
  {
    "postcode": "67125",
    "city": "Dannstadt"
  },
  {
    "postcode": "67125",
    "city": "Dannstadt-Schauernheim"
  },
  {
    "postcode": "67125",
    "city": "Schauernheim"
  },
  {
    "postcode": "67125",
    "city": "Rhein-Pfalz-Kreis"
  },
  {
    "postcode": "67126",
    "city": "Assenheim"
  },
  {
    "postcode": "67126",
    "city": "Hochdorf"
  },
  {
    "postcode": "67126",
    "city": "Hochdorf-Assenheim"
  },
  {
    "postcode": "67126",
    "city": "Ludwigshafen am Rhein"
  },
  {
    "postcode": "67127",
    "city": "Rödersheim"
  },
  {
    "postcode": "67127",
    "city": "Rödersheim-Gronau"
  },
  {
    "postcode": "67127",
    "city": "Ludwigshafen am Rhein"
  },
  {
    "postcode": "67127",
    "city": "Gronau"
  },
  {
    "postcode": "67133",
    "city": "Maxdorf Pfalz"
  },
  {
    "postcode": "67133",
    "city": "Maxdorf"
  },
  {
    "postcode": "67133",
    "city": "Ludwigshafen am Rhein"
  },
  {
    "postcode": "67134",
    "city": "Birkenheide Pfalz"
  },
  {
    "postcode": "67134",
    "city": "Birkenheide"
  },
  {
    "postcode": "67134",
    "city": "Rhein-Pfalz-Kreis"
  },
  {
    "postcode": "67136",
    "city": "Fußgönheim"
  },
  {
    "postcode": "67136",
    "city": "Rhein-Pfalz-Kreis"
  },
  {
    "postcode": "67141",
    "city": "Neuhofen Pfalz"
  },
  {
    "postcode": "67141",
    "city": "Neuhofen"
  },
  {
    "postcode": "67141",
    "city": "Ludwigshafen am Rhein"
  },
  {
    "postcode": "67146",
    "city": "Deidesheim"
  },
  {
    "postcode": "67146",
    "city": "Bad Dürkheim"
  },
  {
    "postcode": "67147",
    "city": "Forst an der Weinstraße"
  },
  {
    "postcode": "67147",
    "city": "Bad Dürkheim"
  },
  {
    "postcode": "67147",
    "city": "Deidesheim"
  },
  {
    "postcode": "67149",
    "city": "Meckenheim Pfalz"
  },
  {
    "postcode": "67149",
    "city": "Meckenheim"
  },
  {
    "postcode": "67149",
    "city": "Bad Dürkheim"
  },
  {
    "postcode": "67150",
    "city": "Niederkirchen bei Deidesheim"
  },
  {
    "postcode": "67150",
    "city": "Bad Dürkheim"
  },
  {
    "postcode": "67150",
    "city": "Niederkirchen"
  },
  {
    "postcode": "67152",
    "city": "Ruppertsberg"
  },
  {
    "postcode": "67152",
    "city": "Bad Dürkheim"
  },
  {
    "postcode": "67157",
    "city": "Wachenheim an der Weinstraße"
  },
  {
    "postcode": "67157",
    "city": "Bad Dürkheim"
  },
  {
    "postcode": "67157",
    "city": "Silbertal"
  },
  {
    "postcode": "67158",
    "city": "Ellerstadt"
  },
  {
    "postcode": "67158",
    "city": "Bad Dürkheim"
  },
  {
    "postcode": "67158",
    "city": "Akaziensiedlung"
  },
  {
    "postcode": "67159",
    "city": "Friedelsheim"
  },
  {
    "postcode": "67159",
    "city": "Bad Dürkheim"
  },
  {
    "postcode": "67161",
    "city": "Gönnheim"
  },
  {
    "postcode": "67161",
    "city": "Bad Dürkheim"
  },
  {
    "postcode": "67165",
    "city": "Waldsee Pfalz"
  },
  {
    "postcode": "67165",
    "city": "Waldsee"
  },
  {
    "postcode": "67165",
    "city": "Ludwigshafen am Rhein"
  },
  {
    "postcode": "67166",
    "city": "Otterstadt"
  },
  {
    "postcode": "67166",
    "city": "Ludwigshafen am Rhein"
  },
  {
    "postcode": "67167",
    "city": "Erpolzheim bei Ludwigshafen am Rhein"
  },
  {
    "postcode": "67167",
    "city": "Bad Dürkheim"
  },
  {
    "postcode": "67167",
    "city": "Erpolzheim"
  },
  {
    "postcode": "67169",
    "city": "Kallstadt Pfalz"
  },
  {
    "postcode": "67169",
    "city": "Kallstadt"
  },
  {
    "postcode": "67169",
    "city": "Bad Dürkheim"
  },
  {
    "postcode": "67227",
    "city": "Eppstein Pfalz"
  },
  {
    "postcode": "67227",
    "city": "Eppstein"
  },
  {
    "postcode": "67227",
    "city": "Flomersheim"
  },
  {
    "postcode": "67227",
    "city": "Frankenthal (Pfalz)"
  },
  {
    "postcode": "67227",
    "city": "Frankenthal"
  },
  {
    "postcode": "67227",
    "city": "Mörsch"
  },
  {
    "postcode": "67227",
    "city": "Petersau Pfalz"
  },
  {
    "postcode": "67227",
    "city": "Petersau"
  },
  {
    "postcode": "67227",
    "city": "Studernheim"
  },
  {
    "postcode": "67227",
    "city": "Frankenthal Pfalz"
  },
  {
    "postcode": "67229",
    "city": "Gerolsheim"
  },
  {
    "postcode": "67229",
    "city": "Großkarlbach"
  },
  {
    "postcode": "67229",
    "city": "Laumersheim"
  },
  {
    "postcode": "67229",
    "city": "Bad Dürkheim"
  },
  {
    "postcode": "67240",
    "city": "Bobenheim-Roxheim"
  },
  {
    "postcode": "67240",
    "city": "Roxheim"
  },
  {
    "postcode": "67240",
    "city": "Rhein-Pfalz-Kreis"
  },
  {
    "postcode": "67240",
    "city": "Bobenheim"
  },
  {
    "postcode": "67245",
    "city": "Lambsheim"
  },
  {
    "postcode": "67245",
    "city": "Ludwigshafen am Rhein"
  },
  {
    "postcode": "67246",
    "city": "Dirmstein"
  },
  {
    "postcode": "67246",
    "city": "Bad Dürkheim"
  },
  {
    "postcode": "67251",
    "city": "Freinsheim"
  },
  {
    "postcode": "67251",
    "city": "Bad Dürkheim"
  },
  {
    "postcode": "67256",
    "city": "Weisenheim am Sand"
  },
  {
    "postcode": "67256",
    "city": "Bad Dürkheim"
  },
  {
    "postcode": "67258",
    "city": "Heßheim"
  },
  {
    "postcode": "67258",
    "city": "Rhein-Pfalz-Kreis"
  },
  {
    "postcode": "67259",
    "city": "Beindersheim"
  },
  {
    "postcode": "67259",
    "city": "Großniedesheim"
  },
  {
    "postcode": "67259",
    "city": "Heuchelheim bei Frankenthal"
  },
  {
    "postcode": "67259",
    "city": "Kleinniedesheim"
  },
  {
    "postcode": "67259",
    "city": "Rhein-Pfalz-Kreis"
  },
  {
    "postcode": "67269",
    "city": "Asselheim"
  },
  {
    "postcode": "67269",
    "city": "Grünstadt"
  },
  {
    "postcode": "67269",
    "city": "Sausenheim"
  },
  {
    "postcode": "67269",
    "city": "Bad Dürkheim"
  },
  {
    "postcode": "67271",
    "city": "Battenberg (Pfalz)"
  },
  {
    "postcode": "67271",
    "city": "Battenberg"
  },
  {
    "postcode": "67271",
    "city": "Kindenheim"
  },
  {
    "postcode": "67271",
    "city": "Kleinkarlbach"
  },
  {
    "postcode": "67271",
    "city": "Mertesheim"
  },
  {
    "postcode": "67271",
    "city": "Neuleiningen"
  },
  {
    "postcode": "67271",
    "city": "Obersülzen"
  },
  {
    "postcode": "67271",
    "city": "Bad Dürkheim"
  },
  {
    "postcode": "67273",
    "city": "Bobenheim am Berg"
  },
  {
    "postcode": "67273",
    "city": "Dackenheim"
  },
  {
    "postcode": "67273",
    "city": "Herxheim am Berg"
  },
  {
    "postcode": "67273",
    "city": "Weisenheim am Berg"
  },
  {
    "postcode": "67273",
    "city": "Bad Dürkheim"
  },
  {
    "postcode": "67278",
    "city": "Bockenheim an der Weinstraße"
  },
  {
    "postcode": "67278",
    "city": "Kleinbockenheim an der Weinstraße"
  },
  {
    "postcode": "67278",
    "city": "Bad Dürkheim"
  },
  {
    "postcode": "67280",
    "city": "Boßweiler"
  },
  {
    "postcode": "67280",
    "city": "Ebertsheim"
  },
  {
    "postcode": "67280",
    "city": "Ebertsheim Pfalz"
  },
  {
    "postcode": "67280",
    "city": "Hertlingshäuserhof"
  },
  {
    "postcode": "67280",
    "city": "Quirnheim"
  },
  {
    "postcode": "67280",
    "city": "Rodenbach bei Grünstadt"
  },
  {
    "postcode": "67280",
    "city": "Bad Dürkheim"
  },
  {
    "postcode": "67280",
    "city": "Rodenbach"
  },
  {
    "postcode": "67281",
    "city": "Bissersheim"
  },
  {
    "postcode": "67281",
    "city": "Kern Haus"
  },
  {
    "postcode": "67281",
    "city": "Kern"
  },
  {
    "postcode": "67281",
    "city": "Kirchheim an der Weinstraße"
  },
  {
    "postcode": "67281",
    "city": "Bad Dürkheim"
  },
  {
    "postcode": "67283",
    "city": "Albsheim an der Eis"
  },
  {
    "postcode": "67283",
    "city": "Colgenstein-Heidesheim"
  },
  {
    "postcode": "67283",
    "city": "Mühlheim an der Eis"
  },
  {
    "postcode": "67283",
    "city": "Obrigheim (Pfalz)"
  },
  {
    "postcode": "67283",
    "city": "Obrigheim"
  },
  {
    "postcode": "67283",
    "city": "Bad Dürkheim"
  },
  {
    "postcode": "67283",
    "city": "Albsheim"
  },
  {
    "postcode": "67283",
    "city": "Mühlheim"
  },
  {
    "postcode": "67283",
    "city": "Neuoffstein"
  },
  {
    "postcode": "67292",
    "city": "Bolanderhof"
  },
  {
    "postcode": "67292",
    "city": "Haide Pfalz"
  },
  {
    "postcode": "67292",
    "city": "Haide"
  },
  {
    "postcode": "67292",
    "city": "Kirchheimbolanden"
  },
  {
    "postcode": "67292",
    "city": "Leithof"
  },
  {
    "postcode": "67292",
    "city": "Donnersbergkreis"
  },
  {
    "postcode": "67292",
    "city": "Pulvermühle"
  },
  {
    "postcode": "67294",
    "city": "Bischheim Pfalz"
  },
  {
    "postcode": "67294",
    "city": "Bischheim"
  },
  {
    "postcode": "67294",
    "city": "Gauersheim"
  },
  {
    "postcode": "67294",
    "city": "Ilbesheim bei Kirchheimbolanden"
  },
  {
    "postcode": "67294",
    "city": "Mauchenheim"
  },
  {
    "postcode": "67294",
    "city": "Morschheim"
  },
  {
    "postcode": "67294",
    "city": "Oberwiesen Pfalz"
  },
  {
    "postcode": "67294",
    "city": "Oberwiesen"
  },
  {
    "postcode": "67294",
    "city": "Orbis"
  },
  {
    "postcode": "67294",
    "city": "Rittersheim"
  },
  {
    "postcode": "67294",
    "city": "Stetten Pfalz"
  },
  {
    "postcode": "67294",
    "city": "Stetten"
  },
  {
    "postcode": "67294",
    "city": "Alzey-Worms"
  },
  {
    "postcode": "67294",
    "city": "Hessenhütte"
  },
  {
    "postcode": "67294",
    "city": "Ilbesheim"
  },
  {
    "postcode": "67294",
    "city": "Josefsmühle"
  },
  {
    "postcode": "67294",
    "city": "Pfalzfeld"
  },
  {
    "postcode": "67294",
    "city": "Steuerwaldsmühle"
  },
  {
    "postcode": "67294",
    "city": "Leithof"
  },
  {
    "postcode": "67295",
    "city": "Bolanden Pfalz"
  },
  {
    "postcode": "67295",
    "city": "Bolanden"
  },
  {
    "postcode": "67295",
    "city": "Klosterhof"
  },
  {
    "postcode": "67295",
    "city": "Donnersbergkreis"
  },
  {
    "postcode": "67297",
    "city": "Elbisheimerhof Pfalz"
  },
  {
    "postcode": "67297",
    "city": "Elbisheimerhof"
  },
  {
    "postcode": "67297",
    "city": "Froschauerhof Pfalz"
  },
  {
    "postcode": "67297",
    "city": "Froschauerhof"
  },
  {
    "postcode": "67297",
    "city": "Marnheim Pfalz"
  },
  {
    "postcode": "67297",
    "city": "Marnheim"
  },
  {
    "postcode": "67297",
    "city": "Donnersbergkreis"
  },
  {
    "postcode": "67304",
    "city": "Eisenberg"
  },
  {
    "postcode": "67304",
    "city": "Eisenberg (Pfalz)"
  },
  {
    "postcode": "67304",
    "city": "Kerzenheim"
  },
  {
    "postcode": "67304",
    "city": "Stauf Pfalz"
  },
  {
    "postcode": "67304",
    "city": "Stauf"
  },
  {
    "postcode": "67304",
    "city": "Steinborn"
  },
  {
    "postcode": "67304",
    "city": "Donnersbergkreis"
  },
  {
    "postcode": "67305",
    "city": "Kisselhof Pfalz"
  },
  {
    "postcode": "67305",
    "city": "Kisselhof"
  },
  {
    "postcode": "67305",
    "city": "Neuhammer Pfalz"
  },
  {
    "postcode": "67305",
    "city": "Neuhammer"
  },
  {
    "postcode": "67305",
    "city": "Ramsen Pfalz"
  },
  {
    "postcode": "67305",
    "city": "Ramsen"
  },
  {
    "postcode": "67305",
    "city": "Donnersbergkreis"
  },
  {
    "postcode": "67307",
    "city": "Göllheim"
  },
  {
    "postcode": "67307",
    "city": "Gundheimerhof"
  },
  {
    "postcode": "67307",
    "city": "Donnersbergkreis"
  },
  {
    "postcode": "67308",
    "city": "Albisheim (Pfrimm)"
  },
  {
    "postcode": "67308",
    "city": "Albisheim"
  },
  {
    "postcode": "67308",
    "city": "Biedesheim Pfalz"
  },
  {
    "postcode": "67308",
    "city": "Biedesheim"
  },
  {
    "postcode": "67308",
    "city": "Bubenheim Pfalz"
  },
  {
    "postcode": "67308",
    "city": "Bubenheim"
  },
  {
    "postcode": "67308",
    "city": "Einselthum"
  },
  {
    "postcode": "67308",
    "city": "Harxheim Pfalz"
  },
  {
    "postcode": "67308",
    "city": "Harxheim"
  },
  {
    "postcode": "67308",
    "city": "Immesheim"
  },
  {
    "postcode": "67308",
    "city": "Lautersheim"
  },
  {
    "postcode": "67308",
    "city": "Niefernheim-Zellertal"
  },
  {
    "postcode": "67308",
    "city": "Ottersheim bei Kirchheimbolanden"
  },
  {
    "postcode": "67308",
    "city": "Rüssingen"
  },
  {
    "postcode": "67308",
    "city": "Zell Pfalz"
  },
  {
    "postcode": "67308",
    "city": "Zell"
  },
  {
    "postcode": "67308",
    "city": "Zellertal Pfalz"
  },
  {
    "postcode": "67308",
    "city": "Zellertal"
  },
  {
    "postcode": "67308",
    "city": "Donnersbergkreis"
  },
  {
    "postcode": "67308",
    "city": "Ottersheim"
  },
  {
    "postcode": "67308",
    "city": "Heyerhof"
  },
  {
    "postcode": "67308",
    "city": "Niefernheim"
  },
  {
    "postcode": "67310",
    "city": "Hettenleidelheim"
  },
  {
    "postcode": "67310",
    "city": "Bad Dürkheim"
  },
  {
    "postcode": "67311",
    "city": "Tiefenthal Pfalz"
  },
  {
    "postcode": "67311",
    "city": "Tiefenthal"
  },
  {
    "postcode": "67311",
    "city": "Bad Dürkheim"
  },
  {
    "postcode": "67316",
    "city": "Carlsberg Pfalz"
  },
  {
    "postcode": "67316",
    "city": "Carlsberg"
  },
  {
    "postcode": "67316",
    "city": "Bad Dürkheim"
  },
  {
    "postcode": "67317",
    "city": "Altleiningen"
  },
  {
    "postcode": "67317",
    "city": "Höningen"
  },
  {
    "postcode": "67317",
    "city": "Bad Dürkheim"
  },
  {
    "postcode": "67319",
    "city": "Wattenheim Pfalz"
  },
  {
    "postcode": "67319",
    "city": "Wattenheim"
  },
  {
    "postcode": "67319",
    "city": "Bad Dürkheim"
  },
  {
    "postcode": "67319",
    "city": "Lauberhof"
  },
  {
    "postcode": "67346",
    "city": "Ludwigshof"
  },
  {
    "postcode": "67346",
    "city": "Rinkenbergerhof"
  },
  {
    "postcode": "67346",
    "city": "Speyer"
  },
  {
    "postcode": "67354",
    "city": "Berghausen Pfalz"
  },
  {
    "postcode": "67354",
    "city": "Berghausen"
  },
  {
    "postcode": "67354",
    "city": "Heiligenstein Pfalz"
  },
  {
    "postcode": "67354",
    "city": "Heiligenstein"
  },
  {
    "postcode": "67354",
    "city": "Mechtersheim"
  },
  {
    "postcode": "67354",
    "city": "Römerberg Pfalz"
  },
  {
    "postcode": "67354",
    "city": "Römerberg"
  },
  {
    "postcode": "67354",
    "city": "Ludwigshafen am Rhein"
  },
  {
    "postcode": "67360",
    "city": "Lingenfeld"
  },
  {
    "postcode": "67360",
    "city": "Germersheim"
  },
  {
    "postcode": "67361",
    "city": "Freisbach"
  },
  {
    "postcode": "67361",
    "city": "Germersheim"
  },
  {
    "postcode": "67363",
    "city": "Lustadt"
  },
  {
    "postcode": "67363",
    "city": "Niederlustadt"
  },
  {
    "postcode": "67363",
    "city": "Germersheim"
  },
  {
    "postcode": "67365",
    "city": "Schwegenheim"
  },
  {
    "postcode": "67365",
    "city": "Germersheim"
  },
  {
    "postcode": "67366",
    "city": "Weingarten (Pfalz)"
  },
  {
    "postcode": "67366",
    "city": "Weingarten"
  },
  {
    "postcode": "67366",
    "city": "Germersheim"
  },
  {
    "postcode": "67368",
    "city": "Westheim (Pfalz)"
  },
  {
    "postcode": "67368",
    "city": "Westheim"
  },
  {
    "postcode": "67368",
    "city": "Germersheim"
  },
  {
    "postcode": "67373",
    "city": "Dudenhofen Pfalz"
  },
  {
    "postcode": "67373",
    "city": "Dudenhofen"
  },
  {
    "postcode": "67373",
    "city": "Rhein-Pfalz-Kreis"
  },
  {
    "postcode": "67374",
    "city": "Hanhofen"
  },
  {
    "postcode": "67374",
    "city": "Rhein-Pfalz-Kreis"
  },
  {
    "postcode": "67376",
    "city": "Harthausen Pfalz"
  },
  {
    "postcode": "67376",
    "city": "Harthausen"
  },
  {
    "postcode": "67376",
    "city": "Rhein-Pfalz-Kreis"
  },
  {
    "postcode": "67377",
    "city": "Gommersheim"
  },
  {
    "postcode": "67377",
    "city": "Südliche Weinstraße"
  },
  {
    "postcode": "67378",
    "city": "Zeiskam"
  },
  {
    "postcode": "67378",
    "city": "Germersheim"
  },
  {
    "postcode": "67433",
    "city": "Haardt an der Weinstraße"
  },
  {
    "postcode": "67433",
    "city": "Neustadt an der Weinstraße"
  },
  {
    "postcode": "67433",
    "city": "Neustadt-Stadt"
  },
  {
    "postcode": "67433",
    "city": "Haardt"
  },
  {
    "postcode": "67433",
    "city": "Lachen-Speyerdorf"
  },
  {
    "postcode": "67434",
    "city": "Diedesfeld"
  },
  {
    "postcode": "67434",
    "city": "Hambach an der Weinstraße"
  },
  {
    "postcode": "67434",
    "city": "Neustadt an der Weinstraße"
  },
  {
    "postcode": "67434",
    "city": "Hambach"
  },
  {
    "postcode": "67434",
    "city": "Neustadt-Stadt"
  },
  {
    "postcode": "67435",
    "city": "Duttweiler Pfalz"
  },
  {
    "postcode": "67435",
    "city": "Duttweiler"
  },
  {
    "postcode": "67435",
    "city": "Geinsheim Pfalz"
  },
  {
    "postcode": "67435",
    "city": "Geinsheim"
  },
  {
    "postcode": "67435",
    "city": "Gimmeldingen"
  },
  {
    "postcode": "67435",
    "city": "Königsbach an der Weinstraße"
  },
  {
    "postcode": "67435",
    "city": "Mußbach an der Weinstraße"
  },
  {
    "postcode": "67435",
    "city": "Neustadt an der Weinstraße"
  },
  {
    "postcode": "67435",
    "city": "Benjental"
  },
  {
    "postcode": "67435",
    "city": "Looganlage"
  },
  {
    "postcode": "67435",
    "city": "Lachen-Speyerdorf"
  },
  {
    "postcode": "67435",
    "city": "Mußbach"
  },
  {
    "postcode": "67435",
    "city": "Königsbach"
  },
  {
    "postcode": "67435",
    "city": "Neustadt-Stadt"
  },
  {
    "postcode": "67454",
    "city": "Haßloch Pfalz"
  },
  {
    "postcode": "67454",
    "city": "Haßloch"
  },
  {
    "postcode": "67454",
    "city": "Bad Dürkheim"
  },
  {
    "postcode": "67459",
    "city": "Böhl-Iggelheim"
  },
  {
    "postcode": "67459",
    "city": "Rhein-Pfalz-Kreis"
  },
  {
    "postcode": "67459",
    "city": "Böhl"
  },
  {
    "postcode": "67466",
    "city": "Breitenstein Pfalz"
  },
  {
    "postcode": "67466",
    "city": "Breitenstein"
  },
  {
    "postcode": "67466",
    "city": "Erfenstein"
  },
  {
    "postcode": "67466",
    "city": "Lambrecht (Pfalz)"
  },
  {
    "postcode": "67466",
    "city": "Lambrecht"
  },
  {
    "postcode": "67466",
    "city": "Bad Dürkheim"
  },
  {
    "postcode": "67466",
    "city": "Luhrbach"
  },
  {
    "postcode": "67468",
    "city": "Diemerstein Pfalz"
  },
  {
    "postcode": "67468",
    "city": "Diemerstein"
  },
  {
    "postcode": "67468",
    "city": "Frankeneck"
  },
  {
    "postcode": "67468",
    "city": "Frankenstein Pfalz"
  },
  {
    "postcode": "67468",
    "city": "Frankenstein"
  },
  {
    "postcode": "67468",
    "city": "Neidenfels Pfalz"
  },
  {
    "postcode": "67468",
    "city": "Neidenfels"
  },
  {
    "postcode": "67468",
    "city": "Bad Dürkheim"
  },
  {
    "postcode": "67468",
    "city": "Lambertskreuz"
  },
  {
    "postcode": "67468",
    "city": "Sattelmühle"
  },
  {
    "postcode": "67471",
    "city": "Appenthal"
  },
  {
    "postcode": "67471",
    "city": "Elmstein"
  },
  {
    "postcode": "67471",
    "city": "Erlenbach"
  },
  {
    "postcode": "67471",
    "city": "Harzofen"
  },
  {
    "postcode": "67471",
    "city": "Iggelbach"
  },
  {
    "postcode": "67471",
    "city": "Mückenwiese"
  },
  {
    "postcode": "67471",
    "city": "Röderthal"
  },
  {
    "postcode": "67471",
    "city": "Schwarzbach"
  },
  {
    "postcode": "67471",
    "city": "Speyerbrunn"
  },
  {
    "postcode": "67471",
    "city": "Bad Dürkheim"
  },
  {
    "postcode": "67471",
    "city": "Schafhof"
  },
  {
    "postcode": "67471",
    "city": "Helmbach"
  },
  {
    "postcode": "67471",
    "city": "Schwabenbach"
  },
  {
    "postcode": "67472",
    "city": "Esthal"
  },
  {
    "postcode": "67472",
    "city": "Bad Dürkheim"
  },
  {
    "postcode": "67472",
    "city": "Sattelmühle"
  },
  {
    "postcode": "67473",
    "city": "Lindenberg Pfalz"
  },
  {
    "postcode": "67473",
    "city": "Lindenberg"
  },
  {
    "postcode": "67473",
    "city": "Bad Dürkheim"
  },
  {
    "postcode": "67475",
    "city": "Weidenthal Pfalz"
  },
  {
    "postcode": "67475",
    "city": "Weidenthal"
  },
  {
    "postcode": "67475",
    "city": "Bad Dürkheim"
  },
  {
    "postcode": "67480",
    "city": "Edenkoben"
  },
  {
    "postcode": "67480",
    "city": "Südliche Weinstraße"
  },
  {
    "postcode": "67482",
    "city": "Altdorf Pfalz"
  },
  {
    "postcode": "67482",
    "city": "Altdorf"
  },
  {
    "postcode": "67482",
    "city": "Böbingen Pfalz"
  },
  {
    "postcode": "67482",
    "city": "Böbingen"
  },
  {
    "postcode": "67482",
    "city": "Freimersheim (Pfalz)"
  },
  {
    "postcode": "67482",
    "city": "Freimersheim"
  },
  {
    "postcode": "67482",
    "city": "Venningen"
  },
  {
    "postcode": "67482",
    "city": "Südliche Weinstraße"
  },
  {
    "postcode": "67483",
    "city": "Edesheim Pfalz"
  },
  {
    "postcode": "67483",
    "city": "Edesheim"
  },
  {
    "postcode": "67483",
    "city": "Großfischlingen"
  },
  {
    "postcode": "67483",
    "city": "Kleinfischlingen"
  },
  {
    "postcode": "67483",
    "city": "Südliche Weinstraße"
  },
  {
    "postcode": "67487",
    "city": "Maikammer"
  },
  {
    "postcode": "67487",
    "city": "Sankt Martin Pfalz"
  },
  {
    "postcode": "67487",
    "city": "Sankt Martin"
  },
  {
    "postcode": "67487",
    "city": "Südliche Weinstraße"
  },
  {
    "postcode": "67487",
    "city": "St. Martin"
  },
  {
    "postcode": "67489",
    "city": "Kirrweiler (Pfalz)"
  },
  {
    "postcode": "67489",
    "city": "Kirrweiler"
  },
  {
    "postcode": "67489",
    "city": "Südliche Weinstraße"
  },
  {
    "postcode": "67547",
    "city": "Weinsheim"
  },
  {
    "postcode": "67547",
    "city": "Worms"
  },
  {
    "postcode": "67547",
    "city": "Innenstadt"
  },
  {
    "postcode": "67549",
    "city": "Hochheim"
  },
  {
    "postcode": "67549",
    "city": "Leiselheim"
  },
  {
    "postcode": "67549",
    "city": "Neuhausen"
  },
  {
    "postcode": "67549",
    "city": "Pfiffligheim"
  },
  {
    "postcode": "67549",
    "city": "Worms"
  },
  {
    "postcode": "67549",
    "city": "Innenstadt"
  },
  {
    "postcode": "67550",
    "city": "Abenheim"
  },
  {
    "postcode": "67550",
    "city": "Herrnsheim"
  },
  {
    "postcode": "67550",
    "city": "Ibersheim"
  },
  {
    "postcode": "67550",
    "city": "Rheindürkheim"
  },
  {
    "postcode": "67550",
    "city": "Worms"
  },
  {
    "postcode": "67551",
    "city": "Heppenheim an der Wiese"
  },
  {
    "postcode": "67551",
    "city": "Horchheim"
  },
  {
    "postcode": "67551",
    "city": "Pfeddersheim"
  },
  {
    "postcode": "67551",
    "city": "Weinsheim"
  },
  {
    "postcode": "67551",
    "city": "Worms"
  },
  {
    "postcode": "67551",
    "city": "Heppenheim"
  },
  {
    "postcode": "67551",
    "city": "Wiesoppenheim"
  },
  {
    "postcode": "67551",
    "city": "Herrnsheim"
  },
  {
    "postcode": "67574",
    "city": "Osthofen Rheinhessen"
  },
  {
    "postcode": "67574",
    "city": "Osthofen"
  },
  {
    "postcode": "67574",
    "city": "Alzey-Worms"
  },
  {
    "postcode": "67575",
    "city": "Eich Rheinhessen"
  },
  {
    "postcode": "67575",
    "city": "Eich"
  },
  {
    "postcode": "67575",
    "city": "Sandhof Rheinhessen"
  },
  {
    "postcode": "67575",
    "city": "Sandhof"
  },
  {
    "postcode": "67575",
    "city": "Alzey-Worms"
  },
  {
    "postcode": "67575",
    "city": "Biebesheim am Rhein"
  },
  {
    "postcode": "67577",
    "city": "Alsheim Rheinhessen"
  },
  {
    "postcode": "67577",
    "city": "Alsheim"
  },
  {
    "postcode": "67577",
    "city": "Alzey-Worms"
  },
  {
    "postcode": "67578",
    "city": "Gimbsheim"
  },
  {
    "postcode": "67578",
    "city": "Alzey-Worms"
  },
  {
    "postcode": "67580",
    "city": "Hamm am Rhein"
  },
  {
    "postcode": "67580",
    "city": "Hamm Rheinhessen"
  },
  {
    "postcode": "67580",
    "city": "Hamm"
  },
  {
    "postcode": "67580",
    "city": "Alzey-Worms"
  },
  {
    "postcode": "67580",
    "city": "Eicher See"
  },
  {
    "postcode": "67582",
    "city": "Mettenheim Rheinhessen"
  },
  {
    "postcode": "67582",
    "city": "Mettenheim"
  },
  {
    "postcode": "67582",
    "city": "Alzey-Worms"
  },
  {
    "postcode": "67583",
    "city": "Guntersblum"
  },
  {
    "postcode": "67583",
    "city": "Mainz-Bingen"
  },
  {
    "postcode": "67585",
    "city": "Dorn-Dürkheim"
  },
  {
    "postcode": "67585",
    "city": "Mainz-Bingen"
  },
  {
    "postcode": "67586",
    "city": "Hillesheim Rheinhessen"
  },
  {
    "postcode": "67586",
    "city": "Hillesheim"
  },
  {
    "postcode": "67586",
    "city": "Mainz-Bingen"
  },
  {
    "postcode": "67586",
    "city": "Bahnhof"
  },
  {
    "postcode": "67587",
    "city": "Wintersheim"
  },
  {
    "postcode": "67587",
    "city": "Mainz-Bingen"
  },
  {
    "postcode": "67590",
    "city": "Monsheim Rheinhessen"
  },
  {
    "postcode": "67590",
    "city": "Monsheim"
  },
  {
    "postcode": "67590",
    "city": "Alzey-Worms"
  },
  {
    "postcode": "67591",
    "city": "Hohen-Sülzen"
  },
  {
    "postcode": "67591",
    "city": "Mölsheim"
  },
  {
    "postcode": "67591",
    "city": "Mörstadt"
  },
  {
    "postcode": "67591",
    "city": "Offstein"
  },
  {
    "postcode": "67591",
    "city": "Wachenheim Rheinhessen"
  },
  {
    "postcode": "67591",
    "city": "Wachenheim"
  },
  {
    "postcode": "67591",
    "city": "Alzey-Worms"
  },
  {
    "postcode": "67592",
    "city": "Flörsheim-Dalsheim"
  },
  {
    "postcode": "67592",
    "city": "Alzey-Worms"
  },
  {
    "postcode": "67593",
    "city": "Bermersheim bei Worms"
  },
  {
    "postcode": "67593",
    "city": "Westhofen Rheinhessen"
  },
  {
    "postcode": "67593",
    "city": "Westhofen"
  },
  {
    "postcode": "67593",
    "city": "Alzey-Worms"
  },
  {
    "postcode": "67593",
    "city": "Bermersheim"
  },
  {
    "postcode": "67595",
    "city": "Bechtheim Rheinhessen"
  },
  {
    "postcode": "67595",
    "city": "Bechtheim"
  },
  {
    "postcode": "67595",
    "city": "Alzey-Worms"
  },
  {
    "postcode": "67596",
    "city": "Dittelsheim"
  },
  {
    "postcode": "67596",
    "city": "Dittelsheim-Heßloch"
  },
  {
    "postcode": "67596",
    "city": "Frettenheim"
  },
  {
    "postcode": "67596",
    "city": "Heßloch"
  },
  {
    "postcode": "67596",
    "city": "Alzey-Worms"
  },
  {
    "postcode": "67598",
    "city": "Enzheim Rheinhessen"
  },
  {
    "postcode": "67598",
    "city": "Enzheim"
  },
  {
    "postcode": "67598",
    "city": "Gundersheim Rheinhessen"
  },
  {
    "postcode": "67598",
    "city": "Gundersheim"
  },
  {
    "postcode": "67598",
    "city": "Alzey-Worms"
  },
  {
    "postcode": "67599",
    "city": "Gundheim"
  },
  {
    "postcode": "67599",
    "city": "Alzey-Worms"
  },
  {
    "postcode": "67653",
    "city": "Kaiserslautern"
  },
  {
    "postcode": "67655",
    "city": "Kaiserslautern"
  },
  {
    "postcode": "67655",
    "city": "Innenstadt"
  },
  {
    "postcode": "67657",
    "city": "Kaiserslautern"
  },
  {
    "postcode": "67657",
    "city": "Morlautern Pfalz"
  },
  {
    "postcode": "67657",
    "city": "Morlautern"
  },
  {
    "postcode": "67657",
    "city": "Innenstadt"
  },
  {
    "postcode": "67659",
    "city": "Erfenbach"
  },
  {
    "postcode": "67659",
    "city": "Erlenbach Kreis Kaiserslautern"
  },
  {
    "postcode": "67659",
    "city": "Erlenbach"
  },
  {
    "postcode": "67659",
    "city": "Kaiserslautern"
  },
  {
    "postcode": "67659",
    "city": "Morlautern Pfalz"
  },
  {
    "postcode": "67659",
    "city": "Morlautern"
  },
  {
    "postcode": "67659",
    "city": "Innenstadt"
  },
  {
    "postcode": "67661",
    "city": "Breitenau bei Kaiserslautern"
  },
  {
    "postcode": "67661",
    "city": "Dansenberg Pfalz"
  },
  {
    "postcode": "67661",
    "city": "Dansenberg"
  },
  {
    "postcode": "67661",
    "city": "Hohenecken"
  },
  {
    "postcode": "67661",
    "city": "Kaiserslautern"
  },
  {
    "postcode": "67661",
    "city": "Mölschbach"
  },
  {
    "postcode": "67661",
    "city": "Siegelbach Pfalz"
  },
  {
    "postcode": "67661",
    "city": "Siegelbach"
  },
  {
    "postcode": "67661",
    "city": "Stüterhof"
  },
  {
    "postcode": "67661",
    "city": "Breitenau"
  },
  {
    "postcode": "67661",
    "city": "Innenstadt"
  },
  {
    "postcode": "67663",
    "city": "Kaiserslautern"
  },
  {
    "postcode": "67663",
    "city": "Innenstadt"
  },
  {
    "postcode": "67677",
    "city": "Daubenbornerhof"
  },
  {
    "postcode": "67677",
    "city": "Enkenbach-Alsenborn"
  },
  {
    "postcode": "67677",
    "city": "Kaiserslautern"
  },
  {
    "postcode": "67677",
    "city": "Schorlenberg"
  },
  {
    "postcode": "67678",
    "city": "Fröhnerhof"
  },
  {
    "postcode": "67678",
    "city": "Mehlingen"
  },
  {
    "postcode": "67678",
    "city": "Neukirchen"
  },
  {
    "postcode": "67678",
    "city": "Kaiserslautern"
  },
  {
    "postcode": "67680",
    "city": "Heinzenthal"
  },
  {
    "postcode": "67680",
    "city": "Neuhemsbach"
  },
  {
    "postcode": "67680",
    "city": "Kaiserslautern"
  },
  {
    "postcode": "67680",
    "city": "Eichenbachermühle"
  },
  {
    "postcode": "67681",
    "city": "Flurhof"
  },
  {
    "postcode": "67681",
    "city": "Heuberg"
  },
  {
    "postcode": "67681",
    "city": "Sembach"
  },
  {
    "postcode": "67681",
    "city": "Wartenberg-Rohrbach"
  },
  {
    "postcode": "67681",
    "city": "Donnersbergkreis"
  },
  {
    "postcode": "67681",
    "city": "Rohrbach"
  },
  {
    "postcode": "67685",
    "city": "Erzenhausen"
  },
  {
    "postcode": "67685",
    "city": "Eulenbis"
  },
  {
    "postcode": "67685",
    "city": "Mückenhof"
  },
  {
    "postcode": "67685",
    "city": "Pörrbach"
  },
  {
    "postcode": "67685",
    "city": "Samuelshof"
  },
  {
    "postcode": "67685",
    "city": "Schwedelbach"
  },
  {
    "postcode": "67685",
    "city": "Weilerbach Pfalz"
  },
  {
    "postcode": "67685",
    "city": "Weilerbach"
  },
  {
    "postcode": "67685",
    "city": "Kaiserslautern"
  },
  {
    "postcode": "67685",
    "city": "Mückenmühle"
  },
  {
    "postcode": "67686",
    "city": "Langenfelderhof Kreis Kaiserslautern"
  },
  {
    "postcode": "67686",
    "city": "Langenfelderhof"
  },
  {
    "postcode": "67686",
    "city": "Mackenbach Kreis Kaiserslautern"
  },
  {
    "postcode": "67686",
    "city": "Mackenbach"
  },
  {
    "postcode": "67686",
    "city": "Kaiserslautern"
  },
  {
    "postcode": "67688",
    "city": "Rodenbach Kreis Kaiserslautern"
  },
  {
    "postcode": "67688",
    "city": "Rodenbach"
  },
  {
    "postcode": "67688",
    "city": "Kaiserslautern"
  },
  {
    "postcode": "67691",
    "city": "Hochspeyer"
  },
  {
    "postcode": "67691",
    "city": "Kaiserslautern"
  },
  {
    "postcode": "67691",
    "city": "Klaftertalerhof"
  },
  {
    "postcode": "67693",
    "city": "Fischbach Kreis Kaiserslautern"
  },
  {
    "postcode": "67693",
    "city": "Fischbach"
  },
  {
    "postcode": "67693",
    "city": "Harzthalerhof Kreis Kaiserslautern"
  },
  {
    "postcode": "67693",
    "city": "Harzthalerhof"
  },
  {
    "postcode": "67693",
    "city": "Waldleiningen Pfalz"
  },
  {
    "postcode": "67693",
    "city": "Waldleiningen"
  },
  {
    "postcode": "67693",
    "city": "Kaiserslautern"
  },
  {
    "postcode": "67697",
    "city": "Drehenthalerhof"
  },
  {
    "postcode": "67697",
    "city": "Lauerhof"
  },
  {
    "postcode": "67697",
    "city": "Münchschwanderhof"
  },
  {
    "postcode": "67697",
    "city": "Otterberg"
  },
  {
    "postcode": "67697",
    "city": "Weinbrunnerhof"
  },
  {
    "postcode": "67697",
    "city": "Kaiserslautern"
  },
  {
    "postcode": "67697",
    "city": "Dudenbacherhof"
  },
  {
    "postcode": "67697",
    "city": "Reichenbacherhof"
  },
  {
    "postcode": "67699",
    "city": "Heiligenmoschel"
  },
  {
    "postcode": "67699",
    "city": "Horterhof"
  },
  {
    "postcode": "67699",
    "city": "Schneckenhausen"
  },
  {
    "postcode": "67699",
    "city": "Kaiserslautern"
  },
  {
    "postcode": "67699",
    "city": "Sickingerhof"
  },
  {
    "postcode": "67700",
    "city": "Amoshof Kreis Kaiserslautern"
  },
  {
    "postcode": "67700",
    "city": "Amoshof"
  },
  {
    "postcode": "67700",
    "city": "Bügenmühlerhof Kreis Kaiserslautern"
  },
  {
    "postcode": "67700",
    "city": "Bügenmühlerhof"
  },
  {
    "postcode": "67700",
    "city": "Heimkirchen"
  },
  {
    "postcode": "67700",
    "city": "Holbornerhof Kreis Kaiserslautern"
  },
  {
    "postcode": "67700",
    "city": "Holbornerhof"
  },
  {
    "postcode": "67700",
    "city": "Kreuzhof bei Rockenhausen"
  },
  {
    "postcode": "67700",
    "city": "Morbach Pfalz"
  },
  {
    "postcode": "67700",
    "city": "Morbach"
  },
  {
    "postcode": "67700",
    "city": "Niederkirchen"
  },
  {
    "postcode": "67700",
    "city": "Niederkirchen Kreis Kaiserslautern"
  },
  {
    "postcode": "67700",
    "city": "Wörsbach"
  },
  {
    "postcode": "67700",
    "city": "Kaiserslautern"
  },
  {
    "postcode": "67701",
    "city": "Schallodenbach"
  },
  {
    "postcode": "67701",
    "city": "Wickelhof"
  },
  {
    "postcode": "67701",
    "city": "Kaiserslautern"
  },
  {
    "postcode": "67705",
    "city": "Hasenberg"
  },
  {
    "postcode": "67705",
    "city": "Johanniskreuz"
  },
  {
    "postcode": "67705",
    "city": "Langensohl"
  },
  {
    "postcode": "67705",
    "city": "Meiserspring"
  },
  {
    "postcode": "67705",
    "city": "Stelzenberg Pfalz"
  },
  {
    "postcode": "67705",
    "city": "Stelzenberg"
  },
  {
    "postcode": "67705",
    "city": "Trippstadt"
  },
  {
    "postcode": "67705",
    "city": "Kaiserslautern"
  },
  {
    "postcode": "67705",
    "city": "Finsterbrunnertal"
  },
  {
    "postcode": "67705",
    "city": "Neuhof"
  },
  {
    "postcode": "67706",
    "city": "Krickenbach"
  },
  {
    "postcode": "67706",
    "city": "Kaiserslautern"
  },
  {
    "postcode": "67706",
    "city": "Ländlerhof"
  },
  {
    "postcode": "67707",
    "city": "Schopp"
  },
  {
    "postcode": "67707",
    "city": "Kaiserslautern"
  },
  {
    "postcode": "67714",
    "city": "Waldfischbach-Burgalben"
  },
  {
    "postcode": "67714",
    "city": "Südwestpfalz"
  },
  {
    "postcode": "67714",
    "city": "Heidelsburg"
  },
  {
    "postcode": "67714",
    "city": "Hundsweihersägemühle"
  },
  {
    "postcode": "67715",
    "city": "Geiselberg Pfalz"
  },
  {
    "postcode": "67715",
    "city": "Geiselberg"
  },
  {
    "postcode": "67715",
    "city": "Südwestpfalz"
  },
  {
    "postcode": "67716",
    "city": "Heltersberg"
  },
  {
    "postcode": "67716",
    "city": "Südwestpfalz"
  },
  {
    "postcode": "67718",
    "city": "Schmalenberg Pfalz"
  },
  {
    "postcode": "67718",
    "city": "Schmalenberg"
  },
  {
    "postcode": "67718",
    "city": "Südwestpfalz"
  },
  {
    "postcode": "67722",
    "city": "Alsenbrück-Langmeil"
  },
  {
    "postcode": "67722",
    "city": "Eisenschmelz"
  },
  {
    "postcode": "67722",
    "city": "Hochstein Pfalz"
  },
  {
    "postcode": "67722",
    "city": "Hochstein"
  },
  {
    "postcode": "67722",
    "city": "Kahlheckerhof Pfalz"
  },
  {
    "postcode": "67722",
    "city": "Kahlheckerhof"
  },
  {
    "postcode": "67722",
    "city": "Potzbach"
  },
  {
    "postcode": "67722",
    "city": "Winnweiler"
  },
  {
    "postcode": "67722",
    "city": "Donnersbergkreis"
  },
  {
    "postcode": "67724",
    "city": "Gehrweiler Pfalz"
  },
  {
    "postcode": "67724",
    "city": "Gehrweiler"
  },
  {
    "postcode": "67724",
    "city": "Gonbach"
  },
  {
    "postcode": "67724",
    "city": "Gundersweiler"
  },
  {
    "postcode": "67724",
    "city": "Höringen"
  },
  {
    "postcode": "67724",
    "city": "Messersbacherhof"
  },
  {
    "postcode": "67724",
    "city": "Wingertsweilerhof"
  },
  {
    "postcode": "67724",
    "city": "Donnersbergkreis"
  },
  {
    "postcode": "67725",
    "city": "Börrstadt Pfalz"
  },
  {
    "postcode": "67725",
    "city": "Börrstadt"
  },
  {
    "postcode": "67725",
    "city": "Breunigweiler"
  },
  {
    "postcode": "67725",
    "city": "Donnersbergkreis"
  },
  {
    "postcode": "67727",
    "city": "Lohnsfeld"
  },
  {
    "postcode": "67727",
    "city": "Schmitterhof"
  },
  {
    "postcode": "67727",
    "city": "Donnersbergkreis"
  },
  {
    "postcode": "67728",
    "city": "Münchweiler an der Alsenz"
  },
  {
    "postcode": "67728",
    "city": "Donnersbergkreis"
  },
  {
    "postcode": "67729",
    "city": "Pfrimmerhof"
  },
  {
    "postcode": "67729",
    "city": "Sippersfeld"
  },
  {
    "postcode": "67729",
    "city": "Donnersbergkreis"
  },
  {
    "postcode": "67731",
    "city": "Otterbach"
  },
  {
    "postcode": "67731",
    "city": "Otterbach Pfalz"
  },
  {
    "postcode": "67731",
    "city": "Reichenbacherhof"
  },
  {
    "postcode": "67731",
    "city": "Sambach Pfalz"
  },
  {
    "postcode": "67731",
    "city": "Sambach"
  },
  {
    "postcode": "67731",
    "city": "Kaiserslautern"
  },
  {
    "postcode": "67732",
    "city": "Hirschhorn / Pfalz"
  },
  {
    "postcode": "67732",
    "city": "Hirschhorn"
  },
  {
    "postcode": "67732",
    "city": "Kaiserslautern"
  },
  {
    "postcode": "67734",
    "city": "Katzweiler"
  },
  {
    "postcode": "67734",
    "city": "Kühbörncheshof"
  },
  {
    "postcode": "67734",
    "city": "Sulzbachtal"
  },
  {
    "postcode": "67734",
    "city": "Kaiserslautern"
  },
  {
    "postcode": "67735",
    "city": "Mehlbach Pfalz"
  },
  {
    "postcode": "67735",
    "city": "Mehlbach"
  },
  {
    "postcode": "67735",
    "city": "Kaiserslautern"
  },
  {
    "postcode": "67737",
    "city": "Frankelbach"
  },
  {
    "postcode": "67737",
    "city": "Olsbrücken"
  },
  {
    "postcode": "67737",
    "city": "Kaiserslautern"
  },
  {
    "postcode": "67737",
    "city": "Winterbach"
  },
  {
    "postcode": "67742",
    "city": "Adenbach"
  },
  {
    "postcode": "67742",
    "city": "Buborn"
  },
  {
    "postcode": "67742",
    "city": "Deimberg"
  },
  {
    "postcode": "67742",
    "city": "Ginsweiler"
  },
  {
    "postcode": "67742",
    "city": "Hausweiler bei Lauterecken"
  },
  {
    "postcode": "67742",
    "city": "Heinzenhausen"
  },
  {
    "postcode": "67742",
    "city": "Herren-Sulzbach"
  },
  {
    "postcode": "67742",
    "city": "Lauterecken"
  },
  {
    "postcode": "67742",
    "city": "Naumburgerhof"
  },
  {
    "postcode": "67742",
    "city": "Kusel"
  },
  {
    "postcode": "67742",
    "city": "Bösodenbacherhof"
  },
  {
    "postcode": "67742",
    "city": "Hausweiler"
  },
  {
    "postcode": "67744",
    "city": "Cronenberg bei Lauterecken"
  },
  {
    "postcode": "67744",
    "city": "Hohenöllen"
  },
  {
    "postcode": "67744",
    "city": "Homberg bei Lauterecken"
  },
  {
    "postcode": "67744",
    "city": "Hoppstädten bei Lauterecken"
  },
  {
    "postcode": "67744",
    "city": "Kappeln bei Lauterecken"
  },
  {
    "postcode": "67744",
    "city": "Kirrweiler bei Lauterecken"
  },
  {
    "postcode": "67744",
    "city": "Lohnweiler"
  },
  {
    "postcode": "67744",
    "city": "Löllbach"
  },
  {
    "postcode": "67744",
    "city": "Medard"
  },
  {
    "postcode": "67744",
    "city": "Rathskirchen"
  },
  {
    "postcode": "67744",
    "city": "Schweinschied"
  },
  {
    "postcode": "67744",
    "city": "Seelen"
  },
  {
    "postcode": "67744",
    "city": "Wiesweiler"
  },
  {
    "postcode": "67744",
    "city": "Bad Kreuznach"
  },
  {
    "postcode": "67744",
    "city": "Cronenberg"
  },
  {
    "postcode": "67744",
    "city": "Homberg"
  },
  {
    "postcode": "67744",
    "city": "Hoppstädten"
  },
  {
    "postcode": "67744",
    "city": "Kappeln"
  },
  {
    "postcode": "67744",
    "city": "Kirrweiler"
  },
  {
    "postcode": "67744",
    "city": "Rudolfskirchen"
  },
  {
    "postcode": "67745",
    "city": "Grumbach Glan"
  },
  {
    "postcode": "67745",
    "city": "Grumbach"
  },
  {
    "postcode": "67745",
    "city": "Kusel"
  },
  {
    "postcode": "67746",
    "city": "Langweiler bei Lauterecken"
  },
  {
    "postcode": "67746",
    "city": "Merzweiler"
  },
  {
    "postcode": "67746",
    "city": "Unterjeckenbach"
  },
  {
    "postcode": "67746",
    "city": "Kusel"
  },
  {
    "postcode": "67746",
    "city": "Langweiler"
  },
  {
    "postcode": "67748",
    "city": "Odenbach"
  },
  {
    "postcode": "67748",
    "city": "Kusel"
  },
  {
    "postcode": "67749",
    "city": "Nerzweiler"
  },
  {
    "postcode": "67749",
    "city": "Offenbach-Hundheim"
  },
  {
    "postcode": "67749",
    "city": "Kusel"
  },
  {
    "postcode": "67752",
    "city": "Oberweiler-Tiefenbach"
  },
  {
    "postcode": "67752",
    "city": "Rutsweiler an der Lauter"
  },
  {
    "postcode": "67752",
    "city": "Wolfstein Pfalz"
  },
  {
    "postcode": "67752",
    "city": "Wolfstein"
  },
  {
    "postcode": "67752",
    "city": "Kusel"
  },
  {
    "postcode": "67753",
    "city": "Aschbach Pfalz"
  },
  {
    "postcode": "67753",
    "city": "Aschbach"
  },
  {
    "postcode": "67753",
    "city": "Berzweiler"
  },
  {
    "postcode": "67753",
    "city": "Einöllen"
  },
  {
    "postcode": "67753",
    "city": "Hefersweiler"
  },
  {
    "postcode": "67753",
    "city": "Reipoltskirchen"
  },
  {
    "postcode": "67753",
    "city": "Relsberg"
  },
  {
    "postcode": "67753",
    "city": "Rothselberg"
  },
  {
    "postcode": "67753",
    "city": "Kusel"
  },
  {
    "postcode": "67754",
    "city": "Eßweiler"
  },
  {
    "postcode": "67754",
    "city": "Schneeweiderhof"
  },
  {
    "postcode": "67754",
    "city": "Kusel"
  },
  {
    "postcode": "67756",
    "city": "Hinzweiler"
  },
  {
    "postcode": "67756",
    "city": "Oberweiler im Tal"
  },
  {
    "postcode": "67756",
    "city": "Relsberg"
  },
  {
    "postcode": "67756",
    "city": "Kusel"
  },
  {
    "postcode": "67757",
    "city": "Kreimbach-Kaulbach"
  },
  {
    "postcode": "67757",
    "city": "Kusel"
  },
  {
    "postcode": "67759",
    "city": "Nußbach Pfalz"
  },
  {
    "postcode": "67759",
    "city": "Nußbach"
  },
  {
    "postcode": "67759",
    "city": "Reichsthal"
  },
  {
    "postcode": "67759",
    "city": "Donnersbergkreis"
  },
  {
    "postcode": "67806",
    "city": "Bisterschied"
  },
  {
    "postcode": "67806",
    "city": "Dörnbach bei Rockenhausen"
  },
  {
    "postcode": "67806",
    "city": "Dörrmoschel"
  },
  {
    "postcode": "67806",
    "city": "Felsbergerhof"
  },
  {
    "postcode": "67806",
    "city": "Katzenbach bei Rockenhausen"
  },
  {
    "postcode": "67806",
    "city": "Marienthal Pfalz"
  },
  {
    "postcode": "67806",
    "city": "Marienthal"
  },
  {
    "postcode": "67806",
    "city": "Rockenhausen"
  },
  {
    "postcode": "67806",
    "city": "Spreiterhof"
  },
  {
    "postcode": "67806",
    "city": "Teschenmoschel"
  },
  {
    "postcode": "67806",
    "city": "Donnersbergkreis"
  },
  {
    "postcode": "67806",
    "city": "Karlshöhe"
  },
  {
    "postcode": "67806",
    "city": "Katzenbach"
  },
  {
    "postcode": "67806",
    "city": "Kolbenmühle"
  },
  {
    "postcode": "67806",
    "city": "Kreuzhof"
  },
  {
    "postcode": "67806",
    "city": "Schacherhof"
  },
  {
    "postcode": "67806",
    "city": "Simonshof"
  },
  {
    "postcode": "67806",
    "city": "Wolfsmühle"
  },
  {
    "postcode": "67806",
    "city": "Dörnbach"
  },
  {
    "postcode": "67808",
    "city": "Bayerfeld-Steckweiler"
  },
  {
    "postcode": "67808",
    "city": "Bennhausen"
  },
  {
    "postcode": "67808",
    "city": "Daimbacherhof"
  },
  {
    "postcode": "67808",
    "city": "Falkenstein Pfalz"
  },
  {
    "postcode": "67808",
    "city": "Falkenstein"
  },
  {
    "postcode": "67808",
    "city": "Imsweiler"
  },
  {
    "postcode": "67808",
    "city": "Mörsfeld"
  },
  {
    "postcode": "67808",
    "city": "Ransweiler"
  },
  {
    "postcode": "67808",
    "city": "Reiterhof"
  },
  {
    "postcode": "67808",
    "city": "Ruppertsecken"
  },
  {
    "postcode": "67808",
    "city": "Schönborn Pfalz"
  },
  {
    "postcode": "67808",
    "city": "Schönborn"
  },
  {
    "postcode": "67808",
    "city": "Schweisweiler"
  },
  {
    "postcode": "67808",
    "city": "Stahlberg"
  },
  {
    "postcode": "67808",
    "city": "Steinbach am Donnersberg"
  },
  {
    "postcode": "67808",
    "city": "Weitersweiler"
  },
  {
    "postcode": "67808",
    "city": "Würzweiler"
  },
  {
    "postcode": "67808",
    "city": "Donnersbergkreis"
  },
  {
    "postcode": "67808",
    "city": "Jägerlust Forsthaus"
  },
  {
    "postcode": "67808",
    "city": "Sulzhof"
  },
  {
    "postcode": "67811",
    "city": "Dielkirchen"
  },
  {
    "postcode": "67811",
    "city": "Hanauerhof"
  },
  {
    "postcode": "67811",
    "city": "Hoferhof"
  },
  {
    "postcode": "67811",
    "city": "Donnersbergkreis"
  },
  {
    "postcode": "67813",
    "city": "Gerbach Pfalz"
  },
  {
    "postcode": "67813",
    "city": "Gerbach"
  },
  {
    "postcode": "67813",
    "city": "Sankt Alban"
  },
  {
    "postcode": "67813",
    "city": "Donnersbergkreis"
  },
  {
    "postcode": "67813",
    "city": "Schwarzengraben"
  },
  {
    "postcode": "67813",
    "city": "St. Alban"
  },
  {
    "postcode": "67814",
    "city": "Dannenfels Pfalz"
  },
  {
    "postcode": "67814",
    "city": "Dannenfels"
  },
  {
    "postcode": "67814",
    "city": "Jakobsweiler"
  },
  {
    "postcode": "67814",
    "city": "Donnersbergkreis"
  },
  {
    "postcode": "67816",
    "city": "Dreisen"
  },
  {
    "postcode": "67816",
    "city": "Münsterhof"
  },
  {
    "postcode": "67816",
    "city": "Standenbühl"
  },
  {
    "postcode": "67816",
    "city": "Donnersbergkreis"
  },
  {
    "postcode": "67816",
    "city": "Herfingerhof"
  },
  {
    "postcode": "67816",
    "city": "Mühlbusch"
  },
  {
    "postcode": "67817",
    "city": "Imsbach"
  },
  {
    "postcode": "67817",
    "city": "Donnersbergkreis"
  },
  {
    "postcode": "67819",
    "city": "Kriegsfeld"
  },
  {
    "postcode": "67819",
    "city": "Pfalz"
  },
  {
    "postcode": "67819",
    "city": "Pfalzfeld Pfalz"
  },
  {
    "postcode": "67819",
    "city": "Pfalzfeld"
  },
  {
    "postcode": "67819",
    "city": "Donnersbergkreis"
  },
  {
    "postcode": "67821",
    "city": "Alsenz"
  },
  {
    "postcode": "67821",
    "city": "Oberndorf Pfalz"
  },
  {
    "postcode": "67821",
    "city": "Oberndorf"
  },
  {
    "postcode": "67821",
    "city": "Donnersbergkreis"
  },
  {
    "postcode": "67822",
    "city": "Finkenbach-Gersweiler"
  },
  {
    "postcode": "67822",
    "city": "Gaugrehweiler"
  },
  {
    "postcode": "67822",
    "city": "Kalkofen Pfalz"
  },
  {
    "postcode": "67822",
    "city": "Kalkofen"
  },
  {
    "postcode": "67822",
    "city": "Mannweiler-Cölln"
  },
  {
    "postcode": "67822",
    "city": "Münsterappel"
  },
  {
    "postcode": "67822",
    "city": "Niederhausen an der Appel"
  },
  {
    "postcode": "67822",
    "city": "Niedermoschel"
  },
  {
    "postcode": "67822",
    "city": "Oberhausen an der Appel"
  },
  {
    "postcode": "67822",
    "city": "Schiersfeld"
  },
  {
    "postcode": "67822",
    "city": "Waldgrehweiler"
  },
  {
    "postcode": "67822",
    "city": "Winterborn Pfalz"
  },
  {
    "postcode": "67822",
    "city": "Winterborn"
  },
  {
    "postcode": "67822",
    "city": "Donnersbergkreis"
  },
  {
    "postcode": "67822",
    "city": "Bremricherhof"
  },
  {
    "postcode": "67822",
    "city": "Gutenbacherhof"
  },
  {
    "postcode": "67822",
    "city": "Hengstbacherhof"
  },
  {
    "postcode": "67822",
    "city": "Schmalfelderhof"
  },
  {
    "postcode": "67822",
    "city": "Stolzenbergerhof"
  },
  {
    "postcode": "67823",
    "city": "Lettweiler"
  },
  {
    "postcode": "67823",
    "city": "Neudorferhof"
  },
  {
    "postcode": "67823",
    "city": "Obermoschel"
  },
  {
    "postcode": "67823",
    "city": "Schiersfeld"
  },
  {
    "postcode": "67823",
    "city": "Sitters"
  },
  {
    "postcode": "67823",
    "city": "Unkenbach"
  },
  {
    "postcode": "67823",
    "city": "Bad Kreuznach"
  },
  {
    "postcode": "67824",
    "city": "Bingert"
  },
  {
    "postcode": "67824",
    "city": "Feilbingert"
  },
  {
    "postcode": "67824",
    "city": "Bad Kreuznach"
  },
  {
    "postcode": "67824",
    "city": "Lüssert"
  },
  {
    "postcode": "67826",
    "city": "Hallgarten Pfalz"
  },
  {
    "postcode": "67826",
    "city": "Hallgarten"
  },
  {
    "postcode": "67826",
    "city": "Bad Kreuznach"
  },
  {
    "postcode": "67826",
    "city": "Montforterhof"
  },
  {
    "postcode": "67827",
    "city": "Becherbach Pfalz"
  },
  {
    "postcode": "67827",
    "city": "Becherbach"
  },
  {
    "postcode": "67827",
    "city": "Gangloff"
  },
  {
    "postcode": "67827",
    "city": "Roth Pfalz"
  },
  {
    "postcode": "67827",
    "city": "Roth"
  },
  {
    "postcode": "67827",
    "city": "Bad Kreuznach"
  },
  {
    "postcode": "67829",
    "city": "Callbach"
  },
  {
    "postcode": "67829",
    "city": "Reiffelbach"
  },
  {
    "postcode": "67829",
    "city": "Schmittweiler bei Callbach"
  },
  {
    "postcode": "67829",
    "city": "Bad Kreuznach"
  },
  {
    "postcode": "67829",
    "city": "Schmittweiler"
  },
  {
    "postcode": "6711",
    "city": "Burgenlandkreis"
  },
  {
    "postcode": "6711",
    "city": "Zeitz"
  },
  {
    "postcode": "6711",
    "city": "Zangenberg"
  },
  {
    "postcode": "6711",
    "city": "Luckenau"
  },
  {
    "postcode": "6711",
    "city": "Theißen"
  },
  {
    "postcode": "6711",
    "city": "Nonnewitz"
  },
  {
    "postcode": "6711",
    "city": "Döbris"
  },
  {
    "postcode": "6711",
    "city": "Pirkau"
  },
  {
    "postcode": "6711",
    "city": "Unterschwöditz"
  },
  {
    "postcode": "6772",
    "city": "Wittenberg"
  },
  {
    "postcode": "6772",
    "city": "Gräfenhainichen"
  },
  {
    "postcode": "6772",
    "city": "Möhlau"
  },
  {
    "postcode": "6772",
    "city": "Zschornewitz"
  },
  {
    "postcode": "6772",
    "city": "Tornau"
  }
]