[
  {
    "postcode": "2826",
    "city": "Görlitz Neiße"
  },
  {
    "postcode": "2826",
    "city": "Görlitz"
  },
  {
    "postcode": "2826",
    "city": "Südstadt"
  },
  {
    "postcode": "2826",
    "city": "Innenstadt"
  },
  {
    "postcode": "2826",
    "city": "Nikolaivorstadt"
  },
  {
    "postcode": "2826",
    "city": "Biesnitz"
  },
  {
    "postcode": "2826",
    "city": "Altstadt"
  },
  {
    "postcode": "2826",
    "city": "Rauschwalde"
  },
  {
    "postcode": "2827",
    "city": "Görlitz Neiße"
  },
  {
    "postcode": "2827",
    "city": "Görlitz"
  },
  {
    "postcode": "2827",
    "city": "Weinhübel"
  },
  {
    "postcode": "2827",
    "city": "Biesnitz"
  },
  {
    "postcode": "2827",
    "city": "Rauschwalde"
  },
  {
    "postcode": "2827",
    "city": "Hagenwerder"
  },
  {
    "postcode": "2827",
    "city": "Klein Neundorf"
  },
  {
    "postcode": "2827",
    "city": "Deutsch Ossig"
  },
  {
    "postcode": "2827",
    "city": "Kunnerwitz"
  },
  {
    "postcode": "2827",
    "city": "Tauchritz"
  },
  {
    "postcode": "2827",
    "city": "Schlauroth"
  },
  {
    "postcode": "2827",
    "city": "Südstadt"
  },
  {
    "postcode": "2828",
    "city": "Görlitz Neiße"
  },
  {
    "postcode": "2828",
    "city": "Görlitz"
  },
  {
    "postcode": "2828",
    "city": "Königshufen"
  },
  {
    "postcode": "2828",
    "city": "Innenstadt"
  },
  {
    "postcode": "2828",
    "city": "Ober-Neundorf"
  },
  {
    "postcode": "2828",
    "city": "Ludwigsdorf"
  },
  {
    "postcode": "2828",
    "city": "Klingewalde"
  },
  {
    "postcode": "2828",
    "city": "Nikolaivorstadt"
  },
  {
    "postcode": "2829",
    "city": "Königshain bei Görlitz"
  },
  {
    "postcode": "2829",
    "city": "Markersdorf bei Görlitz"
  },
  {
    "postcode": "2829",
    "city": "Neißeaue"
  },
  {
    "postcode": "2829",
    "city": "Schöpstal"
  },
  {
    "postcode": "2829",
    "city": "Görlitz"
  },
  {
    "postcode": "2829",
    "city": "Königshain"
  },
  {
    "postcode": "2829",
    "city": "Markersdorf"
  },
  {
    "postcode": "2829",
    "city": "Pfaffendorf"
  },
  {
    "postcode": "2829",
    "city": "Friedersdorf"
  },
  {
    "postcode": "2829",
    "city": "Holtendorf"
  },
  {
    "postcode": "2829",
    "city": "Gersdorf"
  },
  {
    "postcode": "2829",
    "city": "Jauernick-Buschbach"
  },
  {
    "postcode": "2829",
    "city": "Deutsch Paulsdorf"
  },
  {
    "postcode": "2829",
    "city": "Kaltwasser"
  },
  {
    "postcode": "2829",
    "city": "Deschka"
  },
  {
    "postcode": "2829",
    "city": "Klein-Krauscha"
  },
  {
    "postcode": "2829",
    "city": "Groß-Krauscha"
  },
  {
    "postcode": "2829",
    "city": "Zodel"
  },
  {
    "postcode": "2829",
    "city": "Zentendorf"
  },
  {
    "postcode": "2829",
    "city": "Emmerichswalde"
  },
  {
    "postcode": "2829",
    "city": "Neu-Krauscha"
  },
  {
    "postcode": "2829",
    "city": "Ebersbach"
  },
  {
    "postcode": "2829",
    "city": "Kunnersdorf"
  },
  {
    "postcode": "2829",
    "city": "Girbigsdorf"
  },
  {
    "postcode": "2829",
    "city": "Feldhäuser"
  },
  {
    "postcode": "2894",
    "city": "Reichenbach / Oberlausitz"
  },
  {
    "postcode": "2894",
    "city": "Reichenbach"
  },
  {
    "postcode": "2894",
    "city": "Sohland am Rotstein"
  },
  {
    "postcode": "2894",
    "city": "Vierkirchen bei Görlitz"
  },
  {
    "postcode": "2894",
    "city": "Görlitz"
  },
  {
    "postcode": "2894",
    "city": "Reichenbach/O.L."
  },
  {
    "postcode": "2894",
    "city": "Sohland"
  },
  {
    "postcode": "2894",
    "city": "Vierkirchen"
  },
  {
    "postcode": "2894",
    "city": "Krobnitz"
  },
  {
    "postcode": "2894",
    "city": "Dittmannsdorf"
  },
  {
    "postcode": "2894",
    "city": "Meuselwitz"
  },
  {
    "postcode": "2894",
    "city": "Lehnhäuser"
  },
  {
    "postcode": "2894",
    "city": "Mengelsdorf"
  },
  {
    "postcode": "2894",
    "city": "Schöps"
  },
  {
    "postcode": "2894",
    "city": "Zoblitz"
  },
  {
    "postcode": "2894",
    "city": "Biesig"
  },
  {
    "postcode": "2894",
    "city": "Feldhäuser"
  },
  {
    "postcode": "2894",
    "city": "Goßwitz"
  },
  {
    "postcode": "2894",
    "city": "Löbensmüh"
  },
  {
    "postcode": "2894",
    "city": "Reißaus"
  },
  {
    "postcode": "2894",
    "city": "Borda"
  },
  {
    "postcode": "2894",
    "city": "Oehlisch"
  },
  {
    "postcode": "2894",
    "city": "Arnsdorf"
  },
  {
    "postcode": "2894",
    "city": "Buchholz"
  },
  {
    "postcode": "2894",
    "city": "Döbschütz"
  },
  {
    "postcode": "2894",
    "city": "Heideberg"
  },
  {
    "postcode": "2894",
    "city": "Hilbersdorf"
  },
  {
    "postcode": "2894",
    "city": "Melaune"
  },
  {
    "postcode": "2894",
    "city": "Prachenau"
  },
  {
    "postcode": "2894",
    "city": "Rotkretscham"
  },
  {
    "postcode": "2894",
    "city": "Tetta"
  },
  {
    "postcode": "2894",
    "city": "Wasserkretscham"
  },
  {
    "postcode": "2899",
    "city": "Ostritz"
  },
  {
    "postcode": "2899",
    "city": "Schönau-Berzdorf auf dem Eigen"
  },
  {
    "postcode": "2899",
    "city": "Görlitz"
  },
  {
    "postcode": "2899",
    "city": "Schönau-Berzdorf"
  },
  {
    "postcode": "2899",
    "city": "Leuba"
  },
  {
    "postcode": "2899",
    "city": "Kiesdorf"
  },
  {
    "postcode": "28195",
    "city": "Altstadt"
  },
  {
    "postcode": "28195",
    "city": "Bremen"
  },
  {
    "postcode": "28195",
    "city": "Mitte"
  },
  {
    "postcode": "28195",
    "city": "Bahnhofsvorstadt"
  },
  {
    "postcode": "28195",
    "city": "Neustadt"
  },
  {
    "postcode": "28195",
    "city": "Walle"
  },
  {
    "postcode": "28197",
    "city": "Bremen"
  },
  {
    "postcode": "28197",
    "city": "Rablinghausen"
  },
  {
    "postcode": "28197",
    "city": "Woltmershausen"
  },
  {
    "postcode": "28197",
    "city": "Neustädter Hafen"
  },
  {
    "postcode": "28197",
    "city": "Strom"
  },
  {
    "postcode": "28197",
    "city": "Seehausen"
  },
  {
    "postcode": "28197",
    "city": "Hohentorshafen"
  },
  {
    "postcode": "28197",
    "city": "Schönebeck"
  },
  {
    "postcode": "28197",
    "city": "Häfen"
  },
  {
    "postcode": "28199",
    "city": "Bremen"
  },
  {
    "postcode": "28199",
    "city": "Neuenland/Flughafen"
  },
  {
    "postcode": "28199",
    "city": "Neuenland"
  },
  {
    "postcode": "28199",
    "city": "Alte Neustadt"
  },
  {
    "postcode": "28199",
    "city": "Neustadt"
  },
  {
    "postcode": "28199",
    "city": "Hohentor"
  },
  {
    "postcode": "28199",
    "city": "Grolland"
  },
  {
    "postcode": "28201",
    "city": "Bremen"
  },
  {
    "postcode": "28201",
    "city": "Huckelriede"
  },
  {
    "postcode": "28201",
    "city": "Kattenturm"
  },
  {
    "postcode": "28201",
    "city": "Alte Neustadt"
  },
  {
    "postcode": "28201",
    "city": "Gartenstadt Süd"
  },
  {
    "postcode": "28201",
    "city": "Buntentor"
  },
  {
    "postcode": "28201",
    "city": "Neustadt"
  },
  {
    "postcode": "28201",
    "city": "Südervorstadt"
  },
  {
    "postcode": "28201",
    "city": "Peterswerder"
  },
  {
    "postcode": "28201",
    "city": "Obervieland"
  },
  {
    "postcode": "28203",
    "city": "Bremen"
  },
  {
    "postcode": "28203",
    "city": "Fesenfeld"
  },
  {
    "postcode": "28203",
    "city": "Ostertor"
  },
  {
    "postcode": "28203",
    "city": "Steintor"
  },
  {
    "postcode": "28203",
    "city": "Östliche Vorstadt"
  },
  {
    "postcode": "28203",
    "city": "Mitte"
  },
  {
    "postcode": "28205",
    "city": "Bremen"
  },
  {
    "postcode": "28205",
    "city": "Peterswerder"
  },
  {
    "postcode": "28205",
    "city": "Hulsberg"
  },
  {
    "postcode": "28205",
    "city": "Östliche Vorstadt"
  },
  {
    "postcode": "28205",
    "city": "Hemelingen"
  },
  {
    "postcode": "28205",
    "city": "Habenhausen"
  },
  {
    "postcode": "28207",
    "city": "Bremen"
  },
  {
    "postcode": "28207",
    "city": "Hastedt"
  },
  {
    "postcode": "28207",
    "city": "Hemelingen"
  },
  {
    "postcode": "28209",
    "city": "Bremen"
  },
  {
    "postcode": "28209",
    "city": "Schwachhausen"
  },
  {
    "postcode": "28209",
    "city": "Bürgerpark"
  },
  {
    "postcode": "28209",
    "city": "Bürgerweide/Barkhof"
  },
  {
    "postcode": "28209",
    "city": "Barkhof"
  },
  {
    "postcode": "28209",
    "city": "Findorff"
  },
  {
    "postcode": "28209",
    "city": "Mitte"
  },
  {
    "postcode": "28209",
    "city": "Bürgerweide"
  },
  {
    "postcode": "28211",
    "city": "Bremen"
  },
  {
    "postcode": "28211",
    "city": "Radio Bremen"
  },
  {
    "postcode": "28211",
    "city": "Gete"
  },
  {
    "postcode": "28211",
    "city": "Hulsberg"
  },
  {
    "postcode": "28211",
    "city": "Vahr"
  },
  {
    "postcode": "28211",
    "city": "Schwachhausen"
  },
  {
    "postcode": "28211",
    "city": "Östliche Vorstadt"
  },
  {
    "postcode": "28213",
    "city": "Bremen"
  },
  {
    "postcode": "28213",
    "city": "Neu Schwachhausen"
  },
  {
    "postcode": "28213",
    "city": "Oberneuland"
  },
  {
    "postcode": "28213",
    "city": "Riensberg"
  },
  {
    "postcode": "28213",
    "city": "Horn"
  },
  {
    "postcode": "28213",
    "city": "Lehe"
  },
  {
    "postcode": "28215",
    "city": "Bremen"
  },
  {
    "postcode": "28215",
    "city": "Findorff-Bürgerweide"
  },
  {
    "postcode": "28215",
    "city": "Weidedamm"
  },
  {
    "postcode": "28215",
    "city": "Regensburger Straße"
  },
  {
    "postcode": "28215",
    "city": "Findorff"
  },
  {
    "postcode": "28215",
    "city": "Bahnhofsvorstadt"
  },
  {
    "postcode": "28215",
    "city": "Mitte"
  },
  {
    "postcode": "28217",
    "city": "Bremen"
  },
  {
    "postcode": "28217",
    "city": "Walle"
  },
  {
    "postcode": "28217",
    "city": "Handelshäfen"
  },
  {
    "postcode": "28217",
    "city": "Steffensweg"
  },
  {
    "postcode": "28217",
    "city": "Westend"
  },
  {
    "postcode": "28217",
    "city": "Utbremen"
  },
  {
    "postcode": "28217",
    "city": "Mitte"
  },
  {
    "postcode": "28219",
    "city": "Bremen"
  },
  {
    "postcode": "28219",
    "city": "Osterfeuerberg"
  },
  {
    "postcode": "28219",
    "city": "Walle"
  },
  {
    "postcode": "28219",
    "city": "In den Hufen"
  },
  {
    "postcode": "28219",
    "city": "Hohweg"
  },
  {
    "postcode": "28219",
    "city": "Rablinghausen"
  },
  {
    "postcode": "28219",
    "city": "Findorff"
  },
  {
    "postcode": "28219",
    "city": "Oberneuland"
  },
  {
    "postcode": "28219",
    "city": "Schönebeck"
  },
  {
    "postcode": "28219",
    "city": "Rekum"
  },
  {
    "postcode": "28219",
    "city": "Weidedamm"
  },
  {
    "postcode": "28219",
    "city": "Huckelriede"
  },
  {
    "postcode": "28219",
    "city": "Woltmershausen"
  },
  {
    "postcode": "28219",
    "city": "Grolland"
  },
  {
    "postcode": "28219",
    "city": "Neuenland"
  },
  {
    "postcode": "28219",
    "city": "Ohlenhof"
  },
  {
    "postcode": "28219",
    "city": "Neustadt"
  },
  {
    "postcode": "28219",
    "city": "Habenhausen"
  },
  {
    "postcode": "28219",
    "city": "Gröpelingen"
  },
  {
    "postcode": "28219",
    "city": "Schwachhausen"
  },
  {
    "postcode": "28219",
    "city": "Steffensweg"
  },
  {
    "postcode": "28219",
    "city": "Blockland"
  },
  {
    "postcode": "28237",
    "city": "Bremen"
  },
  {
    "postcode": "28237",
    "city": "Burg-Grambke"
  },
  {
    "postcode": "28237",
    "city": "Industriehäfen"
  },
  {
    "postcode": "28237",
    "city": "In den Wischen"
  },
  {
    "postcode": "28237",
    "city": "Lindenhof"
  },
  {
    "postcode": "28237",
    "city": "Gröpelingen"
  },
  {
    "postcode": "28237",
    "city": "Häfen"
  },
  {
    "postcode": "28237",
    "city": "Burglesum"
  },
  {
    "postcode": "28237",
    "city": "Hohweg"
  },
  {
    "postcode": "28237",
    "city": "Huckelriede"
  },
  {
    "postcode": "28237",
    "city": "Woltmershausen"
  },
  {
    "postcode": "28237",
    "city": "Ohlenhof"
  },
  {
    "postcode": "28237",
    "city": "Grolland"
  },
  {
    "postcode": "28237",
    "city": "Walle"
  },
  {
    "postcode": "28239",
    "city": "Bremen"
  },
  {
    "postcode": "28239",
    "city": "Burg-Grambke"
  },
  {
    "postcode": "28239",
    "city": "Oslebshausen"
  },
  {
    "postcode": "28239",
    "city": "Ohlenhof"
  },
  {
    "postcode": "28239",
    "city": "Burglesum"
  },
  {
    "postcode": "28239",
    "city": "Gröpelingen"
  },
  {
    "postcode": "28259",
    "city": "Bremen"
  },
  {
    "postcode": "28259",
    "city": "Grolland"
  },
  {
    "postcode": "28259",
    "city": "Kirchhuchting"
  },
  {
    "postcode": "28259",
    "city": "Mittelshuchting"
  },
  {
    "postcode": "28259",
    "city": "Huchting"
  },
  {
    "postcode": "28259",
    "city": "Sodenmatt"
  },
  {
    "postcode": "28259",
    "city": "Woltmershausen"
  },
  {
    "postcode": "28277",
    "city": "Bremen"
  },
  {
    "postcode": "28277",
    "city": "Kattenturm"
  },
  {
    "postcode": "28277",
    "city": "Kattenesch"
  },
  {
    "postcode": "28277",
    "city": "Habenhausen"
  },
  {
    "postcode": "28277",
    "city": "Obervieland"
  },
  {
    "postcode": "28277",
    "city": "Rekum"
  },
  {
    "postcode": "28279",
    "city": "Arsten"
  },
  {
    "postcode": "28279",
    "city": "Bremen"
  },
  {
    "postcode": "28279",
    "city": "Habenhausen"
  },
  {
    "postcode": "28279",
    "city": "Huckelriede"
  },
  {
    "postcode": "28279",
    "city": "Peterswerder"
  },
  {
    "postcode": "28279",
    "city": "Obervieland"
  },
  {
    "postcode": "28279",
    "city": "Hastedt"
  },
  {
    "postcode": "28307",
    "city": "Arbergen"
  },
  {
    "postcode": "28307",
    "city": "Bremen"
  },
  {
    "postcode": "28307",
    "city": "Mahndorf"
  },
  {
    "postcode": "28307",
    "city": "Osterholz"
  },
  {
    "postcode": "28307",
    "city": "Hemelingen"
  },
  {
    "postcode": "28309",
    "city": "Bremen"
  },
  {
    "postcode": "28309",
    "city": "Mahndorf"
  },
  {
    "postcode": "28309",
    "city": "Sebaldsbrück"
  },
  {
    "postcode": "28309",
    "city": "Hemelingen"
  },
  {
    "postcode": "28309",
    "city": "Woltmershausen"
  },
  {
    "postcode": "28325",
    "city": "Bremen"
  },
  {
    "postcode": "28325",
    "city": "Oberneuland"
  },
  {
    "postcode": "28325",
    "city": "Ellenerbrok-Schevemoor"
  },
  {
    "postcode": "28325",
    "city": "Tenever"
  },
  {
    "postcode": "28325",
    "city": "Osterholz"
  },
  {
    "postcode": "28325",
    "city": "Gemeinde Oyten"
  },
  {
    "postcode": "28327",
    "city": "Bremen"
  },
  {
    "postcode": "28327",
    "city": "Blockdiek"
  },
  {
    "postcode": "28327",
    "city": "Neue Vahr Südost"
  },
  {
    "postcode": "28327",
    "city": "Ellener Feld"
  },
  {
    "postcode": "28327",
    "city": "Sebaldsbrück"
  },
  {
    "postcode": "28327",
    "city": "Vahr"
  },
  {
    "postcode": "28327",
    "city": "Osterholz"
  },
  {
    "postcode": "28327",
    "city": "Hemelingen"
  },
  {
    "postcode": "28329",
    "city": "Bremen"
  },
  {
    "postcode": "28329",
    "city": "Sebaldsbrück"
  },
  {
    "postcode": "28329",
    "city": "Neue Vahr Südwest"
  },
  {
    "postcode": "28329",
    "city": "Neue Vahr Nord"
  },
  {
    "postcode": "28329",
    "city": "Gartenstadt Vahr"
  },
  {
    "postcode": "28329",
    "city": "Vahr"
  },
  {
    "postcode": "28329",
    "city": "Radio Bremen"
  },
  {
    "postcode": "28329",
    "city": "Neue Vahr Südost"
  },
  {
    "postcode": "28329",
    "city": "Hemelingen"
  },
  {
    "postcode": "28329",
    "city": "Oberneuland"
  },
  {
    "postcode": "28355",
    "city": "Bremen"
  },
  {
    "postcode": "28355",
    "city": "Oberneuland"
  },
  {
    "postcode": "28355",
    "city": "Huckelriede"
  },
  {
    "postcode": "28357",
    "city": "Bremen"
  },
  {
    "postcode": "28357",
    "city": "Niederblockland"
  },
  {
    "postcode": "28357",
    "city": "Borgfeld"
  },
  {
    "postcode": "28357",
    "city": "Lehesterdeich"
  },
  {
    "postcode": "28357",
    "city": "Horn-Lehe"
  },
  {
    "postcode": "28357",
    "city": "Blockland"
  },
  {
    "postcode": "28359",
    "city": "Bremen"
  },
  {
    "postcode": "28359",
    "city": "Horn"
  },
  {
    "postcode": "28359",
    "city": "Lehe"
  },
  {
    "postcode": "28359",
    "city": "Horn-Lehe"
  },
  {
    "postcode": "28359",
    "city": "In den Hufen"
  },
  {
    "postcode": "28359",
    "city": "Lehesterdeich"
  },
  {
    "postcode": "28359",
    "city": "Schwachhausen"
  },
  {
    "postcode": "28359",
    "city": "Borgfeld"
  },
  {
    "postcode": "28359",
    "city": "Findorff"
  },
  {
    "postcode": "28717",
    "city": "Bremen"
  },
  {
    "postcode": "28717",
    "city": "Burgdamm"
  },
  {
    "postcode": "28717",
    "city": "Lesum"
  },
  {
    "postcode": "28717",
    "city": "Sankt Magnus"
  },
  {
    "postcode": "28717",
    "city": "Burglesum"
  },
  {
    "postcode": "28717",
    "city": "St. Magnus"
  },
  {
    "postcode": "28719",
    "city": "Bremen"
  },
  {
    "postcode": "28719",
    "city": "Burg-Grambke"
  },
  {
    "postcode": "28719",
    "city": "Burgdamm"
  },
  {
    "postcode": "28719",
    "city": "Wasserhorst"
  },
  {
    "postcode": "28719",
    "city": "Wummensiede"
  },
  {
    "postcode": "28719",
    "city": "Burglesum"
  },
  {
    "postcode": "28719",
    "city": "Werderland"
  },
  {
    "postcode": "28719",
    "city": "Blockland"
  },
  {
    "postcode": "28755",
    "city": "Bremen"
  },
  {
    "postcode": "28755",
    "city": "Fähr-Lobbendorf"
  },
  {
    "postcode": "28755",
    "city": "Aumund-Hammersbeck"
  },
  {
    "postcode": "28755",
    "city": "Vegesack"
  },
  {
    "postcode": "28755",
    "city": "Blumenthal"
  },
  {
    "postcode": "28757",
    "city": "Bremen"
  },
  {
    "postcode": "28757",
    "city": "Sankt Magnus"
  },
  {
    "postcode": "28757",
    "city": "Schönebeck"
  },
  {
    "postcode": "28757",
    "city": "Vegesack"
  },
  {
    "postcode": "28757",
    "city": "Aumund-Hammersbeck"
  },
  {
    "postcode": "28757",
    "city": "Fähr-Lobbendorf"
  },
  {
    "postcode": "28757",
    "city": "St. Magnus"
  },
  {
    "postcode": "28757",
    "city": "Habenhausen"
  },
  {
    "postcode": "28757",
    "city": "Peterswerder"
  },
  {
    "postcode": "28759",
    "city": "Bremen"
  },
  {
    "postcode": "28759",
    "city": "Grohn"
  },
  {
    "postcode": "28759",
    "city": "Sankt Magnus"
  },
  {
    "postcode": "28759",
    "city": "Schönebeck"
  },
  {
    "postcode": "28759",
    "city": "St. Magnus"
  },
  {
    "postcode": "28759",
    "city": "Vegesack"
  },
  {
    "postcode": "28759",
    "city": "Burglesum"
  },
  {
    "postcode": "28777",
    "city": "Bremen"
  },
  {
    "postcode": "28777",
    "city": "Farge"
  },
  {
    "postcode": "28777",
    "city": "Rekum"
  },
  {
    "postcode": "28777",
    "city": "Rönnebeck"
  },
  {
    "postcode": "28777",
    "city": "Lüssum-Bockhorn"
  },
  {
    "postcode": "28777",
    "city": "Blumenthal"
  },
  {
    "postcode": "28777",
    "city": "Sodenmatt"
  },
  {
    "postcode": "28779",
    "city": "Bremen"
  },
  {
    "postcode": "28779",
    "city": "Blumenthal"
  },
  {
    "postcode": "28779",
    "city": "Lüssum-Bockhorn"
  },
  {
    "postcode": "28790",
    "city": "Aschwarden"
  },
  {
    "postcode": "28790",
    "city": "Beckedorf"
  },
  {
    "postcode": "28790",
    "city": "Brandberg"
  },
  {
    "postcode": "28790",
    "city": "Brundorf"
  },
  {
    "postcode": "28790",
    "city": "Eggestedt"
  },
  {
    "postcode": "28790",
    "city": "Großer Kamp"
  },
  {
    "postcode": "28790",
    "city": "Hinnebeck"
  },
  {
    "postcode": "28790",
    "city": "Hünenstein"
  },
  {
    "postcode": "28790",
    "city": "Kreienmoor"
  },
  {
    "postcode": "28790",
    "city": "Leuchtenburg"
  },
  {
    "postcode": "28790",
    "city": "Löhnhorst"
  },
  {
    "postcode": "28790",
    "city": "Metjensande"
  },
  {
    "postcode": "28790",
    "city": "Meyenburg bei Bremen"
  },
  {
    "postcode": "28790",
    "city": "Neuenkirchen Unterweser"
  },
  {
    "postcode": "28790",
    "city": "Neuenkirchen"
  },
  {
    "postcode": "28790",
    "city": "Rade Unterweser"
  },
  {
    "postcode": "28790",
    "city": "Rade"
  },
  {
    "postcode": "28790",
    "city": "Reitberg"
  },
  {
    "postcode": "28790",
    "city": "Schukamp"
  },
  {
    "postcode": "28790",
    "city": "Schwanewede"
  },
  {
    "postcode": "28790",
    "city": "Voßberg"
  },
  {
    "postcode": "28790",
    "city": "Wölpsche"
  },
  {
    "postcode": "28790",
    "city": "Osterholz"
  },
  {
    "postcode": "28790",
    "city": "Meyenburg"
  },
  {
    "postcode": "28816",
    "city": "Brinkum bei Bremen"
  },
  {
    "postcode": "28816",
    "city": "Fahrenhorst"
  },
  {
    "postcode": "28816",
    "city": "Groß Mackenstedt"
  },
  {
    "postcode": "28816",
    "city": "Heiligenrode bei Bremen"
  },
  {
    "postcode": "28816",
    "city": "Moordeich"
  },
  {
    "postcode": "28816",
    "city": "Seckenhausen"
  },
  {
    "postcode": "28816",
    "city": "Stuhr"
  },
  {
    "postcode": "28816",
    "city": "Stuhrbaum"
  },
  {
    "postcode": "28816",
    "city": "Varrel bei Delmenhorst"
  },
  {
    "postcode": "28816",
    "city": "Diepholz"
  },
  {
    "postcode": "28816",
    "city": "Brinkum"
  },
  {
    "postcode": "28816",
    "city": "Heiligenrode"
  },
  {
    "postcode": "28816",
    "city": "Varrel"
  },
  {
    "postcode": "28816",
    "city": "Blocken"
  },
  {
    "postcode": "28816",
    "city": "Bürstel"
  },
  {
    "postcode": "28816",
    "city": "Bartelshorn"
  },
  {
    "postcode": "28832",
    "city": "Achim"
  },
  {
    "postcode": "28832",
    "city": "Achim bei Bremen"
  },
  {
    "postcode": "28832",
    "city": "Baden bei Bremen"
  },
  {
    "postcode": "28832",
    "city": "Badenermoor bei Bremen"
  },
  {
    "postcode": "28832",
    "city": "Bierden bei Bremen"
  },
  {
    "postcode": "28832",
    "city": "Bollen"
  },
  {
    "postcode": "28832",
    "city": "Borstel bei Bremen"
  },
  {
    "postcode": "28832",
    "city": "Embsen bei Bremen"
  },
  {
    "postcode": "28832",
    "city": "Langenkamp bei Bremen"
  },
  {
    "postcode": "28832",
    "city": "Uesen"
  },
  {
    "postcode": "28832",
    "city": "Uphusen bei Bremen"
  },
  {
    "postcode": "28832",
    "city": "Verden"
  },
  {
    "postcode": "28832",
    "city": "Borstel"
  },
  {
    "postcode": "28832",
    "city": "Bierden"
  },
  {
    "postcode": "28832",
    "city": "Baden"
  },
  {
    "postcode": "28832",
    "city": "Uphusen"
  },
  {
    "postcode": "28832",
    "city": "Embsen"
  },
  {
    "postcode": "28832",
    "city": "Badenermoor"
  },
  {
    "postcode": "28844",
    "city": "Ahausen bei Bremen"
  },
  {
    "postcode": "28844",
    "city": "Angelse"
  },
  {
    "postcode": "28844",
    "city": "Dreye bei Bremen"
  },
  {
    "postcode": "28844",
    "city": "Erichshof"
  },
  {
    "postcode": "28844",
    "city": "Hagen"
  },
  {
    "postcode": "28844",
    "city": "Hörden"
  },
  {
    "postcode": "28844",
    "city": "Jeebel bei Bremen"
  },
  {
    "postcode": "28844",
    "city": "Kirchweyhe bei Bremen"
  },
  {
    "postcode": "28844",
    "city": "Lahausen"
  },
  {
    "postcode": "28844",
    "city": "Leeste"
  },
  {
    "postcode": "28844",
    "city": "Melchiorshausen"
  },
  {
    "postcode": "28844",
    "city": "Sudweyhe bei Bremen"
  },
  {
    "postcode": "28844",
    "city": "Weyhe bei Bremen"
  },
  {
    "postcode": "28844",
    "city": "Diepholz"
  },
  {
    "postcode": "28844",
    "city": "Weyhe"
  },
  {
    "postcode": "28844",
    "city": "Sudweyhe"
  },
  {
    "postcode": "28844",
    "city": "Kirchweyhe"
  },
  {
    "postcode": "28844",
    "city": "Dreye"
  },
  {
    "postcode": "28844",
    "city": "Jeebel"
  },
  {
    "postcode": "28844",
    "city": "Ahausen"
  },
  {
    "postcode": "28857",
    "city": "Barrien"
  },
  {
    "postcode": "28857",
    "city": "Barrien-Heide"
  },
  {
    "postcode": "28857",
    "city": "Bülten"
  },
  {
    "postcode": "28857",
    "city": "Clues Niedersachsen"
  },
  {
    "postcode": "28857",
    "city": "Clues"
  },
  {
    "postcode": "28857",
    "city": "Gessel"
  },
  {
    "postcode": "28857",
    "city": "Gödestorf"
  },
  {
    "postcode": "28857",
    "city": "Halbetzen Niedersachsen"
  },
  {
    "postcode": "28857",
    "city": "Heiligenfelde Niedersachsen"
  },
  {
    "postcode": "28857",
    "city": "Heiligenfelde"
  },
  {
    "postcode": "28857",
    "city": "Henstedt"
  },
  {
    "postcode": "28857",
    "city": "Hillersen"
  },
  {
    "postcode": "28857",
    "city": "Hoope"
  },
  {
    "postcode": "28857",
    "city": "Jardinghausen"
  },
  {
    "postcode": "28857",
    "city": "Leerßen"
  },
  {
    "postcode": "28857",
    "city": "Legenhausen bei Syke"
  },
  {
    "postcode": "28857",
    "city": "Okel"
  },
  {
    "postcode": "28857",
    "city": "Osterholz bei Syke"
  },
  {
    "postcode": "28857",
    "city": "Rehrßen"
  },
  {
    "postcode": "28857",
    "city": "Ristedt bei Syke"
  },
  {
    "postcode": "28857",
    "city": "Schnepke"
  },
  {
    "postcode": "28857",
    "city": "Sörhausen bei Syke"
  },
  {
    "postcode": "28857",
    "city": "Steimke"
  },
  {
    "postcode": "28857",
    "city": "Syke"
  },
  {
    "postcode": "28857",
    "city": "Wachendorf bei Syke"
  },
  {
    "postcode": "28857",
    "city": "Wickbranzen"
  },
  {
    "postcode": "28857",
    "city": "Wisloh"
  },
  {
    "postcode": "28857",
    "city": "Diepholz"
  },
  {
    "postcode": "28857",
    "city": "Ristedt"
  },
  {
    "postcode": "28857",
    "city": "Wachendorf"
  },
  {
    "postcode": "28857",
    "city": "Osterholz"
  },
  {
    "postcode": "28857",
    "city": "Halbetzen"
  },
  {
    "postcode": "28857",
    "city": "Kolonie Hoope"
  },
  {
    "postcode": "28857",
    "city": "Schorlingkamp"
  },
  {
    "postcode": "28857",
    "city": "Ramminghausen"
  },
  {
    "postcode": "28865",
    "city": "Butendiek"
  },
  {
    "postcode": "28865",
    "city": "Falkenberg"
  },
  {
    "postcode": "28865",
    "city": "Frankenburg Kreis Osterholz"
  },
  {
    "postcode": "28865",
    "city": "Frankenburg"
  },
  {
    "postcode": "28865",
    "city": "Heidberg"
  },
  {
    "postcode": "28865",
    "city": "Höftdeich"
  },
  {
    "postcode": "28865",
    "city": "Kleinmoor Kreis Osterholz"
  },
  {
    "postcode": "28865",
    "city": "Kleinmoor"
  },
  {
    "postcode": "28865",
    "city": "Klostermoor"
  },
  {
    "postcode": "28865",
    "city": "Lilienthal"
  },
  {
    "postcode": "28865",
    "city": "Lilienthal bei Bremen"
  },
  {
    "postcode": "28865",
    "city": "Lüninghausen"
  },
  {
    "postcode": "28865",
    "city": "Moorende"
  },
  {
    "postcode": "28865",
    "city": "Moorhausen Kreis Osterholz"
  },
  {
    "postcode": "28865",
    "city": "Moorhausen"
  },
  {
    "postcode": "28865",
    "city": "Sankt Jürgen Kreis Osterholz"
  },
  {
    "postcode": "28865",
    "city": "Sankt Jürgen"
  },
  {
    "postcode": "28865",
    "city": "Seebergen bei Bremen"
  },
  {
    "postcode": "28865",
    "city": "Trupermoor bei Bremen"
  },
  {
    "postcode": "28865",
    "city": "Worphausen"
  },
  {
    "postcode": "28865",
    "city": "Osterholz"
  },
  {
    "postcode": "28865",
    "city": "Trupermoor"
  },
  {
    "postcode": "28865",
    "city": "Seebergen"
  },
  {
    "postcode": "28865",
    "city": "St. Jürgen"
  },
  {
    "postcode": "28870",
    "city": "Allerdorf bei Bremen"
  },
  {
    "postcode": "28870",
    "city": "Bahnhof"
  },
  {
    "postcode": "28870",
    "city": "Benkel"
  },
  {
    "postcode": "28870",
    "city": "Ebbensiek"
  },
  {
    "postcode": "28870",
    "city": "Eckstever Niedersachsen"
  },
  {
    "postcode": "28870",
    "city": "Eckstever"
  },
  {
    "postcode": "28870",
    "city": "Fischerhude"
  },
  {
    "postcode": "28870",
    "city": "Giersdorf"
  },
  {
    "postcode": "28870",
    "city": "Grasdorf bei Bremen"
  },
  {
    "postcode": "28870",
    "city": "Hintzendorf bei Bremen"
  },
  {
    "postcode": "28870",
    "city": "Mitteldorf bei Bremen"
  },
  {
    "postcode": "28870",
    "city": "Narthauen"
  },
  {
    "postcode": "28870",
    "city": "Ottersberg"
  },
  {
    "postcode": "28870",
    "city": "Ottersberg bei Bremen"
  },
  {
    "postcode": "28870",
    "city": "Otterstedt Niedersachsen"
  },
  {
    "postcode": "28870",
    "city": "Otterstedt"
  },
  {
    "postcode": "28870",
    "city": "Posthausen bei Bremen"
  },
  {
    "postcode": "28870",
    "city": "Quelkhorn"
  },
  {
    "postcode": "28870",
    "city": "Wümmingen bei Bremen"
  },
  {
    "postcode": "28870",
    "city": "Verden"
  },
  {
    "postcode": "28870",
    "city": "Posthausen"
  },
  {
    "postcode": "28870",
    "city": "Allerdorf"
  },
  {
    "postcode": "28870",
    "city": "Schanzendorf"
  },
  {
    "postcode": "28870",
    "city": "Mitteldorf"
  },
  {
    "postcode": "28870",
    "city": "Grasdorf"
  },
  {
    "postcode": "28870",
    "city": "Rothlake"
  },
  {
    "postcode": "28870",
    "city": "Wümmingen"
  },
  {
    "postcode": "28870",
    "city": "Campe"
  },
  {
    "postcode": "28870",
    "city": "Hintzendorf"
  },
  {
    "postcode": "28876",
    "city": "Bassen"
  },
  {
    "postcode": "28876",
    "city": "Bockhorst bei Bremen"
  },
  {
    "postcode": "28876",
    "city": "Lindheim"
  },
  {
    "postcode": "28876",
    "city": "Meyerdamm"
  },
  {
    "postcode": "28876",
    "city": "Oyten"
  },
  {
    "postcode": "28876",
    "city": "Oyterdamm"
  },
  {
    "postcode": "28876",
    "city": "Sagehorn"
  },
  {
    "postcode": "28876",
    "city": "Schaphusen"
  },
  {
    "postcode": "28876",
    "city": "Tüchten bei Bremen"
  },
  {
    "postcode": "28876",
    "city": "Verden"
  },
  {
    "postcode": "28876",
    "city": "Oyten-Süd I"
  },
  {
    "postcode": "28876",
    "city": "Oyten-Süd II"
  },
  {
    "postcode": "28876",
    "city": "Oyten-Nord"
  },
  {
    "postcode": "28876",
    "city": "Bockhorst"
  },
  {
    "postcode": "28879",
    "city": "Adolphsdorf"
  },
  {
    "postcode": "28879",
    "city": "Dannenberg bei Bremen"
  },
  {
    "postcode": "28879",
    "city": "Eickedorf"
  },
  {
    "postcode": "28879",
    "city": "Grasberg"
  },
  {
    "postcode": "28879",
    "city": "Grasberg bei Bremen"
  },
  {
    "postcode": "28879",
    "city": "Grasdorf"
  },
  {
    "postcode": "28879",
    "city": "Huxfeld"
  },
  {
    "postcode": "28879",
    "city": "Meinershausen bei Bremen"
  },
  {
    "postcode": "28879",
    "city": "Mittelsmoor"
  },
  {
    "postcode": "28879",
    "city": "Otterstein"
  },
  {
    "postcode": "28879",
    "city": "Rautendorf"
  },
  {
    "postcode": "28879",
    "city": "Schmalenbeck"
  },
  {
    "postcode": "28879",
    "city": "Seehausen Kreis Osterholz"
  },
  {
    "postcode": "28879",
    "city": "Seehausen"
  },
  {
    "postcode": "28879",
    "city": "Tüschendorf"
  },
  {
    "postcode": "28879",
    "city": "Wörpedorf Kreis Osterholz-Scharmbeck"
  },
  {
    "postcode": "28879",
    "city": "Wörpedorf"
  },
  {
    "postcode": "28879",
    "city": "Osterholz"
  },
  {
    "postcode": "28879",
    "city": "Dannenberg"
  },
  {
    "postcode": "28879",
    "city": "Meinershausen"
  },
  {
    "postcode": "28879",
    "city": "Neu Rautendorf"
  },
  {
    "postcode": "28879",
    "city": "Wilstedtermoor"
  }
]