[
  {
    "postcode": "1900",
    "city": "Bretnig-Hauswalde"
  },
  {
    "postcode": "1900",
    "city": "Großröhrsdorf Oberlausitz"
  },
  {
    "postcode": "1900",
    "city": "Großröhrsdorf"
  },
  {
    "postcode": "1900",
    "city": "Röderhäuser"
  },
  {
    "postcode": "1900",
    "city": "Bautzen"
  },
  {
    "postcode": "1900",
    "city": "Bretnig"
  },
  {
    "postcode": "1900",
    "city": "Hauswalde"
  },
  {
    "postcode": "1900",
    "city": "Kleinröhrsdorf"
  },
  {
    "postcode": "1904",
    "city": "Neukirch / Lausitz"
  },
  {
    "postcode": "1904",
    "city": "Neukirch"
  },
  {
    "postcode": "1904",
    "city": "Steinigtwolmsdorf"
  },
  {
    "postcode": "1904",
    "city": "Bautzen"
  },
  {
    "postcode": "1904",
    "city": "Neukirch/Lausitz"
  },
  {
    "postcode": "1904",
    "city": "Ringenhain"
  },
  {
    "postcode": "1904",
    "city": "Weifa"
  },
  {
    "postcode": "1906",
    "city": "Burkau"
  },
  {
    "postcode": "1906",
    "city": "Bautzen"
  },
  {
    "postcode": "1906",
    "city": "Uhyst"
  },
  {
    "postcode": "1906",
    "city": "Pannewitz"
  },
  {
    "postcode": "1906",
    "city": "Bocka"
  },
  {
    "postcode": "1906",
    "city": "Taschendorf"
  },
  {
    "postcode": "1906",
    "city": "Großhänchen"
  },
  {
    "postcode": "1906",
    "city": "Neuhof"
  },
  {
    "postcode": "1906",
    "city": "Jiedlitz"
  },
  {
    "postcode": "1906",
    "city": "Kleinhänchen"
  },
  {
    "postcode": "1906",
    "city": "Auschkowitz"
  },
  {
    "postcode": "1909",
    "city": "Frankenthal bei Bischofswerda"
  },
  {
    "postcode": "1909",
    "city": "Großharthau"
  },
  {
    "postcode": "1909",
    "city": "Bautzen"
  },
  {
    "postcode": "1909",
    "city": "Frankenthal"
  },
  {
    "postcode": "1909",
    "city": "Großharthau-Bühlau"
  },
  {
    "postcode": "1909",
    "city": "Großharthau-Schmiedefeld"
  },
  {
    "postcode": "1909",
    "city": "Großharthau-Seeligstadt"
  },
  {
    "postcode": "1917",
    "city": "Kamenz"
  },
  {
    "postcode": "1917",
    "city": "Bautzen"
  },
  {
    "postcode": "1917",
    "city": "Cunnersdorf"
  },
  {
    "postcode": "1917",
    "city": "Schönbach"
  },
  {
    "postcode": "1917",
    "city": "Brauna"
  },
  {
    "postcode": "1917",
    "city": "Schwosdorf"
  },
  {
    "postcode": "1917",
    "city": "Biehla"
  },
  {
    "postcode": "1917",
    "city": "Gelenau"
  },
  {
    "postcode": "1917",
    "city": "Wiesa"
  },
  {
    "postcode": "1917",
    "city": "Petershain"
  },
  {
    "postcode": "1917",
    "city": "Zschornau"
  },
  {
    "postcode": "1917",
    "city": "Deutschbaselitz"
  },
  {
    "postcode": "1917",
    "city": "Bernbruch"
  },
  {
    "postcode": "1917",
    "city": "Hausdorf"
  },
  {
    "postcode": "1917",
    "city": "Lückersdorf"
  },
  {
    "postcode": "1917",
    "city": "Lückersdorf-Gelenau"
  },
  {
    "postcode": "1917",
    "city": "Thonberg"
  },
  {
    "postcode": "1917",
    "city": "Liebenau"
  },
  {
    "postcode": "1917",
    "city": "Hennersdorf"
  },
  {
    "postcode": "1917",
    "city": "Schiedel"
  },
  {
    "postcode": "1917",
    "city": "Rohrbach"
  },
  {
    "postcode": "1920",
    "city": "Crostwitz"
  },
  {
    "postcode": "1920",
    "city": "Elstra"
  },
  {
    "postcode": "1920",
    "city": "Haselbachtal"
  },
  {
    "postcode": "1920",
    "city": "Nebelschütz"
  },
  {
    "postcode": "1920",
    "city": "Oßling"
  },
  {
    "postcode": "1920",
    "city": "Panschwitz-Kuckau"
  },
  {
    "postcode": "1920",
    "city": "Räckelwitz"
  },
  {
    "postcode": "1920",
    "city": "Ralbitz-Rosenthal"
  },
  {
    "postcode": "1920",
    "city": "Rohrbach"
  },
  {
    "postcode": "1920",
    "city": "Schönteichen"
  },
  {
    "postcode": "1920",
    "city": "Steina bei Pulsnitz"
  },
  {
    "postcode": "1920",
    "city": "Bautzen"
  },
  {
    "postcode": "1920",
    "city": "Kamenz"
  },
  {
    "postcode": "1920",
    "city": "Steina"
  },
  {
    "postcode": "1920",
    "city": "Kopschin"
  },
  {
    "postcode": "1920",
    "city": "Horka"
  },
  {
    "postcode": "1920",
    "city": "Prautitz"
  },
  {
    "postcode": "1920",
    "city": "Caseritz"
  },
  {
    "postcode": "1920",
    "city": "Nucknitz"
  },
  {
    "postcode": "1920",
    "city": "Nuknitz"
  },
  {
    "postcode": "1920",
    "city": "Prietitz"
  },
  {
    "postcode": "1920",
    "city": "Rauschwitz"
  },
  {
    "postcode": "1920",
    "city": "Dobrig"
  },
  {
    "postcode": "1920",
    "city": "Kriepitz"
  },
  {
    "postcode": "1920",
    "city": "Kindisch"
  },
  {
    "postcode": "1920",
    "city": "Talpenberg"
  },
  {
    "postcode": "1920",
    "city": "Wohla"
  },
  {
    "postcode": "1920",
    "city": "Gödlau"
  },
  {
    "postcode": "1920",
    "city": "Rehnsdorf"
  },
  {
    "postcode": "1920",
    "city": "Ossel"
  },
  {
    "postcode": "1920",
    "city": "Boderitz"
  },
  {
    "postcode": "1920",
    "city": "Welka"
  },
  {
    "postcode": "1920",
    "city": "Reichenbach"
  },
  {
    "postcode": "1920",
    "city": "Reichenau"
  },
  {
    "postcode": "1920",
    "city": "Bischheim"
  },
  {
    "postcode": "1920",
    "city": "Häslich"
  },
  {
    "postcode": "1920",
    "city": "Bischheim-Häslich"
  },
  {
    "postcode": "1920",
    "city": "Gersdorf"
  },
  {
    "postcode": "1920",
    "city": "Möhrsdorf"
  },
  {
    "postcode": "1920",
    "city": "Wendischbaselitz"
  },
  {
    "postcode": "1920",
    "city": "Piskowitz"
  },
  {
    "postcode": "1920",
    "city": "Miltitz"
  },
  {
    "postcode": "1920",
    "city": "Dürrwicknitz"
  },
  {
    "postcode": "1920",
    "city": "Trado"
  },
  {
    "postcode": "1920",
    "city": "Weißig"
  },
  {
    "postcode": "1920",
    "city": "Milstrich"
  },
  {
    "postcode": "1920",
    "city": "Skaska"
  },
  {
    "postcode": "1920",
    "city": "Lieske"
  },
  {
    "postcode": "1920",
    "city": "Liebegast"
  },
  {
    "postcode": "1920",
    "city": "Döbra"
  },
  {
    "postcode": "1920",
    "city": "Scheckthal"
  },
  {
    "postcode": "1920",
    "city": "Lehndorf"
  },
  {
    "postcode": "1920",
    "city": "Tschaschwitz"
  },
  {
    "postcode": "1920",
    "city": "Cannewitz"
  },
  {
    "postcode": "1920",
    "city": "Jauer"
  },
  {
    "postcode": "1920",
    "city": "Alte Ziegelscheune"
  },
  {
    "postcode": "1920",
    "city": "Ostro"
  },
  {
    "postcode": "1920",
    "city": "Säuritz"
  },
  {
    "postcode": "1920",
    "city": "Glaubnitz"
  },
  {
    "postcode": "1920",
    "city": "Siebitz"
  },
  {
    "postcode": "1920",
    "city": "Kaschwitz"
  },
  {
    "postcode": "1920",
    "city": "Schweinerden"
  },
  {
    "postcode": "1920",
    "city": "Neustädtel"
  },
  {
    "postcode": "1920",
    "city": "Laske"
  },
  {
    "postcode": "1920",
    "city": "Zerna"
  },
  {
    "postcode": "1920",
    "city": "Rosenthal"
  },
  {
    "postcode": "1920",
    "city": "Schmerlitz"
  },
  {
    "postcode": "1920",
    "city": "Gränze"
  },
  {
    "postcode": "1920",
    "city": "Neu-Schmerlitz"
  },
  {
    "postcode": "1920",
    "city": "Ralbitz"
  },
  {
    "postcode": "1920",
    "city": "Naußlitz"
  },
  {
    "postcode": "1920",
    "city": "Cunnewitz"
  },
  {
    "postcode": "1920",
    "city": "Schönau"
  },
  {
    "postcode": "1920",
    "city": "Schmeckwitz"
  },
  {
    "postcode": "1920",
    "city": "Neudörfel"
  },
  {
    "postcode": "1920",
    "city": "Höflein"
  },
  {
    "postcode": "1920",
    "city": "Dreihäuser"
  },
  {
    "postcode": "1920",
    "city": "Dreihäuser - Horni Hajnk"
  },
  {
    "postcode": "1920",
    "city": "Teichhäuser"
  },
  {
    "postcode": "1936",
    "city": "Großnaundorf"
  },
  {
    "postcode": "1936",
    "city": "Haselbachtal"
  },
  {
    "postcode": "1936",
    "city": "Königsbrück"
  },
  {
    "postcode": "1936",
    "city": "Laußnitz"
  },
  {
    "postcode": "1936",
    "city": "Neukirch bei Königsbrück"
  },
  {
    "postcode": "1936",
    "city": "Oberlichtenau Lausitz"
  },
  {
    "postcode": "1936",
    "city": "Oberlichtenau"
  },
  {
    "postcode": "1936",
    "city": "Schwepnitz"
  },
  {
    "postcode": "1936",
    "city": "Straßgräbchen"
  },
  {
    "postcode": "1936",
    "city": "Bautzen"
  },
  {
    "postcode": "1936",
    "city": "Neukirch"
  },
  {
    "postcode": "1936",
    "city": "Mittelbach"
  },
  {
    "postcode": "1936",
    "city": "Gräfenhain"
  },
  {
    "postcode": "1936",
    "city": "Röhrsdorf"
  },
  {
    "postcode": "1936",
    "city": "Höckendorf"
  },
  {
    "postcode": "1936",
    "city": "Glauschnitz"
  },
  {
    "postcode": "1936",
    "city": "Weißbach"
  },
  {
    "postcode": "1936",
    "city": "Schmorkau"
  },
  {
    "postcode": "1936",
    "city": "Koitzsch"
  },
  {
    "postcode": "1936",
    "city": "Gottschdorf"
  },
  {
    "postcode": "1936",
    "city": "Grüngräbchen"
  },
  {
    "postcode": "1936",
    "city": "Zeisholz"
  },
  {
    "postcode": "1936",
    "city": "Cosel"
  },
  {
    "postcode": "1936",
    "city": "Bulleritz"
  },
  {
    "postcode": "1945",
    "city": "Frauendorf Oberlausitz"
  },
  {
    "postcode": "1945",
    "city": "Frauendorf"
  },
  {
    "postcode": "1945",
    "city": "Grünewald Oberlausitz"
  },
  {
    "postcode": "1945",
    "city": "Grünewald"
  },
  {
    "postcode": "1945",
    "city": "Guteborn Oberlausitz"
  },
  {
    "postcode": "1945",
    "city": "Guteborn"
  },
  {
    "postcode": "1945",
    "city": "Hermsdorf bei Ruhland"
  },
  {
    "postcode": "1945",
    "city": "Hohenbocka"
  },
  {
    "postcode": "1945",
    "city": "Jannowitz Oberlausitz"
  },
  {
    "postcode": "1945",
    "city": "Jannowitz"
  },
  {
    "postcode": "1945",
    "city": "Kroppen"
  },
  {
    "postcode": "1945",
    "city": "Lindenau Oberlausitz"
  },
  {
    "postcode": "1945",
    "city": "Lindenau"
  },
  {
    "postcode": "1945",
    "city": "Peickwitz"
  },
  {
    "postcode": "1945",
    "city": "Ruhland"
  },
  {
    "postcode": "1945",
    "city": "Schwarzbach bei Ruhland"
  },
  {
    "postcode": "1945",
    "city": "Tettau bei Ruhland"
  },
  {
    "postcode": "1945",
    "city": "Oberspreewald-Lausitz"
  },
  {
    "postcode": "1945",
    "city": "Hermsdorf"
  },
  {
    "postcode": "1945",
    "city": "Schwarzbach"
  },
  {
    "postcode": "1945",
    "city": "Tettau"
  },
  {
    "postcode": "1945",
    "city": "Sella"
  },
  {
    "postcode": "1945",
    "city": "Lipsa"
  },
  {
    "postcode": "1945",
    "city": "Arnsdorf"
  },
  {
    "postcode": "1945",
    "city": "Biehlen"
  },
  {
    "postcode": "1968",
    "city": "Brieske"
  },
  {
    "postcode": "1968",
    "city": "Großkoschen"
  },
  {
    "postcode": "1968",
    "city": "Hörlitz"
  },
  {
    "postcode": "1968",
    "city": "Niemtsch"
  },
  {
    "postcode": "1968",
    "city": "Schipkau"
  },
  {
    "postcode": "1968",
    "city": "Sedlitz"
  },
  {
    "postcode": "1968",
    "city": "Senftenberg Niederlausitz"
  },
  {
    "postcode": "1968",
    "city": "Senftenberg"
  },
  {
    "postcode": "1968",
    "city": "Oberspreewald-Lausitz"
  },
  {
    "postcode": "1968",
    "city": "Kleinkoschen"
  },
  {
    "postcode": "1979",
    "city": "Grünewalde bei Ruhland"
  },
  {
    "postcode": "1979",
    "city": "Kostebrau"
  },
  {
    "postcode": "1979",
    "city": "Lauchhammer"
  },
  {
    "postcode": "1979",
    "city": "Oberspreewald-Lausitz"
  },
  {
    "postcode": "1979",
    "city": "Grünewalde"
  },
  {
    "postcode": "1983",
    "city": "Allmosen"
  },
  {
    "postcode": "1983",
    "city": "Bahnsdorf"
  },
  {
    "postcode": "1983",
    "city": "Barzig"
  },
  {
    "postcode": "1983",
    "city": "Dörrwalde"
  },
  {
    "postcode": "1983",
    "city": "Freienhufen"
  },
  {
    "postcode": "1983",
    "city": "Großräschen"
  },
  {
    "postcode": "1983",
    "city": "Neu-Seeland"
  },
  {
    "postcode": "1983",
    "city": "Saalhausen Niederlausitz"
  },
  {
    "postcode": "1983",
    "city": "Saalhausen"
  },
  {
    "postcode": "1983",
    "city": "Wormlage"
  },
  {
    "postcode": "1983",
    "city": "Woschkow"
  },
  {
    "postcode": "1983",
    "city": "Oberspreewald-Lausitz"
  },
  {
    "postcode": "1987",
    "city": "Schwarzheide"
  },
  {
    "postcode": "1987",
    "city": "Oberspreewald-Lausitz"
  },
  {
    "postcode": "1990",
    "city": "Frauendorf Oberlausitz"
  },
  {
    "postcode": "1990",
    "city": "Frauendorf"
  },
  {
    "postcode": "1990",
    "city": "Großkmehlen"
  },
  {
    "postcode": "1990",
    "city": "Ortrand"
  },
  {
    "postcode": "1990",
    "city": "Oberspreewald-Lausitz"
  },
  {
    "postcode": "1990",
    "city": "Frauwalde"
  },
  {
    "postcode": "1990",
    "city": "Kleinkmehlen"
  },
  {
    "postcode": "1993",
    "city": "Schipkau"
  },
  {
    "postcode": "1993",
    "city": "Oberspreewald-Lausitz"
  },
  {
    "postcode": "1994",
    "city": "Annahütte"
  },
  {
    "postcode": "1994",
    "city": "Annahütte-Siedlung"
  },
  {
    "postcode": "1994",
    "city": "Barzig"
  },
  {
    "postcode": "1994",
    "city": "Drochow"
  },
  {
    "postcode": "1994",
    "city": "Herrnmühle"
  },
  {
    "postcode": "1994",
    "city": "Karl-Marx-Siedlung"
  },
  {
    "postcode": "1994",
    "city": "Meuro Niederlausitz"
  },
  {
    "postcode": "1994",
    "city": "Meuro"
  },
  {
    "postcode": "1994",
    "city": "Saalhausen Niederlausitz"
  },
  {
    "postcode": "1994",
    "city": "Saalhausen"
  },
  {
    "postcode": "1994",
    "city": "Schipkau"
  },
  {
    "postcode": "1994",
    "city": "Wormlage"
  },
  {
    "postcode": "1994",
    "city": "Oberspreewald-Lausitz"
  },
  {
    "postcode": "1996",
    "city": "Hosena"
  },
  {
    "postcode": "1996",
    "city": "Oberspreewald-Lausitz"
  },
  {
    "postcode": "1998",
    "city": "Klettwitz"
  },
  {
    "postcode": "1998",
    "city": "Meuro Niederlausitz"
  },
  {
    "postcode": "1998",
    "city": "Meuro"
  },
  {
    "postcode": "1998",
    "city": "Schipkau"
  },
  {
    "postcode": "1998",
    "city": "Oberspreewald-Lausitz"
  },
  {
    "postcode": "19053",
    "city": "Görries"
  },
  {
    "postcode": "19053",
    "city": "Schwerin Mecklenburg"
  },
  {
    "postcode": "19053",
    "city": "Schwerin"
  },
  {
    "postcode": "19053",
    "city": "Ostorf"
  },
  {
    "postcode": "19053",
    "city": "Paulsstadt"
  },
  {
    "postcode": "19053",
    "city": "Altstadt"
  },
  {
    "postcode": "19053",
    "city": "Feldstadt"
  },
  {
    "postcode": "19053",
    "city": "Weststadt"
  },
  {
    "postcode": "19053",
    "city": "Lewenberg"
  },
  {
    "postcode": "19055",
    "city": "Schwerin Mecklenburg"
  },
  {
    "postcode": "19055",
    "city": "Schwerin"
  },
  {
    "postcode": "19055",
    "city": "Paulsstadt"
  },
  {
    "postcode": "19055",
    "city": "Werdervorstadt"
  },
  {
    "postcode": "19055",
    "city": "Altstadt"
  },
  {
    "postcode": "19055",
    "city": "Lewenberg"
  },
  {
    "postcode": "19055",
    "city": "Wickendorf"
  },
  {
    "postcode": "19055",
    "city": "Schelfstadt"
  },
  {
    "postcode": "19055",
    "city": "Medewege"
  },
  {
    "postcode": "19057",
    "city": "Schwerin Mecklenburg"
  },
  {
    "postcode": "19057",
    "city": "Schwerin"
  },
  {
    "postcode": "19057",
    "city": "Lankow"
  },
  {
    "postcode": "19057",
    "city": "Warnitz"
  },
  {
    "postcode": "19057",
    "city": "Friedrichsthal"
  },
  {
    "postcode": "19057",
    "city": "Neumühle"
  },
  {
    "postcode": "19057",
    "city": "Sacktannen"
  },
  {
    "postcode": "19057",
    "city": "Weststadt"
  },
  {
    "postcode": "19059",
    "city": "Schwerin Mecklenburg"
  },
  {
    "postcode": "19059",
    "city": "Schwerin"
  },
  {
    "postcode": "19059",
    "city": "Weststadt"
  },
  {
    "postcode": "19059",
    "city": "Lankow"
  },
  {
    "postcode": "19059",
    "city": "Paulsstadt"
  },
  {
    "postcode": "19059",
    "city": "Paulstadt"
  },
  {
    "postcode": "19061",
    "city": "Görries"
  },
  {
    "postcode": "19061",
    "city": "Krebsförden"
  },
  {
    "postcode": "19061",
    "city": "Schwerin Mecklenburg"
  },
  {
    "postcode": "19061",
    "city": "Schwerin"
  },
  {
    "postcode": "19061",
    "city": "Wüstmark"
  },
  {
    "postcode": "19061",
    "city": "Zippendorf"
  },
  {
    "postcode": "19061",
    "city": "Gartenstadt"
  },
  {
    "postcode": "19061",
    "city": "Ostorf"
  },
  {
    "postcode": "19061",
    "city": "Großer Dreesch"
  },
  {
    "postcode": "19061",
    "city": "Göhrener Tannen"
  },
  {
    "postcode": "19061",
    "city": "Neumühle"
  },
  {
    "postcode": "19061",
    "city": "Haselholz"
  },
  {
    "postcode": "19063",
    "city": "Mueß"
  },
  {
    "postcode": "19063",
    "city": "Schwerin Mecklenburg"
  },
  {
    "postcode": "19063",
    "city": "Schwerin"
  },
  {
    "postcode": "19063",
    "city": "Zippendorf"
  },
  {
    "postcode": "19063",
    "city": "Mueßer Holz"
  },
  {
    "postcode": "19063",
    "city": "Großer Dreesch"
  },
  {
    "postcode": "19063",
    "city": "Neu Zippendorf"
  },
  {
    "postcode": "19065",
    "city": "Gneven"
  },
  {
    "postcode": "19065",
    "city": "Godern"
  },
  {
    "postcode": "19065",
    "city": "Pinnow bei Schwerin"
  },
  {
    "postcode": "19065",
    "city": "Raben Steinfeld"
  },
  {
    "postcode": "19065",
    "city": "Ludwigslust-Parchim"
  },
  {
    "postcode": "19065",
    "city": "Kritzow"
  },
  {
    "postcode": "19065",
    "city": "Pinnow"
  },
  {
    "postcode": "19065",
    "city": "Vorbeck"
  },
  {
    "postcode": "19067",
    "city": "Ahrensbök"
  },
  {
    "postcode": "19067",
    "city": "Cambs"
  },
  {
    "postcode": "19067",
    "city": "Dobin am See"
  },
  {
    "postcode": "19067",
    "city": "Langen Brütz"
  },
  {
    "postcode": "19067",
    "city": "Leezen bei Schwerin"
  },
  {
    "postcode": "19067",
    "city": "Retgendorf"
  },
  {
    "postcode": "19067",
    "city": "Rubow"
  },
  {
    "postcode": "19067",
    "city": "Ludwigslust-Parchim"
  },
  {
    "postcode": "19067",
    "city": "Leezen"
  },
  {
    "postcode": "19067",
    "city": "Kleefeld"
  },
  {
    "postcode": "19067",
    "city": "Brahlstorf"
  },
  {
    "postcode": "19067",
    "city": "Karnin"
  },
  {
    "postcode": "19067",
    "city": "Neu Schlagsdorf"
  },
  {
    "postcode": "19067",
    "city": "Flessenow"
  },
  {
    "postcode": "19067",
    "city": "Liessow"
  },
  {
    "postcode": "19067",
    "city": "Buchholz"
  },
  {
    "postcode": "19067",
    "city": "Alt Schlagsdorf"
  },
  {
    "postcode": "19067",
    "city": "Rampe"
  },
  {
    "postcode": "19067",
    "city": "Zittow"
  },
  {
    "postcode": "19067",
    "city": "Görslow"
  },
  {
    "postcode": "19067",
    "city": "Panstorf"
  },
  {
    "postcode": "19069",
    "city": "Alt Meteln"
  },
  {
    "postcode": "19069",
    "city": "Böken bei Schwerin"
  },
  {
    "postcode": "19069",
    "city": "Hundorf bei Schwerin Mecklenburg"
  },
  {
    "postcode": "19069",
    "city": "Hundorf bei Schwerin"
  },
  {
    "postcode": "19069",
    "city": "Klein Trebbow bei Schwerin"
  },
  {
    "postcode": "19069",
    "city": "Lübstorf"
  },
  {
    "postcode": "19069",
    "city": "Pingelshagen"
  },
  {
    "postcode": "19069",
    "city": "Seehof bei Schwerin"
  },
  {
    "postcode": "19069",
    "city": "Zickhusen"
  },
  {
    "postcode": "19069",
    "city": "Nordwestmecklenburg"
  },
  {
    "postcode": "19069",
    "city": "Klein Trebbow"
  },
  {
    "postcode": "19069",
    "city": "Seehof"
  },
  {
    "postcode": "19069",
    "city": "Hof Meteln"
  },
  {
    "postcode": "19069",
    "city": "Böken"
  },
  {
    "postcode": "19069",
    "city": "Grevenhagen"
  },
  {
    "postcode": "19069",
    "city": "Neu Meteln"
  },
  {
    "postcode": "19069",
    "city": "Moltenow"
  },
  {
    "postcode": "19069",
    "city": "Ausbau"
  },
  {
    "postcode": "19069",
    "city": "Kirch Stück"
  },
  {
    "postcode": "19069",
    "city": "Groß Trebbow"
  },
  {
    "postcode": "19069",
    "city": "Moorbrink"
  },
  {
    "postcode": "19069",
    "city": "Barner Stück"
  },
  {
    "postcode": "19069",
    "city": "Hansholz"
  },
  {
    "postcode": "19069",
    "city": "Rugensee"
  },
  {
    "postcode": "19069",
    "city": "Neu Lübstorf"
  },
  {
    "postcode": "19069",
    "city": "Wiligrad"
  },
  {
    "postcode": "19069",
    "city": "Hundorf"
  },
  {
    "postcode": "19069",
    "city": "Drispeth"
  },
  {
    "postcode": "19071",
    "city": "Brüsewitz"
  },
  {
    "postcode": "19071",
    "city": "Cramonshagen"
  },
  {
    "postcode": "19071",
    "city": "Dalberg-Wendelstorf"
  },
  {
    "postcode": "19071",
    "city": "Gottmannsförde"
  },
  {
    "postcode": "19071",
    "city": "Grambow bei Schwerin"
  },
  {
    "postcode": "19071",
    "city": "Nordwestmecklenburg"
  },
  {
    "postcode": "19071",
    "city": "Grambow"
  },
  {
    "postcode": "19071",
    "city": "Groß Brütz"
  },
  {
    "postcode": "19071",
    "city": "Herren Steinfeld"
  },
  {
    "postcode": "19071",
    "city": "Neues Dorf"
  },
  {
    "postcode": "19071",
    "city": "Cramon"
  },
  {
    "postcode": "19071",
    "city": "Nienmark"
  },
  {
    "postcode": "19071",
    "city": "Wendelstorf"
  },
  {
    "postcode": "19071",
    "city": "Dalberg"
  },
  {
    "postcode": "19073",
    "city": "Dümmer"
  },
  {
    "postcode": "19073",
    "city": "Dümmerhütte"
  },
  {
    "postcode": "19073",
    "city": "Dümmerstück Hof"
  },
  {
    "postcode": "19073",
    "city": "Groß Rogahn"
  },
  {
    "postcode": "19073",
    "city": "Klein Rogahn"
  },
  {
    "postcode": "19073",
    "city": "Schossin"
  },
  {
    "postcode": "19073",
    "city": "Stralendorf bei Schwerin"
  },
  {
    "postcode": "19073",
    "city": "Walsmühlen"
  },
  {
    "postcode": "19073",
    "city": "Wittenförden"
  },
  {
    "postcode": "19073",
    "city": "Zülow bei Schwerin"
  },
  {
    "postcode": "19073",
    "city": "Ludwigslust-Parchim"
  },
  {
    "postcode": "19073",
    "city": "Stralendorf"
  },
  {
    "postcode": "19073",
    "city": "Wodenhof"
  },
  {
    "postcode": "19073",
    "city": "Zülow"
  },
  {
    "postcode": "19073",
    "city": "Parum"
  },
  {
    "postcode": "19073",
    "city": "Hof Wandrum"
  },
  {
    "postcode": "19073",
    "city": "Neu Wandrum"
  },
  {
    "postcode": "19075",
    "city": "Holthusen bei Schwerin"
  },
  {
    "postcode": "19075",
    "city": "Kothendorf"
  },
  {
    "postcode": "19075",
    "city": "Pampow bei Schwerin"
  },
  {
    "postcode": "19075",
    "city": "Warsow bei Schwerin"
  },
  {
    "postcode": "19075",
    "city": "Ludwigslust-Parchim"
  },
  {
    "postcode": "19075",
    "city": "Holthusen"
  },
  {
    "postcode": "19075",
    "city": "Mühlenbeck"
  },
  {
    "postcode": "19075",
    "city": "Pampow"
  },
  {
    "postcode": "19075",
    "city": "Warsow"
  },
  {
    "postcode": "19075",
    "city": "Lehmkuhlen"
  },
  {
    "postcode": "19075",
    "city": "Bahnhof-Holthusen"
  },
  {
    "postcode": "19075",
    "city": "Buchholz"
  },
  {
    "postcode": "19075",
    "city": "Krumbeck"
  },
  {
    "postcode": "19077",
    "city": "Boldela"
  },
  {
    "postcode": "19077",
    "city": "Lübesse"
  },
  {
    "postcode": "19077",
    "city": "Ortkrug"
  },
  {
    "postcode": "19077",
    "city": "Rastow"
  },
  {
    "postcode": "19077",
    "city": "Sülstorf"
  },
  {
    "postcode": "19077",
    "city": "Sülte"
  },
  {
    "postcode": "19077",
    "city": "Uelitz"
  },
  {
    "postcode": "19077",
    "city": "Ludwigslust-Parchim"
  },
  {
    "postcode": "19077",
    "city": "Hasenhäge"
  },
  {
    "postcode": "19077",
    "city": "Fahrbinde"
  },
  {
    "postcode": "19077",
    "city": "Kraak"
  },
  {
    "postcode": "19079",
    "city": "Banzkow"
  },
  {
    "postcode": "19079",
    "city": "Goldenstädt"
  },
  {
    "postcode": "19079",
    "city": "Sukow"
  },
  {
    "postcode": "19079",
    "city": "Ludwigslust-Parchim"
  },
  {
    "postcode": "19079",
    "city": "Mirow"
  },
  {
    "postcode": "19079",
    "city": "Jamel"
  },
  {
    "postcode": "19079",
    "city": "Zietlitz"
  },
  {
    "postcode": "19086",
    "city": "Consrade"
  },
  {
    "postcode": "19086",
    "city": "Plate Mecklenburg"
  },
  {
    "postcode": "19086",
    "city": "Plate"
  },
  {
    "postcode": "19086",
    "city": "Ludwigslust-Parchim"
  },
  {
    "postcode": "19086",
    "city": "Peckatel"
  },
  {
    "postcode": "19089",
    "city": "Badegow"
  },
  {
    "postcode": "19089",
    "city": "Barnin"
  },
  {
    "postcode": "19089",
    "city": "Buerbeck"
  },
  {
    "postcode": "19089",
    "city": "Bülow bei Schwerin"
  },
  {
    "postcode": "19089",
    "city": "Crivitz"
  },
  {
    "postcode": "19089",
    "city": "Demen"
  },
  {
    "postcode": "19089",
    "city": "Friedrichsruhe bei Parchim"
  },
  {
    "postcode": "19089",
    "city": "Gädebehn bei Schwerin Mecklenburg"
  },
  {
    "postcode": "19089",
    "city": "Gädebehn bei Schwerin"
  },
  {
    "postcode": "19089",
    "city": "Göhren bei Schwerin"
  },
  {
    "postcode": "19089",
    "city": "Kobande"
  },
  {
    "postcode": "19089",
    "city": "Prestin"
  },
  {
    "postcode": "19089",
    "city": "Radepohl"
  },
  {
    "postcode": "19089",
    "city": "Runow"
  },
  {
    "postcode": "19089",
    "city": "Ruthenbeck"
  },
  {
    "postcode": "19089",
    "city": "Tramm bei Schwerin"
  },
  {
    "postcode": "19089",
    "city": "Venzkow"
  },
  {
    "postcode": "19089",
    "city": "Wessin"
  },
  {
    "postcode": "19089",
    "city": "Zapel bei Crivitz"
  },
  {
    "postcode": "19089",
    "city": "Ludwigslust-Parchim"
  },
  {
    "postcode": "19089",
    "city": "Bülow"
  },
  {
    "postcode": "19089",
    "city": "Friedrichsruhe"
  },
  {
    "postcode": "19089",
    "city": "Tramm"
  },
  {
    "postcode": "19089",
    "city": "Zapel"
  },
  {
    "postcode": "19089",
    "city": "Hof Barnin"
  },
  {
    "postcode": "19089",
    "city": "Gädebehn"
  },
  {
    "postcode": "19089",
    "city": "Basthorst"
  },
  {
    "postcode": "19089",
    "city": "Kladow"
  },
  {
    "postcode": "19089",
    "city": "Augustenhof"
  },
  {
    "postcode": "19089",
    "city": "Bahnstrecke"
  },
  {
    "postcode": "19089",
    "city": "Muchelwitz"
  },
  {
    "postcode": "19089",
    "city": "Friedrichsruhe Dorf"
  },
  {
    "postcode": "19089",
    "city": "Friedrichsruhe Hof"
  },
  {
    "postcode": "19089",
    "city": "Frauenmark"
  },
  {
    "postcode": "19089",
    "city": "Neu Ruthenbeck"
  },
  {
    "postcode": "19089",
    "city": "Goldenbow"
  },
  {
    "postcode": "19089",
    "city": "Göhren"
  },
  {
    "postcode": "19089",
    "city": "Bahlenhüschen"
  },
  {
    "postcode": "19089",
    "city": "Settin"
  },
  {
    "postcode": "19089",
    "city": "Zapel-Hof"
  },
  {
    "postcode": "19205",
    "city": "Alt Steinbeck"
  },
  {
    "postcode": "19205",
    "city": "Bentin"
  },
  {
    "postcode": "19205",
    "city": "Dragun"
  },
  {
    "postcode": "19205",
    "city": "Drieberg Dorf"
  },
  {
    "postcode": "19205",
    "city": "Gadebusch"
  },
  {
    "postcode": "19205",
    "city": "Klein Hundorf"
  },
  {
    "postcode": "19205",
    "city": "Kneese bei Gadebusch"
  },
  {
    "postcode": "19205",
    "city": "Krembz"
  },
  {
    "postcode": "19205",
    "city": "Möllin"
  },
  {
    "postcode": "19205",
    "city": "Mühlen Eichsen"
  },
  {
    "postcode": "19205",
    "city": "Neu Steinbeck"
  },
  {
    "postcode": "19205",
    "city": "Paetrow"
  },
  {
    "postcode": "19205",
    "city": "Pokrent"
  },
  {
    "postcode": "19205",
    "city": "Roggendorf bei Gadebusch"
  },
  {
    "postcode": "19205",
    "city": "Rögnitz"
  },
  {
    "postcode": "19205",
    "city": "Stöllnitz"
  },
  {
    "postcode": "19205",
    "city": "Veelböken"
  },
  {
    "postcode": "19205",
    "city": "Wakenstädt"
  },
  {
    "postcode": "19205",
    "city": "Nordwestmecklenburg"
  },
  {
    "postcode": "19205",
    "city": "Botelsdorf"
  },
  {
    "postcode": "19205",
    "city": "Breesen"
  },
  {
    "postcode": "19205",
    "city": "Dechow"
  },
  {
    "postcode": "19205",
    "city": "Goddin"
  },
  {
    "postcode": "19205",
    "city": "Groß Eichsen"
  },
  {
    "postcode": "19205",
    "city": "Groß Salitz"
  },
  {
    "postcode": "19205",
    "city": "Groß Thurow"
  },
  {
    "postcode": "19205",
    "city": "Hindenberg"
  },
  {
    "postcode": "19205",
    "city": "Klein Salitz"
  },
  {
    "postcode": "19205",
    "city": "Klein Thurow"
  },
  {
    "postcode": "19205",
    "city": "Kneese"
  },
  {
    "postcode": "19205",
    "city": "Lützow"
  },
  {
    "postcode": "19205",
    "city": "Marienthal"
  },
  {
    "postcode": "19205",
    "city": "Meetzen"
  },
  {
    "postcode": "19205",
    "city": "Neu Thurow"
  },
  {
    "postcode": "19205",
    "city": "Passow"
  },
  {
    "postcode": "19205",
    "city": "Radegast"
  },
  {
    "postcode": "19205",
    "city": "Rambeel"
  },
  {
    "postcode": "19205",
    "city": "Roggendorf"
  },
  {
    "postcode": "19205",
    "city": "Schönfeld"
  },
  {
    "postcode": "19205",
    "city": "Schönwolde"
  },
  {
    "postcode": "19205",
    "city": "Webelsfelde"
  },
  {
    "postcode": "19205",
    "city": "Vietlübbe"
  },
  {
    "postcode": "19205",
    "city": "Drieberg"
  },
  {
    "postcode": "19205",
    "city": "Neu Dragun"
  },
  {
    "postcode": "19205",
    "city": "Neu Bauhof"
  },
  {
    "postcode": "19205",
    "city": "Buchholz"
  },
  {
    "postcode": "19205",
    "city": "Dorf Ganzow"
  },
  {
    "postcode": "19205",
    "city": "Güstow"
  },
  {
    "postcode": "19205",
    "city": "Ganzow"
  },
  {
    "postcode": "19205",
    "city": "Reinhardtsdorf"
  },
  {
    "postcode": "19205",
    "city": "Dutzow"
  },
  {
    "postcode": "19205",
    "city": "Sandfeld"
  },
  {
    "postcode": "19205",
    "city": "Kneese Dorf"
  },
  {
    "postcode": "19205",
    "city": "Stöllintz"
  },
  {
    "postcode": "19205",
    "city": "Schönfeld Mühle"
  },
  {
    "postcode": "19205",
    "city": "Neuendorf"
  },
  {
    "postcode": "19205",
    "city": "Woldhof"
  },
  {
    "postcode": "19205",
    "city": "Frauenmark"
  },
  {
    "postcode": "19209",
    "city": "Badow"
  },
  {
    "postcode": "19209",
    "city": "Gottesgabe bei Gadebusch"
  },
  {
    "postcode": "19209",
    "city": "Lützow"
  },
  {
    "postcode": "19209",
    "city": "Perlin"
  },
  {
    "postcode": "19209",
    "city": "Renzow"
  },
  {
    "postcode": "19209",
    "city": "Nordwestmecklenburg"
  },
  {
    "postcode": "19209",
    "city": "Gottesgabe"
  },
  {
    "postcode": "19209",
    "city": "Schildetal"
  },
  {
    "postcode": "19209",
    "city": "Söhring"
  },
  {
    "postcode": "19209",
    "city": "Rosenhagen"
  },
  {
    "postcode": "19209",
    "city": "Gottesgabe b Gadebusch"
  },
  {
    "postcode": "19209",
    "city": "Groß Welzin"
  },
  {
    "postcode": "19209",
    "city": "Klein Welzin"
  },
  {
    "postcode": "19209",
    "city": "Bendhof"
  },
  {
    "postcode": "19209",
    "city": "Kaeselow"
  },
  {
    "postcode": "19209",
    "city": "Rosenow"
  },
  {
    "postcode": "19217",
    "city": "Bülow bei Gadebusch"
  },
  {
    "postcode": "19217",
    "city": "Carlow"
  },
  {
    "postcode": "19217",
    "city": "Cronskamp"
  },
  {
    "postcode": "19217",
    "city": "Dechow"
  },
  {
    "postcode": "19217",
    "city": "Demern"
  },
  {
    "postcode": "19217",
    "city": "Groß Molzahn"
  },
  {
    "postcode": "19217",
    "city": "Groß Rünz"
  },
  {
    "postcode": "19217",
    "city": "Holdorf bei Gadebusch"
  },
  {
    "postcode": "19217",
    "city": "Klocksdorf"
  },
  {
    "postcode": "19217",
    "city": "Köchelstorf"
  },
  {
    "postcode": "19217",
    "city": "Königsfeld"
  },
  {
    "postcode": "19217",
    "city": "Löwitz bei Gadebusch"
  },
  {
    "postcode": "19217",
    "city": "Nesow"
  },
  {
    "postcode": "19217",
    "city": "Rehna"
  },
  {
    "postcode": "19217",
    "city": "Rieps"
  },
  {
    "postcode": "19217",
    "city": "Röggelin"
  },
  {
    "postcode": "19217",
    "city": "Schlagbrügge"
  },
  {
    "postcode": "19217",
    "city": "Schlagresdorf"
  },
  {
    "postcode": "19217",
    "city": "Schlagsdorf bei Gadebusch"
  },
  {
    "postcode": "19217",
    "city": "Schlagsülsdorf"
  },
  {
    "postcode": "19217",
    "city": "Thandorf"
  },
  {
    "postcode": "19217",
    "city": "Utecht"
  },
  {
    "postcode": "19217",
    "city": "Vitense bei Rehna"
  },
  {
    "postcode": "19217",
    "city": "Wedendorf"
  },
  {
    "postcode": "19217",
    "city": "Nordwestmecklenburg"
  },
  {
    "postcode": "19217",
    "city": "Benzin"
  },
  {
    "postcode": "19217",
    "city": "Groß Hundorf"
  },
  {
    "postcode": "19217",
    "city": "Holdorf"
  },
  {
    "postcode": "19217",
    "city": "Klein Molzahn"
  },
  {
    "postcode": "19217",
    "city": "Kuhlrade"
  },
  {
    "postcode": "19217",
    "city": "Neschow"
  },
  {
    "postcode": "19217",
    "city": "Pogez"
  },
  {
    "postcode": "19217",
    "city": "Samkow"
  },
  {
    "postcode": "19217",
    "city": "Schlagsdorf"
  },
  {
    "postcode": "19217",
    "city": "Stove"
  },
  {
    "postcode": "19217",
    "city": "Wedendorfersee"
  },
  {
    "postcode": "19217",
    "city": "Groß Thurow"
  },
  {
    "postcode": "19217",
    "city": "Neu Thurow"
  },
  {
    "postcode": "19217",
    "city": "Bülow"
  },
  {
    "postcode": "19217",
    "city": "Klein Rünz"
  },
  {
    "postcode": "19217",
    "city": "Warnekow"
  },
  {
    "postcode": "19217",
    "city": "Woitendorf"
  },
  {
    "postcode": "19217",
    "city": "Bestenrade"
  },
  {
    "postcode": "19217",
    "city": "Schaddingsdorf"
  },
  {
    "postcode": "19217",
    "city": "Brützkow"
  },
  {
    "postcode": "19217",
    "city": "Falkenhagen"
  },
  {
    "postcode": "19217",
    "city": "Vitense"
  },
  {
    "postcode": "19217",
    "city": "Löwitz"
  },
  {
    "postcode": "19217",
    "city": "Parber"
  },
  {
    "postcode": "19217",
    "city": "Dorf Nesow"
  },
  {
    "postcode": "19217",
    "city": "Törberhals"
  },
  {
    "postcode": "19217",
    "city": "Gletzow"
  },
  {
    "postcode": "19217",
    "city": "Othenstorf"
  },
  {
    "postcode": "19217",
    "city": "Törber"
  },
  {
    "postcode": "19217",
    "city": "Neu Vitense"
  },
  {
    "postcode": "19217",
    "city": "Wendorf"
  },
  {
    "postcode": "19217",
    "city": "Raddingsdorf"
  },
  {
    "postcode": "19217",
    "city": "Heiligeland"
  },
  {
    "postcode": "19217",
    "city": "Campow"
  },
  {
    "postcode": "19217",
    "city": "Kasendorf"
  },
  {
    "postcode": "19217",
    "city": "Kirch Grambow"
  },
  {
    "postcode": "19230",
    "city": "Alt Zachun"
  },
  {
    "postcode": "19230",
    "city": "Bakendorf"
  },
  {
    "postcode": "19230",
    "city": "Bandenitz"
  },
  {
    "postcode": "19230",
    "city": "Belsch"
  },
  {
    "postcode": "19230",
    "city": "Besendorf"
  },
  {
    "postcode": "19230",
    "city": "Bobzin bei Hagenow"
  },
  {
    "postcode": "19230",
    "city": "Bresegard bei Picher"
  },
  {
    "postcode": "19230",
    "city": "Gammelin"
  },
  {
    "postcode": "19230",
    "city": "Groß Krams"
  },
  {
    "postcode": "19230",
    "city": "Hagenow"
  },
  {
    "postcode": "19230",
    "city": "Hoort"
  },
  {
    "postcode": "19230",
    "city": "Hülseburg"
  },
  {
    "postcode": "19230",
    "city": "Kirch Jesar"
  },
  {
    "postcode": "19230",
    "city": "Kuhstorf"
  },
  {
    "postcode": "19230",
    "city": "Moraas"
  },
  {
    "postcode": "19230",
    "city": "Pätow"
  },
  {
    "postcode": "19230",
    "city": "Pätow-Steegen"
  },
  {
    "postcode": "19230",
    "city": "Picher"
  },
  {
    "postcode": "19230",
    "city": "Pritzier bei Hagenow"
  },
  {
    "postcode": "19230",
    "city": "Radelübbe"
  },
  {
    "postcode": "19230",
    "city": "Ramm"
  },
  {
    "postcode": "19230",
    "city": "Redefin"
  },
  {
    "postcode": "19230",
    "city": "Setzin"
  },
  {
    "postcode": "19230",
    "city": "Strohkirchen bei Hagenow"
  },
  {
    "postcode": "19230",
    "city": "Sudenhof"
  },
  {
    "postcode": "19230",
    "city": "Toddin"
  },
  {
    "postcode": "19230",
    "city": "Warlitz"
  },
  {
    "postcode": "19230",
    "city": "Ludwigslust-Parchim"
  },
  {
    "postcode": "19230",
    "city": "Bobzin"
  },
  {
    "postcode": "19230",
    "city": "Bresegard"
  },
  {
    "postcode": "19230",
    "city": "Granzin"
  },
  {
    "postcode": "19230",
    "city": "Hagenow Heide"
  },
  {
    "postcode": "19230",
    "city": "Pritzier"
  },
  {
    "postcode": "19230",
    "city": "Scharbow"
  },
  {
    "postcode": "19230",
    "city": "Strohkirchen"
  },
  {
    "postcode": "19230",
    "city": "Viez"
  },
  {
    "postcode": "19230",
    "city": "Zapel"
  },
  {
    "postcode": "19230",
    "city": "Neu Zachun"
  },
  {
    "postcode": "19230",
    "city": "Presek"
  },
  {
    "postcode": "19230",
    "city": "Neu Klüß"
  },
  {
    "postcode": "19230",
    "city": "Jasnitz"
  },
  {
    "postcode": "19230",
    "city": "Bahnhof"
  },
  {
    "postcode": "19230",
    "city": "Schwechow"
  },
  {
    "postcode": "19230",
    "city": "Steegen"
  },
  {
    "postcode": "19230",
    "city": "Grünhof"
  },
  {
    "postcode": "19230",
    "city": "Gramnitz"
  },
  {
    "postcode": "19230",
    "city": "Schwaberow"
  },
  {
    "postcode": "19230",
    "city": "Ruhethal"
  },
  {
    "postcode": "19230",
    "city": "Goldenitz"
  },
  {
    "postcode": "19243",
    "city": "Boddin bei Hagenow"
  },
  {
    "postcode": "19243",
    "city": "Dodow"
  },
  {
    "postcode": "19243",
    "city": "Dreilützow"
  },
  {
    "postcode": "19243",
    "city": "Drönnewitz bei Hagenow"
  },
  {
    "postcode": "19243",
    "city": "Helm bei Hagenow"
  },
  {
    "postcode": "19243",
    "city": "Karft"
  },
  {
    "postcode": "19243",
    "city": "Klein Wolde"
  },
  {
    "postcode": "19243",
    "city": "Körchow bei Hagenow"
  },
  {
    "postcode": "19243",
    "city": "Lehsen"
  },
  {
    "postcode": "19243",
    "city": "Luckwitz"
  },
  {
    "postcode": "19243",
    "city": "Parum bei Hagenow"
  },
  {
    "postcode": "19243",
    "city": "Tessin bei Hagenow"
  },
  {
    "postcode": "19243",
    "city": "Waschow bei Hagenow"
  },
  {
    "postcode": "19243",
    "city": "Wittenburg Mecklenburg"
  },
  {
    "postcode": "19243",
    "city": "Wittenburg"
  },
  {
    "postcode": "19243",
    "city": "Wittendörp"
  },
  {
    "postcode": "19243",
    "city": "Wölzow"
  },
  {
    "postcode": "19243",
    "city": "Ziggelmark"
  },
  {
    "postcode": "19243",
    "city": "Ludwigslust-Parchim"
  },
  {
    "postcode": "19243",
    "city": "Zühr"
  },
  {
    "postcode": "19243",
    "city": "Körchow"
  },
  {
    "postcode": "19243",
    "city": "Perdöhl"
  },
  {
    "postcode": "19243",
    "city": "Helm"
  },
  {
    "postcode": "19243",
    "city": "Tessin"
  },
  {
    "postcode": "19243",
    "city": "Raguth"
  },
  {
    "postcode": "19243",
    "city": "Waschow"
  },
  {
    "postcode": "19243",
    "city": "Boddin"
  },
  {
    "postcode": "19243",
    "city": "Püttelkow"
  },
  {
    "postcode": "19243",
    "city": "Döbbersen"
  },
  {
    "postcode": "19243",
    "city": "Drönnewitz"
  },
  {
    "postcode": "19243",
    "city": "Pogreß"
  },
  {
    "postcode": "19243",
    "city": "Harst"
  },
  {
    "postcode": "19243",
    "city": "Woez"
  },
  {
    "postcode": "19246",
    "city": "Bantin"
  },
  {
    "postcode": "19246",
    "city": "Camin"
  },
  {
    "postcode": "19246",
    "city": "Kogel bei Zarrentin"
  },
  {
    "postcode": "19246",
    "city": "Lassahn"
  },
  {
    "postcode": "19246",
    "city": "Lüttow"
  },
  {
    "postcode": "19246",
    "city": "Lüttow-Valluhn"
  },
  {
    "postcode": "19246",
    "city": "Neuhof bei Hagenow"
  },
  {
    "postcode": "19246",
    "city": "Valluhn"
  },
  {
    "postcode": "19246",
    "city": "Vellahn"
  },
  {
    "postcode": "19246",
    "city": "Zarrentin am Schaalsee"
  },
  {
    "postcode": "19246",
    "city": "Ludwigslust-Parchim"
  },
  {
    "postcode": "19246",
    "city": "Kogel"
  },
  {
    "postcode": "19246",
    "city": "Fliegenhof"
  },
  {
    "postcode": "19246",
    "city": "Holzkrug"
  },
  {
    "postcode": "19246",
    "city": "Krohnshof"
  },
  {
    "postcode": "19246",
    "city": "Kölzin"
  },
  {
    "postcode": "19246",
    "city": "Pamprin"
  },
  {
    "postcode": "19246",
    "city": "Vietow"
  },
  {
    "postcode": "19246",
    "city": "Schadeland"
  },
  {
    "postcode": "19246",
    "city": "Zarrentin"
  },
  {
    "postcode": "19246",
    "city": "Neuenkirchen"
  },
  {
    "postcode": "19246",
    "city": "Stintenburger Hütte"
  },
  {
    "postcode": "19246",
    "city": "Neuhof"
  },
  {
    "postcode": "19246",
    "city": "Techin"
  },
  {
    "postcode": "19246",
    "city": "Testorf"
  },
  {
    "postcode": "19246",
    "city": "Bernstorf"
  },
  {
    "postcode": "19246",
    "city": "Boissow"
  },
  {
    "postcode": "19246",
    "city": "Boize"
  },
  {
    "postcode": "19246",
    "city": "Hakendorf"
  },
  {
    "postcode": "19246",
    "city": "Stintenburg"
  },
  {
    "postcode": "19249",
    "city": "Garlitz bei Hagenow"
  },
  {
    "postcode": "19249",
    "city": "Gößlow"
  },
  {
    "postcode": "19249",
    "city": "Jessenitz Dorf"
  },
  {
    "postcode": "19249",
    "city": "Lübtheen"
  },
  {
    "postcode": "19249",
    "city": "Trebs"
  },
  {
    "postcode": "19249",
    "city": "Ludwigslust-Parchim"
  },
  {
    "postcode": "19249",
    "city": "Jessenitz"
  },
  {
    "postcode": "19249",
    "city": "Jessenitz-Siedlung"
  },
  {
    "postcode": "19249",
    "city": "Lank"
  },
  {
    "postcode": "19249",
    "city": "Jessenitz-Werk"
  },
  {
    "postcode": "19249",
    "city": "Lübbendorf"
  },
  {
    "postcode": "19249",
    "city": "Neuenrode"
  },
  {
    "postcode": "19249",
    "city": "Garlitz"
  },
  {
    "postcode": "19249",
    "city": "Volzrade"
  },
  {
    "postcode": "19249",
    "city": "Quassel"
  },
  {
    "postcode": "19249",
    "city": "Brömsenberg"
  },
  {
    "postcode": "19249",
    "city": "Langenheide"
  },
  {
    "postcode": "19249",
    "city": "Benz"
  },
  {
    "postcode": "19249",
    "city": "Neu Lübtheen"
  },
  {
    "postcode": "19249",
    "city": "Gudow"
  },
  {
    "postcode": "19249",
    "city": "Probst Jesar"
  },
  {
    "postcode": "19249",
    "city": "Bandekow"
  },
  {
    "postcode": "19249",
    "city": "Briest"
  },
  {
    "postcode": "19258",
    "city": "Bahlendorf"
  },
  {
    "postcode": "19258",
    "city": "Bengerstorf"
  },
  {
    "postcode": "19258",
    "city": "Besitz"
  },
  {
    "postcode": "19258",
    "city": "Blücher bei Boizenburg"
  },
  {
    "postcode": "19258",
    "city": "Boizenburg"
  },
  {
    "postcode": "19258",
    "city": "Boizenburg / Elbe"
  },
  {
    "postcode": "19258",
    "city": "Gallin bei Boizenburg"
  },
  {
    "postcode": "19258",
    "city": "Gothmann"
  },
  {
    "postcode": "19258",
    "city": "Gresse"
  },
  {
    "postcode": "19258",
    "city": "Greven bei Boizenburg"
  },
  {
    "postcode": "19258",
    "city": "Klein Bengerstorf"
  },
  {
    "postcode": "19258",
    "city": "Neu Gülze"
  },
  {
    "postcode": "19258",
    "city": "Nostorf"
  },
  {
    "postcode": "19258",
    "city": "Schwanheide"
  },
  {
    "postcode": "19258",
    "city": "Schwartow"
  },
  {
    "postcode": "19258",
    "city": "Tessin bei Boizenburg"
  },
  {
    "postcode": "19258",
    "city": "Wiebendorf"
  },
  {
    "postcode": "19258",
    "city": "Ludwigslust-Parchim"
  },
  {
    "postcode": "19258",
    "city": "Gallin"
  },
  {
    "postcode": "19258",
    "city": "Greven"
  },
  {
    "postcode": "19258",
    "city": "Tessin b. Boizenburg"
  },
  {
    "postcode": "19258",
    "city": "Groß Bengerstorf"
  },
  {
    "postcode": "19258",
    "city": "Blücher"
  },
  {
    "postcode": "19258",
    "city": "Bahlen"
  },
  {
    "postcode": "19258",
    "city": "Vier"
  },
  {
    "postcode": "19258",
    "city": "Heide"
  },
  {
    "postcode": "19258",
    "city": "Streitheide"
  },
  {
    "postcode": "19258",
    "city": "Gehrum"
  },
  {
    "postcode": "19258",
    "city": "Metlitz"
  },
  {
    "postcode": "19258",
    "city": "Metlitzhof"
  },
  {
    "postcode": "19258",
    "city": "Nieklitz"
  },
  {
    "postcode": "19258",
    "city": "Badekow"
  },
  {
    "postcode": "19258",
    "city": "Heidekrug"
  },
  {
    "postcode": "19258",
    "city": "Leisterförde"
  },
  {
    "postcode": "19258",
    "city": "Lüttenmark"
  },
  {
    "postcode": "19258",
    "city": "Granzin"
  },
  {
    "postcode": "19258",
    "city": "Sternsruh"
  },
  {
    "postcode": "19258",
    "city": "Zahrensdorf"
  },
  {
    "postcode": "19258",
    "city": "Horst"
  },
  {
    "postcode": "19258",
    "city": "Rensdorf"
  },
  {
    "postcode": "19258",
    "city": "Bickhusen"
  },
  {
    "postcode": "19258",
    "city": "Zweedorf"
  },
  {
    "postcode": "19258",
    "city": "Kuhlenfeld"
  },
  {
    "postcode": "19258",
    "city": "Tessin"
  },
  {
    "postcode": "19260",
    "city": "Banzin"
  },
  {
    "postcode": "19260",
    "city": "Bennin"
  },
  {
    "postcode": "19260",
    "city": "Dersenow"
  },
  {
    "postcode": "19260",
    "city": "Kloddram"
  },
  {
    "postcode": "19260",
    "city": "Rodenwalde"
  },
  {
    "postcode": "19260",
    "city": "Vellahn"
  },
  {
    "postcode": "19260",
    "city": "Ludwigslust-Parchim"
  },
  {
    "postcode": "19260",
    "city": "Schildfeld"
  },
  {
    "postcode": "19260",
    "city": "Camin"
  },
  {
    "postcode": "19260",
    "city": "Melkof"
  },
  {
    "postcode": "19260",
    "city": "Albertinenhof"
  },
  {
    "postcode": "19260",
    "city": "Marsow"
  },
  {
    "postcode": "19260",
    "city": "Wulfskuhl"
  },
  {
    "postcode": "19260",
    "city": "Goldenbow"
  },
  {
    "postcode": "19260",
    "city": "Jesow"
  },
  {
    "postcode": "19260",
    "city": "Tüschow"
  },
  {
    "postcode": "19260",
    "city": "Kützin"
  },
  {
    "postcode": "19273",
    "city": "Amt Neuhaus"
  },
  {
    "postcode": "19273",
    "city": "Brahlstorf"
  },
  {
    "postcode": "19273",
    "city": "Düssin"
  },
  {
    "postcode": "19273",
    "city": "Jesow"
  },
  {
    "postcode": "19273",
    "city": "Melkof"
  },
  {
    "postcode": "19273",
    "city": "Rosien"
  },
  {
    "postcode": "19273",
    "city": "Teldau"
  },
  {
    "postcode": "19273",
    "city": "Vellahn"
  },
  {
    "postcode": "19273",
    "city": "Ludwigslust-Parchim"
  },
  {
    "postcode": "19273",
    "city": "Bitter"
  },
  {
    "postcode": "19273",
    "city": "Bohnenburg"
  },
  {
    "postcode": "19273",
    "city": "Dammereez"
  },
  {
    "postcode": "19273",
    "city": "Darchau"
  },
  {
    "postcode": "19273",
    "city": "Dellien"
  },
  {
    "postcode": "19273",
    "city": "Groß Kühren"
  },
  {
    "postcode": "19273",
    "city": "Gülstorf"
  },
  {
    "postcode": "19273",
    "city": "Haar"
  },
  {
    "postcode": "19273",
    "city": "Herrenhof"
  },
  {
    "postcode": "19273",
    "city": "Kaarßen"
  },
  {
    "postcode": "19273",
    "city": "Konau"
  },
  {
    "postcode": "19273",
    "city": "Krusendorf"
  },
  {
    "postcode": "19273",
    "city": "Laake"
  },
  {
    "postcode": "19273",
    "city": "Laave"
  },
  {
    "postcode": "19273",
    "city": "Neu Bleckede"
  },
  {
    "postcode": "19273",
    "city": "Neu Garge"
  },
  {
    "postcode": "19273",
    "city": "Neu Wendischthun"
  },
  {
    "postcode": "19273",
    "city": "Neuhaus"
  },
  {
    "postcode": "19273",
    "city": "Niendorf"
  },
  {
    "postcode": "19273",
    "city": "Pinnau"
  },
  {
    "postcode": "19273",
    "city": "Popelau"
  },
  {
    "postcode": "19273",
    "city": "Preten"
  },
  {
    "postcode": "19273",
    "city": "Privelack"
  },
  {
    "postcode": "19273",
    "city": "Rassau"
  },
  {
    "postcode": "19273",
    "city": "Stapel"
  },
  {
    "postcode": "19273",
    "city": "Stiepelse"
  },
  {
    "postcode": "19273",
    "city": "Stixe"
  },
  {
    "postcode": "19273",
    "city": "Strachau"
  },
  {
    "postcode": "19273",
    "city": "Sumte"
  },
  {
    "postcode": "19273",
    "city": "Sückau"
  },
  {
    "postcode": "19273",
    "city": "Tripkau"
  },
  {
    "postcode": "19273",
    "city": "Viehle"
  },
  {
    "postcode": "19273",
    "city": "Vockfey"
  },
  {
    "postcode": "19273",
    "city": "Wehningen"
  },
  {
    "postcode": "19273",
    "city": "Wilkenstorf"
  },
  {
    "postcode": "19273",
    "city": "Zeetze"
  },
  {
    "postcode": "19273",
    "city": "Vergünne"
  },
  {
    "postcode": "19273",
    "city": "Raffatz"
  },
  {
    "postcode": "19273",
    "city": "Gülze"
  },
  {
    "postcode": "19273",
    "city": "Hinterhagen"
  },
  {
    "postcode": "19273",
    "city": "Teschenbrügge"
  },
  {
    "postcode": "19273",
    "city": "Groß Timkenberg"
  },
  {
    "postcode": "19273",
    "city": "Sprengelshof"
  },
  {
    "postcode": "19273",
    "city": "Vorderhagen"
  },
  {
    "postcode": "19273",
    "city": "Schleusenow"
  },
  {
    "postcode": "19273",
    "city": "Amholz"
  },
  {
    "postcode": "19273",
    "city": "Grabenau"
  },
  {
    "postcode": "19273",
    "city": "Soltow"
  },
  {
    "postcode": "19273",
    "city": "Riet Ut"
  },
  {
    "postcode": "19273",
    "city": "Bandekow"
  },
  {
    "postcode": "19273",
    "city": "Schwabendorf"
  },
  {
    "postcode": "19288",
    "city": "Alt Krenzlin"
  },
  {
    "postcode": "19288",
    "city": "Dreenkrögen"
  },
  {
    "postcode": "19288",
    "city": "Fahrbinde"
  },
  {
    "postcode": "19288",
    "city": "Glaisin"
  },
  {
    "postcode": "19288",
    "city": "Göhlen bei Ludwigslust"
  },
  {
    "postcode": "19288",
    "city": "Groß Laasch"
  },
  {
    "postcode": "19288",
    "city": "Hornkaten"
  },
  {
    "postcode": "19288",
    "city": "Kummer bei Ludwigslust"
  },
  {
    "postcode": "19288",
    "city": "Leussow bei Ludwigslust"
  },
  {
    "postcode": "19288",
    "city": "Loosen bei Ludwigslust Mecklenburg"
  },
  {
    "postcode": "19288",
    "city": "Loosen bei Ludwigslust"
  },
  {
    "postcode": "19288",
    "city": "Lüblow"
  },
  {
    "postcode": "19288",
    "city": "Ludwigslust Mecklenburg"
  },
  {
    "postcode": "19288",
    "city": "Ludwigslust"
  },
  {
    "postcode": "19288",
    "city": "Neu Krenzlin"
  },
  {
    "postcode": "19288",
    "city": "Warlow"
  },
  {
    "postcode": "19288",
    "city": "Wöbbelin"
  },
  {
    "postcode": "19288",
    "city": "Ludwigslust-Parchim"
  },
  {
    "postcode": "19288",
    "city": "Göhlen"
  },
  {
    "postcode": "19288",
    "city": "Kummer"
  },
  {
    "postcode": "19288",
    "city": "Loosen"
  },
  {
    "postcode": "19288",
    "city": "Leussow"
  },
  {
    "postcode": "19288",
    "city": "Kavelmoor"
  },
  {
    "postcode": "19288",
    "city": "Mäthus"
  },
  {
    "postcode": "19288",
    "city": "Techentin"
  },
  {
    "postcode": "19288",
    "city": "Niendorf"
  },
  {
    "postcode": "19288",
    "city": "Weselsdorf"
  },
  {
    "postcode": "19294",
    "city": "Bockup"
  },
  {
    "postcode": "19294",
    "city": "Bresegard bei Eldena"
  },
  {
    "postcode": "19294",
    "city": "Dadow"
  },
  {
    "postcode": "19294",
    "city": "Eldena an der Elde"
  },
  {
    "postcode": "19294",
    "city": "Göhren bei Ludwigslust"
  },
  {
    "postcode": "19294",
    "city": "Gorlosen"
  },
  {
    "postcode": "19294",
    "city": "Grebs bei Ludwigslust"
  },
  {
    "postcode": "19294",
    "city": "Grebs-Niendorf"
  },
  {
    "postcode": "19294",
    "city": "Grittel"
  },
  {
    "postcode": "19294",
    "city": "Güritz"
  },
  {
    "postcode": "19294",
    "city": "Heiddorf"
  },
  {
    "postcode": "19294",
    "city": "Kaliß"
  },
  {
    "postcode": "19294",
    "city": "Karenz"
  },
  {
    "postcode": "19294",
    "city": "Karstädt bei Ludwigslust"
  },
  {
    "postcode": "19294",
    "city": "Krinitz bei Ludwigslust"
  },
  {
    "postcode": "19294",
    "city": "Krohn"
  },
  {
    "postcode": "19294",
    "city": "Malk"
  },
  {
    "postcode": "19294",
    "city": "Malk Göhren"
  },
  {
    "postcode": "19294",
    "city": "Malliß"
  },
  {
    "postcode": "19294",
    "city": "Milow bei Ludwigslust"
  },
  {
    "postcode": "19294",
    "city": "Neu Kaliß"
  },
  {
    "postcode": "19294",
    "city": "Niendorf"
  },
  {
    "postcode": "19294",
    "city": "Niendorf an der Rögnitz"
  },
  {
    "postcode": "19294",
    "city": "Raddenfort"
  },
  {
    "postcode": "19294",
    "city": "Ludwigslust-Parchim"
  },
  {
    "postcode": "19294",
    "city": "Bresegard"
  },
  {
    "postcode": "19294",
    "city": "Eldena"
  },
  {
    "postcode": "19294",
    "city": "Görnitz"
  },
  {
    "postcode": "19294",
    "city": "Grebs"
  },
  {
    "postcode": "19294",
    "city": "Karstädt"
  },
  {
    "postcode": "19294",
    "city": "Krinitz"
  },
  {
    "postcode": "19294",
    "city": "Stuck"
  },
  {
    "postcode": "19294",
    "city": "Vornhorst"
  },
  {
    "postcode": "19294",
    "city": "Boek"
  },
  {
    "postcode": "19294",
    "city": "Strassen"
  },
  {
    "postcode": "19294",
    "city": "Menkendorf"
  },
  {
    "postcode": "19294",
    "city": "Neu Göhren"
  },
  {
    "postcode": "19294",
    "city": "Liepe"
  },
  {
    "postcode": "19294",
    "city": "Conow"
  },
  {
    "postcode": "19294",
    "city": "Probst Woos"
  },
  {
    "postcode": "19294",
    "city": "Schlesin"
  },
  {
    "postcode": "19300",
    "city": "Balow"
  },
  {
    "postcode": "19300",
    "city": "Bochin"
  },
  {
    "postcode": "19300",
    "city": "Brunow bei Parchim"
  },
  {
    "postcode": "19300",
    "city": "Grabow (Mecklenburg)"
  },
  {
    "postcode": "19300",
    "city": "Grabow"
  },
  {
    "postcode": "19300",
    "city": "Kolbow"
  },
  {
    "postcode": "19300",
    "city": "Kremmin"
  },
  {
    "postcode": "19300",
    "city": "Milow bei Ludwigslust"
  },
  {
    "postcode": "19300",
    "city": "Möllenbeck bei Ludwigslust"
  },
  {
    "postcode": "19300",
    "city": "Muchow"
  },
  {
    "postcode": "19300",
    "city": "Prislich"
  },
  {
    "postcode": "19300",
    "city": "Steesow"
  },
  {
    "postcode": "19300",
    "city": "Werle bei Ludwigslust"
  },
  {
    "postcode": "19300",
    "city": "Zierzow bei Ludwigslust"
  },
  {
    "postcode": "19300",
    "city": "Zuggelrade"
  },
  {
    "postcode": "19300",
    "city": "Ludwigslust-Parchim"
  },
  {
    "postcode": "19300",
    "city": "Beckentin"
  },
  {
    "postcode": "19300",
    "city": "Deibow"
  },
  {
    "postcode": "19300",
    "city": "Kastorf"
  },
  {
    "postcode": "19300",
    "city": "Möllenbeck"
  },
  {
    "postcode": "19300",
    "city": "Marienhof"
  },
  {
    "postcode": "19300",
    "city": "Milow"
  },
  {
    "postcode": "19300",
    "city": "Neese"
  },
  {
    "postcode": "19300",
    "city": "Neese Ausbau"
  },
  {
    "postcode": "19300",
    "city": "Semmerin"
  },
  {
    "postcode": "19300",
    "city": "Werle"
  },
  {
    "postcode": "19300",
    "city": "Zierzow"
  },
  {
    "postcode": "19300",
    "city": "Wanzlitz"
  },
  {
    "postcode": "19300",
    "city": "Fresenbrügge"
  },
  {
    "postcode": "19300",
    "city": "Carlshof"
  },
  {
    "postcode": "19300",
    "city": "Horst"
  },
  {
    "postcode": "19303",
    "city": "Dömitz"
  },
  {
    "postcode": "19303",
    "city": "Groß Schmölen"
  },
  {
    "postcode": "19303",
    "city": "Heidhof bei Dömitz"
  },
  {
    "postcode": "19303",
    "city": "Klein Schmölen"
  },
  {
    "postcode": "19303",
    "city": "Polz bei Dömitz"
  },
  {
    "postcode": "19303",
    "city": "Rüterberg"
  },
  {
    "postcode": "19303",
    "city": "Tewswoos"
  },
  {
    "postcode": "19303",
    "city": "Vielank"
  },
  {
    "postcode": "19303",
    "city": "Woosmer"
  },
  {
    "postcode": "19303",
    "city": "Ludwigslust-Parchim"
  },
  {
    "postcode": "19303",
    "city": "Polz"
  },
  {
    "postcode": "19303",
    "city": "Heidhof"
  },
  {
    "postcode": "19303",
    "city": "Alt Jabel"
  },
  {
    "postcode": "19303",
    "city": "Hohen Woos"
  },
  {
    "postcode": "19303",
    "city": "Neu Jabel"
  },
  {
    "postcode": "19303",
    "city": "Laupin"
  },
  {
    "postcode": "19306",
    "city": "Blievenstorf"
  },
  {
    "postcode": "19306",
    "city": "Brenz bei Neustadt-Glewe"
  },
  {
    "postcode": "19306",
    "city": "Friedrichsmoor"
  },
  {
    "postcode": "19306",
    "city": "Hohewisch"
  },
  {
    "postcode": "19306",
    "city": "Klein Laasch"
  },
  {
    "postcode": "19306",
    "city": "Neustadt-Glewe"
  },
  {
    "postcode": "19306",
    "city": "Ludwigslust-Parchim"
  },
  {
    "postcode": "19306",
    "city": "Brenz"
  },
  {
    "postcode": "19306",
    "city": "Neu Brenz"
  },
  {
    "postcode": "19306",
    "city": "Alt Brenz"
  },
  {
    "postcode": "19306",
    "city": "Kronskamp"
  },
  {
    "postcode": "19306",
    "city": "Neuhof"
  },
  {
    "postcode": "19306",
    "city": "Hohes Feld"
  },
  {
    "postcode": "19306",
    "city": "Tuckhude"
  },
  {
    "postcode": "19309",
    "city": "Besandten"
  },
  {
    "postcode": "19309",
    "city": "Eldenburg"
  },
  {
    "postcode": "19309",
    "city": "Lanz bei Lenzen"
  },
  {
    "postcode": "19309",
    "city": "Lenzen (Elbe)"
  },
  {
    "postcode": "19309",
    "city": "Lenzen"
  },
  {
    "postcode": "19309",
    "city": "Lenzerwische"
  },
  {
    "postcode": "19309",
    "city": "Mellen bei Lenzen"
  },
  {
    "postcode": "19309",
    "city": "Wootz"
  },
  {
    "postcode": "19309",
    "city": "Prignitz"
  },
  {
    "postcode": "19309",
    "city": "Baarz"
  },
  {
    "postcode": "19309",
    "city": "Bernheide"
  },
  {
    "postcode": "19309",
    "city": "Ferbitz"
  },
  {
    "postcode": "19309",
    "city": "Gaarz"
  },
  {
    "postcode": "19309",
    "city": "Jagel"
  },
  {
    "postcode": "19309",
    "city": "Lanz"
  },
  {
    "postcode": "19309",
    "city": "Mellen"
  },
  {
    "postcode": "19309",
    "city": "Rambow a See"
  },
  {
    "postcode": "19309",
    "city": "Unbesandten"
  },
  {
    "postcode": "19309",
    "city": "Wustrow"
  },
  {
    "postcode": "19309",
    "city": "Breetz"
  },
  {
    "postcode": "19309",
    "city": "Seedorf"
  },
  {
    "postcode": "19309",
    "city": "Moor"
  },
  {
    "postcode": "19309",
    "city": "Lütkenwisch"
  },
  {
    "postcode": "19309",
    "city": "Gadow"
  },
  {
    "postcode": "19309",
    "city": "Nausdorf"
  },
  {
    "postcode": "19309",
    "city": "Gandow"
  },
  {
    "postcode": "19309",
    "city": "Bäckern"
  },
  {
    "postcode": "19309",
    "city": "Mödlich"
  },
  {
    "postcode": "19309",
    "city": "Kietz"
  },
  {
    "postcode": "19322",
    "city": "Bentwisch bei Wittenberge"
  },
  {
    "postcode": "19322",
    "city": "Breese bei Wittenberge Prignitz"
  },
  {
    "postcode": "19322",
    "city": "Breese bei Wittenberge"
  },
  {
    "postcode": "19322",
    "city": "Cumlosen"
  },
  {
    "postcode": "19322",
    "city": "Groß Breese bei Wittenberge"
  },
  {
    "postcode": "19322",
    "city": "Rühstädt"
  },
  {
    "postcode": "19322",
    "city": "Scharleuk"
  },
  {
    "postcode": "19322",
    "city": "Weisen"
  },
  {
    "postcode": "19322",
    "city": "Wittenberge Prignitz"
  },
  {
    "postcode": "19322",
    "city": "Wittenberge"
  },
  {
    "postcode": "19322",
    "city": "Prignitz"
  },
  {
    "postcode": "19322",
    "city": "Bentwisch"
  },
  {
    "postcode": "19322",
    "city": "Breese"
  },
  {
    "postcode": "19322",
    "city": "Garsedow"
  },
  {
    "postcode": "19322",
    "city": "Hinzdorf"
  },
  {
    "postcode": "19322",
    "city": "Lindenberg"
  },
  {
    "postcode": "19322",
    "city": "Lütjenheide"
  },
  {
    "postcode": "19322",
    "city": "Motrich"
  },
  {
    "postcode": "19322",
    "city": "Müggendorf"
  },
  {
    "postcode": "19322",
    "city": "Schadebeuster"
  },
  {
    "postcode": "19322",
    "city": "Wentdorf"
  },
  {
    "postcode": "19322",
    "city": "Zwischendeich"
  },
  {
    "postcode": "19322",
    "city": "Groß Breese"
  },
  {
    "postcode": "19322",
    "city": "Kuhblank"
  },
  {
    "postcode": "19322",
    "city": "Abbendorf"
  },
  {
    "postcode": "19322",
    "city": "Gnevsdorf"
  },
  {
    "postcode": "19322",
    "city": "Bälow"
  },
  {
    "postcode": "19322",
    "city": "Schilde"
  },
  {
    "postcode": "19336",
    "city": "Bad Wilsnack"
  },
  {
    "postcode": "19336",
    "city": "Grube bei Perleberg"
  },
  {
    "postcode": "19336",
    "city": "Karthan"
  },
  {
    "postcode": "19336",
    "city": "Kletzke"
  },
  {
    "postcode": "19336",
    "city": "Legde / Quitzöbel"
  },
  {
    "postcode": "19336",
    "city": "Legde"
  },
  {
    "postcode": "19336",
    "city": "Plattenburg"
  },
  {
    "postcode": "19336",
    "city": "Quitzöbel"
  },
  {
    "postcode": "19336",
    "city": "Viesecke"
  },
  {
    "postcode": "19336",
    "city": "Prignitz"
  },
  {
    "postcode": "19336",
    "city": "Legde/Quitzöbel"
  },
  {
    "postcode": "19336",
    "city": "Groß Lüben"
  },
  {
    "postcode": "19336",
    "city": "Grube"
  },
  {
    "postcode": "19336",
    "city": "Klein Lüben"
  },
  {
    "postcode": "19336",
    "city": "Scharleuk"
  },
  {
    "postcode": "19336",
    "city": "Jackel"
  },
  {
    "postcode": "19336",
    "city": "Haaren"
  },
  {
    "postcode": "19336",
    "city": "Sigrön"
  },
  {
    "postcode": "19336",
    "city": "Lennewitz"
  },
  {
    "postcode": "19336",
    "city": "Roddan"
  },
  {
    "postcode": "19339",
    "city": "Bendelin"
  },
  {
    "postcode": "19339",
    "city": "Glöwen"
  },
  {
    "postcode": "19339",
    "city": "Netzow bei Glöwen"
  },
  {
    "postcode": "19339",
    "city": "Plattenburg"
  },
  {
    "postcode": "19339",
    "city": "Storbeckshof"
  },
  {
    "postcode": "19339",
    "city": "Zichtow bei Wittenberge"
  },
  {
    "postcode": "19339",
    "city": "Prignitz"
  },
  {
    "postcode": "19339",
    "city": "Zernikow"
  },
  {
    "postcode": "19339",
    "city": "Groß Werzin"
  },
  {
    "postcode": "19339",
    "city": "Garz"
  },
  {
    "postcode": "19339",
    "city": "Hoppenrade"
  },
  {
    "postcode": "19339",
    "city": "Rambow"
  },
  {
    "postcode": "19339",
    "city": "Uenze"
  },
  {
    "postcode": "19339",
    "city": "Kleinow"
  },
  {
    "postcode": "19339",
    "city": "Kletzke"
  },
  {
    "postcode": "19339",
    "city": "Krampfer"
  },
  {
    "postcode": "19339",
    "city": "Netzow"
  },
  {
    "postcode": "19339",
    "city": "Groß Gottschow"
  },
  {
    "postcode": "19339",
    "city": "Groß Leppin"
  },
  {
    "postcode": "19339",
    "city": "Zichtow"
  },
  {
    "postcode": "19339",
    "city": "Söllenthin"
  },
  {
    "postcode": "19339",
    "city": "Klein Leppin"
  },
  {
    "postcode": "19339",
    "city": "Viesecke"
  },
  {
    "postcode": "19339",
    "city": "Ponitz"
  },
  {
    "postcode": "19339",
    "city": "Burghagen"
  },
  {
    "postcode": "19348",
    "city": "Baek"
  },
  {
    "postcode": "19348",
    "city": "Berge bei Perleberg"
  },
  {
    "postcode": "19348",
    "city": "Dergenthin"
  },
  {
    "postcode": "19348",
    "city": "Groß Linde"
  },
  {
    "postcode": "19348",
    "city": "Gülitz bei Perleberg"
  },
  {
    "postcode": "19348",
    "city": "Gülitz-Reetz"
  },
  {
    "postcode": "19348",
    "city": "Hülsebeck"
  },
  {
    "postcode": "19348",
    "city": "Klein Gottschow"
  },
  {
    "postcode": "19348",
    "city": "Kleinow Prignitz"
  },
  {
    "postcode": "19348",
    "city": "Kleinow"
  },
  {
    "postcode": "19348",
    "city": "Krampfer"
  },
  {
    "postcode": "19348",
    "city": "Laaslich"
  },
  {
    "postcode": "19348",
    "city": "Lübzow"
  },
  {
    "postcode": "19348",
    "city": "Nebelin"
  },
  {
    "postcode": "19348",
    "city": "Perleberg"
  },
  {
    "postcode": "19348",
    "city": "Pirow"
  },
  {
    "postcode": "19348",
    "city": "Platenhof bei Perleberg"
  },
  {
    "postcode": "19348",
    "city": "Quitzow"
  },
  {
    "postcode": "19348",
    "city": "Reetz"
  },
  {
    "postcode": "19348",
    "city": "Retzin bei Perleberg"
  },
  {
    "postcode": "19348",
    "city": "Sükow"
  },
  {
    "postcode": "19348",
    "city": "Wolfshagen bei Perleberg"
  },
  {
    "postcode": "19348",
    "city": "Prignitz"
  },
  {
    "postcode": "19348",
    "city": "Berge"
  },
  {
    "postcode": "19348",
    "city": "Düpow"
  },
  {
    "postcode": "19348",
    "city": "Gramzow"
  },
  {
    "postcode": "19348",
    "city": "Groß Buchholz"
  },
  {
    "postcode": "19348",
    "city": "Platenhof"
  },
  {
    "postcode": "19348",
    "city": "Rosenhagen"
  },
  {
    "postcode": "19348",
    "city": "Schönfeld"
  },
  {
    "postcode": "19348",
    "city": "Spiegelhagen"
  },
  {
    "postcode": "19348",
    "city": "Wüsten-Buchholz"
  },
  {
    "postcode": "19348",
    "city": "Grenzheim"
  },
  {
    "postcode": "19348",
    "city": "Neuhausen"
  },
  {
    "postcode": "19348",
    "city": "Kleeste"
  },
  {
    "postcode": "19348",
    "city": "Muggerkuhl"
  },
  {
    "postcode": "19348",
    "city": "Gülitz"
  },
  {
    "postcode": "19348",
    "city": "Wüsten Vahrnow"
  },
  {
    "postcode": "19348",
    "city": "Schönholz"
  },
  {
    "postcode": "19348",
    "city": "Bresch"
  },
  {
    "postcode": "19348",
    "city": "Burow"
  },
  {
    "postcode": "19348",
    "city": "Waldhof"
  },
  {
    "postcode": "19348",
    "city": "Mollnitz"
  },
  {
    "postcode": "19357",
    "city": "Blüthen"
  },
  {
    "postcode": "19357",
    "city": "Boberow bei Perleberg"
  },
  {
    "postcode": "19357",
    "city": "Dallmin"
  },
  {
    "postcode": "19357",
    "city": "Dambeck bei Perleberg"
  },
  {
    "postcode": "19357",
    "city": "Garlin"
  },
  {
    "postcode": "19357",
    "city": "Groß Warnow"
  },
  {
    "postcode": "19357",
    "city": "Karstädt Prignitz"
  },
  {
    "postcode": "19357",
    "city": "Karstädt"
  },
  {
    "postcode": "19357",
    "city": "Kribbe"
  },
  {
    "postcode": "19357",
    "city": "Laaslich"
  },
  {
    "postcode": "19357",
    "city": "Mankmuß"
  },
  {
    "postcode": "19357",
    "city": "Nebelin"
  },
  {
    "postcode": "19357",
    "city": "Premslin"
  },
  {
    "postcode": "19357",
    "city": "Pröttlin"
  },
  {
    "postcode": "19357",
    "city": "Reckenzin"
  },
  {
    "postcode": "19357",
    "city": "Ludwigslust-Parchim"
  },
  {
    "postcode": "19357",
    "city": "Dambeck"
  },
  {
    "postcode": "19357",
    "city": "Klüß"
  },
  {
    "postcode": "19357",
    "city": "Klockow"
  },
  {
    "postcode": "19357",
    "city": "Glövzin"
  },
  {
    "postcode": "19357",
    "city": "Postlin"
  },
  {
    "postcode": "19357",
    "city": "Klein Warnow"
  },
  {
    "postcode": "19357",
    "city": "Boberow"
  },
  {
    "postcode": "19357",
    "city": "Sargleben"
  },
  {
    "postcode": "19357",
    "city": "Mesekow"
  },
  {
    "postcode": "19357",
    "city": "Birkholz"
  },
  {
    "postcode": "19357",
    "city": "Seetz"
  },
  {
    "postcode": "19357",
    "city": "Bootz"
  },
  {
    "postcode": "19357",
    "city": "Zapel"
  },
  {
    "postcode": "19357",
    "city": "Neu Premslin"
  },
  {
    "postcode": "19357",
    "city": "Pinnow"
  },
  {
    "postcode": "19357",
    "city": "Karwe"
  },
  {
    "postcode": "19357",
    "city": "Lenzersilge"
  },
  {
    "postcode": "19357",
    "city": "Dargardt"
  },
  {
    "postcode": "19357",
    "city": "Neuhof"
  },
  {
    "postcode": "19357",
    "city": "Waterloo"
  },
  {
    "postcode": "19357",
    "city": "Stavenow"
  },
  {
    "postcode": "19357",
    "city": "Streesow"
  },
  {
    "postcode": "19357",
    "city": "Strehlen"
  },
  {
    "postcode": "19357",
    "city": "Wittmoor"
  },
  {
    "postcode": "19370",
    "city": "Dargelütz"
  },
  {
    "postcode": "19370",
    "city": "Kiekindemark"
  },
  {
    "postcode": "19370",
    "city": "Parchim"
  },
  {
    "postcode": "19370",
    "city": "Slate"
  },
  {
    "postcode": "19370",
    "city": "Ludwigslust-Parchim"
  },
  {
    "postcode": "19370",
    "city": "Neu Klockow"
  },
  {
    "postcode": "19370",
    "city": "Neuhof"
  },
  {
    "postcode": "19372",
    "city": "Brunow bei Parchim"
  },
  {
    "postcode": "19372",
    "city": "Garwitz"
  },
  {
    "postcode": "19372",
    "city": "Groß Godems"
  },
  {
    "postcode": "19372",
    "city": "Herzfeld bei Parchim"
  },
  {
    "postcode": "19372",
    "city": "Karrenzin"
  },
  {
    "postcode": "19372",
    "city": "Klein Niendorf"
  },
  {
    "postcode": "19372",
    "city": "Matzlow"
  },
  {
    "postcode": "19372",
    "city": "Matzlow-Garwitz"
  },
  {
    "postcode": "19372",
    "city": "Paarsch"
  },
  {
    "postcode": "19372",
    "city": "Rom bei Parchim"
  },
  {
    "postcode": "19372",
    "city": "Spornitz"
  },
  {
    "postcode": "19372",
    "city": "Stolpe bei Parchim"
  },
  {
    "postcode": "19372",
    "city": "Stralendorf bei Parchim"
  },
  {
    "postcode": "19372",
    "city": "Wulfsahl bei Parchim"
  },
  {
    "postcode": "19372",
    "city": "Ziegendorf"
  },
  {
    "postcode": "19372",
    "city": "Ludwigslust-Parchim"
  },
  {
    "postcode": "19372",
    "city": "Bauerkuhl"
  },
  {
    "postcode": "19372",
    "city": "Brunow"
  },
  {
    "postcode": "19372",
    "city": "Darze"
  },
  {
    "postcode": "19372",
    "city": "Drefahl"
  },
  {
    "postcode": "19372",
    "city": "Herzfeld"
  },
  {
    "postcode": "19372",
    "city": "Lancken"
  },
  {
    "postcode": "19372",
    "city": "Lewitzrand"
  },
  {
    "postcode": "19372",
    "city": "Meierstorf"
  },
  {
    "postcode": "19372",
    "city": "Pampin"
  },
  {
    "postcode": "19372",
    "city": "Platschow"
  },
  {
    "postcode": "19372",
    "city": "Rom"
  },
  {
    "postcode": "19372",
    "city": "Stolpe"
  },
  {
    "postcode": "19372",
    "city": "Stralendorf"
  },
  {
    "postcode": "19372",
    "city": "Stresendorf"
  },
  {
    "postcode": "19372",
    "city": "Repzin"
  },
  {
    "postcode": "19372",
    "city": "Neu Herzfeld"
  },
  {
    "postcode": "19372",
    "city": "Wulfsahl"
  },
  {
    "postcode": "19372",
    "city": "Dütschow"
  },
  {
    "postcode": "19372",
    "city": "Primank"
  },
  {
    "postcode": "19372",
    "city": "Steinbeck"
  },
  {
    "postcode": "19372",
    "city": "Barkow"
  },
  {
    "postcode": "19372",
    "city": "Granzin"
  },
  {
    "postcode": "19374",
    "city": "Damm bei Parchim"
  },
  {
    "postcode": "19374",
    "city": "Domsühl"
  },
  {
    "postcode": "19374",
    "city": "Friedrichsruhe bei Parchim"
  },
  {
    "postcode": "19374",
    "city": "Grebbin"
  },
  {
    "postcode": "19374",
    "city": "Groß Niendorf bei Parchim"
  },
  {
    "postcode": "19374",
    "city": "Herzberg bei Parchim"
  },
  {
    "postcode": "19374",
    "city": "Klinken"
  },
  {
    "postcode": "19374",
    "city": "Kossebade"
  },
  {
    "postcode": "19374",
    "city": "Mestlin"
  },
  {
    "postcode": "19374",
    "city": "Raduhn"
  },
  {
    "postcode": "19374",
    "city": "Schlieven"
  },
  {
    "postcode": "19374",
    "city": "Severin"
  },
  {
    "postcode": "19374",
    "city": "Wöten"
  },
  {
    "postcode": "19374",
    "city": "Wozinkel"
  },
  {
    "postcode": "19374",
    "city": "Zölkow"
  },
  {
    "postcode": "19374",
    "city": "Ludwigslust-Parchim"
  },
  {
    "postcode": "19374",
    "city": "Damm"
  },
  {
    "postcode": "19374",
    "city": "Friedrichsruhe"
  },
  {
    "postcode": "19374",
    "city": "Groß Niendorf"
  },
  {
    "postcode": "19374",
    "city": "Hof Grabow"
  },
  {
    "postcode": "19374",
    "city": "Kadow"
  },
  {
    "postcode": "19374",
    "city": "Kladrum"
  },
  {
    "postcode": "19374",
    "city": "Lewitzrand"
  },
  {
    "postcode": "19374",
    "city": "Obere Warnow"
  },
  {
    "postcode": "19374",
    "city": "Ruest"
  },
  {
    "postcode": "19374",
    "city": "Vimfow"
  },
  {
    "postcode": "19374",
    "city": "Malchow"
  },
  {
    "postcode": "19374",
    "city": "Neu Matzlow"
  },
  {
    "postcode": "19374",
    "city": "Möderitz"
  },
  {
    "postcode": "19374",
    "city": "Zieslübbe"
  },
  {
    "postcode": "19374",
    "city": "Bergrade Hof"
  },
  {
    "postcode": "19374",
    "city": "Bergrade Dorf"
  },
  {
    "postcode": "19374",
    "city": "Alt Damerow"
  },
  {
    "postcode": "19374",
    "city": "Frauenmark"
  },
  {
    "postcode": "19374",
    "city": "Friedrichsruhe Dorf"
  },
  {
    "postcode": "19374",
    "city": "Herzberg"
  },
  {
    "postcode": "19374",
    "city": "Lenschow"
  },
  {
    "postcode": "19374",
    "city": "Woeten"
  },
  {
    "postcode": "19374",
    "city": "Rusch"
  },
  {
    "postcode": "19376",
    "city": "Klein Pankow"
  },
  {
    "postcode": "19376",
    "city": "Malow"
  },
  {
    "postcode": "19376",
    "city": "Marnitz"
  },
  {
    "postcode": "19376",
    "city": "Poitendorf"
  },
  {
    "postcode": "19376",
    "city": "Siggelkow"
  },
  {
    "postcode": "19376",
    "city": "Suckow bei Parchim"
  },
  {
    "postcode": "19376",
    "city": "Tessenow"
  },
  {
    "postcode": "19376",
    "city": "Ludwigslust-Parchim"
  },
  {
    "postcode": "19376",
    "city": "Ruhner Berge"
  },
  {
    "postcode": "19376",
    "city": "Suckow"
  },
  {
    "postcode": "19376",
    "city": "Drenkow"
  },
  {
    "postcode": "19376",
    "city": "Zachow"
  },
  {
    "postcode": "19376",
    "city": "Mentin"
  },
  {
    "postcode": "19376",
    "city": "Jarchow"
  },
  {
    "postcode": "19376",
    "city": "Hof Poltnitz"
  },
  {
    "postcode": "19376",
    "city": "Dorf Poltnitz"
  },
  {
    "postcode": "19376",
    "city": "Leppin"
  },
  {
    "postcode": "19376",
    "city": "Griebow"
  },
  {
    "postcode": "19376",
    "city": "Mooster"
  },
  {
    "postcode": "19376",
    "city": "Neuburg"
  },
  {
    "postcode": "19376",
    "city": "Groß Pankow"
  },
  {
    "postcode": "19376",
    "city": "Redlin"
  },
  {
    "postcode": "19386",
    "city": "Benthen"
  },
  {
    "postcode": "19386",
    "city": "Broock bei Lübz"
  },
  {
    "postcode": "19386",
    "city": "Darß"
  },
  {
    "postcode": "19386",
    "city": "Daschow"
  },
  {
    "postcode": "19386",
    "city": "Gallin-Kuppentin"
  },
  {
    "postcode": "19386",
    "city": "Gischow"
  },
  {
    "postcode": "19386",
    "city": "Granzin bei Lübz"
  },
  {
    "postcode": "19386",
    "city": "Karbow-Vietlübbe"
  },
  {
    "postcode": "19386",
    "city": "Kreien"
  },
  {
    "postcode": "19386",
    "city": "Kritzow bei Lübz"
  },
  {
    "postcode": "19386",
    "city": "Lindenbeck"
  },
  {
    "postcode": "19386",
    "city": "Lübz"
  },
  {
    "postcode": "19386",
    "city": "Lutheran"
  },
  {
    "postcode": "19386",
    "city": "Passow bei Lübz"
  },
  {
    "postcode": "19386",
    "city": "Quaßlin"
  },
  {
    "postcode": "19386",
    "city": "Wahlstorf bei Lübz"
  },
  {
    "postcode": "19386",
    "city": "Weisin"
  },
  {
    "postcode": "19386",
    "city": "Werder bei Lübz"
  },
  {
    "postcode": "19386",
    "city": "Wessentin"
  },
  {
    "postcode": "19386",
    "city": "Ludwigslust-Parchim"
  },
  {
    "postcode": "19386",
    "city": "Gehlsbach"
  },
  {
    "postcode": "19386",
    "city": "Granzin"
  },
  {
    "postcode": "19386",
    "city": "Kritzow"
  },
  {
    "postcode": "19386",
    "city": "Passow"
  },
  {
    "postcode": "19386",
    "city": "Werder"
  },
  {
    "postcode": "19386",
    "city": "Penzlin"
  },
  {
    "postcode": "19386",
    "city": "Gallin"
  },
  {
    "postcode": "19386",
    "city": "Zahren"
  },
  {
    "postcode": "19386",
    "city": "Kuppentin"
  },
  {
    "postcode": "19386",
    "city": "Hof Karbow"
  },
  {
    "postcode": "19386",
    "city": "Vietlübbe"
  },
  {
    "postcode": "19386",
    "city": "Wahlstorf"
  },
  {
    "postcode": "19386",
    "city": "Karbow"
  },
  {
    "postcode": "19386",
    "city": "Quaßliner Mühle"
  },
  {
    "postcode": "19386",
    "city": "Greven"
  },
  {
    "postcode": "19386",
    "city": "Beckendorf"
  },
  {
    "postcode": "19386",
    "city": "Bahlenrade"
  },
  {
    "postcode": "19386",
    "city": "Ausbau Kreien"
  },
  {
    "postcode": "19386",
    "city": "Hof Kreien"
  },
  {
    "postcode": "19386",
    "city": "Kolonie Kreien"
  },
  {
    "postcode": "19386",
    "city": "Wilsen"
  },
  {
    "postcode": "19386",
    "city": "Benzin"
  },
  {
    "postcode": "19386",
    "city": "Schlemmin"
  },
  {
    "postcode": "19386",
    "city": "Bobzin"
  },
  {
    "postcode": "19386",
    "city": "Broock"
  },
  {
    "postcode": "19386",
    "city": "Burow"
  },
  {
    "postcode": "19386",
    "city": "Hof Gischow"
  },
  {
    "postcode": "19386",
    "city": "Riederfelde"
  },
  {
    "postcode": "19386",
    "city": "Ruthen"
  },
  {
    "postcode": "19386",
    "city": "Welzin"
  },
  {
    "postcode": "19386",
    "city": "Brüz"
  },
  {
    "postcode": "19386",
    "city": "Neu Brüz"
  },
  {
    "postcode": "19386",
    "city": "Unter Brüz"
  },
  {
    "postcode": "19386",
    "city": "Charlottenhof"
  },
  {
    "postcode": "19386",
    "city": "Tannenhof"
  },
  {
    "postcode": "19386",
    "city": "Neu Benthen"
  },
  {
    "postcode": "19395",
    "city": "Barkhagen"
  },
  {
    "postcode": "19395",
    "city": "Barkow bei Lübz"
  },
  {
    "postcode": "19395",
    "city": "Buchberg"
  },
  {
    "postcode": "19395",
    "city": "Ganzlin"
  },
  {
    "postcode": "19395",
    "city": "Gnevsdorf bei Lübz"
  },
  {
    "postcode": "19395",
    "city": "Karow bei Lübz"
  },
  {
    "postcode": "19395",
    "city": "Klebe"
  },
  {
    "postcode": "19395",
    "city": "Plau"
  },
  {
    "postcode": "19395",
    "city": "Plau am See"
  },
  {
    "postcode": "19395",
    "city": "Plauerhagen"
  },
  {
    "postcode": "19395",
    "city": "Reppentin"
  },
  {
    "postcode": "19395",
    "city": "Retzow bei Lübz"
  },
  {
    "postcode": "19395",
    "city": "Tönchow"
  },
  {
    "postcode": "19395",
    "city": "Wendisch Priborn"
  },
  {
    "postcode": "19395",
    "city": "Ludwigslust-Parchim"
  },
  {
    "postcode": "19395",
    "city": "Barkow"
  },
  {
    "postcode": "19395",
    "city": "Zarchlin"
  },
  {
    "postcode": "19395",
    "city": "Kolonie Lalchow"
  },
  {
    "postcode": "19395",
    "city": "Altenlinden"
  },
  {
    "postcode": "19395",
    "city": "Klein Dammerow"
  },
  {
    "postcode": "19395",
    "city": "Retzow"
  },
  {
    "postcode": "19395",
    "city": "Hof Retzow"
  },
  {
    "postcode": "19395",
    "city": "Gnevsdorf"
  },
  {
    "postcode": "19395",
    "city": "Twietfort"
  },
  {
    "postcode": "19395",
    "city": "Wangelin"
  },
  {
    "postcode": "19395",
    "city": "Dresenow"
  },
  {
    "postcode": "19395",
    "city": "Karow"
  },
  {
    "postcode": "19395",
    "city": "Leisten"
  },
  {
    "postcode": "19395",
    "city": "Gaarz"
  },
  {
    "postcode": "19395",
    "city": "Quetzin"
  },
  {
    "postcode": "19395",
    "city": "Hof Lalchow"
  },
  {
    "postcode": "19399",
    "city": "Augzin"
  },
  {
    "postcode": "19399",
    "city": "Diestelow"
  },
  {
    "postcode": "19399",
    "city": "Dobbertin"
  },
  {
    "postcode": "19399",
    "city": "Goldberg Mecklenburg"
  },
  {
    "postcode": "19399",
    "city": "Goldberg"
  },
  {
    "postcode": "19399",
    "city": "Klein Wangelin"
  },
  {
    "postcode": "19399",
    "city": "Kressin"
  },
  {
    "postcode": "19399",
    "city": "Langenhagen bei Lübz"
  },
  {
    "postcode": "19399",
    "city": "Neu Damerow"
  },
  {
    "postcode": "19399",
    "city": "Neu Poserin"
  },
  {
    "postcode": "19399",
    "city": "Sehlsdorf"
  },
  {
    "postcode": "19399",
    "city": "Spendin"
  },
  {
    "postcode": "19399",
    "city": "Techentin bei Lübz"
  },
  {
    "postcode": "19399",
    "city": "Wendisch Waren"
  },
  {
    "postcode": "19399",
    "city": "Woosten"
  },
  {
    "postcode": "19399",
    "city": "Zidderich"
  },
  {
    "postcode": "19399",
    "city": "Ludwigslust-Parchim"
  },
  {
    "postcode": "19399",
    "city": "Langenhagen"
  },
  {
    "postcode": "19399",
    "city": "Techentin"
  },
  {
    "postcode": "19399",
    "city": "Neuhof"
  },
  {
    "postcode": "19399",
    "city": "Kleesten"
  },
  {
    "postcode": "19399",
    "city": "Alt Schwinz"
  },
  {
    "postcode": "19399",
    "city": "Dobbin"
  },
  {
    "postcode": "19399",
    "city": "Jellen b Dobbertin"
  },
  {
    "postcode": "19399",
    "city": "Neu Schwinz"
  },
  {
    "postcode": "19399",
    "city": "Kläden"
  },
  {
    "postcode": "19399",
    "city": "Medow"
  },
  {
    "postcode": "19399",
    "city": "Grambow"
  },
  {
    "postcode": "19399",
    "city": "Steinbeck bei Goldberg"
  },
  {
    "postcode": "19399",
    "city": "Lüschow"
  },
  {
    "postcode": "19399",
    "city": "Neuhof bei Diestelow"
  },
  {
    "postcode": "19399",
    "city": "Hof Hagen"
  },
  {
    "postcode": "19399",
    "city": "Sandhof"
  },
  {
    "postcode": "19399",
    "city": "Wooster Teerofen"
  },
  {
    "postcode": "19399",
    "city": "Mühlenhof"
  },
  {
    "postcode": "19399",
    "city": "Below"
  },
  {
    "postcode": "19406",
    "city": "Borkow"
  },
  {
    "postcode": "19406",
    "city": "Dabel"
  },
  {
    "postcode": "19406",
    "city": "Groß Görnow"
  },
  {
    "postcode": "19406",
    "city": "Hohen Pritz"
  },
  {
    "postcode": "19406",
    "city": "Kobrow bei Sternberg"
  },
  {
    "postcode": "19406",
    "city": "Kukuk"
  },
  {
    "postcode": "19406",
    "city": "Mustin bei Sternberg"
  },
  {
    "postcode": "19406",
    "city": "Sternberg Mecklenburg"
  },
  {
    "postcode": "19406",
    "city": "Sternberg"
  },
  {
    "postcode": "19406",
    "city": "Witzin"
  },
  {
    "postcode": "19406",
    "city": "Ludwigslust-Parchim"
  },
  {
    "postcode": "19406",
    "city": "Dinnies"
  },
  {
    "postcode": "19406",
    "city": "Groß Raden"
  },
  {
    "postcode": "19406",
    "city": "Gägelow"
  },
  {
    "postcode": "19406",
    "city": "Klein Görnow"
  },
  {
    "postcode": "19406",
    "city": "Klein Pritz"
  },
  {
    "postcode": "19406",
    "city": "Kobrow"
  },
  {
    "postcode": "19406",
    "city": "Mustin"
  },
  {
    "postcode": "19406",
    "city": "Neu Pastin"
  },
  {
    "postcode": "19406",
    "city": "Pastin"
  },
  {
    "postcode": "19406",
    "city": "Sagsdorf"
  },
  {
    "postcode": "19406",
    "city": "Sternberger Burg"
  },
  {
    "postcode": "19406",
    "city": "Zülow"
  },
  {
    "postcode": "19406",
    "city": "Schlowe"
  },
  {
    "postcode": "19406",
    "city": "Neu Woserin"
  },
  {
    "postcode": "19406",
    "city": "Woserin"
  },
  {
    "postcode": "19406",
    "city": "Hohenfelde"
  },
  {
    "postcode": "19406",
    "city": "Rothen"
  },
  {
    "postcode": "19406",
    "city": "Holzendorf b Dabel"
  },
  {
    "postcode": "19406",
    "city": "Kobrow 2"
  },
  {
    "postcode": "19406",
    "city": "Wamckow"
  },
  {
    "postcode": "19406",
    "city": "Dessin"
  },
  {
    "postcode": "19406",
    "city": "Stieten"
  },
  {
    "postcode": "19406",
    "city": "Bolz"
  },
  {
    "postcode": "19406",
    "city": "Ruchow"
  },
  {
    "postcode": "19406",
    "city": "Lenzen"
  },
  {
    "postcode": "19406",
    "city": "Loiz"
  },
  {
    "postcode": "19412",
    "city": "Blankenberg Mecklenburg"
  },
  {
    "postcode": "19412",
    "city": "Blankenberg"
  },
  {
    "postcode": "19412",
    "city": "Brüel"
  },
  {
    "postcode": "19412",
    "city": "Kuhlen bei Brüel"
  },
  {
    "postcode": "19412",
    "city": "Kuhlen-Wendorf"
  },
  {
    "postcode": "19412",
    "city": "Langen Jarchow"
  },
  {
    "postcode": "19412",
    "city": "Weitendorf bei Sternberg"
  },
  {
    "postcode": "19412",
    "city": "Wendorf bei Sternberg"
  },
  {
    "postcode": "19412",
    "city": "Zahrensdorf bei Sternberg"
  },
  {
    "postcode": "19412",
    "city": "Ludwigslust-Parchim"
  },
  {
    "postcode": "19412",
    "city": "Friedrichswalde"
  },
  {
    "postcode": "19412",
    "city": "Kloster Tempzin"
  },
  {
    "postcode": "19412",
    "city": "Penzin"
  },
  {
    "postcode": "19412",
    "city": "Weitendorf"
  },
  {
    "postcode": "19412",
    "city": "Wipersdorf"
  },
  {
    "postcode": "19412",
    "city": "Häven"
  },
  {
    "postcode": "19412",
    "city": "Tempzin"
  },
  {
    "postcode": "19412",
    "city": "Zahrensdorf"
  },
  {
    "postcode": "19412",
    "city": "Klein Jarchow"
  },
  {
    "postcode": "19412",
    "city": "Nutteln"
  },
  {
    "postcode": "19412",
    "city": "Zaschendorf"
  },
  {
    "postcode": "19412",
    "city": "Holzendorf"
  },
  {
    "postcode": "19412",
    "city": "Wendorf"
  },
  {
    "postcode": "19412",
    "city": "Kuhlen"
  },
  {
    "postcode": "19412",
    "city": "Gustävel"
  },
  {
    "postcode": "19412",
    "city": "Weberin"
  },
  {
    "postcode": "19412",
    "city": "Holdorf"
  },
  {
    "postcode": "19412",
    "city": "Tessin"
  },
  {
    "postcode": "19412",
    "city": "Müsselmow"
  },
  {
    "postcode": "19412",
    "city": "Kaarz"
  },
  {
    "postcode": "19412",
    "city": "Schönlage"
  },
  {
    "postcode": "19412",
    "city": "Sülten"
  },
  {
    "postcode": "19412",
    "city": "Jülchendorf"
  },
  {
    "postcode": "19417",
    "city": "Bibow"
  },
  {
    "postcode": "19417",
    "city": "Groß Labenz"
  },
  {
    "postcode": "19417",
    "city": "Jesendorf bei Warin"
  },
  {
    "postcode": "19417",
    "city": "Neu Pennewitt"
  },
  {
    "postcode": "19417",
    "city": "Pennewitt"
  },
  {
    "postcode": "19417",
    "city": "Ventschow"
  },
  {
    "postcode": "19417",
    "city": "Warin"
  },
  {
    "postcode": "19417",
    "city": "Nordwestmecklenburg"
  },
  {
    "postcode": "19417",
    "city": "Blankenberg"
  },
  {
    "postcode": "19417",
    "city": "Büschow"
  },
  {
    "postcode": "19417",
    "city": "Dämelow"
  },
  {
    "postcode": "19417",
    "city": "Hasenwinkel"
  },
  {
    "postcode": "19417",
    "city": "Jesendorf"
  },
  {
    "postcode": "19417",
    "city": "Kleekamp"
  },
  {
    "postcode": "19417",
    "city": "Klein Labenz"
  },
  {
    "postcode": "19417",
    "city": "Mankmoos"
  },
  {
    "postcode": "19417",
    "city": "Neperstorf"
  },
  {
    "postcode": "19417",
    "city": "Neuhof"
  },
  {
    "postcode": "19417",
    "city": "Nisbill"
  },
  {
    "postcode": "19417",
    "city": "Trams"
  },
  {
    "postcode": "19417",
    "city": "Weiße Krug"
  },
  {
    "postcode": "19417",
    "city": "Allwardtshof"
  },
  {
    "postcode": "19417",
    "city": "Graupenmühle"
  },
  {
    "postcode": "19417",
    "city": "Waldheim"
  },
  {
    "postcode": "19417",
    "city": "Wilhelmshof"
  }
]