[
  {
    "postcode": "40210",
    "city": "Düsseldorf"
  },
  {
    "postcode": "40210",
    "city": "Stadtmitte"
  },
  {
    "postcode": "40210",
    "city": "Friedrichstadt"
  },
  {
    "postcode": "40211",
    "city": "Düsseldorf"
  },
  {
    "postcode": "40211",
    "city": "Pempelfort"
  },
  {
    "postcode": "40211",
    "city": "Düsseltal"
  },
  {
    "postcode": "40211",
    "city": "Stadtmitte"
  },
  {
    "postcode": "40212",
    "city": "Düsseldorf"
  },
  {
    "postcode": "40212",
    "city": "Stadtmitte"
  },
  {
    "postcode": "40212",
    "city": "Friedrichstadt"
  },
  {
    "postcode": "40213",
    "city": "Düsseldorf"
  },
  {
    "postcode": "40213",
    "city": "Altstadt"
  },
  {
    "postcode": "40213",
    "city": "Carlstadt"
  },
  {
    "postcode": "40213",
    "city": "Unterbilk"
  },
  {
    "postcode": "40213",
    "city": "Stadtmitte"
  },
  {
    "postcode": "40213",
    "city": "Friedrichstadt"
  },
  {
    "postcode": "40213",
    "city": "Pempelfort"
  },
  {
    "postcode": "40215",
    "city": "Düsseldorf"
  },
  {
    "postcode": "40215",
    "city": "Friedrichstadt"
  },
  {
    "postcode": "40217",
    "city": "Düsseldorf"
  },
  {
    "postcode": "40217",
    "city": "Friedrichstadt"
  },
  {
    "postcode": "40217",
    "city": "Unterbilk"
  },
  {
    "postcode": "40217",
    "city": "Bilk"
  },
  {
    "postcode": "40219",
    "city": "Düsseldorf"
  },
  {
    "postcode": "40219",
    "city": "Unterbilk"
  },
  {
    "postcode": "40219",
    "city": "Hafen"
  },
  {
    "postcode": "40221",
    "city": "Düsseldorf"
  },
  {
    "postcode": "40221",
    "city": "Flehe"
  },
  {
    "postcode": "40221",
    "city": "Hamm"
  },
  {
    "postcode": "40221",
    "city": "Volmerswerth"
  },
  {
    "postcode": "40221",
    "city": "Bilk"
  },
  {
    "postcode": "40221",
    "city": "Hafen"
  },
  {
    "postcode": "40221",
    "city": "Unterbilk"
  },
  {
    "postcode": "40223",
    "city": "Düsseldorf"
  },
  {
    "postcode": "40223",
    "city": "Flehe"
  },
  {
    "postcode": "40223",
    "city": "Bilk"
  },
  {
    "postcode": "40223",
    "city": "Unterbilk"
  },
  {
    "postcode": "40225",
    "city": "Düsseldorf"
  },
  {
    "postcode": "40225",
    "city": "Flehe"
  },
  {
    "postcode": "40225",
    "city": "Wersten"
  },
  {
    "postcode": "40225",
    "city": "Bilk"
  },
  {
    "postcode": "40225",
    "city": "Oberbilk"
  },
  {
    "postcode": "40227",
    "city": "Düsseldorf"
  },
  {
    "postcode": "40227",
    "city": "Oberbilk"
  },
  {
    "postcode": "40227",
    "city": "Eller"
  },
  {
    "postcode": "40229",
    "city": "Düsseldorf"
  },
  {
    "postcode": "40229",
    "city": "Eller"
  },
  {
    "postcode": "40229",
    "city": "Lierenfeld"
  },
  {
    "postcode": "40229",
    "city": "Oberbilk"
  },
  {
    "postcode": "40231",
    "city": "Düsseldorf"
  },
  {
    "postcode": "40231",
    "city": "Lierenfeld"
  },
  {
    "postcode": "40231",
    "city": "Eller"
  },
  {
    "postcode": "40231",
    "city": "Flingern"
  },
  {
    "postcode": "40233",
    "city": "Düsseldorf"
  },
  {
    "postcode": "40233",
    "city": "Lierenfeld"
  },
  {
    "postcode": "40233",
    "city": "Flingern Nord"
  },
  {
    "postcode": "40233",
    "city": "Stadtmitte"
  },
  {
    "postcode": "40233",
    "city": "Flingern Süd"
  },
  {
    "postcode": "40233",
    "city": "Oberbilk"
  },
  {
    "postcode": "40235",
    "city": "Düsseldorf"
  },
  {
    "postcode": "40235",
    "city": "Grafenberg"
  },
  {
    "postcode": "40235",
    "city": "Flingern Nord"
  },
  {
    "postcode": "40235",
    "city": "Flingern"
  },
  {
    "postcode": "40235",
    "city": "Flingern Süd"
  },
  {
    "postcode": "40237",
    "city": "Düsseldorf"
  },
  {
    "postcode": "40237",
    "city": "Mörsenbroich"
  },
  {
    "postcode": "40237",
    "city": "Düsseltal"
  },
  {
    "postcode": "40237",
    "city": "Flingern Nord"
  },
  {
    "postcode": "40239",
    "city": "Düsseldorf"
  },
  {
    "postcode": "40239",
    "city": "Mörsenbroich"
  },
  {
    "postcode": "40239",
    "city": "Düsseltal"
  },
  {
    "postcode": "40468",
    "city": "Derendorf"
  },
  {
    "postcode": "40468",
    "city": "Düsseldorf"
  },
  {
    "postcode": "40468",
    "city": "Golzheim"
  },
  {
    "postcode": "40468",
    "city": "Lichtenbroich"
  },
  {
    "postcode": "40468",
    "city": "Stockum"
  },
  {
    "postcode": "40468",
    "city": "Unterrath"
  },
  {
    "postcode": "40468",
    "city": "Lohausen"
  },
  {
    "postcode": "40470",
    "city": "Düsseldorf"
  },
  {
    "postcode": "40470",
    "city": "Grafenberg"
  },
  {
    "postcode": "40470",
    "city": "Mörsenbroich"
  },
  {
    "postcode": "40470",
    "city": "Rath"
  },
  {
    "postcode": "40470",
    "city": "Düsseltal"
  },
  {
    "postcode": "40472",
    "city": "Düsseldorf"
  },
  {
    "postcode": "40472",
    "city": "Hubbelrath"
  },
  {
    "postcode": "40472",
    "city": "Lichtenbroich"
  },
  {
    "postcode": "40472",
    "city": "Unterrath"
  },
  {
    "postcode": "40472",
    "city": "Ratingen"
  },
  {
    "postcode": "40472",
    "city": "Rath"
  },
  {
    "postcode": "40472",
    "city": "West"
  },
  {
    "postcode": "40474",
    "city": "Düsseldorf"
  },
  {
    "postcode": "40474",
    "city": "Golzheim"
  },
  {
    "postcode": "40474",
    "city": "Lohausen"
  },
  {
    "postcode": "40474",
    "city": "Stockum"
  },
  {
    "postcode": "40474",
    "city": "Pempelfort"
  },
  {
    "postcode": "40474",
    "city": "Kaiserswerth"
  },
  {
    "postcode": "40476",
    "city": "Derendorf"
  },
  {
    "postcode": "40476",
    "city": "Düsseldorf"
  },
  {
    "postcode": "40476",
    "city": "Golzheim"
  },
  {
    "postcode": "40476",
    "city": "Pempelfort"
  },
  {
    "postcode": "40477",
    "city": "Derendorf"
  },
  {
    "postcode": "40477",
    "city": "Düsseldorf"
  },
  {
    "postcode": "40477",
    "city": "Golzheim"
  },
  {
    "postcode": "40477",
    "city": "Pempelfort"
  },
  {
    "postcode": "40477",
    "city": "Düsseltal"
  },
  {
    "postcode": "40477",
    "city": "Stadtmitte"
  },
  {
    "postcode": "40479",
    "city": "Derendorf"
  },
  {
    "postcode": "40479",
    "city": "Düsseldorf"
  },
  {
    "postcode": "40479",
    "city": "Pempelfort"
  },
  {
    "postcode": "40489",
    "city": "Angermund"
  },
  {
    "postcode": "40489",
    "city": "Düsseldorf"
  },
  {
    "postcode": "40489",
    "city": "Kaiserswerth"
  },
  {
    "postcode": "40489",
    "city": "Kalkum"
  },
  {
    "postcode": "40489",
    "city": "Lohausen"
  },
  {
    "postcode": "40489",
    "city": "Wittlaer"
  },
  {
    "postcode": "40489",
    "city": "Mündelheim"
  },
  {
    "postcode": "40545",
    "city": "Düsseldorf"
  },
  {
    "postcode": "40545",
    "city": "Oberkassel"
  },
  {
    "postcode": "40547",
    "city": "Düsseldorf"
  },
  {
    "postcode": "40547",
    "city": "Niederkassel"
  },
  {
    "postcode": "40547",
    "city": "Oberkassel"
  },
  {
    "postcode": "40547",
    "city": "Lörick"
  },
  {
    "postcode": "40549",
    "city": "Düsseldorf"
  },
  {
    "postcode": "40549",
    "city": "Heerdt"
  },
  {
    "postcode": "40549",
    "city": "Oberkassel"
  },
  {
    "postcode": "40589",
    "city": "Benrath"
  },
  {
    "postcode": "40589",
    "city": "Düsseldorf"
  },
  {
    "postcode": "40589",
    "city": "Flehe"
  },
  {
    "postcode": "40589",
    "city": "Himmelgeist"
  },
  {
    "postcode": "40589",
    "city": "Holthausen"
  },
  {
    "postcode": "40589",
    "city": "Itter"
  },
  {
    "postcode": "40589",
    "city": "Wersten"
  },
  {
    "postcode": "40591",
    "city": "Düsseldorf"
  },
  {
    "postcode": "40591",
    "city": "Holthausen"
  },
  {
    "postcode": "40591",
    "city": "Wersten"
  },
  {
    "postcode": "40591",
    "city": "Eller"
  },
  {
    "postcode": "40591",
    "city": "Oberbilk"
  },
  {
    "postcode": "40593",
    "city": "Benrath"
  },
  {
    "postcode": "40593",
    "city": "Düsseldorf"
  },
  {
    "postcode": "40593",
    "city": "Garath"
  },
  {
    "postcode": "40593",
    "city": "Urdenbach"
  },
  {
    "postcode": "40595",
    "city": "Benrath"
  },
  {
    "postcode": "40595",
    "city": "Düsseldorf"
  },
  {
    "postcode": "40595",
    "city": "Garath"
  },
  {
    "postcode": "40595",
    "city": "Urdenbach"
  },
  {
    "postcode": "40595",
    "city": "Hellerhof"
  },
  {
    "postcode": "40597",
    "city": "Benrath"
  },
  {
    "postcode": "40597",
    "city": "Düsseldorf"
  },
  {
    "postcode": "40597",
    "city": "Hassels"
  },
  {
    "postcode": "40597",
    "city": "Hilden"
  },
  {
    "postcode": "40597",
    "city": "Urdenbach"
  },
  {
    "postcode": "40599",
    "city": "Benrath"
  },
  {
    "postcode": "40599",
    "city": "Düsseldorf"
  },
  {
    "postcode": "40599",
    "city": "Hassels"
  },
  {
    "postcode": "40599",
    "city": "Holthausen"
  },
  {
    "postcode": "40599",
    "city": "Reisholz"
  },
  {
    "postcode": "40625",
    "city": "Düsseldorf"
  },
  {
    "postcode": "40625",
    "city": "Ludenberg"
  },
  {
    "postcode": "40625",
    "city": "Gerresheim"
  },
  {
    "postcode": "40625",
    "city": "Erkrath"
  },
  {
    "postcode": "40627",
    "city": "Düsseldorf"
  },
  {
    "postcode": "40627",
    "city": "Unterbach"
  },
  {
    "postcode": "40627",
    "city": "Vennhausen"
  },
  {
    "postcode": "40627",
    "city": "Gerresheim"
  },
  {
    "postcode": "40629",
    "city": "Düsseldorf"
  },
  {
    "postcode": "40629",
    "city": "Grafenberg"
  },
  {
    "postcode": "40629",
    "city": "Hubbelrath"
  },
  {
    "postcode": "40629",
    "city": "Ludenberg"
  },
  {
    "postcode": "40629",
    "city": "Rath"
  },
  {
    "postcode": "40629",
    "city": "Gerresheim"
  },
  {
    "postcode": "40667",
    "city": "Büderich bei Düsseldorf"
  },
  {
    "postcode": "40667",
    "city": "Ilverich Niederrhein"
  },
  {
    "postcode": "40667",
    "city": "Ilverich"
  },
  {
    "postcode": "40667",
    "city": "Meerbusch"
  },
  {
    "postcode": "40667",
    "city": "Rhein-Kreis Neuss"
  },
  {
    "postcode": "40667",
    "city": "Büderich"
  },
  {
    "postcode": "40668",
    "city": "Ilverich Niederrhein"
  },
  {
    "postcode": "40668",
    "city": "Ilverich"
  },
  {
    "postcode": "40668",
    "city": "Langst-Kierst Niederrhein"
  },
  {
    "postcode": "40668",
    "city": "Langst-Kierst"
  },
  {
    "postcode": "40668",
    "city": "Lank-Latum"
  },
  {
    "postcode": "40668",
    "city": "Meerbusch"
  },
  {
    "postcode": "40668",
    "city": "Nierst Niederrhein"
  },
  {
    "postcode": "40668",
    "city": "Nierst"
  },
  {
    "postcode": "40668",
    "city": "Ossum-Bösinghoven"
  },
  {
    "postcode": "40668",
    "city": "Rhein-Kreis Neuss"
  },
  {
    "postcode": "40668",
    "city": "Gellep-Stratum"
  },
  {
    "postcode": "40668",
    "city": "Krefeld"
  },
  {
    "postcode": "40670",
    "city": "Meerbusch"
  },
  {
    "postcode": "40670",
    "city": "Osterath"
  },
  {
    "postcode": "40670",
    "city": "Strümp"
  },
  {
    "postcode": "40670",
    "city": "Rhein-Kreis Neuss"
  },
  {
    "postcode": "40670",
    "city": "Lank-Latum"
  },
  {
    "postcode": "40670",
    "city": "Ossum-Bösinghoven"
  },
  {
    "postcode": "40699",
    "city": "Erkrath"
  },
  {
    "postcode": "40699",
    "city": "Hochdahl"
  },
  {
    "postcode": "40699",
    "city": "Mettmann"
  },
  {
    "postcode": "40699",
    "city": "Unterfeldhaus"
  },
  {
    "postcode": "40721",
    "city": "Hilden"
  },
  {
    "postcode": "40721",
    "city": "Unterbach"
  },
  {
    "postcode": "40721",
    "city": "Mettmann"
  },
  {
    "postcode": "40721",
    "city": "Düsseldorf"
  },
  {
    "postcode": "40723",
    "city": "Hilden"
  },
  {
    "postcode": "40723",
    "city": "Mettmann"
  },
  {
    "postcode": "40724",
    "city": "Hilden"
  },
  {
    "postcode": "40724",
    "city": "Mettmann"
  },
  {
    "postcode": "40764",
    "city": "Berghausen Rheinland"
  },
  {
    "postcode": "40764",
    "city": "Berghausen"
  },
  {
    "postcode": "40764",
    "city": "Immigrath Rheinland"
  },
  {
    "postcode": "40764",
    "city": "Immigrath"
  },
  {
    "postcode": "40764",
    "city": "Langenfeld (Rheinland)"
  },
  {
    "postcode": "40764",
    "city": "Langenfeld"
  },
  {
    "postcode": "40764",
    "city": "Reusrath Rheinland"
  },
  {
    "postcode": "40764",
    "city": "Reusrath"
  },
  {
    "postcode": "40764",
    "city": "Richrath Rheinland"
  },
  {
    "postcode": "40764",
    "city": "Richrath"
  },
  {
    "postcode": "40764",
    "city": "Wiescheid Rheinland"
  },
  {
    "postcode": "40764",
    "city": "Wiescheid"
  },
  {
    "postcode": "40764",
    "city": "Mettmann"
  },
  {
    "postcode": "40789",
    "city": "Baumberg Rheinland"
  },
  {
    "postcode": "40789",
    "city": "Baumberg"
  },
  {
    "postcode": "40789",
    "city": "Monheim am Rhein"
  },
  {
    "postcode": "40789",
    "city": "Monheim Rheinland"
  },
  {
    "postcode": "40789",
    "city": "Monheim"
  },
  {
    "postcode": "40789",
    "city": "Mettmann"
  },
  {
    "postcode": "40822",
    "city": "Mettmann"
  },
  {
    "postcode": "40822",
    "city": "Metzkausen"
  },
  {
    "postcode": "40822",
    "city": "Obschwarzbach"
  },
  {
    "postcode": "40822",
    "city": "Stadt Haan"
  },
  {
    "postcode": "40878",
    "city": "Ratingen"
  },
  {
    "postcode": "40878",
    "city": "Tiefenbroich"
  },
  {
    "postcode": "40878",
    "city": "Mettmann"
  },
  {
    "postcode": "40878",
    "city": "Zentrum"
  },
  {
    "postcode": "40878",
    "city": "Ost"
  },
  {
    "postcode": "40878",
    "city": "West"
  },
  {
    "postcode": "40880",
    "city": "Ratingen"
  },
  {
    "postcode": "40880",
    "city": "Tiefenbroich"
  },
  {
    "postcode": "40880",
    "city": "Mettmann"
  },
  {
    "postcode": "40880",
    "city": "West"
  },
  {
    "postcode": "40882",
    "city": "Eggerscheidt"
  },
  {
    "postcode": "40882",
    "city": "Homberg"
  },
  {
    "postcode": "40882",
    "city": "Lintorf bei Ratingen"
  },
  {
    "postcode": "40882",
    "city": "Ratingen"
  },
  {
    "postcode": "40882",
    "city": "Tiefenbroich"
  },
  {
    "postcode": "40882",
    "city": "Mettmann"
  },
  {
    "postcode": "40882",
    "city": "Schwarzbach"
  },
  {
    "postcode": "40882",
    "city": "Zentrum"
  },
  {
    "postcode": "40882",
    "city": "Ost"
  },
  {
    "postcode": "40882",
    "city": "Lintorf"
  },
  {
    "postcode": "40883",
    "city": "Breitscheid bei Ratingen"
  },
  {
    "postcode": "40883",
    "city": "Eggerscheidt"
  },
  {
    "postcode": "40883",
    "city": "Homberg"
  },
  {
    "postcode": "40883",
    "city": "Hösel"
  },
  {
    "postcode": "40883",
    "city": "Ratingen"
  },
  {
    "postcode": "40883",
    "city": "Mettmann"
  },
  {
    "postcode": "40883",
    "city": "Breitscheid"
  },
  {
    "postcode": "40885",
    "city": "Breitscheid bei Ratingen"
  },
  {
    "postcode": "40885",
    "city": "Lintorf bei Ratingen"
  },
  {
    "postcode": "40885",
    "city": "Ratingen"
  },
  {
    "postcode": "40885",
    "city": "Mettmann"
  },
  {
    "postcode": "40885",
    "city": "Breitscheid"
  },
  {
    "postcode": "40885",
    "city": "Lintorf"
  }
]