[
  {
    "postcode": "1558",
    "city": "Großenhain Sachsen"
  },
  {
    "postcode": "1558",
    "city": "Großenhain"
  },
  {
    "postcode": "1558",
    "city": "Meißen"
  },
  {
    "postcode": "1558",
    "city": "Zschauitz"
  },
  {
    "postcode": "1558",
    "city": "Folbern"
  },
  {
    "postcode": "1558",
    "city": "Weßnitz"
  },
  {
    "postcode": "1558",
    "city": "Skassa"
  },
  {
    "postcode": "1558",
    "city": "Rostig"
  },
  {
    "postcode": "1561",
    "city": "Ebersbach bei Großenhain"
  },
  {
    "postcode": "1561",
    "city": "Lampertswalde bei Großenhain"
  },
  {
    "postcode": "1561",
    "city": "Priestewitz"
  },
  {
    "postcode": "1561",
    "city": "Schönfeld bei Großenhain"
  },
  {
    "postcode": "1561",
    "city": "Tauscha bei Großenhain"
  },
  {
    "postcode": "1561",
    "city": "Thiendorf"
  },
  {
    "postcode": "1561",
    "city": "Weißig am Raschütz"
  },
  {
    "postcode": "1561",
    "city": "Wildenhain bei Großenhain"
  },
  {
    "postcode": "1561",
    "city": "Zabeltitz"
  },
  {
    "postcode": "1561",
    "city": "Meißen"
  },
  {
    "postcode": "1561",
    "city": "Böhla"
  },
  {
    "postcode": "1561",
    "city": "Ebersbach"
  },
  {
    "postcode": "1561",
    "city": "Fasanerie"
  },
  {
    "postcode": "1561",
    "city": "Großenhain"
  },
  {
    "postcode": "1561",
    "city": "Kraußnitz"
  },
  {
    "postcode": "1561",
    "city": "Lampertswalde"
  },
  {
    "postcode": "1561",
    "city": "Liega"
  },
  {
    "postcode": "1561",
    "city": "Schönfeld"
  },
  {
    "postcode": "1561",
    "city": "Naunhof"
  },
  {
    "postcode": "1561",
    "city": "Reinersdorf"
  },
  {
    "postcode": "1561",
    "city": "Bieberach"
  },
  {
    "postcode": "1561",
    "city": "Rödern"
  },
  {
    "postcode": "1561",
    "city": "Kalkreuth"
  },
  {
    "postcode": "1561",
    "city": "Lauterbach"
  },
  {
    "postcode": "1561",
    "city": "Freitelsdorf"
  },
  {
    "postcode": "1561",
    "city": "Cunnersdorf"
  },
  {
    "postcode": "1561",
    "city": "Ermendorf"
  },
  {
    "postcode": "1561",
    "city": "Hohndorf"
  },
  {
    "postcode": "1561",
    "city": "Beiersdorf"
  },
  {
    "postcode": "1561",
    "city": "Marschau"
  },
  {
    "postcode": "1561",
    "city": "Göhra"
  },
  {
    "postcode": "1561",
    "city": "Stroga"
  },
  {
    "postcode": "1561",
    "city": "Skaup"
  },
  {
    "postcode": "1561",
    "city": "Kleinthiemig"
  },
  {
    "postcode": "1561",
    "city": "Skäßchen"
  },
  {
    "postcode": "1561",
    "city": "Strauch"
  },
  {
    "postcode": "1561",
    "city": "Bauda"
  },
  {
    "postcode": "1561",
    "city": "Nasseböhla"
  },
  {
    "postcode": "1561",
    "city": "Görzig"
  },
  {
    "postcode": "1561",
    "city": "Wildenhain"
  },
  {
    "postcode": "1561",
    "city": "Walda"
  },
  {
    "postcode": "1561",
    "city": "Colmnitz"
  },
  {
    "postcode": "1561",
    "city": "Uebigau"
  },
  {
    "postcode": "1561",
    "city": "Treugeböhla"
  },
  {
    "postcode": "1561",
    "city": "Krauschütz"
  },
  {
    "postcode": "1561",
    "city": "Adelsdorf"
  },
  {
    "postcode": "1561",
    "city": "Blochwitz"
  },
  {
    "postcode": "1561",
    "city": "Oelsnitz"
  },
  {
    "postcode": "1561",
    "city": "Weißig a Raschütz"
  },
  {
    "postcode": "1561",
    "city": "Brockwitz"
  },
  {
    "postcode": "1561",
    "city": "Brößnitz"
  },
  {
    "postcode": "1561",
    "city": "Mühlbach"
  },
  {
    "postcode": "1561",
    "city": "Quersa"
  },
  {
    "postcode": "1561",
    "city": "Schönborn"
  },
  {
    "postcode": "1561",
    "city": "Niegeroda"
  },
  {
    "postcode": "1561",
    "city": "Altleis"
  },
  {
    "postcode": "1561",
    "city": "Lenz"
  },
  {
    "postcode": "1561",
    "city": "Kottewitz"
  },
  {
    "postcode": "1561",
    "city": "Strießen"
  },
  {
    "postcode": "1561",
    "city": "Döschütz"
  },
  {
    "postcode": "1561",
    "city": "Kmehlen"
  },
  {
    "postcode": "1561",
    "city": "Nauleis"
  },
  {
    "postcode": "1561",
    "city": "Baßlitz"
  },
  {
    "postcode": "1561",
    "city": "Böhla-Bahnhof"
  },
  {
    "postcode": "1561",
    "city": "Wantewitz"
  },
  {
    "postcode": "1561",
    "city": "Baselitz"
  },
  {
    "postcode": "1561",
    "city": "Bahnhof Böhla"
  },
  {
    "postcode": "1561",
    "city": "Gävernitz"
  },
  {
    "postcode": "1561",
    "city": "Blattersleben"
  },
  {
    "postcode": "1561",
    "city": "Zottewitz"
  },
  {
    "postcode": "1561",
    "city": "Porschütz"
  },
  {
    "postcode": "1561",
    "city": "Geißlitz"
  },
  {
    "postcode": "1561",
    "city": "Laubach"
  },
  {
    "postcode": "1561",
    "city": "Medessen"
  },
  {
    "postcode": "1561",
    "city": "Piskowitz"
  },
  {
    "postcode": "1561",
    "city": "Stauda"
  },
  {
    "postcode": "1561",
    "city": "Dallwitz"
  },
  {
    "postcode": "1561",
    "city": "Linz"
  },
  {
    "postcode": "1561",
    "city": "Tauscha"
  },
  {
    "postcode": "1561",
    "city": "Würschnitz"
  },
  {
    "postcode": "1561",
    "city": "Naundorf"
  },
  {
    "postcode": "1561",
    "city": "Sacka"
  },
  {
    "postcode": "1561",
    "city": "Dobra"
  },
  {
    "postcode": "1561",
    "city": "Kleinnaundorf"
  },
  {
    "postcode": "1561",
    "city": "Lüttichau"
  },
  {
    "postcode": "1561",
    "city": "Lötzschen"
  },
  {
    "postcode": "1561",
    "city": "Lüttichau-Anbau"
  },
  {
    "postcode": "1561",
    "city": "Stölpchen"
  },
  {
    "postcode": "1561",
    "city": "Zschorna"
  },
  {
    "postcode": "1561",
    "city": "Ponickau"
  },
  {
    "postcode": "1561",
    "city": "Dobra Bad"
  },
  {
    "postcode": "1561",
    "city": "Welxande"
  },
  {
    "postcode": "1587",
    "city": "Riesa"
  },
  {
    "postcode": "1587",
    "city": "Meißen"
  },
  {
    "postcode": "1587",
    "city": "Innenstadt"
  },
  {
    "postcode": "1587",
    "city": "Weida"
  },
  {
    "postcode": "1587",
    "city": "Neugröba"
  },
  {
    "postcode": "1589",
    "city": "Riesa"
  },
  {
    "postcode": "1589",
    "city": "Meißen"
  },
  {
    "postcode": "1589",
    "city": "Pausitz"
  },
  {
    "postcode": "1589",
    "city": "Altriesa"
  },
  {
    "postcode": "1589",
    "city": "Mergendorf"
  },
  {
    "postcode": "1589",
    "city": "Poppitz"
  },
  {
    "postcode": "1589",
    "city": "Pausitzer Delle"
  },
  {
    "postcode": "1589",
    "city": "Innenstadt"
  },
  {
    "postcode": "1589",
    "city": "Göhlis"
  },
  {
    "postcode": "1591",
    "city": "Riesa"
  },
  {
    "postcode": "1591",
    "city": "Meißen"
  },
  {
    "postcode": "1591",
    "city": "Merzdorf"
  },
  {
    "postcode": "1591",
    "city": "Gröba"
  },
  {
    "postcode": "1591",
    "city": "Canitz"
  },
  {
    "postcode": "1591",
    "city": "Pochra"
  },
  {
    "postcode": "1594",
    "city": "Hirschstein bei Riesa"
  },
  {
    "postcode": "1594",
    "city": "Stauchitz"
  },
  {
    "postcode": "1594",
    "city": "Meißen"
  },
  {
    "postcode": "1594",
    "city": "Dösitz"
  },
  {
    "postcode": "1594",
    "city": "Dobernitz"
  },
  {
    "postcode": "1594",
    "city": "Gleina"
  },
  {
    "postcode": "1594",
    "city": "Groptitz"
  },
  {
    "postcode": "1594",
    "city": "Hirschstein"
  },
  {
    "postcode": "1594",
    "city": "Ibanitz"
  },
  {
    "postcode": "1594",
    "city": "Kalbitz"
  },
  {
    "postcode": "1594",
    "city": "Pöhsig"
  },
  {
    "postcode": "1594",
    "city": "Panitz"
  },
  {
    "postcode": "1594",
    "city": "Plotitz"
  },
  {
    "postcode": "1594",
    "city": "Prositz"
  },
  {
    "postcode": "1594",
    "city": "Riesa"
  },
  {
    "postcode": "1594",
    "city": "Seerhausen"
  },
  {
    "postcode": "1594",
    "city": "Stösitz"
  },
  {
    "postcode": "1594",
    "city": "Staucha"
  },
  {
    "postcode": "1594",
    "city": "Steudten"
  },
  {
    "postcode": "1594",
    "city": "Treben"
  },
  {
    "postcode": "1594",
    "city": "Boritz"
  },
  {
    "postcode": "1594",
    "city": "Neuhirschstein"
  },
  {
    "postcode": "1594",
    "city": "Bahra"
  },
  {
    "postcode": "1594",
    "city": "Mehltheuer"
  },
  {
    "postcode": "1594",
    "city": "Prausitz"
  },
  {
    "postcode": "1594",
    "city": "Schänitz"
  },
  {
    "postcode": "1594",
    "city": "Kobeln"
  },
  {
    "postcode": "1594",
    "city": "Heyda"
  },
  {
    "postcode": "1594",
    "city": "Pahrenz"
  },
  {
    "postcode": "1594",
    "city": "Althirschstein"
  },
  {
    "postcode": "1594",
    "city": "Böhla"
  },
  {
    "postcode": "1594",
    "city": "Mautitz"
  },
  {
    "postcode": "1594",
    "city": "Leutewitz"
  },
  {
    "postcode": "1594",
    "city": "Jahnishausen"
  },
  {
    "postcode": "1594",
    "city": "Nickritz"
  },
  {
    "postcode": "1594",
    "city": "Gostewitz"
  },
  {
    "postcode": "1594",
    "city": "Böhlen"
  },
  {
    "postcode": "1594",
    "city": "Oelsitz"
  },
  {
    "postcode": "1594",
    "city": "Ragewitz"
  },
  {
    "postcode": "1594",
    "city": "Hahnefeld"
  },
  {
    "postcode": "1594",
    "city": "Grubnitz"
  },
  {
    "postcode": "1594",
    "city": "Bloßwitz"
  },
  {
    "postcode": "1594",
    "city": "Wilschwitz"
  },
  {
    "postcode": "15229",
    "city": "Biegenbrück"
  },
  {
    "postcode": "15230",
    "city": "Frankfurt (Oder)"
  },
  {
    "postcode": "15230",
    "city": "Frankfurt"
  },
  {
    "postcode": "15230",
    "city": "Frankfurt Oder"
  },
  {
    "postcode": "15232",
    "city": "Frankfurt (Oder)"
  },
  {
    "postcode": "15232",
    "city": "Frankfurt"
  },
  {
    "postcode": "15232",
    "city": "Frankfurt Oder"
  },
  {
    "postcode": "15234",
    "city": "Frankfurt (Oder)"
  },
  {
    "postcode": "15234",
    "city": "Frankfurt"
  },
  {
    "postcode": "15234",
    "city": "Frankfurt Oder"
  },
  {
    "postcode": "15234",
    "city": "Kliestow"
  },
  {
    "postcode": "15234",
    "city": "Rosengarten"
  },
  {
    "postcode": "15234",
    "city": "Booßen"
  },
  {
    "postcode": "15234",
    "city": "Pagram"
  },
  {
    "postcode": "15234",
    "city": "Hohenwalde"
  },
  {
    "postcode": "15234",
    "city": "Lichtenberg"
  },
  {
    "postcode": "15236",
    "city": "Biegen"
  },
  {
    "postcode": "15236",
    "city": "Frankfurt (Oder)"
  },
  {
    "postcode": "15236",
    "city": "Frankfurt"
  },
  {
    "postcode": "15236",
    "city": "Jacobsdorf"
  },
  {
    "postcode": "15236",
    "city": "Jacobsdorf Mark"
  },
  {
    "postcode": "15236",
    "city": "Petersdorf bei Frankfurt Oder"
  },
  {
    "postcode": "15236",
    "city": "Petersdorf bei Frankfurt"
  },
  {
    "postcode": "15236",
    "city": "Petershagen bei Frankfurt Oder"
  },
  {
    "postcode": "15236",
    "city": "Petershagen bei Frankfurt"
  },
  {
    "postcode": "15236",
    "city": "Pillgram"
  },
  {
    "postcode": "15236",
    "city": "Sieversdorf bei Frankfurt / Oder"
  },
  {
    "postcode": "15236",
    "city": "Sieversdorf bei Frankfurt"
  },
  {
    "postcode": "15236",
    "city": "Treplin"
  },
  {
    "postcode": "15236",
    "city": "Zeschdorf"
  },
  {
    "postcode": "15236",
    "city": "Frankfurt Oder"
  },
  {
    "postcode": "15236",
    "city": "Markendorf"
  },
  {
    "postcode": "15236",
    "city": "Lossow"
  },
  {
    "postcode": "15236",
    "city": "Güldendorf"
  },
  {
    "postcode": "15236",
    "city": "Markendorf/Siedlung"
  },
  {
    "postcode": "15236",
    "city": "Hohenwalde"
  },
  {
    "postcode": "15236",
    "city": "Markendorf-Siedlung"
  },
  {
    "postcode": "15236",
    "city": "Sieversdorf"
  },
  {
    "postcode": "15236",
    "city": "Petersdorf"
  },
  {
    "postcode": "15295",
    "city": "Aurith"
  },
  {
    "postcode": "15295",
    "city": "Brieskow-Finkenheerd"
  },
  {
    "postcode": "15295",
    "city": "Ernst-Thälmann-Siedlung"
  },
  {
    "postcode": "15295",
    "city": "Groß Lindow"
  },
  {
    "postcode": "15295",
    "city": "Kunitzer Loose"
  },
  {
    "postcode": "15295",
    "city": "Schlaubehammer"
  },
  {
    "postcode": "15295",
    "city": "Weißenspring"
  },
  {
    "postcode": "15295",
    "city": "Wiesenau"
  },
  {
    "postcode": "15295",
    "city": "Ziltendorf"
  },
  {
    "postcode": "15295",
    "city": "Oder-Spree"
  },
  {
    "postcode": "15299",
    "city": "Dammendorf"
  },
  {
    "postcode": "15299",
    "city": "Dubrow"
  },
  {
    "postcode": "15299",
    "city": "Grunow Niederlausitz"
  },
  {
    "postcode": "15299",
    "city": "Grunow"
  },
  {
    "postcode": "15299",
    "city": "Grunow-Dammendorf"
  },
  {
    "postcode": "15299",
    "city": "Mixdorf"
  },
  {
    "postcode": "15299",
    "city": "Müllrose"
  },
  {
    "postcode": "15299",
    "city": "Oder-Spree"
  },
  {
    "postcode": "15299",
    "city": "Wirchensee Försterei"
  },
  {
    "postcode": "15299",
    "city": "Kaisermühl"
  },
  {
    "postcode": "15299",
    "city": "Biegenbrück"
  },
  {
    "postcode": "15306",
    "city": "Alt Mahlisch"
  },
  {
    "postcode": "15306",
    "city": "Alt Rosenthal"
  },
  {
    "postcode": "15306",
    "city": "Carzig"
  },
  {
    "postcode": "15306",
    "city": "Diedersdorf bei Seelow"
  },
  {
    "postcode": "15306",
    "city": "Döbberin"
  },
  {
    "postcode": "15306",
    "city": "Dolgelin"
  },
  {
    "postcode": "15306",
    "city": "Falkenhagen (Mark)"
  },
  {
    "postcode": "15306",
    "city": "Falkenhagen"
  },
  {
    "postcode": "15306",
    "city": "Fichtenhöhe"
  },
  {
    "postcode": "15306",
    "city": "Friedersdorf Oderbruch"
  },
  {
    "postcode": "15306",
    "city": "Friedersdorf"
  },
  {
    "postcode": "15306",
    "city": "Görlsdorf bei Seelow"
  },
  {
    "postcode": "15306",
    "city": "Gusow"
  },
  {
    "postcode": "15306",
    "city": "Gusow-Platkow"
  },
  {
    "postcode": "15306",
    "city": "Libbenichen"
  },
  {
    "postcode": "15306",
    "city": "Lietzen"
  },
  {
    "postcode": "15306",
    "city": "Lindendorf"
  },
  {
    "postcode": "15306",
    "city": "Marxdorf bei Seelow"
  },
  {
    "postcode": "15306",
    "city": "Neu Mahlisch"
  },
  {
    "postcode": "15306",
    "city": "Neuentempel"
  },
  {
    "postcode": "15306",
    "city": "Niederjesar"
  },
  {
    "postcode": "15306",
    "city": "Platkow"
  },
  {
    "postcode": "15306",
    "city": "Sachsendorf Oderbruch"
  },
  {
    "postcode": "15306",
    "city": "Sachsendorf"
  },
  {
    "postcode": "15306",
    "city": "Seelow"
  },
  {
    "postcode": "15306",
    "city": "Vierlinden"
  },
  {
    "postcode": "15306",
    "city": "Werbig bei Seelow"
  },
  {
    "postcode": "15306",
    "city": "Werder Oderbruch"
  },
  {
    "postcode": "15306",
    "city": "Werder"
  },
  {
    "postcode": "15306",
    "city": "Worin"
  },
  {
    "postcode": "15306",
    "city": "Märkisch-Oderland"
  },
  {
    "postcode": "15306",
    "city": "Georgenthal"
  },
  {
    "postcode": "15306",
    "city": "Regenmantel"
  },
  {
    "postcode": "15306",
    "city": "Karlshof"
  },
  {
    "postcode": "15306",
    "city": "Neuhof"
  },
  {
    "postcode": "15306",
    "city": "Lietzen Vorwerk"
  },
  {
    "postcode": "15306",
    "city": "Lietzen Nord"
  },
  {
    "postcode": "15306",
    "city": "Friedenstal"
  },
  {
    "postcode": "15306",
    "city": "Altlangsow"
  },
  {
    "postcode": "15306",
    "city": "Werbig"
  },
  {
    "postcode": "15306",
    "city": "Neulangsow"
  },
  {
    "postcode": "15306",
    "city": "Neu Werbig"
  },
  {
    "postcode": "15306",
    "city": "Zernickow"
  },
  {
    "postcode": "15306",
    "city": "Görlsdorf"
  },
  {
    "postcode": "15306",
    "city": "Diedersdorf"
  },
  {
    "postcode": "15306",
    "city": "Marxdorf"
  },
  {
    "postcode": "15306",
    "city": "Hedwigshof"
  },
  {
    "postcode": "15306",
    "city": "Waldsiedlung"
  },
  {
    "postcode": "15320",
    "city": "Altbarnim"
  },
  {
    "postcode": "15320",
    "city": "Altfriedland"
  },
  {
    "postcode": "15320",
    "city": "Alttrebbin"
  },
  {
    "postcode": "15320",
    "city": "Jahnsfelde"
  },
  {
    "postcode": "15320",
    "city": "Neuhardenberg"
  },
  {
    "postcode": "15320",
    "city": "Neutrebbin"
  },
  {
    "postcode": "15320",
    "city": "Quappendorf"
  },
  {
    "postcode": "15320",
    "city": "Sietzing"
  },
  {
    "postcode": "15320",
    "city": "Trebnitz bei Müncheberg"
  },
  {
    "postcode": "15320",
    "city": "Wulkow bei Seelow"
  },
  {
    "postcode": "15320",
    "city": "Wuschewier"
  },
  {
    "postcode": "15320",
    "city": "Märkisch-Oderland"
  },
  {
    "postcode": "15320",
    "city": "Gottesgabe"
  },
  {
    "postcode": "15320",
    "city": "Karlsdorf"
  },
  {
    "postcode": "15320",
    "city": "Bärwinkel"
  },
  {
    "postcode": "15320",
    "city": "Wulkow"
  },
  {
    "postcode": "15320",
    "city": "Neufriedland"
  },
  {
    "postcode": "15320",
    "city": "Neufeld"
  },
  {
    "postcode": "15320",
    "city": "Altlewin"
  },
  {
    "postcode": "15320",
    "city": "Horst"
  },
  {
    "postcode": "15320",
    "city": "Neutrebbin-Siedlung"
  },
  {
    "postcode": "15324",
    "city": "Gieshof-Zelliner Loose"
  },
  {
    "postcode": "15324",
    "city": "Groß Neuendorf Oderbruch"
  },
  {
    "postcode": "15324",
    "city": "Groß Neuendorf"
  },
  {
    "postcode": "15324",
    "city": "Kiehnwerder"
  },
  {
    "postcode": "15324",
    "city": "Kienitz"
  },
  {
    "postcode": "15324",
    "city": "Klein Neuendorf"
  },
  {
    "postcode": "15324",
    "city": "Letschin"
  },
  {
    "postcode": "15324",
    "city": "Neubarnim"
  },
  {
    "postcode": "15324",
    "city": "Ortwig"
  },
  {
    "postcode": "15324",
    "city": "Solikante"
  },
  {
    "postcode": "15324",
    "city": "Sophienthal Oderbruch"
  },
  {
    "postcode": "15324",
    "city": "Sophienthal"
  },
  {
    "postcode": "15324",
    "city": "Steintoch"
  },
  {
    "postcode": "15324",
    "city": "Wilhelmsaue"
  },
  {
    "postcode": "15324",
    "city": "Märkisch-Oderland"
  },
  {
    "postcode": "15324",
    "city": "Sietzing"
  },
  {
    "postcode": "15324",
    "city": "Graben"
  },
  {
    "postcode": "15326",
    "city": "Alt Zeschdorf"
  },
  {
    "postcode": "15326",
    "city": "Carzig"
  },
  {
    "postcode": "15326",
    "city": "Döbberin"
  },
  {
    "postcode": "15326",
    "city": "Fichtenhöhe"
  },
  {
    "postcode": "15326",
    "city": "Lebus"
  },
  {
    "postcode": "15326",
    "city": "Mallnow"
  },
  {
    "postcode": "15326",
    "city": "Petershagen bei Frankfurt Oder"
  },
  {
    "postcode": "15326",
    "city": "Petershagen bei Frankfurt"
  },
  {
    "postcode": "15326",
    "city": "Podelzig"
  },
  {
    "postcode": "15326",
    "city": "Schönfließ bei Seelow"
  },
  {
    "postcode": "15326",
    "city": "Wulkow bei Frankfurt Oder"
  },
  {
    "postcode": "15326",
    "city": "Wulkow bei Frankfurt"
  },
  {
    "postcode": "15326",
    "city": "Zeschdorf"
  },
  {
    "postcode": "15326",
    "city": "Märkisch-Oderland"
  },
  {
    "postcode": "15326",
    "city": "Schönfließ"
  },
  {
    "postcode": "15326",
    "city": "Wulkow"
  },
  {
    "postcode": "15326",
    "city": "Wüste Kunersdorf"
  },
  {
    "postcode": "15326",
    "city": "Klessin"
  },
  {
    "postcode": "15326",
    "city": "Wuhden"
  },
  {
    "postcode": "15326",
    "city": "Petershagen"
  },
  {
    "postcode": "15326",
    "city": "Neu Zeschdorf"
  },
  {
    "postcode": "15328",
    "city": "Alt Tucheband"
  },
  {
    "postcode": "15328",
    "city": "Bleyen"
  },
  {
    "postcode": "15328",
    "city": "Bleyen-Genschmar"
  },
  {
    "postcode": "15328",
    "city": "Buschdorf bei Seelow"
  },
  {
    "postcode": "15328",
    "city": "Friedrichsaue bei Seelow"
  },
  {
    "postcode": "15328",
    "city": "Genschmar"
  },
  {
    "postcode": "15328",
    "city": "Golzow Oderbruch"
  },
  {
    "postcode": "15328",
    "city": "Golzow"
  },
  {
    "postcode": "15328",
    "city": "Gorgast"
  },
  {
    "postcode": "15328",
    "city": "Hathenow"
  },
  {
    "postcode": "15328",
    "city": "Küstrin-Kietz"
  },
  {
    "postcode": "15328",
    "city": "Küstriner Vorland"
  },
  {
    "postcode": "15328",
    "city": "Manschnow"
  },
  {
    "postcode": "15328",
    "city": "Rathstock"
  },
  {
    "postcode": "15328",
    "city": "Reitwein"
  },
  {
    "postcode": "15328",
    "city": "Zechin"
  },
  {
    "postcode": "15328",
    "city": "Märkisch-Oderland"
  },
  {
    "postcode": "15328",
    "city": "Neu Tucheband"
  },
  {
    "postcode": "15328",
    "city": "Hackenow"
  },
  {
    "postcode": "15328",
    "city": "Neubleyen"
  },
  {
    "postcode": "15328",
    "city": "Nieschen"
  },
  {
    "postcode": "15328",
    "city": "Wilhelminenhof"
  },
  {
    "postcode": "15328",
    "city": "Henriettenhof"
  },
  {
    "postcode": "15328",
    "city": "Kuhbrücke"
  },
  {
    "postcode": "15328",
    "city": "Neu Manschnow"
  },
  {
    "postcode": "15328",
    "city": "Herzershof"
  },
  {
    "postcode": "15328",
    "city": "Friedrichsaue"
  },
  {
    "postcode": "15328",
    "city": "Buschdorf"
  },
  {
    "postcode": "15344",
    "city": "Hohenstein bei Strausberg"
  },
  {
    "postcode": "15344",
    "city": "Strausberg"
  },
  {
    "postcode": "15344",
    "city": "Märkisch-Oderland"
  },
  {
    "postcode": "15344",
    "city": "Gartenstadt"
  },
  {
    "postcode": "15344",
    "city": "Strausberg Nord"
  },
  {
    "postcode": "15344",
    "city": "Vorstadt"
  },
  {
    "postcode": "15344",
    "city": "Ruhlsdorf"
  },
  {
    "postcode": "15344",
    "city": "Spitzmühle"
  },
  {
    "postcode": "15344",
    "city": "Postbruch"
  },
  {
    "postcode": "15344",
    "city": "Gladowshöhe"
  },
  {
    "postcode": "15344",
    "city": "Hohenstein"
  },
  {
    "postcode": "15344",
    "city": "Fasanenpark"
  },
  {
    "postcode": "15344",
    "city": "Friedrich-Schiller-Höhe"
  },
  {
    "postcode": "15344",
    "city": "Treuenhof"
  },
  {
    "postcode": "15344",
    "city": "Wilhelmshof"
  },
  {
    "postcode": "15345",
    "city": "Altlandsberg"
  },
  {
    "postcode": "15345",
    "city": "Bruchmühle bei Strausberg"
  },
  {
    "postcode": "15345",
    "city": "Buchholz bei Strausberg"
  },
  {
    "postcode": "15345",
    "city": "Eggersdorf bei Strausberg"
  },
  {
    "postcode": "15345",
    "city": "Garzau"
  },
  {
    "postcode": "15345",
    "city": "Garzau-Garzin"
  },
  {
    "postcode": "15345",
    "city": "Garzin"
  },
  {
    "postcode": "15345",
    "city": "Gielsdorf bei Strausberg"
  },
  {
    "postcode": "15345",
    "city": "Harnekop"
  },
  {
    "postcode": "15345",
    "city": "Hohenstein bei Strausberg"
  },
  {
    "postcode": "15345",
    "city": "Hoppegarten bei Müncheberg"
  },
  {
    "postcode": "15345",
    "city": "Kagel"
  },
  {
    "postcode": "15345",
    "city": "Kienbaum"
  },
  {
    "postcode": "15345",
    "city": "Klosterdorf bei Strausberg"
  },
  {
    "postcode": "15345",
    "city": "Lichtenow"
  },
  {
    "postcode": "15345",
    "city": "Liebenhof"
  },
  {
    "postcode": "15345",
    "city": "Möglin"
  },
  {
    "postcode": "15345",
    "city": "Möllensee"
  },
  {
    "postcode": "15345",
    "city": "Oberbarnim"
  },
  {
    "postcode": "15345",
    "city": "Petershagen / Eggersdorf"
  },
  {
    "postcode": "15345",
    "city": "Petershagen"
  },
  {
    "postcode": "15345",
    "city": "Prädikow"
  },
  {
    "postcode": "15345",
    "city": "Prötzel"
  },
  {
    "postcode": "15345",
    "city": "Rehfelde"
  },
  {
    "postcode": "15345",
    "city": "Rehfelde bei Strausberg"
  },
  {
    "postcode": "15345",
    "city": "Reichenow"
  },
  {
    "postcode": "15345",
    "city": "Reichenow-Möglin"
  },
  {
    "postcode": "15345",
    "city": "Sternebeck"
  },
  {
    "postcode": "15345",
    "city": "Wegendorf"
  },
  {
    "postcode": "15345",
    "city": "Werder bei Strausberg"
  },
  {
    "postcode": "15345",
    "city": "Werder Oderbruch"
  },
  {
    "postcode": "15345",
    "city": "Werder"
  },
  {
    "postcode": "15345",
    "city": "Wesendahl"
  },
  {
    "postcode": "15345",
    "city": "Zinndorf"
  },
  {
    "postcode": "15345",
    "city": "Märkisch-Oderland"
  },
  {
    "postcode": "15345",
    "city": "Eggersdorf"
  },
  {
    "postcode": "15345",
    "city": "Petershagen/Eggersdorf"
  },
  {
    "postcode": "15345",
    "city": "Altlandsberg Nord"
  },
  {
    "postcode": "15345",
    "city": "Gielsdorf"
  },
  {
    "postcode": "15345",
    "city": "Wilkendorf"
  },
  {
    "postcode": "15345",
    "city": "Buchholz"
  },
  {
    "postcode": "15345",
    "city": "Seeberg-Siedlung"
  },
  {
    "postcode": "15345",
    "city": "Bruchmühle"
  },
  {
    "postcode": "15345",
    "city": "Neuhönow"
  },
  {
    "postcode": "15345",
    "city": "Seeberg-Dorf"
  },
  {
    "postcode": "15345",
    "city": "Eichenbrandt"
  },
  {
    "postcode": "15345",
    "city": "Paulshof"
  },
  {
    "postcode": "15345",
    "city": "Vorwerk"
  },
  {
    "postcode": "15345",
    "city": "Nord"
  },
  {
    "postcode": "15345",
    "city": "Pohrtsche Siedlung"
  },
  {
    "postcode": "15345",
    "city": "Mitte"
  },
  {
    "postcode": "15345",
    "city": "Süd"
  },
  {
    "postcode": "15345",
    "city": "Bergschäferei"
  },
  {
    "postcode": "15345",
    "city": "Blumenthal"
  },
  {
    "postcode": "15345",
    "city": "Herrensee"
  },
  {
    "postcode": "15345",
    "city": "Rehfelde Dorf"
  },
  {
    "postcode": "15345",
    "city": "Heidekrug"
  },
  {
    "postcode": "15345",
    "city": "Rotes Luch"
  },
  {
    "postcode": "15345",
    "city": "Sophienfelde"
  },
  {
    "postcode": "15345",
    "city": "Herzhorn"
  },
  {
    "postcode": "15366",
    "city": "Dahlwitz-Hoppegarten"
  },
  {
    "postcode": "15366",
    "city": "Hönow"
  },
  {
    "postcode": "15366",
    "city": "Hoppegarten"
  },
  {
    "postcode": "15366",
    "city": "Münchehofe Mark"
  },
  {
    "postcode": "15366",
    "city": "Münchehofe"
  },
  {
    "postcode": "15366",
    "city": "Neuenhagen bei Berlin"
  },
  {
    "postcode": "15366",
    "city": "Märkisch-Oderland"
  },
  {
    "postcode": "15366",
    "city": "Neuenhagen"
  },
  {
    "postcode": "15366",
    "city": "Waldesruh"
  },
  {
    "postcode": "15366",
    "city": "Birkenstein"
  },
  {
    "postcode": "15366",
    "city": "Neu-Birkenstein"
  },
  {
    "postcode": "15366",
    "city": "Dahlwitz"
  },
  {
    "postcode": "15366",
    "city": "Hönow Nord"
  },
  {
    "postcode": "15366",
    "city": "Ravenstein"
  },
  {
    "postcode": "15366",
    "city": "Bollensdorf"
  },
  {
    "postcode": "15366",
    "city": "Elisenhof"
  },
  {
    "postcode": "15370",
    "city": "Bruchmühle bei Strausberg"
  },
  {
    "postcode": "15370",
    "city": "Fredersdorf bei Berlin"
  },
  {
    "postcode": "15370",
    "city": "Fredersdorf-Vogelsdorf"
  },
  {
    "postcode": "15370",
    "city": "Petershagen / Eggersdorf"
  },
  {
    "postcode": "15370",
    "city": "Petershagen"
  },
  {
    "postcode": "15370",
    "city": "Vogelsdorf bei Fredersdorf bei Berlin"
  },
  {
    "postcode": "15370",
    "city": "Märkisch-Oderland"
  },
  {
    "postcode": "15370",
    "city": "Fredersdorf-Nord"
  },
  {
    "postcode": "15370",
    "city": "Vogelsdorf"
  },
  {
    "postcode": "15370",
    "city": "Fredersdorf-Süd"
  },
  {
    "postcode": "15370",
    "city": "Fredersdorf"
  },
  {
    "postcode": "15372",
    "city": "Müncheberg"
  },
  {
    "postcode": "15374",
    "city": "Eggersdorf bei Fürstenwalde Spree"
  },
  {
    "postcode": "15374",
    "city": "Eggersdorf bei Fürstenwalde"
  },
  {
    "postcode": "15374",
    "city": "Hermersdorf / Obersdorf"
  },
  {
    "postcode": "15374",
    "city": "Hermersdorf"
  },
  {
    "postcode": "15374",
    "city": "Hoppegarten bei Müncheberg"
  },
  {
    "postcode": "15374",
    "city": "Jahnsfelde"
  },
  {
    "postcode": "15374",
    "city": "Müncheberg"
  },
  {
    "postcode": "15374",
    "city": "Trebnitz bei Müncheberg"
  },
  {
    "postcode": "15374",
    "city": "Märkisch-Oderland"
  },
  {
    "postcode": "15374",
    "city": "Münchehofe"
  },
  {
    "postcode": "15374",
    "city": "Eggersdorf Siedlung"
  },
  {
    "postcode": "15374",
    "city": "Hoppegarten b Müncheberg"
  },
  {
    "postcode": "15374",
    "city": "Obersdorf"
  },
  {
    "postcode": "15374",
    "city": "Trebnitz"
  },
  {
    "postcode": "15374",
    "city": "Bienenwerder"
  },
  {
    "postcode": "15374",
    "city": "Eggersdorf"
  },
  {
    "postcode": "15374",
    "city": "Marienfeld"
  },
  {
    "postcode": "15374",
    "city": "Neubodengrün"
  },
  {
    "postcode": "15374",
    "city": "Schlagenthin"
  },
  {
    "postcode": "15377",
    "city": "Batzlow"
  },
  {
    "postcode": "15377",
    "city": "Bollersdorf"
  },
  {
    "postcode": "15377",
    "city": "Buckow (Märkische Schweiz)"
  },
  {
    "postcode": "15377",
    "city": "Buckow"
  },
  {
    "postcode": "15377",
    "city": "Ernsthof bei Strausberg"
  },
  {
    "postcode": "15377",
    "city": "Grunow"
  },
  {
    "postcode": "15377",
    "city": "Grunow Märkische Schweiz"
  },
  {
    "postcode": "15377",
    "city": "Ihlow Märkische Schweiz"
  },
  {
    "postcode": "15377",
    "city": "Ihlow"
  },
  {
    "postcode": "15377",
    "city": "Liebenhof"
  },
  {
    "postcode": "15377",
    "city": "Märkische Höhe"
  },
  {
    "postcode": "15377",
    "city": "Oberbarnim"
  },
  {
    "postcode": "15377",
    "city": "Pritzhagen"
  },
  {
    "postcode": "15377",
    "city": "Reichenberg bei Buckow Märkische Schweiz"
  },
  {
    "postcode": "15377",
    "city": "Reichenberg bei Buckow"
  },
  {
    "postcode": "15377",
    "city": "Ringenwalde"
  },
  {
    "postcode": "15377",
    "city": "Waldsieversdorf"
  },
  {
    "postcode": "15377",
    "city": "Märkisch-Oderland"
  },
  {
    "postcode": "15377",
    "city": "Hasenholz"
  },
  {
    "postcode": "15377",
    "city": "Reichenberg"
  },
  {
    "postcode": "15377",
    "city": "Julianenhof"
  },
  {
    "postcode": "15377",
    "city": "Klosterdorf"
  },
  {
    "postcode": "15377",
    "city": "Ernsthof"
  },
  {
    "postcode": "15378",
    "city": "Hennickendorf bei Strausberg"
  },
  {
    "postcode": "15378",
    "city": "Herzfelde bei Strausberg"
  },
  {
    "postcode": "15378",
    "city": "Märkisch-Oderland"
  },
  {
    "postcode": "15378",
    "city": "Hennickendorf"
  },
  {
    "postcode": "15378",
    "city": "Herzfelde"
  },
  {
    "postcode": "15517",
    "city": "Fürstenwalde / Spree"
  },
  {
    "postcode": "15517",
    "city": "Fürstenwalde"
  },
  {
    "postcode": "15517",
    "city": "Fürstenwalde Spree"
  },
  {
    "postcode": "15517",
    "city": "Trebus bei Fürstenwalde Spree"
  },
  {
    "postcode": "15517",
    "city": "Trebus bei Fürstenwalde"
  },
  {
    "postcode": "15517",
    "city": "Oder-Spree"
  },
  {
    "postcode": "15517",
    "city": "Fürstenwalde/Spree"
  },
  {
    "postcode": "15517",
    "city": "Heideland"
  },
  {
    "postcode": "15517",
    "city": "Trebus"
  },
  {
    "postcode": "15517",
    "city": "Molkenberg"
  },
  {
    "postcode": "15518",
    "city": "Alt Madlitz"
  },
  {
    "postcode": "15518",
    "city": "Arensdorf bei Fürstenwalde Spree"
  },
  {
    "postcode": "15518",
    "city": "Arensdorf bei Fürstenwalde"
  },
  {
    "postcode": "15518",
    "city": "Beerfelde"
  },
  {
    "postcode": "15518",
    "city": "Berkenbrück bei Fürstenwalde"
  },
  {
    "postcode": "15518",
    "city": "Biegen"
  },
  {
    "postcode": "15518",
    "city": "Braunsdorf bei Fürstenwalde Spree"
  },
  {
    "postcode": "15518",
    "city": "Braunsdorf bei Fürstenwalde"
  },
  {
    "postcode": "15518",
    "city": "Briesen (Mark)"
  },
  {
    "postcode": "15518",
    "city": "Briesen"
  },
  {
    "postcode": "15518",
    "city": "Buchholz bei Fürstenwalde Spree"
  },
  {
    "postcode": "15518",
    "city": "Buchholz bei Fürstenwalde"
  },
  {
    "postcode": "15518",
    "city": "Demnitz bei Fürstenwalde"
  },
  {
    "postcode": "15518",
    "city": "Eggersdorf bei Fürstenwalde Spree"
  },
  {
    "postcode": "15518",
    "city": "Eggersdorf bei Fürstenwalde"
  },
  {
    "postcode": "15518",
    "city": "Falkenberg bei Fürstenwalde"
  },
  {
    "postcode": "15518",
    "city": "Gölsdorf bei Fürstenwalde Spree"
  },
  {
    "postcode": "15518",
    "city": "Gölsdorf bei Fürstenwalde"
  },
  {
    "postcode": "15518",
    "city": "Grünheide (Mark)"
  },
  {
    "postcode": "15518",
    "city": "Grünheide"
  },
  {
    "postcode": "15518",
    "city": "Hangelsberg"
  },
  {
    "postcode": "15518",
    "city": "Hasenfelde"
  },
  {
    "postcode": "15518",
    "city": "Heinersdorf bei Fürstenwalde Spree"
  },
  {
    "postcode": "15518",
    "city": "Heinersdorf bei Fürstenwalde"
  },
  {
    "postcode": "15518",
    "city": "Jänickendorf bei Fürstenwalde Spree"
  },
  {
    "postcode": "15518",
    "city": "Jänickendorf bei Fürstenwalde"
  },
  {
    "postcode": "15518",
    "city": "Kersdorfer Schleuse"
  },
  {
    "postcode": "15518",
    "city": "Kolpin"
  },
  {
    "postcode": "15518",
    "city": "Langewahl"
  },
  {
    "postcode": "15518",
    "city": "Madlitz-Wilmersdorf"
  },
  {
    "postcode": "15518",
    "city": "Neuendorf im Sande"
  },
  {
    "postcode": "15518",
    "city": "Petersdorf bei Saarow-Pieskow"
  },
  {
    "postcode": "15518",
    "city": "Rauen bei Fürstenwalde"
  },
  {
    "postcode": "15518",
    "city": "Schönfelde"
  },
  {
    "postcode": "15518",
    "city": "Steinhöfel"
  },
  {
    "postcode": "15518",
    "city": "Steinhöfel bei Fürstenwalde"
  },
  {
    "postcode": "15518",
    "city": "Tempelberg bei Fürstenwalde Spree"
  },
  {
    "postcode": "15518",
    "city": "Tempelberg bei Fürstenwalde"
  },
  {
    "postcode": "15518",
    "city": "Trebus bei Fürstenwalde Spree"
  },
  {
    "postcode": "15518",
    "city": "Trebus bei Fürstenwalde"
  },
  {
    "postcode": "15518",
    "city": "Wilmersdorf bei Briesen Mark"
  },
  {
    "postcode": "15518",
    "city": "Wilmersdorf bei Briesen"
  },
  {
    "postcode": "15518",
    "city": "Oder-Spree"
  },
  {
    "postcode": "15518",
    "city": "Berkenbrück"
  },
  {
    "postcode": "15518",
    "city": "Rauen"
  },
  {
    "postcode": "15518",
    "city": "Wilmersdorf"
  },
  {
    "postcode": "15518",
    "city": "Falkenberg"
  },
  {
    "postcode": "15518",
    "city": "Heinersdorf"
  },
  {
    "postcode": "15518",
    "city": "Gölsdorf"
  },
  {
    "postcode": "15518",
    "city": "Arensdorf"
  },
  {
    "postcode": "15518",
    "city": "Jänickendorf"
  },
  {
    "postcode": "15518",
    "city": "Demnitz"
  },
  {
    "postcode": "15518",
    "city": "Buchholz"
  },
  {
    "postcode": "15518",
    "city": "Tempelberg"
  },
  {
    "postcode": "15526",
    "city": "Alt Golm"
  },
  {
    "postcode": "15526",
    "city": "Bad Saarow"
  },
  {
    "postcode": "15526",
    "city": "Bad Saarow-Pieskow"
  },
  {
    "postcode": "15526",
    "city": "Dahmsdorf"
  },
  {
    "postcode": "15526",
    "city": "Kolpin"
  },
  {
    "postcode": "15526",
    "city": "Neu Golm"
  },
  {
    "postcode": "15526",
    "city": "Petersdorf bei Saarow-Pieskow"
  },
  {
    "postcode": "15526",
    "city": "Reichenwalde"
  },
  {
    "postcode": "15526",
    "city": "Rietz-Neuendorf"
  },
  {
    "postcode": "15526",
    "city": "Oder-Spree"
  },
  {
    "postcode": "15526",
    "city": "Petersdorf"
  },
  {
    "postcode": "15526",
    "city": "Silberberg"
  },
  {
    "postcode": "15526",
    "city": "Neureichenwalde"
  },
  {
    "postcode": "15528",
    "city": "Braunsdorf bei Fürstenwalde Spree"
  },
  {
    "postcode": "15528",
    "city": "Braunsdorf bei Fürstenwalde"
  },
  {
    "postcode": "15528",
    "city": "Grünheide (Mark)"
  },
  {
    "postcode": "15528",
    "city": "Grünheide"
  },
  {
    "postcode": "15528",
    "city": "Hartmannsdorf bei Fürstenwalde Spree"
  },
  {
    "postcode": "15528",
    "city": "Hartmannsdorf bei Fürstenwalde"
  },
  {
    "postcode": "15528",
    "city": "Markgrafpieske"
  },
  {
    "postcode": "15528",
    "city": "Mönchwinkel"
  },
  {
    "postcode": "15528",
    "city": "Spreeau"
  },
  {
    "postcode": "15528",
    "city": "Spreenhagen"
  },
  {
    "postcode": "15528",
    "city": "Oder-Spree"
  },
  {
    "postcode": "15528",
    "city": "Hartmannsdorf"
  },
  {
    "postcode": "15528",
    "city": "Braunsdorf"
  },
  {
    "postcode": "15528",
    "city": "Dickdamm"
  },
  {
    "postcode": "15528",
    "city": "Kirchhofen"
  },
  {
    "postcode": "15528",
    "city": "Latzwall"
  },
  {
    "postcode": "15528",
    "city": "Lebbin"
  },
  {
    "postcode": "15537",
    "city": "Burig"
  },
  {
    "postcode": "15537",
    "city": "Erkner"
  },
  {
    "postcode": "15537",
    "city": "Gosen bei Berlin"
  },
  {
    "postcode": "15537",
    "city": "Gosen-Neu Zittau"
  },
  {
    "postcode": "15537",
    "city": "Grünheide"
  },
  {
    "postcode": "15537",
    "city": "Grünheide (Mark)"
  },
  {
    "postcode": "15537",
    "city": "Hangelsberg"
  },
  {
    "postcode": "15537",
    "city": "Kagel"
  },
  {
    "postcode": "15537",
    "city": "Kienbaum"
  },
  {
    "postcode": "15537",
    "city": "Möllensee"
  },
  {
    "postcode": "15537",
    "city": "Mönchwinkel"
  },
  {
    "postcode": "15537",
    "city": "Neu Zittau"
  },
  {
    "postcode": "15537",
    "city": "Spreeau"
  },
  {
    "postcode": "15537",
    "city": "Wernsdorf bei Erkner"
  },
  {
    "postcode": "15537",
    "city": "Dahme-Spreewald"
  },
  {
    "postcode": "15537",
    "city": "Gosen"
  },
  {
    "postcode": "15537",
    "city": "Stadt Berlin"
  },
  {
    "postcode": "15537",
    "city": "Steinfurt"
  },
  {
    "postcode": "15537",
    "city": "Alt Buchhorst"
  },
  {
    "postcode": "15537",
    "city": "Fangschleuse"
  },
  {
    "postcode": "15537",
    "city": "Freienbrink"
  },
  {
    "postcode": "15537",
    "city": "Störitz"
  },
  {
    "postcode": "15562",
    "city": "Rüdersdorf bei Berlin"
  },
  {
    "postcode": "15562",
    "city": "Märkisch-Oderland"
  },
  {
    "postcode": "15562",
    "city": "Rüdersdorf"
  },
  {
    "postcode": "15562",
    "city": "Tasdorf"
  },
  {
    "postcode": "15562",
    "city": "Hortwinkel"
  },
  {
    "postcode": "15562",
    "city": "Alt Rüdersdorf"
  },
  {
    "postcode": "15562",
    "city": "Bergbrück"
  },
  {
    "postcode": "15566",
    "city": "Schöneiche bei Berlin"
  },
  {
    "postcode": "15566",
    "city": "Oder-Spree"
  },
  {
    "postcode": "15566",
    "city": "Schöneiche"
  },
  {
    "postcode": "15566",
    "city": "Stadt Berlin"
  },
  {
    "postcode": "15569",
    "city": "Woltersdorf bei Erkner"
  },
  {
    "postcode": "15569",
    "city": "Oder-Spree"
  },
  {
    "postcode": "15569",
    "city": "Woltersdorf"
  },
  {
    "postcode": "15711",
    "city": "Diepensee"
  },
  {
    "postcode": "15711",
    "city": "Königs Wusterhausen"
  },
  {
    "postcode": "15711",
    "city": "Schenkendorf bei Königs Wusterhausen"
  },
  {
    "postcode": "15711",
    "city": "Zeesen"
  },
  {
    "postcode": "15711",
    "city": "Dahme-Spreewald"
  },
  {
    "postcode": "15711",
    "city": "Neue Mühle"
  },
  {
    "postcode": "15711",
    "city": "Deutsch Wusterhausen"
  },
  {
    "postcode": "15732",
    "city": "Eichwalde"
  },
  {
    "postcode": "15732",
    "city": "Rotberg bei Mittenwalde Mark"
  },
  {
    "postcode": "15732",
    "city": "Rotberg bei Mittenwalde"
  },
  {
    "postcode": "15732",
    "city": "Schulzendorf bei Eichwalde"
  },
  {
    "postcode": "15732",
    "city": "Waltersdorf bei Königs Wusterhausen"
  },
  {
    "postcode": "15732",
    "city": "Dahme-Spreewald"
  },
  {
    "postcode": "15732",
    "city": "Schulzendorf"
  },
  {
    "postcode": "15732",
    "city": "Neuschulzendorf"
  },
  {
    "postcode": "15738",
    "city": "Zeuthen"
  },
  {
    "postcode": "15738",
    "city": "Dahme-Spreewald"
  },
  {
    "postcode": "15738",
    "city": "Miersdorf"
  },
  {
    "postcode": "15738",
    "city": "Miersdorfer Werder"
  },
  {
    "postcode": "15741",
    "city": "Bestensee"
  },
  {
    "postcode": "15741",
    "city": "Gräbendorf bei Königs Wusterhausen"
  },
  {
    "postcode": "15741",
    "city": "Motzen bei Mittenwalde Mark"
  },
  {
    "postcode": "15741",
    "city": "Motzen bei Mittenwalde"
  },
  {
    "postcode": "15741",
    "city": "Pätz"
  },
  {
    "postcode": "15741",
    "city": "Dahme-Spreewald"
  },
  {
    "postcode": "15741",
    "city": "Vordersiedlung"
  },
  {
    "postcode": "15745",
    "city": "Wildau bei Königs Wusterhausen"
  },
  {
    "postcode": "15745",
    "city": "Dahme-Spreewald"
  },
  {
    "postcode": "15745",
    "city": "Wildau"
  },
  {
    "postcode": "15746",
    "city": "Groß Köris"
  },
  {
    "postcode": "15746",
    "city": "Löpten"
  },
  {
    "postcode": "15746",
    "city": "Dahme-Spreewald"
  },
  {
    "postcode": "15746",
    "city": "Klein Köris"
  },
  {
    "postcode": "15746",
    "city": "Siedlung Neubrück"
  },
  {
    "postcode": "15748",
    "city": "Märkisch Buchholz"
  },
  {
    "postcode": "15748",
    "city": "Münchehofe bei Königs Wusterhausen"
  },
  {
    "postcode": "15748",
    "city": "Dahme-Spreewald"
  },
  {
    "postcode": "15748",
    "city": "Münchehofe"
  },
  {
    "postcode": "15748",
    "city": "Köthen"
  },
  {
    "postcode": "15748",
    "city": "Birkholz"
  },
  {
    "postcode": "15748",
    "city": "Hermsdorf"
  },
  {
    "postcode": "15749",
    "city": "Brusendorf"
  },
  {
    "postcode": "15749",
    "city": "Gallun"
  },
  {
    "postcode": "15749",
    "city": "Kiekebusch bei Königs Wusterhausen"
  },
  {
    "postcode": "15749",
    "city": "Mittenwalde Mark"
  },
  {
    "postcode": "15749",
    "city": "Mittenwalde"
  },
  {
    "postcode": "15749",
    "city": "Motzen bei Mittenwalde Mark"
  },
  {
    "postcode": "15749",
    "city": "Motzen bei Mittenwalde"
  },
  {
    "postcode": "15749",
    "city": "Ragow bei Königs Wusterhausen"
  },
  {
    "postcode": "15749",
    "city": "Rotberg bei Mittenwalde Mark"
  },
  {
    "postcode": "15749",
    "city": "Rotberg bei Mittenwalde"
  },
  {
    "postcode": "15749",
    "city": "Schenkendorf bei Königs Wusterhausen"
  },
  {
    "postcode": "15749",
    "city": "Telz"
  },
  {
    "postcode": "15749",
    "city": "Töpchin"
  },
  {
    "postcode": "15749",
    "city": "Dahme-Spreewald"
  },
  {
    "postcode": "15749",
    "city": "Königs Wusterhausen"
  },
  {
    "postcode": "15749",
    "city": "Motzen"
  },
  {
    "postcode": "15749",
    "city": "Ragow"
  },
  {
    "postcode": "15749",
    "city": "Krummensee"
  },
  {
    "postcode": "15749",
    "city": "Schenkendorf"
  },
  {
    "postcode": "15751",
    "city": "Niederlehme"
  },
  {
    "postcode": "15754",
    "city": "Bindow"
  },
  {
    "postcode": "15754",
    "city": "Blossin"
  },
  {
    "postcode": "15754",
    "city": "Dannenreich"
  },
  {
    "postcode": "15754",
    "city": "Dolgenbrodt"
  },
  {
    "postcode": "15754",
    "city": "Friedersdorf bei Königs Wusterhausen"
  },
  {
    "postcode": "15754",
    "city": "Gräbendorf bei Königs Wusterhausen"
  },
  {
    "postcode": "15754",
    "city": "Gussow"
  },
  {
    "postcode": "15754",
    "city": "Heidesee"
  },
  {
    "postcode": "15754",
    "city": "Kolberg bei Prieros"
  },
  {
    "postcode": "15754",
    "city": "Prieros"
  },
  {
    "postcode": "15754",
    "city": "Senzig"
  },
  {
    "postcode": "15754",
    "city": "Streganz"
  },
  {
    "postcode": "15754",
    "city": "Wolzig"
  },
  {
    "postcode": "15754",
    "city": "Dahme-Spreewald"
  },
  {
    "postcode": "15754",
    "city": "Gräbendorf"
  },
  {
    "postcode": "15754",
    "city": "Kolberg"
  },
  {
    "postcode": "15754",
    "city": "Friedersdorf"
  },
  {
    "postcode": "15755",
    "city": "Schwerin bei Königs Wusterhausen"
  },
  {
    "postcode": "15755",
    "city": "Teupitz"
  },
  {
    "postcode": "15755",
    "city": "Töpchin"
  },
  {
    "postcode": "15755",
    "city": "Dahme-Spreewald"
  },
  {
    "postcode": "15755",
    "city": "Schwerin"
  },
  {
    "postcode": "15757",
    "city": "Briesen bei Königs Wusterhausen"
  },
  {
    "postcode": "15757",
    "city": "Freidorf bei Königs Wusterhausen"
  },
  {
    "postcode": "15757",
    "city": "Halbe"
  },
  {
    "postcode": "15757",
    "city": "Löpten"
  },
  {
    "postcode": "15757",
    "city": "Oderin"
  },
  {
    "postcode": "15757",
    "city": "Dahme-Spreewald"
  },
  {
    "postcode": "15757",
    "city": "Brand"
  },
  {
    "postcode": "15757",
    "city": "Briesen"
  },
  {
    "postcode": "15757",
    "city": "Teurow"
  },
  {
    "postcode": "15757",
    "city": "Freidorf"
  },
  {
    "postcode": "15757",
    "city": "Staakmühle"
  },
  {
    "postcode": "15758",
    "city": "Kablow"
  },
  {
    "postcode": "15758",
    "city": "Kablow Ziegelei"
  },
  {
    "postcode": "15758",
    "city": "Zernsdorf"
  },
  {
    "postcode": "15806",
    "city": "Christinendorf"
  },
  {
    "postcode": "15806",
    "city": "Gadsdorf bei Zossen bei Berlin"
  },
  {
    "postcode": "15806",
    "city": "Glienick bei Zossen bei Berlin"
  },
  {
    "postcode": "15806",
    "city": "Groß Machnow"
  },
  {
    "postcode": "15806",
    "city": "Horstfelde"
  },
  {
    "postcode": "15806",
    "city": "Kallinchen"
  },
  {
    "postcode": "15806",
    "city": "Kummersdorf-Alexanderdorf"
  },
  {
    "postcode": "15806",
    "city": "Mellensee"
  },
  {
    "postcode": "15806",
    "city": "Nächst Neuendorf"
  },
  {
    "postcode": "15806",
    "city": "Nunsdorf"
  },
  {
    "postcode": "15806",
    "city": "Rehagen bei Zossen bei Berlin"
  },
  {
    "postcode": "15806",
    "city": "Saalow"
  },
  {
    "postcode": "15806",
    "city": "Schöneiche bei Zossen bei Berlin"
  },
  {
    "postcode": "15806",
    "city": "Schünow"
  },
  {
    "postcode": "15806",
    "city": "Zossen bei Berlin"
  },
  {
    "postcode": "15806",
    "city": "Dahme-Spreewald"
  },
  {
    "postcode": "15806",
    "city": "Zossen"
  },
  {
    "postcode": "15806",
    "city": "Wünsdorf"
  },
  {
    "postcode": "15806",
    "city": "Neuhof"
  },
  {
    "postcode": "15806",
    "city": "Waldstadt"
  },
  {
    "postcode": "15806",
    "city": "Lindenbrück"
  },
  {
    "postcode": "15806",
    "city": "Dabendorf"
  },
  {
    "postcode": "15806",
    "city": "Glienick"
  },
  {
    "postcode": "15806",
    "city": "Zesch am See"
  },
  {
    "postcode": "15806",
    "city": "Schöneiche"
  },
  {
    "postcode": "15806",
    "city": "Werben"
  },
  {
    "postcode": "15806",
    "city": "Funkenmühle"
  },
  {
    "postcode": "15806",
    "city": "Schöneicher Plan"
  },
  {
    "postcode": "15827",
    "city": "Blankenfelde bei Zossen bei Berlin"
  },
  {
    "postcode": "15827",
    "city": "Blankenfelde-Mahlow"
  },
  {
    "postcode": "15827",
    "city": "Dahlewitz"
  },
  {
    "postcode": "15827",
    "city": "Teltow-Fläming"
  },
  {
    "postcode": "15827",
    "city": "Blankenfelde"
  },
  {
    "postcode": "15831",
    "city": "Diedersdorf bei Zossen bei Berlin"
  },
  {
    "postcode": "15831",
    "city": "Groß Kienitz"
  },
  {
    "postcode": "15831",
    "city": "Jühnsdorf"
  },
  {
    "postcode": "15831",
    "city": "Mahlow"
  },
  {
    "postcode": "15831",
    "city": "Waßmannsdorf"
  },
  {
    "postcode": "15831",
    "city": "Dahme-Spreewald"
  },
  {
    "postcode": "15831",
    "city": "Blankenfelde-Mahlow"
  },
  {
    "postcode": "15834",
    "city": "Groß Machnow"
  },
  {
    "postcode": "15834",
    "city": "Rangsdorf"
  },
  {
    "postcode": "15834",
    "city": "Teltow-Fläming"
  },
  {
    "postcode": "15834",
    "city": "Klein Kienitz"
  },
  {
    "postcode": "15837",
    "city": "Baruth / Mark"
  },
  {
    "postcode": "15837",
    "city": "Baruth"
  },
  {
    "postcode": "15837",
    "city": "Dornswalde"
  },
  {
    "postcode": "15837",
    "city": "Groß Ziescht"
  },
  {
    "postcode": "15837",
    "city": "Horstwalde"
  },
  {
    "postcode": "15837",
    "city": "Klasdorf"
  },
  {
    "postcode": "15837",
    "city": "Mückendorf"
  },
  {
    "postcode": "15837",
    "city": "Paplitz bei Zossen bei Berlin"
  },
  {
    "postcode": "15837",
    "city": "Radeland bei Baruth Mark"
  },
  {
    "postcode": "15837",
    "city": "Radeland bei Baruth"
  },
  {
    "postcode": "15837",
    "city": "Schöbendorf"
  },
  {
    "postcode": "15837",
    "city": "Teltow-Fläming"
  },
  {
    "postcode": "15837",
    "city": "Baruth/Mark"
  },
  {
    "postcode": "15837",
    "city": "Radeland"
  },
  {
    "postcode": "15837",
    "city": "Petkus"
  },
  {
    "postcode": "15837",
    "city": "Merzdorf"
  },
  {
    "postcode": "15837",
    "city": "Paplitz"
  },
  {
    "postcode": "15837",
    "city": "Klein-Ziescht"
  },
  {
    "postcode": "15837",
    "city": "Glashütte"
  },
  {
    "postcode": "15837",
    "city": "Kemlitz"
  },
  {
    "postcode": "15837",
    "city": "Ließen"
  },
  {
    "postcode": "15838",
    "city": "Gadsdorf bei Zossen bei Berlin"
  },
  {
    "postcode": "15838",
    "city": "Klausdorf bei Zossen bei Berlin"
  },
  {
    "postcode": "15838",
    "city": "Kummersdorf Gut"
  },
  {
    "postcode": "15838",
    "city": "Kummersdorf-Alexanderdorf"
  },
  {
    "postcode": "15838",
    "city": "Lindenbrück"
  },
  {
    "postcode": "15838",
    "city": "Mellensee"
  },
  {
    "postcode": "15838",
    "city": "Rehagen bei Zossen bei Berlin"
  },
  {
    "postcode": "15838",
    "city": "Saalow"
  },
  {
    "postcode": "15838",
    "city": "Sperenberg"
  },
  {
    "postcode": "15838",
    "city": "Waldstadt bei Wünsdorf"
  },
  {
    "postcode": "15838",
    "city": "Wünsdorf"
  },
  {
    "postcode": "15838",
    "city": "Teltow-Fläming"
  },
  {
    "postcode": "15838",
    "city": "Am Mellensee"
  },
  {
    "postcode": "15838",
    "city": "Rehagen"
  },
  {
    "postcode": "15838",
    "city": "Klausdorf"
  },
  {
    "postcode": "15838",
    "city": "Fernneuendorf"
  },
  {
    "postcode": "15838",
    "city": "Gadsdorf"
  },
  {
    "postcode": "15848",
    "city": "Ahrensdorf"
  },
  {
    "postcode": "15848",
    "city": "Ahrensdorf bei Beeskow"
  },
  {
    "postcode": "15848",
    "city": "Alt Golm"
  },
  {
    "postcode": "15848",
    "city": "Beeskow"
  },
  {
    "postcode": "15848",
    "city": "Behrensdorf"
  },
  {
    "postcode": "15848",
    "city": "Birkholz"
  },
  {
    "postcode": "15848",
    "city": "Bornow"
  },
  {
    "postcode": "15848",
    "city": "Briescht"
  },
  {
    "postcode": "15848",
    "city": "Buckow"
  },
  {
    "postcode": "15848",
    "city": "Chossewitz"
  },
  {
    "postcode": "15848",
    "city": "Drahendorf"
  },
  {
    "postcode": "15848",
    "city": "Falkenberg bei Beeskow"
  },
  {
    "postcode": "15848",
    "city": "Friedland"
  },
  {
    "postcode": "15848",
    "city": "Friedland Mark"
  },
  {
    "postcode": "15848",
    "city": "Giesensdorf bei Beeskow"
  },
  {
    "postcode": "15848",
    "city": "Glienicke bei Beeskow"
  },
  {
    "postcode": "15848",
    "city": "Görsdorf bei Beeskow"
  },
  {
    "postcode": "15848",
    "city": "Görzig"
  },
  {
    "postcode": "15848",
    "city": "Groß Briesen bei Beeskow"
  },
  {
    "postcode": "15848",
    "city": "Groß Muckrow Mühle"
  },
  {
    "postcode": "15848",
    "city": "Groß Rietz"
  },
  {
    "postcode": "15848",
    "city": "Günthersdorf bei Beeskow"
  },
  {
    "postcode": "15848",
    "city": "Herzberg"
  },
  {
    "postcode": "15848",
    "city": "Karras"
  },
  {
    "postcode": "15848",
    "city": "Klein Muckrow"
  },
  {
    "postcode": "15848",
    "city": "Kohlsdorf"
  },
  {
    "postcode": "15848",
    "city": "Kossenblatt"
  },
  {
    "postcode": "15848",
    "city": "Krügersdorf"
  },
  {
    "postcode": "15848",
    "city": "Kummerow bei Beeskow"
  },
  {
    "postcode": "15848",
    "city": "Leißnitz"
  },
  {
    "postcode": "15848",
    "city": "Lindenberg bei Beeskow"
  },
  {
    "postcode": "15848",
    "city": "Lindow bei Beeskow"
  },
  {
    "postcode": "15848",
    "city": "Merz"
  },
  {
    "postcode": "15848",
    "city": "Mittweide"
  },
  {
    "postcode": "15848",
    "city": "Neubrück (Spree)"
  },
  {
    "postcode": "15848",
    "city": "Neubrück"
  },
  {
    "postcode": "15848",
    "city": "Neuendorf bei Beeskow"
  },
  {
    "postcode": "15848",
    "city": "Niewisch"
  },
  {
    "postcode": "15848",
    "city": "Oegeln"
  },
  {
    "postcode": "15848",
    "city": "Pfaffendorf"
  },
  {
    "postcode": "15848",
    "city": "Pieskow"
  },
  {
    "postcode": "15848",
    "city": "Radinkendorf"
  },
  {
    "postcode": "15848",
    "city": "Ragow bei Beeskow"
  },
  {
    "postcode": "15848",
    "city": "Ragow-Merz"
  },
  {
    "postcode": "15848",
    "city": "Ranzig"
  },
  {
    "postcode": "15848",
    "city": "Reudnitz bei Beeskow"
  },
  {
    "postcode": "15848",
    "city": "Rietz-Neuendorf"
  },
  {
    "postcode": "15848",
    "city": "Sauen"
  },
  {
    "postcode": "15848",
    "city": "Schadow"
  },
  {
    "postcode": "15848",
    "city": "Schneeberg bei Beeskow"
  },
  {
    "postcode": "15848",
    "city": "Speichrow"
  },
  {
    "postcode": "15848",
    "city": "Stremmen"
  },
  {
    "postcode": "15848",
    "city": "Tauche"
  },
  {
    "postcode": "15848",
    "city": "Trebatsch"
  },
  {
    "postcode": "15848",
    "city": "Weichensdorf"
  },
  {
    "postcode": "15848",
    "city": "Werder bei Beeskow"
  },
  {
    "postcode": "15848",
    "city": "Wilmersdorf"
  },
  {
    "postcode": "15848",
    "city": "Zeust"
  },
  {
    "postcode": "15848",
    "city": "Dahme-Spreewald"
  },
  {
    "postcode": "15848",
    "city": "Schneeberg"
  },
  {
    "postcode": "15848",
    "city": "Neuendorf"
  },
  {
    "postcode": "15848",
    "city": "Stadt Friedland"
  },
  {
    "postcode": "15848",
    "city": "Groß Briesen"
  },
  {
    "postcode": "15848",
    "city": "Reudnitz"
  },
  {
    "postcode": "15848",
    "city": "Groß Muckrow"
  },
  {
    "postcode": "15848",
    "city": "Günthersdorf"
  },
  {
    "postcode": "15848",
    "city": "Kummerow"
  },
  {
    "postcode": "15848",
    "city": "Lindow"
  },
  {
    "postcode": "15848",
    "city": "Sarkow"
  },
  {
    "postcode": "15848",
    "city": "Ragow"
  },
  {
    "postcode": "15848",
    "city": "Glienicke"
  },
  {
    "postcode": "15848",
    "city": "Hartensdorf"
  },
  {
    "postcode": "15848",
    "city": "Krachtsheide"
  },
  {
    "postcode": "15848",
    "city": "Kunersdorf"
  },
  {
    "postcode": "15848",
    "city": "Raßmannsdorf"
  },
  {
    "postcode": "15848",
    "city": "Lindenberg"
  },
  {
    "postcode": "15848",
    "city": "Werder"
  },
  {
    "postcode": "15848",
    "city": "Görsdorf"
  },
  {
    "postcode": "15848",
    "city": "Giesensdorf"
  },
  {
    "postcode": "15848",
    "city": "Falkenberg"
  },
  {
    "postcode": "15848",
    "city": "Wulfersdorf"
  },
  {
    "postcode": "15859",
    "city": "Alt Stahnsdorf"
  },
  {
    "postcode": "15859",
    "city": "Bugk"
  },
  {
    "postcode": "15859",
    "city": "Görsdorf bei Storkow"
  },
  {
    "postcode": "15859",
    "city": "Groß Eichholz"
  },
  {
    "postcode": "15859",
    "city": "Groß Schauen"
  },
  {
    "postcode": "15859",
    "city": "Kehrigk"
  },
  {
    "postcode": "15859",
    "city": "Kummersdorf bei Storkow Mark"
  },
  {
    "postcode": "15859",
    "city": "Kummersdorf bei Storkow"
  },
  {
    "postcode": "15859",
    "city": "Limsdorf"
  },
  {
    "postcode": "15859",
    "city": "Philadelphia"
  },
  {
    "postcode": "15859",
    "city": "Rieplos"
  },
  {
    "postcode": "15859",
    "city": "Schwerin bei Storkow Mark"
  },
  {
    "postcode": "15859",
    "city": "Schwerin bei Storkow"
  },
  {
    "postcode": "15859",
    "city": "Selchow bei Storkow Mark"
  },
  {
    "postcode": "15859",
    "city": "Selchow bei Storkow"
  },
  {
    "postcode": "15859",
    "city": "Storkow"
  },
  {
    "postcode": "15859",
    "city": "Storkow (Mark)"
  },
  {
    "postcode": "15859",
    "city": "Wochowsee"
  },
  {
    "postcode": "15859",
    "city": "Oder-Spree"
  },
  {
    "postcode": "15859",
    "city": "Klein Schauen"
  },
  {
    "postcode": "15859",
    "city": "Görsdorf"
  },
  {
    "postcode": "15859",
    "city": "Selchow"
  },
  {
    "postcode": "15859",
    "city": "Kummersdorf"
  },
  {
    "postcode": "15859",
    "city": "Schwerin"
  },
  {
    "postcode": "15859",
    "city": "Schwenow"
  },
  {
    "postcode": "15859",
    "city": "Friedensdorf"
  },
  {
    "postcode": "15859",
    "city": "Möllendorf"
  },
  {
    "postcode": "15859",
    "city": "Neu Boston"
  },
  {
    "postcode": "15859",
    "city": "Neu Stahnsdorf"
  },
  {
    "postcode": "15859",
    "city": "Wolfswinkel"
  },
  {
    "postcode": "15864",
    "city": "Ahrensdorf bei Beeskow"
  },
  {
    "postcode": "15864",
    "city": "Dahmsdorf"
  },
  {
    "postcode": "15864",
    "city": "Diensdorf-Radlow"
  },
  {
    "postcode": "15864",
    "city": "Glienicke bei Beeskow"
  },
  {
    "postcode": "15864",
    "city": "Herzberg"
  },
  {
    "postcode": "15864",
    "city": "Limsdorf"
  },
  {
    "postcode": "15864",
    "city": "Lindenberg bei Beeskow"
  },
  {
    "postcode": "15864",
    "city": "Rietz-Neuendorf"
  },
  {
    "postcode": "15864",
    "city": "Wendisch Rietz"
  },
  {
    "postcode": "15864",
    "city": "Oder-Spree"
  },
  {
    "postcode": "15864",
    "city": "Husarenbucht"
  },
  {
    "postcode": "15864",
    "city": "Siedlung"
  },
  {
    "postcode": "15868",
    "city": "Behlow"
  },
  {
    "postcode": "15868",
    "city": "Blasdorf"
  },
  {
    "postcode": "15868",
    "city": "Doberburg"
  },
  {
    "postcode": "15868",
    "city": "Friedland Mark"
  },
  {
    "postcode": "15868",
    "city": "Friedland"
  },
  {
    "postcode": "15868",
    "city": "Goschen"
  },
  {
    "postcode": "15868",
    "city": "Groß Muckrow"
  },
  {
    "postcode": "15868",
    "city": "Groß Muckrow Mühle"
  },
  {
    "postcode": "15868",
    "city": "Jamlitz"
  },
  {
    "postcode": "15868",
    "city": "Klein Muckrow"
  },
  {
    "postcode": "15868",
    "city": "Leeskow bei Lieberose"
  },
  {
    "postcode": "15868",
    "city": "Lieberose"
  },
  {
    "postcode": "15868",
    "city": "Münchhofe"
  },
  {
    "postcode": "15868",
    "city": "Reicherskreuz"
  },
  {
    "postcode": "15868",
    "city": "Staakow bei Beeskow"
  },
  {
    "postcode": "15868",
    "city": "Trebitz bei Beeskow"
  },
  {
    "postcode": "15868",
    "city": "Ullersdorf bei Beeskow"
  },
  {
    "postcode": "15868",
    "city": "Dahme-Spreewald"
  },
  {
    "postcode": "15868",
    "city": "Ullersdorf"
  },
  {
    "postcode": "15868",
    "city": "Leeskow"
  },
  {
    "postcode": "15868",
    "city": "Mochlitz"
  },
  {
    "postcode": "15868",
    "city": "Barold"
  },
  {
    "postcode": "15868",
    "city": "Damme"
  },
  {
    "postcode": "15868",
    "city": "Gander"
  },
  {
    "postcode": "15868",
    "city": "Hollbrunn"
  },
  {
    "postcode": "15868",
    "city": "Trebitz"
  },
  {
    "postcode": "15890",
    "city": "Bremsdorf"
  },
  {
    "postcode": "15890",
    "city": "Bremsdorfer Mühle"
  },
  {
    "postcode": "15890",
    "city": "Diehlo"
  },
  {
    "postcode": "15890",
    "city": "Eisenhüttenstadt"
  },
  {
    "postcode": "15890",
    "city": "Fünfeichen"
  },
  {
    "postcode": "15890",
    "city": "Fürstenberg (Oder)"
  },
  {
    "postcode": "15890",
    "city": "Fürstenberg"
  },
  {
    "postcode": "15890",
    "city": "Kieselwitz"
  },
  {
    "postcode": "15890",
    "city": "Kobbeln"
  },
  {
    "postcode": "15890",
    "city": "Möbiskruge"
  },
  {
    "postcode": "15890",
    "city": "Pohlitz"
  },
  {
    "postcode": "15890",
    "city": "Rautenkranz"
  },
  {
    "postcode": "15890",
    "city": "Rießen"
  },
  {
    "postcode": "15890",
    "city": "Schernsdorf"
  },
  {
    "postcode": "15890",
    "city": "Schlaubetal"
  },
  {
    "postcode": "15890",
    "city": "Schönfließ"
  },
  {
    "postcode": "15890",
    "city": "Siehdichum"
  },
  {
    "postcode": "15890",
    "city": "Vogelsang"
  },
  {
    "postcode": "15890",
    "city": "Oder-Spree"
  },
  {
    "postcode": "15890",
    "city": "Schervenzsee"
  },
  {
    "postcode": "15898",
    "city": "Bahro"
  },
  {
    "postcode": "15898",
    "city": "Bomsdorf"
  },
  {
    "postcode": "15898",
    "city": "Breslack"
  },
  {
    "postcode": "15898",
    "city": "Coschen"
  },
  {
    "postcode": "15898",
    "city": "Göhlen"
  },
  {
    "postcode": "15898",
    "city": "Henzendorf"
  },
  {
    "postcode": "15898",
    "city": "Kobbeln"
  },
  {
    "postcode": "15898",
    "city": "Lawitz"
  },
  {
    "postcode": "15898",
    "city": "Möbiskruge"
  },
  {
    "postcode": "15898",
    "city": "Neißemünde"
  },
  {
    "postcode": "15898",
    "city": "Neuzelle"
  },
  {
    "postcode": "15898",
    "city": "Ossendorf bei Eisenhüttenstadt"
  },
  {
    "postcode": "15898",
    "city": "Ratzdorf"
  },
  {
    "postcode": "15898",
    "city": "Schwerzko"
  },
  {
    "postcode": "15898",
    "city": "Steinsdorf"
  },
  {
    "postcode": "15898",
    "city": "Streichwitz"
  },
  {
    "postcode": "15898",
    "city": "Treppeln"
  },
  {
    "postcode": "15898",
    "city": "Wellmitz"
  },
  {
    "postcode": "15898",
    "city": "Oder-Spree"
  },
  {
    "postcode": "15898",
    "city": "Ossendorf"
  },
  {
    "postcode": "15907",
    "city": "Hartmannsdorf Spreewald"
  },
  {
    "postcode": "15907",
    "city": "Hartmannsdorf"
  },
  {
    "postcode": "15907",
    "city": "Lübben (Spreewald)"
  },
  {
    "postcode": "15907",
    "city": "Lübben"
  },
  {
    "postcode": "15907",
    "city": "Lubolz"
  },
  {
    "postcode": "15907",
    "city": "Radensdorf Spreewald"
  },
  {
    "postcode": "15907",
    "city": "Radensdorf"
  },
  {
    "postcode": "15907",
    "city": "Dahme-Spreewald"
  },
  {
    "postcode": "15907",
    "city": "Treppendorf"
  },
  {
    "postcode": "15907",
    "city": "Neuendorf"
  },
  {
    "postcode": "15910",
    "city": "Alt-Schadow"
  },
  {
    "postcode": "15910",
    "city": "Bersteland"
  },
  {
    "postcode": "15910",
    "city": "Dürrenhofe"
  },
  {
    "postcode": "15910",
    "city": "Freiwalde"
  },
  {
    "postcode": "15910",
    "city": "Gröditsch"
  },
  {
    "postcode": "15910",
    "city": "Groß Wasserburg"
  },
  {
    "postcode": "15910",
    "city": "Hohenbrück-Neu Schadow"
  },
  {
    "postcode": "15910",
    "city": "Krausnick"
  },
  {
    "postcode": "15910",
    "city": "Krausnick-Groß Wasserburg"
  },
  {
    "postcode": "15910",
    "city": "Kuschkow"
  },
  {
    "postcode": "15910",
    "city": "Leibsch"
  },
  {
    "postcode": "15910",
    "city": "Neu Lübbenau"
  },
  {
    "postcode": "15910",
    "city": "Neuendorf am See"
  },
  {
    "postcode": "15910",
    "city": "Niewitz"
  },
  {
    "postcode": "15910",
    "city": "Pretschen"
  },
  {
    "postcode": "15910",
    "city": "Reichwalde bei Luckau Niederlausitz"
  },
  {
    "postcode": "15910",
    "city": "Reichwalde bei Luckau"
  },
  {
    "postcode": "15910",
    "city": "Rietzneuendorf-Friedrichshof"
  },
  {
    "postcode": "15910",
    "city": "Rietzneuendorf-Staakow"
  },
  {
    "postcode": "15910",
    "city": "Schlepzig"
  },
  {
    "postcode": "15910",
    "city": "Schönwald bei Lübben"
  },
  {
    "postcode": "15910",
    "city": "Schönwalde bei Lübben"
  },
  {
    "postcode": "15910",
    "city": "Schuhlen-Wiese"
  },
  {
    "postcode": "15910",
    "city": "Staakow Niederlausitz"
  },
  {
    "postcode": "15910",
    "city": "Staakow"
  },
  {
    "postcode": "15910",
    "city": "Unterspreewald"
  },
  {
    "postcode": "15910",
    "city": "Waldow"
  },
  {
    "postcode": "15910",
    "city": "Wittmannsdorf-Bückchen Niederlausitz"
  },
  {
    "postcode": "15910",
    "city": "Wittmannsdorf-Bückchen"
  },
  {
    "postcode": "15910",
    "city": "Dahme-Spreewald"
  },
  {
    "postcode": "15910",
    "city": "Schönwald"
  },
  {
    "postcode": "15910",
    "city": "Reichwalde"
  },
  {
    "postcode": "15910",
    "city": "Rietzneuendorf"
  },
  {
    "postcode": "15910",
    "city": "Friedrichshof"
  },
  {
    "postcode": "15910",
    "city": "Schönwalde"
  },
  {
    "postcode": "15910",
    "city": "Damm"
  },
  {
    "postcode": "15913",
    "city": "Alt Zauche"
  },
  {
    "postcode": "15913",
    "city": "Alt Zauche-Wußwerk"
  },
  {
    "postcode": "15913",
    "city": "Alt-Schadow"
  },
  {
    "postcode": "15913",
    "city": "Am See"
  },
  {
    "postcode": "15913",
    "city": "Am Weinberg"
  },
  {
    "postcode": "15913",
    "city": "Biebersdorf"
  },
  {
    "postcode": "15913",
    "city": "Briesensee"
  },
  {
    "postcode": "15913",
    "city": "Buschmühle"
  },
  {
    "postcode": "15913",
    "city": "Butzen bei Lübben"
  },
  {
    "postcode": "15913",
    "city": "Byhleguhre"
  },
  {
    "postcode": "15913",
    "city": "Byhleguhre-Byhlen"
  },
  {
    "postcode": "15913",
    "city": "Byhlen"
  },
  {
    "postcode": "15913",
    "city": "Caminchen"
  },
  {
    "postcode": "15913",
    "city": "Dollgen"
  },
  {
    "postcode": "15913",
    "city": "Dürrenhofe"
  },
  {
    "postcode": "15913",
    "city": "Forsthaus"
  },
  {
    "postcode": "15913",
    "city": "Glietz"
  },
  {
    "postcode": "15913",
    "city": "Goyatz"
  },
  {
    "postcode": "15913",
    "city": "Grobbe"
  },
  {
    "postcode": "15913",
    "city": "Gröditsch"
  },
  {
    "postcode": "15913",
    "city": "Groß Leine"
  },
  {
    "postcode": "15913",
    "city": "Groß Leuthen"
  },
  {
    "postcode": "15913",
    "city": "Hohenbrück-Neu Schadow"
  },
  {
    "postcode": "15913",
    "city": "Jessern"
  },
  {
    "postcode": "15913",
    "city": "Kaupen"
  },
  {
    "postcode": "15913",
    "city": "Klein Leine"
  },
  {
    "postcode": "15913",
    "city": "Kokainz"
  },
  {
    "postcode": "15913",
    "city": "Krugau"
  },
  {
    "postcode": "15913",
    "city": "Kuschkow"
  },
  {
    "postcode": "15913",
    "city": "Laasow Spreewald"
  },
  {
    "postcode": "15913",
    "city": "Laasow"
  },
  {
    "postcode": "15913",
    "city": "Lamsfeld-Groß Liebitz"
  },
  {
    "postcode": "15913",
    "city": "Leibchel"
  },
  {
    "postcode": "15913",
    "city": "Märkische Heide"
  },
  {
    "postcode": "15913",
    "city": "Mochow"
  },
  {
    "postcode": "15913",
    "city": "Mühlendorf"
  },
  {
    "postcode": "15913",
    "city": "Neu Zauche"
  },
  {
    "postcode": "15913",
    "city": "Neu-Byhleguhre"
  },
  {
    "postcode": "15913",
    "city": "Plattkow"
  },
  {
    "postcode": "15913",
    "city": "Pretschen"
  },
  {
    "postcode": "15913",
    "city": "Radensdorf Spreewald"
  },
  {
    "postcode": "15913",
    "city": "Radensdorf"
  },
  {
    "postcode": "15913",
    "city": "Ressen-Zaue"
  },
  {
    "postcode": "15913",
    "city": "Sacrow"
  },
  {
    "postcode": "15913",
    "city": "Sacrow-Waldow"
  },
  {
    "postcode": "15913",
    "city": "Schuhlen-Wiese"
  },
  {
    "postcode": "15913",
    "city": "Schwielochsee"
  },
  {
    "postcode": "15913",
    "city": "Siedlung"
  },
  {
    "postcode": "15913",
    "city": "Siegadel"
  },
  {
    "postcode": "15913",
    "city": "Speichrow"
  },
  {
    "postcode": "15913",
    "city": "Spreewaldheide"
  },
  {
    "postcode": "15913",
    "city": "Straupitz"
  },
  {
    "postcode": "15913",
    "city": "Wittmannsdorf-Bückchen Niederlausitz"
  },
  {
    "postcode": "15913",
    "city": "Wittmannsdorf-Bückchen"
  },
  {
    "postcode": "15913",
    "city": "Wußwerk"
  },
  {
    "postcode": "15913",
    "city": "Dahme-Spreewald"
  },
  {
    "postcode": "15913",
    "city": "Hohenbrück"
  },
  {
    "postcode": "15913",
    "city": "Wittmannsdorf"
  },
  {
    "postcode": "15913",
    "city": "Birkenhainchen"
  },
  {
    "postcode": "15913",
    "city": "Neu Schadow"
  },
  {
    "postcode": "15913",
    "city": "Klein Leuthen"
  },
  {
    "postcode": "15913",
    "city": "Schuhlen"
  },
  {
    "postcode": "15913",
    "city": "Weinberg"
  },
  {
    "postcode": "15913",
    "city": "Lamsfeld"
  },
  {
    "postcode": "15913",
    "city": "Zaue"
  },
  {
    "postcode": "15913",
    "city": "Ressen"
  },
  {
    "postcode": "15913",
    "city": "Groß Liebitz"
  },
  {
    "postcode": "15913",
    "city": "Butzen"
  },
  {
    "postcode": "15913",
    "city": "Waldow"
  },
  {
    "postcode": "15926",
    "city": "Beesdau"
  },
  {
    "postcode": "15926",
    "city": "Bergen Niederlausitz"
  },
  {
    "postcode": "15926",
    "city": "Bergen"
  },
  {
    "postcode": "15926",
    "city": "Bersteland"
  },
  {
    "postcode": "15926",
    "city": "Berstequell"
  },
  {
    "postcode": "15926",
    "city": "Bornsdorf"
  },
  {
    "postcode": "15926",
    "city": "Cahnsdorf"
  },
  {
    "postcode": "15926",
    "city": "Duben"
  },
  {
    "postcode": "15926",
    "city": "Egsdorf Niederlausitz"
  },
  {
    "postcode": "15926",
    "city": "Egsdorf"
  },
  {
    "postcode": "15926",
    "city": "Falkenberg bei Uckro"
  },
  {
    "postcode": "15926",
    "city": "Freesdorf"
  },
  {
    "postcode": "15926",
    "city": "Freiwalde"
  },
  {
    "postcode": "15926",
    "city": "Fürstlich Drehna"
  },
  {
    "postcode": "15926",
    "city": "Gehren Niederlausitz"
  },
  {
    "postcode": "15926",
    "city": "Gehren"
  },
  {
    "postcode": "15926",
    "city": "Gießmannsdorf"
  },
  {
    "postcode": "15926",
    "city": "Görlsdorf Niederlausitz"
  },
  {
    "postcode": "15926",
    "city": "Görlsdorf"
  },
  {
    "postcode": "15926",
    "city": "Goßmar bei Luckau Niederlausitz"
  },
  {
    "postcode": "15926",
    "city": "Goßmar bei Luckau"
  },
  {
    "postcode": "15926",
    "city": "Heideblick"
  },
  {
    "postcode": "15926",
    "city": "Karche-Zaacko"
  },
  {
    "postcode": "15926",
    "city": "Kemlitz Niederlausitz"
  },
  {
    "postcode": "15926",
    "city": "Kemlitz"
  },
  {
    "postcode": "15926",
    "city": "Kreblitz"
  },
  {
    "postcode": "15926",
    "city": "Kümmritz"
  },
  {
    "postcode": "15926",
    "city": "Langengrassau"
  },
  {
    "postcode": "15926",
    "city": "Luckau Niederlausitz"
  },
  {
    "postcode": "15926",
    "city": "Luckau"
  },
  {
    "postcode": "15926",
    "city": "Niewitz"
  },
  {
    "postcode": "15926",
    "city": "Pitschen-Pickel"
  },
  {
    "postcode": "15926",
    "city": "Reichwalde bei Luckau Niederlausitz"
  },
  {
    "postcode": "15926",
    "city": "Reichwalde bei Luckau"
  },
  {
    "postcode": "15926",
    "city": "Riedebeck Niederlausitz"
  },
  {
    "postcode": "15926",
    "city": "Riedebeck"
  },
  {
    "postcode": "15926",
    "city": "Schlabendorf"
  },
  {
    "postcode": "15926",
    "city": "Terpt"
  },
  {
    "postcode": "15926",
    "city": "Uckro"
  },
  {
    "postcode": "15926",
    "city": "Walddrehna"
  },
  {
    "postcode": "15926",
    "city": "Waltersdorf Niederlausitz"
  },
  {
    "postcode": "15926",
    "city": "Waltersdorf"
  },
  {
    "postcode": "15926",
    "city": "Weißack"
  },
  {
    "postcode": "15926",
    "city": "Willmersdorf-Stöbritz Niederlausitz"
  },
  {
    "postcode": "15926",
    "city": "Willmersdorf-Stöbritz"
  },
  {
    "postcode": "15926",
    "city": "Wüstermarke"
  },
  {
    "postcode": "15926",
    "city": "Zieckau"
  },
  {
    "postcode": "15926",
    "city": "Zöllmersdorf"
  },
  {
    "postcode": "15926",
    "city": "Dahme-Spreewald"
  },
  {
    "postcode": "15926",
    "city": "Falkenberg"
  },
  {
    "postcode": "15926",
    "city": "Goßmar"
  },
  {
    "postcode": "15926",
    "city": "Caule"
  },
  {
    "postcode": "15926",
    "city": "Frankendorf"
  },
  {
    "postcode": "15926",
    "city": "Freiimfelde"
  },
  {
    "postcode": "15926",
    "city": "Garrenchen"
  },
  {
    "postcode": "15926",
    "city": "Rüdingsdorf"
  },
  {
    "postcode": "15926",
    "city": "Karche"
  },
  {
    "postcode": "15926",
    "city": "Wittmannsdorf"
  },
  {
    "postcode": "15926",
    "city": "Pelkwitz"
  },
  {
    "postcode": "15926",
    "city": "Schollen"
  },
  {
    "postcode": "15926",
    "city": "Paserin"
  },
  {
    "postcode": "15926",
    "city": "Wierigsdorf"
  },
  {
    "postcode": "15926",
    "city": "Zaacko"
  },
  {
    "postcode": "15936",
    "city": "Bollensdorf"
  },
  {
    "postcode": "15936",
    "city": "Dahme / Mark"
  },
  {
    "postcode": "15936",
    "city": "Dahme"
  },
  {
    "postcode": "15936",
    "city": "Dahmetal"
  },
  {
    "postcode": "15936",
    "city": "Gebersdorf Mark"
  },
  {
    "postcode": "15936",
    "city": "Gebersdorf"
  },
  {
    "postcode": "15936",
    "city": "Görsdorf Niederlausitz"
  },
  {
    "postcode": "15936",
    "city": "Görsdorf"
  },
  {
    "postcode": "15936",
    "city": "Mehlsdorf"
  },
  {
    "postcode": "15936",
    "city": "Niendorf bei Dahme Mark"
  },
  {
    "postcode": "15936",
    "city": "Niendorf bei Dahme"
  },
  {
    "postcode": "15936",
    "city": "Prensdorf"
  },
  {
    "postcode": "15936",
    "city": "Rietdorf"
  },
  {
    "postcode": "15936",
    "city": "Rosenthal Mark"
  },
  {
    "postcode": "15936",
    "city": "Rosenthal"
  },
  {
    "postcode": "15936",
    "city": "Dahme-Spreewald"
  },
  {
    "postcode": "15936",
    "city": "Dahme/Mark"
  },
  {
    "postcode": "15936",
    "city": "Ihlow"
  },
  {
    "postcode": "15936",
    "city": "Kemlitz"
  },
  {
    "postcode": "15936",
    "city": "Wahlsdorf"
  },
  {
    "postcode": "15936",
    "city": "Heinsdorf"
  },
  {
    "postcode": "15936",
    "city": "Buckow"
  },
  {
    "postcode": "15936",
    "city": "Schöna-Kolpien"
  },
  {
    "postcode": "15936",
    "city": "Zagelsdorf"
  },
  {
    "postcode": "15936",
    "city": "Niebendorf-Heinsdorf"
  },
  {
    "postcode": "15936",
    "city": "Niebendorf"
  },
  {
    "postcode": "15936",
    "city": "Schlagsdorf"
  },
  {
    "postcode": "15936",
    "city": "Schwebendorf"
  },
  {
    "postcode": "15936",
    "city": "Sieb"
  },
  {
    "postcode": "15936",
    "city": "Wildau-Wentdorf"
  },
  {
    "postcode": "15936",
    "city": "Niendorf"
  },
  {
    "postcode": "15936",
    "city": "Illmersdorf"
  },
  {
    "postcode": "15936",
    "city": "Karlsdorf"
  },
  {
    "postcode": "15938",
    "city": "Altgolßen"
  },
  {
    "postcode": "15938",
    "city": "Damsdorf"
  },
  {
    "postcode": "15938",
    "city": "Drahnsdorf"
  },
  {
    "postcode": "15938",
    "city": "Falkenhain Niederlausitz"
  },
  {
    "postcode": "15938",
    "city": "Falkenhain"
  },
  {
    "postcode": "15938",
    "city": "Gersdorf"
  },
  {
    "postcode": "15938",
    "city": "Glienig"
  },
  {
    "postcode": "15938",
    "city": "Golßen"
  },
  {
    "postcode": "15938",
    "city": "Hohendorf"
  },
  {
    "postcode": "15938",
    "city": "Jetsch"
  },
  {
    "postcode": "15938",
    "city": "Kasel-Golzig"
  },
  {
    "postcode": "15938",
    "city": "Krossen"
  },
  {
    "postcode": "15938",
    "city": "Kümmritz"
  },
  {
    "postcode": "15938",
    "city": "Landwehr"
  },
  {
    "postcode": "15938",
    "city": "Mahlsdorf Mark"
  },
  {
    "postcode": "15938",
    "city": "Mahlsdorf"
  },
  {
    "postcode": "15938",
    "city": "Prierow"
  },
  {
    "postcode": "15938",
    "city": "Reichwalde bei Luckau Niederlausitz"
  },
  {
    "postcode": "15938",
    "city": "Reichwalde bei Luckau"
  },
  {
    "postcode": "15938",
    "city": "Sagritz"
  },
  {
    "postcode": "15938",
    "city": "Schäcksdorf"
  },
  {
    "postcode": "15938",
    "city": "Schenkendorf"
  },
  {
    "postcode": "15938",
    "city": "Schiebsdorf"
  },
  {
    "postcode": "15938",
    "city": "Schöneiche"
  },
  {
    "postcode": "15938",
    "city": "Sellendorf"
  },
  {
    "postcode": "15938",
    "city": "Steinreich"
  },
  {
    "postcode": "15938",
    "city": "Wildau-Wentdorf Niederlausitz"
  },
  {
    "postcode": "15938",
    "city": "Wildau-Wentdorf"
  },
  {
    "postcode": "15938",
    "city": "Zauche"
  },
  {
    "postcode": "15938",
    "city": "Zützen Niederlausitz"
  },
  {
    "postcode": "15938",
    "city": "Zützen"
  },
  {
    "postcode": "15938",
    "city": "Dahme-Spreewald"
  },
  {
    "postcode": "15712",
    "city": "Dahme-Spreewald"
  },
  {
    "postcode": "15712",
    "city": "Königs Wusterhausen"
  },
  {
    "postcode": "15712",
    "city": "Senzig"
  },
  {
    "postcode": "15712",
    "city": "Zernsdorf"
  },
  {
    "postcode": "15712",
    "city": "Kablow"
  },
  {
    "postcode": "15713",
    "city": "Dahme-Spreewald"
  },
  {
    "postcode": "15713",
    "city": "Königs Wusterhausen"
  },
  {
    "postcode": "15713",
    "city": "Wernsdorf"
  },
  {
    "postcode": "15713",
    "city": "Niederlehme"
  }
]