[
  {
    "postcode": "87435",
    "city": "Adelharz Allgäu"
  },
  {
    "postcode": "87435",
    "city": "Adelharz"
  },
  {
    "postcode": "87435",
    "city": "Eich Allgäu"
  },
  {
    "postcode": "87435",
    "city": "Eich"
  },
  {
    "postcode": "87435",
    "city": "Haslach"
  },
  {
    "postcode": "87435",
    "city": "Kempten"
  },
  {
    "postcode": "87435",
    "city": "Kempten (Allgäu)"
  },
  {
    "postcode": "87435",
    "city": "Rothkreuz Allgäu"
  },
  {
    "postcode": "87435",
    "city": "Rothkreuz"
  },
  {
    "postcode": "87435",
    "city": "Steufzgen Allgäu"
  },
  {
    "postcode": "87435",
    "city": "Steufzgen"
  },
  {
    "postcode": "87435",
    "city": "Kempten Allgäu"
  },
  {
    "postcode": "87437",
    "city": "Binzenried Allgäu"
  },
  {
    "postcode": "87437",
    "city": "Binzenried"
  },
  {
    "postcode": "87437",
    "city": "Bockarten Allgäu"
  },
  {
    "postcode": "87437",
    "city": "Bockarten"
  },
  {
    "postcode": "87437",
    "city": "Haßberg Allgäu"
  },
  {
    "postcode": "87437",
    "city": "Haßberg"
  },
  {
    "postcode": "87437",
    "city": "Hub"
  },
  {
    "postcode": "87437",
    "city": "Kargen Allgäu"
  },
  {
    "postcode": "87437",
    "city": "Kargen"
  },
  {
    "postcode": "87437",
    "city": "Kempten"
  },
  {
    "postcode": "87437",
    "city": "Kempten (Allgäu)"
  },
  {
    "postcode": "87437",
    "city": "Lenzfried"
  },
  {
    "postcode": "87437",
    "city": "Letten Allgäu"
  },
  {
    "postcode": "87437",
    "city": "Letten"
  },
  {
    "postcode": "87437",
    "city": "Leubas Allgäu"
  },
  {
    "postcode": "87437",
    "city": "Leubas"
  },
  {
    "postcode": "87437",
    "city": "Leupolz Allgäu"
  },
  {
    "postcode": "87437",
    "city": "Leupolz"
  },
  {
    "postcode": "87437",
    "city": "Leupratsried Allgäu"
  },
  {
    "postcode": "87437",
    "city": "Leupratsried"
  },
  {
    "postcode": "87437",
    "city": "Moos Stadt Kempten"
  },
  {
    "postcode": "87437",
    "city": "Moos"
  },
  {
    "postcode": "87437",
    "city": "Reinharts Allgäu"
  },
  {
    "postcode": "87437",
    "city": "Reinharts"
  },
  {
    "postcode": "87437",
    "city": "Rößlings Allgäu"
  },
  {
    "postcode": "87437",
    "city": "Rößlings"
  },
  {
    "postcode": "87437",
    "city": "Sankt Mang"
  },
  {
    "postcode": "87437",
    "city": "Ursulasried Allgäu"
  },
  {
    "postcode": "87437",
    "city": "Ursulasried"
  },
  {
    "postcode": "87437",
    "city": "Wettmannsberg Allgäu"
  },
  {
    "postcode": "87437",
    "city": "Wettmannsberg"
  },
  {
    "postcode": "87437",
    "city": "Kempten Allgäu"
  },
  {
    "postcode": "87437",
    "city": "St. Mang"
  },
  {
    "postcode": "87437",
    "city": "Bühl"
  },
  {
    "postcode": "87439",
    "city": "Härtnagel Allgäu"
  },
  {
    "postcode": "87439",
    "city": "Härtnagel"
  },
  {
    "postcode": "87439",
    "city": "Heiligkreuz Allgäu"
  },
  {
    "postcode": "87439",
    "city": "Heiligkreuz"
  },
  {
    "postcode": "87439",
    "city": "Hirschdorf Allgäu"
  },
  {
    "postcode": "87439",
    "city": "Hirschdorf"
  },
  {
    "postcode": "87439",
    "city": "Kempten"
  },
  {
    "postcode": "87439",
    "city": "Kempten (Allgäu)"
  },
  {
    "postcode": "87439",
    "city": "Mariaberg Allgäu"
  },
  {
    "postcode": "87439",
    "city": "Mariaberg"
  },
  {
    "postcode": "87439",
    "city": "Neuhausen Allgäu"
  },
  {
    "postcode": "87439",
    "city": "Neuhausen"
  },
  {
    "postcode": "87439",
    "city": "Oberwang Allgäu"
  },
  {
    "postcode": "87439",
    "city": "Oberwang"
  },
  {
    "postcode": "87439",
    "city": "Rothkreuz Allgäu"
  },
  {
    "postcode": "87439",
    "city": "Rothkreuz"
  },
  {
    "postcode": "87439",
    "city": "Thingers"
  },
  {
    "postcode": "87439",
    "city": "Unterwang Allgäu"
  },
  {
    "postcode": "87439",
    "city": "Unterwang"
  },
  {
    "postcode": "87439",
    "city": "Kempten Allgäu"
  },
  {
    "postcode": "87439",
    "city": "Stiftallmey"
  },
  {
    "postcode": "87439",
    "city": "Breite"
  },
  {
    "postcode": "87439",
    "city": "Lotterberg"
  },
  {
    "postcode": "87439",
    "city": "Halde"
  },
  {
    "postcode": "87439",
    "city": "Zollhaus"
  },
  {
    "postcode": "87439",
    "city": "Kollerbach"
  },
  {
    "postcode": "87448",
    "city": "Bergen Kreis Kempten Allgäu"
  },
  {
    "postcode": "87448",
    "city": "Bergen"
  },
  {
    "postcode": "87448",
    "city": "Ettlis Kreis Kempten Allgäu"
  },
  {
    "postcode": "87448",
    "city": "Ettlis"
  },
  {
    "postcode": "87448",
    "city": "Fischen Kreis Kempten Allgäu"
  },
  {
    "postcode": "87448",
    "city": "Fischen"
  },
  {
    "postcode": "87448",
    "city": "Hatzenberg Kreis Kempten Allgäu"
  },
  {
    "postcode": "87448",
    "city": "Hatzenberg"
  },
  {
    "postcode": "87448",
    "city": "Hegge Kreis Kempten Allgäu"
  },
  {
    "postcode": "87448",
    "city": "Hegge"
  },
  {
    "postcode": "87448",
    "city": "Helen Kreis Kempten Allgäu"
  },
  {
    "postcode": "87448",
    "city": "Helen"
  },
  {
    "postcode": "87448",
    "city": "Kuhnen Kreis Kempten Allgäu"
  },
  {
    "postcode": "87448",
    "city": "Kuhnen"
  },
  {
    "postcode": "87448",
    "city": "Lanzen Kreis Kempten Allgäu"
  },
  {
    "postcode": "87448",
    "city": "Lanzen"
  },
  {
    "postcode": "87448",
    "city": "Laudorf Kreis Kempten Allgäu"
  },
  {
    "postcode": "87448",
    "city": "Laudorf"
  },
  {
    "postcode": "87448",
    "city": "Leutenhofen Kreis Kempten Allgäu"
  },
  {
    "postcode": "87448",
    "city": "Leutenhofen"
  },
  {
    "postcode": "87448",
    "city": "Martinszell im Allgäu"
  },
  {
    "postcode": "87448",
    "city": "Memhölz Kreis Kempten Allgäu"
  },
  {
    "postcode": "87448",
    "city": "Memhölz"
  },
  {
    "postcode": "87448",
    "city": "Niedersonthofen"
  },
  {
    "postcode": "87448",
    "city": "Oberdorf Allgäu"
  },
  {
    "postcode": "87448",
    "city": "Oberdorf"
  },
  {
    "postcode": "87448",
    "city": "Rauns Kreis Kempten Allgäu"
  },
  {
    "postcode": "87448",
    "city": "Rauns"
  },
  {
    "postcode": "87448",
    "city": "Rohr Kreis Kempten Allgäu"
  },
  {
    "postcode": "87448",
    "city": "Rohr"
  },
  {
    "postcode": "87448",
    "city": "Veits Kreis Kempten Allgäu"
  },
  {
    "postcode": "87448",
    "city": "Veits"
  },
  {
    "postcode": "87448",
    "city": "Walkarts Kreis Kempten Allgäu"
  },
  {
    "postcode": "87448",
    "city": "Walkarts"
  },
  {
    "postcode": "87448",
    "city": "Waltenhofen"
  },
  {
    "postcode": "87448",
    "city": "Waltenhofen Allgäu"
  },
  {
    "postcode": "87448",
    "city": "Weiberg Kreis Kempten Allgäu"
  },
  {
    "postcode": "87448",
    "city": "Weiberg"
  },
  {
    "postcode": "87448",
    "city": "Oberallgäu"
  },
  {
    "postcode": "87448",
    "city": "Martinszell"
  },
  {
    "postcode": "87448",
    "city": "Loch"
  },
  {
    "postcode": "87452",
    "city": "Albrechten"
  },
  {
    "postcode": "87452",
    "city": "Altusried"
  },
  {
    "postcode": "87452",
    "city": "Bergs"
  },
  {
    "postcode": "87452",
    "city": "Binzen"
  },
  {
    "postcode": "87452",
    "city": "Bodenwalz"
  },
  {
    "postcode": "87452",
    "city": "Brand"
  },
  {
    "postcode": "87452",
    "city": "Bräunlings"
  },
  {
    "postcode": "87452",
    "city": "Bronnen"
  },
  {
    "postcode": "87452",
    "city": "Bruggmers"
  },
  {
    "postcode": "87452",
    "city": "Buch Allgäu"
  },
  {
    "postcode": "87452",
    "city": "Buch"
  },
  {
    "postcode": "87452",
    "city": "Depsried"
  },
  {
    "postcode": "87452",
    "city": "Dezion"
  },
  {
    "postcode": "87452",
    "city": "Diepolz"
  },
  {
    "postcode": "87452",
    "city": "Diesenbach"
  },
  {
    "postcode": "87452",
    "city": "Einsiedeln"
  },
  {
    "postcode": "87452",
    "city": "Figlers"
  },
  {
    "postcode": "87452",
    "city": "Fischers"
  },
  {
    "postcode": "87452",
    "city": "Frauenzell Allgäu"
  },
  {
    "postcode": "87452",
    "city": "Frauenzell"
  },
  {
    "postcode": "87452",
    "city": "Frohnhofen"
  },
  {
    "postcode": "87452",
    "city": "Frühstetten"
  },
  {
    "postcode": "87452",
    "city": "Geisemers"
  },
  {
    "postcode": "87452",
    "city": "Halden"
  },
  {
    "postcode": "87452",
    "city": "Hettisried"
  },
  {
    "postcode": "87452",
    "city": "Hiltensberg"
  },
  {
    "postcode": "87452",
    "city": "Hinterbrennberg Allgäu"
  },
  {
    "postcode": "87452",
    "city": "Hinterbrennberg"
  },
  {
    "postcode": "87452",
    "city": "Hörgers"
  },
  {
    "postcode": "87452",
    "city": "Isel"
  },
  {
    "postcode": "87452",
    "city": "Käsers"
  },
  {
    "postcode": "87452",
    "city": "Kimratshofen"
  },
  {
    "postcode": "87452",
    "city": "Krugzell"
  },
  {
    "postcode": "87452",
    "city": "Maggmannshofen Allgäu"
  },
  {
    "postcode": "87452",
    "city": "Maggmannshofen"
  },
  {
    "postcode": "87452",
    "city": "Muthmannshofen"
  },
  {
    "postcode": "87452",
    "city": "Oberhub"
  },
  {
    "postcode": "87452",
    "city": "Ottenstall"
  },
  {
    "postcode": "87452",
    "city": "Reinthal"
  },
  {
    "postcode": "87452",
    "city": "Ried"
  },
  {
    "postcode": "87452",
    "city": "Rungatshofen Allgäu"
  },
  {
    "postcode": "87452",
    "city": "Rungatshofen"
  },
  {
    "postcode": "87452",
    "city": "Schmidberg"
  },
  {
    "postcode": "87452",
    "city": "Schreiloch"
  },
  {
    "postcode": "87452",
    "city": "Spöck"
  },
  {
    "postcode": "87452",
    "city": "Staig"
  },
  {
    "postcode": "87452",
    "city": "Strobels"
  },
  {
    "postcode": "87452",
    "city": "Thannen"
  },
  {
    "postcode": "87452",
    "city": "Unterhub"
  },
  {
    "postcode": "87452",
    "city": "Vocken"
  },
  {
    "postcode": "87452",
    "city": "Völken"
  },
  {
    "postcode": "87452",
    "city": "Vorderbrennberg Allgäu"
  },
  {
    "postcode": "87452",
    "city": "Vorderbrennberg"
  },
  {
    "postcode": "87452",
    "city": "Walkenberg Allgäu"
  },
  {
    "postcode": "87452",
    "city": "Walkenberg"
  },
  {
    "postcode": "87452",
    "city": "Walzlings"
  },
  {
    "postcode": "87452",
    "city": "Wäschers"
  },
  {
    "postcode": "87452",
    "city": "Weihers"
  },
  {
    "postcode": "87452",
    "city": "Weitenau"
  },
  {
    "postcode": "87452",
    "city": "Wendelins"
  },
  {
    "postcode": "87452",
    "city": "Wetzleberg"
  },
  {
    "postcode": "87452",
    "city": "Winkels"
  },
  {
    "postcode": "87452",
    "city": "Winneberg"
  },
  {
    "postcode": "87452",
    "city": "Wolfen"
  },
  {
    "postcode": "87452",
    "city": "Wurms"
  },
  {
    "postcode": "87452",
    "city": "Oberallgäu"
  },
  {
    "postcode": "87452",
    "city": "Behütgott"
  },
  {
    "postcode": "87452",
    "city": "Bergen"
  },
  {
    "postcode": "87452",
    "city": "Betzers"
  },
  {
    "postcode": "87452",
    "city": "Biberschwang"
  },
  {
    "postcode": "87452",
    "city": "Bischlagers"
  },
  {
    "postcode": "87452",
    "city": "Bossen"
  },
  {
    "postcode": "87452",
    "city": "Brittlings"
  },
  {
    "postcode": "87452",
    "city": "Bruderhöfe"
  },
  {
    "postcode": "87452",
    "city": "Buch an der Iller"
  },
  {
    "postcode": "87452",
    "city": "Buchen"
  },
  {
    "postcode": "87452",
    "city": "Buchen am Wald"
  },
  {
    "postcode": "87452",
    "city": "Burg"
  },
  {
    "postcode": "87452",
    "city": "Duracherberg"
  },
  {
    "postcode": "87452",
    "city": "Dürrenbach"
  },
  {
    "postcode": "87452",
    "city": "Eggarts"
  },
  {
    "postcode": "87452",
    "city": "Ettas"
  },
  {
    "postcode": "87452",
    "city": "Gaggen"
  },
  {
    "postcode": "87452",
    "city": "Gansmühle"
  },
  {
    "postcode": "87452",
    "city": "Geba"
  },
  {
    "postcode": "87452",
    "city": "Greut"
  },
  {
    "postcode": "87452",
    "city": "Greuts"
  },
  {
    "postcode": "87452",
    "city": "Gries"
  },
  {
    "postcode": "87452",
    "city": "Grundbühl"
  },
  {
    "postcode": "87452",
    "city": "Gschnaidt"
  },
  {
    "postcode": "87452",
    "city": "Guntersthal"
  },
  {
    "postcode": "87452",
    "city": "Heckelsmühle"
  },
  {
    "postcode": "87452",
    "city": "Hehlen"
  },
  {
    "postcode": "87452",
    "city": "Heuglosen"
  },
  {
    "postcode": "87452",
    "city": "Hiemen"
  },
  {
    "postcode": "87452",
    "city": "Hinteregg"
  },
  {
    "postcode": "87452",
    "city": "Hochholz"
  },
  {
    "postcode": "87452",
    "city": "Hohentann"
  },
  {
    "postcode": "87452",
    "city": "Holzmühle"
  },
  {
    "postcode": "87452",
    "city": "Horns"
  },
  {
    "postcode": "87452",
    "city": "Hubbrände"
  },
  {
    "postcode": "87452",
    "city": "Häldele"
  },
  {
    "postcode": "87452",
    "city": "Häuslen"
  },
  {
    "postcode": "87452",
    "city": "Kalden"
  },
  {
    "postcode": "87452",
    "city": "Katzenloh"
  },
  {
    "postcode": "87452",
    "city": "Knaus"
  },
  {
    "postcode": "87452",
    "city": "Kochs"
  },
  {
    "postcode": "87452",
    "city": "Kohlstatt"
  },
  {
    "postcode": "87452",
    "city": "Kuppel"
  },
  {
    "postcode": "87452",
    "city": "Kühsteig"
  },
  {
    "postcode": "87452",
    "city": "Lamineten"
  },
  {
    "postcode": "87452",
    "city": "Lausers"
  },
  {
    "postcode": "87452",
    "city": "Lendras"
  },
  {
    "postcode": "87452",
    "city": "Leuten"
  },
  {
    "postcode": "87452",
    "city": "Lochhaus"
  },
  {
    "postcode": "87452",
    "city": "Luiblings"
  },
  {
    "postcode": "87452",
    "city": "Manzen"
  },
  {
    "postcode": "87452",
    "city": "Mittelberg"
  },
  {
    "postcode": "87452",
    "city": "Mushanen"
  },
  {
    "postcode": "87452",
    "city": "Mühlengat"
  },
  {
    "postcode": "87452",
    "city": "Naien"
  },
  {
    "postcode": "87452",
    "city": "Neumühle"
  },
  {
    "postcode": "87452",
    "city": "Oberegg"
  },
  {
    "postcode": "87452",
    "city": "Oberräthen"
  },
  {
    "postcode": "87452",
    "city": "Oberwalzlings"
  },
  {
    "postcode": "87452",
    "city": "Odach"
  },
  {
    "postcode": "87452",
    "city": "Opprechts"
  },
  {
    "postcode": "87452",
    "city": "Osterberg"
  },
  {
    "postcode": "87452",
    "city": "Radsperre"
  },
  {
    "postcode": "87452",
    "city": "Reicharten"
  },
  {
    "postcode": "87452",
    "city": "Reisers"
  },
  {
    "postcode": "87452",
    "city": "Riedlingen"
  },
  {
    "postcode": "87452",
    "city": "Rorach"
  },
  {
    "postcode": "87452",
    "city": "Ölstauden"
  },
  {
    "postcode": "87452",
    "city": "Ösch"
  },
  {
    "postcode": "87452",
    "city": "Schöneberg"
  },
  {
    "postcode": "87452",
    "city": "Scheiben"
  },
  {
    "postcode": "87452",
    "city": "Schieten"
  },
  {
    "postcode": "87452",
    "city": "Schorenmoos"
  },
  {
    "postcode": "87452",
    "city": "Schreiers"
  },
  {
    "postcode": "87452",
    "city": "Schwebelhaus"
  },
  {
    "postcode": "87452",
    "city": "Schweineberg"
  },
  {
    "postcode": "87452",
    "city": "Schwenden"
  },
  {
    "postcode": "87452",
    "city": "Seefeld"
  },
  {
    "postcode": "87452",
    "city": "Singers"
  },
  {
    "postcode": "87452",
    "city": "Staubers"
  },
  {
    "postcode": "87452",
    "city": "Steig"
  },
  {
    "postcode": "87452",
    "city": "Steigberg"
  },
  {
    "postcode": "87452",
    "city": "Stockers"
  },
  {
    "postcode": "87452",
    "city": "Streifen"
  },
  {
    "postcode": "87452",
    "city": "Tannschachen"
  },
  {
    "postcode": "87452",
    "city": "Thurn"
  },
  {
    "postcode": "87452",
    "city": "Ungers"
  },
  {
    "postcode": "87452",
    "city": "Unteregg"
  },
  {
    "postcode": "87452",
    "city": "Unterräthen"
  },
  {
    "postcode": "87452",
    "city": "Untersägen"
  },
  {
    "postcode": "87452",
    "city": "Ursulers"
  },
  {
    "postcode": "87452",
    "city": "Waldsteig"
  },
  {
    "postcode": "87452",
    "city": "Wasserbühl"
  },
  {
    "postcode": "87452",
    "city": "Wassergat"
  },
  {
    "postcode": "87452",
    "city": "Wasserschwenden"
  },
  {
    "postcode": "87452",
    "city": "Weihalden"
  },
  {
    "postcode": "87452",
    "city": "Weissen"
  },
  {
    "postcode": "87452",
    "city": "Wetzlo"
  },
  {
    "postcode": "87452",
    "city": "Wies"
  },
  {
    "postcode": "87459",
    "city": "Halden"
  },
  {
    "postcode": "87459",
    "city": "Kappel"
  },
  {
    "postcode": "87459",
    "city": "Kreuzegg"
  },
  {
    "postcode": "87459",
    "city": "Pfronten"
  },
  {
    "postcode": "87459",
    "city": "Ried"
  },
  {
    "postcode": "87459",
    "city": "Röfleuten"
  },
  {
    "postcode": "87459",
    "city": "Weißbach"
  },
  {
    "postcode": "87459",
    "city": "Ostallgäu"
  },
  {
    "postcode": "87459",
    "city": "Imnat"
  },
  {
    "postcode": "87459",
    "city": "Rehbichl"
  },
  {
    "postcode": "87459",
    "city": "Schloßanger"
  },
  {
    "postcode": "87459",
    "city": "Schlossersäge"
  },
  {
    "postcode": "87459",
    "city": "Vilstalsäge"
  },
  {
    "postcode": "87459",
    "city": "Berg"
  },
  {
    "postcode": "87463",
    "city": "Atzenberg"
  },
  {
    "postcode": "87463",
    "city": "Dietmannsried"
  },
  {
    "postcode": "87463",
    "city": "Eichholz"
  },
  {
    "postcode": "87463",
    "city": "Gemeinderied"
  },
  {
    "postcode": "87463",
    "city": "Graben"
  },
  {
    "postcode": "87463",
    "city": "Grasgrub"
  },
  {
    "postcode": "87463",
    "city": "Greith"
  },
  {
    "postcode": "87463",
    "city": "Hack"
  },
  {
    "postcode": "87463",
    "city": "Heusteig"
  },
  {
    "postcode": "87463",
    "city": "Hinterhalde"
  },
  {
    "postcode": "87463",
    "city": "Hörensberg"
  },
  {
    "postcode": "87463",
    "city": "Käsers"
  },
  {
    "postcode": "87463",
    "city": "Kiesels"
  },
  {
    "postcode": "87463",
    "city": "Maierhof"
  },
  {
    "postcode": "87463",
    "city": "Naiers"
  },
  {
    "postcode": "87463",
    "city": "Oberried"
  },
  {
    "postcode": "87463",
    "city": "Osterberg"
  },
  {
    "postcode": "87463",
    "city": "Osterwald"
  },
  {
    "postcode": "87463",
    "city": "Probstried"
  },
  {
    "postcode": "87463",
    "city": "Rauhmühle"
  },
  {
    "postcode": "87463",
    "city": "Reicholzried"
  },
  {
    "postcode": "87463",
    "city": "Sachsenried"
  },
  {
    "postcode": "87463",
    "city": "Schoren"
  },
  {
    "postcode": "87463",
    "city": "Schrattenbach"
  },
  {
    "postcode": "87463",
    "city": "Sommersberg"
  },
  {
    "postcode": "87463",
    "city": "Todtenberg"
  },
  {
    "postcode": "87463",
    "city": "Überbach"
  },
  {
    "postcode": "87463",
    "city": "Ussenried"
  },
  {
    "postcode": "87463",
    "city": "Vockenthal"
  },
  {
    "postcode": "87463",
    "city": "Oberallgäu"
  },
  {
    "postcode": "87463",
    "city": "Albus"
  },
  {
    "postcode": "87463",
    "city": "Öschle"
  },
  {
    "postcode": "87463",
    "city": "Buchen"
  },
  {
    "postcode": "87463",
    "city": "Bärenwies"
  },
  {
    "postcode": "87463",
    "city": "Eggenbühl"
  },
  {
    "postcode": "87463",
    "city": "Ehrmanns"
  },
  {
    "postcode": "87463",
    "city": "Einöde"
  },
  {
    "postcode": "87463",
    "city": "Finstersteig"
  },
  {
    "postcode": "87463",
    "city": "Hehle"
  },
  {
    "postcode": "87463",
    "city": "Göhlmühle"
  },
  {
    "postcode": "87463",
    "city": "Gfällmühle"
  },
  {
    "postcode": "87463",
    "city": "Gschlavers"
  },
  {
    "postcode": "87463",
    "city": "Hölderle"
  },
  {
    "postcode": "87463",
    "city": "Haldenmühle"
  },
  {
    "postcode": "87463",
    "city": "Haslach"
  },
  {
    "postcode": "87463",
    "city": "Hessenstall"
  },
  {
    "postcode": "87463",
    "city": "Im G'fäll"
  },
  {
    "postcode": "87463",
    "city": "Kassier"
  },
  {
    "postcode": "87463",
    "city": "Kraiberg"
  },
  {
    "postcode": "87463",
    "city": "Kusters"
  },
  {
    "postcode": "87463",
    "city": "Langenzeil"
  },
  {
    "postcode": "87463",
    "city": "Mannenschley"
  },
  {
    "postcode": "87463",
    "city": "Pfefferhof"
  },
  {
    "postcode": "87463",
    "city": "Pfosen"
  },
  {
    "postcode": "87463",
    "city": "Reutacker"
  },
  {
    "postcode": "87463",
    "city": "Reute"
  },
  {
    "postcode": "87463",
    "city": "Ried"
  },
  {
    "postcode": "87463",
    "city": "Sandbühl"
  },
  {
    "postcode": "87463",
    "city": "Schilchern"
  },
  {
    "postcode": "87463",
    "city": "Schochenbühl"
  },
  {
    "postcode": "87463",
    "city": "Schorenmoos"
  },
  {
    "postcode": "87463",
    "city": "Steinriesel"
  },
  {
    "postcode": "87463",
    "city": "Tiefenau"
  },
  {
    "postcode": "87463",
    "city": "Veiten"
  },
  {
    "postcode": "87463",
    "city": "Wanners"
  },
  {
    "postcode": "87463",
    "city": "Wiesental"
  },
  {
    "postcode": "87463",
    "city": "Wirtshalde"
  },
  {
    "postcode": "87463",
    "city": "Wohlmuts"
  },
  {
    "postcode": "87463",
    "city": "Zinkenhalde"
  },
  {
    "postcode": "87466",
    "city": "Faistenoy"
  },
  {
    "postcode": "87466",
    "city": "Haslach bei Oy"
  },
  {
    "postcode": "87466",
    "city": "Mittelberg bei Oy"
  },
  {
    "postcode": "87466",
    "city": "Oberzollhaus"
  },
  {
    "postcode": "87466",
    "city": "Oy"
  },
  {
    "postcode": "87466",
    "city": "Oy-Mittelberg"
  },
  {
    "postcode": "87466",
    "city": "Petersthal Allgäu"
  },
  {
    "postcode": "87466",
    "city": "Petersthal"
  },
  {
    "postcode": "87466",
    "city": "Oberallgäu"
  },
  {
    "postcode": "87466",
    "city": "Mittelberg"
  },
  {
    "postcode": "87466",
    "city": "Maria-Rain"
  },
  {
    "postcode": "87466",
    "city": "Haslach"
  },
  {
    "postcode": "87466",
    "city": "Schwarzenberg"
  },
  {
    "postcode": "87471",
    "city": "Bachtel Allgäu"
  },
  {
    "postcode": "87471",
    "city": "Bachtel"
  },
  {
    "postcode": "87471",
    "city": "Bechen Allgäu"
  },
  {
    "postcode": "87471",
    "city": "Bechen"
  },
  {
    "postcode": "87471",
    "city": "Bodelsberg"
  },
  {
    "postcode": "87471",
    "city": "Bubenberg Allgäu"
  },
  {
    "postcode": "87471",
    "city": "Bubenberg"
  },
  {
    "postcode": "87471",
    "city": "Durach"
  },
  {
    "postcode": "87471",
    "city": "Durach Allgäu"
  },
  {
    "postcode": "87471",
    "city": "Fahls Allgäu"
  },
  {
    "postcode": "87471",
    "city": "Fahls"
  },
  {
    "postcode": "87471",
    "city": "Feuerschwenden Allgäu"
  },
  {
    "postcode": "87471",
    "city": "Feuerschwenden"
  },
  {
    "postcode": "87471",
    "city": "Furtenbach Allgäu"
  },
  {
    "postcode": "87471",
    "city": "Furtenbach"
  },
  {
    "postcode": "87471",
    "city": "Halde Allgäu"
  },
  {
    "postcode": "87471",
    "city": "Halde"
  },
  {
    "postcode": "87471",
    "city": "Hermannsberg Allgäu"
  },
  {
    "postcode": "87471",
    "city": "Hermannsberg"
  },
  {
    "postcode": "87471",
    "city": "Linggen Allgäu"
  },
  {
    "postcode": "87471",
    "city": "Linggen"
  },
  {
    "postcode": "87471",
    "city": "Miesenbach Allgäu"
  },
  {
    "postcode": "87471",
    "city": "Miesenbach"
  },
  {
    "postcode": "87471",
    "city": "Oberhof Allgäu"
  },
  {
    "postcode": "87471",
    "city": "Oberhof"
  },
  {
    "postcode": "87471",
    "city": "Rothen Allgäu"
  },
  {
    "postcode": "87471",
    "city": "Rothen"
  },
  {
    "postcode": "87471",
    "city": "Weidach Allgäu"
  },
  {
    "postcode": "87471",
    "city": "Weidach"
  },
  {
    "postcode": "87471",
    "city": "Oberallgäu"
  },
  {
    "postcode": "87474",
    "city": "Albris Kreis Kempten Allgäu"
  },
  {
    "postcode": "87474",
    "city": "Albris"
  },
  {
    "postcode": "87474",
    "city": "Bechen Kreis Kempten Allgäu"
  },
  {
    "postcode": "87474",
    "city": "Bechen"
  },
  {
    "postcode": "87474",
    "city": "Bihls Kreis Kempten Allgäu"
  },
  {
    "postcode": "87474",
    "city": "Bihls"
  },
  {
    "postcode": "87474",
    "city": "Buchenberg bei Kempten Allgäu"
  },
  {
    "postcode": "87474",
    "city": "Buchenberg bei Kempten"
  },
  {
    "postcode": "87474",
    "city": "Eschach Kreis Kempten Allgäu"
  },
  {
    "postcode": "87474",
    "city": "Eschach"
  },
  {
    "postcode": "87474",
    "city": "Eschachberg Kreis Kempten Allgäu"
  },
  {
    "postcode": "87474",
    "city": "Eschachberg"
  },
  {
    "postcode": "87474",
    "city": "Eschachried Kreis Kempten Allgäu"
  },
  {
    "postcode": "87474",
    "city": "Eschachried"
  },
  {
    "postcode": "87474",
    "city": "Gösers Kreis Kempten Allgäu"
  },
  {
    "postcode": "87474",
    "city": "Gösers"
  },
  {
    "postcode": "87474",
    "city": "Häfeliswald"
  },
  {
    "postcode": "87474",
    "city": "Hochberg Kreis Kempten Allgäu"
  },
  {
    "postcode": "87474",
    "city": "Hochberg"
  },
  {
    "postcode": "87474",
    "city": "Hölzlers Kreis Kempten Allgäu"
  },
  {
    "postcode": "87474",
    "city": "Hölzlers"
  },
  {
    "postcode": "87474",
    "city": "Masers Kreis Kempten Allgäu"
  },
  {
    "postcode": "87474",
    "city": "Masers"
  },
  {
    "postcode": "87474",
    "city": "Niederhofen Kreis Kempten Allgäu"
  },
  {
    "postcode": "87474",
    "city": "Niederhofen"
  },
  {
    "postcode": "87474",
    "city": "Oberhofen"
  },
  {
    "postcode": "87474",
    "city": "Steckenried Kreis Kempten Allgäu"
  },
  {
    "postcode": "87474",
    "city": "Steckenried"
  },
  {
    "postcode": "87474",
    "city": "Unterhalden Kreis Kempten Allgäu"
  },
  {
    "postcode": "87474",
    "city": "Unterhalden"
  },
  {
    "postcode": "87474",
    "city": "Wegscheidel Kreis Kempten Allgäu"
  },
  {
    "postcode": "87474",
    "city": "Wegscheidel"
  },
  {
    "postcode": "87474",
    "city": "Wirlings Kreis Kempten Allgäu"
  },
  {
    "postcode": "87474",
    "city": "Wirlings"
  },
  {
    "postcode": "87474",
    "city": "Oberallgäu"
  },
  {
    "postcode": "87474",
    "city": "Buchenberg"
  },
  {
    "postcode": "87474",
    "city": "Kreuzthal"
  },
  {
    "postcode": "87474",
    "city": "Ahegg"
  },
  {
    "postcode": "87477",
    "city": "Aleuthe Allgäu"
  },
  {
    "postcode": "87477",
    "city": "Aleuthe"
  },
  {
    "postcode": "87477",
    "city": "Au"
  },
  {
    "postcode": "87477",
    "city": "Bechtris Allgäu"
  },
  {
    "postcode": "87477",
    "city": "Bechtris"
  },
  {
    "postcode": "87477",
    "city": "Burgratz Allgäu"
  },
  {
    "postcode": "87477",
    "city": "Burgratz"
  },
  {
    "postcode": "87477",
    "city": "Eigen Allgäu"
  },
  {
    "postcode": "87477",
    "city": "Eigen"
  },
  {
    "postcode": "87477",
    "city": "Eizisried Allgäu"
  },
  {
    "postcode": "87477",
    "city": "Eizisried"
  },
  {
    "postcode": "87477",
    "city": "Eulen Allgäu"
  },
  {
    "postcode": "87477",
    "city": "Eulen"
  },
  {
    "postcode": "87477",
    "city": "Hitzleberg Allgäu"
  },
  {
    "postcode": "87477",
    "city": "Hitzleberg"
  },
  {
    "postcode": "87477",
    "city": "Hofstetten Allgäu"
  },
  {
    "postcode": "87477",
    "city": "Hofstetten"
  },
  {
    "postcode": "87477",
    "city": "Kühbach Allgäu"
  },
  {
    "postcode": "87477",
    "city": "Kühbach"
  },
  {
    "postcode": "87477",
    "city": "Moos Allgäu"
  },
  {
    "postcode": "87477",
    "city": "Moos"
  },
  {
    "postcode": "87477",
    "city": "Moosbach bei Kempten Allgäu"
  },
  {
    "postcode": "87477",
    "city": "Moosbach bei Kempten"
  },
  {
    "postcode": "87477",
    "city": "Nägeleried Allgäu"
  },
  {
    "postcode": "87477",
    "city": "Nägeleried"
  },
  {
    "postcode": "87477",
    "city": "Oberminderdorf Allgäu"
  },
  {
    "postcode": "87477",
    "city": "Oberminderdorf"
  },
  {
    "postcode": "87477",
    "city": "Öschle Allgäu"
  },
  {
    "postcode": "87477",
    "city": "Öschle"
  },
  {
    "postcode": "87477",
    "city": "Ottacker Allgäu"
  },
  {
    "postcode": "87477",
    "city": "Ottacker"
  },
  {
    "postcode": "87477",
    "city": "Rappolz Allgäu"
  },
  {
    "postcode": "87477",
    "city": "Rappolz"
  },
  {
    "postcode": "87477",
    "city": "Ried bei Ottackers"
  },
  {
    "postcode": "87477",
    "city": "Ried bei Sulzberg"
  },
  {
    "postcode": "87477",
    "city": "Ruchis Allgäu"
  },
  {
    "postcode": "87477",
    "city": "Ruchis"
  },
  {
    "postcode": "87477",
    "city": "Schlechtenberg Allgäu"
  },
  {
    "postcode": "87477",
    "city": "Schlechtenberg"
  },
  {
    "postcode": "87477",
    "city": "Schmieden Allgäu"
  },
  {
    "postcode": "87477",
    "city": "Schmieden"
  },
  {
    "postcode": "87477",
    "city": "See Allgäu"
  },
  {
    "postcode": "87477",
    "city": "See"
  },
  {
    "postcode": "87477",
    "city": "Seebach Allgäu"
  },
  {
    "postcode": "87477",
    "city": "Seebach"
  },
  {
    "postcode": "87477",
    "city": "Sparenberg Allgäu"
  },
  {
    "postcode": "87477",
    "city": "Sparenberg"
  },
  {
    "postcode": "87477",
    "city": "Steingaden Allgäu"
  },
  {
    "postcode": "87477",
    "city": "Steingaden"
  },
  {
    "postcode": "87477",
    "city": "Straß"
  },
  {
    "postcode": "87477",
    "city": "Sulzberg"
  },
  {
    "postcode": "87477",
    "city": "Sulzberg Allgäu"
  },
  {
    "postcode": "87477",
    "city": "Unterminderdorf Allgäu"
  },
  {
    "postcode": "87477",
    "city": "Unterminderdorf"
  },
  {
    "postcode": "87477",
    "city": "Unterthannen Allgäu"
  },
  {
    "postcode": "87477",
    "city": "Unterthannen"
  },
  {
    "postcode": "87477",
    "city": "Wies Allgäu"
  },
  {
    "postcode": "87477",
    "city": "Wies"
  },
  {
    "postcode": "87477",
    "city": "Oberallgäu"
  },
  {
    "postcode": "87477",
    "city": "Moosbach"
  },
  {
    "postcode": "87477",
    "city": "Graben"
  },
  {
    "postcode": "87480",
    "city": "Bühl"
  },
  {
    "postcode": "87480",
    "city": "Eisenbolz"
  },
  {
    "postcode": "87480",
    "city": "Engelwarz"
  },
  {
    "postcode": "87480",
    "city": "Ettensberg"
  },
  {
    "postcode": "87480",
    "city": "Gerholz"
  },
  {
    "postcode": "87480",
    "city": "Haslach"
  },
  {
    "postcode": "87480",
    "city": "Hellengerst"
  },
  {
    "postcode": "87480",
    "city": "Hub"
  },
  {
    "postcode": "87480",
    "city": "Moos"
  },
  {
    "postcode": "87480",
    "city": "Osterhofen"
  },
  {
    "postcode": "87480",
    "city": "Rechtis"
  },
  {
    "postcode": "87480",
    "city": "Rieder"
  },
  {
    "postcode": "87480",
    "city": "Sibratshofen"
  },
  {
    "postcode": "87480",
    "city": "Waltrams"
  },
  {
    "postcode": "87480",
    "city": "Weilerle"
  },
  {
    "postcode": "87480",
    "city": "Weitnau"
  },
  {
    "postcode": "87480",
    "city": "Wengen Kreis Kempten Allgäu"
  },
  {
    "postcode": "87480",
    "city": "Wengen"
  },
  {
    "postcode": "87480",
    "city": "Oberallgäu"
  },
  {
    "postcode": "87480",
    "city": "Seltmans"
  },
  {
    "postcode": "87480",
    "city": "Kleinweiler Hofen"
  },
  {
    "postcode": "87484",
    "city": "Attlesee"
  },
  {
    "postcode": "87484",
    "city": "Bayerstetten"
  },
  {
    "postcode": "87484",
    "city": "Gschwend"
  },
  {
    "postcode": "87484",
    "city": "Hammerschmiede"
  },
  {
    "postcode": "87484",
    "city": "Hertingen"
  },
  {
    "postcode": "87484",
    "city": "Hörich"
  },
  {
    "postcode": "87484",
    "city": "Lachen"
  },
  {
    "postcode": "87484",
    "city": "Nesselwang"
  },
  {
    "postcode": "87484",
    "city": "Niederhöfen"
  },
  {
    "postcode": "87484",
    "city": "Rindegg"
  },
  {
    "postcode": "87484",
    "city": "Schneidbach"
  },
  {
    "postcode": "87484",
    "city": "Thal"
  },
  {
    "postcode": "87484",
    "city": "Voglen"
  },
  {
    "postcode": "87484",
    "city": "Wank"
  },
  {
    "postcode": "87484",
    "city": "Ostallgäu"
  },
  {
    "postcode": "87487",
    "city": "Bachtels"
  },
  {
    "postcode": "87487",
    "city": "Bailers"
  },
  {
    "postcode": "87487",
    "city": "Bracken"
  },
  {
    "postcode": "87487",
    "city": "Burg"
  },
  {
    "postcode": "87487",
    "city": "Eckartsberg"
  },
  {
    "postcode": "87487",
    "city": "Egg"
  },
  {
    "postcode": "87487",
    "city": "Ermengerst"
  },
  {
    "postcode": "87487",
    "city": "Ettensberg"
  },
  {
    "postcode": "87487",
    "city": "Haggen"
  },
  {
    "postcode": "87487",
    "city": "Hahnenberg"
  },
  {
    "postcode": "87487",
    "city": "Hino"
  },
  {
    "postcode": "87487",
    "city": "Holdenried"
  },
  {
    "postcode": "87487",
    "city": "Millers"
  },
  {
    "postcode": "87487",
    "city": "Notzen"
  },
  {
    "postcode": "87487",
    "city": "Pfaffenried"
  },
  {
    "postcode": "87487",
    "city": "Rauhenstein"
  },
  {
    "postcode": "87487",
    "city": "Schwarzachen"
  },
  {
    "postcode": "87487",
    "city": "Seibothen"
  },
  {
    "postcode": "87487",
    "city": "Stoffels"
  },
  {
    "postcode": "87487",
    "city": "Trunzen"
  },
  {
    "postcode": "87487",
    "city": "Unterkürnach"
  },
  {
    "postcode": "87487",
    "city": "Unterried"
  },
  {
    "postcode": "87487",
    "city": "Wendelins"
  },
  {
    "postcode": "87487",
    "city": "Westenried"
  },
  {
    "postcode": "87487",
    "city": "Wiggensbach"
  },
  {
    "postcode": "87487",
    "city": "Winnings"
  },
  {
    "postcode": "87487",
    "city": "Oberallgäu"
  },
  {
    "postcode": "87487",
    "city": "Gemeinde Buchenberg"
  },
  {
    "postcode": "87488",
    "city": "Baltenstein"
  },
  {
    "postcode": "87488",
    "city": "Betzenried"
  },
  {
    "postcode": "87488",
    "city": "Betzigau"
  },
  {
    "postcode": "87488",
    "city": "Bogenried"
  },
  {
    "postcode": "87488",
    "city": "Götzen"
  },
  {
    "postcode": "87488",
    "city": "Kaisersmad"
  },
  {
    "postcode": "87488",
    "city": "Leiterberg"
  },
  {
    "postcode": "87488",
    "city": "Minderbetzigau"
  },
  {
    "postcode": "87488",
    "city": "Stein"
  },
  {
    "postcode": "87488",
    "city": "Wieseris"
  },
  {
    "postcode": "87488",
    "city": "Oberallgäu"
  },
  {
    "postcode": "87488",
    "city": "Heinzelberg"
  },
  {
    "postcode": "87488",
    "city": "Kempter Wald"
  },
  {
    "postcode": "87490",
    "city": "Börwang"
  },
  {
    "postcode": "87490",
    "city": "Fleschützen Allgäu"
  },
  {
    "postcode": "87490",
    "city": "Fleschützen"
  },
  {
    "postcode": "87490",
    "city": "Haldenwang"
  },
  {
    "postcode": "87490",
    "city": "Haldenwang Allgäu"
  },
  {
    "postcode": "87490",
    "city": "Haslach"
  },
  {
    "postcode": "87490",
    "city": "Hinterkindberg Allgäu"
  },
  {
    "postcode": "87490",
    "city": "Hinterkindberg"
  },
  {
    "postcode": "87490",
    "city": "Neuburg Allgäu"
  },
  {
    "postcode": "87490",
    "city": "Neuburg"
  },
  {
    "postcode": "87490",
    "city": "Oberwengen Allgäu"
  },
  {
    "postcode": "87490",
    "city": "Oberwengen"
  },
  {
    "postcode": "87490",
    "city": "Ottisried Allgäu"
  },
  {
    "postcode": "87490",
    "city": "Ottisried"
  },
  {
    "postcode": "87490",
    "city": "Pfaffenhofen Allgäu"
  },
  {
    "postcode": "87490",
    "city": "Pfaffenhofen"
  },
  {
    "postcode": "87490",
    "city": "Staudach Allgäu"
  },
  {
    "postcode": "87490",
    "city": "Staudach"
  },
  {
    "postcode": "87490",
    "city": "Unterwengen Allgäu"
  },
  {
    "postcode": "87490",
    "city": "Unterwengen"
  },
  {
    "postcode": "87490",
    "city": "Vocken Allgäu"
  },
  {
    "postcode": "87490",
    "city": "Vocken"
  },
  {
    "postcode": "87490",
    "city": "Vorderkindberg Allgäu"
  },
  {
    "postcode": "87490",
    "city": "Vorderkindberg"
  },
  {
    "postcode": "87490",
    "city": "Woldang Allgäu"
  },
  {
    "postcode": "87490",
    "city": "Woldang"
  },
  {
    "postcode": "87490",
    "city": "Oberallgäu"
  },
  {
    "postcode": "87490",
    "city": "Unkraut"
  },
  {
    "postcode": "87493",
    "city": "Heising"
  },
  {
    "postcode": "87493",
    "city": "Lauben"
  },
  {
    "postcode": "87493",
    "city": "Lauben Oberallgäu"
  },
  {
    "postcode": "87493",
    "city": "Stielings"
  },
  {
    "postcode": "87493",
    "city": "Oberallgäu"
  },
  {
    "postcode": "87493",
    "city": "Moos"
  },
  {
    "postcode": "87493",
    "city": "Gräbelesmühle"
  },
  {
    "postcode": "87494",
    "city": "Batzengschwenden"
  },
  {
    "postcode": "87494",
    "city": "Eiterberg"
  },
  {
    "postcode": "87494",
    "city": "Goldhasen"
  },
  {
    "postcode": "87494",
    "city": "Guggemoosen"
  },
  {
    "postcode": "87494",
    "city": "Höhen"
  },
  {
    "postcode": "87494",
    "city": "Holz"
  },
  {
    "postcode": "87494",
    "city": "Holzleuten"
  },
  {
    "postcode": "87494",
    "city": "Rückholz"
  },
  {
    "postcode": "87494",
    "city": "Schönewald"
  },
  {
    "postcode": "87494",
    "city": "Treffisried"
  },
  {
    "postcode": "87494",
    "city": "Ostallgäu"
  },
  {
    "postcode": "87496",
    "city": "Eschers"
  },
  {
    "postcode": "87496",
    "city": "Hopferbach Allgäu"
  },
  {
    "postcode": "87496",
    "city": "Hopferbach"
  },
  {
    "postcode": "87496",
    "city": "Maneberg"
  },
  {
    "postcode": "87496",
    "city": "Ostenried"
  },
  {
    "postcode": "87496",
    "city": "Remmelsberg"
  },
  {
    "postcode": "87496",
    "city": "Sonderried"
  },
  {
    "postcode": "87496",
    "city": "Untrasried"
  },
  {
    "postcode": "87496",
    "city": "Waizenried"
  },
  {
    "postcode": "87496",
    "city": "Ostallgäu"
  },
  {
    "postcode": "87497",
    "city": "Bichel"
  },
  {
    "postcode": "87497",
    "city": "Gereute"
  },
  {
    "postcode": "87497",
    "city": "Hinterreute"
  },
  {
    "postcode": "87497",
    "city": "Hinterschneid"
  },
  {
    "postcode": "87497",
    "city": "Unterellegg"
  },
  {
    "postcode": "87497",
    "city": "Vorderreute"
  },
  {
    "postcode": "87497",
    "city": "Vorderschneid"
  },
  {
    "postcode": "87497",
    "city": "Wertach"
  },
  {
    "postcode": "87497",
    "city": "Oberallgäu"
  },
  {
    "postcode": "87499",
    "city": "Einöde"
  },
  {
    "postcode": "87499",
    "city": "Ellenberg"
  },
  {
    "postcode": "87499",
    "city": "Eufnach"
  },
  {
    "postcode": "87499",
    "city": "Frohnschwenden"
  },
  {
    "postcode": "87499",
    "city": "Hutoi"
  },
  {
    "postcode": "87499",
    "city": "Meggenried"
  },
  {
    "postcode": "87499",
    "city": "Obereiberg"
  },
  {
    "postcode": "87499",
    "city": "Schnaitweg"
  },
  {
    "postcode": "87499",
    "city": "Trampoi"
  },
  {
    "postcode": "87499",
    "city": "Unteregg"
  },
  {
    "postcode": "87499",
    "city": "Wildpoldsried"
  },
  {
    "postcode": "87499",
    "city": "Wolkenberg"
  },
  {
    "postcode": "87499",
    "city": "Oberallgäu"
  },
  {
    "postcode": "87509",
    "city": "Adelharz im Allgäu"
  },
  {
    "postcode": "87509",
    "city": "Akams im Allgäu"
  },
  {
    "postcode": "87509",
    "city": "Bräunlings im Allgäu"
  },
  {
    "postcode": "87509",
    "city": "Bühl am Alpsee"
  },
  {
    "postcode": "87509",
    "city": "Diepolz im Allgäu"
  },
  {
    "postcode": "87509",
    "city": "Dietzen im Allgäu"
  },
  {
    "postcode": "87509",
    "city": "Eckarts im Allgäu"
  },
  {
    "postcode": "87509",
    "city": "Flecken im Allgäu"
  },
  {
    "postcode": "87509",
    "city": "Freibrechts im Allgäu"
  },
  {
    "postcode": "87509",
    "city": "Freundpolz im Allgäu"
  },
  {
    "postcode": "87509",
    "city": "Gnadenberg im Allgäu"
  },
  {
    "postcode": "87509",
    "city": "Göhlenbühl im Allgäu"
  },
  {
    "postcode": "87509",
    "city": "Hintersee im Allgäu"
  },
  {
    "postcode": "87509",
    "city": "Hochreute im Allgäu"
  },
  {
    "postcode": "87509",
    "city": "Immenstadt"
  },
  {
    "postcode": "87509",
    "city": "Immenstadt im Allgäu"
  },
  {
    "postcode": "87509",
    "city": "Knottenried im Allgäu"
  },
  {
    "postcode": "87509",
    "city": "Luitharz im Allgäu"
  },
  {
    "postcode": "87509",
    "city": "Obereinharz im Allgäu"
  },
  {
    "postcode": "87509",
    "city": "Ratholz im Allgäu"
  },
  {
    "postcode": "87509",
    "city": "Rauhenzell im Allgäu"
  },
  {
    "postcode": "87509",
    "city": "Reute im Allgäu"
  },
  {
    "postcode": "87509",
    "city": "Reuter im Allgäu"
  },
  {
    "postcode": "87509",
    "city": "Rieder im Allgäu"
  },
  {
    "postcode": "87509",
    "city": "Seifen im Allgäu"
  },
  {
    "postcode": "87509",
    "city": "Stein im Allgäu"
  },
  {
    "postcode": "87509",
    "city": "Thanners im Allgäu"
  },
  {
    "postcode": "87509",
    "city": "Trieblings im Allgäu"
  },
  {
    "postcode": "87509",
    "city": "Untereinharz im Allgäu"
  },
  {
    "postcode": "87509",
    "city": "Werdenstein im Allgäu"
  },
  {
    "postcode": "87509",
    "city": "Zaumberg im Allgäu"
  },
  {
    "postcode": "87509",
    "city": "Oberallgäu"
  },
  {
    "postcode": "87509",
    "city": "Immenstadt i. Allgäu"
  },
  {
    "postcode": "87509",
    "city": "Akams"
  },
  {
    "postcode": "87509",
    "city": "Bräunlings"
  },
  {
    "postcode": "87509",
    "city": "Eckarts"
  },
  {
    "postcode": "87509",
    "city": "Bühl"
  },
  {
    "postcode": "87509",
    "city": "Gnadenberg"
  },
  {
    "postcode": "87509",
    "city": "Stein"
  },
  {
    "postcode": "87509",
    "city": "Rauhenzell"
  },
  {
    "postcode": "87509",
    "city": "Seifen"
  },
  {
    "postcode": "87509",
    "city": "Auf d. Hölle"
  },
  {
    "postcode": "87509",
    "city": "Diepolz"
  },
  {
    "postcode": "87509",
    "city": "Haslachmühle"
  },
  {
    "postcode": "87509",
    "city": "Oberau"
  },
  {
    "postcode": "87509",
    "city": "See"
  },
  {
    "postcode": "87509",
    "city": "Gießen"
  },
  {
    "postcode": "87527",
    "city": "Altstädten Allgäu"
  },
  {
    "postcode": "87527",
    "city": "Altstädten"
  },
  {
    "postcode": "87527",
    "city": "Beilenberg Allgäu"
  },
  {
    "postcode": "87527",
    "city": "Beilenberg"
  },
  {
    "postcode": "87527",
    "city": "Berghofen"
  },
  {
    "postcode": "87527",
    "city": "Bettenried"
  },
  {
    "postcode": "87527",
    "city": "Binswangen"
  },
  {
    "postcode": "87527",
    "city": "Breiten"
  },
  {
    "postcode": "87527",
    "city": "Hinang Allgäu"
  },
  {
    "postcode": "87527",
    "city": "Hinang"
  },
  {
    "postcode": "87527",
    "city": "Hochweiler Allgäu"
  },
  {
    "postcode": "87527",
    "city": "Hochweiler"
  },
  {
    "postcode": "87527",
    "city": "Hofen"
  },
  {
    "postcode": "87527",
    "city": "Hüttenberg"
  },
  {
    "postcode": "87527",
    "city": "Imberg"
  },
  {
    "postcode": "87527",
    "city": "Margarethen"
  },
  {
    "postcode": "87527",
    "city": "Muderpolz"
  },
  {
    "postcode": "87527",
    "city": "Ofterschwang"
  },
  {
    "postcode": "87527",
    "city": "Schweineberg"
  },
  {
    "postcode": "87527",
    "city": "Sigishofen"
  },
  {
    "postcode": "87527",
    "city": "Sigiswang"
  },
  {
    "postcode": "87527",
    "city": "Sonthofen"
  },
  {
    "postcode": "87527",
    "city": "Sonthofen Oberallgäu"
  },
  {
    "postcode": "87527",
    "city": "Tiefenberg"
  },
  {
    "postcode": "87527",
    "city": "Westerhofen"
  },
  {
    "postcode": "87527",
    "city": "Wielenberg"
  },
  {
    "postcode": "87527",
    "city": "Winkel"
  },
  {
    "postcode": "87527",
    "city": "Oberallgäu"
  },
  {
    "postcode": "87527",
    "city": "Muderbolz"
  },
  {
    "postcode": "87527",
    "city": "Oberzollbrücke"
  },
  {
    "postcode": "87527",
    "city": "Rieden"
  },
  {
    "postcode": "87527",
    "city": "Tiefenbach"
  },
  {
    "postcode": "87527",
    "city": "Unterried"
  },
  {
    "postcode": "87527",
    "city": "Staig"
  },
  {
    "postcode": "87527",
    "city": "Walten"
  },
  {
    "postcode": "87534",
    "city": "Aach im Allgäu"
  },
  {
    "postcode": "87534",
    "city": "Berg"
  },
  {
    "postcode": "87534",
    "city": "Buchenegg"
  },
  {
    "postcode": "87534",
    "city": "Buflings"
  },
  {
    "postcode": "87534",
    "city": "Gschwend"
  },
  {
    "postcode": "87534",
    "city": "Hagspiel"
  },
  {
    "postcode": "87534",
    "city": "Hinterreute"
  },
  {
    "postcode": "87534",
    "city": "Hinterstaufen"
  },
  {
    "postcode": "87534",
    "city": "Höfen"
  },
  {
    "postcode": "87534",
    "city": "Hütten"
  },
  {
    "postcode": "87534",
    "city": "Ifen"
  },
  {
    "postcode": "87534",
    "city": "Kalzhofen"
  },
  {
    "postcode": "87534",
    "city": "Knechtenhofen"
  },
  {
    "postcode": "87534",
    "city": "Konstanzer"
  },
  {
    "postcode": "87534",
    "city": "Krebs"
  },
  {
    "postcode": "87534",
    "city": "Lamprechts"
  },
  {
    "postcode": "87534",
    "city": "Laufenegg"
  },
  {
    "postcode": "87534",
    "city": "Malas"
  },
  {
    "postcode": "87534",
    "city": "Oberstaufen"
  },
  {
    "postcode": "87534",
    "city": "Osterdorf"
  },
  {
    "postcode": "87534",
    "city": "Salmas"
  },
  {
    "postcode": "87534",
    "city": "Saneberg"
  },
  {
    "postcode": "87534",
    "city": "Schindelberg"
  },
  {
    "postcode": "87534",
    "city": "Sinswang"
  },
  {
    "postcode": "87534",
    "city": "Steibis"
  },
  {
    "postcode": "87534",
    "city": "Steinebach"
  },
  {
    "postcode": "87534",
    "city": "Thalkirchdorf"
  },
  {
    "postcode": "87534",
    "city": "Tronsberg"
  },
  {
    "postcode": "87534",
    "city": "Vorderreute"
  },
  {
    "postcode": "87534",
    "city": "Weißach"
  },
  {
    "postcode": "87534",
    "city": "Wengen"
  },
  {
    "postcode": "87534",
    "city": "Wiedemannsdorf"
  },
  {
    "postcode": "87534",
    "city": "Willis"
  },
  {
    "postcode": "87534",
    "city": "Zell"
  },
  {
    "postcode": "87534",
    "city": "Oberallgäu"
  },
  {
    "postcode": "87534",
    "city": "Aach"
  },
  {
    "postcode": "87534",
    "city": "Döbelisried"
  },
  {
    "postcode": "87534",
    "city": "Eibele"
  },
  {
    "postcode": "87534",
    "city": "Ehrenschwang"
  },
  {
    "postcode": "87534",
    "city": "Glocke"
  },
  {
    "postcode": "87534",
    "city": "Heimoos"
  },
  {
    "postcode": "87534",
    "city": "Hinterhalden"
  },
  {
    "postcode": "87534",
    "city": "Hohenschwand"
  },
  {
    "postcode": "87534",
    "city": "Hub"
  },
  {
    "postcode": "87534",
    "city": "Hänse"
  },
  {
    "postcode": "87534",
    "city": "Im Riemle"
  },
  {
    "postcode": "87534",
    "city": "Nägeleshalde"
  },
  {
    "postcode": "87534",
    "city": "Schlucht"
  },
  {
    "postcode": "87534",
    "city": "Stallebene"
  },
  {
    "postcode": "87534",
    "city": "Stießberg"
  },
  {
    "postcode": "87534",
    "city": "Vorderhalden"
  },
  {
    "postcode": "87534",
    "city": "Weisenbachmühle"
  },
  {
    "postcode": "87538",
    "city": "Au"
  },
  {
    "postcode": "87538",
    "city": "Balderschwang"
  },
  {
    "postcode": "87538",
    "city": "Bauhof"
  },
  {
    "postcode": "87538",
    "city": "Berg im Allgäu"
  },
  {
    "postcode": "87538",
    "city": "Bolsterlang"
  },
  {
    "postcode": "87538",
    "city": "Burgegg im Allgäu"
  },
  {
    "postcode": "87538",
    "city": "Dietrichs"
  },
  {
    "postcode": "87538",
    "city": "Fischen"
  },
  {
    "postcode": "87538",
    "city": "Fischen im Allgäu"
  },
  {
    "postcode": "87538",
    "city": "Gschwend"
  },
  {
    "postcode": "87538",
    "city": "Gundelsberg"
  },
  {
    "postcode": "87538",
    "city": "Hof Allgäu"
  },
  {
    "postcode": "87538",
    "city": "Hof"
  },
  {
    "postcode": "87538",
    "city": "Kierwang"
  },
  {
    "postcode": "87538",
    "city": "Langenwang Allgäu"
  },
  {
    "postcode": "87538",
    "city": "Langenwang"
  },
  {
    "postcode": "87538",
    "city": "Maderhalm im Allgäu"
  },
  {
    "postcode": "87538",
    "city": "Niederdorf"
  },
  {
    "postcode": "87538",
    "city": "Oberdorf"
  },
  {
    "postcode": "87538",
    "city": "Obermaiselstein"
  },
  {
    "postcode": "87538",
    "city": "Obermühlegg"
  },
  {
    "postcode": "87538",
    "city": "Oberthalhofen im Allgäu"
  },
  {
    "postcode": "87538",
    "city": "Ried"
  },
  {
    "postcode": "87538",
    "city": "Schlipfhalden"
  },
  {
    "postcode": "87538",
    "city": "Sonderdorf"
  },
  {
    "postcode": "87538",
    "city": "Untermühlegg"
  },
  {
    "postcode": "87538",
    "city": "Unterthalhofen im Allgäu"
  },
  {
    "postcode": "87538",
    "city": "Wäldle"
  },
  {
    "postcode": "87538",
    "city": "Weiler im Allgäu"
  },
  {
    "postcode": "87538",
    "city": "Oberallgäu"
  },
  {
    "postcode": "87538",
    "city": "Fischen i. Allgäu"
  },
  {
    "postcode": "87538",
    "city": "Grasgehren"
  },
  {
    "postcode": "87538",
    "city": "Hirtenstein"
  },
  {
    "postcode": "87538",
    "city": "Riedle"
  },
  {
    "postcode": "87538",
    "city": "Unterthalhofen"
  },
  {
    "postcode": "87538",
    "city": "Berg"
  },
  {
    "postcode": "87538",
    "city": "Burgegg"
  },
  {
    "postcode": "87538",
    "city": "Oberthalhofen"
  },
  {
    "postcode": "87538",
    "city": "Höldersberg"
  },
  {
    "postcode": "87538",
    "city": "Jägersberg"
  },
  {
    "postcode": "87538",
    "city": "Kreben"
  },
  {
    "postcode": "87538",
    "city": "Maderhalm"
  },
  {
    "postcode": "87538",
    "city": "Weiler"
  },
  {
    "postcode": "87538",
    "city": "Aumühle"
  },
  {
    "postcode": "87538",
    "city": "Haubenegg"
  },
  {
    "postcode": "87541",
    "city": "Bad Hindelang"
  },
  {
    "postcode": "87541",
    "city": "Bad Oberdorf"
  },
  {
    "postcode": "87541",
    "city": "Bruck"
  },
  {
    "postcode": "87541",
    "city": "Gailenberg"
  },
  {
    "postcode": "87541",
    "city": "Groß"
  },
  {
    "postcode": "87541",
    "city": "Hindelang"
  },
  {
    "postcode": "87541",
    "city": "Hinterstein"
  },
  {
    "postcode": "87541",
    "city": "Liebenstein"
  },
  {
    "postcode": "87541",
    "city": "Oberjoch"
  },
  {
    "postcode": "87541",
    "city": "Reckenberg"
  },
  {
    "postcode": "87541",
    "city": "Riedle"
  },
  {
    "postcode": "87541",
    "city": "Unterjoch"
  },
  {
    "postcode": "87541",
    "city": "Vorderhindelang"
  },
  {
    "postcode": "87541",
    "city": "Oberallgäu"
  },
  {
    "postcode": "87541",
    "city": "Beim Kalten Brunnen"
  },
  {
    "postcode": "87541",
    "city": "Obere Mühle"
  },
  {
    "postcode": "87541",
    "city": "Schmiede"
  },
  {
    "postcode": "87541",
    "city": "Zehrerhöfe"
  },
  {
    "postcode": "87544",
    "city": "Altmummen Allgäu"
  },
  {
    "postcode": "87544",
    "city": "Altmummen"
  },
  {
    "postcode": "87544",
    "city": "Bihlerdorf Allgäu"
  },
  {
    "postcode": "87544",
    "city": "Bihlerdorf"
  },
  {
    "postcode": "87544",
    "city": "Blaichach"
  },
  {
    "postcode": "87544",
    "city": "Blaichach Allgäu"
  },
  {
    "postcode": "87544",
    "city": "Ettensberg Allgäu"
  },
  {
    "postcode": "87544",
    "city": "Ettensberg"
  },
  {
    "postcode": "87544",
    "city": "Gunzesried"
  },
  {
    "postcode": "87544",
    "city": "Halden Allgäu"
  },
  {
    "postcode": "87544",
    "city": "Halden"
  },
  {
    "postcode": "87544",
    "city": "Schwanden Allgäu"
  },
  {
    "postcode": "87544",
    "city": "Schwanden"
  },
  {
    "postcode": "87544",
    "city": "Seifriedsberg Kreis Sonthofen"
  },
  {
    "postcode": "87544",
    "city": "Seifriedsberg"
  },
  {
    "postcode": "87544",
    "city": "Oberallgäu"
  },
  {
    "postcode": "87544",
    "city": "Gemeinde Ofterschwang"
  },
  {
    "postcode": "87544",
    "city": "Hofen"
  },
  {
    "postcode": "87544",
    "city": "Säge"
  },
  {
    "postcode": "87544",
    "city": "Kühberg"
  },
  {
    "postcode": "87544",
    "city": "Reute"
  },
  {
    "postcode": "87544",
    "city": "Tanne"
  },
  {
    "postcode": "87545",
    "city": "Agathazell im Allgäu"
  },
  {
    "postcode": "87545",
    "city": "Burgberg"
  },
  {
    "postcode": "87545",
    "city": "Burgberg im Allgäu"
  },
  {
    "postcode": "87545",
    "city": "Häuser im Allgäu"
  },
  {
    "postcode": "87545",
    "city": "Ortwang im Allgäu"
  },
  {
    "postcode": "87545",
    "city": "Oberallgäu"
  },
  {
    "postcode": "87545",
    "city": "Burgberg i. Allgäu"
  },
  {
    "postcode": "87545",
    "city": "Agathazell"
  },
  {
    "postcode": "87545",
    "city": "Häuser"
  },
  {
    "postcode": "87545",
    "city": "Erzflöße"
  },
  {
    "postcode": "87545",
    "city": "Ortwang"
  },
  {
    "postcode": "87547",
    "city": "Aigis Allgäu"
  },
  {
    "postcode": "87547",
    "city": "Aigis"
  },
  {
    "postcode": "87547",
    "city": "Berg"
  },
  {
    "postcode": "87547",
    "city": "Börlas Allgäu"
  },
  {
    "postcode": "87547",
    "city": "Börlas"
  },
  {
    "postcode": "87547",
    "city": "Geratsried Allgäu"
  },
  {
    "postcode": "87547",
    "city": "Geratsried"
  },
  {
    "postcode": "87547",
    "city": "Missen"
  },
  {
    "postcode": "87547",
    "city": "Missen-Wilhams"
  },
  {
    "postcode": "87547",
    "city": "Wiederhofen Allgäu"
  },
  {
    "postcode": "87547",
    "city": "Wiederhofen"
  },
  {
    "postcode": "87547",
    "city": "Oberallgäu"
  },
  {
    "postcode": "87547",
    "city": "Wilhams"
  },
  {
    "postcode": "87549",
    "city": "Altach bei Immenstadt im Allgäu"
  },
  {
    "postcode": "87549",
    "city": "Binzeler"
  },
  {
    "postcode": "87549",
    "city": "Bommen bei Immenstadt im Allgäu"
  },
  {
    "postcode": "87549",
    "city": "Buchenberg bei Immenstadt im Allgäu"
  },
  {
    "postcode": "87549",
    "city": "Engelpolz bei Immenstadt im Allgäu"
  },
  {
    "postcode": "87549",
    "city": "Freidorf im Allgäu"
  },
  {
    "postcode": "87549",
    "city": "Großdorf"
  },
  {
    "postcode": "87549",
    "city": "Hinterberg Kreis Sonthofen"
  },
  {
    "postcode": "87549",
    "city": "Hinterberg"
  },
  {
    "postcode": "87549",
    "city": "Kalchenbach Kreis Sonthofen"
  },
  {
    "postcode": "87549",
    "city": "Kalchenbach"
  },
  {
    "postcode": "87549",
    "city": "Kranzegg bei Immenstadt im Allgäu"
  },
  {
    "postcode": "87549",
    "city": "Rettenberg"
  },
  {
    "postcode": "87549",
    "city": "Rettenberg Oberallgäu"
  },
  {
    "postcode": "87549",
    "city": "Rottach Allgäu"
  },
  {
    "postcode": "87549",
    "city": "Rottach"
  },
  {
    "postcode": "87549",
    "city": "Sterklis Kreis Sonthofen"
  },
  {
    "postcode": "87549",
    "city": "Sterklis"
  },
  {
    "postcode": "87549",
    "city": "Untermaiselstein im Allgäu"
  },
  {
    "postcode": "87549",
    "city": "Vorderburg bei Immenstadt im Allgäu"
  },
  {
    "postcode": "87549",
    "city": "Wagneritz Kreis Sonthofen"
  },
  {
    "postcode": "87549",
    "city": "Wagneritz"
  },
  {
    "postcode": "87549",
    "city": "Weiher Kreis Sonthofen"
  },
  {
    "postcode": "87549",
    "city": "Weiher"
  },
  {
    "postcode": "87549",
    "city": "Oberallgäu"
  },
  {
    "postcode": "87549",
    "city": "Vorderburg"
  },
  {
    "postcode": "87549",
    "city": "Kranzegg"
  },
  {
    "postcode": "87549",
    "city": "Untermaiselstein"
  },
  {
    "postcode": "87549",
    "city": "Altach"
  },
  {
    "postcode": "87549",
    "city": "Freidorf"
  },
  {
    "postcode": "87561",
    "city": "Anatswald"
  },
  {
    "postcode": "87561",
    "city": "Birgsau"
  },
  {
    "postcode": "87561",
    "city": "Dietersberg"
  },
  {
    "postcode": "87561",
    "city": "Einödsbach"
  },
  {
    "postcode": "87561",
    "city": "Gerstruben"
  },
  {
    "postcode": "87561",
    "city": "Jauchen"
  },
  {
    "postcode": "87561",
    "city": "Kornau"
  },
  {
    "postcode": "87561",
    "city": "Oberstdorf"
  },
  {
    "postcode": "87561",
    "city": "Reichenbach bei Oberstdorf"
  },
  {
    "postcode": "87561",
    "city": "Reute"
  },
  {
    "postcode": "87561",
    "city": "Ringang"
  },
  {
    "postcode": "87561",
    "city": "Rubi"
  },
  {
    "postcode": "87561",
    "city": "Schöllang"
  },
  {
    "postcode": "87561",
    "city": "Schwand"
  },
  {
    "postcode": "87561",
    "city": "Spielmannsau"
  },
  {
    "postcode": "87561",
    "city": "Tiefenbach"
  },
  {
    "postcode": "87561",
    "city": "Oberallgäu"
  },
  {
    "postcode": "87561",
    "city": "Balderschwang"
  },
  {
    "postcode": "87561",
    "city": "Christlessee"
  },
  {
    "postcode": "87561",
    "city": "Dienersberg"
  },
  {
    "postcode": "87561",
    "city": "Faistenoy"
  },
  {
    "postcode": "87561",
    "city": "Ferlewang"
  },
  {
    "postcode": "87561",
    "city": "Freibergsee"
  },
  {
    "postcode": "87561",
    "city": "Reichenbach"
  },
  {
    "postcode": "87561",
    "city": "Gebrgoibe"
  },
  {
    "postcode": "87561",
    "city": "Gruben"
  },
  {
    "postcode": "87561",
    "city": "Gsessel"
  },
  {
    "postcode": "87561",
    "city": "Hinterenge"
  },
  {
    "postcode": "87561",
    "city": "Karweidach"
  },
  {
    "postcode": "87561",
    "city": "Krappberg"
  },
  {
    "postcode": "87561",
    "city": "Schattenberg"
  },
  {
    "postcode": "87561",
    "city": "Oytal"
  },
  {
    "postcode": "87561",
    "city": "Oberau"
  },
  {
    "postcode": "87561",
    "city": "Wasach"
  },
  {
    "postcode": "87561",
    "city": "Winkel"
  },
  {
    "postcode": "87600",
    "city": "Großkemnat"
  },
  {
    "postcode": "87600",
    "city": "Hirschzell"
  },
  {
    "postcode": "87600",
    "city": "Kaufbeuren"
  },
  {
    "postcode": "87600",
    "city": "Kleinkemnat"
  },
  {
    "postcode": "87600",
    "city": "Oberbeuren"
  },
  {
    "postcode": "87600",
    "city": "Kaufbeuren-Neugablonz"
  },
  {
    "postcode": "87600",
    "city": "Gemeinde Germaringen"
  },
  {
    "postcode": "87616",
    "city": "Balteratsried"
  },
  {
    "postcode": "87616",
    "city": "Barnstein Schwaben"
  },
  {
    "postcode": "87616",
    "city": "Barnstein"
  },
  {
    "postcode": "87616",
    "city": "Bergers Schwaben"
  },
  {
    "postcode": "87616",
    "city": "Bergers"
  },
  {
    "postcode": "87616",
    "city": "Bertoldshofen"
  },
  {
    "postcode": "87616",
    "city": "Birngschwend Schwaben"
  },
  {
    "postcode": "87616",
    "city": "Birngschwend"
  },
  {
    "postcode": "87616",
    "city": "Fechsen"
  },
  {
    "postcode": "87616",
    "city": "Geigers Schwaben"
  },
  {
    "postcode": "87616",
    "city": "Geigers"
  },
  {
    "postcode": "87616",
    "city": "Geisenried"
  },
  {
    "postcode": "87616",
    "city": "Häusern Schwaben"
  },
  {
    "postcode": "87616",
    "city": "Häusern"
  },
  {
    "postcode": "87616",
    "city": "Herings Schwaben"
  },
  {
    "postcode": "87616",
    "city": "Herings"
  },
  {
    "postcode": "87616",
    "city": "Hofen Schwaben"
  },
  {
    "postcode": "87616",
    "city": "Hofen"
  },
  {
    "postcode": "87616",
    "city": "Holzmanns Schwaben"
  },
  {
    "postcode": "87616",
    "city": "Holzmanns"
  },
  {
    "postcode": "87616",
    "city": "Kaufmanns Schwaben"
  },
  {
    "postcode": "87616",
    "city": "Kaufmanns"
  },
  {
    "postcode": "87616",
    "city": "Kippach Schwaben"
  },
  {
    "postcode": "87616",
    "city": "Kippach"
  },
  {
    "postcode": "87616",
    "city": "Klosterhof Schwaben"
  },
  {
    "postcode": "87616",
    "city": "Klosterhof"
  },
  {
    "postcode": "87616",
    "city": "Kohlhunden"
  },
  {
    "postcode": "87616",
    "city": "Leuterschach"
  },
  {
    "postcode": "87616",
    "city": "Marktoberdorf"
  },
  {
    "postcode": "87616",
    "city": "Ofen Schwaben"
  },
  {
    "postcode": "87616",
    "city": "Ofen"
  },
  {
    "postcode": "87616",
    "city": "Rieder Kreis Marktoberdorf"
  },
  {
    "postcode": "87616",
    "city": "Rieder"
  },
  {
    "postcode": "87616",
    "city": "Sulzschneid"
  },
  {
    "postcode": "87616",
    "city": "Thalhofen an der Wertach"
  },
  {
    "postcode": "87616",
    "city": "Wald Ostallgäu"
  },
  {
    "postcode": "87616",
    "city": "Wald"
  },
  {
    "postcode": "87616",
    "city": "Weibletshofen"
  },
  {
    "postcode": "87616",
    "city": "Wetzlers Schwaben"
  },
  {
    "postcode": "87616",
    "city": "Wetzlers"
  },
  {
    "postcode": "87616",
    "city": "Wies"
  },
  {
    "postcode": "87616",
    "city": "Wimberg Schwaben"
  },
  {
    "postcode": "87616",
    "city": "Wimberg"
  },
  {
    "postcode": "87616",
    "city": "Ostallgäu"
  },
  {
    "postcode": "87616",
    "city": "Thalhofen"
  },
  {
    "postcode": "87629",
    "city": "Eschach am See"
  },
  {
    "postcode": "87629",
    "city": "Füssen"
  },
  {
    "postcode": "87629",
    "city": "Hopfen am See"
  },
  {
    "postcode": "87629",
    "city": "Hopferau"
  },
  {
    "postcode": "87629",
    "city": "Weißensee bei Füssen"
  },
  {
    "postcode": "87629",
    "city": "Ostallgäu"
  },
  {
    "postcode": "87629",
    "city": "Weißensee"
  },
  {
    "postcode": "87629",
    "city": "Hopfen"
  },
  {
    "postcode": "87629",
    "city": "Allgäuer Hof"
  },
  {
    "postcode": "87629",
    "city": "Achmühle"
  },
  {
    "postcode": "87629",
    "city": "Enzensberg"
  },
  {
    "postcode": "87629",
    "city": "Eschach"
  },
  {
    "postcode": "87629",
    "city": "Spöttl"
  },
  {
    "postcode": "87629",
    "city": "Wörth"
  },
  {
    "postcode": "87634",
    "city": "Albrechts"
  },
  {
    "postcode": "87634",
    "city": "Autenried"
  },
  {
    "postcode": "87634",
    "city": "Berg"
  },
  {
    "postcode": "87634",
    "city": "Burg"
  },
  {
    "postcode": "87634",
    "city": "Ebersbach Kreis Marktoberdorf"
  },
  {
    "postcode": "87634",
    "city": "Ebersbach"
  },
  {
    "postcode": "87634",
    "city": "Freien"
  },
  {
    "postcode": "87634",
    "city": "Günzach"
  },
  {
    "postcode": "87634",
    "city": "Hartmannsberg"
  },
  {
    "postcode": "87634",
    "city": "Immenthal"
  },
  {
    "postcode": "87634",
    "city": "Mittelberg"
  },
  {
    "postcode": "87634",
    "city": "Obergünzburg"
  },
  {
    "postcode": "87634",
    "city": "Rohr"
  },
  {
    "postcode": "87634",
    "city": "Sellthüren"
  },
  {
    "postcode": "87634",
    "city": "Steig"
  },
  {
    "postcode": "87634",
    "city": "Thal"
  },
  {
    "postcode": "87634",
    "city": "Willofs Kreis Marktoberdorf"
  },
  {
    "postcode": "87634",
    "city": "Willofs"
  },
  {
    "postcode": "87634",
    "city": "Ostallgäu"
  },
  {
    "postcode": "87637",
    "city": "Albatsried"
  },
  {
    "postcode": "87637",
    "city": "Aufmberg"
  },
  {
    "postcode": "87637",
    "city": "Burk"
  },
  {
    "postcode": "87637",
    "city": "Eisenberg Allgäu"
  },
  {
    "postcode": "87637",
    "city": "Eisenberg"
  },
  {
    "postcode": "87637",
    "city": "Engelbolz"
  },
  {
    "postcode": "87637",
    "city": "Enzenstetten"
  },
  {
    "postcode": "87637",
    "city": "Felben"
  },
  {
    "postcode": "87637",
    "city": "Hitzleried"
  },
  {
    "postcode": "87637",
    "city": "Hörmatzen"
  },
  {
    "postcode": "87637",
    "city": "Kirchthal"
  },
  {
    "postcode": "87637",
    "city": "Lobach"
  },
  {
    "postcode": "87637",
    "city": "Rennbothen"
  },
  {
    "postcode": "87637",
    "city": "Ried"
  },
  {
    "postcode": "87637",
    "city": "Riedegg"
  },
  {
    "postcode": "87637",
    "city": "Schwarzenbach"
  },
  {
    "postcode": "87637",
    "city": "Seeg"
  },
  {
    "postcode": "87637",
    "city": "Seeweiler"
  },
  {
    "postcode": "87637",
    "city": "Sulzberg"
  },
  {
    "postcode": "87637",
    "city": "Unterreuten"
  },
  {
    "postcode": "87637",
    "city": "Wiesleuten"
  },
  {
    "postcode": "87637",
    "city": "Ostallgäu"
  },
  {
    "postcode": "87637",
    "city": "Zell"
  },
  {
    "postcode": "87637",
    "city": "Speiden"
  },
  {
    "postcode": "87637",
    "city": "Osterreuten"
  },
  {
    "postcode": "87637",
    "city": "Schweinegg"
  },
  {
    "postcode": "87637",
    "city": "Kälber-Bühel"
  },
  {
    "postcode": "87637",
    "city": "Oberlangegg"
  },
  {
    "postcode": "87637",
    "city": "Oberreuten"
  },
  {
    "postcode": "87637",
    "city": "Amberg"
  },
  {
    "postcode": "87637",
    "city": "Unterlangegg"
  },
  {
    "postcode": "87640",
    "city": "Altdorf Schwaben"
  },
  {
    "postcode": "87640",
    "city": "Altdorf"
  },
  {
    "postcode": "87640",
    "city": "Biessenhofen"
  },
  {
    "postcode": "87640",
    "city": "Ebenhofen"
  },
  {
    "postcode": "87640",
    "city": "Hörmanshofen"
  },
  {
    "postcode": "87640",
    "city": "Kreen"
  },
  {
    "postcode": "87640",
    "city": "Ostallgäu"
  },
  {
    "postcode": "87640",
    "city": "Marxbauer"
  },
  {
    "postcode": "87640",
    "city": "Höllenbauer"
  },
  {
    "postcode": "87640",
    "city": "Thomabauer"
  },
  {
    "postcode": "87642",
    "city": "Bayerniederhofen"
  },
  {
    "postcode": "87642",
    "city": "Berghof"
  },
  {
    "postcode": "87642",
    "city": "Buching"
  },
  {
    "postcode": "87642",
    "city": "Greith"
  },
  {
    "postcode": "87642",
    "city": "Halblech"
  },
  {
    "postcode": "87642",
    "city": "Kniebis"
  },
  {
    "postcode": "87642",
    "city": "Trauchgau"
  },
  {
    "postcode": "87642",
    "city": "Ostallgäu"
  },
  {
    "postcode": "87642",
    "city": "Stockingen"
  },
  {
    "postcode": "87642",
    "city": "Bruckschmid"
  },
  {
    "postcode": "87645",
    "city": "Alterschrofen"
  },
  {
    "postcode": "87645",
    "city": "Brunnen"
  },
  {
    "postcode": "87645",
    "city": "Hohenschwangau"
  },
  {
    "postcode": "87645",
    "city": "Horn"
  },
  {
    "postcode": "87645",
    "city": "Mühlberg"
  },
  {
    "postcode": "87645",
    "city": "Schwangau"
  },
  {
    "postcode": "87645",
    "city": "Waltenhofen"
  },
  {
    "postcode": "87645",
    "city": "Ostallgäu"
  },
  {
    "postcode": "87645",
    "city": "Frauenberg"
  },
  {
    "postcode": "87647",
    "city": "Gemeinde Aitrang"
  },
  {
    "postcode": "87647",
    "city": "Heuwang"
  },
  {
    "postcode": "87647",
    "city": "Kraftisried"
  },
  {
    "postcode": "87647",
    "city": "Oberthingau"
  },
  {
    "postcode": "87647",
    "city": "Reinhardsried"
  },
  {
    "postcode": "87647",
    "city": "Unterthingau"
  },
  {
    "postcode": "87647",
    "city": "Westerried"
  },
  {
    "postcode": "87647",
    "city": "Ostallgäu"
  },
  {
    "postcode": "87648",
    "city": "Aitrang"
  },
  {
    "postcode": "87648",
    "city": "Binnings"
  },
  {
    "postcode": "87648",
    "city": "Görwangs"
  },
  {
    "postcode": "87648",
    "city": "Huttenwang"
  },
  {
    "postcode": "87648",
    "city": "Münzenried"
  },
  {
    "postcode": "87648",
    "city": "Wenglingen"
  },
  {
    "postcode": "87648",
    "city": "Ostallgäu"
  },
  {
    "postcode": "87648",
    "city": "Lohbauer"
  },
  {
    "postcode": "87648",
    "city": "Unger"
  },
  {
    "postcode": "87650",
    "city": "Baisweil"
  },
  {
    "postcode": "87650",
    "city": "Großried"
  },
  {
    "postcode": "87650",
    "city": "Lauchdorf"
  },
  {
    "postcode": "87650",
    "city": "Ostallgäu"
  },
  {
    "postcode": "87651",
    "city": "Bernbach Schwaben"
  },
  {
    "postcode": "87651",
    "city": "Bernbach"
  },
  {
    "postcode": "87651",
    "city": "Bidingen"
  },
  {
    "postcode": "87651",
    "city": "Bidingen Schwaben"
  },
  {
    "postcode": "87651",
    "city": "Geblatsried Schwaben"
  },
  {
    "postcode": "87651",
    "city": "Geblatsried"
  },
  {
    "postcode": "87651",
    "city": "Geislatsried Schwaben"
  },
  {
    "postcode": "87651",
    "city": "Geislatsried"
  },
  {
    "postcode": "87651",
    "city": "Königsried Schwaben"
  },
  {
    "postcode": "87651",
    "city": "Königsried"
  },
  {
    "postcode": "87651",
    "city": "Ob"
  },
  {
    "postcode": "87651",
    "city": "Tremmelschwang Schwaben"
  },
  {
    "postcode": "87651",
    "city": "Tremmelschwang"
  },
  {
    "postcode": "87651",
    "city": "Weiler Schwaben"
  },
  {
    "postcode": "87651",
    "city": "Weiler"
  },
  {
    "postcode": "87651",
    "city": "Ostallgäu"
  },
  {
    "postcode": "87651",
    "city": "Kalvarienberg"
  },
  {
    "postcode": "87651",
    "city": "Ruderatsried"
  },
  {
    "postcode": "87653",
    "city": "Eggenthal Schwaben"
  },
  {
    "postcode": "87653",
    "city": "Eggenthal"
  },
  {
    "postcode": "87653",
    "city": "Röhrwang"
  },
  {
    "postcode": "87653",
    "city": "Ostallgäu"
  },
  {
    "postcode": "87653",
    "city": "Bayersried"
  },
  {
    "postcode": "87653",
    "city": "Beschaunen"
  },
  {
    "postcode": "87653",
    "city": "Binkenhofen"
  },
  {
    "postcode": "87653",
    "city": "Blumenried"
  },
  {
    "postcode": "87653",
    "city": "Grub"
  },
  {
    "postcode": "87653",
    "city": "Linden"
  },
  {
    "postcode": "87653",
    "city": "Mayers"
  },
  {
    "postcode": "87653",
    "city": "Mindeltal"
  },
  {
    "postcode": "87653",
    "city": "Reichartsried"
  },
  {
    "postcode": "87653",
    "city": "Romatsried"
  },
  {
    "postcode": "87653",
    "city": "Schönblick"
  },
  {
    "postcode": "87653",
    "city": "Schönlings"
  },
  {
    "postcode": "87653",
    "city": "Schleifmühle"
  },
  {
    "postcode": "87653",
    "city": "Sonderhof"
  },
  {
    "postcode": "87653",
    "city": "Stehlings"
  },
  {
    "postcode": "87653",
    "city": "Steig"
  },
  {
    "postcode": "87653",
    "city": "Unterwebams"
  },
  {
    "postcode": "87653",
    "city": "Völken"
  },
  {
    "postcode": "87653",
    "city": "Webams"
  },
  {
    "postcode": "87653",
    "city": "Wies"
  },
  {
    "postcode": "87654",
    "city": "Blöcktach"
  },
  {
    "postcode": "87654",
    "city": "Friesenried"
  },
  {
    "postcode": "87654",
    "city": "Salenwang"
  },
  {
    "postcode": "87654",
    "city": "Weißen"
  },
  {
    "postcode": "87654",
    "city": "Ostallgäu"
  },
  {
    "postcode": "87654",
    "city": "Mehl"
  },
  {
    "postcode": "87656",
    "city": "Germaringen"
  },
  {
    "postcode": "87656",
    "city": "Ketterschwang"
  },
  {
    "postcode": "87656",
    "city": "Obergermaringen"
  },
  {
    "postcode": "87656",
    "city": "Schwäbishofen"
  },
  {
    "postcode": "87656",
    "city": "Untergermaringen"
  },
  {
    "postcode": "87656",
    "city": "Ostallgäu"
  },
  {
    "postcode": "87657",
    "city": "Durber"
  },
  {
    "postcode": "87657",
    "city": "Görisried"
  },
  {
    "postcode": "87657",
    "city": "Hasenmahd"
  },
  {
    "postcode": "87657",
    "city": "Stadels"
  },
  {
    "postcode": "87657",
    "city": "Vordersteig"
  },
  {
    "postcode": "87657",
    "city": "Wildberg"
  },
  {
    "postcode": "87657",
    "city": "Ostallgäu"
  },
  {
    "postcode": "87659",
    "city": "Hopferau"
  },
  {
    "postcode": "87659",
    "city": "Ostallgäu"
  },
  {
    "postcode": "87659",
    "city": "Wiedemen"
  },
  {
    "postcode": "87660",
    "city": "Irsee"
  },
  {
    "postcode": "87660",
    "city": "Oggenried"
  },
  {
    "postcode": "87660",
    "city": "Wielen"
  },
  {
    "postcode": "87660",
    "city": "Ostallgäu"
  },
  {
    "postcode": "87660",
    "city": "Alm"
  },
  {
    "postcode": "87660",
    "city": "Bickenried"
  },
  {
    "postcode": "87660",
    "city": "Eiberg"
  },
  {
    "postcode": "87660",
    "city": "Haslach"
  },
  {
    "postcode": "87660",
    "city": "Maxau"
  },
  {
    "postcode": "87660",
    "city": "Schönblick"
  },
  {
    "postcode": "87662",
    "city": "Aufkirch Kreis Kaufbeuren"
  },
  {
    "postcode": "87662",
    "city": "Aufkirch"
  },
  {
    "postcode": "87662",
    "city": "Blonhofen bei Osterzell"
  },
  {
    "postcode": "87662",
    "city": "Eldratshofen bei Osterzell"
  },
  {
    "postcode": "87662",
    "city": "Frankenhofen bei Osterzell"
  },
  {
    "postcode": "87662",
    "city": "Gerbishofen"
  },
  {
    "postcode": "87662",
    "city": "Helmishofen"
  },
  {
    "postcode": "87662",
    "city": "Kaltental Schwaben"
  },
  {
    "postcode": "87662",
    "city": "Kaltental"
  },
  {
    "postcode": "87662",
    "city": "Oberzell bei Osterzell"
  },
  {
    "postcode": "87662",
    "city": "Ödwang bei Osterzell"
  },
  {
    "postcode": "87662",
    "city": "Osterzell"
  },
  {
    "postcode": "87662",
    "city": "Stocken bei Osterzell"
  },
  {
    "postcode": "87662",
    "city": "Ostallgäu"
  },
  {
    "postcode": "87662",
    "city": "Frankenhofen"
  },
  {
    "postcode": "87662",
    "city": "Blonhofen"
  },
  {
    "postcode": "87662",
    "city": "Eldratshofen"
  },
  {
    "postcode": "87662",
    "city": "Stocken"
  },
  {
    "postcode": "87662",
    "city": "Ödwang"
  },
  {
    "postcode": "87662",
    "city": "Oberzell"
  },
  {
    "postcode": "87663",
    "city": "Albisried"
  },
  {
    "postcode": "87663",
    "city": "Außerlengenwang"
  },
  {
    "postcode": "87663",
    "city": "Bichel"
  },
  {
    "postcode": "87663",
    "city": "Frödenberg"
  },
  {
    "postcode": "87663",
    "city": "Hennenschwang"
  },
  {
    "postcode": "87663",
    "city": "Lengenwang"
  },
  {
    "postcode": "87663",
    "city": "Luttenried"
  },
  {
    "postcode": "87663",
    "city": "Reuthe"
  },
  {
    "postcode": "87663",
    "city": "Ried"
  },
  {
    "postcode": "87663",
    "city": "Sigratsbold"
  },
  {
    "postcode": "87663",
    "city": "Weg"
  },
  {
    "postcode": "87663",
    "city": "Ostallgäu"
  },
  {
    "postcode": "87665",
    "city": "Frankenried"
  },
  {
    "postcode": "87665",
    "city": "Mauerstetten"
  },
  {
    "postcode": "87665",
    "city": "Mauerstetten bei Kaufbeuren"
  },
  {
    "postcode": "87665",
    "city": "Steinholz"
  },
  {
    "postcode": "87665",
    "city": "Ostallgäu"
  },
  {
    "postcode": "87665",
    "city": "Hausen"
  },
  {
    "postcode": "87666",
    "city": "Hammerschmiede"
  },
  {
    "postcode": "87666",
    "city": "Ingenried"
  },
  {
    "postcode": "87666",
    "city": "Leinau"
  },
  {
    "postcode": "87666",
    "city": "Pforzen"
  },
  {
    "postcode": "87666",
    "city": "Ostallgäu"
  },
  {
    "postcode": "87668",
    "city": "Rieden"
  },
  {
    "postcode": "87668",
    "city": "Rieden bei Kaufbeuren"
  },
  {
    "postcode": "87668",
    "city": "Zellerberg"
  },
  {
    "postcode": "87668",
    "city": "Ostallgäu"
  },
  {
    "postcode": "87669",
    "city": "Dietringen Forggensee"
  },
  {
    "postcode": "87669",
    "city": "Dietringen"
  },
  {
    "postcode": "87669",
    "city": "Osterreinen am Forggensee"
  },
  {
    "postcode": "87669",
    "city": "Rieden"
  },
  {
    "postcode": "87669",
    "city": "Rieden am Forggensee"
  },
  {
    "postcode": "87669",
    "city": "Ostallgäu"
  },
  {
    "postcode": "87669",
    "city": "Osterreinen"
  },
  {
    "postcode": "87671",
    "city": "Neuenried"
  },
  {
    "postcode": "87671",
    "city": "Oberweiler"
  },
  {
    "postcode": "87671",
    "city": "Ronsberg"
  },
  {
    "postcode": "87671",
    "city": "Zadels"
  },
  {
    "postcode": "87671",
    "city": "Ostallgäu"
  },
  {
    "postcode": "87672",
    "city": "Bischofswang Forggensee"
  },
  {
    "postcode": "87672",
    "city": "Bischofswang"
  },
  {
    "postcode": "87672",
    "city": "Fischhaus Forggensee"
  },
  {
    "postcode": "87672",
    "city": "Fischhaus"
  },
  {
    "postcode": "87672",
    "city": "Freßlesreute Forggensee"
  },
  {
    "postcode": "87672",
    "city": "Freßlesreute"
  },
  {
    "postcode": "87672",
    "city": "Kögel Forggensee"
  },
  {
    "postcode": "87672",
    "city": "Kögel"
  },
  {
    "postcode": "87672",
    "city": "Langenwald Forggensee"
  },
  {
    "postcode": "87672",
    "city": "Langenwald"
  },
  {
    "postcode": "87672",
    "city": "Roßhaupten Forggensee"
  },
  {
    "postcode": "87672",
    "city": "Roßhaupten"
  },
  {
    "postcode": "87672",
    "city": "Tiefenbruck Forggensee"
  },
  {
    "postcode": "87672",
    "city": "Tiefenbruck"
  },
  {
    "postcode": "87672",
    "city": "Ostallgäu"
  },
  {
    "postcode": "87674",
    "city": "Apfeltrang"
  },
  {
    "postcode": "87674",
    "city": "Heimenhofen"
  },
  {
    "postcode": "87674",
    "city": "Hiemenhofen"
  },
  {
    "postcode": "87674",
    "city": "Immenhofen"
  },
  {
    "postcode": "87674",
    "city": "Ruderatshofen"
  },
  {
    "postcode": "87674",
    "city": "Ostallgäu"
  },
  {
    "postcode": "87675",
    "city": "Buchen am Auerberg"
  },
  {
    "postcode": "87675",
    "city": "Burgleiten am Auerberg"
  },
  {
    "postcode": "87675",
    "city": "Dattenried am Auerberg"
  },
  {
    "postcode": "87675",
    "city": "Echt am Auerberg"
  },
  {
    "postcode": "87675",
    "city": "Heggen am Auerberg"
  },
  {
    "postcode": "87675",
    "city": "Hofen am Auerberg"
  },
  {
    "postcode": "87675",
    "city": "Hofstatt am Auerberg"
  },
  {
    "postcode": "87675",
    "city": "Mösten am Auerberg"
  },
  {
    "postcode": "87675",
    "city": "Pracht am Auerberg"
  },
  {
    "postcode": "87675",
    "city": "Remnatsried am Auerberg"
  },
  {
    "postcode": "87675",
    "city": "Rettenbach am Auerberg"
  },
  {
    "postcode": "87675",
    "city": "Riedhof am Auerberg"
  },
  {
    "postcode": "87675",
    "city": "Salchenried am Auerberg"
  },
  {
    "postcode": "87675",
    "city": "Seehof am Auerberg"
  },
  {
    "postcode": "87675",
    "city": "Settele am Auerberg"
  },
  {
    "postcode": "87675",
    "city": "Steinbach am Auerberg"
  },
  {
    "postcode": "87675",
    "city": "Stötten"
  },
  {
    "postcode": "87675",
    "city": "Stötten am Auerberg"
  },
  {
    "postcode": "87675",
    "city": "Wies am Auerberg"
  },
  {
    "postcode": "87675",
    "city": "Ostallgäu"
  },
  {
    "postcode": "87675",
    "city": "Rettenbach a.Auerberg"
  },
  {
    "postcode": "87675",
    "city": "Stötten a. Auerberg"
  },
  {
    "postcode": "87675",
    "city": "Steinbach"
  },
  {
    "postcode": "87675",
    "city": "Holsteiner"
  },
  {
    "postcode": "87675",
    "city": "Häusler"
  },
  {
    "postcode": "87675",
    "city": "Lusweber"
  },
  {
    "postcode": "87677",
    "city": "Gennachhausen"
  },
  {
    "postcode": "87677",
    "city": "Linden"
  },
  {
    "postcode": "87677",
    "city": "Reichenbach"
  },
  {
    "postcode": "87677",
    "city": "Stöttwang"
  },
  {
    "postcode": "87677",
    "city": "Thalhofen an der Gennach"
  },
  {
    "postcode": "87677",
    "city": "Ostallgäu"
  },
  {
    "postcode": "87677",
    "city": "Thalhofen"
  },
  {
    "postcode": "87679",
    "city": "Dösingen"
  },
  {
    "postcode": "87679",
    "city": "Westendorf"
  },
  {
    "postcode": "87679",
    "city": "Westendorf bei Kaufbeuren"
  },
  {
    "postcode": "87679",
    "city": "Ostallgäu"
  },
  {
    "postcode": "87679",
    "city": "Hart"
  },
  {
    "postcode": "87700",
    "city": "Amendingen Kreis Memmingen"
  },
  {
    "postcode": "87700",
    "city": "Amendingen"
  },
  {
    "postcode": "87700",
    "city": "Bleiche"
  },
  {
    "postcode": "87700",
    "city": "Buxach bei Memmingen"
  },
  {
    "postcode": "87700",
    "city": "Dickenreishausen"
  },
  {
    "postcode": "87700",
    "city": "Eisenburg"
  },
  {
    "postcode": "87700",
    "city": "Ferthofen"
  },
  {
    "postcode": "87700",
    "city": "Grünenfurt Kreis Memmingen"
  },
  {
    "postcode": "87700",
    "city": "Grünenfurt"
  },
  {
    "postcode": "87700",
    "city": "Hart bei Memmingen"
  },
  {
    "postcode": "87700",
    "city": "Hitzenhofen"
  },
  {
    "postcode": "87700",
    "city": "Memmingen"
  },
  {
    "postcode": "87700",
    "city": "Steinheim bei Memmingen"
  },
  {
    "postcode": "87700",
    "city": "Volkratshofen"
  },
  {
    "postcode": "87700",
    "city": "Buxach"
  },
  {
    "postcode": "87700",
    "city": "Steinheim"
  },
  {
    "postcode": "87700",
    "city": "Hart"
  },
  {
    "postcode": "87700",
    "city": "Dickenreis"
  },
  {
    "postcode": "87719",
    "city": "Bergerhausen Schwaben"
  },
  {
    "postcode": "87719",
    "city": "Bergerhausen"
  },
  {
    "postcode": "87719",
    "city": "Doldenhausen Schwaben"
  },
  {
    "postcode": "87719",
    "city": "Doldenhausen"
  },
  {
    "postcode": "87719",
    "city": "Gernstall"
  },
  {
    "postcode": "87719",
    "city": "Heimenegg"
  },
  {
    "postcode": "87719",
    "city": "Katzenhirn Kreis Mindelheim"
  },
  {
    "postcode": "87719",
    "city": "Katzenhirn"
  },
  {
    "postcode": "87719",
    "city": "Lohhof Schwaben"
  },
  {
    "postcode": "87719",
    "city": "Lohhof"
  },
  {
    "postcode": "87719",
    "city": "Mindelau"
  },
  {
    "postcode": "87719",
    "city": "Mindelheim"
  },
  {
    "postcode": "87719",
    "city": "Nassenbeuren"
  },
  {
    "postcode": "87719",
    "city": "Oberauerbach Schwaben"
  },
  {
    "postcode": "87719",
    "city": "Oberauerbach"
  },
  {
    "postcode": "87719",
    "city": "Sankt Anna Kreis Mindelheim"
  },
  {
    "postcode": "87719",
    "city": "Sankt Anna"
  },
  {
    "postcode": "87719",
    "city": "Unggenried"
  },
  {
    "postcode": "87719",
    "city": "Unterauerbach"
  },
  {
    "postcode": "87719",
    "city": "Westernach Schwaben"
  },
  {
    "postcode": "87719",
    "city": "Westernach"
  },
  {
    "postcode": "87719",
    "city": "Unterallgäu"
  },
  {
    "postcode": "87719",
    "city": "Jägersruh"
  },
  {
    "postcode": "87719",
    "city": "Morau"
  },
  {
    "postcode": "87719",
    "city": "St. Anna"
  },
  {
    "postcode": "87719",
    "city": "Wiesmühle"
  },
  {
    "postcode": "87724",
    "city": "Betzisried"
  },
  {
    "postcode": "87724",
    "city": "Bibelsberg"
  },
  {
    "postcode": "87724",
    "city": "Blauhof"
  },
  {
    "postcode": "87724",
    "city": "Boschach"
  },
  {
    "postcode": "87724",
    "city": "Brüchlins"
  },
  {
    "postcode": "87724",
    "city": "Daßberg"
  },
  {
    "postcode": "87724",
    "city": "Dennenberg"
  },
  {
    "postcode": "87724",
    "city": "Eggisried"
  },
  {
    "postcode": "87724",
    "city": "Eheim"
  },
  {
    "postcode": "87724",
    "city": "Eldern"
  },
  {
    "postcode": "87724",
    "city": "Guggenberg"
  },
  {
    "postcode": "87724",
    "city": "Gumpratsried"
  },
  {
    "postcode": "87724",
    "city": "Haitzen"
  },
  {
    "postcode": "87724",
    "city": "Halbersberg"
  },
  {
    "postcode": "87724",
    "city": "Hofs"
  },
  {
    "postcode": "87724",
    "city": "Langenberg"
  },
  {
    "postcode": "87724",
    "city": "Leupolz"
  },
  {
    "postcode": "87724",
    "city": "Niebers"
  },
  {
    "postcode": "87724",
    "city": "Ollarzried"
  },
  {
    "postcode": "87724",
    "city": "Ottobeuren"
  },
  {
    "postcode": "87724",
    "city": "Reuthen"
  },
  {
    "postcode": "87724",
    "city": "Schachen"
  },
  {
    "postcode": "87724",
    "city": "Schellenberg"
  },
  {
    "postcode": "87724",
    "city": "Schrallen"
  },
  {
    "postcode": "87724",
    "city": "Stephansried"
  },
  {
    "postcode": "87724",
    "city": "Unterhaslach"
  },
  {
    "postcode": "87724",
    "city": "Wolferts"
  },
  {
    "postcode": "87724",
    "city": "Unterallgäu"
  },
  {
    "postcode": "87724",
    "city": "Böglins"
  },
  {
    "postcode": "87724",
    "city": "Bühl"
  },
  {
    "postcode": "87724",
    "city": "Fröhlins"
  },
  {
    "postcode": "87724",
    "city": "Geislins"
  },
  {
    "postcode": "87724",
    "city": "Gut"
  },
  {
    "postcode": "87724",
    "city": "Höhe"
  },
  {
    "postcode": "87724",
    "city": "Hahnenbühl"
  },
  {
    "postcode": "87724",
    "city": "Hessen"
  },
  {
    "postcode": "87724",
    "city": "Klosterwald"
  },
  {
    "postcode": "87724",
    "city": "Krautenberg"
  },
  {
    "postcode": "87724",
    "city": "Neuvogelsang"
  },
  {
    "postcode": "87724",
    "city": "Oberhaslach"
  },
  {
    "postcode": "87724",
    "city": "Oberried"
  },
  {
    "postcode": "87724",
    "city": "Rempolz"
  },
  {
    "postcode": "87724",
    "city": "Ölbrechts"
  },
  {
    "postcode": "87724",
    "city": "Schiessenhof"
  },
  {
    "postcode": "87724",
    "city": "Schochen"
  },
  {
    "postcode": "87724",
    "city": "Schochenhof"
  },
  {
    "postcode": "87724",
    "city": "Schoren"
  },
  {
    "postcode": "87724",
    "city": "Vogelsang"
  },
  {
    "postcode": "87724",
    "city": "Wetzlins"
  },
  {
    "postcode": "87727",
    "city": "Babenhausen"
  },
  {
    "postcode": "87727",
    "city": "Babenhausen Schwaben"
  },
  {
    "postcode": "87727",
    "city": "Klosterbeuren"
  },
  {
    "postcode": "87727",
    "city": "Unterschönegg Kreis Illertissen"
  },
  {
    "postcode": "87727",
    "city": "Unterschönegg"
  },
  {
    "postcode": "87727",
    "city": "Unterallgäu"
  },
  {
    "postcode": "87730",
    "city": "Bad Grönenbach Allgäu"
  },
  {
    "postcode": "87730",
    "city": "Bad Grönenbach"
  },
  {
    "postcode": "87730",
    "city": "Gmeinschwenden"
  },
  {
    "postcode": "87730",
    "city": "Haitzen"
  },
  {
    "postcode": "87730",
    "city": "Herbisried"
  },
  {
    "postcode": "87730",
    "city": "Hörpolz Kreis Memmingen"
  },
  {
    "postcode": "87730",
    "city": "Hörpolz"
  },
  {
    "postcode": "87730",
    "city": "Hueb"
  },
  {
    "postcode": "87730",
    "city": "Ittelsburg"
  },
  {
    "postcode": "87730",
    "city": "Kornhofen"
  },
  {
    "postcode": "87730",
    "city": "Oberthal"
  },
  {
    "postcode": "87730",
    "city": "Raupolz"
  },
  {
    "postcode": "87730",
    "city": "Rothenstein"
  },
  {
    "postcode": "87730",
    "city": "Schachen Kreis Memmingen"
  },
  {
    "postcode": "87730",
    "city": "Schachen"
  },
  {
    "postcode": "87730",
    "city": "Seefeld"
  },
  {
    "postcode": "87730",
    "city": "Streifen"
  },
  {
    "postcode": "87730",
    "city": "Thal"
  },
  {
    "postcode": "87730",
    "city": "Unterthal"
  },
  {
    "postcode": "87730",
    "city": "Wieslings Kreis Memmingen"
  },
  {
    "postcode": "87730",
    "city": "Wieslings"
  },
  {
    "postcode": "87730",
    "city": "Zell Kreis Memmingen"
  },
  {
    "postcode": "87730",
    "city": "Zell"
  },
  {
    "postcode": "87730",
    "city": "Ziegelberg"
  },
  {
    "postcode": "87730",
    "city": "Unterallgäu"
  },
  {
    "postcode": "87730",
    "city": "Au"
  },
  {
    "postcode": "87730",
    "city": "Brandholz"
  },
  {
    "postcode": "87730",
    "city": "Darast"
  },
  {
    "postcode": "87730",
    "city": "Dießlings"
  },
  {
    "postcode": "87730",
    "city": "Egg"
  },
  {
    "postcode": "87730",
    "city": "Eggberg"
  },
  {
    "postcode": "87730",
    "city": "Ehwiesmühle"
  },
  {
    "postcode": "87730",
    "city": "Falken"
  },
  {
    "postcode": "87730",
    "city": "Fautzen"
  },
  {
    "postcode": "87730",
    "city": "Frauenkau"
  },
  {
    "postcode": "87730",
    "city": "Greit"
  },
  {
    "postcode": "87730",
    "city": "Hintergsäng"
  },
  {
    "postcode": "87730",
    "city": "Hohmanns"
  },
  {
    "postcode": "87730",
    "city": "In der Tarrast"
  },
  {
    "postcode": "87730",
    "city": "Koppenloh"
  },
  {
    "postcode": "87730",
    "city": "Kreuzbühl"
  },
  {
    "postcode": "87730",
    "city": "Manneberg"
  },
  {
    "postcode": "87730",
    "city": "Niedergsäng"
  },
  {
    "postcode": "87730",
    "city": "Niederholz"
  },
  {
    "postcode": "87730",
    "city": "Rothmoos"
  },
  {
    "postcode": "87730",
    "city": "Ölmühle"
  },
  {
    "postcode": "87730",
    "city": "Schulerloch"
  },
  {
    "postcode": "87730",
    "city": "Schwenden"
  },
  {
    "postcode": "87730",
    "city": "Vordergsäng"
  },
  {
    "postcode": "87730",
    "city": "Waldegg"
  },
  {
    "postcode": "87730",
    "city": "Zeller Einöde"
  },
  {
    "postcode": "87730",
    "city": "Ziegelstadel"
  },
  {
    "postcode": "87733",
    "city": "Altisried"
  },
  {
    "postcode": "87733",
    "city": "Engetried"
  },
  {
    "postcode": "87733",
    "city": "Eutenhausen"
  },
  {
    "postcode": "87733",
    "city": "Frechenrieden"
  },
  {
    "postcode": "87733",
    "city": "Gottenau"
  },
  {
    "postcode": "87733",
    "city": "Lannenberg"
  },
  {
    "postcode": "87733",
    "city": "Lichtenau"
  },
  {
    "postcode": "87733",
    "city": "Markt Rettenbach"
  },
  {
    "postcode": "87733",
    "city": "Mussenhausen"
  },
  {
    "postcode": "87733",
    "city": "Ried"
  },
  {
    "postcode": "87733",
    "city": "Wineden"
  },
  {
    "postcode": "87733",
    "city": "Unterallgäu"
  },
  {
    "postcode": "87733",
    "city": "Arlisberg"
  },
  {
    "postcode": "87733",
    "city": "Bruderhof"
  },
  {
    "postcode": "87733",
    "city": "Burg"
  },
  {
    "postcode": "87733",
    "city": "Erlis"
  },
  {
    "postcode": "87733",
    "city": "Griestal"
  },
  {
    "postcode": "87733",
    "city": "Hatzleberg"
  },
  {
    "postcode": "87733",
    "city": "Hillenloh"
  },
  {
    "postcode": "87733",
    "city": "Buchenbrunn"
  },
  {
    "postcode": "87733",
    "city": "Hochholz"
  },
  {
    "postcode": "87733",
    "city": "Hochreute"
  },
  {
    "postcode": "87733",
    "city": "Hammerschmiede"
  },
  {
    "postcode": "87733",
    "city": "Köndlberg"
  },
  {
    "postcode": "87733",
    "city": "Kapelle"
  },
  {
    "postcode": "87733",
    "city": "Kilbrakhof"
  },
  {
    "postcode": "87733",
    "city": "Linden"
  },
  {
    "postcode": "87733",
    "city": "Paradies"
  },
  {
    "postcode": "87733",
    "city": "Rohrhof"
  },
  {
    "postcode": "87733",
    "city": "Rotmoos"
  },
  {
    "postcode": "87733",
    "city": "Speckreu"
  },
  {
    "postcode": "87733",
    "city": "Stein"
  },
  {
    "postcode": "87733",
    "city": "Windenberg"
  },
  {
    "postcode": "87734",
    "city": "Benningen bei Memmingen"
  },
  {
    "postcode": "87734",
    "city": "Unterallgäu"
  },
  {
    "postcode": "87734",
    "city": "Benningen"
  },
  {
    "postcode": "87736",
    "city": "Berg"
  },
  {
    "postcode": "87736",
    "city": "Böhen"
  },
  {
    "postcode": "87736",
    "city": "Böhen Unterallgäu"
  },
  {
    "postcode": "87736",
    "city": "Brandholz"
  },
  {
    "postcode": "87736",
    "city": "Fricken"
  },
  {
    "postcode": "87736",
    "city": "Günzegg"
  },
  {
    "postcode": "87736",
    "city": "Hüners"
  },
  {
    "postcode": "87736",
    "city": "Karlins"
  },
  {
    "postcode": "87736",
    "city": "Kuttern"
  },
  {
    "postcode": "87736",
    "city": "Lampolz"
  },
  {
    "postcode": "87736",
    "city": "Oberwarlins"
  },
  {
    "postcode": "87736",
    "city": "Unterwaldmühle"
  },
  {
    "postcode": "87736",
    "city": "Unterwarlins"
  },
  {
    "postcode": "87736",
    "city": "Unterallgäu"
  },
  {
    "postcode": "87736",
    "city": "Nollen"
  },
  {
    "postcode": "87736",
    "city": "Osterberg"
  },
  {
    "postcode": "87736",
    "city": "Pfaudlins"
  },
  {
    "postcode": "87736",
    "city": "Rechberg"
  },
  {
    "postcode": "87736",
    "city": "Ölmühle"
  },
  {
    "postcode": "87736",
    "city": "Schögglins"
  },
  {
    "postcode": "87736",
    "city": "Schwanden"
  },
  {
    "postcode": "87736",
    "city": "Stöcken"
  },
  {
    "postcode": "87736",
    "city": "Waldmühle"
  },
  {
    "postcode": "87736",
    "city": "Westenried"
  },
  {
    "postcode": "87736",
    "city": "Wies"
  },
  {
    "postcode": "87737",
    "city": "Boos"
  },
  {
    "postcode": "87737",
    "city": "Boos bei Memmingen"
  },
  {
    "postcode": "87737",
    "city": "Reichau Schwaben"
  },
  {
    "postcode": "87737",
    "city": "Reichau"
  },
  {
    "postcode": "87737",
    "city": "Unterallgäu"
  },
  {
    "postcode": "87739",
    "city": "Bedernau"
  },
  {
    "postcode": "87739",
    "city": "Breitenbrunn"
  },
  {
    "postcode": "87739",
    "city": "Breitenbrunn Schwaben"
  },
  {
    "postcode": "87739",
    "city": "Fürbuch Schwaben"
  },
  {
    "postcode": "87739",
    "city": "Fürbuch"
  },
  {
    "postcode": "87739",
    "city": "Korb Schwaben"
  },
  {
    "postcode": "87739",
    "city": "Korb"
  },
  {
    "postcode": "87739",
    "city": "Loppenhausen"
  },
  {
    "postcode": "87739",
    "city": "Staudenberg Schwaben"
  },
  {
    "postcode": "87739",
    "city": "Staudenberg"
  },
  {
    "postcode": "87739",
    "city": "Unterallgäu"
  },
  {
    "postcode": "87740",
    "city": "Buxheim"
  },
  {
    "postcode": "87740",
    "city": "Buxheim bei Memmingen"
  },
  {
    "postcode": "87740",
    "city": "Westerhart"
  },
  {
    "postcode": "87740",
    "city": "Ziegelstadel Kreis Memmingen"
  },
  {
    "postcode": "87740",
    "city": "Ziegelstadel"
  },
  {
    "postcode": "87740",
    "city": "Unterallgäu"
  },
  {
    "postcode": "87742",
    "city": "Altensteig"
  },
  {
    "postcode": "87742",
    "city": "Apfeltrach"
  },
  {
    "postcode": "87742",
    "city": "Dirlewang"
  },
  {
    "postcode": "87742",
    "city": "Helchenried"
  },
  {
    "postcode": "87742",
    "city": "Köngetried"
  },
  {
    "postcode": "87742",
    "city": "Osterlauchdorf"
  },
  {
    "postcode": "87742",
    "city": "Saulengrain Schwaben"
  },
  {
    "postcode": "87742",
    "city": "Saulengrain"
  },
  {
    "postcode": "87742",
    "city": "Unterallgäu"
  },
  {
    "postcode": "87742",
    "city": "Allesrain"
  },
  {
    "postcode": "87742",
    "city": "Eberscholl"
  },
  {
    "postcode": "87742",
    "city": "Wallenried"
  },
  {
    "postcode": "87743",
    "city": "Egg"
  },
  {
    "postcode": "87743",
    "city": "Egg an der Günz"
  },
  {
    "postcode": "87743",
    "city": "Engishausen"
  },
  {
    "postcode": "87743",
    "city": "Inneberg"
  },
  {
    "postcode": "87743",
    "city": "Wesbach an der Günz"
  },
  {
    "postcode": "87743",
    "city": "Unterallgäu"
  },
  {
    "postcode": "87743",
    "city": "Betzenhausen"
  },
  {
    "postcode": "87743",
    "city": "Egg a.d.Günz"
  },
  {
    "postcode": "87745",
    "city": "Aspach"
  },
  {
    "postcode": "87745",
    "city": "Ellenried"
  },
  {
    "postcode": "87745",
    "city": "Eppishausen"
  },
  {
    "postcode": "87745",
    "city": "Haselbach bei Mindelheim"
  },
  {
    "postcode": "87745",
    "city": "Könghausen"
  },
  {
    "postcode": "87745",
    "city": "Lutzenberg"
  },
  {
    "postcode": "87745",
    "city": "Mörgen"
  },
  {
    "postcode": "87745",
    "city": "Weiler"
  },
  {
    "postcode": "87745",
    "city": "Unterallgäu"
  },
  {
    "postcode": "87745",
    "city": "Haselbach"
  },
  {
    "postcode": "87746",
    "city": "Arlesried"
  },
  {
    "postcode": "87746",
    "city": "Dankelsried"
  },
  {
    "postcode": "87746",
    "city": "Daxberg"
  },
  {
    "postcode": "87746",
    "city": "Erkheim"
  },
  {
    "postcode": "87746",
    "city": "Erlenberg"
  },
  {
    "postcode": "87746",
    "city": "Lerchenberg"
  },
  {
    "postcode": "87746",
    "city": "Schlegelsberg"
  },
  {
    "postcode": "87746",
    "city": "Unterallgäu"
  },
  {
    "postcode": "87746",
    "city": "Untererlenberg"
  },
  {
    "postcode": "87748",
    "city": "Fellheim"
  },
  {
    "postcode": "87748",
    "city": "Unterallgäu"
  },
  {
    "postcode": "87749",
    "city": "Hawangen"
  },
  {
    "postcode": "87749",
    "city": "Unterallgäu"
  },
  {
    "postcode": "87751",
    "city": "Heimertingen"
  },
  {
    "postcode": "87751",
    "city": "Reutehof Kreis Memmingen"
  },
  {
    "postcode": "87751",
    "city": "Reutehof"
  },
  {
    "postcode": "87751",
    "city": "Unterallgäu"
  },
  {
    "postcode": "87752",
    "city": "Holzgünz"
  },
  {
    "postcode": "87752",
    "city": "Oberholzgünz"
  },
  {
    "postcode": "87752",
    "city": "Schwaighausen"
  },
  {
    "postcode": "87752",
    "city": "Unterholzgünz"
  },
  {
    "postcode": "87752",
    "city": "Unterallgäu"
  },
  {
    "postcode": "87754",
    "city": "Höllberg Schwaben"
  },
  {
    "postcode": "87754",
    "city": "Höllberg"
  },
  {
    "postcode": "87754",
    "city": "Kammlach"
  },
  {
    "postcode": "87754",
    "city": "Oberkammlach"
  },
  {
    "postcode": "87754",
    "city": "Rufen Schwaben"
  },
  {
    "postcode": "87754",
    "city": "Rufen"
  },
  {
    "postcode": "87754",
    "city": "Sankt Johann"
  },
  {
    "postcode": "87754",
    "city": "Unterkammlach"
  },
  {
    "postcode": "87754",
    "city": "Wideregg Schwaben"
  },
  {
    "postcode": "87754",
    "city": "Wideregg"
  },
  {
    "postcode": "87754",
    "city": "Unterallgäu"
  },
  {
    "postcode": "87754",
    "city": "Kirchstetten"
  },
  {
    "postcode": "87754",
    "city": "St. Johann"
  },
  {
    "postcode": "87755",
    "city": "Greimeltshofen"
  },
  {
    "postcode": "87755",
    "city": "Halden"
  },
  {
    "postcode": "87755",
    "city": "Herretshofen"
  },
  {
    "postcode": "87755",
    "city": "Hörlis"
  },
  {
    "postcode": "87755",
    "city": "Kirchhaslach"
  },
  {
    "postcode": "87755",
    "city": "Olgishofen Schwaben"
  },
  {
    "postcode": "87755",
    "city": "Olgishofen"
  },
  {
    "postcode": "87755",
    "city": "Stolzenhofen"
  },
  {
    "postcode": "87755",
    "city": "Unterallgäu"
  },
  {
    "postcode": "87757",
    "city": "Derndorf Schwaben"
  },
  {
    "postcode": "87757",
    "city": "Derndorf"
  },
  {
    "postcode": "87757",
    "city": "Diepenhofen Schwaben"
  },
  {
    "postcode": "87757",
    "city": "Diepenhofen"
  },
  {
    "postcode": "87757",
    "city": "Hasberg"
  },
  {
    "postcode": "87757",
    "city": "Kirchheim"
  },
  {
    "postcode": "87757",
    "city": "Kirchheim in Schwaben"
  },
  {
    "postcode": "87757",
    "city": "Spöck Schwaben"
  },
  {
    "postcode": "87757",
    "city": "Spöck"
  },
  {
    "postcode": "87757",
    "city": "Tiefenried"
  },
  {
    "postcode": "87757",
    "city": "Unterallgäu"
  },
  {
    "postcode": "87757",
    "city": "Kirchheim i.Schw."
  },
  {
    "postcode": "87758",
    "city": "Illerbeuren"
  },
  {
    "postcode": "87758",
    "city": "Kardorf"
  },
  {
    "postcode": "87758",
    "city": "Kronburg"
  },
  {
    "postcode": "87758",
    "city": "Unterallgäu"
  },
  {
    "postcode": "87760",
    "city": "Albishofen"
  },
  {
    "postcode": "87760",
    "city": "Goßmannshofen"
  },
  {
    "postcode": "87760",
    "city": "Herbishofen bei Memmingen"
  },
  {
    "postcode": "87760",
    "city": "Hetzlinshofen bei Memmingen"
  },
  {
    "postcode": "87760",
    "city": "Lachen"
  },
  {
    "postcode": "87760",
    "city": "Lachen bei Memmingen"
  },
  {
    "postcode": "87760",
    "city": "Moosbach bei Memmingen"
  },
  {
    "postcode": "87760",
    "city": "Theinselberg bei Memmingen"
  },
  {
    "postcode": "87760",
    "city": "Unterallgäu"
  },
  {
    "postcode": "87760",
    "city": "Herbishofen"
  },
  {
    "postcode": "87760",
    "city": "Hetzlinshofen"
  },
  {
    "postcode": "87760",
    "city": "Moosbach"
  },
  {
    "postcode": "87760",
    "city": "Bühlhof"
  },
  {
    "postcode": "87760",
    "city": "Theinselberg"
  },
  {
    "postcode": "87760",
    "city": "Eymühle"
  },
  {
    "postcode": "87761",
    "city": "Frickenhausen bei Memmingen"
  },
  {
    "postcode": "87761",
    "city": "Lauben"
  },
  {
    "postcode": "87761",
    "city": "Lauben bei Memmingen"
  },
  {
    "postcode": "87761",
    "city": "Lauberhart"
  },
  {
    "postcode": "87761",
    "city": "Unterallgäu"
  },
  {
    "postcode": "87761",
    "city": "Frickenhausen"
  },
  {
    "postcode": "87761",
    "city": "Ziegelstadel"
  },
  {
    "postcode": "87763",
    "city": "Dilpersried"
  },
  {
    "postcode": "87763",
    "city": "Lautrach"
  },
  {
    "postcode": "87763",
    "city": "Neuwelt"
  },
  {
    "postcode": "87763",
    "city": "Schrofen"
  },
  {
    "postcode": "87763",
    "city": "Unterallgäu"
  },
  {
    "postcode": "87764",
    "city": "Aigholz"
  },
  {
    "postcode": "87764",
    "city": "Ampo"
  },
  {
    "postcode": "87764",
    "city": "Außerlandholz"
  },
  {
    "postcode": "87764",
    "city": "Bettrichs"
  },
  {
    "postcode": "87764",
    "city": "Bihls"
  },
  {
    "postcode": "87764",
    "city": "Engelharz"
  },
  {
    "postcode": "87764",
    "city": "Graben"
  },
  {
    "postcode": "87764",
    "city": "Greiters"
  },
  {
    "postcode": "87764",
    "city": "Hofstatt"
  },
  {
    "postcode": "87764",
    "city": "Hummels"
  },
  {
    "postcode": "87764",
    "city": "Kaltbronn"
  },
  {
    "postcode": "87764",
    "city": "Lausers"
  },
  {
    "postcode": "87764",
    "city": "Legau"
  },
  {
    "postcode": "87764",
    "city": "Maria Steinbach"
  },
  {
    "postcode": "87764",
    "city": "Oberlandholz"
  },
  {
    "postcode": "87764",
    "city": "Oberwitzenberg"
  },
  {
    "postcode": "87764",
    "city": "Straß"
  },
  {
    "postcode": "87764",
    "city": "Strimo"
  },
  {
    "postcode": "87764",
    "city": "Unterwitzenberg"
  },
  {
    "postcode": "87764",
    "city": "Unterallgäu"
  },
  {
    "postcode": "87764",
    "city": "Benggen"
  },
  {
    "postcode": "87764",
    "city": "Bronnenmahd"
  },
  {
    "postcode": "87764",
    "city": "Bummlers"
  },
  {
    "postcode": "87764",
    "city": "Ehrensberg"
  },
  {
    "postcode": "87764",
    "city": "Entenmoos"
  },
  {
    "postcode": "87764",
    "city": "Felben"
  },
  {
    "postcode": "87764",
    "city": "Fluhmühle"
  },
  {
    "postcode": "87764",
    "city": "Greut"
  },
  {
    "postcode": "87764",
    "city": "Grub"
  },
  {
    "postcode": "87764",
    "city": "Haid"
  },
  {
    "postcode": "87764",
    "city": "Hohmanns"
  },
  {
    "postcode": "87764",
    "city": "Hub"
  },
  {
    "postcode": "87764",
    "city": "Katzenmoos"
  },
  {
    "postcode": "87764",
    "city": "Kraivogels"
  },
  {
    "postcode": "87764",
    "city": "Lausers am Moos"
  },
  {
    "postcode": "87764",
    "city": "Unterlandholz"
  },
  {
    "postcode": "87764",
    "city": "Loch"
  },
  {
    "postcode": "87764",
    "city": "Maien"
  },
  {
    "postcode": "87764",
    "city": "Mannschwenden"
  },
  {
    "postcode": "87764",
    "city": "Moos"
  },
  {
    "postcode": "87764",
    "city": "Neidegg"
  },
  {
    "postcode": "87764",
    "city": "Neumühle"
  },
  {
    "postcode": "87764",
    "city": "Oberau"
  },
  {
    "postcode": "87764",
    "city": "Oberwaldegg"
  },
  {
    "postcode": "87764",
    "city": "Roßschenkels"
  },
  {
    "postcode": "87764",
    "city": "Sack"
  },
  {
    "postcode": "87764",
    "city": "Streichers"
  },
  {
    "postcode": "87764",
    "city": "Unterau"
  },
  {
    "postcode": "87764",
    "city": "Unterwaldegg"
  },
  {
    "postcode": "87764",
    "city": "Voglers"
  },
  {
    "postcode": "87764",
    "city": "Weno"
  },
  {
    "postcode": "87766",
    "city": "Memmingerberg"
  },
  {
    "postcode": "87766",
    "city": "Unterallgäu"
  },
  {
    "postcode": "87767",
    "city": "Niederrieden"
  },
  {
    "postcode": "87767",
    "city": "Otterwald"
  },
  {
    "postcode": "87767",
    "city": "Unterallgäu"
  },
  {
    "postcode": "87769",
    "city": "Hohenreuten Schwaben"
  },
  {
    "postcode": "87769",
    "city": "Hohenreuten"
  },
  {
    "postcode": "87769",
    "city": "Mittelrieden Schwaben"
  },
  {
    "postcode": "87769",
    "city": "Mittelrieden"
  },
  {
    "postcode": "87769",
    "city": "Oberrieden"
  },
  {
    "postcode": "87769",
    "city": "Oberrieden Schwaben"
  },
  {
    "postcode": "87769",
    "city": "Ohnsang Kreis Mindelheim"
  },
  {
    "postcode": "87769",
    "city": "Ohnsang"
  },
  {
    "postcode": "87769",
    "city": "Spitzisbui Schwaben"
  },
  {
    "postcode": "87769",
    "city": "Spitzisbui"
  },
  {
    "postcode": "87769",
    "city": "Unterrieden Schwaben"
  },
  {
    "postcode": "87769",
    "city": "Unterrieden"
  },
  {
    "postcode": "87769",
    "city": "Unterallgäu"
  },
  {
    "postcode": "87770",
    "city": "Dietershofen bei Babenhausen Schwaben"
  },
  {
    "postcode": "87770",
    "city": "Dietershofen bei Babenhausen"
  },
  {
    "postcode": "87770",
    "city": "Märxle"
  },
  {
    "postcode": "87770",
    "city": "Oberschönegg"
  },
  {
    "postcode": "87770",
    "city": "Weinried"
  },
  {
    "postcode": "87770",
    "city": "Unterallgäu"
  },
  {
    "postcode": "87770",
    "city": "Beblinstetten"
  },
  {
    "postcode": "87770",
    "city": "Dietershofen"
  },
  {
    "postcode": "87772",
    "city": "Egelhofen Schwaben"
  },
  {
    "postcode": "87772",
    "city": "Egelhofen"
  },
  {
    "postcode": "87772",
    "city": "Heinzenhof bei Mindelheim"
  },
  {
    "postcode": "87772",
    "city": "Mindelberg bei Mindelheim"
  },
  {
    "postcode": "87772",
    "city": "Pfaffenhausen"
  },
  {
    "postcode": "87772",
    "city": "Pfaffenhausen Schwaben"
  },
  {
    "postcode": "87772",
    "city": "Schöneberg bei Mindelheim"
  },
  {
    "postcode": "87772",
    "city": "Weilbach Kreis Mindelheim"
  },
  {
    "postcode": "87772",
    "city": "Weilbach"
  },
  {
    "postcode": "87772",
    "city": "Unterallgäu"
  },
  {
    "postcode": "87772",
    "city": "Schöneberg"
  },
  {
    "postcode": "87772",
    "city": "Heinzenhof"
  },
  {
    "postcode": "87772",
    "city": "Hertlehof"
  },
  {
    "postcode": "87772",
    "city": "Mindelberg"
  },
  {
    "postcode": "87773",
    "city": "Pleß Iller"
  },
  {
    "postcode": "87773",
    "city": "Pleß"
  },
  {
    "postcode": "87773",
    "city": "Unterallgäu"
  },
  {
    "postcode": "87775",
    "city": "Bronnen"
  },
  {
    "postcode": "87775",
    "city": "Hausen bei Mindelheim"
  },
  {
    "postcode": "87775",
    "city": "Salgen"
  },
  {
    "postcode": "87775",
    "city": "Unterallgäu"
  },
  {
    "postcode": "87775",
    "city": "Hausen"
  },
  {
    "postcode": "87776",
    "city": "Attenhausen bei Memmingen"
  },
  {
    "postcode": "87776",
    "city": "Grabus Schwaben"
  },
  {
    "postcode": "87776",
    "city": "Grabus"
  },
  {
    "postcode": "87776",
    "city": "Laubers Schwaben"
  },
  {
    "postcode": "87776",
    "city": "Laubers"
  },
  {
    "postcode": "87776",
    "city": "Sontheim"
  },
  {
    "postcode": "87776",
    "city": "Sontheim bei Memmingen"
  },
  {
    "postcode": "87776",
    "city": "Ziegler bei Memmingen"
  },
  {
    "postcode": "87776",
    "city": "Unterallgäu"
  },
  {
    "postcode": "87776",
    "city": "Attenhausen"
  },
  {
    "postcode": "87776",
    "city": "Ziegler"
  },
  {
    "postcode": "87778",
    "city": "Erisried"
  },
  {
    "postcode": "87778",
    "city": "Stetten"
  },
  {
    "postcode": "87778",
    "city": "Stetten Schwaben"
  },
  {
    "postcode": "87778",
    "city": "Unterallgäu"
  },
  {
    "postcode": "87779",
    "city": "Geishof"
  },
  {
    "postcode": "87779",
    "city": "Trunkelsberg"
  },
  {
    "postcode": "87779",
    "city": "Unterallgäu"
  },
  {
    "postcode": "87781",
    "city": "Ungerhausen"
  },
  {
    "postcode": "87781",
    "city": "Unterallgäu"
  },
  {
    "postcode": "87782",
    "city": "Oberegg bei Mindelheim"
  },
  {
    "postcode": "87782",
    "city": "Rappen bei Mindelheim"
  },
  {
    "postcode": "87782",
    "city": "Unteregg"
  },
  {
    "postcode": "87782",
    "city": "Unteregg bei Mindelheim"
  },
  {
    "postcode": "87782",
    "city": "Warmisried bei Mindelheim"
  },
  {
    "postcode": "87782",
    "city": "Unterallgäu"
  },
  {
    "postcode": "87782",
    "city": "Warmisried"
  },
  {
    "postcode": "87782",
    "city": "Oberegg"
  },
  {
    "postcode": "87782",
    "city": "Rappen"
  },
  {
    "postcode": "87782",
    "city": "Bittenau"
  },
  {
    "postcode": "87782",
    "city": "Eßmühle"
  },
  {
    "postcode": "87784",
    "city": "Günz bei Memmingen"
  },
  {
    "postcode": "87784",
    "city": "Rummeltshausen Kreis Memmingen"
  },
  {
    "postcode": "87784",
    "city": "Rummeltshausen"
  },
  {
    "postcode": "87784",
    "city": "Unterwesterheim bei Memmingen"
  },
  {
    "postcode": "87784",
    "city": "Westerheim"
  },
  {
    "postcode": "87784",
    "city": "Westerheim bei Memmingen"
  },
  {
    "postcode": "87784",
    "city": "Unterallgäu"
  },
  {
    "postcode": "87784",
    "city": "Günz"
  },
  {
    "postcode": "87784",
    "city": "Unterwesterheim"
  },
  {
    "postcode": "87785",
    "city": "Winterrieden"
  },
  {
    "postcode": "87785",
    "city": "Unterallgäu"
  },
  {
    "postcode": "87787",
    "city": "Bossarts"
  },
  {
    "postcode": "87787",
    "city": "Dietratried"
  },
  {
    "postcode": "87787",
    "city": "Niederdorf"
  },
  {
    "postcode": "87787",
    "city": "Wolfertschwenden"
  },
  {
    "postcode": "87787",
    "city": "Unterallgäu"
  },
  {
    "postcode": "87787",
    "city": "Klessen"
  },
  {
    "postcode": "87789",
    "city": "Eglofs"
  },
  {
    "postcode": "87789",
    "city": "Enzers"
  },
  {
    "postcode": "87789",
    "city": "Frohnhart"
  },
  {
    "postcode": "87789",
    "city": "Woringen"
  },
  {
    "postcode": "87789",
    "city": "Unterallgäu"
  }
]