[
  {
    "postcode": "88045",
    "city": "Friedrichshafen"
  },
  {
    "postcode": "88045",
    "city": "Manzell"
  },
  {
    "postcode": "88045",
    "city": "Meistershofen"
  },
  {
    "postcode": "88045",
    "city": "Sankt Georgen"
  },
  {
    "postcode": "88045",
    "city": "Schnetzenhausen"
  },
  {
    "postcode": "88045",
    "city": "Seemoos"
  },
  {
    "postcode": "88045",
    "city": "Waggershausen"
  },
  {
    "postcode": "88045",
    "city": "Windhag"
  },
  {
    "postcode": "88045",
    "city": "Bodenseekreis"
  },
  {
    "postcode": "88046",
    "city": "Allmannsweiler"
  },
  {
    "postcode": "88046",
    "city": "Friedrichshafen"
  },
  {
    "postcode": "88046",
    "city": "Löwental"
  },
  {
    "postcode": "88046",
    "city": "Bodenseekreis"
  },
  {
    "postcode": "88048",
    "city": "Ailingen"
  },
  {
    "postcode": "88048",
    "city": "Berg"
  },
  {
    "postcode": "88048",
    "city": "Bunkhofen"
  },
  {
    "postcode": "88048",
    "city": "Efrizweiler"
  },
  {
    "postcode": "88048",
    "city": "Ettenkirch"
  },
  {
    "postcode": "88048",
    "city": "Fischbach"
  },
  {
    "postcode": "88048",
    "city": "Friedrichshafen"
  },
  {
    "postcode": "88048",
    "city": "Hirschlatt"
  },
  {
    "postcode": "88048",
    "city": "Ittenhausen"
  },
  {
    "postcode": "88048",
    "city": "Kluftern"
  },
  {
    "postcode": "88048",
    "city": "Lipbach"
  },
  {
    "postcode": "88048",
    "city": "Raderach"
  },
  {
    "postcode": "88048",
    "city": "Spaltenstein"
  },
  {
    "postcode": "88048",
    "city": "Unterraderach"
  },
  {
    "postcode": "88048",
    "city": "Waltenweiler"
  },
  {
    "postcode": "88048",
    "city": "Wiggenhausen"
  },
  {
    "postcode": "88048",
    "city": "Bodenseekreis"
  },
  {
    "postcode": "88048",
    "city": "Schnetzenhausen"
  },
  {
    "postcode": "88048",
    "city": "Manzell"
  },
  {
    "postcode": "88069",
    "city": "Apflau"
  },
  {
    "postcode": "88069",
    "city": "Bechlingen"
  },
  {
    "postcode": "88069",
    "city": "Bürgermoos"
  },
  {
    "postcode": "88069",
    "city": "Hiltensweiler"
  },
  {
    "postcode": "88069",
    "city": "Kau"
  },
  {
    "postcode": "88069",
    "city": "Krumbach"
  },
  {
    "postcode": "88069",
    "city": "Laimnau"
  },
  {
    "postcode": "88069",
    "city": "Obereisenbach"
  },
  {
    "postcode": "88069",
    "city": "Oberlangnau"
  },
  {
    "postcode": "88069",
    "city": "Pfingstweid"
  },
  {
    "postcode": "88069",
    "city": "Siggenweiler"
  },
  {
    "postcode": "88069",
    "city": "Steinenbach"
  },
  {
    "postcode": "88069",
    "city": "Tannau"
  },
  {
    "postcode": "88069",
    "city": "Tettnang"
  },
  {
    "postcode": "88069",
    "city": "Walchesreute"
  },
  {
    "postcode": "88069",
    "city": "Bodenseekreis"
  },
  {
    "postcode": "88069",
    "city": "Langnau"
  },
  {
    "postcode": "88074",
    "city": "Brochenzell"
  },
  {
    "postcode": "88074",
    "city": "Brugg"
  },
  {
    "postcode": "88074",
    "city": "Buch"
  },
  {
    "postcode": "88074",
    "city": "Furt"
  },
  {
    "postcode": "88074",
    "city": "Gerbertshaus"
  },
  {
    "postcode": "88074",
    "city": "Gunzenhaus"
  },
  {
    "postcode": "88074",
    "city": "Hasenwinkel"
  },
  {
    "postcode": "88074",
    "city": "Hegenberg"
  },
  {
    "postcode": "88074",
    "city": "Hirschach"
  },
  {
    "postcode": "88074",
    "city": "Kehlen"
  },
  {
    "postcode": "88074",
    "city": "Langentrog"
  },
  {
    "postcode": "88074",
    "city": "Liebenau"
  },
  {
    "postcode": "88074",
    "city": "Lochbrücke"
  },
  {
    "postcode": "88074",
    "city": "Meckenbeuren"
  },
  {
    "postcode": "88074",
    "city": "Obermeckenbeuren"
  },
  {
    "postcode": "88074",
    "city": "Reute"
  },
  {
    "postcode": "88074",
    "city": "Sammletshofen"
  },
  {
    "postcode": "88074",
    "city": "Sassen"
  },
  {
    "postcode": "88074",
    "city": "Schwarzenbach"
  },
  {
    "postcode": "88074",
    "city": "Senglingen"
  },
  {
    "postcode": "88074",
    "city": "Sibratshaus"
  },
  {
    "postcode": "88074",
    "city": "Siglishofen"
  },
  {
    "postcode": "88074",
    "city": "Untertennenmoos"
  },
  {
    "postcode": "88074",
    "city": "Bodenseekreis"
  },
  {
    "postcode": "88074",
    "city": "Stadt Ravensburg"
  },
  {
    "postcode": "88074",
    "city": "Bucherhof"
  },
  {
    "postcode": "88074",
    "city": "Habacht"
  },
  {
    "postcode": "88074",
    "city": "Hohenreute"
  },
  {
    "postcode": "88074",
    "city": "Holzbauer"
  },
  {
    "postcode": "88074",
    "city": "Hungersberg"
  },
  {
    "postcode": "88074",
    "city": "Kratzerach"
  },
  {
    "postcode": "88074",
    "city": "Laufenen"
  },
  {
    "postcode": "88074",
    "city": "Lohner"
  },
  {
    "postcode": "88074",
    "city": "Rebholz"
  },
  {
    "postcode": "88074",
    "city": "Regler"
  },
  {
    "postcode": "88074",
    "city": "Reuter"
  },
  {
    "postcode": "88074",
    "city": "Stengele"
  },
  {
    "postcode": "88074",
    "city": "Weiler"
  },
  {
    "postcode": "88079",
    "city": "Arensweiler"
  },
  {
    "postcode": "88079",
    "city": "Atlashofen"
  },
  {
    "postcode": "88079",
    "city": "Berg"
  },
  {
    "postcode": "88079",
    "city": "Betznau"
  },
  {
    "postcode": "88079",
    "city": "Gattnau"
  },
  {
    "postcode": "88079",
    "city": "Gießen"
  },
  {
    "postcode": "88079",
    "city": "Gohren"
  },
  {
    "postcode": "88079",
    "city": "Gottmannsbühl"
  },
  {
    "postcode": "88079",
    "city": "Hüttmannsberg"
  },
  {
    "postcode": "88079",
    "city": "Kressbronn"
  },
  {
    "postcode": "88079",
    "city": "Kressbronn am Bodensee"
  },
  {
    "postcode": "88079",
    "city": "Kümmertsweiler"
  },
  {
    "postcode": "88079",
    "city": "Nitzenweiler"
  },
  {
    "postcode": "88079",
    "city": "Poppis"
  },
  {
    "postcode": "88079",
    "city": "Reichen (Bodensee)"
  },
  {
    "postcode": "88079",
    "city": "Reichen"
  },
  {
    "postcode": "88079",
    "city": "Retterschen"
  },
  {
    "postcode": "88079",
    "city": "Schleinsee"
  },
  {
    "postcode": "88079",
    "city": "Tunau"
  },
  {
    "postcode": "88079",
    "city": "Bodenseekreis"
  },
  {
    "postcode": "88079",
    "city": "Wiesach"
  },
  {
    "postcode": "88079",
    "city": "Am Egg"
  },
  {
    "postcode": "88079",
    "city": "Döllen"
  },
  {
    "postcode": "88079",
    "city": "Gießenbrücke"
  },
  {
    "postcode": "88079",
    "city": "Haltmaierhof"
  },
  {
    "postcode": "88079",
    "city": "Heiligenhof"
  },
  {
    "postcode": "88079",
    "city": "Schnaidt"
  },
  {
    "postcode": "88079",
    "city": "Kalkähren"
  },
  {
    "postcode": "88079",
    "city": "Kochermühle"
  },
  {
    "postcode": "88079",
    "city": "Krummensteg"
  },
  {
    "postcode": "88079",
    "city": "Linderhof"
  },
  {
    "postcode": "88079",
    "city": "Mittelmühle"
  },
  {
    "postcode": "88079",
    "city": "Obermühle"
  },
  {
    "postcode": "88079",
    "city": "Reute"
  },
  {
    "postcode": "88079",
    "city": "Riedensweiler"
  },
  {
    "postcode": "88085",
    "city": "Langenargen"
  },
  {
    "postcode": "88085",
    "city": "Oberdorf"
  },
  {
    "postcode": "88085",
    "city": "Schwedi"
  },
  {
    "postcode": "88085",
    "city": "Tuniswald"
  },
  {
    "postcode": "88085",
    "city": "Bodenseekreis"
  },
  {
    "postcode": "88085",
    "city": "Bierkeller-Waldeck"
  },
  {
    "postcode": "88090",
    "city": "Immenstaad"
  },
  {
    "postcode": "88090",
    "city": "Immenstaad am Bodensee"
  },
  {
    "postcode": "88090",
    "city": "Kippenhausen"
  },
  {
    "postcode": "88090",
    "city": "Bodenseekreis"
  },
  {
    "postcode": "88090",
    "city": "Frenkenbach"
  },
  {
    "postcode": "88090",
    "city": "Siedlung"
  },
  {
    "postcode": "88090",
    "city": "Schloß Kirchberg"
  },
  {
    "postcode": "88094",
    "city": "Behweiler"
  },
  {
    "postcode": "88094",
    "city": "Bibruck"
  },
  {
    "postcode": "88094",
    "city": "Bitzenhofen"
  },
  {
    "postcode": "88094",
    "city": "Blankenried"
  },
  {
    "postcode": "88094",
    "city": "Fuchstobel"
  },
  {
    "postcode": "88094",
    "city": "Hefigkofen"
  },
  {
    "postcode": "88094",
    "city": "Oberteuringen"
  },
  {
    "postcode": "88094",
    "city": "Rammetshofen"
  },
  {
    "postcode": "88094",
    "city": "Rieter"
  },
  {
    "postcode": "88094",
    "city": "Rußenreute"
  },
  {
    "postcode": "88094",
    "city": "Unterteuringen"
  },
  {
    "postcode": "88094",
    "city": "Weiler"
  },
  {
    "postcode": "88094",
    "city": "Bodenseekreis"
  },
  {
    "postcode": "88094",
    "city": "Neuhaus"
  },
  {
    "postcode": "88094",
    "city": "Ramsen"
  },
  {
    "postcode": "88094",
    "city": "Vittenhag"
  },
  {
    "postcode": "88094",
    "city": "Wammeratswatt"
  },
  {
    "postcode": "88094",
    "city": "Ziegelmühle"
  },
  {
    "postcode": "88097",
    "city": "Eriskirch"
  },
  {
    "postcode": "88097",
    "city": "Gmünd"
  },
  {
    "postcode": "88097",
    "city": "Langenacker"
  },
  {
    "postcode": "88097",
    "city": "Mariabrunn"
  },
  {
    "postcode": "88097",
    "city": "Moos"
  },
  {
    "postcode": "88097",
    "city": "Oberbaumgarten"
  },
  {
    "postcode": "88097",
    "city": "Schlatt"
  },
  {
    "postcode": "88097",
    "city": "Unterbaumgarten"
  },
  {
    "postcode": "88097",
    "city": "Wolfzennen"
  },
  {
    "postcode": "88097",
    "city": "Bodenseekreis"
  },
  {
    "postcode": "88097",
    "city": "Tannösch"
  },
  {
    "postcode": "88097",
    "city": "Braitenrain"
  },
  {
    "postcode": "88097",
    "city": "Dillmannshof"
  },
  {
    "postcode": "88097",
    "city": "Schussenreute"
  },
  {
    "postcode": "88097",
    "city": "Hofstatt"
  },
  {
    "postcode": "88097",
    "city": "Knöbelhof"
  },
  {
    "postcode": "88097",
    "city": "Schoppenhof"
  },
  {
    "postcode": "88097",
    "city": "Stockwiesen"
  },
  {
    "postcode": "88099",
    "city": "Bernried"
  },
  {
    "postcode": "88099",
    "city": "Blumegg"
  },
  {
    "postcode": "88099",
    "city": "Elmenau"
  },
  {
    "postcode": "88099",
    "city": "Flunau"
  },
  {
    "postcode": "88099",
    "city": "Goppertsweiler"
  },
  {
    "postcode": "88099",
    "city": "Gunzenweiler"
  },
  {
    "postcode": "88099",
    "city": "Hinterburg"
  },
  {
    "postcode": "88099",
    "city": "Hinteressach"
  },
  {
    "postcode": "88099",
    "city": "Litzelmannshof"
  },
  {
    "postcode": "88099",
    "city": "Lustensbach"
  },
  {
    "postcode": "88099",
    "city": "Matzenweiler"
  },
  {
    "postcode": "88099",
    "city": "Mehetsweiler"
  },
  {
    "postcode": "88099",
    "city": "Neukirch bei Tettnang"
  },
  {
    "postcode": "88099",
    "city": "Oberlangensee"
  },
  {
    "postcode": "88099",
    "city": "Oberrussenried"
  },
  {
    "postcode": "88099",
    "city": "Summerau"
  },
  {
    "postcode": "88099",
    "city": "Uhetsweiler"
  },
  {
    "postcode": "88099",
    "city": "Unterlangensee"
  },
  {
    "postcode": "88099",
    "city": "Unterrussenried"
  },
  {
    "postcode": "88099",
    "city": "Vorderessach"
  },
  {
    "postcode": "88099",
    "city": "Wildpoltsweiler"
  },
  {
    "postcode": "88099",
    "city": "Wittenberg"
  },
  {
    "postcode": "88099",
    "city": "Zannau"
  },
  {
    "postcode": "88099",
    "city": "Bodenseekreis"
  },
  {
    "postcode": "88099",
    "city": "Neukirch"
  },
  {
    "postcode": "88131",
    "city": "Aeschach"
  },
  {
    "postcode": "88131",
    "city": "Bettnau Bodensee"
  },
  {
    "postcode": "88131",
    "city": "Bettnau"
  },
  {
    "postcode": "88131",
    "city": "Bodolz"
  },
  {
    "postcode": "88131",
    "city": "Bruggach"
  },
  {
    "postcode": "88131",
    "city": "Enzisweiler Bodensee"
  },
  {
    "postcode": "88131",
    "city": "Enzisweiler"
  },
  {
    "postcode": "88131",
    "city": "Hoyren"
  },
  {
    "postcode": "88131",
    "city": "Lindau (Bodensee)"
  },
  {
    "postcode": "88131",
    "city": "Lindau"
  },
  {
    "postcode": "88131",
    "city": "Oberreitnau"
  },
  {
    "postcode": "88131",
    "city": "Reutin"
  },
  {
    "postcode": "88131",
    "city": "Schachen"
  },
  {
    "postcode": "88131",
    "city": "Taubenberg"
  },
  {
    "postcode": "88131",
    "city": "Unterreitnau"
  },
  {
    "postcode": "88131",
    "city": "Lindau Bodensee"
  },
  {
    "postcode": "88131",
    "city": "Hoyerberg"
  },
  {
    "postcode": "88131",
    "city": "Ebnet"
  },
  {
    "postcode": "88131",
    "city": "Hochsträß"
  },
  {
    "postcode": "88131",
    "city": "Zech"
  },
  {
    "postcode": "88131",
    "city": "Insel"
  },
  {
    "postcode": "88131",
    "city": "Hörbolz"
  },
  {
    "postcode": "88131",
    "city": "Hugelitz"
  },
  {
    "postcode": "88131",
    "city": "Motzach"
  },
  {
    "postcode": "88131",
    "city": "Giebelbach"
  },
  {
    "postcode": "88131",
    "city": "Degelstein"
  },
  {
    "postcode": "88131",
    "city": "Oberreutin"
  },
  {
    "postcode": "88138",
    "city": "Bösenreutin"
  },
  {
    "postcode": "88138",
    "city": "Eggenwatt"
  },
  {
    "postcode": "88138",
    "city": "Grübels"
  },
  {
    "postcode": "88138",
    "city": "Hagers"
  },
  {
    "postcode": "88138",
    "city": "Hergensweiler"
  },
  {
    "postcode": "88138",
    "city": "Lampertsweiler"
  },
  {
    "postcode": "88138",
    "city": "Metzlers"
  },
  {
    "postcode": "88138",
    "city": "Mollenberg"
  },
  {
    "postcode": "88138",
    "city": "Niederstaufen"
  },
  {
    "postcode": "88138",
    "city": "Oberholz"
  },
  {
    "postcode": "88138",
    "city": "Obernützenbrugg"
  },
  {
    "postcode": "88138",
    "city": "Rehlings"
  },
  {
    "postcode": "88138",
    "city": "Rothkreuz"
  },
  {
    "postcode": "88138",
    "city": "Rupolz"
  },
  {
    "postcode": "88138",
    "city": "Scheidenweiler"
  },
  {
    "postcode": "88138",
    "city": "Schwatzen"
  },
  {
    "postcode": "88138",
    "city": "Sigmarszell"
  },
  {
    "postcode": "88138",
    "city": "Stockenweiler"
  },
  {
    "postcode": "88138",
    "city": "Unternützenbrugg"
  },
  {
    "postcode": "88138",
    "city": "Volklings"
  },
  {
    "postcode": "88138",
    "city": "Weißensberg"
  },
  {
    "postcode": "88138",
    "city": "Wildberg"
  },
  {
    "postcode": "88138",
    "city": "Wolfgangsberg"
  },
  {
    "postcode": "88138",
    "city": "Lindau Bodensee"
  },
  {
    "postcode": "88138",
    "city": "Altis"
  },
  {
    "postcode": "88138",
    "city": "Degermoos"
  },
  {
    "postcode": "88138",
    "city": "Miezlings"
  },
  {
    "postcode": "88138",
    "city": "Schillers"
  },
  {
    "postcode": "88138",
    "city": "Unteroesch"
  },
  {
    "postcode": "88138",
    "city": "Schlachters"
  },
  {
    "postcode": "88138",
    "city": "Witzigmänn"
  },
  {
    "postcode": "88138",
    "city": "Zeisertsweiler"
  },
  {
    "postcode": "88138",
    "city": "Oberhof"
  },
  {
    "postcode": "88142",
    "city": "Bichel Bodensee"
  },
  {
    "postcode": "88142",
    "city": "Bichel"
  },
  {
    "postcode": "88142",
    "city": "Hattnau Bodensee"
  },
  {
    "postcode": "88142",
    "city": "Hattnau"
  },
  {
    "postcode": "88142",
    "city": "Hege Bodensee"
  },
  {
    "postcode": "88142",
    "city": "Hege"
  },
  {
    "postcode": "88142",
    "city": "Hengnau Bodensee"
  },
  {
    "postcode": "88142",
    "city": "Hengnau"
  },
  {
    "postcode": "88142",
    "city": "Selmnau Bodensee"
  },
  {
    "postcode": "88142",
    "city": "Selmnau"
  },
  {
    "postcode": "88142",
    "city": "Wasserburg"
  },
  {
    "postcode": "88142",
    "city": "Wasserburg (Bodensee)"
  },
  {
    "postcode": "88142",
    "city": "Lindau Bodensee"
  },
  {
    "postcode": "88142",
    "city": "Lindau"
  },
  {
    "postcode": "88142",
    "city": "Degelstein"
  },
  {
    "postcode": "88142",
    "city": "Reutenen"
  },
  {
    "postcode": "88145",
    "city": "Adelgunz"
  },
  {
    "postcode": "88145",
    "city": "Beuren"
  },
  {
    "postcode": "88145",
    "city": "Edelitz"
  },
  {
    "postcode": "88145",
    "city": "Grod"
  },
  {
    "postcode": "88145",
    "city": "Handwerks"
  },
  {
    "postcode": "88145",
    "city": "Heimen"
  },
  {
    "postcode": "88145",
    "city": "Hergatz"
  },
  {
    "postcode": "88145",
    "city": "Itzlings"
  },
  {
    "postcode": "88145",
    "city": "Lengatz"
  },
  {
    "postcode": "88145",
    "city": "Litzis"
  },
  {
    "postcode": "88145",
    "city": "Maria-Thann"
  },
  {
    "postcode": "88145",
    "city": "Mäuchen"
  },
  {
    "postcode": "88145",
    "city": "Mellatz"
  },
  {
    "postcode": "88145",
    "city": "Möllen"
  },
  {
    "postcode": "88145",
    "city": "Muthen"
  },
  {
    "postcode": "88145",
    "city": "Opfenbach"
  },
  {
    "postcode": "88145",
    "city": "Paradies"
  },
  {
    "postcode": "88145",
    "city": "Schreckelberg"
  },
  {
    "postcode": "88145",
    "city": "Schrundholz"
  },
  {
    "postcode": "88145",
    "city": "Schwarzenberg"
  },
  {
    "postcode": "88145",
    "city": "Schwarzensee"
  },
  {
    "postcode": "88145",
    "city": "Staudach"
  },
  {
    "postcode": "88145",
    "city": "Wohmbrechts"
  },
  {
    "postcode": "88145",
    "city": "Lindau Bodensee"
  },
  {
    "postcode": "88145",
    "city": "An der Reutemühle"
  },
  {
    "postcode": "88145",
    "city": "Butzen"
  },
  {
    "postcode": "88145",
    "city": "Engelitz"
  },
  {
    "postcode": "88145",
    "city": "Gses"
  },
  {
    "postcode": "88147",
    "city": "Achberg bei Lindau Bodensee"
  },
  {
    "postcode": "88147",
    "city": "Achberg bei Lindau"
  },
  {
    "postcode": "88147",
    "city": "Bahlings"
  },
  {
    "postcode": "88147",
    "city": "Baindt"
  },
  {
    "postcode": "88147",
    "city": "Doberatsweiler"
  },
  {
    "postcode": "88147",
    "city": "Duznau"
  },
  {
    "postcode": "88147",
    "city": "Esseratsweiler"
  },
  {
    "postcode": "88147",
    "city": "Liebenweiler"
  },
  {
    "postcode": "88147",
    "city": "Pechtensweiler"
  },
  {
    "postcode": "88147",
    "city": "Regnitz"
  },
  {
    "postcode": "88147",
    "city": "Siberatsweiler"
  },
  {
    "postcode": "88147",
    "city": "Ravensburg"
  },
  {
    "postcode": "88147",
    "city": "Achberg"
  },
  {
    "postcode": "88149",
    "city": "Nonnenhorn"
  },
  {
    "postcode": "88149",
    "city": "Lindau Bodensee"
  },
  {
    "postcode": "88161",
    "city": "Ellgassen im Allgäu"
  },
  {
    "postcode": "88161",
    "city": "Goßholz im Allgäu"
  },
  {
    "postcode": "88161",
    "city": "Kellershub im Allgäu"
  },
  {
    "postcode": "88161",
    "city": "Lindenberg im Allgäu"
  },
  {
    "postcode": "88161",
    "city": "Manzen im Allgäu"
  },
  {
    "postcode": "88161",
    "city": "Nadenberg im Allgäu"
  },
  {
    "postcode": "88161",
    "city": "Ratzenberg im Allgäu"
  },
  {
    "postcode": "88161",
    "city": "Ried im Allgäu"
  },
  {
    "postcode": "88161",
    "city": "Weihers im Allgäu"
  },
  {
    "postcode": "88161",
    "city": "Lindau Bodensee"
  },
  {
    "postcode": "88161",
    "city": "Lindenberg i. Allgäu"
  },
  {
    "postcode": "88161",
    "city": "Lindenberg"
  },
  {
    "postcode": "88161",
    "city": "Goßholz"
  },
  {
    "postcode": "88161",
    "city": "Kellershub"
  },
  {
    "postcode": "88161",
    "city": "Manzen"
  },
  {
    "postcode": "88161",
    "city": "Ratzenberg"
  },
  {
    "postcode": "88161",
    "city": "Reisach"
  },
  {
    "postcode": "88161",
    "city": "Ried"
  },
  {
    "postcode": "88161",
    "city": "Ruppenmanklitz"
  },
  {
    "postcode": "88161",
    "city": "Weihers"
  },
  {
    "postcode": "88167",
    "city": "Auers Allgäu"
  },
  {
    "postcode": "88167",
    "city": "Auers"
  },
  {
    "postcode": "88167",
    "city": "Bauschwanden Allgäu"
  },
  {
    "postcode": "88167",
    "city": "Bauschwanden"
  },
  {
    "postcode": "88167",
    "city": "Biesen Allgäu"
  },
  {
    "postcode": "88167",
    "city": "Biesen"
  },
  {
    "postcode": "88167",
    "city": "Brettweg Allgäu"
  },
  {
    "postcode": "88167",
    "city": "Brettweg"
  },
  {
    "postcode": "88167",
    "city": "Ebratshofen"
  },
  {
    "postcode": "88167",
    "city": "Egg Allgäu"
  },
  {
    "postcode": "88167",
    "city": "Egg"
  },
  {
    "postcode": "88167",
    "city": "Ehrhafts Allgäu"
  },
  {
    "postcode": "88167",
    "city": "Ehrhafts"
  },
  {
    "postcode": "88167",
    "city": "Gerstland"
  },
  {
    "postcode": "88167",
    "city": "Gestratz"
  },
  {
    "postcode": "88167",
    "city": "Giesenberg Allgäu"
  },
  {
    "postcode": "88167",
    "city": "Giesenberg"
  },
  {
    "postcode": "88167",
    "city": "Greit Allgäu"
  },
  {
    "postcode": "88167",
    "city": "Greit"
  },
  {
    "postcode": "88167",
    "city": "Grünenbach"
  },
  {
    "postcode": "88167",
    "city": "Grünenbach Allgäu"
  },
  {
    "postcode": "88167",
    "city": "Happareute Allgäu"
  },
  {
    "postcode": "88167",
    "city": "Happareute"
  },
  {
    "postcode": "88167",
    "city": "Harratried Allgäu"
  },
  {
    "postcode": "88167",
    "city": "Harratried"
  },
  {
    "postcode": "88167",
    "city": "Heimhofen Allgäu"
  },
  {
    "postcode": "88167",
    "city": "Heimhofen"
  },
  {
    "postcode": "88167",
    "city": "Hohenegg"
  },
  {
    "postcode": "88167",
    "city": "Kimpflen Allgäu"
  },
  {
    "postcode": "88167",
    "city": "Kimpflen"
  },
  {
    "postcode": "88167",
    "city": "Lanzenberg Allgäu"
  },
  {
    "postcode": "88167",
    "city": "Lanzenberg"
  },
  {
    "postcode": "88167",
    "city": "Laubenberg Allgäu"
  },
  {
    "postcode": "88167",
    "city": "Laubenberg"
  },
  {
    "postcode": "88167",
    "city": "Lengersau bei Röthenbach Allgäu"
  },
  {
    "postcode": "88167",
    "city": "Lengersau bei Röthenbach"
  },
  {
    "postcode": "88167",
    "city": "Maierhöfen"
  },
  {
    "postcode": "88167",
    "city": "Maierhöfen Allgäu"
  },
  {
    "postcode": "88167",
    "city": "Oberried"
  },
  {
    "postcode": "88167",
    "city": "Rentershofen Allgäu"
  },
  {
    "postcode": "88167",
    "city": "Rentershofen"
  },
  {
    "postcode": "88167",
    "city": "Reute"
  },
  {
    "postcode": "88167",
    "city": "Riedholz Allgäu"
  },
  {
    "postcode": "88167",
    "city": "Riedholz"
  },
  {
    "postcode": "88167",
    "city": "Ringenberg Allgäu"
  },
  {
    "postcode": "88167",
    "city": "Ringenberg"
  },
  {
    "postcode": "88167",
    "city": "Röthenbach (Allgäu)"
  },
  {
    "postcode": "88167",
    "city": "Röthenbach"
  },
  {
    "postcode": "88167",
    "city": "Schmalenberg Allgäu"
  },
  {
    "postcode": "88167",
    "city": "Schmalenberg"
  },
  {
    "postcode": "88167",
    "city": "Schönau Allgäu"
  },
  {
    "postcode": "88167",
    "city": "Schönau"
  },
  {
    "postcode": "88167",
    "city": "Schüttentobel"
  },
  {
    "postcode": "88167",
    "city": "Steinegaden Allgäu"
  },
  {
    "postcode": "88167",
    "city": "Steinegaden"
  },
  {
    "postcode": "88167",
    "city": "Stiefenhofen"
  },
  {
    "postcode": "88167",
    "city": "Tannen Allgäu"
  },
  {
    "postcode": "88167",
    "city": "Tannen"
  },
  {
    "postcode": "88167",
    "city": "Vogelsang Allgäu"
  },
  {
    "postcode": "88167",
    "city": "Vogelsang"
  },
  {
    "postcode": "88167",
    "city": "Vorholz Allgäu"
  },
  {
    "postcode": "88167",
    "city": "Vorholz"
  },
  {
    "postcode": "88167",
    "city": "Wolfbühl Allgäu"
  },
  {
    "postcode": "88167",
    "city": "Wolfbühl"
  },
  {
    "postcode": "88167",
    "city": "Zwirkenberg Allgäu"
  },
  {
    "postcode": "88167",
    "city": "Zwirkenberg"
  },
  {
    "postcode": "88167",
    "city": "Lindau Bodensee"
  },
  {
    "postcode": "88167",
    "city": "Gemeinde Maierhöfen"
  },
  {
    "postcode": "88167",
    "city": "Bischlecht"
  },
  {
    "postcode": "88167",
    "city": "Pferrenberg"
  },
  {
    "postcode": "88167",
    "city": "Steig"
  },
  {
    "postcode": "88167",
    "city": "Unterried"
  },
  {
    "postcode": "88167",
    "city": "Oberhäuser"
  },
  {
    "postcode": "88171",
    "city": "Blättla Allgäu"
  },
  {
    "postcode": "88171",
    "city": "Blättla"
  },
  {
    "postcode": "88171",
    "city": "Bremenried im Allgäu"
  },
  {
    "postcode": "88171",
    "city": "Dressen im Allgäu"
  },
  {
    "postcode": "88171",
    "city": "Ellhofen Allgäu"
  },
  {
    "postcode": "88171",
    "city": "Ellhofen"
  },
  {
    "postcode": "88171",
    "city": "Eyenbach im Allgäu"
  },
  {
    "postcode": "88171",
    "city": "Hagelstein im Allgäu"
  },
  {
    "postcode": "88171",
    "city": "Hasenried im Allgäu"
  },
  {
    "postcode": "88171",
    "city": "Obertrogen im Allgäu"
  },
  {
    "postcode": "88171",
    "city": "Riegen im Allgäu"
  },
  {
    "postcode": "88171",
    "city": "Schreckenmanklitz im Allgäu"
  },
  {
    "postcode": "88171",
    "city": "Siebers im Allgäu"
  },
  {
    "postcode": "88171",
    "city": "Simmerberg"
  },
  {
    "postcode": "88171",
    "city": "Untertrogen im Allgäu"
  },
  {
    "postcode": "88171",
    "city": "Weiler"
  },
  {
    "postcode": "88171",
    "city": "Weiler-Simmerberg"
  },
  {
    "postcode": "88171",
    "city": "Weißen im Allgäu"
  },
  {
    "postcode": "88171",
    "city": "Lindau Bodensee"
  },
  {
    "postcode": "88171",
    "city": "Altenburg"
  },
  {
    "postcode": "88171",
    "city": "Au"
  },
  {
    "postcode": "88171",
    "city": "Buchenbühl"
  },
  {
    "postcode": "88171",
    "city": "Dressen"
  },
  {
    "postcode": "88171",
    "city": "Eyenbach"
  },
  {
    "postcode": "88171",
    "city": "Bremenried"
  },
  {
    "postcode": "88171",
    "city": "Hagelstein"
  },
  {
    "postcode": "88171",
    "city": "Hasenried"
  },
  {
    "postcode": "88171",
    "city": "Kapfreute"
  },
  {
    "postcode": "88171",
    "city": "Krähnberg"
  },
  {
    "postcode": "88171",
    "city": "Lachershof"
  },
  {
    "postcode": "88171",
    "city": "Oberscheiben"
  },
  {
    "postcode": "88171",
    "city": "Obertrogen"
  },
  {
    "postcode": "88171",
    "city": "Riegen"
  },
  {
    "postcode": "88171",
    "city": "Ruppenmanklitz"
  },
  {
    "postcode": "88171",
    "city": "Salmers"
  },
  {
    "postcode": "88171",
    "city": "Schreckenmanklitz"
  },
  {
    "postcode": "88171",
    "city": "Siebers"
  },
  {
    "postcode": "88171",
    "city": "Untertrogen"
  },
  {
    "postcode": "88171",
    "city": "Weissen"
  },
  {
    "postcode": "88175",
    "city": "Ablers Allgäu"
  },
  {
    "postcode": "88175",
    "city": "Ablers"
  },
  {
    "postcode": "88175",
    "city": "Allmannsried Allgäu"
  },
  {
    "postcode": "88175",
    "city": "Allmannsried"
  },
  {
    "postcode": "88175",
    "city": "Bieslings Allgäu"
  },
  {
    "postcode": "88175",
    "city": "Bieslings"
  },
  {
    "postcode": "88175",
    "city": "Böserscheidegg Allgäu"
  },
  {
    "postcode": "88175",
    "city": "Böserscheidegg"
  },
  {
    "postcode": "88175",
    "city": "Buchenbühl"
  },
  {
    "postcode": "88175",
    "city": "Buflingsried Allgäu"
  },
  {
    "postcode": "88175",
    "city": "Buflingsried"
  },
  {
    "postcode": "88175",
    "city": "Bux Allgäu"
  },
  {
    "postcode": "88175",
    "city": "Bux"
  },
  {
    "postcode": "88175",
    "city": "Ebenschwand Allgäu"
  },
  {
    "postcode": "88175",
    "city": "Ebenschwand"
  },
  {
    "postcode": "88175",
    "city": "Forst Allgäu"
  },
  {
    "postcode": "88175",
    "city": "Forst"
  },
  {
    "postcode": "88175",
    "city": "Forstenhäuser Allgäu"
  },
  {
    "postcode": "88175",
    "city": "Forstenhäuser"
  },
  {
    "postcode": "88175",
    "city": "Gretenmühle Allgäu"
  },
  {
    "postcode": "88175",
    "city": "Gretenmühle"
  },
  {
    "postcode": "88175",
    "city": "Hagspiel Allgäu"
  },
  {
    "postcode": "88175",
    "city": "Hagspiel"
  },
  {
    "postcode": "88175",
    "city": "Haslach"
  },
  {
    "postcode": "88175",
    "city": "Haus Allgäu"
  },
  {
    "postcode": "88175",
    "city": "Haus"
  },
  {
    "postcode": "88175",
    "city": "Lindenau Allgäu"
  },
  {
    "postcode": "88175",
    "city": "Lindenau"
  },
  {
    "postcode": "88175",
    "city": "Oberstein Allgäu"
  },
  {
    "postcode": "88175",
    "city": "Oberstein"
  },
  {
    "postcode": "88175",
    "city": "Ostkinberg"
  },
  {
    "postcode": "88175",
    "city": "Rickenbach Allgäu"
  },
  {
    "postcode": "88175",
    "city": "Rickenbach"
  },
  {
    "postcode": "88175",
    "city": "Rorgenmoos Allgäu"
  },
  {
    "postcode": "88175",
    "city": "Rorgenmoos"
  },
  {
    "postcode": "88175",
    "city": "Schalkenried Allgäu"
  },
  {
    "postcode": "88175",
    "city": "Schalkenried"
  },
  {
    "postcode": "88175",
    "city": "Scheffau Allgäu"
  },
  {
    "postcode": "88175",
    "city": "Scheffau"
  },
  {
    "postcode": "88175",
    "city": "Scheidegg"
  },
  {
    "postcode": "88175",
    "city": "Scheidegg Allgäu"
  },
  {
    "postcode": "88175",
    "city": "Schirpfentobel Allgäu"
  },
  {
    "postcode": "88175",
    "city": "Schirpfentobel"
  },
  {
    "postcode": "88175",
    "city": "Unterstein"
  },
  {
    "postcode": "88175",
    "city": "Lindau Bodensee"
  },
  {
    "postcode": "88175",
    "city": "Aizenreute"
  },
  {
    "postcode": "88175",
    "city": "Brand"
  },
  {
    "postcode": "88175",
    "city": "Bronschwand"
  },
  {
    "postcode": "88175",
    "city": "Bächlingen"
  },
  {
    "postcode": "88175",
    "city": "Bärfallen"
  },
  {
    "postcode": "88175",
    "city": "Bühl"
  },
  {
    "postcode": "88175",
    "city": "Denzenmühle"
  },
  {
    "postcode": "88175",
    "city": "Diethen"
  },
  {
    "postcode": "88175",
    "city": "Ellersreute"
  },
  {
    "postcode": "88175",
    "city": "Gaisgau"
  },
  {
    "postcode": "88175",
    "city": "Greifen"
  },
  {
    "postcode": "88175",
    "city": "Häuslings"
  },
  {
    "postcode": "88175",
    "city": "Katzenmühle"
  },
  {
    "postcode": "88175",
    "city": "Lötz"
  },
  {
    "postcode": "88175",
    "city": "Leintobel"
  },
  {
    "postcode": "88175",
    "city": "Neuhaus"
  },
  {
    "postcode": "88175",
    "city": "Oberbuchenbühl"
  },
  {
    "postcode": "88175",
    "city": "Oberschwenden"
  },
  {
    "postcode": "88175",
    "city": "Rappenfluh"
  },
  {
    "postcode": "88175",
    "city": "Reute"
  },
  {
    "postcode": "88175",
    "city": "Unterschwenden"
  },
  {
    "postcode": "88178",
    "city": "Berg"
  },
  {
    "postcode": "88178",
    "city": "Biesenberg"
  },
  {
    "postcode": "88178",
    "city": "Dreiheiligen"
  },
  {
    "postcode": "88178",
    "city": "Engenberg"
  },
  {
    "postcode": "88178",
    "city": "Geigersthal"
  },
  {
    "postcode": "88178",
    "city": "Heimenkirch"
  },
  {
    "postcode": "88178",
    "city": "Mapprechts"
  },
  {
    "postcode": "88178",
    "city": "Meckatz"
  },
  {
    "postcode": "88178",
    "city": "Menzen"
  },
  {
    "postcode": "88178",
    "city": "Mothen"
  },
  {
    "postcode": "88178",
    "city": "Riedhirsch"
  },
  {
    "postcode": "88178",
    "city": "Unterried"
  },
  {
    "postcode": "88178",
    "city": "Wolfertshofen"
  },
  {
    "postcode": "88178",
    "city": "Zwiesele"
  },
  {
    "postcode": "88178",
    "city": "Lindau Bodensee"
  },
  {
    "postcode": "88178",
    "city": "Hofs"
  },
  {
    "postcode": "88178",
    "city": "Kappen"
  },
  {
    "postcode": "88178",
    "city": "Nadenberg"
  },
  {
    "postcode": "88178",
    "city": "Oberhäuser"
  },
  {
    "postcode": "88178",
    "city": "Oberried"
  },
  {
    "postcode": "88178",
    "city": "Hämmerle"
  },
  {
    "postcode": "88179",
    "city": "Bächen Allgäu"
  },
  {
    "postcode": "88179",
    "city": "Bächen"
  },
  {
    "postcode": "88179",
    "city": "Beule Allgäu"
  },
  {
    "postcode": "88179",
    "city": "Beule"
  },
  {
    "postcode": "88179",
    "city": "Hinterschweinhöf Allgäu"
  },
  {
    "postcode": "88179",
    "city": "Hinterschweinhöf"
  },
  {
    "postcode": "88179",
    "city": "Ihlingshof Allgäu"
  },
  {
    "postcode": "88179",
    "city": "Ihlingshof"
  },
  {
    "postcode": "88179",
    "city": "Langenried Allgäu"
  },
  {
    "postcode": "88179",
    "city": "Langenried"
  },
  {
    "postcode": "88179",
    "city": "Oberreute Allgäu"
  },
  {
    "postcode": "88179",
    "city": "Oberreute"
  },
  {
    "postcode": "88179",
    "city": "Schnellers Allgäu"
  },
  {
    "postcode": "88179",
    "city": "Schnellers"
  },
  {
    "postcode": "88179",
    "city": "Schönebühl Allgäu"
  },
  {
    "postcode": "88179",
    "city": "Schönebühl"
  },
  {
    "postcode": "88179",
    "city": "Stadels Allgäu"
  },
  {
    "postcode": "88179",
    "city": "Stadels"
  },
  {
    "postcode": "88179",
    "city": "Unterreute Allgäu"
  },
  {
    "postcode": "88179",
    "city": "Unterreute"
  },
  {
    "postcode": "88179",
    "city": "Vorderschweinhöf Allgäu"
  },
  {
    "postcode": "88179",
    "city": "Vorderschweinhöf"
  },
  {
    "postcode": "88179",
    "city": "Zellers Allgäu"
  },
  {
    "postcode": "88179",
    "city": "Zellers"
  },
  {
    "postcode": "88179",
    "city": "Lindau Bodensee"
  },
  {
    "postcode": "88212",
    "city": "Hinzistobel"
  },
  {
    "postcode": "88212",
    "city": "Höll"
  },
  {
    "postcode": "88212",
    "city": "Innenstadt"
  },
  {
    "postcode": "88212",
    "city": "Ittenbeuren"
  },
  {
    "postcode": "88212",
    "city": "Knollengraben"
  },
  {
    "postcode": "88212",
    "city": "Ravensburg (Württemberg)"
  },
  {
    "postcode": "88212",
    "city": "Ravensburg"
  },
  {
    "postcode": "88213",
    "city": "Adelsreute"
  },
  {
    "postcode": "88213",
    "city": "Alberskirch"
  },
  {
    "postcode": "88213",
    "city": "Bavendorf"
  },
  {
    "postcode": "88213",
    "city": "Dürnast"
  },
  {
    "postcode": "88213",
    "city": "Eggartskirch"
  },
  {
    "postcode": "88213",
    "city": "Erbenweiler"
  },
  {
    "postcode": "88213",
    "city": "Oberzell"
  },
  {
    "postcode": "88213",
    "city": "Ravensburg (Württemberg)"
  },
  {
    "postcode": "88213",
    "city": "Ravensburg"
  },
  {
    "postcode": "88213",
    "city": "Riesen"
  },
  {
    "postcode": "88213",
    "city": "Schmalegg"
  },
  {
    "postcode": "88213",
    "city": "Taldorf"
  },
  {
    "postcode": "88213",
    "city": "Unterwaldhausen"
  },
  {
    "postcode": "88213",
    "city": "Wernsreute"
  },
  {
    "postcode": "88213",
    "city": "Weststadt"
  },
  {
    "postcode": "88213",
    "city": "Albersfeld"
  },
  {
    "postcode": "88213",
    "city": "Herrgottsfeld"
  },
  {
    "postcode": "88213",
    "city": "Innenstadt"
  },
  {
    "postcode": "88214",
    "city": "Eschach"
  },
  {
    "postcode": "88214",
    "city": "Gornhofen"
  },
  {
    "postcode": "88214",
    "city": "Obereschach"
  },
  {
    "postcode": "88214",
    "city": "Oberhofen"
  },
  {
    "postcode": "88214",
    "city": "Rahlen"
  },
  {
    "postcode": "88214",
    "city": "Ravensburg (Württemberg)"
  },
  {
    "postcode": "88214",
    "city": "Ravensburg"
  },
  {
    "postcode": "88214",
    "city": "Südstadt"
  },
  {
    "postcode": "88214",
    "city": "Torkenweiler"
  },
  {
    "postcode": "88214",
    "city": "Untereschach"
  },
  {
    "postcode": "88214",
    "city": "Weingartshof"
  },
  {
    "postcode": "88214",
    "city": "Weißenau"
  },
  {
    "postcode": "88214",
    "city": "Sickenried"
  },
  {
    "postcode": "88214",
    "city": "Im Karrer"
  },
  {
    "postcode": "88239",
    "city": "Ahegg"
  },
  {
    "postcode": "88239",
    "city": "Aich"
  },
  {
    "postcode": "88239",
    "city": "Allewinden"
  },
  {
    "postcode": "88239",
    "city": "Bach"
  },
  {
    "postcode": "88239",
    "city": "Batten"
  },
  {
    "postcode": "88239",
    "city": "Berg"
  },
  {
    "postcode": "88239",
    "city": "Bettensweiler"
  },
  {
    "postcode": "88239",
    "city": "Beutelsau"
  },
  {
    "postcode": "88239",
    "city": "Bimisdorf"
  },
  {
    "postcode": "88239",
    "city": "Breiten"
  },
  {
    "postcode": "88239",
    "city": "Brententann"
  },
  {
    "postcode": "88239",
    "city": "Buchen"
  },
  {
    "postcode": "88239",
    "city": "Burgelitz"
  },
  {
    "postcode": "88239",
    "city": "Bürsten"
  },
  {
    "postcode": "88239",
    "city": "Dabetsweiler"
  },
  {
    "postcode": "88239",
    "city": "Degetsweiler"
  },
  {
    "postcode": "88239",
    "city": "Deuchelried"
  },
  {
    "postcode": "88239",
    "city": "Eggenreute"
  },
  {
    "postcode": "88239",
    "city": "Ehrlach"
  },
  {
    "postcode": "88239",
    "city": "Elitz"
  },
  {
    "postcode": "88239",
    "city": "Endersen"
  },
  {
    "postcode": "88239",
    "city": "Engetsweiler"
  },
  {
    "postcode": "88239",
    "city": "Ettensweiler"
  },
  {
    "postcode": "88239",
    "city": "Föhlschmitten"
  },
  {
    "postcode": "88239",
    "city": "Grub"
  },
  {
    "postcode": "88239",
    "city": "Halden"
  },
  {
    "postcode": "88239",
    "city": "Haslach"
  },
  {
    "postcode": "88239",
    "city": "Hatzenweiler"
  },
  {
    "postcode": "88239",
    "city": "Herfatz"
  },
  {
    "postcode": "88239",
    "city": "Herzmanns"
  },
  {
    "postcode": "88239",
    "city": "Hiltensweiler"
  },
  {
    "postcode": "88239",
    "city": "Hofstadt"
  },
  {
    "postcode": "88239",
    "city": "Hub"
  },
  {
    "postcode": "88239",
    "city": "Humbrechts"
  },
  {
    "postcode": "88239",
    "city": "Hüttenweiler"
  },
  {
    "postcode": "88239",
    "city": "Jussenweiler"
  },
  {
    "postcode": "88239",
    "city": "Käferhofen"
  },
  {
    "postcode": "88239",
    "city": "Karsee"
  },
  {
    "postcode": "88239",
    "city": "Kernaten"
  },
  {
    "postcode": "88239",
    "city": "Laudorf"
  },
  {
    "postcode": "88239",
    "city": "Leupolz"
  },
  {
    "postcode": "88239",
    "city": "Mindbuch"
  },
  {
    "postcode": "88239",
    "city": "Neuravensburg"
  },
  {
    "postcode": "88239",
    "city": "Niederlehen"
  },
  {
    "postcode": "88239",
    "city": "Niederwangen"
  },
  {
    "postcode": "88239",
    "city": "Nieratz"
  },
  {
    "postcode": "88239",
    "city": "Oberau"
  },
  {
    "postcode": "88239",
    "city": "Obermooweiler"
  },
  {
    "postcode": "88239",
    "city": "Oberweiler"
  },
  {
    "postcode": "88239",
    "city": "Oflings"
  },
  {
    "postcode": "88239",
    "city": "Primisweiler"
  },
  {
    "postcode": "88239",
    "city": "Reischmann"
  },
  {
    "postcode": "88239",
    "city": "Rembrechts"
  },
  {
    "postcode": "88239",
    "city": "Reute"
  },
  {
    "postcode": "88239",
    "city": "Rhein"
  },
  {
    "postcode": "88239",
    "city": "Ried"
  },
  {
    "postcode": "88239",
    "city": "Roggenzell"
  },
  {
    "postcode": "88239",
    "city": "Saamen"
  },
  {
    "postcode": "88239",
    "city": "Schauwies"
  },
  {
    "postcode": "88239",
    "city": "Schlachters"
  },
  {
    "postcode": "88239",
    "city": "Schomburg"
  },
  {
    "postcode": "88239",
    "city": "Schuppenberg"
  },
  {
    "postcode": "88239",
    "city": "Schwarzenbach"
  },
  {
    "postcode": "88239",
    "city": "Sommers"
  },
  {
    "postcode": "88239",
    "city": "Spiegelhaus"
  },
  {
    "postcode": "88239",
    "city": "Untermooweiler"
  },
  {
    "postcode": "88239",
    "city": "Untersteig"
  },
  {
    "postcode": "88239",
    "city": "Wangen"
  },
  {
    "postcode": "88239",
    "city": "Wangen im Allgäu"
  },
  {
    "postcode": "88239",
    "city": "Watt"
  },
  {
    "postcode": "88239",
    "city": "Weihers"
  },
  {
    "postcode": "88239",
    "city": "Welbrechts"
  },
  {
    "postcode": "88239",
    "city": "Windhäusern"
  },
  {
    "postcode": "88239",
    "city": "Wohnried"
  },
  {
    "postcode": "88239",
    "city": "Wolfaz"
  },
  {
    "postcode": "88239",
    "city": "Ravensburg"
  },
  {
    "postcode": "88250",
    "city": "Weingarten"
  },
  {
    "postcode": "88250",
    "city": "Weingarten (Württemberg)"
  },
  {
    "postcode": "88250",
    "city": "Ravensburg"
  },
  {
    "postcode": "88255",
    "city": "Baienfurt"
  },
  {
    "postcode": "88255",
    "city": "Baindt"
  },
  {
    "postcode": "88255",
    "city": "Baindt (Württemberg)"
  },
  {
    "postcode": "88255",
    "city": "Baumgarten"
  },
  {
    "postcode": "88255",
    "city": "Binningen"
  },
  {
    "postcode": "88255",
    "city": "Briach"
  },
  {
    "postcode": "88255",
    "city": "Butzenberg"
  },
  {
    "postcode": "88255",
    "city": "Friesenhäusle"
  },
  {
    "postcode": "88255",
    "city": "Grünenberg"
  },
  {
    "postcode": "88255",
    "city": "Hof"
  },
  {
    "postcode": "88255",
    "city": "Knechtenhaus"
  },
  {
    "postcode": "88255",
    "city": "Köpfingen"
  },
  {
    "postcode": "88255",
    "city": "Marsweiler"
  },
  {
    "postcode": "88255",
    "city": "Mehlis"
  },
  {
    "postcode": "88255",
    "city": "Neubriach"
  },
  {
    "postcode": "88255",
    "city": "Niederbiegen"
  },
  {
    "postcode": "88255",
    "city": "Schachen"
  },
  {
    "postcode": "88255",
    "city": "Sulpach"
  },
  {
    "postcode": "88255",
    "city": "Trauben"
  },
  {
    "postcode": "88255",
    "city": "Waldbad"
  },
  {
    "postcode": "88255",
    "city": "Wickenhaus"
  },
  {
    "postcode": "88255",
    "city": "Ravensburg"
  },
  {
    "postcode": "88260",
    "city": "Albris"
  },
  {
    "postcode": "88260",
    "city": "Alleschwende"
  },
  {
    "postcode": "88260",
    "city": "Alperts"
  },
  {
    "postcode": "88260",
    "city": "Argenbühl"
  },
  {
    "postcode": "88260",
    "city": "Aschen"
  },
  {
    "postcode": "88260",
    "city": "Aufreute"
  },
  {
    "postcode": "88260",
    "city": "Berfallen"
  },
  {
    "postcode": "88260",
    "city": "Bienzen"
  },
  {
    "postcode": "88260",
    "city": "Bremen"
  },
  {
    "postcode": "88260",
    "city": "Buch"
  },
  {
    "postcode": "88260",
    "city": "Buchen"
  },
  {
    "postcode": "88260",
    "city": "Bühl"
  },
  {
    "postcode": "88260",
    "city": "Burg"
  },
  {
    "postcode": "88260",
    "city": "Burgstall"
  },
  {
    "postcode": "88260",
    "city": "Christazhofen"
  },
  {
    "postcode": "88260",
    "city": "Eglofs"
  },
  {
    "postcode": "88260",
    "city": "Eglofstal"
  },
  {
    "postcode": "88260",
    "city": "Eisenharz"
  },
  {
    "postcode": "88260",
    "city": "Enkenhofen"
  },
  {
    "postcode": "88260",
    "city": "Eyb"
  },
  {
    "postcode": "88260",
    "city": "Gerazreute"
  },
  {
    "postcode": "88260",
    "city": "Göttlishofen"
  },
  {
    "postcode": "88260",
    "city": "Gottrazhofen"
  },
  {
    "postcode": "88260",
    "city": "Haizen"
  },
  {
    "postcode": "88260",
    "city": "Halden"
  },
  {
    "postcode": "88260",
    "city": "Hochberg"
  },
  {
    "postcode": "88260",
    "city": "Isnyberg"
  },
  {
    "postcode": "88260",
    "city": "Linzgis"
  },
  {
    "postcode": "88260",
    "city": "Lochhammer"
  },
  {
    "postcode": "88260",
    "city": "Matzen"
  },
  {
    "postcode": "88260",
    "city": "Meggen"
  },
  {
    "postcode": "88260",
    "city": "Mittelried"
  },
  {
    "postcode": "88260",
    "city": "Moos"
  },
  {
    "postcode": "88260",
    "city": "Mühlbolz"
  },
  {
    "postcode": "88260",
    "city": "Oberried"
  },
  {
    "postcode": "88260",
    "city": "Obervorholz"
  },
  {
    "postcode": "88260",
    "city": "Ratzenried"
  },
  {
    "postcode": "88260",
    "city": "Reute"
  },
  {
    "postcode": "88260",
    "city": "Sandraz"
  },
  {
    "postcode": "88260",
    "city": "Schaulings"
  },
  {
    "postcode": "88260",
    "city": "Schönenberg"
  },
  {
    "postcode": "88260",
    "city": "Sechshöf"
  },
  {
    "postcode": "88260",
    "city": "Siggen"
  },
  {
    "postcode": "88260",
    "city": "Staudach"
  },
  {
    "postcode": "88260",
    "city": "Steinberg"
  },
  {
    "postcode": "88260",
    "city": "Stieg"
  },
  {
    "postcode": "88260",
    "city": "Tal"
  },
  {
    "postcode": "88260",
    "city": "Tobelmühle"
  },
  {
    "postcode": "88260",
    "city": "Untervorholz"
  },
  {
    "postcode": "88260",
    "city": "Willatz"
  },
  {
    "postcode": "88260",
    "city": "Zimmerberg"
  },
  {
    "postcode": "88260",
    "city": "Ravensburg"
  },
  {
    "postcode": "88263",
    "city": "Bettenweiler"
  },
  {
    "postcode": "88263",
    "city": "Danketsweiler"
  },
  {
    "postcode": "88263",
    "city": "Hasenweiler"
  },
  {
    "postcode": "88263",
    "city": "Haslachmühle"
  },
  {
    "postcode": "88263",
    "city": "Horgenzell"
  },
  {
    "postcode": "88263",
    "city": "Kappel"
  },
  {
    "postcode": "88263",
    "city": "Ringenhausen"
  },
  {
    "postcode": "88263",
    "city": "Ringgenweiler"
  },
  {
    "postcode": "88263",
    "city": "Sattelbach"
  },
  {
    "postcode": "88263",
    "city": "Tepfenhard"
  },
  {
    "postcode": "88263",
    "city": "Wilhelmskirch"
  },
  {
    "postcode": "88263",
    "city": "Winterbach"
  },
  {
    "postcode": "88263",
    "city": "Wolketsweiler"
  },
  {
    "postcode": "88263",
    "city": "Zogenweiler"
  },
  {
    "postcode": "88263",
    "city": "Ravensburg"
  },
  {
    "postcode": "88267",
    "city": "Berg"
  },
  {
    "postcode": "88267",
    "city": "Boschen"
  },
  {
    "postcode": "88267",
    "city": "Forst"
  },
  {
    "postcode": "88267",
    "city": "Grund"
  },
  {
    "postcode": "88267",
    "city": "Hankel"
  },
  {
    "postcode": "88267",
    "city": "Heißen"
  },
  {
    "postcode": "88267",
    "city": "Hengenen"
  },
  {
    "postcode": "88267",
    "city": "Höfen"
  },
  {
    "postcode": "88267",
    "city": "Küchel"
  },
  {
    "postcode": "88267",
    "city": "Moos"
  },
  {
    "postcode": "88267",
    "city": "Moser"
  },
  {
    "postcode": "88267",
    "city": "Neuhaus"
  },
  {
    "postcode": "88267",
    "city": "Reckendürren"
  },
  {
    "postcode": "88267",
    "city": "Reich"
  },
  {
    "postcode": "88267",
    "city": "Reute"
  },
  {
    "postcode": "88267",
    "city": "Rothaus"
  },
  {
    "postcode": "88267",
    "city": "Ruggen"
  },
  {
    "postcode": "88267",
    "city": "Stocken"
  },
  {
    "postcode": "88267",
    "city": "Unterhalden"
  },
  {
    "postcode": "88267",
    "city": "Vogt"
  },
  {
    "postcode": "88267",
    "city": "Ravensburg"
  },
  {
    "postcode": "88271",
    "city": "Auhof"
  },
  {
    "postcode": "88271",
    "city": "Esenhausen"
  },
  {
    "postcode": "88271",
    "city": "Frimmenweiler"
  },
  {
    "postcode": "88271",
    "city": "Höhreute"
  },
  {
    "postcode": "88271",
    "city": "Latten"
  },
  {
    "postcode": "88271",
    "city": "Lengenweiler"
  },
  {
    "postcode": "88271",
    "city": "Nassach"
  },
  {
    "postcode": "88271",
    "city": "Niederweiler"
  },
  {
    "postcode": "88271",
    "city": "Pfrungen"
  },
  {
    "postcode": "88271",
    "city": "Reute"
  },
  {
    "postcode": "88271",
    "city": "Rimmersberg"
  },
  {
    "postcode": "88271",
    "city": "Seefeld"
  },
  {
    "postcode": "88271",
    "city": "Tafern"
  },
  {
    "postcode": "88271",
    "city": "Wilhelmsdorf"
  },
  {
    "postcode": "88271",
    "city": "Wilhelmsdorf (Württemberg)"
  },
  {
    "postcode": "88271",
    "city": "Zußdorf"
  },
  {
    "postcode": "88271",
    "city": "Ravensburg"
  },
  {
    "postcode": "88273",
    "city": "Baienbach"
  },
  {
    "postcode": "88273",
    "city": "Blitzenreute"
  },
  {
    "postcode": "88273",
    "city": "Einöde"
  },
  {
    "postcode": "88273",
    "city": "Ergetsweiler"
  },
  {
    "postcode": "88273",
    "city": "Feldmoos"
  },
  {
    "postcode": "88273",
    "city": "Fronhofen"
  },
  {
    "postcode": "88273",
    "city": "Fronreute"
  },
  {
    "postcode": "88273",
    "city": "Geratsreute"
  },
  {
    "postcode": "88273",
    "city": "Grünlingen"
  },
  {
    "postcode": "88273",
    "city": "Hübschenberg"
  },
  {
    "postcode": "88273",
    "city": "Malmishaus"
  },
  {
    "postcode": "88273",
    "city": "Möllenbronn"
  },
  {
    "postcode": "88273",
    "city": "Ried"
  },
  {
    "postcode": "88273",
    "city": "Ruprechtsbruck"
  },
  {
    "postcode": "88273",
    "city": "Schlupfen"
  },
  {
    "postcode": "88273",
    "city": "Schreckensee"
  },
  {
    "postcode": "88273",
    "city": "Staig"
  },
  {
    "postcode": "88273",
    "city": "Steinishaus"
  },
  {
    "postcode": "88273",
    "city": "Wielatsried"
  },
  {
    "postcode": "88273",
    "city": "Wiesenhofen"
  },
  {
    "postcode": "88273",
    "city": "Ravensburg"
  },
  {
    "postcode": "88276",
    "city": "Aichach"
  },
  {
    "postcode": "88276",
    "city": "Baien"
  },
  {
    "postcode": "88276",
    "city": "Berg"
  },
  {
    "postcode": "88276",
    "city": "Berg (Kreis Ravensburg)"
  },
  {
    "postcode": "88276",
    "city": "Burg"
  },
  {
    "postcode": "88276",
    "city": "Dietenhofen"
  },
  {
    "postcode": "88276",
    "city": "Ettishofen"
  },
  {
    "postcode": "88276",
    "city": "Großtobel"
  },
  {
    "postcode": "88276",
    "city": "Hochstett"
  },
  {
    "postcode": "88276",
    "city": "Inntobel"
  },
  {
    "postcode": "88276",
    "city": "Kasernen"
  },
  {
    "postcode": "88276",
    "city": "Kellenried Ort"
  },
  {
    "postcode": "88276",
    "city": "Kleintobel"
  },
  {
    "postcode": "88276",
    "city": "Obersteig"
  },
  {
    "postcode": "88276",
    "city": "Ramsee"
  },
  {
    "postcode": "88276",
    "city": "Stauden"
  },
  {
    "postcode": "88276",
    "city": "Straß"
  },
  {
    "postcode": "88276",
    "city": "Unterloch"
  },
  {
    "postcode": "88276",
    "city": "Vockenweiler"
  },
  {
    "postcode": "88276",
    "city": "Vorberg"
  },
  {
    "postcode": "88276",
    "city": "Weiler"
  },
  {
    "postcode": "88276",
    "city": "Ravensburg"
  },
  {
    "postcode": "88279",
    "city": "Amberg"
  },
  {
    "postcode": "88279",
    "city": "Amtzell"
  },
  {
    "postcode": "88279",
    "city": "Büchel"
  },
  {
    "postcode": "88279",
    "city": "Feld"
  },
  {
    "postcode": "88279",
    "city": "Geiselharz"
  },
  {
    "postcode": "88279",
    "city": "Goppertshäusern"
  },
  {
    "postcode": "88279",
    "city": "Greut"
  },
  {
    "postcode": "88279",
    "city": "Karbach"
  },
  {
    "postcode": "88279",
    "city": "Moos"
  },
  {
    "postcode": "88279",
    "city": "Niemandsfreund"
  },
  {
    "postcode": "88279",
    "city": "Oberau"
  },
  {
    "postcode": "88279",
    "city": "Oberhelbler"
  },
  {
    "postcode": "88279",
    "city": "Pfärrich"
  },
  {
    "postcode": "88279",
    "city": "Pfärricherhöfe"
  },
  {
    "postcode": "88279",
    "city": "Reute"
  },
  {
    "postcode": "88279",
    "city": "Schattbuch"
  },
  {
    "postcode": "88279",
    "city": "Schmitten"
  },
  {
    "postcode": "88279",
    "city": "Siglisberg"
  },
  {
    "postcode": "88279",
    "city": "Spiesberg"
  },
  {
    "postcode": "88279",
    "city": "Tobel"
  },
  {
    "postcode": "88279",
    "city": "Untermatzen"
  },
  {
    "postcode": "88279",
    "city": "Vogelsang"
  },
  {
    "postcode": "88279",
    "city": "Weißenbach"
  },
  {
    "postcode": "88279",
    "city": "Ravensburg"
  },
  {
    "postcode": "88279",
    "city": "Beikers"
  },
  {
    "postcode": "88279",
    "city": "Bremen"
  },
  {
    "postcode": "88279",
    "city": "Dietenweiler"
  },
  {
    "postcode": "88279",
    "city": "Grenis"
  },
  {
    "postcode": "88279",
    "city": "Hagmühle"
  },
  {
    "postcode": "88279",
    "city": "Halden"
  },
  {
    "postcode": "88279",
    "city": "Hankelmann"
  },
  {
    "postcode": "88279",
    "city": "Haselmühle"
  },
  {
    "postcode": "88279",
    "city": "Heselboschen"
  },
  {
    "postcode": "88279",
    "city": "Häusing"
  },
  {
    "postcode": "88279",
    "city": "Ibental"
  },
  {
    "postcode": "88279",
    "city": "Kehlings"
  },
  {
    "postcode": "88279",
    "city": "Krottental"
  },
  {
    "postcode": "88279",
    "city": "Lehrwangen"
  },
  {
    "postcode": "88279",
    "city": "Luppmanns"
  },
  {
    "postcode": "88279",
    "city": "Lußmanns"
  },
  {
    "postcode": "88279",
    "city": "Neuhaus"
  },
  {
    "postcode": "88279",
    "city": "Obermatzen"
  },
  {
    "postcode": "88279",
    "city": "Pfaffenweiler"
  },
  {
    "postcode": "88279",
    "city": "Schierings"
  },
  {
    "postcode": "88279",
    "city": "Schnabelau"
  },
  {
    "postcode": "88279",
    "city": "Singenberg"
  },
  {
    "postcode": "88279",
    "city": "Stahrenberg"
  },
  {
    "postcode": "88279",
    "city": "Steinhaus"
  },
  {
    "postcode": "88279",
    "city": "Unterau"
  },
  {
    "postcode": "88279",
    "city": "Unterhof"
  },
  {
    "postcode": "88279",
    "city": "Weihers"
  },
  {
    "postcode": "88279",
    "city": "Wiesflecken"
  },
  {
    "postcode": "88281",
    "city": "Albisreute"
  },
  {
    "postcode": "88281",
    "city": "Erbisreute"
  },
  {
    "postcode": "88281",
    "city": "Fenken"
  },
  {
    "postcode": "88281",
    "city": "Fuchsenloch"
  },
  {
    "postcode": "88281",
    "city": "Hintermoos"
  },
  {
    "postcode": "88281",
    "city": "Kehrenberg"
  },
  {
    "postcode": "88281",
    "city": "Lanzenreute"
  },
  {
    "postcode": "88281",
    "city": "Mühlenreute"
  },
  {
    "postcode": "88281",
    "city": "Oberankenreute"
  },
  {
    "postcode": "88281",
    "city": "Richlisreute"
  },
  {
    "postcode": "88281",
    "city": "Schlier"
  },
  {
    "postcode": "88281",
    "city": "Unterankenreute"
  },
  {
    "postcode": "88281",
    "city": "Wetzisreute"
  },
  {
    "postcode": "88281",
    "city": "Ravensburg"
  },
  {
    "postcode": "88284",
    "city": "Bruggen"
  },
  {
    "postcode": "88284",
    "city": "Haller"
  },
  {
    "postcode": "88284",
    "city": "Hatzenturm"
  },
  {
    "postcode": "88284",
    "city": "Mochenwangen"
  },
  {
    "postcode": "88284",
    "city": "Niedersweiler"
  },
  {
    "postcode": "88284",
    "city": "Segelbach"
  },
  {
    "postcode": "88284",
    "city": "Steinhausen"
  },
  {
    "postcode": "88284",
    "city": "Vorsee"
  },
  {
    "postcode": "88284",
    "city": "Wolpertswende"
  },
  {
    "postcode": "88284",
    "city": "Ravensburg"
  },
  {
    "postcode": "88285",
    "city": "Alberberg"
  },
  {
    "postcode": "88285",
    "city": "Allisreute"
  },
  {
    "postcode": "88285",
    "city": "Baltersberg"
  },
  {
    "postcode": "88285",
    "city": "Bodnegg"
  },
  {
    "postcode": "88285",
    "city": "Buch"
  },
  {
    "postcode": "88285",
    "city": "Büchel"
  },
  {
    "postcode": "88285",
    "city": "Emmelhofen"
  },
  {
    "postcode": "88285",
    "city": "Gutmannshof"
  },
  {
    "postcode": "88285",
    "city": "Hargarten"
  },
  {
    "postcode": "88285",
    "city": "Ippenried"
  },
  {
    "postcode": "88285",
    "city": "Kammerhof"
  },
  {
    "postcode": "88285",
    "city": "Kerlenmoos"
  },
  {
    "postcode": "88285",
    "city": "Kofeld"
  },
  {
    "postcode": "88285",
    "city": "Linden"
  },
  {
    "postcode": "88285",
    "city": "Mohrhaus"
  },
  {
    "postcode": "88285",
    "city": "Oberwagenbach"
  },
  {
    "postcode": "88285",
    "city": "Rosenharz"
  },
  {
    "postcode": "88285",
    "city": "Rotheidlen"
  },
  {
    "postcode": "88285",
    "city": "Schönberg"
  },
  {
    "postcode": "88285",
    "city": "Steinhaus"
  },
  {
    "postcode": "88285",
    "city": "Tobel"
  },
  {
    "postcode": "88285",
    "city": "Unterwagenbach"
  },
  {
    "postcode": "88285",
    "city": "Widdum"
  },
  {
    "postcode": "88285",
    "city": "Ravensburg"
  },
  {
    "postcode": "88287",
    "city": "Arnegger"
  },
  {
    "postcode": "88287",
    "city": "Atzenweiler"
  },
  {
    "postcode": "88287",
    "city": "Emmelweiler"
  },
  {
    "postcode": "88287",
    "city": "Friedach"
  },
  {
    "postcode": "88287",
    "city": "Groppach"
  },
  {
    "postcode": "88287",
    "city": "Gruben"
  },
  {
    "postcode": "88287",
    "city": "Grünkraut"
  },
  {
    "postcode": "88287",
    "city": "Gullen"
  },
  {
    "postcode": "88287",
    "city": "Hübschenberg"
  },
  {
    "postcode": "88287",
    "city": "Liebenhofen"
  },
  {
    "postcode": "88287",
    "city": "Menisreute"
  },
  {
    "postcode": "88287",
    "city": "Meuschenmoos"
  },
  {
    "postcode": "88287",
    "city": "Ottershofen"
  },
  {
    "postcode": "88287",
    "city": "Ritteln"
  },
  {
    "postcode": "88287",
    "city": "Schregsberg"
  },
  {
    "postcode": "88287",
    "city": "Sigmarshofen"
  },
  {
    "postcode": "88287",
    "city": "Tobel"
  },
  {
    "postcode": "88287",
    "city": "Ravensburg"
  },
  {
    "postcode": "88287",
    "city": "Rößlerhalde"
  },
  {
    "postcode": "88289",
    "city": "Bannried"
  },
  {
    "postcode": "88289",
    "city": "Dietenberg"
  },
  {
    "postcode": "88289",
    "city": "Edensbach"
  },
  {
    "postcode": "88289",
    "city": "Frankenberg"
  },
  {
    "postcode": "88289",
    "city": "Hannober"
  },
  {
    "postcode": "88289",
    "city": "Kesenweiler"
  },
  {
    "postcode": "88289",
    "city": "Maiertal"
  },
  {
    "postcode": "88289",
    "city": "Ried"
  },
  {
    "postcode": "88289",
    "city": "Schafmaier"
  },
  {
    "postcode": "88289",
    "city": "Sieberatsreute"
  },
  {
    "postcode": "88289",
    "city": "Waldburg"
  },
  {
    "postcode": "88289",
    "city": "Waldburg (Württemberg)"
  },
  {
    "postcode": "88289",
    "city": "Ravensburg"
  },
  {
    "postcode": "88289",
    "city": "Forstenhausen"
  },
  {
    "postcode": "88299",
    "city": "Adrazhofen"
  },
  {
    "postcode": "88299",
    "city": "Allmishofen"
  },
  {
    "postcode": "88299",
    "city": "Auenhofen"
  },
  {
    "postcode": "88299",
    "city": "Ausnang"
  },
  {
    "postcode": "88299",
    "city": "Bettelhofen"
  },
  {
    "postcode": "88299",
    "city": "Boschen"
  },
  {
    "postcode": "88299",
    "city": "Brunnentobel"
  },
  {
    "postcode": "88299",
    "city": "Diepoldshofen"
  },
  {
    "postcode": "88299",
    "city": "Ellerazhofen"
  },
  {
    "postcode": "88299",
    "city": "Ellmeney"
  },
  {
    "postcode": "88299",
    "city": "Emerlanden"
  },
  {
    "postcode": "88299",
    "city": "Engelboldshofen"
  },
  {
    "postcode": "88299",
    "city": "Engerazhofen"
  },
  {
    "postcode": "88299",
    "city": "Friesenhofen"
  },
  {
    "postcode": "88299",
    "city": "Gebrazhofen Bahnhof"
  },
  {
    "postcode": "88299",
    "city": "Gebrazhofen"
  },
  {
    "postcode": "88299",
    "city": "Greis"
  },
  {
    "postcode": "88299",
    "city": "Grimmelshofen"
  },
  {
    "postcode": "88299",
    "city": "Grünenbach"
  },
  {
    "postcode": "88299",
    "city": "Haid"
  },
  {
    "postcode": "88299",
    "city": "Haselburg"
  },
  {
    "postcode": "88299",
    "city": "Heggelbach"
  },
  {
    "postcode": "88299",
    "city": "Herbrazhofen"
  },
  {
    "postcode": "88299",
    "city": "Herlazhofen"
  },
  {
    "postcode": "88299",
    "city": "Hinznang"
  },
  {
    "postcode": "88299",
    "city": "Hofs"
  },
  {
    "postcode": "88299",
    "city": "Hundhöfe"
  },
  {
    "postcode": "88299",
    "city": "Isgazhofen"
  },
  {
    "postcode": "88299",
    "city": "Krummen"
  },
  {
    "postcode": "88299",
    "city": "Lanzenhofen"
  },
  {
    "postcode": "88299",
    "city": "Lauben"
  },
  {
    "postcode": "88299",
    "city": "Leutkirch"
  },
  {
    "postcode": "88299",
    "city": "Leutkirch im Allgäu"
  },
  {
    "postcode": "88299",
    "city": "Liezenhofen"
  },
  {
    "postcode": "88299",
    "city": "Mailand"
  },
  {
    "postcode": "88299",
    "city": "Merazhofen"
  },
  {
    "postcode": "88299",
    "city": "Missen"
  },
  {
    "postcode": "88299",
    "city": "Mühle"
  },
  {
    "postcode": "88299",
    "city": "Nannenbach"
  },
  {
    "postcode": "88299",
    "city": "Niederhofen"
  },
  {
    "postcode": "88299",
    "city": "Ösch"
  },
  {
    "postcode": "88299",
    "city": "Ottmannshofen"
  },
  {
    "postcode": "88299",
    "city": "Reichenhofen"
  },
  {
    "postcode": "88299",
    "city": "Riedlings"
  },
  {
    "postcode": "88299",
    "city": "Rimpach"
  },
  {
    "postcode": "88299",
    "city": "Schloß Zeil"
  },
  {
    "postcode": "88299",
    "city": "Schmidsfelden"
  },
  {
    "postcode": "88299",
    "city": "Sebastianssaul"
  },
  {
    "postcode": "88299",
    "city": "Sonthofen"
  },
  {
    "postcode": "88299",
    "city": "Stegrot"
  },
  {
    "postcode": "88299",
    "city": "Tautenhofen"
  },
  {
    "postcode": "88299",
    "city": "Toberazhofen"
  },
  {
    "postcode": "88299",
    "city": "Übendorf"
  },
  {
    "postcode": "88299",
    "city": "Unteres Moos"
  },
  {
    "postcode": "88299",
    "city": "Unterzeil"
  },
  {
    "postcode": "88299",
    "city": "Urlau"
  },
  {
    "postcode": "88299",
    "city": "Uttenhofen"
  },
  {
    "postcode": "88299",
    "city": "Weipoldshofen"
  },
  {
    "postcode": "88299",
    "city": "Wielazhofen"
  },
  {
    "postcode": "88299",
    "city": "Willerazhofen"
  },
  {
    "postcode": "88299",
    "city": "Winterazhofen"
  },
  {
    "postcode": "88299",
    "city": "Winterstetten"
  },
  {
    "postcode": "88299",
    "city": "Wolferazhofen"
  },
  {
    "postcode": "88299",
    "city": "Wuchzenhofen"
  },
  {
    "postcode": "88299",
    "city": "Ravensburg"
  },
  {
    "postcode": "88299",
    "city": "Emmerlanden"
  },
  {
    "postcode": "88299",
    "city": "Balterazhofen"
  },
  {
    "postcode": "88316",
    "city": "Achen"
  },
  {
    "postcode": "88316",
    "city": "Aigeltshofen"
  },
  {
    "postcode": "88316",
    "city": "Argen"
  },
  {
    "postcode": "88316",
    "city": "Beuren"
  },
  {
    "postcode": "88316",
    "city": "Bolsternang"
  },
  {
    "postcode": "88316",
    "city": "Burkwang"
  },
  {
    "postcode": "88316",
    "city": "Dengeltshofen"
  },
  {
    "postcode": "88316",
    "city": "Dorenwaid"
  },
  {
    "postcode": "88316",
    "city": "Dürrenbach"
  },
  {
    "postcode": "88316",
    "city": "Großholzleute"
  },
  {
    "postcode": "88316",
    "city": "Grund"
  },
  {
    "postcode": "88316",
    "city": "Gründels"
  },
  {
    "postcode": "88316",
    "city": "Halden"
  },
  {
    "postcode": "88316",
    "city": "Haubach"
  },
  {
    "postcode": "88316",
    "city": "Hedrazhofen"
  },
  {
    "postcode": "88316",
    "city": "Isny"
  },
  {
    "postcode": "88316",
    "city": "Isny im Allgäu"
  },
  {
    "postcode": "88316",
    "city": "Kleinholzleute"
  },
  {
    "postcode": "88316",
    "city": "Lengertshofen"
  },
  {
    "postcode": "88316",
    "city": "Menelzhofen"
  },
  {
    "postcode": "88316",
    "city": "Michlebaindt"
  },
  {
    "postcode": "88316",
    "city": "Neutrauchburg"
  },
  {
    "postcode": "88316",
    "city": "Oberspießwengen"
  },
  {
    "postcode": "88316",
    "city": "Rain"
  },
  {
    "postcode": "88316",
    "city": "Ratzenhofen"
  },
  {
    "postcode": "88316",
    "city": "Rengers"
  },
  {
    "postcode": "88316",
    "city": "Ried"
  },
  {
    "postcode": "88316",
    "city": "Rohrdorf"
  },
  {
    "postcode": "88316",
    "city": "Rotenbach"
  },
  {
    "postcode": "88316",
    "city": "Schwanden"
  },
  {
    "postcode": "88316",
    "city": "Schweinebach"
  },
  {
    "postcode": "88316",
    "city": "Sommersbach"
  },
  {
    "postcode": "88316",
    "city": "Stockach"
  },
  {
    "postcode": "88316",
    "city": "Überruh"
  },
  {
    "postcode": "88316",
    "city": "Unterried"
  },
  {
    "postcode": "88316",
    "city": "Unterspießwengen"
  },
  {
    "postcode": "88316",
    "city": "Wehrlang"
  },
  {
    "postcode": "88316",
    "city": "Ravensburg"
  },
  {
    "postcode": "88316",
    "city": "Kleinhaslach"
  },
  {
    "postcode": "88317",
    "city": "Aichstetten"
  },
  {
    "postcode": "88317",
    "city": "Aichstetten bei Leutkirch im Allgäu"
  },
  {
    "postcode": "88317",
    "city": "Altmannshofen"
  },
  {
    "postcode": "88317",
    "city": "Eschach"
  },
  {
    "postcode": "88317",
    "city": "Nestbaum"
  },
  {
    "postcode": "88317",
    "city": "Rieden"
  },
  {
    "postcode": "88317",
    "city": "Ravensburg"
  },
  {
    "postcode": "88317",
    "city": "Laubegg"
  },
  {
    "postcode": "88317",
    "city": "Langensteig"
  },
  {
    "postcode": "88319",
    "city": "Aitrach"
  },
  {
    "postcode": "88319",
    "city": "Marstetten"
  },
  {
    "postcode": "88319",
    "city": "Mooshausen"
  },
  {
    "postcode": "88319",
    "city": "Treherz"
  },
  {
    "postcode": "88319",
    "city": "Ravensburg"
  },
  {
    "postcode": "88326",
    "city": "Aulendorf"
  },
  {
    "postcode": "88326",
    "city": "Aulendorf (Württemberg)"
  },
  {
    "postcode": "88326",
    "city": "Blönried"
  },
  {
    "postcode": "88326",
    "city": "Ebisweiler"
  },
  {
    "postcode": "88326",
    "city": "Münchenreute"
  },
  {
    "postcode": "88326",
    "city": "Rugetsweiler"
  },
  {
    "postcode": "88326",
    "city": "Steinenbach"
  },
  {
    "postcode": "88326",
    "city": "Tannhausen"
  },
  {
    "postcode": "88326",
    "city": "Tannweiler"
  },
  {
    "postcode": "88326",
    "city": "Zollenreute"
  },
  {
    "postcode": "88326",
    "city": "Ravensburg"
  },
  {
    "postcode": "88339",
    "city": "Bad Waldsee"
  },
  {
    "postcode": "88339",
    "city": "Gaisbeuren"
  },
  {
    "postcode": "88339",
    "city": "Graben"
  },
  {
    "postcode": "88339",
    "city": "Haisterkirch"
  },
  {
    "postcode": "88339",
    "city": "Hittelkofen"
  },
  {
    "postcode": "88339",
    "city": "Hittisweiler"
  },
  {
    "postcode": "88339",
    "city": "Kümmerazhofen"
  },
  {
    "postcode": "88339",
    "city": "Lenatweiler"
  },
  {
    "postcode": "88339",
    "city": "Mennisweiler"
  },
  {
    "postcode": "88339",
    "city": "Michelberg"
  },
  {
    "postcode": "88339",
    "city": "Michelwinnaden"
  },
  {
    "postcode": "88339",
    "city": "Mittelurbach"
  },
  {
    "postcode": "88339",
    "city": "Oberurbach"
  },
  {
    "postcode": "88339",
    "city": "Osterhofen"
  },
  {
    "postcode": "88339",
    "city": "Reute"
  },
  {
    "postcode": "88339",
    "city": "Steinach"
  },
  {
    "postcode": "88339",
    "city": "Untermöllenbronn"
  },
  {
    "postcode": "88339",
    "city": "Unterurbach"
  },
  {
    "postcode": "88339",
    "city": "Ravensburg"
  },
  {
    "postcode": "88339",
    "city": "Enzisreute"
  },
  {
    "postcode": "88339",
    "city": "Greut"
  },
  {
    "postcode": "88348",
    "city": "Allmannsweiler bei Bad Saulgau"
  },
  {
    "postcode": "88348",
    "city": "Bad Saulgau"
  },
  {
    "postcode": "88348",
    "city": "Bernhausen"
  },
  {
    "postcode": "88348",
    "city": "Bierstetten"
  },
  {
    "postcode": "88348",
    "city": "Bogenweiler"
  },
  {
    "postcode": "88348",
    "city": "Bolstern"
  },
  {
    "postcode": "88348",
    "city": "Bondorf"
  },
  {
    "postcode": "88348",
    "city": "Braunenweiler"
  },
  {
    "postcode": "88348",
    "city": "Engenweiler"
  },
  {
    "postcode": "88348",
    "city": "Friedberg"
  },
  {
    "postcode": "88348",
    "city": "Fulgenstadt"
  },
  {
    "postcode": "88348",
    "city": "Großtissen"
  },
  {
    "postcode": "88348",
    "city": "Haid"
  },
  {
    "postcode": "88348",
    "city": "Heratskirch"
  },
  {
    "postcode": "88348",
    "city": "Hochberg"
  },
  {
    "postcode": "88348",
    "city": "Kleintissen"
  },
  {
    "postcode": "88348",
    "city": "Lampertsweiler"
  },
  {
    "postcode": "88348",
    "city": "Luditsweiler"
  },
  {
    "postcode": "88348",
    "city": "Moosheim"
  },
  {
    "postcode": "88348",
    "city": "Nonnenweiler"
  },
  {
    "postcode": "88348",
    "city": "Obereggatsweiler"
  },
  {
    "postcode": "88348",
    "city": "Ottobeurerhof"
  },
  {
    "postcode": "88348",
    "city": "Renhardsweiler"
  },
  {
    "postcode": "88348",
    "city": "Rieden"
  },
  {
    "postcode": "88348",
    "city": "Schwarzach"
  },
  {
    "postcode": "88348",
    "city": "Sießen"
  },
  {
    "postcode": "88348",
    "city": "Steinbronnen"
  },
  {
    "postcode": "88348",
    "city": "Untereggatsweiler"
  },
  {
    "postcode": "88348",
    "city": "Wagenhausen"
  },
  {
    "postcode": "88348",
    "city": "Wilfertsweiler"
  },
  {
    "postcode": "88348",
    "city": "Wolfartsweiler"
  },
  {
    "postcode": "88348",
    "city": "Ziegelhof"
  },
  {
    "postcode": "88348",
    "city": "Biberach"
  },
  {
    "postcode": "88348",
    "city": "Allmannsweiler"
  },
  {
    "postcode": "88348",
    "city": "Herbertingen"
  },
  {
    "postcode": "88353",
    "city": "Arrisried"
  },
  {
    "postcode": "88353",
    "city": "Au"
  },
  {
    "postcode": "88353",
    "city": "Bärenweiler"
  },
  {
    "postcode": "88353",
    "city": "Bayums"
  },
  {
    "postcode": "88353",
    "city": "Becken"
  },
  {
    "postcode": "88353",
    "city": "Bietenweiler"
  },
  {
    "postcode": "88353",
    "city": "Blöden"
  },
  {
    "postcode": "88353",
    "city": "Breite"
  },
  {
    "postcode": "88353",
    "city": "Brunnen"
  },
  {
    "postcode": "88353",
    "city": "Dettishofen"
  },
  {
    "postcode": "88353",
    "city": "Emmelhofen"
  },
  {
    "postcode": "88353",
    "city": "Finken"
  },
  {
    "postcode": "88353",
    "city": "Freibolz"
  },
  {
    "postcode": "88353",
    "city": "Furtmühle"
  },
  {
    "postcode": "88353",
    "city": "Goppertshofen"
  },
  {
    "postcode": "88353",
    "city": "Haslach"
  },
  {
    "postcode": "88353",
    "city": "Herrot"
  },
  {
    "postcode": "88353",
    "city": "Hilpertshofen"
  },
  {
    "postcode": "88353",
    "city": "Hintermoos"
  },
  {
    "postcode": "88353",
    "city": "Holdenreute"
  },
  {
    "postcode": "88353",
    "city": "Höllenbach"
  },
  {
    "postcode": "88353",
    "city": "Immenried"
  },
  {
    "postcode": "88353",
    "city": "Kaibach"
  },
  {
    "postcode": "88353",
    "city": "Kißlegg"
  },
  {
    "postcode": "88353",
    "city": "Krumbach"
  },
  {
    "postcode": "88353",
    "city": "Lautersee"
  },
  {
    "postcode": "88353",
    "city": "Liebenried"
  },
  {
    "postcode": "88353",
    "city": "Matzenweiler"
  },
  {
    "postcode": "88353",
    "city": "Menzlings"
  },
  {
    "postcode": "88353",
    "city": "Oberhaid"
  },
  {
    "postcode": "88353",
    "city": "Oberhorgen"
  },
  {
    "postcode": "88353",
    "city": "Oberriedgarten"
  },
  {
    "postcode": "88353",
    "city": "Oberrot"
  },
  {
    "postcode": "88353",
    "city": "Obertiefental"
  },
  {
    "postcode": "88353",
    "city": "Pfaffenweiler"
  },
  {
    "postcode": "88353",
    "city": "Reipertshofen"
  },
  {
    "postcode": "88353",
    "city": "Rempertshofen"
  },
  {
    "postcode": "88353",
    "city": "Reute"
  },
  {
    "postcode": "88353",
    "city": "Riehlings"
  },
  {
    "postcode": "88353",
    "city": "Rötsee"
  },
  {
    "postcode": "88353",
    "city": "Samhof"
  },
  {
    "postcode": "88353",
    "city": "Sankt Anna"
  },
  {
    "postcode": "88353",
    "city": "Scheiben"
  },
  {
    "postcode": "88353",
    "city": "Schöllhorn"
  },
  {
    "postcode": "88353",
    "city": "Schurtannen"
  },
  {
    "postcode": "88353",
    "city": "Schwenden"
  },
  {
    "postcode": "88353",
    "city": "Siggen"
  },
  {
    "postcode": "88353",
    "city": "Sigrazhofen"
  },
  {
    "postcode": "88353",
    "city": "Sommersried"
  },
  {
    "postcode": "88353",
    "city": "Unterhaid"
  },
  {
    "postcode": "88353",
    "city": "Unterhorgen"
  },
  {
    "postcode": "88353",
    "city": "Unterriedgarten"
  },
  {
    "postcode": "88353",
    "city": "Unterrot"
  },
  {
    "postcode": "88353",
    "city": "Untertiefental"
  },
  {
    "postcode": "88353",
    "city": "Waffenried"
  },
  {
    "postcode": "88353",
    "city": "Wallmusried"
  },
  {
    "postcode": "88353",
    "city": "Waltershofen"
  },
  {
    "postcode": "88353",
    "city": "Weitershofen"
  },
  {
    "postcode": "88353",
    "city": "Wengen"
  },
  {
    "postcode": "88353",
    "city": "Wiggenreute"
  },
  {
    "postcode": "88353",
    "city": "Wolfgelts"
  },
  {
    "postcode": "88353",
    "city": "Zaisenhofen"
  },
  {
    "postcode": "88353",
    "city": "Ravensburg"
  },
  {
    "postcode": "88356",
    "city": "Bachhaupten"
  },
  {
    "postcode": "88356",
    "city": "Bernweiler"
  },
  {
    "postcode": "88356",
    "city": "Burgweiler"
  },
  {
    "postcode": "88356",
    "city": "Dichtenhausen"
  },
  {
    "postcode": "88356",
    "city": "Egelreute"
  },
  {
    "postcode": "88356",
    "city": "Einhart"
  },
  {
    "postcode": "88356",
    "city": "Eschendorf"
  },
  {
    "postcode": "88356",
    "city": "Gunzenhausen"
  },
  {
    "postcode": "88356",
    "city": "Habsthal"
  },
  {
    "postcode": "88356",
    "city": "Hahnennest"
  },
  {
    "postcode": "88356",
    "city": "Jettkofen"
  },
  {
    "postcode": "88356",
    "city": "Kalkreute"
  },
  {
    "postcode": "88356",
    "city": "Laubbach"
  },
  {
    "postcode": "88356",
    "city": "Lausheim"
  },
  {
    "postcode": "88356",
    "city": "Levertsweiler"
  },
  {
    "postcode": "88356",
    "city": "Magenbuch"
  },
  {
    "postcode": "88356",
    "city": "Mettenbuch"
  },
  {
    "postcode": "88356",
    "city": "Oberochsenbach"
  },
  {
    "postcode": "88356",
    "city": "Oberweiler"
  },
  {
    "postcode": "88356",
    "city": "Ochsenbach"
  },
  {
    "postcode": "88356",
    "city": "Ortsbereich"
  },
  {
    "postcode": "88356",
    "city": "Ostrach"
  },
  {
    "postcode": "88356",
    "city": "Spöck"
  },
  {
    "postcode": "88356",
    "city": "Tafertsweiler"
  },
  {
    "postcode": "88356",
    "city": "Ulzhausen"
  },
  {
    "postcode": "88356",
    "city": "Unterweiler"
  },
  {
    "postcode": "88356",
    "city": "Waldbeuren"
  },
  {
    "postcode": "88356",
    "city": "Wangen"
  },
  {
    "postcode": "88356",
    "city": "Wirnsweiler"
  },
  {
    "postcode": "88356",
    "city": "Zoznegg"
  },
  {
    "postcode": "88356",
    "city": "Sigmaringen"
  },
  {
    "postcode": "88361",
    "city": "Altshausen"
  },
  {
    "postcode": "88361",
    "city": "Baltshaus"
  },
  {
    "postcode": "88361",
    "city": "Boms"
  },
  {
    "postcode": "88361",
    "city": "Dornahof"
  },
  {
    "postcode": "88361",
    "city": "Eichstegen"
  },
  {
    "postcode": "88361",
    "city": "Glochen"
  },
  {
    "postcode": "88361",
    "city": "Haggenmoos"
  },
  {
    "postcode": "88361",
    "city": "Hangen"
  },
  {
    "postcode": "88361",
    "city": "Hirschegg"
  },
  {
    "postcode": "88361",
    "city": "Hundsrücken"
  },
  {
    "postcode": "88361",
    "city": "Käfersulgen"
  },
  {
    "postcode": "88361",
    "city": "Kreenried"
  },
  {
    "postcode": "88361",
    "city": "Litzelbach"
  },
  {
    "postcode": "88361",
    "city": "Mendelbeuren"
  },
  {
    "postcode": "88361",
    "city": "Ragenreute"
  },
  {
    "postcode": "88361",
    "city": "Reute"
  },
  {
    "postcode": "88361",
    "city": "Schwarzenbach"
  },
  {
    "postcode": "88361",
    "city": "Stuben"
  },
  {
    "postcode": "88361",
    "city": "Ravensburg"
  },
  {
    "postcode": "88361",
    "city": "Ingenhart"
  },
  {
    "postcode": "88364",
    "city": "Alttann"
  },
  {
    "postcode": "88364",
    "city": "Bainders"
  },
  {
    "postcode": "88364",
    "city": "Berg"
  },
  {
    "postcode": "88364",
    "city": "Binzen"
  },
  {
    "postcode": "88364",
    "city": "Boschers"
  },
  {
    "postcode": "88364",
    "city": "Brenden"
  },
  {
    "postcode": "88364",
    "city": "Frohnhof"
  },
  {
    "postcode": "88364",
    "city": "Gaishaus"
  },
  {
    "postcode": "88364",
    "city": "Grünenberg"
  },
  {
    "postcode": "88364",
    "city": "Höll"
  },
  {
    "postcode": "88364",
    "city": "Maierhof"
  },
  {
    "postcode": "88364",
    "city": "Molpertshaus"
  },
  {
    "postcode": "88364",
    "city": "Neckenfurt"
  },
  {
    "postcode": "88364",
    "city": "Neutann"
  },
  {
    "postcode": "88364",
    "city": "Oppenreute"
  },
  {
    "postcode": "88364",
    "city": "Poppenhaus"
  },
  {
    "postcode": "88364",
    "city": "Roßberg"
  },
  {
    "postcode": "88364",
    "city": "Rötenbach"
  },
  {
    "postcode": "88364",
    "city": "Schachenmühle"
  },
  {
    "postcode": "88364",
    "city": "Schlegelsberg"
  },
  {
    "postcode": "88364",
    "city": "Speck"
  },
  {
    "postcode": "88364",
    "city": "Stadels"
  },
  {
    "postcode": "88364",
    "city": "Staig"
  },
  {
    "postcode": "88364",
    "city": "Tannen"
  },
  {
    "postcode": "88364",
    "city": "Wassers"
  },
  {
    "postcode": "88364",
    "city": "Wolfegg"
  },
  {
    "postcode": "88364",
    "city": "Wolfegg (Allgäu)"
  },
  {
    "postcode": "88364",
    "city": "Ravensburg"
  },
  {
    "postcode": "88367",
    "city": "Altensweiler"
  },
  {
    "postcode": "88367",
    "city": "Beizkofen"
  },
  {
    "postcode": "88367",
    "city": "Bremen"
  },
  {
    "postcode": "88367",
    "city": "Eichen"
  },
  {
    "postcode": "88367",
    "city": "Enzkofen"
  },
  {
    "postcode": "88367",
    "city": "Günzkofen"
  },
  {
    "postcode": "88367",
    "city": "Hagelsburg"
  },
  {
    "postcode": "88367",
    "city": "Hohentengen"
  },
  {
    "postcode": "88367",
    "city": "Hohentengen bei Bad Saulgau"
  },
  {
    "postcode": "88367",
    "city": "Ölkofen"
  },
  {
    "postcode": "88367",
    "city": "Repperweiler"
  },
  {
    "postcode": "88367",
    "city": "Ursendorf"
  },
  {
    "postcode": "88367",
    "city": "Völlkofen"
  },
  {
    "postcode": "88367",
    "city": "Sigmaringen"
  },
  {
    "postcode": "88367",
    "city": "Ortsbereich"
  },
  {
    "postcode": "88368",
    "city": "Abetsweiler"
  },
  {
    "postcode": "88368",
    "city": "Bergatreute"
  },
  {
    "postcode": "88368",
    "city": "Bolanden"
  },
  {
    "postcode": "88368",
    "city": "Engenreute"
  },
  {
    "postcode": "88368",
    "city": "Engetweiler"
  },
  {
    "postcode": "88368",
    "city": "Furt"
  },
  {
    "postcode": "88368",
    "city": "Gambach"
  },
  {
    "postcode": "88368",
    "city": "Giesenweiler"
  },
  {
    "postcode": "88368",
    "city": "Gwigg"
  },
  {
    "postcode": "88368",
    "city": "Klösterle"
  },
  {
    "postcode": "88368",
    "city": "Löchle"
  },
  {
    "postcode": "88368",
    "city": "Oberstocken"
  },
  {
    "postcode": "88368",
    "city": "Siegenwieden"
  },
  {
    "postcode": "88368",
    "city": "Sommers"
  },
  {
    "postcode": "88368",
    "city": "Tal"
  },
  {
    "postcode": "88368",
    "city": "Unterstocken"
  },
  {
    "postcode": "88368",
    "city": "Witschwende"
  },
  {
    "postcode": "88368",
    "city": "Ravensburg"
  },
  {
    "postcode": "88368",
    "city": "Löffelmühle"
  },
  {
    "postcode": "88370",
    "city": "Ebenweiler"
  },
  {
    "postcode": "88370",
    "city": "Mauren"
  },
  {
    "postcode": "88370",
    "city": "Oberholz"
  },
  {
    "postcode": "88370",
    "city": "Oberweiler"
  },
  {
    "postcode": "88370",
    "city": "Ravensburg"
  },
  {
    "postcode": "88371",
    "city": "Badhaus"
  },
  {
    "postcode": "88371",
    "city": "Boos"
  },
  {
    "postcode": "88371",
    "city": "Ebersbach"
  },
  {
    "postcode": "88371",
    "city": "Ebersbach-Musbach"
  },
  {
    "postcode": "88371",
    "city": "Geigelbach"
  },
  {
    "postcode": "88371",
    "city": "Irrenberg"
  },
  {
    "postcode": "88371",
    "city": "Menzenweiler"
  },
  {
    "postcode": "88371",
    "city": "Musbach"
  },
  {
    "postcode": "88371",
    "city": "Oberatzenberg"
  },
  {
    "postcode": "88371",
    "city": "Oberweiler"
  },
  {
    "postcode": "88371",
    "city": "Ried"
  },
  {
    "postcode": "88371",
    "city": "Schwemme"
  },
  {
    "postcode": "88371",
    "city": "Winnenden"
  },
  {
    "postcode": "88371",
    "city": "Ravensburg"
  },
  {
    "postcode": "88373",
    "city": "Fleischwangen"
  },
  {
    "postcode": "88373",
    "city": "Zippern"
  },
  {
    "postcode": "88373",
    "city": "Ravensburg"
  },
  {
    "postcode": "88373",
    "city": "Muttenhaus"
  },
  {
    "postcode": "88374",
    "city": "Hoßkirch"
  },
  {
    "postcode": "88374",
    "city": "Hüttenreute"
  },
  {
    "postcode": "88374",
    "city": "Ravensburg"
  },
  {
    "postcode": "88376",
    "city": "Königseggwald"
  },
  {
    "postcode": "88376",
    "city": "Ravensburg"
  },
  {
    "postcode": "88377",
    "city": "Bühlhof"
  },
  {
    "postcode": "88377",
    "city": "Riedhausen (Württemberg)"
  },
  {
    "postcode": "88377",
    "city": "Riedhausen"
  },
  {
    "postcode": "88377",
    "city": "Ravensburg"
  },
  {
    "postcode": "88379",
    "city": "Bauhof"
  },
  {
    "postcode": "88379",
    "city": "Egg"
  },
  {
    "postcode": "88379",
    "city": "Guggenhausen"
  },
  {
    "postcode": "88379",
    "city": "Haslach"
  },
  {
    "postcode": "88379",
    "city": "Luegen"
  },
  {
    "postcode": "88379",
    "city": "Oberwaldhausen"
  },
  {
    "postcode": "88379",
    "city": "Ratzenburg"
  },
  {
    "postcode": "88379",
    "city": "Unterwaldhausen"
  },
  {
    "postcode": "88379",
    "city": "Wendenreute"
  },
  {
    "postcode": "88379",
    "city": "Ravensburg"
  },
  {
    "postcode": "88379",
    "city": "Brunnen"
  },
  {
    "postcode": "88379",
    "city": "Königsegg"
  },
  {
    "postcode": "88400",
    "city": "Bergerhausen"
  },
  {
    "postcode": "88400",
    "city": "Biberach"
  },
  {
    "postcode": "88400",
    "city": "Biberach an der Riß"
  },
  {
    "postcode": "88400",
    "city": "Bronnen"
  },
  {
    "postcode": "88400",
    "city": "Burren"
  },
  {
    "postcode": "88400",
    "city": "Hagenbuch"
  },
  {
    "postcode": "88400",
    "city": "Halde"
  },
  {
    "postcode": "88400",
    "city": "Jordanbad"
  },
  {
    "postcode": "88400",
    "city": "Mettenberg"
  },
  {
    "postcode": "88400",
    "city": "Reichenbach"
  },
  {
    "postcode": "88400",
    "city": "Rindenmoos"
  },
  {
    "postcode": "88400",
    "city": "Ringschnait"
  },
  {
    "postcode": "88400",
    "city": "Rißegg"
  },
  {
    "postcode": "88400",
    "city": "Streitberg (Stadt Biberach)"
  },
  {
    "postcode": "88400",
    "city": "Streitberg"
  },
  {
    "postcode": "88400",
    "city": "Winterreute"
  },
  {
    "postcode": "88400",
    "city": "Bahnstock"
  },
  {
    "postcode": "88400",
    "city": "Birkhof"
  },
  {
    "postcode": "88400",
    "city": "Scholterhaus"
  },
  {
    "postcode": "88400",
    "city": "Stafflangen"
  },
  {
    "postcode": "88400",
    "city": "Bachlangen"
  },
  {
    "postcode": "88400",
    "city": "Hochstetterhof"
  },
  {
    "postcode": "88400",
    "city": "Königshofen"
  },
  {
    "postcode": "88400",
    "city": "Maierhof"
  },
  {
    "postcode": "88400",
    "city": "Schlottertal"
  },
  {
    "postcode": "88400",
    "city": "Stockland"
  },
  {
    "postcode": "88410",
    "city": "Adelshofen"
  },
  {
    "postcode": "88410",
    "city": "Albers"
  },
  {
    "postcode": "88410",
    "city": "Arnach"
  },
  {
    "postcode": "88410",
    "city": "Bad Wurzach"
  },
  {
    "postcode": "88410",
    "city": "Bauhofen"
  },
  {
    "postcode": "88410",
    "city": "Beutels"
  },
  {
    "postcode": "88410",
    "city": "Dietmanns"
  },
  {
    "postcode": "88410",
    "city": "Dietrichsholz"
  },
  {
    "postcode": "88410",
    "city": "Eggmannsried"
  },
  {
    "postcode": "88410",
    "city": "Ehrensberg"
  },
  {
    "postcode": "88410",
    "city": "Eintürnen"
  },
  {
    "postcode": "88410",
    "city": "Eintürnenberg"
  },
  {
    "postcode": "88410",
    "city": "Friedlings"
  },
  {
    "postcode": "88410",
    "city": "Gospoldshofen"
  },
  {
    "postcode": "88410",
    "city": "Greut"
  },
  {
    "postcode": "88410",
    "city": "Haasen"
  },
  {
    "postcode": "88410",
    "city": "Haidgau"
  },
  {
    "postcode": "88410",
    "city": "Hauerz"
  },
  {
    "postcode": "88410",
    "city": "Himbach"
  },
  {
    "postcode": "88410",
    "city": "Iggenau"
  },
  {
    "postcode": "88410",
    "city": "Kimpfler"
  },
  {
    "postcode": "88410",
    "city": "Klaren"
  },
  {
    "postcode": "88410",
    "city": "Knetzenweiler"
  },
  {
    "postcode": "88410",
    "city": "Krattenweiler"
  },
  {
    "postcode": "88410",
    "city": "Linden"
  },
  {
    "postcode": "88410",
    "city": "Menhardsweiler"
  },
  {
    "postcode": "88410",
    "city": "Menzlis"
  },
  {
    "postcode": "88410",
    "city": "Metzisweiler"
  },
  {
    "postcode": "88410",
    "city": "Mohr"
  },
  {
    "postcode": "88410",
    "city": "Oberhaslach"
  },
  {
    "postcode": "88410",
    "city": "Oberluizen"
  },
  {
    "postcode": "88410",
    "city": "Oberschwarzach"
  },
  {
    "postcode": "88410",
    "city": "Oberziegelbach"
  },
  {
    "postcode": "88410",
    "city": "Rettisweiler"
  },
  {
    "postcode": "88410",
    "city": "Reute"
  },
  {
    "postcode": "88410",
    "city": "Riedhöfe"
  },
  {
    "postcode": "88410",
    "city": "Rohr"
  },
  {
    "postcode": "88410",
    "city": "Rohrbach"
  },
  {
    "postcode": "88410",
    "city": "Rupprechts"
  },
  {
    "postcode": "88410",
    "city": "Schwende"
  },
  {
    "postcode": "88410",
    "city": "Seibranz"
  },
  {
    "postcode": "88410",
    "city": "Söldenhorn"
  },
  {
    "postcode": "88410",
    "city": "Starkenhofen"
  },
  {
    "postcode": "88410",
    "city": "Steinental"
  },
  {
    "postcode": "88410",
    "city": "Stoßler"
  },
  {
    "postcode": "88410",
    "city": "Truilz"
  },
  {
    "postcode": "88410",
    "city": "Truschwende Gemeinde Arnach"
  },
  {
    "postcode": "88410",
    "city": "Truschwende"
  },
  {
    "postcode": "88410",
    "city": "Unterluizen"
  },
  {
    "postcode": "88410",
    "city": "Unterschwarzach"
  },
  {
    "postcode": "88410",
    "city": "Weitprechts"
  },
  {
    "postcode": "88410",
    "city": "Wengen"
  },
  {
    "postcode": "88410",
    "city": "Wiesen"
  },
  {
    "postcode": "88410",
    "city": "Willis"
  },
  {
    "postcode": "88410",
    "city": "Witzmanns"
  },
  {
    "postcode": "88410",
    "city": "Wolfartsweiler"
  },
  {
    "postcode": "88410",
    "city": "Ziegelbach"
  },
  {
    "postcode": "88410",
    "city": "Ziegolz"
  },
  {
    "postcode": "88410",
    "city": "Zwings"
  },
  {
    "postcode": "88410",
    "city": "Ravensburg"
  },
  {
    "postcode": "88410",
    "city": "Roth"
  },
  {
    "postcode": "88410",
    "city": "Rot an der Rot"
  },
  {
    "postcode": "88416",
    "city": "Badhaus"
  },
  {
    "postcode": "88416",
    "city": "Bebenhaus"
  },
  {
    "postcode": "88416",
    "city": "Bellamont"
  },
  {
    "postcode": "88416",
    "city": "Edenbachen"
  },
  {
    "postcode": "88416",
    "city": "Ehrensberg"
  },
  {
    "postcode": "88416",
    "city": "Eichbühl"
  },
  {
    "postcode": "88416",
    "city": "Englisweiler"
  },
  {
    "postcode": "88416",
    "city": "Erlenmoos"
  },
  {
    "postcode": "88416",
    "city": "Goppertshofen"
  },
  {
    "postcode": "88416",
    "city": "Hattenburg"
  },
  {
    "postcode": "88416",
    "city": "Hirschbronn"
  },
  {
    "postcode": "88416",
    "city": "Kemnat"
  },
  {
    "postcode": "88416",
    "city": "Laubach"
  },
  {
    "postcode": "88416",
    "city": "Löhlis"
  },
  {
    "postcode": "88416",
    "city": "Mittelbuch"
  },
  {
    "postcode": "88416",
    "city": "Oberstetten"
  },
  {
    "postcode": "88416",
    "city": "Ochsenhausen"
  },
  {
    "postcode": "88416",
    "city": "Reinstetten"
  },
  {
    "postcode": "88416",
    "city": "Rottum"
  },
  {
    "postcode": "88416",
    "city": "Sankt Annahof"
  },
  {
    "postcode": "88416",
    "city": "Steinhausen an der Rottum"
  },
  {
    "postcode": "88416",
    "city": "Wennedach"
  },
  {
    "postcode": "88416",
    "city": "Biberach"
  },
  {
    "postcode": "88416",
    "city": "Eichen"
  },
  {
    "postcode": "88416",
    "city": "Steinhausen"
  },
  {
    "postcode": "88422",
    "city": "Alleshausen"
  },
  {
    "postcode": "88422",
    "city": "Bad Buchau"
  },
  {
    "postcode": "88422",
    "city": "Betzenweiler"
  },
  {
    "postcode": "88422",
    "city": "Bischmannshausen"
  },
  {
    "postcode": "88422",
    "city": "Brackenhofen"
  },
  {
    "postcode": "88422",
    "city": "Brasenberg"
  },
  {
    "postcode": "88422",
    "city": "Dürnau bei Bad Buchau"
  },
  {
    "postcode": "88422",
    "city": "Kanzach bei Bad Buchau"
  },
  {
    "postcode": "88422",
    "city": "Kappel"
  },
  {
    "postcode": "88422",
    "city": "Moosburg bei Bad Buchau"
  },
  {
    "postcode": "88422",
    "city": "Ödenahlen"
  },
  {
    "postcode": "88422",
    "city": "Oggelshausen"
  },
  {
    "postcode": "88422",
    "city": "Seekirch"
  },
  {
    "postcode": "88422",
    "city": "Seelenhof"
  },
  {
    "postcode": "88422",
    "city": "Tiefenbach (Federsee)"
  },
  {
    "postcode": "88422",
    "city": "Tiefenbach"
  },
  {
    "postcode": "88422",
    "city": "Vollochhof"
  },
  {
    "postcode": "88422",
    "city": "Biberach"
  },
  {
    "postcode": "88422",
    "city": "Dürnau"
  },
  {
    "postcode": "88422",
    "city": "Kanzach"
  },
  {
    "postcode": "88422",
    "city": "Moosburg"
  },
  {
    "postcode": "88427",
    "city": "Aichbühl"
  },
  {
    "postcode": "88427",
    "city": "Atzenberg"
  },
  {
    "postcode": "88427",
    "city": "Bad Schussenried"
  },
  {
    "postcode": "88427",
    "city": "Dunzenhausen"
  },
  {
    "postcode": "88427",
    "city": "Enzisweiler"
  },
  {
    "postcode": "88427",
    "city": "Hopferbach"
  },
  {
    "postcode": "88427",
    "city": "Kleinwinnaden"
  },
  {
    "postcode": "88427",
    "city": "Kürnbach"
  },
  {
    "postcode": "88427",
    "city": "Laimbach"
  },
  {
    "postcode": "88427",
    "city": "Lufthütte"
  },
  {
    "postcode": "88427",
    "city": "Olzreute"
  },
  {
    "postcode": "88427",
    "city": "Otterswang"
  },
  {
    "postcode": "88427",
    "city": "Reichenbach"
  },
  {
    "postcode": "88427",
    "city": "Roppertsweiler"
  },
  {
    "postcode": "88427",
    "city": "Sattenbeuren"
  },
  {
    "postcode": "88427",
    "city": "Schienenhof"
  },
  {
    "postcode": "88427",
    "city": "Steinhausen bei Bad Schussenried"
  },
  {
    "postcode": "88427",
    "city": "Biberach"
  },
  {
    "postcode": "88427",
    "city": "Steinhausen"
  },
  {
    "postcode": "88427",
    "city": "Am Schorren"
  },
  {
    "postcode": "88427",
    "city": "Schwaigfurt"
  },
  {
    "postcode": "88430",
    "city": "Ellwangen"
  },
  {
    "postcode": "88430",
    "city": "Emishalden"
  },
  {
    "postcode": "88430",
    "city": "Habsegg"
  },
  {
    "postcode": "88430",
    "city": "Haslach"
  },
  {
    "postcode": "88430",
    "city": "Mettenberg"
  },
  {
    "postcode": "88430",
    "city": "Mühlberg"
  },
  {
    "postcode": "88430",
    "city": "Murrwangen"
  },
  {
    "postcode": "88430",
    "city": "Pfaffenried"
  },
  {
    "postcode": "88430",
    "city": "Rot"
  },
  {
    "postcode": "88430",
    "city": "Rot an der Rot"
  },
  {
    "postcode": "88430",
    "city": "Spindelwag"
  },
  {
    "postcode": "88430",
    "city": "Tristolz"
  },
  {
    "postcode": "88430",
    "city": "Wirrenweiler"
  },
  {
    "postcode": "88430",
    "city": "Zell"
  },
  {
    "postcode": "88430",
    "city": "Biberach"
  },
  {
    "postcode": "88433",
    "city": "Alberweiler"
  },
  {
    "postcode": "88433",
    "city": "Altheim"
  },
  {
    "postcode": "88433",
    "city": "Aßmannshardt"
  },
  {
    "postcode": "88433",
    "city": "Aufhofen"
  },
  {
    "postcode": "88433",
    "city": "Britschweiler"
  },
  {
    "postcode": "88433",
    "city": "Grafenwald"
  },
  {
    "postcode": "88433",
    "city": "Ingerkingen"
  },
  {
    "postcode": "88433",
    "city": "Langenschemmern"
  },
  {
    "postcode": "88433",
    "city": "Mittenweiler"
  },
  {
    "postcode": "88433",
    "city": "Schemmerberg"
  },
  {
    "postcode": "88433",
    "city": "Schemmerhofen"
  },
  {
    "postcode": "88433",
    "city": "Biberach"
  },
  {
    "postcode": "88436",
    "city": "Altbellamont"
  },
  {
    "postcode": "88436",
    "city": "Dietenwengen"
  },
  {
    "postcode": "88436",
    "city": "Eberhardzell"
  },
  {
    "postcode": "88436",
    "city": "Füramoos"
  },
  {
    "postcode": "88436",
    "city": "Hetzisweiler"
  },
  {
    "postcode": "88436",
    "city": "Hubers"
  },
  {
    "postcode": "88436",
    "city": "Mühlhausen"
  },
  {
    "postcode": "88436",
    "city": "Oberessendorf"
  },
  {
    "postcode": "88436",
    "city": "Schneiderbenes"
  },
  {
    "postcode": "88436",
    "city": "Teuses"
  },
  {
    "postcode": "88436",
    "city": "Wagenhalden"
  },
  {
    "postcode": "88436",
    "city": "Zuben"
  },
  {
    "postcode": "88436",
    "city": "Biberach"
  },
  {
    "postcode": "88436",
    "city": "Venusberg"
  },
  {
    "postcode": "88436",
    "city": "Ampfelbronn"
  },
  {
    "postcode": "88436",
    "city": "Oberhornstolz"
  },
  {
    "postcode": "88437",
    "city": "Äpfingen"
  },
  {
    "postcode": "88437",
    "city": "Ellmannsweiler"
  },
  {
    "postcode": "88437",
    "city": "Heggbach"
  },
  {
    "postcode": "88437",
    "city": "Laupertshausen"
  },
  {
    "postcode": "88437",
    "city": "Luxenweiler"
  },
  {
    "postcode": "88437",
    "city": "Maselheim"
  },
  {
    "postcode": "88437",
    "city": "Sulmingen"
  },
  {
    "postcode": "88437",
    "city": "Unterschnaitbach"
  },
  {
    "postcode": "88437",
    "city": "Zum Stein"
  },
  {
    "postcode": "88437",
    "city": "Biberach"
  },
  {
    "postcode": "88441",
    "city": "Geradsweiler"
  },
  {
    "postcode": "88441",
    "city": "Hofen"
  },
  {
    "postcode": "88441",
    "city": "Mittelbiberach"
  },
  {
    "postcode": "88441",
    "city": "Oberdorf"
  },
  {
    "postcode": "88441",
    "city": "Reute"
  },
  {
    "postcode": "88441",
    "city": "Schönenbuch"
  },
  {
    "postcode": "88441",
    "city": "Stafflangen"
  },
  {
    "postcode": "88441",
    "city": "Streitberg (Stadt Biberach)"
  },
  {
    "postcode": "88441",
    "city": "Streitberg"
  },
  {
    "postcode": "88441",
    "city": "Zweifelsberg"
  },
  {
    "postcode": "88441",
    "city": "Biberach"
  },
  {
    "postcode": "88441",
    "city": "Biberach an der Riß"
  },
  {
    "postcode": "88444",
    "city": "Buschhorn"
  },
  {
    "postcode": "88444",
    "city": "Fischbach"
  },
  {
    "postcode": "88444",
    "city": "Häusern"
  },
  {
    "postcode": "88444",
    "city": "Ummendorf"
  },
  {
    "postcode": "88444",
    "city": "Ummendorf (Kreis Biberach an der Riß)"
  },
  {
    "postcode": "88444",
    "city": "Biberach"
  },
  {
    "postcode": "88447",
    "city": "Barabein"
  },
  {
    "postcode": "88447",
    "city": "Birkenhard"
  },
  {
    "postcode": "88447",
    "city": "Galmutshöfen"
  },
  {
    "postcode": "88447",
    "city": "Herrlishöfen"
  },
  {
    "postcode": "88447",
    "city": "Oberhöfen"
  },
  {
    "postcode": "88447",
    "city": "Rißhöfen"
  },
  {
    "postcode": "88447",
    "city": "Röhrwangen"
  },
  {
    "postcode": "88447",
    "city": "Warthausen"
  },
  {
    "postcode": "88447",
    "city": "Warthausen (an der Riß)"
  },
  {
    "postcode": "88447",
    "city": "Biberach"
  },
  {
    "postcode": "88448",
    "city": "Aigendorf"
  },
  {
    "postcode": "88448",
    "city": "Attenweiler"
  },
  {
    "postcode": "88448",
    "city": "Ellighofen"
  },
  {
    "postcode": "88448",
    "city": "Gutershofen"
  },
  {
    "postcode": "88448",
    "city": "Hausen"
  },
  {
    "postcode": "88448",
    "city": "Oggelsbeuren"
  },
  {
    "postcode": "88448",
    "city": "Rupertshofen"
  },
  {
    "postcode": "88448",
    "city": "Rusenberg"
  },
  {
    "postcode": "88448",
    "city": "Schammach"
  },
  {
    "postcode": "88448",
    "city": "Willenhofen"
  },
  {
    "postcode": "88448",
    "city": "Biberach"
  },
  {
    "postcode": "88450",
    "city": "Berkheim"
  },
  {
    "postcode": "88450",
    "city": "Berkheim (Kreis Biberach an der Riß)"
  },
  {
    "postcode": "88450",
    "city": "Bonlanden"
  },
  {
    "postcode": "88450",
    "city": "Eichenberg"
  },
  {
    "postcode": "88450",
    "city": "Illerbachen"
  },
  {
    "postcode": "88450",
    "city": "Biberach"
  },
  {
    "postcode": "88451",
    "city": "Buchau"
  },
  {
    "postcode": "88451",
    "city": "Dettingen"
  },
  {
    "postcode": "88451",
    "city": "Dettingen an der Iller"
  },
  {
    "postcode": "88451",
    "city": "Kleinkellmünz"
  },
  {
    "postcode": "88451",
    "city": "Venusmühle"
  },
  {
    "postcode": "88451",
    "city": "Biberach"
  },
  {
    "postcode": "88451",
    "city": "Illerkraftwerk"
  },
  {
    "postcode": "88451",
    "city": "Hammerschmiede"
  },
  {
    "postcode": "88453",
    "city": "Bechtenrot"
  },
  {
    "postcode": "88453",
    "city": "Edelbeuren"
  },
  {
    "postcode": "88453",
    "city": "Erolzheim"
  },
  {
    "postcode": "88453",
    "city": "Erolzheim (Kreis Biberach an der Riß)"
  },
  {
    "postcode": "88453",
    "city": "Waldenhofen"
  },
  {
    "postcode": "88453",
    "city": "Biberach"
  },
  {
    "postcode": "88453",
    "city": "Dietbruck"
  },
  {
    "postcode": "88454",
    "city": "Appendorf"
  },
  {
    "postcode": "88454",
    "city": "Berg"
  },
  {
    "postcode": "88454",
    "city": "Busenberg"
  },
  {
    "postcode": "88454",
    "city": "Hochdorf"
  },
  {
    "postcode": "88454",
    "city": "Hochdorf (Riß)"
  },
  {
    "postcode": "88454",
    "city": "Linden"
  },
  {
    "postcode": "88454",
    "city": "Scharben"
  },
  {
    "postcode": "88454",
    "city": "Schweinhausen"
  },
  {
    "postcode": "88454",
    "city": "Unteressendorf"
  },
  {
    "postcode": "88454",
    "city": "Wettenberg"
  },
  {
    "postcode": "88454",
    "city": "Winkel (Gemeinde Ummendorf)"
  },
  {
    "postcode": "88454",
    "city": "Winkel"
  },
  {
    "postcode": "88454",
    "city": "Biberach"
  },
  {
    "postcode": "88456",
    "city": "Degernau"
  },
  {
    "postcode": "88456",
    "city": "Gensenweiler"
  },
  {
    "postcode": "88456",
    "city": "Grodt"
  },
  {
    "postcode": "88456",
    "city": "Hagnaufurt"
  },
  {
    "postcode": "88456",
    "city": "Hervetsweiler"
  },
  {
    "postcode": "88456",
    "city": "Hinterweiler"
  },
  {
    "postcode": "88456",
    "city": "Ingoldingen"
  },
  {
    "postcode": "88456",
    "city": "Muttensweiler"
  },
  {
    "postcode": "88456",
    "city": "Wattenweiler"
  },
  {
    "postcode": "88456",
    "city": "Wildes Ried"
  },
  {
    "postcode": "88456",
    "city": "Winterstettendorf"
  },
  {
    "postcode": "88456",
    "city": "Winterstettenstadt"
  },
  {
    "postcode": "88456",
    "city": "Biberach"
  },
  {
    "postcode": "88457",
    "city": "Kirchdorf an der Iller"
  },
  {
    "postcode": "88457",
    "city": "Oberopfingen"
  },
  {
    "postcode": "88457",
    "city": "Unteropfingen"
  },
  {
    "postcode": "88457",
    "city": "Biberach"
  },
  {
    "postcode": "88457",
    "city": "Kirchdorf"
  },
  {
    "postcode": "88457",
    "city": "Binnrot"
  },
  {
    "postcode": "88457",
    "city": "Waldenhofen"
  },
  {
    "postcode": "88459",
    "city": "Arlach"
  },
  {
    "postcode": "88459",
    "city": "Egelsee"
  },
  {
    "postcode": "88459",
    "city": "Haldau"
  },
  {
    "postcode": "88459",
    "city": "Krimmel"
  },
  {
    "postcode": "88459",
    "city": "Kronwinkel"
  },
  {
    "postcode": "88459",
    "city": "Tannheim"
  },
  {
    "postcode": "88459",
    "city": "Tannheim (Württemberg)"
  },
  {
    "postcode": "88459",
    "city": "Biberach"
  },
  {
    "postcode": "88471",
    "city": "Baustetten"
  },
  {
    "postcode": "88471",
    "city": "Dürnachhof"
  },
  {
    "postcode": "88471",
    "city": "Haderhöhe"
  },
  {
    "postcode": "88471",
    "city": "Laupheim"
  },
  {
    "postcode": "88471",
    "city": "Obersulmetingen"
  },
  {
    "postcode": "88471",
    "city": "Untersulmetingen"
  },
  {
    "postcode": "88471",
    "city": "Biberach"
  },
  {
    "postcode": "88471",
    "city": "Bihlafingen"
  },
  {
    "postcode": "88477",
    "city": "Bußmannshausen"
  },
  {
    "postcode": "88477",
    "city": "Großschafhausen"
  },
  {
    "postcode": "88477",
    "city": "Hörenhausen"
  },
  {
    "postcode": "88477",
    "city": "Kleinschafhausen"
  },
  {
    "postcode": "88477",
    "city": "Orsenhausen"
  },
  {
    "postcode": "88477",
    "city": "Schönebürg"
  },
  {
    "postcode": "88477",
    "city": "Schwendi"
  },
  {
    "postcode": "88477",
    "city": "Schwendi (Württemberg)"
  },
  {
    "postcode": "88477",
    "city": "Sießen"
  },
  {
    "postcode": "88477",
    "city": "Weihungszell"
  },
  {
    "postcode": "88477",
    "city": "Biberach"
  },
  {
    "postcode": "88480",
    "city": "Achstetten"
  },
  {
    "postcode": "88480",
    "city": "Bronnen"
  },
  {
    "postcode": "88480",
    "city": "Oberholzheim"
  },
  {
    "postcode": "88480",
    "city": "Stetten"
  },
  {
    "postcode": "88480",
    "city": "Unterholzheim"
  },
  {
    "postcode": "88480",
    "city": "Biberach"
  },
  {
    "postcode": "88480",
    "city": "Laupheim"
  },
  {
    "postcode": "88481",
    "city": "Balzheim"
  },
  {
    "postcode": "88481",
    "city": "Oberbalzheim"
  },
  {
    "postcode": "88481",
    "city": "Unterbalzheim"
  },
  {
    "postcode": "88481",
    "city": "Alb-Donau-Kreis"
  },
  {
    "postcode": "88481",
    "city": "Säge"
  },
  {
    "postcode": "88483",
    "city": "Bühl"
  },
  {
    "postcode": "88483",
    "city": "Burgrieden"
  },
  {
    "postcode": "88483",
    "city": "Rot"
  },
  {
    "postcode": "88483",
    "city": "Biberach"
  },
  {
    "postcode": "88484",
    "city": "Allmethofen"
  },
  {
    "postcode": "88484",
    "city": "Bollsberg"
  },
  {
    "postcode": "88484",
    "city": "Dissenhausen"
  },
  {
    "postcode": "88484",
    "city": "Freyberg"
  },
  {
    "postcode": "88484",
    "city": "Gutenzell"
  },
  {
    "postcode": "88484",
    "city": "Gutenzell-Hürbel"
  },
  {
    "postcode": "88484",
    "city": "Hürbel"
  },
  {
    "postcode": "88484",
    "city": "Niedernzell"
  },
  {
    "postcode": "88484",
    "city": "Simmisweiler"
  },
  {
    "postcode": "88484",
    "city": "Weitenbühl"
  },
  {
    "postcode": "88484",
    "city": "Zillishausen"
  },
  {
    "postcode": "88484",
    "city": "Biberach"
  },
  {
    "postcode": "88484",
    "city": "Laubacher Täle"
  },
  {
    "postcode": "88486",
    "city": "Kirchberg"
  },
  {
    "postcode": "88486",
    "city": "Kirchberg an der Iller"
  },
  {
    "postcode": "88486",
    "city": "Sinningen"
  },
  {
    "postcode": "88486",
    "city": "Biberach"
  },
  {
    "postcode": "88487",
    "city": "Baltringen"
  },
  {
    "postcode": "88487",
    "city": "Mietingen"
  },
  {
    "postcode": "88487",
    "city": "Walpertshofen"
  },
  {
    "postcode": "88487",
    "city": "Biberach"
  },
  {
    "postcode": "88489",
    "city": "Auttagershofen"
  },
  {
    "postcode": "88489",
    "city": "Wain"
  },
  {
    "postcode": "88489",
    "city": "Biberach"
  },
  {
    "postcode": "88499",
    "city": "Altheim"
  },
  {
    "postcode": "88499",
    "city": "Altheim bei Riedlingen (Württemberg)"
  },
  {
    "postcode": "88499",
    "city": "Altheim bei Riedlingen"
  },
  {
    "postcode": "88499",
    "city": "Bechingen"
  },
  {
    "postcode": "88499",
    "city": "Daugendorf"
  },
  {
    "postcode": "88499",
    "city": "Emeringen"
  },
  {
    "postcode": "88499",
    "city": "Grüningen"
  },
  {
    "postcode": "88499",
    "city": "Heiligkreuztal"
  },
  {
    "postcode": "88499",
    "city": "Neufra"
  },
  {
    "postcode": "88499",
    "city": "Pflummern"
  },
  {
    "postcode": "88499",
    "city": "Riedlingen"
  },
  {
    "postcode": "88499",
    "city": "Riedlingen (Württemberg)"
  },
  {
    "postcode": "88499",
    "city": "Waldhausen"
  },
  {
    "postcode": "88499",
    "city": "Zell"
  },
  {
    "postcode": "88499",
    "city": "Zwiefaltendorf"
  },
  {
    "postcode": "88499",
    "city": "Alb-Donau-Kreis"
  },
  {
    "postcode": "88512",
    "city": "Beuren"
  },
  {
    "postcode": "88512",
    "city": "Blochingen"
  },
  {
    "postcode": "88512",
    "city": "Ennetach"
  },
  {
    "postcode": "88512",
    "city": "Mengen"
  },
  {
    "postcode": "88512",
    "city": "Mengen (Württemberg)"
  },
  {
    "postcode": "88512",
    "city": "Rosna"
  },
  {
    "postcode": "88512",
    "city": "Rulfingen"
  },
  {
    "postcode": "88512",
    "city": "Zielfingen"
  },
  {
    "postcode": "88512",
    "city": "Sigmaringen"
  },
  {
    "postcode": "88515",
    "city": "Andelfingen"
  },
  {
    "postcode": "88515",
    "city": "Billafingen"
  },
  {
    "postcode": "88515",
    "city": "Dürrenwaldstetten"
  },
  {
    "postcode": "88515",
    "city": "Egelfingen"
  },
  {
    "postcode": "88515",
    "city": "Eisighof"
  },
  {
    "postcode": "88515",
    "city": "Emerfeld"
  },
  {
    "postcode": "88515",
    "city": "Friedingen"
  },
  {
    "postcode": "88515",
    "city": "Ittenhausen"
  },
  {
    "postcode": "88515",
    "city": "Langenenslingen"
  },
  {
    "postcode": "88515",
    "city": "Warmtal"
  },
  {
    "postcode": "88515",
    "city": "Wilflingen"
  },
  {
    "postcode": "88515",
    "city": "Biberach"
  },
  {
    "postcode": "88518",
    "city": "Herbertingen"
  },
  {
    "postcode": "88518",
    "city": "Hundersingen"
  },
  {
    "postcode": "88518",
    "city": "Marbach"
  },
  {
    "postcode": "88518",
    "city": "Mieterkingen"
  },
  {
    "postcode": "88518",
    "city": "Sigmaringen"
  },
  {
    "postcode": "88521",
    "city": "Binzwangen"
  },
  {
    "postcode": "88521",
    "city": "Erisdorf"
  },
  {
    "postcode": "88521",
    "city": "Ertingen"
  },
  {
    "postcode": "88521",
    "city": "Biberach"
  },
  {
    "postcode": "88524",
    "city": "Aderzhofen"
  },
  {
    "postcode": "88524",
    "city": "Ahlen"
  },
  {
    "postcode": "88524",
    "city": "Buchay"
  },
  {
    "postcode": "88524",
    "city": "Bussen"
  },
  {
    "postcode": "88524",
    "city": "Dentingen"
  },
  {
    "postcode": "88524",
    "city": "Dettenberg"
  },
  {
    "postcode": "88524",
    "city": "Dietershausen"
  },
  {
    "postcode": "88524",
    "city": "Dieterskirch"
  },
  {
    "postcode": "88524",
    "city": "Dobel"
  },
  {
    "postcode": "88524",
    "city": "Minderreuti"
  },
  {
    "postcode": "88524",
    "city": "Oberwachingen"
  },
  {
    "postcode": "88524",
    "city": "Offingen"
  },
  {
    "postcode": "88524",
    "city": "Sauggart"
  },
  {
    "postcode": "88524",
    "city": "Schupfenberg"
  },
  {
    "postcode": "88524",
    "city": "Uttenweiler"
  },
  {
    "postcode": "88524",
    "city": "Biberach"
  },
  {
    "postcode": "88524",
    "city": "Ödenahlen"
  },
  {
    "postcode": "88525",
    "city": "Burgau"
  },
  {
    "postcode": "88525",
    "city": "Dürmentingen"
  },
  {
    "postcode": "88525",
    "city": "Hailtingen"
  },
  {
    "postcode": "88525",
    "city": "Heudorf am Bussen"
  },
  {
    "postcode": "88525",
    "city": "Biberach"
  },
  {
    "postcode": "88525",
    "city": "Heudorf"
  },
  {
    "postcode": "88527",
    "city": "Dietelhofen"
  },
  {
    "postcode": "88527",
    "city": "Göffingen"
  },
  {
    "postcode": "88527",
    "city": "Möhringen"
  },
  {
    "postcode": "88527",
    "city": "Uigendorf"
  },
  {
    "postcode": "88527",
    "city": "Unlingen"
  },
  {
    "postcode": "88527",
    "city": "Biberach"
  },
  {
    "postcode": "88529",
    "city": "Baach"
  },
  {
    "postcode": "88529",
    "city": "Gauingen"
  },
  {
    "postcode": "88529",
    "city": "Gossenzugen"
  },
  {
    "postcode": "88529",
    "city": "Hochberg"
  },
  {
    "postcode": "88529",
    "city": "Mörsingen"
  },
  {
    "postcode": "88529",
    "city": "Sonderbuch"
  },
  {
    "postcode": "88529",
    "city": "Upflamör"
  },
  {
    "postcode": "88529",
    "city": "Zwiefalten"
  },
  {
    "postcode": "88529",
    "city": "Zwiefalten (Württemberg)"
  },
  {
    "postcode": "88529",
    "city": "Reutlingen"
  },
  {
    "postcode": "88605",
    "city": "Bietingen"
  },
  {
    "postcode": "88605",
    "city": "Boll"
  },
  {
    "postcode": "88605",
    "city": "Buffenhofen"
  },
  {
    "postcode": "88605",
    "city": "Dietershofen"
  },
  {
    "postcode": "88605",
    "city": "Heudorf"
  },
  {
    "postcode": "88605",
    "city": "Hölzle"
  },
  {
    "postcode": "88605",
    "city": "Igelswies"
  },
  {
    "postcode": "88605",
    "city": "Krumbach"
  },
  {
    "postcode": "88605",
    "city": "Langenhart"
  },
  {
    "postcode": "88605",
    "city": "Menningen"
  },
  {
    "postcode": "88605",
    "city": "Meßkirch"
  },
  {
    "postcode": "88605",
    "city": "Rast"
  },
  {
    "postcode": "88605",
    "city": "Rengetsweiler"
  },
  {
    "postcode": "88605",
    "city": "Reute"
  },
  {
    "postcode": "88605",
    "city": "Ringgenbach"
  },
  {
    "postcode": "88605",
    "city": "Rohrdorf"
  },
  {
    "postcode": "88605",
    "city": "Sauldorf"
  },
  {
    "postcode": "88605",
    "city": "Wasser"
  },
  {
    "postcode": "88605",
    "city": "Sigmaringen"
  },
  {
    "postcode": "88605",
    "city": "Leitishofen"
  },
  {
    "postcode": "88605",
    "city": "Oberbichtlingen"
  },
  {
    "postcode": "88605",
    "city": "Unterbichtlingen"
  },
  {
    "postcode": "88630",
    "city": "Aach-Linz"
  },
  {
    "postcode": "88630",
    "city": "Brunnhausen"
  },
  {
    "postcode": "88630",
    "city": "Denkingen"
  },
  {
    "postcode": "88630",
    "city": "Gaisweiler"
  },
  {
    "postcode": "88630",
    "city": "Großstadelhofen"
  },
  {
    "postcode": "88630",
    "city": "Kleinstadelhofen"
  },
  {
    "postcode": "88630",
    "city": "Mottschieß"
  },
  {
    "postcode": "88630",
    "city": "Otterswang"
  },
  {
    "postcode": "88630",
    "city": "Pfullendorf"
  },
  {
    "postcode": "88630",
    "city": "Pfullendorf (Baden)"
  },
  {
    "postcode": "88630",
    "city": "Reute"
  },
  {
    "postcode": "88630",
    "city": "Sahlenbach"
  },
  {
    "postcode": "88630",
    "city": "Schwäblishausen"
  },
  {
    "postcode": "88630",
    "city": "Sylvenstal"
  },
  {
    "postcode": "88630",
    "city": "Tautenbronn"
  },
  {
    "postcode": "88630",
    "city": "Wattenreute"
  },
  {
    "postcode": "88630",
    "city": "Zell am Andelsbach"
  },
  {
    "postcode": "88630",
    "city": "Sigmaringen"
  },
  {
    "postcode": "88631",
    "city": "Beuron"
  },
  {
    "postcode": "88631",
    "city": "Hausen im Tal"
  },
  {
    "postcode": "88631",
    "city": "Langenbrunn"
  },
  {
    "postcode": "88631",
    "city": "Neidingen"
  },
  {
    "postcode": "88631",
    "city": "Thiergarten"
  },
  {
    "postcode": "88631",
    "city": "Sigmaringen"
  },
  {
    "postcode": "88633",
    "city": "Betenbrunn"
  },
  {
    "postcode": "88633",
    "city": "Hattenweiler"
  },
  {
    "postcode": "88633",
    "city": "Heiligenberg"
  },
  {
    "postcode": "88633",
    "city": "Heiligenberg (Baden)"
  },
  {
    "postcode": "88633",
    "city": "Hermannsberg"
  },
  {
    "postcode": "88633",
    "city": "Kirnbach"
  },
  {
    "postcode": "88633",
    "city": "Oberboshasel"
  },
  {
    "postcode": "88633",
    "city": "Rickertsreute"
  },
  {
    "postcode": "88633",
    "city": "Röhrenbach"
  },
  {
    "postcode": "88633",
    "city": "Steigen"
  },
  {
    "postcode": "88633",
    "city": "Wintersulgen"
  },
  {
    "postcode": "88633",
    "city": "Bodenseekreis"
  },
  {
    "postcode": "88633",
    "city": "Oberhaslach"
  },
  {
    "postcode": "88634",
    "city": "Adriatsweiler"
  },
  {
    "postcode": "88634",
    "city": "Aftholderberg"
  },
  {
    "postcode": "88634",
    "city": "Alberweiler"
  },
  {
    "postcode": "88634",
    "city": "Ebratsweiler"
  },
  {
    "postcode": "88634",
    "city": "Großschönach"
  },
  {
    "postcode": "88634",
    "city": "Herdwangen"
  },
  {
    "postcode": "88634",
    "city": "Herdwangen-Schönach"
  },
  {
    "postcode": "88634",
    "city": "Kleinschönach"
  },
  {
    "postcode": "88634",
    "city": "Lautenbach"
  },
  {
    "postcode": "88634",
    "city": "Oberndorf"
  },
  {
    "postcode": "88634",
    "city": "Sohl"
  },
  {
    "postcode": "88634",
    "city": "Waldsteig"
  },
  {
    "postcode": "88634",
    "city": "Sigmaringen"
  },
  {
    "postcode": "88634",
    "city": "Ramsberg"
  },
  {
    "postcode": "88636",
    "city": "Birkhof"
  },
  {
    "postcode": "88636",
    "city": "Glashütten"
  },
  {
    "postcode": "88636",
    "city": "Illmensee"
  },
  {
    "postcode": "88636",
    "city": "Illwangen"
  },
  {
    "postcode": "88636",
    "city": "Judentenberg"
  },
  {
    "postcode": "88636",
    "city": "Krumbach"
  },
  {
    "postcode": "88636",
    "city": "Lichtenegg"
  },
  {
    "postcode": "88636",
    "city": "Ruschweiler"
  },
  {
    "postcode": "88636",
    "city": "Sigmaringen"
  },
  {
    "postcode": "88636",
    "city": "Volzen"
  },
  {
    "postcode": "88636",
    "city": "Neubrunn"
  },
  {
    "postcode": "88636",
    "city": "Höchsten"
  },
  {
    "postcode": "88636",
    "city": "Mariahof"
  },
  {
    "postcode": "88637",
    "city": "Altheim"
  },
  {
    "postcode": "88637",
    "city": "Buchheim bei Meßkirch"
  },
  {
    "postcode": "88637",
    "city": "Einsiedlerhof"
  },
  {
    "postcode": "88637",
    "city": "Kreenheinstetten"
  },
  {
    "postcode": "88637",
    "city": "Leibertingen"
  },
  {
    "postcode": "88637",
    "city": "Thalheim"
  },
  {
    "postcode": "88637",
    "city": "Sigmaringen"
  },
  {
    "postcode": "88637",
    "city": "Buchheim"
  },
  {
    "postcode": "88637",
    "city": "Vogelsang"
  },
  {
    "postcode": "88639",
    "city": "Glashütte"
  },
  {
    "postcode": "88639",
    "city": "Hippetsweiler"
  },
  {
    "postcode": "88639",
    "city": "Kappel"
  },
  {
    "postcode": "88639",
    "city": "Reischach"
  },
  {
    "postcode": "88639",
    "city": "Riedetsweiler"
  },
  {
    "postcode": "88639",
    "city": "Rothenlachen"
  },
  {
    "postcode": "88639",
    "city": "Ruhestetten"
  },
  {
    "postcode": "88639",
    "city": "Sentenhart"
  },
  {
    "postcode": "88639",
    "city": "Walbertsweiler"
  },
  {
    "postcode": "88639",
    "city": "Wald (Hohenzollern)"
  },
  {
    "postcode": "88639",
    "city": "Wald"
  },
  {
    "postcode": "88639",
    "city": "Sigmaringen"
  },
  {
    "postcode": "88662",
    "city": "Andelshofen"
  },
  {
    "postcode": "88662",
    "city": "Bambergen"
  },
  {
    "postcode": "88662",
    "city": "Bonndorf"
  },
  {
    "postcode": "88662",
    "city": "Deisendorf"
  },
  {
    "postcode": "88662",
    "city": "Ernatsreute"
  },
  {
    "postcode": "88662",
    "city": "Goldbach"
  },
  {
    "postcode": "88662",
    "city": "Hödingen"
  },
  {
    "postcode": "88662",
    "city": "Lippertsreute"
  },
  {
    "postcode": "88662",
    "city": "Nesselwangen"
  },
  {
    "postcode": "88662",
    "city": "Nußdorf"
  },
  {
    "postcode": "88662",
    "city": "Überlingen"
  },
  {
    "postcode": "88662",
    "city": "Überlingen (Bodensee)"
  },
  {
    "postcode": "88662",
    "city": "Walpertsweiler"
  },
  {
    "postcode": "88662",
    "city": "Bodenseekreis"
  },
  {
    "postcode": "88677",
    "city": "Bergheim"
  },
  {
    "postcode": "88677",
    "city": "Gangenweiler"
  },
  {
    "postcode": "88677",
    "city": "Gemeinde Stetten"
  },
  {
    "postcode": "88677",
    "city": "Ittendorf"
  },
  {
    "postcode": "88677",
    "city": "Leimbach"
  },
  {
    "postcode": "88677",
    "city": "Markdorf"
  },
  {
    "postcode": "88677",
    "city": "Markdorf (Baden)"
  },
  {
    "postcode": "88677",
    "city": "Möggenweiler"
  },
  {
    "postcode": "88677",
    "city": "Riedheim"
  },
  {
    "postcode": "88677",
    "city": "Stadel"
  },
  {
    "postcode": "88677",
    "city": "Wangen"
  },
  {
    "postcode": "88677",
    "city": "Bodenseekreis"
  },
  {
    "postcode": "88677",
    "city": "Bermatingen"
  },
  {
    "postcode": "88682",
    "city": "Altenbeuren"
  },
  {
    "postcode": "88682",
    "city": "Baufnang"
  },
  {
    "postcode": "88682",
    "city": "Beuren"
  },
  {
    "postcode": "88682",
    "city": "Buggensegel"
  },
  {
    "postcode": "88682",
    "city": "Grasbeuren"
  },
  {
    "postcode": "88682",
    "city": "Mimmenhausen"
  },
  {
    "postcode": "88682",
    "city": "Mittelstenweiler"
  },
  {
    "postcode": "88682",
    "city": "Neufrach"
  },
  {
    "postcode": "88682",
    "city": "Oberstenweiler"
  },
  {
    "postcode": "88682",
    "city": "Rickenbach"
  },
  {
    "postcode": "88682",
    "city": "Rimpertsweiler"
  },
  {
    "postcode": "88682",
    "city": "Salem"
  },
  {
    "postcode": "88682",
    "city": "Salem (Baden)"
  },
  {
    "postcode": "88682",
    "city": "Tüfingen"
  },
  {
    "postcode": "88682",
    "city": "Unterstenweiler"
  },
  {
    "postcode": "88682",
    "city": "Weildorf"
  },
  {
    "postcode": "88682",
    "city": "Bodenseekreis"
  },
  {
    "postcode": "88682",
    "city": "Bächen"
  },
  {
    "postcode": "88690",
    "city": "Gebhardsweiler"
  },
  {
    "postcode": "88690",
    "city": "Mühlhofen"
  },
  {
    "postcode": "88690",
    "city": "Oberuhldingen"
  },
  {
    "postcode": "88690",
    "city": "Seefelden"
  },
  {
    "postcode": "88690",
    "city": "Uhldingen-Mühlhofen"
  },
  {
    "postcode": "88690",
    "city": "Unteruhldingen"
  },
  {
    "postcode": "88690",
    "city": "Bodenseekreis"
  },
  {
    "postcode": "88690",
    "city": "Birnau-Maurach"
  },
  {
    "postcode": "88693",
    "city": "Azenweiler"
  },
  {
    "postcode": "88693",
    "city": "Deggenhausen"
  },
  {
    "postcode": "88693",
    "city": "Deggenhausertal"
  },
  {
    "postcode": "88693",
    "city": "Eggenweiler"
  },
  {
    "postcode": "88693",
    "city": "Ellenfurt"
  },
  {
    "postcode": "88693",
    "city": "Grünwangen"
  },
  {
    "postcode": "88693",
    "city": "Harresheim"
  },
  {
    "postcode": "88693",
    "city": "Höge"
  },
  {
    "postcode": "88693",
    "city": "Lellwangen"
  },
  {
    "postcode": "88693",
    "city": "Limpach"
  },
  {
    "postcode": "88693",
    "city": "Magetsweiler"
  },
  {
    "postcode": "88693",
    "city": "Mennwangen"
  },
  {
    "postcode": "88693",
    "city": "Oberhomberg"
  },
  {
    "postcode": "88693",
    "city": "Obersiggingen"
  },
  {
    "postcode": "88693",
    "city": "Oberweiler"
  },
  {
    "postcode": "88693",
    "city": "Roggenbeuren"
  },
  {
    "postcode": "88693",
    "city": "Rubacker"
  },
  {
    "postcode": "88693",
    "city": "Unterhomberg"
  },
  {
    "postcode": "88693",
    "city": "Untersiggingen"
  },
  {
    "postcode": "88693",
    "city": "Urnau"
  },
  {
    "postcode": "88693",
    "city": "Wahlweiler"
  },
  {
    "postcode": "88693",
    "city": "Wattenberg"
  },
  {
    "postcode": "88693",
    "city": "Wendlingen"
  },
  {
    "postcode": "88693",
    "city": "Wippertsweiler"
  },
  {
    "postcode": "88693",
    "city": "Wittenhofen"
  },
  {
    "postcode": "88693",
    "city": "Bodenseekreis"
  },
  {
    "postcode": "88693",
    "city": "Unterlimpach"
  },
  {
    "postcode": "88693",
    "city": "Burgstallhof"
  },
  {
    "postcode": "88693",
    "city": "Fuchstobel"
  },
  {
    "postcode": "88693",
    "city": "Höchsten"
  },
  {
    "postcode": "88693",
    "city": "Urnau-Rotachtal"
  },
  {
    "postcode": "88693",
    "city": "Rotreis"
  },
  {
    "postcode": "88693",
    "city": "Zühnehof"
  },
  {
    "postcode": "88696",
    "city": "Billafingen"
  },
  {
    "postcode": "88696",
    "city": "Hohenbodman"
  },
  {
    "postcode": "88696",
    "city": "Owingen"
  },
  {
    "postcode": "88696",
    "city": "Owingen (Bodensee)"
  },
  {
    "postcode": "88696",
    "city": "Taisersdorf"
  },
  {
    "postcode": "88696",
    "city": "Unterbach"
  },
  {
    "postcode": "88696",
    "city": "Bodenseekreis"
  },
  {
    "postcode": "88697",
    "city": "Ahausen"
  },
  {
    "postcode": "88697",
    "city": "Autenweiler"
  },
  {
    "postcode": "88697",
    "city": "Bermatingen"
  },
  {
    "postcode": "88697",
    "city": "Bermatingen (Baden)"
  },
  {
    "postcode": "88697",
    "city": "Bodenseekreis"
  },
  {
    "postcode": "88699",
    "city": "Altheim"
  },
  {
    "postcode": "88699",
    "city": "Bruckfelden"
  },
  {
    "postcode": "88699",
    "city": "Frickingen"
  },
  {
    "postcode": "88699",
    "city": "Frickingen (Baden)"
  },
  {
    "postcode": "88699",
    "city": "Golpenweiler"
  },
  {
    "postcode": "88699",
    "city": "Leustetten"
  },
  {
    "postcode": "88699",
    "city": "Rickertsweiler"
  },
  {
    "postcode": "88699",
    "city": "Bodenseekreis"
  },
  {
    "postcode": "88709",
    "city": "Baitenhausen"
  },
  {
    "postcode": "88709",
    "city": "Hagnau am Bodensee"
  },
  {
    "postcode": "88709",
    "city": "Meersburg"
  },
  {
    "postcode": "88709",
    "city": "Meersburg (Bodensee)"
  },
  {
    "postcode": "88709",
    "city": "Riedetsweiler"
  },
  {
    "postcode": "88709",
    "city": "Schiggendorf"
  },
  {
    "postcode": "88709",
    "city": "Bodenseekreis"
  },
  {
    "postcode": "88718",
    "city": "Daisendorf"
  },
  {
    "postcode": "88718",
    "city": "Bodenseekreis"
  },
  {
    "postcode": "88719",
    "city": "Stetten bei Meersburg Bodensee"
  },
  {
    "postcode": "88719",
    "city": "Stetten bei Meersburg"
  },
  {
    "postcode": "88719",
    "city": "Bodenseekreis"
  },
  {
    "postcode": "88719",
    "city": "Stetten"
  }
]