[
  {
    "postcode": "59063",
    "city": "Berge bei Hamm Westfalen"
  },
  {
    "postcode": "59063",
    "city": "Berge bei Hamm"
  },
  {
    "postcode": "59063",
    "city": "Hamm (Westfalen)"
  },
  {
    "postcode": "59063",
    "city": "Hamm"
  },
  {
    "postcode": "59063",
    "city": "Lohauserholz"
  },
  {
    "postcode": "59063",
    "city": "Rhynern"
  },
  {
    "postcode": "59063",
    "city": "Westtünnen"
  },
  {
    "postcode": "59063",
    "city": "Hamm-Mitte"
  },
  {
    "postcode": "59063",
    "city": "Berge"
  },
  {
    "postcode": "59065",
    "city": "Hamm (Westfalen)"
  },
  {
    "postcode": "59065",
    "city": "Hamm"
  },
  {
    "postcode": "59065",
    "city": "Hamm-Mitte"
  },
  {
    "postcode": "59065",
    "city": "Hamm-Norden"
  },
  {
    "postcode": "59065",
    "city": "Bockum-Hövel"
  },
  {
    "postcode": "59067",
    "city": "Hamm (Westfalen)"
  },
  {
    "postcode": "59067",
    "city": "Hamm"
  },
  {
    "postcode": "59067",
    "city": "Herringen"
  },
  {
    "postcode": "59067",
    "city": "Lohauserholz"
  },
  {
    "postcode": "59067",
    "city": "Hamm-Mitte"
  },
  {
    "postcode": "59067",
    "city": "Wiescherhöfen"
  },
  {
    "postcode": "59067",
    "city": "Hamm-Westen"
  },
  {
    "postcode": "59067",
    "city": "Daberg"
  },
  {
    "postcode": "59069",
    "city": "Berge bei Hamm Westfalen"
  },
  {
    "postcode": "59069",
    "city": "Berge bei Hamm"
  },
  {
    "postcode": "59069",
    "city": "Freiske"
  },
  {
    "postcode": "59069",
    "city": "Hamm (Westfalen)"
  },
  {
    "postcode": "59069",
    "city": "Hamm"
  },
  {
    "postcode": "59069",
    "city": "Osterflierich"
  },
  {
    "postcode": "59069",
    "city": "Osttünnen"
  },
  {
    "postcode": "59069",
    "city": "Rhynern"
  },
  {
    "postcode": "59069",
    "city": "Süddinker"
  },
  {
    "postcode": "59069",
    "city": "Wambeln"
  },
  {
    "postcode": "59069",
    "city": "Weetfeld"
  },
  {
    "postcode": "59069",
    "city": "Westtünnen"
  },
  {
    "postcode": "59069",
    "city": "Allen"
  },
  {
    "postcode": "59069",
    "city": "Berge"
  },
  {
    "postcode": "59071",
    "city": "Frielinghausen bei Hamm Westfalen"
  },
  {
    "postcode": "59071",
    "city": "Frielinghausen bei Hamm"
  },
  {
    "postcode": "59071",
    "city": "Haaren bei Hamm Westfalen"
  },
  {
    "postcode": "59071",
    "city": "Haaren bei Hamm"
  },
  {
    "postcode": "59071",
    "city": "Hamm (Westfalen)"
  },
  {
    "postcode": "59071",
    "city": "Hamm"
  },
  {
    "postcode": "59071",
    "city": "Mark"
  },
  {
    "postcode": "59071",
    "city": "Norddinker"
  },
  {
    "postcode": "59071",
    "city": "Schmehausen"
  },
  {
    "postcode": "59071",
    "city": "Uentrop Westfalen"
  },
  {
    "postcode": "59071",
    "city": "Uentrop"
  },
  {
    "postcode": "59071",
    "city": "Vöckinghausen"
  },
  {
    "postcode": "59071",
    "city": "Werries"
  },
  {
    "postcode": "59071",
    "city": "Haaren"
  },
  {
    "postcode": "59071",
    "city": "Hamm-Osten"
  },
  {
    "postcode": "59071",
    "city": "Braam-Ostwennemar"
  },
  {
    "postcode": "59071",
    "city": "Frielinghausen"
  },
  {
    "postcode": "59073",
    "city": "Bockum-Hövel"
  },
  {
    "postcode": "59073",
    "city": "Hamm (Westfalen)"
  },
  {
    "postcode": "59073",
    "city": "Hamm"
  },
  {
    "postcode": "59073",
    "city": "Heessen"
  },
  {
    "postcode": "59073",
    "city": "Hamm-Norden"
  },
  {
    "postcode": "59075",
    "city": "Bockum-Hövel"
  },
  {
    "postcode": "59075",
    "city": "Hamm (Westfalen)"
  },
  {
    "postcode": "59075",
    "city": "Hamm"
  },
  {
    "postcode": "59075",
    "city": "Heessen"
  },
  {
    "postcode": "59077",
    "city": "Hamm (Westfalen)"
  },
  {
    "postcode": "59077",
    "city": "Hamm"
  },
  {
    "postcode": "59077",
    "city": "Herringen"
  },
  {
    "postcode": "59077",
    "city": "Lerche"
  },
  {
    "postcode": "59077",
    "city": "Pelkum"
  },
  {
    "postcode": "59077",
    "city": "Sandbochum"
  },
  {
    "postcode": "59077",
    "city": "Weetfeld"
  },
  {
    "postcode": "59077",
    "city": "Wiescherhöfen"
  },
  {
    "postcode": "59077",
    "city": "Hamm-Westen"
  },
  {
    "postcode": "59174",
    "city": "Derne Westfalen"
  },
  {
    "postcode": "59174",
    "city": "Derne"
  },
  {
    "postcode": "59174",
    "city": "Heeren-Werve"
  },
  {
    "postcode": "59174",
    "city": "Kamen Westfalen"
  },
  {
    "postcode": "59174",
    "city": "Kamen"
  },
  {
    "postcode": "59174",
    "city": "Methler"
  },
  {
    "postcode": "59174",
    "city": "Rottum über Hamm Westfalen"
  },
  {
    "postcode": "59174",
    "city": "Rottum über Hamm"
  },
  {
    "postcode": "59174",
    "city": "Südkamen"
  },
  {
    "postcode": "59174",
    "city": "Unna"
  },
  {
    "postcode": "59174",
    "city": "Kamen-Mitte"
  },
  {
    "postcode": "59174",
    "city": "Wasserkurl"
  },
  {
    "postcode": "59174",
    "city": "Rottum"
  },
  {
    "postcode": "59174",
    "city": "Heeren"
  },
  {
    "postcode": "59174",
    "city": "Werve"
  },
  {
    "postcode": "59192",
    "city": "Bergkamen"
  },
  {
    "postcode": "59192",
    "city": "Heil"
  },
  {
    "postcode": "59192",
    "city": "Oberaden"
  },
  {
    "postcode": "59192",
    "city": "Overberge"
  },
  {
    "postcode": "59192",
    "city": "Rünthe"
  },
  {
    "postcode": "59192",
    "city": "Weddinghofen"
  },
  {
    "postcode": "59192",
    "city": "Unna"
  },
  {
    "postcode": "59192",
    "city": "Mitte"
  },
  {
    "postcode": "59199",
    "city": "Altenbögge"
  },
  {
    "postcode": "59199",
    "city": "Bönen"
  },
  {
    "postcode": "59199",
    "city": "Bramey-Lenningsen"
  },
  {
    "postcode": "59199",
    "city": "Flierich"
  },
  {
    "postcode": "59199",
    "city": "Nordbögge"
  },
  {
    "postcode": "59199",
    "city": "Osterbönen"
  },
  {
    "postcode": "59199",
    "city": "Westerbönen"
  },
  {
    "postcode": "59199",
    "city": "Unna"
  },
  {
    "postcode": "59227",
    "city": "Ahlen Westfalen"
  },
  {
    "postcode": "59227",
    "city": "Ahlen"
  },
  {
    "postcode": "59227",
    "city": "Tönnishäuschen"
  },
  {
    "postcode": "59227",
    "city": "Vorhelm"
  },
  {
    "postcode": "59227",
    "city": "Warendorf"
  },
  {
    "postcode": "59227",
    "city": "Innenstadt"
  },
  {
    "postcode": "59227",
    "city": "Außenbereich"
  },
  {
    "postcode": "59229",
    "city": "Ahlen Westfalen"
  },
  {
    "postcode": "59229",
    "city": "Ahlen"
  },
  {
    "postcode": "59229",
    "city": "Dolberg"
  },
  {
    "postcode": "59229",
    "city": "Warendorf"
  },
  {
    "postcode": "59229",
    "city": "Innenstadt"
  },
  {
    "postcode": "59229",
    "city": "Außenbereich"
  },
  {
    "postcode": "59269",
    "city": "Beckum"
  },
  {
    "postcode": "59269",
    "city": "Beckum Westfalen"
  },
  {
    "postcode": "59269",
    "city": "Neubeckum"
  },
  {
    "postcode": "59269",
    "city": "Roland"
  },
  {
    "postcode": "59269",
    "city": "Vellern"
  },
  {
    "postcode": "59269",
    "city": "Warendorf"
  },
  {
    "postcode": "59269",
    "city": "Gemeinde Ennigerloh"
  },
  {
    "postcode": "59302",
    "city": "Lette bei Oelde"
  },
  {
    "postcode": "59302",
    "city": "Oelde"
  },
  {
    "postcode": "59302",
    "city": "Oelde Westfalen"
  },
  {
    "postcode": "59302",
    "city": "Stromberg Westfalen"
  },
  {
    "postcode": "59302",
    "city": "Stromberg"
  },
  {
    "postcode": "59302",
    "city": "Sünninghausen"
  },
  {
    "postcode": "59302",
    "city": "Warendorf"
  },
  {
    "postcode": "59302",
    "city": "Lette"
  },
  {
    "postcode": "59320",
    "city": "Beesen"
  },
  {
    "postcode": "59320",
    "city": "Enniger"
  },
  {
    "postcode": "59320",
    "city": "Ennigerloh"
  },
  {
    "postcode": "59320",
    "city": "Finkenberg"
  },
  {
    "postcode": "59320",
    "city": "Höst"
  },
  {
    "postcode": "59320",
    "city": "Ostenfelde bei Oelde"
  },
  {
    "postcode": "59320",
    "city": "Westkirchen"
  },
  {
    "postcode": "59320",
    "city": "Warendorf"
  },
  {
    "postcode": "59320",
    "city": "Ostenfelde"
  },
  {
    "postcode": "59320",
    "city": "Hoest"
  },
  {
    "postcode": "59329",
    "city": "Diestedde"
  },
  {
    "postcode": "59329",
    "city": "Liesborn"
  },
  {
    "postcode": "59329",
    "city": "Wadersloh"
  },
  {
    "postcode": "59329",
    "city": "Warendorf"
  },
  {
    "postcode": "59329",
    "city": "Liesborn-Göttingen"
  },
  {
    "postcode": "59348",
    "city": "Bechtrup"
  },
  {
    "postcode": "59348",
    "city": "Berenbrock"
  },
  {
    "postcode": "59348",
    "city": "Brochtrup"
  },
  {
    "postcode": "59348",
    "city": "Elvert"
  },
  {
    "postcode": "59348",
    "city": "Ermen"
  },
  {
    "postcode": "59348",
    "city": "Lüdinghausen"
  },
  {
    "postcode": "59348",
    "city": "Seppenrade"
  },
  {
    "postcode": "59348",
    "city": "Tüllinghoff"
  },
  {
    "postcode": "59348",
    "city": "Coesfeld"
  },
  {
    "postcode": "59368",
    "city": "Stockum Kreis Lüdinghausen"
  },
  {
    "postcode": "59368",
    "city": "Stockum"
  },
  {
    "postcode": "59368",
    "city": "Werne"
  },
  {
    "postcode": "59368",
    "city": "Unna"
  },
  {
    "postcode": "59379",
    "city": "Cappenberg"
  },
  {
    "postcode": "59379",
    "city": "Selm"
  },
  {
    "postcode": "59379",
    "city": "Ternsche"
  },
  {
    "postcode": "59379",
    "city": "Westerfelde"
  },
  {
    "postcode": "59379",
    "city": "Unna"
  },
  {
    "postcode": "59379",
    "city": "Bork"
  },
  {
    "postcode": "59387",
    "city": "Ascheberg"
  },
  {
    "postcode": "59387",
    "city": "Ascheberg Westfalen"
  },
  {
    "postcode": "59387",
    "city": "Davensberg"
  },
  {
    "postcode": "59387",
    "city": "Herbern Gemeinde Ascheberg Kreis Coesfeld"
  },
  {
    "postcode": "59387",
    "city": "Herbern"
  },
  {
    "postcode": "59387",
    "city": "Coesfeld"
  },
  {
    "postcode": "59394",
    "city": "Berger"
  },
  {
    "postcode": "59394",
    "city": "Nordkirchen"
  },
  {
    "postcode": "59394",
    "city": "Piekenbrock"
  },
  {
    "postcode": "59394",
    "city": "Südkirchen"
  },
  {
    "postcode": "59394",
    "city": "Coesfeld"
  },
  {
    "postcode": "59394",
    "city": "Capelle"
  },
  {
    "postcode": "59399",
    "city": "Benthof Kreis Lüdinghausen"
  },
  {
    "postcode": "59399",
    "city": "Benthof"
  },
  {
    "postcode": "59399",
    "city": "Olfen"
  },
  {
    "postcode": "59399",
    "city": "Olfen Westfalen"
  },
  {
    "postcode": "59399",
    "city": "Vinnum"
  },
  {
    "postcode": "59399",
    "city": "Coesfeld"
  },
  {
    "postcode": "59423",
    "city": "Uelzen über Unna"
  },
  {
    "postcode": "59423",
    "city": "Unna"
  },
  {
    "postcode": "59423",
    "city": "Uelzen"
  },
  {
    "postcode": "59425",
    "city": "Afferde Kreis Unna"
  },
  {
    "postcode": "59425",
    "city": "Afferde"
  },
  {
    "postcode": "59425",
    "city": "Königsborn"
  },
  {
    "postcode": "59425",
    "city": "Massen"
  },
  {
    "postcode": "59425",
    "city": "Mühlhausen Kreis Unna"
  },
  {
    "postcode": "59425",
    "city": "Mühlhausen"
  },
  {
    "postcode": "59425",
    "city": "Uelzen über Unna"
  },
  {
    "postcode": "59425",
    "city": "Unna"
  },
  {
    "postcode": "59425",
    "city": "Uelzen"
  },
  {
    "postcode": "59425",
    "city": "Alte Heide"
  },
  {
    "postcode": "59427",
    "city": "Billmerich"
  },
  {
    "postcode": "59427",
    "city": "Hemmerde"
  },
  {
    "postcode": "59427",
    "city": "Kessebüren"
  },
  {
    "postcode": "59427",
    "city": "Lünern"
  },
  {
    "postcode": "59427",
    "city": "Massen"
  },
  {
    "postcode": "59427",
    "city": "Mühlhausen Kreis Unna"
  },
  {
    "postcode": "59427",
    "city": "Mühlhausen"
  },
  {
    "postcode": "59427",
    "city": "Siddinghausen über Unna"
  },
  {
    "postcode": "59427",
    "city": "Stockum Kreis Unna"
  },
  {
    "postcode": "59427",
    "city": "Stockum"
  },
  {
    "postcode": "59427",
    "city": "Unna"
  },
  {
    "postcode": "59427",
    "city": "Massen-Nord"
  },
  {
    "postcode": "59427",
    "city": "Siddinghausen"
  },
  {
    "postcode": "59439",
    "city": "Hengsen"
  },
  {
    "postcode": "59439",
    "city": "Holzwickede"
  },
  {
    "postcode": "59439",
    "city": "Opherdicke"
  },
  {
    "postcode": "59439",
    "city": "Unna"
  },
  {
    "postcode": "59457",
    "city": "Blumenthal Westfalen"
  },
  {
    "postcode": "59457",
    "city": "Blumenthal"
  },
  {
    "postcode": "59457",
    "city": "Budberg Westfalen"
  },
  {
    "postcode": "59457",
    "city": "Budberg"
  },
  {
    "postcode": "59457",
    "city": "Büderich Westfalen"
  },
  {
    "postcode": "59457",
    "city": "Büderich"
  },
  {
    "postcode": "59457",
    "city": "Hilbeck"
  },
  {
    "postcode": "59457",
    "city": "Holtum Westfalen"
  },
  {
    "postcode": "59457",
    "city": "Holtum"
  },
  {
    "postcode": "59457",
    "city": "Mawicke"
  },
  {
    "postcode": "59457",
    "city": "Sönnern"
  },
  {
    "postcode": "59457",
    "city": "Werl"
  },
  {
    "postcode": "59457",
    "city": "Westönnen"
  },
  {
    "postcode": "59457",
    "city": "Soest"
  },
  {
    "postcode": "59457",
    "city": "Niederbergstraße"
  },
  {
    "postcode": "59457",
    "city": "Oberbergstraße"
  },
  {
    "postcode": "59469",
    "city": "Bilme"
  },
  {
    "postcode": "59469",
    "city": "Bittingen"
  },
  {
    "postcode": "59469",
    "city": "Bremen Westfalen"
  },
  {
    "postcode": "59469",
    "city": "Bremen"
  },
  {
    "postcode": "59469",
    "city": "Ense"
  },
  {
    "postcode": "59469",
    "city": "Gerlingen bei Werl Westfalen"
  },
  {
    "postcode": "59469",
    "city": "Gerlingen bei Werl"
  },
  {
    "postcode": "59469",
    "city": "Höingen Westfalen"
  },
  {
    "postcode": "59469",
    "city": "Höingen"
  },
  {
    "postcode": "59469",
    "city": "Hünningen"
  },
  {
    "postcode": "59469",
    "city": "Lüttringen"
  },
  {
    "postcode": "59469",
    "city": "Niederense Westfalen"
  },
  {
    "postcode": "59469",
    "city": "Niederense"
  },
  {
    "postcode": "59469",
    "city": "Oberense Westfalen"
  },
  {
    "postcode": "59469",
    "city": "Oberense"
  },
  {
    "postcode": "59469",
    "city": "Parsit Westfalen"
  },
  {
    "postcode": "59469",
    "city": "Parsit"
  },
  {
    "postcode": "59469",
    "city": "Ruhne"
  },
  {
    "postcode": "59469",
    "city": "Sieveringen"
  },
  {
    "postcode": "59469",
    "city": "Vierhausen"
  },
  {
    "postcode": "59469",
    "city": "Volbringen"
  },
  {
    "postcode": "59469",
    "city": "Waltringen"
  },
  {
    "postcode": "59469",
    "city": "Soest"
  },
  {
    "postcode": "59469",
    "city": "Gerlingen"
  },
  {
    "postcode": "59494",
    "city": "Ampen"
  },
  {
    "postcode": "59494",
    "city": "Bergede"
  },
  {
    "postcode": "59494",
    "city": "Deiringsen"
  },
  {
    "postcode": "59494",
    "city": "Enkesen bei Paradiese Kreis Soest Westfalen"
  },
  {
    "postcode": "59494",
    "city": "Enkesen bei Paradiese"
  },
  {
    "postcode": "59494",
    "city": "Epsingsen"
  },
  {
    "postcode": "59494",
    "city": "Hattrop"
  },
  {
    "postcode": "59494",
    "city": "Hattropholsen"
  },
  {
    "postcode": "59494",
    "city": "Hiddingsen Westfalen"
  },
  {
    "postcode": "59494",
    "city": "Hiddingsen"
  },
  {
    "postcode": "59494",
    "city": "Katrop"
  },
  {
    "postcode": "59494",
    "city": "Lendringsen Kreis Soest Westfalen"
  },
  {
    "postcode": "59494",
    "city": "Lendringsen"
  },
  {
    "postcode": "59494",
    "city": "Meckingsen"
  },
  {
    "postcode": "59494",
    "city": "Meiningsen"
  },
  {
    "postcode": "59494",
    "city": "Müllingsen"
  },
  {
    "postcode": "59494",
    "city": "Ostönnen"
  },
  {
    "postcode": "59494",
    "city": "Paradiese Kreis Soest Westfalen"
  },
  {
    "postcode": "59494",
    "city": "Paradiese"
  },
  {
    "postcode": "59494",
    "city": "Röllingsen"
  },
  {
    "postcode": "59494",
    "city": "Ruploh Westfalen"
  },
  {
    "postcode": "59494",
    "city": "Ruploh"
  },
  {
    "postcode": "59494",
    "city": "Soest"
  },
  {
    "postcode": "59494",
    "city": "Soest Westfalen"
  },
  {
    "postcode": "59494",
    "city": "Thöningsen"
  },
  {
    "postcode": "59494",
    "city": "Enkesen"
  },
  {
    "postcode": "59505",
    "city": "Bad Sassendorf"
  },
  {
    "postcode": "59505",
    "city": "Bettinghausen"
  },
  {
    "postcode": "59505",
    "city": "Beusingsen"
  },
  {
    "postcode": "59505",
    "city": "Elfsen"
  },
  {
    "postcode": "59505",
    "city": "Enkesen im Klei"
  },
  {
    "postcode": "59505",
    "city": "Heppen"
  },
  {
    "postcode": "59505",
    "city": "Herringsen"
  },
  {
    "postcode": "59505",
    "city": "Lohne Kreis Soest Westfalen"
  },
  {
    "postcode": "59505",
    "city": "Lohne"
  },
  {
    "postcode": "59505",
    "city": "Neuengeseke"
  },
  {
    "postcode": "59505",
    "city": "Opmünden"
  },
  {
    "postcode": "59505",
    "city": "Ostinghausen"
  },
  {
    "postcode": "59505",
    "city": "Weslarn"
  },
  {
    "postcode": "59505",
    "city": "Soest"
  },
  {
    "postcode": "59510",
    "city": "Brockhausen Kreis Soest Westfalen"
  },
  {
    "postcode": "59510",
    "city": "Brockhausen"
  },
  {
    "postcode": "59510",
    "city": "Heintrop"
  },
  {
    "postcode": "59510",
    "city": "Herzfeld Westfalen"
  },
  {
    "postcode": "59510",
    "city": "Herzfeld"
  },
  {
    "postcode": "59510",
    "city": "Hovestadt"
  },
  {
    "postcode": "59510",
    "city": "Hultrop"
  },
  {
    "postcode": "59510",
    "city": "Krewinkel"
  },
  {
    "postcode": "59510",
    "city": "Lippborg"
  },
  {
    "postcode": "59510",
    "city": "Lippetal"
  },
  {
    "postcode": "59510",
    "city": "Niederbauer"
  },
  {
    "postcode": "59510",
    "city": "Nordwald"
  },
  {
    "postcode": "59510",
    "city": "Oestinghausen"
  },
  {
    "postcode": "59510",
    "city": "Schoneberg"
  },
  {
    "postcode": "59510",
    "city": "Soest"
  },
  {
    "postcode": "59510",
    "city": "Heintrop-Büninghausen"
  },
  {
    "postcode": "59514",
    "city": "Balksen"
  },
  {
    "postcode": "59514",
    "city": "Berwicke"
  },
  {
    "postcode": "59514",
    "city": "Blumroth"
  },
  {
    "postcode": "59514",
    "city": "Borgeln"
  },
  {
    "postcode": "59514",
    "city": "Dinker"
  },
  {
    "postcode": "59514",
    "city": "Dorfwelver"
  },
  {
    "postcode": "59514",
    "city": "Ehningsen"
  },
  {
    "postcode": "59514",
    "city": "Einecke"
  },
  {
    "postcode": "59514",
    "city": "Eineckerholsen"
  },
  {
    "postcode": "59514",
    "city": "Flerke"
  },
  {
    "postcode": "59514",
    "city": "Illingen Westfalen"
  },
  {
    "postcode": "59514",
    "city": "Illingen"
  },
  {
    "postcode": "59514",
    "city": "Klotingen"
  },
  {
    "postcode": "59514",
    "city": "Merklingsen"
  },
  {
    "postcode": "59514",
    "city": "Nateln Kreis Soest Westfalen"
  },
  {
    "postcode": "59514",
    "city": "Nateln"
  },
  {
    "postcode": "59514",
    "city": "Recklingsen"
  },
  {
    "postcode": "59514",
    "city": "Scheidingen"
  },
  {
    "postcode": "59514",
    "city": "Schwefe"
  },
  {
    "postcode": "59514",
    "city": "Stocklarn"
  },
  {
    "postcode": "59514",
    "city": "Welver"
  },
  {
    "postcode": "59514",
    "city": "Soest"
  },
  {
    "postcode": "59514",
    "city": "Vellinghausen-Eilmsen"
  },
  {
    "postcode": "59519",
    "city": "Berlingsen"
  },
  {
    "postcode": "59519",
    "city": "Brüllingsen"
  },
  {
    "postcode": "59519",
    "city": "Büecke"
  },
  {
    "postcode": "59519",
    "city": "Delecke Möhnesee"
  },
  {
    "postcode": "59519",
    "city": "Delecke"
  },
  {
    "postcode": "59519",
    "city": "Echtrop"
  },
  {
    "postcode": "59519",
    "city": "Ellingsen"
  },
  {
    "postcode": "59519",
    "city": "Günne Möhnesee"
  },
  {
    "postcode": "59519",
    "city": "Günne"
  },
  {
    "postcode": "59519",
    "city": "Hewingsen"
  },
  {
    "postcode": "59519",
    "city": "Körbecke Möhnesee"
  },
  {
    "postcode": "59519",
    "city": "Körbecke"
  },
  {
    "postcode": "59519",
    "city": "Möhnesee"
  },
  {
    "postcode": "59519",
    "city": "Stockum Möhnesee"
  },
  {
    "postcode": "59519",
    "city": "Stockum"
  },
  {
    "postcode": "59519",
    "city": "Theiningsen"
  },
  {
    "postcode": "59519",
    "city": "Völlinghausen Möhnesee"
  },
  {
    "postcode": "59519",
    "city": "Völlinghausen"
  },
  {
    "postcode": "59519",
    "city": "Wamel Möhnesee"
  },
  {
    "postcode": "59519",
    "city": "Wamel"
  },
  {
    "postcode": "59519",
    "city": "Westrich"
  },
  {
    "postcode": "59519",
    "city": "Wippringsen"
  },
  {
    "postcode": "59519",
    "city": "Soest"
  },
  {
    "postcode": "59519",
    "city": "Wildebauer"
  },
  {
    "postcode": "59555",
    "city": "Lipperode"
  },
  {
    "postcode": "59555",
    "city": "Lippstadt"
  },
  {
    "postcode": "59555",
    "city": "Soest"
  },
  {
    "postcode": "59555",
    "city": "Kernstadt"
  },
  {
    "postcode": "59556",
    "city": "Bad Waldliesborn"
  },
  {
    "postcode": "59556",
    "city": "Benninghausen Kreis Lippstadt"
  },
  {
    "postcode": "59556",
    "city": "Benninghausen"
  },
  {
    "postcode": "59556",
    "city": "Cappel bei Lippstadt"
  },
  {
    "postcode": "59556",
    "city": "Eickelborn"
  },
  {
    "postcode": "59556",
    "city": "Hellinghausen Kreis Lippstadt"
  },
  {
    "postcode": "59556",
    "city": "Hellinghausen"
  },
  {
    "postcode": "59556",
    "city": "Herringhausen Kreis Lippstadt"
  },
  {
    "postcode": "59556",
    "city": "Herringhausen"
  },
  {
    "postcode": "59556",
    "city": "Lippstadt"
  },
  {
    "postcode": "59556",
    "city": "Lohe Kreis Soest Westfalen"
  },
  {
    "postcode": "59556",
    "city": "Lohe"
  },
  {
    "postcode": "59556",
    "city": "Overhagen"
  },
  {
    "postcode": "59556",
    "city": "Soest"
  },
  {
    "postcode": "59556",
    "city": "Cappel"
  },
  {
    "postcode": "59556",
    "city": "Kernstadt"
  },
  {
    "postcode": "59557",
    "city": "Lippstadt"
  },
  {
    "postcode": "59557",
    "city": "Soest"
  },
  {
    "postcode": "59557",
    "city": "Kernstadt"
  },
  {
    "postcode": "59558",
    "city": "Bad Waldliesborn"
  },
  {
    "postcode": "59558",
    "city": "Bökenförde"
  },
  {
    "postcode": "59558",
    "city": "Dedinghausen"
  },
  {
    "postcode": "59558",
    "city": "Esbeck Westfalen"
  },
  {
    "postcode": "59558",
    "city": "Esbeck"
  },
  {
    "postcode": "59558",
    "city": "Garfeln bei Lippstadt"
  },
  {
    "postcode": "59558",
    "city": "Hörste bei Lippstadt"
  },
  {
    "postcode": "59558",
    "city": "Lipperbruch"
  },
  {
    "postcode": "59558",
    "city": "Lipperode"
  },
  {
    "postcode": "59558",
    "city": "Lippstadt"
  },
  {
    "postcode": "59558",
    "city": "Rebbeke"
  },
  {
    "postcode": "59558",
    "city": "Rixbeck"
  },
  {
    "postcode": "59558",
    "city": "Soest"
  },
  {
    "postcode": "59558",
    "city": "Hörste"
  },
  {
    "postcode": "59558",
    "city": "Garfeln"
  },
  {
    "postcode": "59558",
    "city": "Kernstadt"
  },
  {
    "postcode": "59581",
    "city": "Allagen"
  },
  {
    "postcode": "59581",
    "city": "Belecke"
  },
  {
    "postcode": "59581",
    "city": "Hirschberg Westfalen"
  },
  {
    "postcode": "59581",
    "city": "Hirschberg"
  },
  {
    "postcode": "59581",
    "city": "Mülheim"
  },
  {
    "postcode": "59581",
    "city": "Niederbergheim"
  },
  {
    "postcode": "59581",
    "city": "Sichtigvor"
  },
  {
    "postcode": "59581",
    "city": "Suttrop"
  },
  {
    "postcode": "59581",
    "city": "Waldhausen Haar"
  },
  {
    "postcode": "59581",
    "city": "Waldhausen"
  },
  {
    "postcode": "59581",
    "city": "Warstein"
  },
  {
    "postcode": "59581",
    "city": "Soest"
  },
  {
    "postcode": "59581",
    "city": "Bache"
  },
  {
    "postcode": "59581",
    "city": "Oberbergheim"
  },
  {
    "postcode": "59581",
    "city": "Eickhoff"
  },
  {
    "postcode": "59581",
    "city": "Taubeneiche"
  },
  {
    "postcode": "59590",
    "city": "Bönninghausen Westfalen"
  },
  {
    "postcode": "59590",
    "city": "Bönninghausen"
  },
  {
    "postcode": "59590",
    "city": "Ehringhausen Kreis Lippstadt"
  },
  {
    "postcode": "59590",
    "city": "Ehringhausen"
  },
  {
    "postcode": "59590",
    "city": "Eringerfeld"
  },
  {
    "postcode": "59590",
    "city": "Ermsinghausen"
  },
  {
    "postcode": "59590",
    "city": "Geseke"
  },
  {
    "postcode": "59590",
    "city": "Langeneicke"
  },
  {
    "postcode": "59590",
    "city": "Mönninghausen"
  },
  {
    "postcode": "59590",
    "city": "Störmede"
  },
  {
    "postcode": "59590",
    "city": "Soest"
  },
  {
    "postcode": "59590",
    "city": "Mittelhausen"
  },
  {
    "postcode": "59590",
    "city": "Ehringhauserheide"
  },
  {
    "postcode": "59597",
    "city": "Bad Westernkotten"
  },
  {
    "postcode": "59597",
    "city": "Berenbrock Kreis Lippstadt"
  },
  {
    "postcode": "59597",
    "city": "Berenbrock"
  },
  {
    "postcode": "59597",
    "city": "Böckum"
  },
  {
    "postcode": "59597",
    "city": "Ebbinghausen Kreis Lippstadt"
  },
  {
    "postcode": "59597",
    "city": "Ebbinghausen"
  },
  {
    "postcode": "59597",
    "city": "Eikeloh"
  },
  {
    "postcode": "59597",
    "city": "Erwitte"
  },
  {
    "postcode": "59597",
    "city": "Norddorf Kreis Lippstadt"
  },
  {
    "postcode": "59597",
    "city": "Norddorf"
  },
  {
    "postcode": "59597",
    "city": "Schallern"
  },
  {
    "postcode": "59597",
    "city": "Stirpe Kreis Lippstadt"
  },
  {
    "postcode": "59597",
    "city": "Stirpe"
  },
  {
    "postcode": "59597",
    "city": "Völlinghausen Kreis Lippstadt"
  },
  {
    "postcode": "59597",
    "city": "Völlinghausen"
  },
  {
    "postcode": "59597",
    "city": "Weckinghausen"
  },
  {
    "postcode": "59597",
    "city": "Soest"
  },
  {
    "postcode": "59597",
    "city": "Schmerlecke-Seringhausen"
  },
  {
    "postcode": "59597",
    "city": "Horn-Millinghausen"
  },
  {
    "postcode": "59597",
    "city": "Merklinghausen-Wiggeringhausen"
  },
  {
    "postcode": "59597",
    "city": "Schmerlecke"
  },
  {
    "postcode": "59602",
    "city": "Altenrüthen"
  },
  {
    "postcode": "59602",
    "city": "Drewer"
  },
  {
    "postcode": "59602",
    "city": "Heidberg"
  },
  {
    "postcode": "59602",
    "city": "Hemmern"
  },
  {
    "postcode": "59602",
    "city": "Hoinkhausen"
  },
  {
    "postcode": "59602",
    "city": "Kallenhardt"
  },
  {
    "postcode": "59602",
    "city": "Kellinghausen"
  },
  {
    "postcode": "59602",
    "city": "Kneblinghausen"
  },
  {
    "postcode": "59602",
    "city": "Meiste"
  },
  {
    "postcode": "59602",
    "city": "Menzel"
  },
  {
    "postcode": "59602",
    "city": "Nettelstädt"
  },
  {
    "postcode": "59602",
    "city": "Oestereiden"
  },
  {
    "postcode": "59602",
    "city": "Rüthen"
  },
  {
    "postcode": "59602",
    "city": "Weickede"
  },
  {
    "postcode": "59602",
    "city": "Westereiden"
  },
  {
    "postcode": "59602",
    "city": "Soest"
  },
  {
    "postcode": "59602",
    "city": "Langenstraße-Heddinghausen"
  },
  {
    "postcode": "59609",
    "city": "Altengeseke"
  },
  {
    "postcode": "59609",
    "city": "Altenmellrich"
  },
  {
    "postcode": "59609",
    "city": "Anröchte"
  },
  {
    "postcode": "59609",
    "city": "Berge Kreis Lippstadt"
  },
  {
    "postcode": "59609",
    "city": "Berge"
  },
  {
    "postcode": "59609",
    "city": "Effeln"
  },
  {
    "postcode": "59609",
    "city": "Klieve"
  },
  {
    "postcode": "59609",
    "city": "Mellrich"
  },
  {
    "postcode": "59609",
    "city": "Robringhausen"
  },
  {
    "postcode": "59609",
    "city": "Uelde"
  },
  {
    "postcode": "59609",
    "city": "Waltringhausen Kreis Lippstadt"
  },
  {
    "postcode": "59609",
    "city": "Waltringhausen"
  },
  {
    "postcode": "59609",
    "city": "Soest"
  },
  {
    "postcode": "59755",
    "city": "Arnsberg Westfalen"
  },
  {
    "postcode": "59755",
    "city": "Arnsberg"
  },
  {
    "postcode": "59755",
    "city": "Neheim-Hüsten"
  },
  {
    "postcode": "59755",
    "city": "Hochsauerlandkreis"
  },
  {
    "postcode": "59755",
    "city": "Moosfelde"
  },
  {
    "postcode": "59755",
    "city": "Neheim"
  },
  {
    "postcode": "59757",
    "city": "Arnsberg"
  },
  {
    "postcode": "59757",
    "city": "Arnsberg Westfalen"
  },
  {
    "postcode": "59757",
    "city": "Bachum Sauerland"
  },
  {
    "postcode": "59757",
    "city": "Bachum"
  },
  {
    "postcode": "59757",
    "city": "Bergheim"
  },
  {
    "postcode": "59757",
    "city": "Herdringen"
  },
  {
    "postcode": "59757",
    "city": "Holzen bei Neheim-Hüsten"
  },
  {
    "postcode": "59757",
    "city": "Müschede"
  },
  {
    "postcode": "59757",
    "city": "Neheim-Hüsten"
  },
  {
    "postcode": "59757",
    "city": "Voßwinkel Westfalen"
  },
  {
    "postcode": "59757",
    "city": "Voßwinkel"
  },
  {
    "postcode": "59757",
    "city": "Hochsauerlandkreis"
  },
  {
    "postcode": "59757",
    "city": "Holzen"
  },
  {
    "postcode": "59759",
    "city": "Arnsberg Westfalen"
  },
  {
    "postcode": "59759",
    "city": "Arnsberg"
  },
  {
    "postcode": "59759",
    "city": "Bruchhausen Ruhr"
  },
  {
    "postcode": "59759",
    "city": "Bruchhausen"
  },
  {
    "postcode": "59759",
    "city": "Herdringen"
  },
  {
    "postcode": "59759",
    "city": "Neheim-Hüsten"
  },
  {
    "postcode": "59759",
    "city": "Niedereimer"
  },
  {
    "postcode": "59759",
    "city": "Hochsauerlandkreis"
  },
  {
    "postcode": "59759",
    "city": "Hüsten"
  },
  {
    "postcode": "59821",
    "city": "Arnsberg"
  },
  {
    "postcode": "59821",
    "city": "Arnsberg Westfalen"
  },
  {
    "postcode": "59821",
    "city": "Niedereimer"
  },
  {
    "postcode": "59821",
    "city": "Rumbeck Sauerland"
  },
  {
    "postcode": "59821",
    "city": "Rumbeck"
  },
  {
    "postcode": "59821",
    "city": "Wennigloh"
  },
  {
    "postcode": "59821",
    "city": "Hochsauerlandkreis"
  },
  {
    "postcode": "59823",
    "city": "Arnsberg"
  },
  {
    "postcode": "59823",
    "city": "Arnsberg Westfalen"
  },
  {
    "postcode": "59823",
    "city": "Breitenbruch Sauerland"
  },
  {
    "postcode": "59823",
    "city": "Breitenbruch"
  },
  {
    "postcode": "59823",
    "city": "Niedereimer"
  },
  {
    "postcode": "59823",
    "city": "Oeventrop Sauerland"
  },
  {
    "postcode": "59823",
    "city": "Oeventrop"
  },
  {
    "postcode": "59823",
    "city": "Rumbeck Sauerland"
  },
  {
    "postcode": "59823",
    "city": "Rumbeck"
  },
  {
    "postcode": "59823",
    "city": "Uentrop Sauerland"
  },
  {
    "postcode": "59823",
    "city": "Uentrop"
  },
  {
    "postcode": "59823",
    "city": "Hochsauerlandkreis"
  },
  {
    "postcode": "59823",
    "city": "Wildshausen"
  },
  {
    "postcode": "59846",
    "city": "Allendorf Sauerland"
  },
  {
    "postcode": "59846",
    "city": "Allendorf"
  },
  {
    "postcode": "59846",
    "city": "Altenhellefeld"
  },
  {
    "postcode": "59846",
    "city": "Amecke Sorpesee"
  },
  {
    "postcode": "59846",
    "city": "Amecke"
  },
  {
    "postcode": "59846",
    "city": "Endorf Sauerland"
  },
  {
    "postcode": "59846",
    "city": "Endorf"
  },
  {
    "postcode": "59846",
    "city": "Enkhausen bei Neheim-Hüsten"
  },
  {
    "postcode": "59846",
    "city": "Hachen Sauerland"
  },
  {
    "postcode": "59846",
    "city": "Hachen"
  },
  {
    "postcode": "59846",
    "city": "Hagen Sorpetal"
  },
  {
    "postcode": "59846",
    "city": "Hagen"
  },
  {
    "postcode": "59846",
    "city": "Hellefeld"
  },
  {
    "postcode": "59846",
    "city": "Hövel Sauerland"
  },
  {
    "postcode": "59846",
    "city": "Hövel"
  },
  {
    "postcode": "59846",
    "city": "Langscheid Sorpesee"
  },
  {
    "postcode": "59846",
    "city": "Langscheid"
  },
  {
    "postcode": "59846",
    "city": "Linnepe"
  },
  {
    "postcode": "59846",
    "city": "Meinkenbracht Sauerland"
  },
  {
    "postcode": "59846",
    "city": "Meinkenbracht"
  },
  {
    "postcode": "59846",
    "city": "Recklinghausen Sauerland"
  },
  {
    "postcode": "59846",
    "city": "Recklinghausen"
  },
  {
    "postcode": "59846",
    "city": "Stemel"
  },
  {
    "postcode": "59846",
    "city": "Stockum Sauerland"
  },
  {
    "postcode": "59846",
    "city": "Stockum"
  },
  {
    "postcode": "59846",
    "city": "Sundern"
  },
  {
    "postcode": "59846",
    "city": "Sundern (Sauerland)"
  },
  {
    "postcode": "59846",
    "city": "Westenfeld Sauerland"
  },
  {
    "postcode": "59846",
    "city": "Westenfeld"
  },
  {
    "postcode": "59846",
    "city": "Hochsauerlandkreis"
  },
  {
    "postcode": "59846",
    "city": "Enkhausen"
  },
  {
    "postcode": "59872",
    "city": "Baldeborn"
  },
  {
    "postcode": "59872",
    "city": "Berghausen"
  },
  {
    "postcode": "59872",
    "city": "Beringhausen Kreis Meschede"
  },
  {
    "postcode": "59872",
    "city": "Beringhausen"
  },
  {
    "postcode": "59872",
    "city": "Blüggelscheidt"
  },
  {
    "postcode": "59872",
    "city": "Brumlingsen Sauerland"
  },
  {
    "postcode": "59872",
    "city": "Brumlingsen"
  },
  {
    "postcode": "59872",
    "city": "Calle Kreis Meschede"
  },
  {
    "postcode": "59872",
    "city": "Calle"
  },
  {
    "postcode": "59872",
    "city": "Drasenbeck Kreis Meschede"
  },
  {
    "postcode": "59872",
    "city": "Drasenbeck"
  },
  {
    "postcode": "59872",
    "city": "Enkhausen Kreis Meschede"
  },
  {
    "postcode": "59872",
    "city": "Enkhausen"
  },
  {
    "postcode": "59872",
    "city": "Enste"
  },
  {
    "postcode": "59872",
    "city": "Erflinghausen"
  },
  {
    "postcode": "59872",
    "city": "Eversberg Kreis Meschede"
  },
  {
    "postcode": "59872",
    "city": "Eversberg"
  },
  {
    "postcode": "59872",
    "city": "Freienohl Sauerland"
  },
  {
    "postcode": "59872",
    "city": "Freienohl"
  },
  {
    "postcode": "59872",
    "city": "Frenkhausen"
  },
  {
    "postcode": "59872",
    "city": "Galiläa"
  },
  {
    "postcode": "59872",
    "city": "Grevenstein"
  },
  {
    "postcode": "59872",
    "city": "Heggen Kreis Meschede"
  },
  {
    "postcode": "59872",
    "city": "Heggen"
  },
  {
    "postcode": "59872",
    "city": "Höringhausen Kreis Meschede"
  },
  {
    "postcode": "59872",
    "city": "Höringhausen"
  },
  {
    "postcode": "59872",
    "city": "Klause"
  },
  {
    "postcode": "59872",
    "city": "Köttinghausen Kreis Meschede"
  },
  {
    "postcode": "59872",
    "city": "Köttinghausen"
  },
  {
    "postcode": "59872",
    "city": "Laer"
  },
  {
    "postcode": "59872",
    "city": "Löllinghausen"
  },
  {
    "postcode": "59872",
    "city": "Löttmaringhausen"
  },
  {
    "postcode": "59872",
    "city": "Meschede"
  },
  {
    "postcode": "59872",
    "city": "Mielinghausen Kreis Meschede"
  },
  {
    "postcode": "59872",
    "city": "Mielinghausen"
  },
  {
    "postcode": "59872",
    "city": "Mosebolle"
  },
  {
    "postcode": "59872",
    "city": "Mülsborn"
  },
  {
    "postcode": "59872",
    "city": "Olpe Kreis Meschede"
  },
  {
    "postcode": "59872",
    "city": "Olpe"
  },
  {
    "postcode": "59872",
    "city": "Remblinghausen"
  },
  {
    "postcode": "59872",
    "city": "Schederberge"
  },
  {
    "postcode": "59872",
    "city": "Schüren"
  },
  {
    "postcode": "59872",
    "city": "Stockhausen Kreis Meschede"
  },
  {
    "postcode": "59872",
    "city": "Stockhausen"
  },
  {
    "postcode": "59872",
    "city": "Vellinghausen"
  },
  {
    "postcode": "59872",
    "city": "Visbeck Sauerland"
  },
  {
    "postcode": "59872",
    "city": "Visbeck"
  },
  {
    "postcode": "59872",
    "city": "Wallen Kreis Meschede"
  },
  {
    "postcode": "59872",
    "city": "Wallen"
  },
  {
    "postcode": "59872",
    "city": "Wehrstapel Kreis Meschede"
  },
  {
    "postcode": "59872",
    "city": "Wehrstapel"
  },
  {
    "postcode": "59872",
    "city": "Wennemen"
  },
  {
    "postcode": "59872",
    "city": "Hochsauerlandkreis"
  },
  {
    "postcode": "59872",
    "city": "Berge"
  },
  {
    "postcode": "59872",
    "city": "Bonacker"
  },
  {
    "postcode": "59872",
    "city": "Windhäuser"
  },
  {
    "postcode": "59872",
    "city": "Einhaus"
  },
  {
    "postcode": "59872",
    "city": "Frielinghausen"
  },
  {
    "postcode": "59872",
    "city": "Heinrichsthal"
  },
  {
    "postcode": "59872",
    "city": "Wildshausen"
  },
  {
    "postcode": "59872",
    "city": "Horbach"
  },
  {
    "postcode": "59872",
    "city": "Immenhausen"
  },
  {
    "postcode": "59872",
    "city": "Köpperkopf"
  },
  {
    "postcode": "59872",
    "city": "Kotthof"
  },
  {
    "postcode": "59872",
    "city": "Obermielinghausen"
  },
  {
    "postcode": "59872",
    "city": "Wulstern"
  },
  {
    "postcode": "59889",
    "city": "Bremke Kreis Meschede"
  },
  {
    "postcode": "59889",
    "city": "Bremke"
  },
  {
    "postcode": "59889",
    "city": "Bremscheid Sauerland"
  },
  {
    "postcode": "59889",
    "city": "Bremscheid"
  },
  {
    "postcode": "59889",
    "city": "Cobbenrode Sauerland"
  },
  {
    "postcode": "59889",
    "city": "Cobbenrode"
  },
  {
    "postcode": "59889",
    "city": "Eslohe"
  },
  {
    "postcode": "59889",
    "city": "Eslohe (Sauerland)"
  },
  {
    "postcode": "59889",
    "city": "Hengsbeck Sauerland"
  },
  {
    "postcode": "59889",
    "city": "Hengsbeck"
  },
  {
    "postcode": "59889",
    "city": "Isingheim Sauerland"
  },
  {
    "postcode": "59889",
    "city": "Isingheim"
  },
  {
    "postcode": "59889",
    "city": "Lüdingheim Sauerland"
  },
  {
    "postcode": "59889",
    "city": "Lüdingheim"
  },
  {
    "postcode": "59889",
    "city": "Niederlandenbeck Sauerland"
  },
  {
    "postcode": "59889",
    "city": "Niederlandenbeck"
  },
  {
    "postcode": "59889",
    "city": "Niedersalwey"
  },
  {
    "postcode": "59889",
    "city": "Oberlandenbeck Sauerland"
  },
  {
    "postcode": "59889",
    "city": "Oberlandenbeck"
  },
  {
    "postcode": "59889",
    "city": "Obersalwey"
  },
  {
    "postcode": "59889",
    "city": "Reiste Sauerland"
  },
  {
    "postcode": "59889",
    "city": "Reiste"
  },
  {
    "postcode": "59889",
    "city": "Sallinghausen Sauerland"
  },
  {
    "postcode": "59889",
    "city": "Sallinghausen"
  },
  {
    "postcode": "59889",
    "city": "Wenholthausen Sauerland"
  },
  {
    "postcode": "59889",
    "city": "Wenholthausen"
  },
  {
    "postcode": "59889",
    "city": "Hochsauerlandkreis"
  },
  {
    "postcode": "59889",
    "city": "Kückelheim"
  },
  {
    "postcode": "59909",
    "city": "Alfert"
  },
  {
    "postcode": "59909",
    "city": "Andreasberg Sauerland"
  },
  {
    "postcode": "59909",
    "city": "Andreasberg"
  },
  {
    "postcode": "59909",
    "city": "Berlar"
  },
  {
    "postcode": "59909",
    "city": "Bestwig"
  },
  {
    "postcode": "59909",
    "city": "Borghausen"
  },
  {
    "postcode": "59909",
    "city": "Föckinghausen"
  },
  {
    "postcode": "59909",
    "city": "Grimlinghausen"
  },
  {
    "postcode": "59909",
    "city": "Halbeswig"
  },
  {
    "postcode": "59909",
    "city": "Heringhausen Sauerland"
  },
  {
    "postcode": "59909",
    "city": "Heringhausen"
  },
  {
    "postcode": "59909",
    "city": "Nuttlar"
  },
  {
    "postcode": "59909",
    "city": "Ostwig"
  },
  {
    "postcode": "59909",
    "city": "Ramsbeck"
  },
  {
    "postcode": "59909",
    "city": "Valme"
  },
  {
    "postcode": "59909",
    "city": "Velmede"
  },
  {
    "postcode": "59909",
    "city": "Wasserfall Sauerland"
  },
  {
    "postcode": "59909",
    "city": "Wasserfall"
  },
  {
    "postcode": "59909",
    "city": "Hochsauerlandkreis"
  },
  {
    "postcode": "59909",
    "city": "Untervalme"
  },
  {
    "postcode": "59909",
    "city": "Schwabenberg"
  },
  {
    "postcode": "59909",
    "city": "Valmepochwerk"
  },
  {
    "postcode": "59929",
    "city": "Alme"
  },
  {
    "postcode": "59929",
    "city": "Altenbüren"
  },
  {
    "postcode": "59929",
    "city": "Bontkirchen"
  },
  {
    "postcode": "59929",
    "city": "Brilon"
  },
  {
    "postcode": "59929",
    "city": "Brilon-Wald"
  },
  {
    "postcode": "59929",
    "city": "Esshoff"
  },
  {
    "postcode": "59929",
    "city": "Hoppecke"
  },
  {
    "postcode": "59929",
    "city": "Madfeld"
  },
  {
    "postcode": "59929",
    "city": "Messinghausen"
  },
  {
    "postcode": "59929",
    "city": "Nehden"
  },
  {
    "postcode": "59929",
    "city": "Radlinghausen"
  },
  {
    "postcode": "59929",
    "city": "Rixen"
  },
  {
    "postcode": "59929",
    "city": "Rösenbeck"
  },
  {
    "postcode": "59929",
    "city": "Scharfenberg Kreis Brilon"
  },
  {
    "postcode": "59929",
    "city": "Scharfenberg"
  },
  {
    "postcode": "59929",
    "city": "Thülen"
  },
  {
    "postcode": "59929",
    "city": "Wülfte"
  },
  {
    "postcode": "59929",
    "city": "Hochsauerlandkreis"
  },
  {
    "postcode": "59929",
    "city": "Gudenhagen-Petersborn"
  },
  {
    "postcode": "59929",
    "city": "Pulvermühle"
  },
  {
    "postcode": "59929",
    "city": "Gemeinde Diemelsee"
  },
  {
    "postcode": "59939",
    "city": "Antfeld"
  },
  {
    "postcode": "59939",
    "city": "Assinghausen"
  },
  {
    "postcode": "59939",
    "city": "Bigge"
  },
  {
    "postcode": "59939",
    "city": "Bruchhausen Steine"
  },
  {
    "postcode": "59939",
    "city": "Bruchhausen"
  },
  {
    "postcode": "59939",
    "city": "Brunskappel"
  },
  {
    "postcode": "59939",
    "city": "Elleringhausen Sauerland"
  },
  {
    "postcode": "59939",
    "city": "Elleringhausen"
  },
  {
    "postcode": "59939",
    "city": "Elpe"
  },
  {
    "postcode": "59939",
    "city": "Gevelinghausen"
  },
  {
    "postcode": "59939",
    "city": "Heinrichsdorf Sauerland"
  },
  {
    "postcode": "59939",
    "city": "Heinrichsdorf"
  },
  {
    "postcode": "59939",
    "city": "Helmeringhausen"
  },
  {
    "postcode": "59939",
    "city": "Olsberg"
  },
  {
    "postcode": "59939",
    "city": "Wiemeringhausen"
  },
  {
    "postcode": "59939",
    "city": "Wulmeringhausen"
  },
  {
    "postcode": "59939",
    "city": "Hochsauerlandkreis"
  },
  {
    "postcode": "59955",
    "city": "Altastenberg"
  },
  {
    "postcode": "59955",
    "city": "Altenfeld"
  },
  {
    "postcode": "59955",
    "city": "Elkeringhausen"
  },
  {
    "postcode": "59955",
    "city": "Grönebach"
  },
  {
    "postcode": "59955",
    "city": "Hildfeld"
  },
  {
    "postcode": "59955",
    "city": "Hoheleye"
  },
  {
    "postcode": "59955",
    "city": "Langewiese"
  },
  {
    "postcode": "59955",
    "city": "Lenneplätze"
  },
  {
    "postcode": "59955",
    "city": "Mollseifen"
  },
  {
    "postcode": "59955",
    "city": "Neuastenberg"
  },
  {
    "postcode": "59955",
    "city": "Niedersfeld"
  },
  {
    "postcode": "59955",
    "city": "Siedlinghausen"
  },
  {
    "postcode": "59955",
    "city": "Silbach Sauerland"
  },
  {
    "postcode": "59955",
    "city": "Silbach"
  },
  {
    "postcode": "59955",
    "city": "Winterberg Westfalen"
  },
  {
    "postcode": "59955",
    "city": "Winterberg"
  },
  {
    "postcode": "59955",
    "city": "Züschen Westfalen"
  },
  {
    "postcode": "59955",
    "city": "Züschen"
  },
  {
    "postcode": "59955",
    "city": "Hochsauerlandkreis"
  },
  {
    "postcode": "59964",
    "city": "Berge Sauerland"
  },
  {
    "postcode": "59964",
    "city": "Berge"
  },
  {
    "postcode": "59964",
    "city": "Deifeld"
  },
  {
    "postcode": "59964",
    "city": "Dreislar"
  },
  {
    "postcode": "59964",
    "city": "Düdinghausen"
  },
  {
    "postcode": "59964",
    "city": "Küstelberg"
  },
  {
    "postcode": "59964",
    "city": "Medebach"
  },
  {
    "postcode": "59964",
    "city": "Medelon"
  },
  {
    "postcode": "59964",
    "city": "Oberschledorn"
  },
  {
    "postcode": "59964",
    "city": "Referinghausen"
  },
  {
    "postcode": "59964",
    "city": "Titmaringhausen"
  },
  {
    "postcode": "59964",
    "city": "Hochsauerlandkreis"
  },
  {
    "postcode": "59969",
    "city": "Braunshausen Sauerland"
  },
  {
    "postcode": "59969",
    "city": "Braunshausen"
  },
  {
    "postcode": "59969",
    "city": "Bromskirchen"
  },
  {
    "postcode": "59969",
    "city": "Hallenberg"
  },
  {
    "postcode": "59969",
    "city": "Hesborn"
  },
  {
    "postcode": "59969",
    "city": "Liesen"
  },
  {
    "postcode": "59969",
    "city": "Neuludwigsdorf"
  },
  {
    "postcode": "59969",
    "city": "Somplar"
  },
  {
    "postcode": "59969",
    "city": "Hochsauerlandkreis"
  },
  {
    "postcode": "59969",
    "city": "Seibelsbach"
  }
]