[
  {
    "postcode": "3042",
    "city": "Branitz"
  },
  {
    "postcode": "3042",
    "city": "Cottbus"
  },
  {
    "postcode": "3042",
    "city": "Merzdorf Niederlausitz"
  },
  {
    "postcode": "3042",
    "city": "Merzdorf"
  },
  {
    "postcode": "3042",
    "city": "Sandow"
  },
  {
    "postcode": "3042",
    "city": "Mitte"
  },
  {
    "postcode": "3044",
    "city": "Cottbus"
  },
  {
    "postcode": "3044",
    "city": "Schmellwitz"
  },
  {
    "postcode": "3044",
    "city": "Saspow"
  },
  {
    "postcode": "3044",
    "city": "Mitte"
  },
  {
    "postcode": "3044",
    "city": "Ströbitz"
  },
  {
    "postcode": "3046",
    "city": "Cottbus"
  },
  {
    "postcode": "3046",
    "city": "Spremberger Vorstadt"
  },
  {
    "postcode": "3046",
    "city": "Mitte"
  },
  {
    "postcode": "3046",
    "city": "Ströbitz"
  },
  {
    "postcode": "3048",
    "city": "Cottbus"
  },
  {
    "postcode": "3048",
    "city": "Sachsendorf"
  },
  {
    "postcode": "3048",
    "city": "Spremberger Vorstadt"
  },
  {
    "postcode": "3048",
    "city": "Ströbitz"
  },
  {
    "postcode": "3048",
    "city": "Madlow"
  },
  {
    "postcode": "3050",
    "city": "Cottbus"
  },
  {
    "postcode": "3050",
    "city": "Madlow"
  },
  {
    "postcode": "3050",
    "city": "Sachsendorf"
  },
  {
    "postcode": "3050",
    "city": "Spremberger Vorstadt"
  },
  {
    "postcode": "3051",
    "city": "Cottbus"
  },
  {
    "postcode": "3051",
    "city": "Kahren"
  },
  {
    "postcode": "3051",
    "city": "Gallinchen"
  },
  {
    "postcode": "3051",
    "city": "Kiekebusch"
  },
  {
    "postcode": "3051",
    "city": "Groß Gaglow"
  },
  {
    "postcode": "3052",
    "city": "Cottbus"
  },
  {
    "postcode": "3052",
    "city": "Dissenchen"
  },
  {
    "postcode": "3053",
    "city": "Cottbus"
  },
  {
    "postcode": "3053",
    "city": "Willmersdorf Niederlausitz"
  },
  {
    "postcode": "3053",
    "city": "Willmersdorf"
  },
  {
    "postcode": "3054",
    "city": "Cottbus"
  },
  {
    "postcode": "3054",
    "city": "Döbbrick"
  },
  {
    "postcode": "3054",
    "city": "Skadow"
  },
  {
    "postcode": "3055",
    "city": "Cottbus"
  },
  {
    "postcode": "3055",
    "city": "Sielow"
  },
  {
    "postcode": "3058",
    "city": "Frauendorf Niederlausitz"
  },
  {
    "postcode": "3058",
    "city": "Frauendorf"
  },
  {
    "postcode": "3058",
    "city": "Gablenz Niederlausitz"
  },
  {
    "postcode": "3058",
    "city": "Gablenz"
  },
  {
    "postcode": "3058",
    "city": "Gallinchen"
  },
  {
    "postcode": "3058",
    "city": "Groß Döbbern"
  },
  {
    "postcode": "3058",
    "city": "Groß Gaglow"
  },
  {
    "postcode": "3058",
    "city": "Groß Oßnig"
  },
  {
    "postcode": "3058",
    "city": "Haasow"
  },
  {
    "postcode": "3058",
    "city": "Kathlow"
  },
  {
    "postcode": "3058",
    "city": "Kiekebusch Niederlausitz"
  },
  {
    "postcode": "3058",
    "city": "Kiekebusch"
  },
  {
    "postcode": "3058",
    "city": "Klein Döbbern"
  },
  {
    "postcode": "3058",
    "city": "Komptendorf"
  },
  {
    "postcode": "3058",
    "city": "Koppatz"
  },
  {
    "postcode": "3058",
    "city": "Laubsdorf"
  },
  {
    "postcode": "3058",
    "city": "Leuthen"
  },
  {
    "postcode": "3058",
    "city": "Neuhausen / Spree"
  },
  {
    "postcode": "3058",
    "city": "Neuhausen"
  },
  {
    "postcode": "3058",
    "city": "Roggosen"
  },
  {
    "postcode": "3058",
    "city": "Schorbus"
  },
  {
    "postcode": "3058",
    "city": "Sergen"
  },
  {
    "postcode": "3058",
    "city": "Spree-Neiße"
  },
  {
    "postcode": "3058",
    "city": "Cottbus"
  },
  {
    "postcode": "3058",
    "city": "Neuhausen/Spree"
  },
  {
    "postcode": "3058",
    "city": "Drieschnitz"
  },
  {
    "postcode": "3058",
    "city": "Bagenz"
  },
  {
    "postcode": "3058",
    "city": "Kahsel"
  },
  {
    "postcode": "3096",
    "city": "Brahmow"
  },
  {
    "postcode": "3096",
    "city": "Briesen Niederlausitz"
  },
  {
    "postcode": "3096",
    "city": "Briesen"
  },
  {
    "postcode": "3096",
    "city": "Burg (Spreewald)"
  },
  {
    "postcode": "3096",
    "city": "Burg"
  },
  {
    "postcode": "3096",
    "city": "Dissen Niederlausitz"
  },
  {
    "postcode": "3096",
    "city": "Dissen"
  },
  {
    "postcode": "3096",
    "city": "Dissen-Striesow"
  },
  {
    "postcode": "3096",
    "city": "Fehrow"
  },
  {
    "postcode": "3096",
    "city": "Guhrow"
  },
  {
    "postcode": "3096",
    "city": "Müschen Niederlausitz"
  },
  {
    "postcode": "3096",
    "city": "Müschen"
  },
  {
    "postcode": "3096",
    "city": "Saccassne"
  },
  {
    "postcode": "3096",
    "city": "Schmogrow"
  },
  {
    "postcode": "3096",
    "city": "Schmogrow-Fehrow"
  },
  {
    "postcode": "3096",
    "city": "Schmogrower Bahnhof"
  },
  {
    "postcode": "3096",
    "city": "Striesow"
  },
  {
    "postcode": "3096",
    "city": "Werben (Niederlausitz)"
  },
  {
    "postcode": "3096",
    "city": "Werben"
  },
  {
    "postcode": "3096",
    "city": "Spree-Neiße"
  },
  {
    "postcode": "3096",
    "city": "Burg-Dorf"
  },
  {
    "postcode": "3096",
    "city": "Ruben"
  },
  {
    "postcode": "3099",
    "city": "Babow"
  },
  {
    "postcode": "3099",
    "city": "Eichow"
  },
  {
    "postcode": "3099",
    "city": "Glinzig"
  },
  {
    "postcode": "3099",
    "city": "Gulben"
  },
  {
    "postcode": "3099",
    "city": "Hänchen"
  },
  {
    "postcode": "3099",
    "city": "Klein Gaglow"
  },
  {
    "postcode": "3099",
    "city": "Kolkwitz Niederlausitz"
  },
  {
    "postcode": "3099",
    "city": "Kolkwitz"
  },
  {
    "postcode": "3099",
    "city": "Krieschow"
  },
  {
    "postcode": "3099",
    "city": "Limberg bei Cottbus"
  },
  {
    "postcode": "3099",
    "city": "Milkersdorf"
  },
  {
    "postcode": "3099",
    "city": "Papitz"
  },
  {
    "postcode": "3099",
    "city": "Spree-Neiße"
  },
  {
    "postcode": "3099",
    "city": "Kunersdorf"
  },
  {
    "postcode": "3099",
    "city": "Limberg"
  },
  {
    "postcode": "3099",
    "city": "Zahsow"
  },
  {
    "postcode": "3099",
    "city": "Dahlitz"
  },
  {
    "postcode": "3099",
    "city": "Brodtkowitz"
  },
  {
    "postcode": "3099",
    "city": "Wiesendorf"
  },
  {
    "postcode": "3099",
    "city": "Kackrow"
  },
  {
    "postcode": "30159",
    "city": "Bult"
  },
  {
    "postcode": "30159",
    "city": "Hannover"
  },
  {
    "postcode": "30159",
    "city": "Mitte"
  },
  {
    "postcode": "30159",
    "city": "Südstadt"
  },
  {
    "postcode": "30159",
    "city": "Bemerode"
  },
  {
    "postcode": "30159",
    "city": "Nordstadt"
  },
  {
    "postcode": "30159",
    "city": "List"
  },
  {
    "postcode": "30161",
    "city": "Hannover"
  },
  {
    "postcode": "30161",
    "city": "List"
  },
  {
    "postcode": "30161",
    "city": "Vahrenwald"
  },
  {
    "postcode": "30161",
    "city": "Oststadt"
  },
  {
    "postcode": "30161",
    "city": "Mitte"
  },
  {
    "postcode": "30163",
    "city": "Hannover"
  },
  {
    "postcode": "30163",
    "city": "List"
  },
  {
    "postcode": "30163",
    "city": "Vahrenwald"
  },
  {
    "postcode": "30165",
    "city": "Hainholz"
  },
  {
    "postcode": "30165",
    "city": "Hannover"
  },
  {
    "postcode": "30165",
    "city": "Vahrenwald"
  },
  {
    "postcode": "30165",
    "city": "Vinnhorst"
  },
  {
    "postcode": "30165",
    "city": "Burg"
  },
  {
    "postcode": "30165",
    "city": "Nordstadt"
  },
  {
    "postcode": "30167",
    "city": "Hannover"
  },
  {
    "postcode": "30167",
    "city": "Herrenhausen"
  },
  {
    "postcode": "30167",
    "city": "Nordstadt"
  },
  {
    "postcode": "30167",
    "city": "Mitte"
  },
  {
    "postcode": "30167",
    "city": "Calenberger Neustadt"
  },
  {
    "postcode": "30169",
    "city": "Hannover"
  },
  {
    "postcode": "30169",
    "city": "Calenberger Neustadt"
  },
  {
    "postcode": "30169",
    "city": "Südstadt"
  },
  {
    "postcode": "30169",
    "city": "Mitte"
  },
  {
    "postcode": "30169",
    "city": "Nordstadt"
  },
  {
    "postcode": "30169",
    "city": "Linden-Mitte"
  },
  {
    "postcode": "30171",
    "city": "Hannover"
  },
  {
    "postcode": "30171",
    "city": "Südstadt"
  },
  {
    "postcode": "30171",
    "city": "Mitte"
  },
  {
    "postcode": "30173",
    "city": "Bult"
  },
  {
    "postcode": "30173",
    "city": "Döhren"
  },
  {
    "postcode": "30173",
    "city": "Hannover"
  },
  {
    "postcode": "30173",
    "city": "Waldhausen"
  },
  {
    "postcode": "30173",
    "city": "Waldheim"
  },
  {
    "postcode": "30173",
    "city": "Südstadt"
  },
  {
    "postcode": "30175",
    "city": "Bult"
  },
  {
    "postcode": "30175",
    "city": "Hannover"
  },
  {
    "postcode": "30175",
    "city": "Zoo"
  },
  {
    "postcode": "30175",
    "city": "Mitte"
  },
  {
    "postcode": "30175",
    "city": "Oststadt"
  },
  {
    "postcode": "30175",
    "city": "Südstadt"
  },
  {
    "postcode": "30177",
    "city": "Groß Buchholz"
  },
  {
    "postcode": "30177",
    "city": "Hannover"
  },
  {
    "postcode": "30177",
    "city": "List"
  },
  {
    "postcode": "30177",
    "city": "Zoo"
  },
  {
    "postcode": "30179",
    "city": "Bothfeld"
  },
  {
    "postcode": "30179",
    "city": "Hannover"
  },
  {
    "postcode": "30179",
    "city": "List"
  },
  {
    "postcode": "30179",
    "city": "Vahrenwald"
  },
  {
    "postcode": "30179",
    "city": "Sahlkamp"
  },
  {
    "postcode": "30179",
    "city": "Vahrenheide"
  },
  {
    "postcode": "30179",
    "city": "Brink-Hafen"
  },
  {
    "postcode": "30419",
    "city": "Hainholz"
  },
  {
    "postcode": "30419",
    "city": "Hannover"
  },
  {
    "postcode": "30419",
    "city": "Herrenhausen"
  },
  {
    "postcode": "30419",
    "city": "Leinhausen"
  },
  {
    "postcode": "30419",
    "city": "Marienwerder"
  },
  {
    "postcode": "30419",
    "city": "Stöcken"
  },
  {
    "postcode": "30419",
    "city": "Vinnhorst"
  },
  {
    "postcode": "30419",
    "city": "Burg"
  },
  {
    "postcode": "30419",
    "city": "Ledeburg"
  },
  {
    "postcode": "30419",
    "city": "Nordhafen"
  },
  {
    "postcode": "30419",
    "city": "Nordstadt"
  },
  {
    "postcode": "30449",
    "city": "Hannover"
  },
  {
    "postcode": "30449",
    "city": "Linden-Süd"
  },
  {
    "postcode": "30449",
    "city": "Linden-Mitte"
  },
  {
    "postcode": "30449",
    "city": "Linden-Nord"
  },
  {
    "postcode": "30451",
    "city": "Hannover"
  },
  {
    "postcode": "30451",
    "city": "Linden-Nord"
  },
  {
    "postcode": "30451",
    "city": "Linden-Mitte"
  },
  {
    "postcode": "30453",
    "city": "Ahlem Kreis Hannover"
  },
  {
    "postcode": "30453",
    "city": "Ahlem"
  },
  {
    "postcode": "30453",
    "city": "Bornum"
  },
  {
    "postcode": "30453",
    "city": "Hannover"
  },
  {
    "postcode": "30453",
    "city": "Limmer"
  },
  {
    "postcode": "30453",
    "city": "Ricklingen"
  },
  {
    "postcode": "30453",
    "city": "Linden-Mitte"
  },
  {
    "postcode": "30453",
    "city": "Badenstedt"
  },
  {
    "postcode": "30453",
    "city": "Linden-Süd"
  },
  {
    "postcode": "30453",
    "city": "Davenstedt"
  },
  {
    "postcode": "30455",
    "city": "Badenstedt"
  },
  {
    "postcode": "30455",
    "city": "Davenstedt"
  },
  {
    "postcode": "30455",
    "city": "Hannover"
  },
  {
    "postcode": "30457",
    "city": "Hannover"
  },
  {
    "postcode": "30457",
    "city": "Wettbergen"
  },
  {
    "postcode": "30457",
    "city": "Mühlenberg"
  },
  {
    "postcode": "30457",
    "city": "Oberricklingen"
  },
  {
    "postcode": "30457",
    "city": "Bornum"
  },
  {
    "postcode": "30457",
    "city": "Ricklingen"
  },
  {
    "postcode": "30459",
    "city": "Hannover"
  },
  {
    "postcode": "30459",
    "city": "Ricklingen"
  },
  {
    "postcode": "30459",
    "city": "Oberricklingen"
  },
  {
    "postcode": "30459",
    "city": "Linden-Süd"
  },
  {
    "postcode": "30519",
    "city": "Döhren"
  },
  {
    "postcode": "30519",
    "city": "Hannover"
  },
  {
    "postcode": "30519",
    "city": "Mittelfeld"
  },
  {
    "postcode": "30519",
    "city": "Waldhausen"
  },
  {
    "postcode": "30519",
    "city": "Waldheim"
  },
  {
    "postcode": "30519",
    "city": "Wülfel"
  },
  {
    "postcode": "30519",
    "city": "Seelhorst"
  },
  {
    "postcode": "30519",
    "city": "Südstadt"
  },
  {
    "postcode": "30521",
    "city": "Bemerode"
  },
  {
    "postcode": "30521",
    "city": "Hannover"
  },
  {
    "postcode": "30521",
    "city": "Mittelfeld"
  },
  {
    "postcode": "30539",
    "city": "Bemerode"
  },
  {
    "postcode": "30539",
    "city": "Hannover"
  },
  {
    "postcode": "30539",
    "city": "Mittelfeld"
  },
  {
    "postcode": "30539",
    "city": "Wülferode"
  },
  {
    "postcode": "30539",
    "city": "Seelhorst"
  },
  {
    "postcode": "30559",
    "city": "Anderten Kreis Hannover"
  },
  {
    "postcode": "30559",
    "city": "Anderten"
  },
  {
    "postcode": "30559",
    "city": "Hannover"
  },
  {
    "postcode": "30559",
    "city": "Kirchrode"
  },
  {
    "postcode": "30559",
    "city": "Misburg-Süd"
  },
  {
    "postcode": "30559",
    "city": "Bemerode"
  },
  {
    "postcode": "30559",
    "city": "Seelhorst"
  },
  {
    "postcode": "30559",
    "city": "Waldheim"
  },
  {
    "postcode": "30559",
    "city": "Kleefeld"
  },
  {
    "postcode": "30625",
    "city": "Groß Buchholz"
  },
  {
    "postcode": "30625",
    "city": "Hannover"
  },
  {
    "postcode": "30625",
    "city": "Kleefeld"
  },
  {
    "postcode": "30625",
    "city": "Heideviertel"
  },
  {
    "postcode": "30625",
    "city": "Zoo"
  },
  {
    "postcode": "30627",
    "city": "Groß Buchholz"
  },
  {
    "postcode": "30627",
    "city": "Hannover"
  },
  {
    "postcode": "30627",
    "city": "Misburg-Nord"
  },
  {
    "postcode": "30627",
    "city": "Heideviertel"
  },
  {
    "postcode": "30629",
    "city": "Hannover"
  },
  {
    "postcode": "30629",
    "city": "Misburg-Nord"
  },
  {
    "postcode": "30629",
    "city": "Misburg-Süd"
  },
  {
    "postcode": "30655",
    "city": "Bothfeld"
  },
  {
    "postcode": "30655",
    "city": "Groß Buchholz"
  },
  {
    "postcode": "30655",
    "city": "Hannover"
  },
  {
    "postcode": "30655",
    "city": "List"
  },
  {
    "postcode": "30655",
    "city": "Misburg-Nord"
  },
  {
    "postcode": "30657",
    "city": "Bothfeld"
  },
  {
    "postcode": "30657",
    "city": "Groß Buchholz"
  },
  {
    "postcode": "30657",
    "city": "Hannover"
  },
  {
    "postcode": "30657",
    "city": "Isernhagen-Süd"
  },
  {
    "postcode": "30657",
    "city": "Sahlkamp"
  },
  {
    "postcode": "30657",
    "city": "List"
  },
  {
    "postcode": "30657",
    "city": "Lahe"
  },
  {
    "postcode": "30659",
    "city": "Bothfeld"
  },
  {
    "postcode": "30659",
    "city": "Groß Buchholz"
  },
  {
    "postcode": "30659",
    "city": "Hannover"
  },
  {
    "postcode": "30659",
    "city": "Lahe"
  },
  {
    "postcode": "30669",
    "city": "Hannover"
  },
  {
    "postcode": "30669",
    "city": "Flughafen"
  },
  {
    "postcode": "30823",
    "city": "Garbsen"
  },
  {
    "postcode": "30823",
    "city": "Havelse"
  },
  {
    "postcode": "30823",
    "city": "Hannover"
  },
  {
    "postcode": "30823",
    "city": "Altgarbsen"
  },
  {
    "postcode": "30823",
    "city": "Garbsen-Mitte"
  },
  {
    "postcode": "30823",
    "city": "Auf der Horst"
  },
  {
    "postcode": "30826",
    "city": "Frielingen bei Wunstorf"
  },
  {
    "postcode": "30826",
    "city": "Garbsen"
  },
  {
    "postcode": "30826",
    "city": "Heitlingen"
  },
  {
    "postcode": "30826",
    "city": "Horst bei Wunstorf"
  },
  {
    "postcode": "30826",
    "city": "Meyenfeld"
  },
  {
    "postcode": "30826",
    "city": "Osterwald Oberende"
  },
  {
    "postcode": "30826",
    "city": "Osterwald Unterende"
  },
  {
    "postcode": "30826",
    "city": "Hannover"
  },
  {
    "postcode": "30826",
    "city": "Horst"
  },
  {
    "postcode": "30826",
    "city": "Frielingen"
  },
  {
    "postcode": "30826",
    "city": "Osterwald U. E."
  },
  {
    "postcode": "30826",
    "city": "Osterwald O. E."
  },
  {
    "postcode": "30826",
    "city": "Schloß Ricklingen"
  },
  {
    "postcode": "30826",
    "city": "Osterwald-Oberende"
  },
  {
    "postcode": "30826",
    "city": "Osterwald-Unterende"
  },
  {
    "postcode": "30827",
    "city": "Berenbostel"
  },
  {
    "postcode": "30827",
    "city": "Garbsen"
  },
  {
    "postcode": "30827",
    "city": "Stelingen"
  },
  {
    "postcode": "30827",
    "city": "Hannover"
  },
  {
    "postcode": "30851",
    "city": "Godshorn"
  },
  {
    "postcode": "30851",
    "city": "Langenhagen Han"
  },
  {
    "postcode": "30851",
    "city": "Langenhagen"
  },
  {
    "postcode": "30851",
    "city": "Hannover"
  },
  {
    "postcode": "30851",
    "city": "Alt-Langenhagen"
  },
  {
    "postcode": "30853",
    "city": "Langenhagen Han"
  },
  {
    "postcode": "30853",
    "city": "Langenhagen"
  },
  {
    "postcode": "30853",
    "city": "Hannover"
  },
  {
    "postcode": "30853",
    "city": "Alt-Langenhagen"
  },
  {
    "postcode": "30855",
    "city": "Engelbostel"
  },
  {
    "postcode": "30855",
    "city": "Godshorn"
  },
  {
    "postcode": "30855",
    "city": "Kaltenweide"
  },
  {
    "postcode": "30855",
    "city": "Krähenwinkel"
  },
  {
    "postcode": "30855",
    "city": "Langenhagen Han"
  },
  {
    "postcode": "30855",
    "city": "Langenhagen"
  },
  {
    "postcode": "30855",
    "city": "Schulenburg Kreis Hannover"
  },
  {
    "postcode": "30855",
    "city": "Schulenburg"
  },
  {
    "postcode": "30855",
    "city": "Hannover"
  },
  {
    "postcode": "30855",
    "city": "Alt-Langenhagen"
  },
  {
    "postcode": "30880",
    "city": "Gleidingen"
  },
  {
    "postcode": "30880",
    "city": "Grasdorf Leine"
  },
  {
    "postcode": "30880",
    "city": "Grasdorf"
  },
  {
    "postcode": "30880",
    "city": "Laatzen bei Hannover"
  },
  {
    "postcode": "30880",
    "city": "Oesselse"
  },
  {
    "postcode": "30880",
    "city": "Rethen Leine"
  },
  {
    "postcode": "30880",
    "city": "Rethen"
  },
  {
    "postcode": "30880",
    "city": "Hannover"
  },
  {
    "postcode": "30880",
    "city": "Laatzen"
  },
  {
    "postcode": "30880",
    "city": "Ingeln-Oesselse"
  },
  {
    "postcode": "30880",
    "city": "Laatzen-Mitte"
  },
  {
    "postcode": "30880",
    "city": "Alt-Laatzen"
  },
  {
    "postcode": "30880",
    "city": "Ingeln"
  },
  {
    "postcode": "30890",
    "city": "Bantorf"
  },
  {
    "postcode": "30890",
    "city": "Barrigsen"
  },
  {
    "postcode": "30890",
    "city": "Barsinghausen"
  },
  {
    "postcode": "30890",
    "city": "Eckerde"
  },
  {
    "postcode": "30890",
    "city": "Egestorf am Deister"
  },
  {
    "postcode": "30890",
    "city": "Göxe"
  },
  {
    "postcode": "30890",
    "city": "Groß Munzel"
  },
  {
    "postcode": "30890",
    "city": "Großgoltern"
  },
  {
    "postcode": "30890",
    "city": "Hohenbostel am Deister"
  },
  {
    "postcode": "30890",
    "city": "Holtensen bei Wunstorf"
  },
  {
    "postcode": "30890",
    "city": "Kirchdorf am Deister"
  },
  {
    "postcode": "30890",
    "city": "Landringhausen"
  },
  {
    "postcode": "30890",
    "city": "Langreder"
  },
  {
    "postcode": "30890",
    "city": "Nordgoltern"
  },
  {
    "postcode": "30890",
    "city": "Ostermunzel"
  },
  {
    "postcode": "30890",
    "city": "Stemmen Kreis Hannover"
  },
  {
    "postcode": "30890",
    "city": "Stemmen"
  },
  {
    "postcode": "30890",
    "city": "Wichtringhausen"
  },
  {
    "postcode": "30890",
    "city": "Winninghausen am Deister"
  },
  {
    "postcode": "30890",
    "city": "Hannover"
  },
  {
    "postcode": "30890",
    "city": "Kirchdorf"
  },
  {
    "postcode": "30890",
    "city": "Egestorf"
  },
  {
    "postcode": "30890",
    "city": "Hohenbostel"
  },
  {
    "postcode": "30890",
    "city": "Holtensen"
  },
  {
    "postcode": "30890",
    "city": "Winninghausen"
  },
  {
    "postcode": "30900",
    "city": "Abbensen Han"
  },
  {
    "postcode": "30900",
    "city": "Abbensen"
  },
  {
    "postcode": "30900",
    "city": "Bennemühlen"
  },
  {
    "postcode": "30900",
    "city": "Berkhof"
  },
  {
    "postcode": "30900",
    "city": "Bissendorf Han"
  },
  {
    "postcode": "30900",
    "city": "Bissendorf"
  },
  {
    "postcode": "30900",
    "city": "Brelingen"
  },
  {
    "postcode": "30900",
    "city": "Elze"
  },
  {
    "postcode": "30900",
    "city": "Gailhof"
  },
  {
    "postcode": "30900",
    "city": "Hellendorf Han"
  },
  {
    "postcode": "30900",
    "city": "Hellendorf"
  },
  {
    "postcode": "30900",
    "city": "Meitze"
  },
  {
    "postcode": "30900",
    "city": "Mellendorf Han"
  },
  {
    "postcode": "30900",
    "city": "Mellendorf"
  },
  {
    "postcode": "30900",
    "city": "Negenborn bei Hannover"
  },
  {
    "postcode": "30900",
    "city": "Oegenbostel"
  },
  {
    "postcode": "30900",
    "city": "Resse bei Hannover"
  },
  {
    "postcode": "30900",
    "city": "Scherenbostel"
  },
  {
    "postcode": "30900",
    "city": "Wedemark"
  },
  {
    "postcode": "30900",
    "city": "Wennebostel Han"
  },
  {
    "postcode": "30900",
    "city": "Wennebostel"
  },
  {
    "postcode": "30900",
    "city": "Hannover"
  },
  {
    "postcode": "30900",
    "city": "Duden-Rodenbostel"
  },
  {
    "postcode": "30900",
    "city": "Resse"
  },
  {
    "postcode": "30900",
    "city": "Negenborn"
  },
  {
    "postcode": "30900",
    "city": "Plumhof"
  },
  {
    "postcode": "30900",
    "city": "Elzermühle"
  },
  {
    "postcode": "30916",
    "city": "Altwarmbüchen"
  },
  {
    "postcode": "30916",
    "city": "Isernhagen"
  },
  {
    "postcode": "30916",
    "city": "Kirchhorst"
  },
  {
    "postcode": "30916",
    "city": "Hannover"
  },
  {
    "postcode": "30916",
    "city": "Neuwarmbüchen"
  },
  {
    "postcode": "30916",
    "city": "Isernhagen K.B."
  },
  {
    "postcode": "30916",
    "city": "Isernhagen H.B."
  },
  {
    "postcode": "30916",
    "city": "Isernhagen N.B."
  },
  {
    "postcode": "30916",
    "city": "Isernhagen F.B."
  },
  {
    "postcode": "30916",
    "city": "Hohenhorster Bauernschaft"
  },
  {
    "postcode": "30916",
    "city": "Farster Bauernschaft"
  },
  {
    "postcode": "30916",
    "city": "Niederhägener Bauernschaft"
  },
  {
    "postcode": "30916",
    "city": "Kircher Bauernschaft"
  },
  {
    "postcode": "30926",
    "city": "Almhorst"
  },
  {
    "postcode": "30926",
    "city": "Dedensen"
  },
  {
    "postcode": "30926",
    "city": "Döteberg"
  },
  {
    "postcode": "30926",
    "city": "Gümmer"
  },
  {
    "postcode": "30926",
    "city": "Harenberg"
  },
  {
    "postcode": "30926",
    "city": "Kirchwehren"
  },
  {
    "postcode": "30926",
    "city": "Lathwehren"
  },
  {
    "postcode": "30926",
    "city": "Letter"
  },
  {
    "postcode": "30926",
    "city": "Lohnde"
  },
  {
    "postcode": "30926",
    "city": "Seelze"
  },
  {
    "postcode": "30926",
    "city": "Velber"
  },
  {
    "postcode": "30926",
    "city": "Hannover"
  },
  {
    "postcode": "30926",
    "city": "Dunau"
  },
  {
    "postcode": "30938",
    "city": "Burgwedel"
  },
  {
    "postcode": "30938",
    "city": "Engensen"
  },
  {
    "postcode": "30938",
    "city": "Fuhrberg"
  },
  {
    "postcode": "30938",
    "city": "Großburgwedel"
  },
  {
    "postcode": "30938",
    "city": "Kleinburgwedel"
  },
  {
    "postcode": "30938",
    "city": "Oldhorst"
  },
  {
    "postcode": "30938",
    "city": "Thönse"
  },
  {
    "postcode": "30938",
    "city": "Wettmar"
  },
  {
    "postcode": "30938",
    "city": "Hannover"
  },
  {
    "postcode": "30938",
    "city": "Mühlenberg"
  },
  {
    "postcode": "30952",
    "city": "Benthe"
  },
  {
    "postcode": "30952",
    "city": "Empelde"
  },
  {
    "postcode": "30952",
    "city": "Linderte"
  },
  {
    "postcode": "30952",
    "city": "Ronnenberg"
  },
  {
    "postcode": "30952",
    "city": "Vörie"
  },
  {
    "postcode": "30952",
    "city": "Weetzen"
  },
  {
    "postcode": "30952",
    "city": "Hannover"
  },
  {
    "postcode": "30952",
    "city": "Ihme-Roloven"
  },
  {
    "postcode": "30966",
    "city": "Arnum Kreis Hannover"
  },
  {
    "postcode": "30966",
    "city": "Arnum"
  },
  {
    "postcode": "30966",
    "city": "Devese"
  },
  {
    "postcode": "30966",
    "city": "Harkenbleck"
  },
  {
    "postcode": "30966",
    "city": "Hemmingen / Hannover"
  },
  {
    "postcode": "30966",
    "city": "Hemmingen"
  },
  {
    "postcode": "30966",
    "city": "Hiddestorf Kreis Hannover"
  },
  {
    "postcode": "30966",
    "city": "Hiddestorf"
  },
  {
    "postcode": "30966",
    "city": "Ohlendorf Kreis Hannover"
  },
  {
    "postcode": "30966",
    "city": "Ohlendorf"
  },
  {
    "postcode": "30966",
    "city": "Wilkenburg"
  },
  {
    "postcode": "30966",
    "city": "Hannover"
  },
  {
    "postcode": "30966",
    "city": "Hemmingen-Westerfeld"
  },
  {
    "postcode": "30974",
    "city": "Argestorf"
  },
  {
    "postcode": "30974",
    "city": "Bredenbeck am Deister"
  },
  {
    "postcode": "30974",
    "city": "Degersen"
  },
  {
    "postcode": "30974",
    "city": "Evestorf"
  },
  {
    "postcode": "30974",
    "city": "Holtensen bei Weetzen"
  },
  {
    "postcode": "30974",
    "city": "Sorsum Kreis Hannover"
  },
  {
    "postcode": "30974",
    "city": "Sorsum"
  },
  {
    "postcode": "30974",
    "city": "Steinkrug über Hannover"
  },
  {
    "postcode": "30974",
    "city": "Wennigsen"
  },
  {
    "postcode": "30974",
    "city": "Wennigsen (Deister)"
  },
  {
    "postcode": "30974",
    "city": "Wennigser Mark Deister"
  },
  {
    "postcode": "30974",
    "city": "Wennigser Mark"
  },
  {
    "postcode": "30974",
    "city": "Hannover"
  },
  {
    "postcode": "30974",
    "city": "Holtensen"
  },
  {
    "postcode": "30974",
    "city": "Bredenbeck"
  },
  {
    "postcode": "30974",
    "city": "Steinkrug"
  },
  {
    "postcode": "30982",
    "city": "Hüpede"
  },
  {
    "postcode": "30982",
    "city": "Jeinsen"
  },
  {
    "postcode": "30982",
    "city": "Koldingen Kreis Hannover"
  },
  {
    "postcode": "30982",
    "city": "Koldingen"
  },
  {
    "postcode": "30982",
    "city": "Pattensen"
  },
  {
    "postcode": "30982",
    "city": "Pattensen bei Hannover"
  },
  {
    "postcode": "30982",
    "city": "Reden"
  },
  {
    "postcode": "30982",
    "city": "Schulenburg Leine"
  },
  {
    "postcode": "30982",
    "city": "Schulenburg"
  },
  {
    "postcode": "30982",
    "city": "Vardegötzen"
  },
  {
    "postcode": "30982",
    "city": "Hannover"
  },
  {
    "postcode": "30982",
    "city": "Vardegötzen/Thiedenwiese"
  },
  {
    "postcode": "30982",
    "city": "Oerie"
  },
  {
    "postcode": "30989",
    "city": "Ditterke"
  },
  {
    "postcode": "30989",
    "city": "Everloh"
  },
  {
    "postcode": "30989",
    "city": "Gehrden"
  },
  {
    "postcode": "30989",
    "city": "Gehrden / Hannover"
  },
  {
    "postcode": "30989",
    "city": "Lemmie"
  },
  {
    "postcode": "30989",
    "city": "Lenthe"
  },
  {
    "postcode": "30989",
    "city": "Leveste"
  },
  {
    "postcode": "30989",
    "city": "Northen"
  },
  {
    "postcode": "30989",
    "city": "Redderse"
  },
  {
    "postcode": "30989",
    "city": "Hannover"
  },
  {
    "postcode": "30989",
    "city": "Erichshof"
  }
]