[
  {
    "postcode": "1067",
    "city": "Friedrichstadt"
  },
  {
    "postcode": "1067",
    "city": "Gorbitz"
  },
  {
    "postcode": "1067",
    "city": "Innere Altstadt"
  },
  {
    "postcode": "1067",
    "city": "Johannstadt"
  },
  {
    "postcode": "1067",
    "city": "Stetzsch"
  },
  {
    "postcode": "1067",
    "city": "Dresden"
  },
  {
    "postcode": "1067",
    "city": "Altstadt"
  },
  {
    "postcode": "1067",
    "city": "Wilsdruffer Vorstadt/Seevorstadt-West"
  },
  {
    "postcode": "1067",
    "city": "Wilsdruffer Vorstadt"
  },
  {
    "postcode": "1069",
    "city": "Dresden"
  },
  {
    "postcode": "1069",
    "city": "Gorbitz"
  },
  {
    "postcode": "1069",
    "city": "Innere Altstadt"
  },
  {
    "postcode": "1069",
    "city": "Johannstadt"
  },
  {
    "postcode": "1069",
    "city": "Stetzsch"
  },
  {
    "postcode": "1069",
    "city": "Altstadt"
  },
  {
    "postcode": "1069",
    "city": "Südvorstadt-West"
  },
  {
    "postcode": "1069",
    "city": "Wilsdruffer Vorstadt/Seevorstadt-West"
  },
  {
    "postcode": "1069",
    "city": "Südvorstadt-Ost"
  },
  {
    "postcode": "1069",
    "city": "Räcknitz/Zschertnitz"
  },
  {
    "postcode": "1069",
    "city": "Pirnaische Vorstadt"
  },
  {
    "postcode": "1069",
    "city": "Seevorstadt-Ost/Großer Garten"
  },
  {
    "postcode": "1069",
    "city": "Wilsdruffer Vorstadt"
  },
  {
    "postcode": "1069",
    "city": "Räcknitz"
  },
  {
    "postcode": "1069",
    "city": "Seevorstadt-Ost"
  },
  {
    "postcode": "1097",
    "city": "Dresden"
  },
  {
    "postcode": "1097",
    "city": "Gorbitz"
  },
  {
    "postcode": "1097",
    "city": "Johannstadt"
  },
  {
    "postcode": "1097",
    "city": "Stetzsch"
  },
  {
    "postcode": "1097",
    "city": "Äußere Neustadt"
  },
  {
    "postcode": "1097",
    "city": "Neustadt"
  },
  {
    "postcode": "1097",
    "city": "Innere Neustadt"
  },
  {
    "postcode": "1097",
    "city": "Leipziger Vorstadt"
  },
  {
    "postcode": "1097",
    "city": "Pieschen-Nord/Trachenberge"
  },
  {
    "postcode": "1097",
    "city": "Pieschen-Nord"
  },
  {
    "postcode": "1099",
    "city": "Dresden"
  },
  {
    "postcode": "1099",
    "city": "Gorbitz"
  },
  {
    "postcode": "1099",
    "city": "Johannstadt"
  },
  {
    "postcode": "1099",
    "city": "Stetzsch"
  },
  {
    "postcode": "1099",
    "city": "Äußere Neustadt"
  },
  {
    "postcode": "1099",
    "city": "Albertstadt"
  },
  {
    "postcode": "1099",
    "city": "Radeberger Vorstadt"
  },
  {
    "postcode": "1099",
    "city": "Neustadt"
  },
  {
    "postcode": "1099",
    "city": "Innere Neustadt"
  },
  {
    "postcode": "1099",
    "city": "Loschwitz/Wachwitz"
  },
  {
    "postcode": "1099",
    "city": "Hellerberge"
  },
  {
    "postcode": "1099",
    "city": "Dresdener Heide"
  },
  {
    "postcode": "1099",
    "city": "Leipziger Vorstadt"
  },
  {
    "postcode": "1099",
    "city": "Pieschen"
  },
  {
    "postcode": "1099",
    "city": "Loschwitz"
  },
  {
    "postcode": "10115",
    "city": "Berlin"
  },
  {
    "postcode": "10115",
    "city": "Mitte"
  },
  {
    "postcode": "10117",
    "city": "Berlin"
  },
  {
    "postcode": "10117",
    "city": "Mitte"
  },
  {
    "postcode": "10117",
    "city": "Spandau"
  },
  {
    "postcode": "10119",
    "city": "Berlin"
  },
  {
    "postcode": "10119",
    "city": "Mitte"
  },
  {
    "postcode": "10119",
    "city": "Pankow"
  },
  {
    "postcode": "10119",
    "city": "Prenzlauer Berg"
  },
  {
    "postcode": "10178",
    "city": "Berlin"
  },
  {
    "postcode": "10178",
    "city": "Mitte"
  },
  {
    "postcode": "10178",
    "city": "Britz"
  },
  {
    "postcode": "10178",
    "city": "Wedding"
  },
  {
    "postcode": "10179",
    "city": "Berlin"
  },
  {
    "postcode": "10179",
    "city": "Mitte"
  },
  {
    "postcode": "10243",
    "city": "Berlin"
  },
  {
    "postcode": "10243",
    "city": "Friedrichshain"
  },
  {
    "postcode": "10243",
    "city": "Friedrichshain-Kreuzberg"
  },
  {
    "postcode": "10243",
    "city": "Alt-Hohenschönhausen"
  },
  {
    "postcode": "10245",
    "city": "Berlin"
  },
  {
    "postcode": "10245",
    "city": "Friedrichshain"
  },
  {
    "postcode": "10245",
    "city": "Friedrichshain-Kreuzberg"
  },
  {
    "postcode": "10247",
    "city": "Berlin"
  },
  {
    "postcode": "10247",
    "city": "Friedrichshain"
  },
  {
    "postcode": "10247",
    "city": "Friedrichshain-Kreuzberg"
  },
  {
    "postcode": "10247",
    "city": "Pankow"
  },
  {
    "postcode": "10247",
    "city": "Prenzlauer Berg"
  },
  {
    "postcode": "10249",
    "city": "Berlin"
  },
  {
    "postcode": "10249",
    "city": "Friedrichshain"
  },
  {
    "postcode": "10249",
    "city": "Friedrichshain-Kreuzberg"
  },
  {
    "postcode": "10249",
    "city": "Pankow"
  },
  {
    "postcode": "10249",
    "city": "Prenzlauer Berg"
  },
  {
    "postcode": "10315",
    "city": "Berlin"
  },
  {
    "postcode": "10315",
    "city": "Friedrichsfelde"
  },
  {
    "postcode": "10315",
    "city": "Lichtenberg"
  },
  {
    "postcode": "10315",
    "city": "KGA Bielefeld"
  },
  {
    "postcode": "10315",
    "city": "Neu-Hohenschönhausen"
  },
  {
    "postcode": "10315",
    "city": "Stadtrandsiedlung Malchow"
  },
  {
    "postcode": "10315",
    "city": "Biesdorf"
  },
  {
    "postcode": "10317",
    "city": "Berlin"
  },
  {
    "postcode": "10317",
    "city": "Lichtenberg"
  },
  {
    "postcode": "10317",
    "city": "Rummelsburg"
  },
  {
    "postcode": "10317",
    "city": "Friedrichsfelde"
  },
  {
    "postcode": "10318",
    "city": "Berlin"
  },
  {
    "postcode": "10318",
    "city": "Karlshorst"
  },
  {
    "postcode": "10318",
    "city": "Lichtenberg"
  },
  {
    "postcode": "10318",
    "city": "Oberschöneweide"
  },
  {
    "postcode": "10318",
    "city": "KGA Wuhlheide Lichtenberg"
  },
  {
    "postcode": "10318",
    "city": "KGA Biesenhorst 2"
  },
  {
    "postcode": "10318",
    "city": "KGA Blockdamm"
  },
  {
    "postcode": "10319",
    "city": "Berlin"
  },
  {
    "postcode": "10319",
    "city": "Friedrichsfelde"
  },
  {
    "postcode": "10319",
    "city": "Lichtenberg"
  },
  {
    "postcode": "10365",
    "city": "Berlin"
  },
  {
    "postcode": "10365",
    "city": "Lichtenberg"
  },
  {
    "postcode": "10367",
    "city": "Berlin"
  },
  {
    "postcode": "10367",
    "city": "Lichtenberg"
  },
  {
    "postcode": "10369",
    "city": "Berlin"
  },
  {
    "postcode": "10369",
    "city": "Fennpfuhl"
  },
  {
    "postcode": "10369",
    "city": "Lichtenberg"
  },
  {
    "postcode": "10369",
    "city": "KGA Langes Höhe"
  },
  {
    "postcode": "10405",
    "city": "Berlin"
  },
  {
    "postcode": "10405",
    "city": "Pankow"
  },
  {
    "postcode": "10405",
    "city": "Prenzlauer Berg"
  },
  {
    "postcode": "10407",
    "city": "Berlin"
  },
  {
    "postcode": "10407",
    "city": "Pankow"
  },
  {
    "postcode": "10407",
    "city": "Prenzlauer Berg"
  },
  {
    "postcode": "10407",
    "city": "KGA Grönland"
  },
  {
    "postcode": "10407",
    "city": "KGA Neues Heim"
  },
  {
    "postcode": "10407",
    "city": "KGA Volkspark Prenzlauer Berg"
  },
  {
    "postcode": "10409",
    "city": "Berlin"
  },
  {
    "postcode": "10409",
    "city": "Pankow"
  },
  {
    "postcode": "10409",
    "city": "Prenzlauer Berg"
  },
  {
    "postcode": "10435",
    "city": "Berlin"
  },
  {
    "postcode": "10435",
    "city": "Pankow"
  },
  {
    "postcode": "10435",
    "city": "Prenzlauer Berg"
  },
  {
    "postcode": "10435",
    "city": "Mitte"
  },
  {
    "postcode": "10437",
    "city": "Berlin"
  },
  {
    "postcode": "10437",
    "city": "Pankow"
  },
  {
    "postcode": "10437",
    "city": "Prenzlauer Berg"
  },
  {
    "postcode": "10439",
    "city": "Berlin"
  },
  {
    "postcode": "10439",
    "city": "Pankow"
  },
  {
    "postcode": "10439",
    "city": "Prenzlauer Berg"
  },
  {
    "postcode": "10551",
    "city": "Berlin"
  },
  {
    "postcode": "10551",
    "city": "Mitte"
  },
  {
    "postcode": "10551",
    "city": "Moabit"
  },
  {
    "postcode": "10553",
    "city": "Berlin"
  },
  {
    "postcode": "10553",
    "city": "Mitte"
  },
  {
    "postcode": "10553",
    "city": "Moabit"
  },
  {
    "postcode": "10555",
    "city": "Berlin"
  },
  {
    "postcode": "10555",
    "city": "Hansaviertel"
  },
  {
    "postcode": "10555",
    "city": "Mitte"
  },
  {
    "postcode": "10555",
    "city": "Moabit"
  },
  {
    "postcode": "10555",
    "city": "Wedding"
  },
  {
    "postcode": "10557",
    "city": "Berlin"
  },
  {
    "postcode": "10557",
    "city": "Hansaviertel"
  },
  {
    "postcode": "10557",
    "city": "Mitte"
  },
  {
    "postcode": "10557",
    "city": "Moabit"
  },
  {
    "postcode": "10557",
    "city": "Tiergarten"
  },
  {
    "postcode": "10559",
    "city": "Berlin"
  },
  {
    "postcode": "10559",
    "city": "Mitte"
  },
  {
    "postcode": "10559",
    "city": "Moabit"
  },
  {
    "postcode": "10585",
    "city": "Berlin"
  },
  {
    "postcode": "10585",
    "city": "Charlottenburg"
  },
  {
    "postcode": "10585",
    "city": "Charlottenburg-Wilmersdorf"
  },
  {
    "postcode": "10587",
    "city": "Berlin"
  },
  {
    "postcode": "10587",
    "city": "Charlottenburg"
  },
  {
    "postcode": "10587",
    "city": "Charlottenburg-Wilmersdorf"
  },
  {
    "postcode": "10589",
    "city": "Berlin"
  },
  {
    "postcode": "10589",
    "city": "Charlottenburg"
  },
  {
    "postcode": "10589",
    "city": "Charlottenburg-Wilmersdorf"
  },
  {
    "postcode": "10589",
    "city": "Charlottenburg-Nord"
  },
  {
    "postcode": "10589",
    "city": "Kol. Gerickes Hof"
  },
  {
    "postcode": "10623",
    "city": "Berlin"
  },
  {
    "postcode": "10623",
    "city": "Charlottenburg"
  },
  {
    "postcode": "10623",
    "city": "Charlottenburg-Wilmersdorf"
  },
  {
    "postcode": "10623",
    "city": "Tiergarten"
  },
  {
    "postcode": "10623",
    "city": "Hansaviertel"
  },
  {
    "postcode": "10625",
    "city": "Berlin"
  },
  {
    "postcode": "10625",
    "city": "Charlottenburg"
  },
  {
    "postcode": "10625",
    "city": "Charlottenburg-Wilmersdorf"
  },
  {
    "postcode": "10627",
    "city": "Berlin"
  },
  {
    "postcode": "10627",
    "city": "Charlottenburg"
  },
  {
    "postcode": "10627",
    "city": "Charlottenburg-Wilmersdorf"
  },
  {
    "postcode": "10629",
    "city": "Berlin"
  },
  {
    "postcode": "10629",
    "city": "Charlottenburg"
  },
  {
    "postcode": "10629",
    "city": "Charlottenburg-Wilmersdorf"
  },
  {
    "postcode": "10707",
    "city": "Berlin"
  },
  {
    "postcode": "10707",
    "city": "Charlottenburg-Wilmersdorf"
  },
  {
    "postcode": "10707",
    "city": "Wilmersdorf"
  },
  {
    "postcode": "10707",
    "city": "Charlottenburg"
  },
  {
    "postcode": "10709",
    "city": "Berlin"
  },
  {
    "postcode": "10709",
    "city": "Charlottenburg-Wilmersdorf"
  },
  {
    "postcode": "10709",
    "city": "Halensee"
  },
  {
    "postcode": "10709",
    "city": "Wilmersdorf"
  },
  {
    "postcode": "10709",
    "city": "Charlottenburg"
  },
  {
    "postcode": "10709",
    "city": "Schmargendorf"
  },
  {
    "postcode": "10711",
    "city": "Berlin"
  },
  {
    "postcode": "10711",
    "city": "Charlottenburg-Wilmersdorf"
  },
  {
    "postcode": "10711",
    "city": "Halensee"
  },
  {
    "postcode": "10711",
    "city": "Charlottenburg"
  },
  {
    "postcode": "10711",
    "city": "Grunewald"
  },
  {
    "postcode": "10711",
    "city": "Wilmersdorf"
  },
  {
    "postcode": "10711",
    "city": "Schmargendorf"
  },
  {
    "postcode": "10713",
    "city": "Berlin"
  },
  {
    "postcode": "10713",
    "city": "Charlottenburg-Wilmersdorf"
  },
  {
    "postcode": "10713",
    "city": "Wilmersdorf"
  },
  {
    "postcode": "10713",
    "city": "Halensee"
  },
  {
    "postcode": "10713",
    "city": "Schmargendorf"
  },
  {
    "postcode": "10715",
    "city": "Berlin"
  },
  {
    "postcode": "10715",
    "city": "Charlottenburg-Wilmersdorf"
  },
  {
    "postcode": "10715",
    "city": "Wilmersdorf"
  },
  {
    "postcode": "10717",
    "city": "Berlin"
  },
  {
    "postcode": "10717",
    "city": "Charlottenburg-Wilmersdorf"
  },
  {
    "postcode": "10717",
    "city": "Wilmersdorf"
  },
  {
    "postcode": "10719",
    "city": "Berlin"
  },
  {
    "postcode": "10719",
    "city": "Charlottenburg-Wilmersdorf"
  },
  {
    "postcode": "10719",
    "city": "Wilmersdorf"
  },
  {
    "postcode": "10719",
    "city": "Charlottenburg"
  },
  {
    "postcode": "10777",
    "city": "Berlin"
  },
  {
    "postcode": "10777",
    "city": "Schöneberg"
  },
  {
    "postcode": "10777",
    "city": "Tempelhof-Schöneberg"
  },
  {
    "postcode": "10777",
    "city": "Wilmersdorf"
  },
  {
    "postcode": "10779",
    "city": "Berlin"
  },
  {
    "postcode": "10779",
    "city": "Schöneberg"
  },
  {
    "postcode": "10779",
    "city": "Tempelhof-Schöneberg"
  },
  {
    "postcode": "10779",
    "city": "Wilmersdorf"
  },
  {
    "postcode": "10781",
    "city": "Berlin"
  },
  {
    "postcode": "10781",
    "city": "Schöneberg"
  },
  {
    "postcode": "10781",
    "city": "Tempelhof-Schöneberg"
  },
  {
    "postcode": "10783",
    "city": "Berlin"
  },
  {
    "postcode": "10783",
    "city": "Schöneberg"
  },
  {
    "postcode": "10783",
    "city": "Tempelhof-Schöneberg"
  },
  {
    "postcode": "10785",
    "city": "Berlin"
  },
  {
    "postcode": "10785",
    "city": "Mitte"
  },
  {
    "postcode": "10785",
    "city": "Tiergarten"
  },
  {
    "postcode": "10785",
    "city": "Kreuzberg"
  },
  {
    "postcode": "10785",
    "city": "Schöneberg"
  },
  {
    "postcode": "10787",
    "city": "Berlin"
  },
  {
    "postcode": "10787",
    "city": "Mitte"
  },
  {
    "postcode": "10787",
    "city": "Schöneberg"
  },
  {
    "postcode": "10787",
    "city": "Tempelhof-Schöneberg"
  },
  {
    "postcode": "10787",
    "city": "Tiergarten"
  },
  {
    "postcode": "10787",
    "city": "Charlottenburg"
  },
  {
    "postcode": "10789",
    "city": "Berlin"
  },
  {
    "postcode": "10789",
    "city": "Schöneberg"
  },
  {
    "postcode": "10789",
    "city": "Tempelhof-Schöneberg"
  },
  {
    "postcode": "10789",
    "city": "Charlottenburg"
  },
  {
    "postcode": "10789",
    "city": "Wilmersdorf"
  },
  {
    "postcode": "10823",
    "city": "Berlin"
  },
  {
    "postcode": "10823",
    "city": "Schöneberg"
  },
  {
    "postcode": "10823",
    "city": "Tempelhof-Schöneberg"
  },
  {
    "postcode": "10825",
    "city": "Berlin"
  },
  {
    "postcode": "10825",
    "city": "Schöneberg"
  },
  {
    "postcode": "10825",
    "city": "Tempelhof-Schöneberg"
  },
  {
    "postcode": "10825",
    "city": "Wilmersdorf"
  },
  {
    "postcode": "10827",
    "city": "Berlin"
  },
  {
    "postcode": "10827",
    "city": "Schöneberg"
  },
  {
    "postcode": "10827",
    "city": "Tempelhof-Schöneberg"
  },
  {
    "postcode": "10827",
    "city": "Friedenau"
  },
  {
    "postcode": "10827",
    "city": "Dahlem"
  },
  {
    "postcode": "10829",
    "city": "Berlin"
  },
  {
    "postcode": "10829",
    "city": "Schöneberg"
  },
  {
    "postcode": "10829",
    "city": "Tempelhof-Schöneberg"
  },
  {
    "postcode": "10829",
    "city": "Tempelhof"
  },
  {
    "postcode": "10961",
    "city": "Berlin"
  },
  {
    "postcode": "10961",
    "city": "Friedrichshain-Kreuzberg"
  },
  {
    "postcode": "10961",
    "city": "Kreuzberg"
  },
  {
    "postcode": "10963",
    "city": "Berlin"
  },
  {
    "postcode": "10963",
    "city": "Friedrichshain-Kreuzberg"
  },
  {
    "postcode": "10963",
    "city": "Kreuzberg"
  },
  {
    "postcode": "10963",
    "city": "Tiergarten"
  },
  {
    "postcode": "10965",
    "city": "Berlin"
  },
  {
    "postcode": "10965",
    "city": "Friedrichshain-Kreuzberg"
  },
  {
    "postcode": "10965",
    "city": "Kreuzberg"
  },
  {
    "postcode": "10965",
    "city": "Schöneberg"
  },
  {
    "postcode": "10965",
    "city": "Neukölln"
  },
  {
    "postcode": "10965",
    "city": "Tempelhof"
  },
  {
    "postcode": "10967",
    "city": "Berlin"
  },
  {
    "postcode": "10967",
    "city": "Friedrichshain-Kreuzberg"
  },
  {
    "postcode": "10967",
    "city": "Kreuzberg"
  },
  {
    "postcode": "10967",
    "city": "Neukölln"
  },
  {
    "postcode": "10969",
    "city": "Berlin"
  },
  {
    "postcode": "10969",
    "city": "Friedrichshain-Kreuzberg"
  },
  {
    "postcode": "10969",
    "city": "Kreuzberg"
  },
  {
    "postcode": "10969",
    "city": "Mitte"
  },
  {
    "postcode": "10997",
    "city": "Berlin"
  },
  {
    "postcode": "10997",
    "city": "Friedrichshain-Kreuzberg"
  },
  {
    "postcode": "10997",
    "city": "Kreuzberg"
  },
  {
    "postcode": "10999",
    "city": "Berlin"
  },
  {
    "postcode": "10999",
    "city": "Friedrichshain-Kreuzberg"
  },
  {
    "postcode": "10999",
    "city": "Kreuzberg"
  }
]