[
  {
    "postcode": "25335",
    "city": "Altenmoor"
  },
  {
    "postcode": "25335",
    "city": "Bokholt-Hanredder"
  },
  {
    "postcode": "25335",
    "city": "Dorfreihe bei Elmshorn"
  },
  {
    "postcode": "25335",
    "city": "Elmshorn"
  },
  {
    "postcode": "25335",
    "city": "Fleien bei Elmshorn"
  },
  {
    "postcode": "25335",
    "city": "Kronsnest bei Elmshorn"
  },
  {
    "postcode": "25335",
    "city": "Moorhusen Gemeinde Neuendorf bei Elmshorn"
  },
  {
    "postcode": "25335",
    "city": "Moorhusen"
  },
  {
    "postcode": "25335",
    "city": "Neuendorf bei Elmshorn"
  },
  {
    "postcode": "25335",
    "city": "Raa-Besenbek"
  },
  {
    "postcode": "25335",
    "city": "Pinneberg"
  },
  {
    "postcode": "25335",
    "city": "Neuendorf b. Elmshorn"
  },
  {
    "postcode": "25335",
    "city": "Voßloch"
  },
  {
    "postcode": "25336",
    "city": "Elmshorn"
  },
  {
    "postcode": "25336",
    "city": "Klein Nordende"
  },
  {
    "postcode": "25336",
    "city": "Pinneberg"
  },
  {
    "postcode": "25337",
    "city": "Elmshorn"
  },
  {
    "postcode": "25337",
    "city": "Kölln-Reisiek"
  },
  {
    "postcode": "25337",
    "city": "Seeth-Ekholt"
  },
  {
    "postcode": "25337",
    "city": "Pinneberg"
  },
  {
    "postcode": "25337",
    "city": "Altenmühlen"
  },
  {
    "postcode": "25337",
    "city": "Kölln"
  },
  {
    "postcode": "25337",
    "city": "Reisiek"
  },
  {
    "postcode": "25337",
    "city": "Ekholt"
  },
  {
    "postcode": "25337",
    "city": "Seeth"
  },
  {
    "postcode": "25348",
    "city": "An der Chaussee"
  },
  {
    "postcode": "25348",
    "city": "Blomesche Wildnis"
  },
  {
    "postcode": "25348",
    "city": "Engelbrechtsche Wildnis"
  },
  {
    "postcode": "25348",
    "city": "Glückstadt"
  },
  {
    "postcode": "25348",
    "city": "Steinburg"
  },
  {
    "postcode": "25348",
    "city": "Neuendeich"
  },
  {
    "postcode": "25348",
    "city": "Am Deich"
  },
  {
    "postcode": "25348",
    "city": "Am Herzhorner Rhin"
  },
  {
    "postcode": "25348",
    "city": "Grillchaussee"
  },
  {
    "postcode": "25348",
    "city": "Herrendeich"
  },
  {
    "postcode": "25355",
    "city": "Barmstedt"
  },
  {
    "postcode": "25355",
    "city": "Bevern Holstein"
  },
  {
    "postcode": "25355",
    "city": "Bevern"
  },
  {
    "postcode": "25355",
    "city": "Bullenkuhlen"
  },
  {
    "postcode": "25355",
    "city": "Groß Offenseth-Aspern"
  },
  {
    "postcode": "25355",
    "city": "Heede bei Barmstedt"
  },
  {
    "postcode": "25355",
    "city": "Lutzhorn"
  },
  {
    "postcode": "25355",
    "city": "Pinneberg"
  },
  {
    "postcode": "25355",
    "city": "Heede"
  },
  {
    "postcode": "25358",
    "city": "Glindesmoor bei Elmshorn"
  },
  {
    "postcode": "25358",
    "city": "Hackelshörn Holstein"
  },
  {
    "postcode": "25358",
    "city": "Hackelshörn"
  },
  {
    "postcode": "25358",
    "city": "Hohenfelde bei Elmshorn"
  },
  {
    "postcode": "25358",
    "city": "Hörn bei Elmshorn"
  },
  {
    "postcode": "25358",
    "city": "Horst (Holstein)"
  },
  {
    "postcode": "25358",
    "city": "Horst"
  },
  {
    "postcode": "25358",
    "city": "Horstmoor Holstein"
  },
  {
    "postcode": "25358",
    "city": "Horstmoor"
  },
  {
    "postcode": "25358",
    "city": "Horstreihe Holstein"
  },
  {
    "postcode": "25358",
    "city": "Horstreihe"
  },
  {
    "postcode": "25358",
    "city": "Moordiek Holstein"
  },
  {
    "postcode": "25358",
    "city": "Moordiek"
  },
  {
    "postcode": "25358",
    "city": "Niederreihe bei Elmshorn"
  },
  {
    "postcode": "25358",
    "city": "Nutzwedel Holstein"
  },
  {
    "postcode": "25358",
    "city": "Nutzwedel"
  },
  {
    "postcode": "25358",
    "city": "Oberreihe bei Elmshorn"
  },
  {
    "postcode": "25358",
    "city": "Schönmoor Holstein"
  },
  {
    "postcode": "25358",
    "city": "Schönmoor"
  },
  {
    "postcode": "25358",
    "city": "Sommerland"
  },
  {
    "postcode": "25358",
    "city": "Wisch bei Elmshorn"
  },
  {
    "postcode": "25358",
    "city": "Steinburg"
  },
  {
    "postcode": "25358",
    "city": "Hohenfelde"
  },
  {
    "postcode": "25358",
    "city": "Hahnenkamp"
  },
  {
    "postcode": "25361",
    "city": "Elskop"
  },
  {
    "postcode": "25361",
    "city": "Grevenkop"
  },
  {
    "postcode": "25361",
    "city": "Krempe Holstein"
  },
  {
    "postcode": "25361",
    "city": "Krempe"
  },
  {
    "postcode": "25361",
    "city": "Muchelndorf Gemeinde Neuenbrook"
  },
  {
    "postcode": "25361",
    "city": "Muchelndorf"
  },
  {
    "postcode": "25361",
    "city": "Steinburg Holstein"
  },
  {
    "postcode": "25361",
    "city": "Steinburg"
  },
  {
    "postcode": "25361",
    "city": "Süderau"
  },
  {
    "postcode": "25361",
    "city": "Süderauerdorf"
  },
  {
    "postcode": "25364",
    "city": "Bokel bei Elmshorn"
  },
  {
    "postcode": "25364",
    "city": "Brande-Hörnerkirchen"
  },
  {
    "postcode": "25364",
    "city": "Osterhorn"
  },
  {
    "postcode": "25364",
    "city": "Westerhorn"
  },
  {
    "postcode": "25364",
    "city": "Pinneberg"
  },
  {
    "postcode": "25364",
    "city": "Bokel"
  },
  {
    "postcode": "25364",
    "city": "Hohenfelde"
  },
  {
    "postcode": "25364",
    "city": "Hörnerkirchen"
  },
  {
    "postcode": "25364",
    "city": "Brande"
  },
  {
    "postcode": "25364",
    "city": "Am Beek"
  },
  {
    "postcode": "25365",
    "city": "Klein Offenseth-Sparrieshoop"
  },
  {
    "postcode": "25365",
    "city": "Pinneberg"
  },
  {
    "postcode": "25368",
    "city": "Kiebitzreihe"
  },
  {
    "postcode": "25368",
    "city": "Steinburg"
  },
  {
    "postcode": "25370",
    "city": "Seester"
  },
  {
    "postcode": "25370",
    "city": "Seesteraudeich"
  },
  {
    "postcode": "25370",
    "city": "Pinneberg"
  },
  {
    "postcode": "25371",
    "city": "Esch"
  },
  {
    "postcode": "25371",
    "city": "Seestermühe"
  },
  {
    "postcode": "25371",
    "city": "Pinneberg"
  },
  {
    "postcode": "25373",
    "city": "Ellerhoop"
  },
  {
    "postcode": "25373",
    "city": "Pinneberg"
  },
  {
    "postcode": "25376",
    "city": "Borsfleth"
  },
  {
    "postcode": "25376",
    "city": "Borsfletherbüttel"
  },
  {
    "postcode": "25376",
    "city": "Ivenfleth"
  },
  {
    "postcode": "25376",
    "city": "Krempdorf"
  },
  {
    "postcode": "25376",
    "city": "Steinburg"
  },
  {
    "postcode": "25376",
    "city": "Eltersdorf"
  },
  {
    "postcode": "25377",
    "city": "Kollmar"
  },
  {
    "postcode": "25377",
    "city": "Steinburg"
  },
  {
    "postcode": "25379",
    "city": "Herzhorn Holstein"
  },
  {
    "postcode": "25379",
    "city": "Herzhorn"
  },
  {
    "postcode": "25379",
    "city": "Steinburg"
  },
  {
    "postcode": "25379",
    "city": "Kamerlanderdeich"
  },
  {
    "postcode": "25421",
    "city": "Pinneberg"
  },
  {
    "postcode": "25429",
    "city": "Uetersen"
  },
  {
    "postcode": "25436",
    "city": "Groß Nordende"
  },
  {
    "postcode": "25436",
    "city": "Heidgraben"
  },
  {
    "postcode": "25436",
    "city": "Moorrege bei Uetersen"
  },
  {
    "postcode": "25436",
    "city": "Neuendeich bei Uetersen"
  },
  {
    "postcode": "25436",
    "city": "Tornesch"
  },
  {
    "postcode": "25436",
    "city": "Uetersen"
  },
  {
    "postcode": "25436",
    "city": "Pinneberg"
  },
  {
    "postcode": "25436",
    "city": "Moorrege"
  },
  {
    "postcode": "25436",
    "city": "Neuendeich"
  },
  {
    "postcode": "25436",
    "city": "Esingen"
  },
  {
    "postcode": "25451",
    "city": "Quickborn Kreis Pinneberg"
  },
  {
    "postcode": "25451",
    "city": "Quickborn"
  },
  {
    "postcode": "25451",
    "city": "Pinneberg"
  },
  {
    "postcode": "25451",
    "city": "Quickborn-Heide"
  },
  {
    "postcode": "25462",
    "city": "Rellingen"
  },
  {
    "postcode": "25462",
    "city": "Pinneberg"
  },
  {
    "postcode": "25469",
    "city": "Halstenbek Holstein"
  },
  {
    "postcode": "25469",
    "city": "Halstenbek"
  },
  {
    "postcode": "25469",
    "city": "Pinneberg"
  },
  {
    "postcode": "25474",
    "city": "Bönningstedt"
  },
  {
    "postcode": "25474",
    "city": "Ellerbek Kreis Pinneberg"
  },
  {
    "postcode": "25474",
    "city": "Ellerbek"
  },
  {
    "postcode": "25474",
    "city": "Hasloh"
  },
  {
    "postcode": "25474",
    "city": "Klövensteen"
  },
  {
    "postcode": "25474",
    "city": "Pinneberg"
  },
  {
    "postcode": "25474",
    "city": "Rellingen"
  },
  {
    "postcode": "25474",
    "city": "Schwarzes Feld"
  },
  {
    "postcode": "25479",
    "city": "Ellerau Holstein"
  },
  {
    "postcode": "25479",
    "city": "Ellerau"
  },
  {
    "postcode": "25479",
    "city": "Segeberg"
  },
  {
    "postcode": "25482",
    "city": "Appen Kreis Pinneberg"
  },
  {
    "postcode": "25482",
    "city": "Appen"
  },
  {
    "postcode": "25482",
    "city": "Etz Kreis Pinneberg"
  },
  {
    "postcode": "25482",
    "city": "Etz"
  },
  {
    "postcode": "25482",
    "city": "Unterglinde"
  },
  {
    "postcode": "25482",
    "city": "Pinneberg"
  },
  {
    "postcode": "25482",
    "city": "Dorf"
  },
  {
    "postcode": "25482",
    "city": "Schäferhof"
  },
  {
    "postcode": "25485",
    "city": "Bilsen"
  },
  {
    "postcode": "25485",
    "city": "Hemdingen"
  },
  {
    "postcode": "25485",
    "city": "Langeln Kreis Pinneberg"
  },
  {
    "postcode": "25485",
    "city": "Langeln"
  },
  {
    "postcode": "25485",
    "city": "Pinneberg"
  },
  {
    "postcode": "25486",
    "city": "Alveslohe"
  },
  {
    "postcode": "25486",
    "city": "Auf der Höhe"
  },
  {
    "postcode": "25486",
    "city": "Hoffnung"
  },
  {
    "postcode": "25486",
    "city": "Kaden"
  },
  {
    "postcode": "25486",
    "city": "Wierenhorst"
  },
  {
    "postcode": "25486",
    "city": "Segeberg"
  },
  {
    "postcode": "25486",
    "city": "Hellerholz"
  },
  {
    "postcode": "25488",
    "city": "Holm Kreis Pinneberg"
  },
  {
    "postcode": "25488",
    "city": "Holm"
  },
  {
    "postcode": "25488",
    "city": "Pinneberg"
  },
  {
    "postcode": "25488",
    "city": "Katharinenhof"
  },
  {
    "postcode": "25489",
    "city": "Altenfeldsdeich"
  },
  {
    "postcode": "25489",
    "city": "Altenkoog"
  },
  {
    "postcode": "25489",
    "city": "Deichreihe"
  },
  {
    "postcode": "25489",
    "city": "Haselau"
  },
  {
    "postcode": "25489",
    "city": "Haseldorf"
  },
  {
    "postcode": "25489",
    "city": "Mühlenwurth Gemeinde Haseldorf"
  },
  {
    "postcode": "25489",
    "city": "Mühlenwurth"
  },
  {
    "postcode": "25489",
    "city": "Roßsteert"
  },
  {
    "postcode": "25489",
    "city": "Scholenfleth"
  },
  {
    "postcode": "25489",
    "city": "Pinneberg"
  },
  {
    "postcode": "25489",
    "city": "Altendeich"
  },
  {
    "postcode": "25489",
    "city": "Neuer Weg"
  },
  {
    "postcode": "25491",
    "city": "Hetlingen"
  },
  {
    "postcode": "25491",
    "city": "Pinneberg"
  },
  {
    "postcode": "25492",
    "city": "Heist"
  },
  {
    "postcode": "25492",
    "city": "Pinneberg"
  },
  {
    "postcode": "25492",
    "city": "Hetlinger Neuerkoog"
  },
  {
    "postcode": "25494",
    "city": "Borstel-Hohenraden"
  },
  {
    "postcode": "25494",
    "city": "Pinneberg"
  },
  {
    "postcode": "25495",
    "city": "Kummerfeld bei Pinneberg"
  },
  {
    "postcode": "25495",
    "city": "Pinneberg"
  },
  {
    "postcode": "25495",
    "city": "Kummerfeld"
  },
  {
    "postcode": "25497",
    "city": "Prisdorf"
  },
  {
    "postcode": "25497",
    "city": "Pinneberg"
  },
  {
    "postcode": "25499",
    "city": "Tangstedt Kreis Pinneberg"
  },
  {
    "postcode": "25499",
    "city": "Tangstedt"
  },
  {
    "postcode": "25499",
    "city": "Pinneberg"
  },
  {
    "postcode": "25524",
    "city": "Bekmünde"
  },
  {
    "postcode": "25524",
    "city": "Breitenburg"
  },
  {
    "postcode": "25524",
    "city": "Heiligenstedten"
  },
  {
    "postcode": "25524",
    "city": "Heiligenstedtenerkamp"
  },
  {
    "postcode": "25524",
    "city": "Itzehoe"
  },
  {
    "postcode": "25524",
    "city": "Julianka"
  },
  {
    "postcode": "25524",
    "city": "Kollmoor bei Itzehoe"
  },
  {
    "postcode": "25524",
    "city": "Lehmkuhl"
  },
  {
    "postcode": "25524",
    "city": "Nordoe"
  },
  {
    "postcode": "25524",
    "city": "Oelixdorf"
  },
  {
    "postcode": "25524",
    "city": "Sandweg"
  },
  {
    "postcode": "25524",
    "city": "Steinburg"
  },
  {
    "postcode": "25524",
    "city": "Kollmoor"
  },
  {
    "postcode": "25541",
    "city": "Brunsbüttel"
  },
  {
    "postcode": "25541",
    "city": "Groden"
  },
  {
    "postcode": "25541",
    "city": "Sösmenhusen"
  },
  {
    "postcode": "25541",
    "city": "Dithmarschen"
  },
  {
    "postcode": "25541",
    "city": "Blangenmoor Lehe"
  },
  {
    "postcode": "25548",
    "city": "Auufer"
  },
  {
    "postcode": "25548",
    "city": "Kellinghusen"
  },
  {
    "postcode": "25548",
    "city": "Mühlenbarbek"
  },
  {
    "postcode": "25548",
    "city": "Oeschebüttel"
  },
  {
    "postcode": "25548",
    "city": "Rosdorf Holstein"
  },
  {
    "postcode": "25548",
    "city": "Rosdorf"
  },
  {
    "postcode": "25548",
    "city": "Störkathen"
  },
  {
    "postcode": "25548",
    "city": "Wittenbergen bei Kellinghusen"
  },
  {
    "postcode": "25548",
    "city": "Wrack"
  },
  {
    "postcode": "25548",
    "city": "Steinburg"
  },
  {
    "postcode": "25548",
    "city": "Wittenbergen"
  },
  {
    "postcode": "25548",
    "city": "Springhoe"
  },
  {
    "postcode": "25548",
    "city": "Moorrege"
  },
  {
    "postcode": "25551",
    "city": "Bücken"
  },
  {
    "postcode": "25551",
    "city": "Hohenfiert"
  },
  {
    "postcode": "25551",
    "city": "Hohenlockstedt"
  },
  {
    "postcode": "25551",
    "city": "Hungriger Wolf"
  },
  {
    "postcode": "25551",
    "city": "Lockstedt Holstein"
  },
  {
    "postcode": "25551",
    "city": "Lockstedt"
  },
  {
    "postcode": "25551",
    "city": "Lohbarbek"
  },
  {
    "postcode": "25551",
    "city": "Peissen Holstein"
  },
  {
    "postcode": "25551",
    "city": "Peissen"
  },
  {
    "postcode": "25551",
    "city": "Ridders"
  },
  {
    "postcode": "25551",
    "city": "Schlotfeld"
  },
  {
    "postcode": "25551",
    "city": "Silzen"
  },
  {
    "postcode": "25551",
    "city": "Springhoe Gemeinde Oeschebüttel"
  },
  {
    "postcode": "25551",
    "city": "Springhoe"
  },
  {
    "postcode": "25551",
    "city": "Winseldorf"
  },
  {
    "postcode": "25551",
    "city": "Steinburg"
  },
  {
    "postcode": "25551",
    "city": "Peissener Pohl"
  },
  {
    "postcode": "25551",
    "city": "Kleinösau"
  },
  {
    "postcode": "25554",
    "city": "Achterhörn"
  },
  {
    "postcode": "25554",
    "city": "Averfleth Gemeinde Neuendorf bei Wilster"
  },
  {
    "postcode": "25554",
    "city": "Averfleth"
  },
  {
    "postcode": "25554",
    "city": "Bekdorf bei Wilster"
  },
  {
    "postcode": "25554",
    "city": "Dammfleth"
  },
  {
    "postcode": "25554",
    "city": "Goldbogen"
  },
  {
    "postcode": "25554",
    "city": "Hackeboe"
  },
  {
    "postcode": "25554",
    "city": "Hinter-Neuendorf"
  },
  {
    "postcode": "25554",
    "city": "Kleve bei Itzehoe"
  },
  {
    "postcode": "25554",
    "city": "Krummendiek"
  },
  {
    "postcode": "25554",
    "city": "Landrecht"
  },
  {
    "postcode": "25554",
    "city": "Moorhusen bei Wilster"
  },
  {
    "postcode": "25554",
    "city": "Neuendorf bei Wilster"
  },
  {
    "postcode": "25554",
    "city": "Neuendorf-Sachsenbande"
  },
  {
    "postcode": "25554",
    "city": "Nortorf bei Wilster"
  },
  {
    "postcode": "25554",
    "city": "Rahde bei Itzehoe"
  },
  {
    "postcode": "25554",
    "city": "Sachsenbande bei Wilster"
  },
  {
    "postcode": "25554",
    "city": "Stördorf"
  },
  {
    "postcode": "25554",
    "city": "Vorder-Neuendorf"
  },
  {
    "postcode": "25554",
    "city": "Wilster"
  },
  {
    "postcode": "25554",
    "city": "Steinburg"
  },
  {
    "postcode": "25554",
    "city": "Bekdorf"
  },
  {
    "postcode": "25554",
    "city": "Kleve"
  },
  {
    "postcode": "25554",
    "city": "Moorhusen"
  },
  {
    "postcode": "25554",
    "city": "Nortorf"
  },
  {
    "postcode": "25554",
    "city": "Poßfeld"
  },
  {
    "postcode": "25554",
    "city": "Hofweg"
  },
  {
    "postcode": "25554",
    "city": "Hove"
  },
  {
    "postcode": "25554",
    "city": "Kasenort"
  },
  {
    "postcode": "25554",
    "city": "Sachsenbande"
  },
  {
    "postcode": "25554",
    "city": "Stadtmoor"
  },
  {
    "postcode": "25557",
    "city": "Beldorf"
  },
  {
    "postcode": "25557",
    "city": "Bendorf Holstein"
  },
  {
    "postcode": "25557",
    "city": "Bendorf"
  },
  {
    "postcode": "25557",
    "city": "Bornholt Holstein"
  },
  {
    "postcode": "25557",
    "city": "Bornholt"
  },
  {
    "postcode": "25557",
    "city": "Gokels"
  },
  {
    "postcode": "25557",
    "city": "Grünental bei Albersdorf Holstein"
  },
  {
    "postcode": "25557",
    "city": "Grünental bei Albersdorf"
  },
  {
    "postcode": "25557",
    "city": "Hanerau-Hademarschen"
  },
  {
    "postcode": "25557",
    "city": "Keller Gemeinde Aasbüttel"
  },
  {
    "postcode": "25557",
    "city": "Keller"
  },
  {
    "postcode": "25557",
    "city": "Ohrsee"
  },
  {
    "postcode": "25557",
    "city": "Oldenbüttel bei Hanerau-Hademarschen"
  },
  {
    "postcode": "25557",
    "city": "Seefeld bei Hanerau-Hademarschen"
  },
  {
    "postcode": "25557",
    "city": "Steenfeld"
  },
  {
    "postcode": "25557",
    "city": "Thaden"
  },
  {
    "postcode": "25557",
    "city": "Rendsburg-Eckernförde"
  },
  {
    "postcode": "25557",
    "city": "Oldenbüttel"
  },
  {
    "postcode": "25557",
    "city": "Seefeld"
  },
  {
    "postcode": "25557",
    "city": "Grünental"
  },
  {
    "postcode": "25557",
    "city": "Oersdorf"
  },
  {
    "postcode": "25557",
    "city": "Großenbornholt"
  },
  {
    "postcode": "25557",
    "city": "Lütjenbornholt"
  },
  {
    "postcode": "25557",
    "city": "Fischerhütte"
  },
  {
    "postcode": "25557",
    "city": "Spann"
  },
  {
    "postcode": "25557",
    "city": "Wilhelmsburg"
  },
  {
    "postcode": "25557",
    "city": "Quistenhof"
  },
  {
    "postcode": "25560",
    "city": "Aasbüttel"
  },
  {
    "postcode": "25560",
    "city": "Agethorst"
  },
  {
    "postcode": "25560",
    "city": "Bokhorst bei Schenefeld"
  },
  {
    "postcode": "25560",
    "city": "Hadenfeld"
  },
  {
    "postcode": "25560",
    "city": "Kaisborstel"
  },
  {
    "postcode": "25560",
    "city": "Oldenborstel"
  },
  {
    "postcode": "25560",
    "city": "Pöschendorf"
  },
  {
    "postcode": "25560",
    "city": "Puls"
  },
  {
    "postcode": "25560",
    "city": "Schenefeld Mittelholstein"
  },
  {
    "postcode": "25560",
    "city": "Schenefeld"
  },
  {
    "postcode": "25560",
    "city": "Siezbüttel"
  },
  {
    "postcode": "25560",
    "city": "Warringholz"
  },
  {
    "postcode": "25560",
    "city": "Steinburg"
  },
  {
    "postcode": "25560",
    "city": "Bokhorst"
  },
  {
    "postcode": "25560",
    "city": "Pulserdamm"
  },
  {
    "postcode": "25560",
    "city": "Kammerhorst"
  },
  {
    "postcode": "25560",
    "city": "Ziegelei Warringholz"
  },
  {
    "postcode": "25563",
    "city": "Föhrden-Barl"
  },
  {
    "postcode": "25563",
    "city": "Hingstheide"
  },
  {
    "postcode": "25563",
    "city": "Quarnstedt bei Wrist"
  },
  {
    "postcode": "25563",
    "city": "Wrist"
  },
  {
    "postcode": "25563",
    "city": "Wulfsmoor"
  },
  {
    "postcode": "25563",
    "city": "Segeberg"
  },
  {
    "postcode": "25563",
    "city": "Quarnstedt"
  },
  {
    "postcode": "25563",
    "city": "Siebenecksknöll"
  },
  {
    "postcode": "25566",
    "city": "Lägerdorf"
  },
  {
    "postcode": "25566",
    "city": "Rethwisch bei Lägerdorf"
  },
  {
    "postcode": "25566",
    "city": "Steinburg"
  },
  {
    "postcode": "25566",
    "city": "Rethwisch"
  },
  {
    "postcode": "25569",
    "city": "Bahrenfleth"
  },
  {
    "postcode": "25569",
    "city": "Hodorf"
  },
  {
    "postcode": "25569",
    "city": "Kremperheide"
  },
  {
    "postcode": "25569",
    "city": "Krempermoor"
  },
  {
    "postcode": "25569",
    "city": "Steinburg"
  },
  {
    "postcode": "25569",
    "city": "Heiligenstedten"
  },
  {
    "postcode": "25569",
    "city": "Brokreihe"
  },
  {
    "postcode": "25569",
    "city": "Hörn"
  },
  {
    "postcode": "25572",
    "city": "Aebtissinwisch"
  },
  {
    "postcode": "25572",
    "city": "Büttel Westholst"
  },
  {
    "postcode": "25572",
    "city": "Büttel"
  },
  {
    "postcode": "25572",
    "city": "Ecklak"
  },
  {
    "postcode": "25572",
    "city": "Fiefhusen"
  },
  {
    "postcode": "25572",
    "city": "Flethsee"
  },
  {
    "postcode": "25572",
    "city": "Heideducht Holstein"
  },
  {
    "postcode": "25572",
    "city": "Heideducht"
  },
  {
    "postcode": "25572",
    "city": "Kirchducht Holstein"
  },
  {
    "postcode": "25572",
    "city": "Kirchducht"
  },
  {
    "postcode": "25572",
    "city": "Kudensee"
  },
  {
    "postcode": "25572",
    "city": "Landscheide bei Sankt Margarethen"
  },
  {
    "postcode": "25572",
    "city": "Nordbünge"
  },
  {
    "postcode": "25572",
    "city": "Sankt Margarethen"
  },
  {
    "postcode": "25572",
    "city": "Seedorf"
  },
  {
    "postcode": "25572",
    "city": "Stuven Holstein"
  },
  {
    "postcode": "25572",
    "city": "Stuven"
  },
  {
    "postcode": "25572",
    "city": "Wetterndorf"
  },
  {
    "postcode": "25572",
    "city": "Steinburg"
  },
  {
    "postcode": "25572",
    "city": "Landscheide"
  },
  {
    "postcode": "25572",
    "city": "Vaalerfeld"
  },
  {
    "postcode": "25573",
    "city": "Beidenfleth"
  },
  {
    "postcode": "25573",
    "city": "Fockendorf"
  },
  {
    "postcode": "25573",
    "city": "Groß Kampen"
  },
  {
    "postcode": "25573",
    "city": "Steinburg"
  },
  {
    "postcode": "25573",
    "city": "Dammfleth"
  },
  {
    "postcode": "25573",
    "city": "Klein Kampen"
  },
  {
    "postcode": "25575",
    "city": "Beringstedt"
  },
  {
    "postcode": "25575",
    "city": "Ostermühlen"
  },
  {
    "postcode": "25575",
    "city": "Rendsburg-Eckernförde"
  },
  {
    "postcode": "25575",
    "city": "Todenbüttel"
  },
  {
    "postcode": "25576",
    "city": "Brokdorf Holstein"
  },
  {
    "postcode": "25576",
    "city": "Brokdorf"
  },
  {
    "postcode": "25576",
    "city": "Dörferdeich Holstein"
  },
  {
    "postcode": "25576",
    "city": "Dörferdeich"
  },
  {
    "postcode": "25576",
    "city": "Osterende Holstein"
  },
  {
    "postcode": "25576",
    "city": "Osterende"
  },
  {
    "postcode": "25576",
    "city": "Siethwende Holstein"
  },
  {
    "postcode": "25576",
    "city": "Siethwende"
  },
  {
    "postcode": "25576",
    "city": "Steinburg"
  },
  {
    "postcode": "25578",
    "city": "Bockwisch"
  },
  {
    "postcode": "25578",
    "city": "Dägeling"
  },
  {
    "postcode": "25578",
    "city": "Neuenbrook Holstein"
  },
  {
    "postcode": "25578",
    "city": "Neuenbrook"
  },
  {
    "postcode": "25578",
    "city": "Wellenberg"
  },
  {
    "postcode": "25578",
    "city": "Steinburg"
  },
  {
    "postcode": "25579",
    "city": "Fitzbek"
  },
  {
    "postcode": "25579",
    "city": "Rade bei Fitzbek"
  },
  {
    "postcode": "25579",
    "city": "Steinburg"
  },
  {
    "postcode": "25579",
    "city": "Rade"
  },
  {
    "postcode": "25581",
    "city": "Hennstedt bei Itzehoe"
  },
  {
    "postcode": "25581",
    "city": "Poyenberg"
  },
  {
    "postcode": "25581",
    "city": "Seelust bei Itzehoe"
  },
  {
    "postcode": "25581",
    "city": "Steinburg"
  },
  {
    "postcode": "25581",
    "city": "Hennstedt"
  },
  {
    "postcode": "25582",
    "city": "Drage bei Hohenaspe"
  },
  {
    "postcode": "25582",
    "city": "Eversdorf"
  },
  {
    "postcode": "25582",
    "city": "Hohenaspe"
  },
  {
    "postcode": "25582",
    "city": "Kaaks"
  },
  {
    "postcode": "25582",
    "city": "Kaaksburg"
  },
  {
    "postcode": "25582",
    "city": "Looft"
  },
  {
    "postcode": "25582",
    "city": "Steinburg"
  },
  {
    "postcode": "25582",
    "city": "Drage"
  },
  {
    "postcode": "25582",
    "city": "Brömsenknöll"
  },
  {
    "postcode": "25582",
    "city": "Dragerborn"
  },
  {
    "postcode": "25582",
    "city": "Wischhof"
  },
  {
    "postcode": "25584",
    "city": "Besdorf"
  },
  {
    "postcode": "25584",
    "city": "Holstenniendorf"
  },
  {
    "postcode": "25584",
    "city": "Steinburg"
  },
  {
    "postcode": "25585",
    "city": "Lütjenwestedt"
  },
  {
    "postcode": "25585",
    "city": "Tackesdorf"
  },
  {
    "postcode": "25585",
    "city": "Rendsburg-Eckernförde"
  },
  {
    "postcode": "25585",
    "city": "Tackesdorf-Süd"
  },
  {
    "postcode": "25587",
    "city": "Münsterdorf"
  },
  {
    "postcode": "25587",
    "city": "Steinburg"
  },
  {
    "postcode": "25588",
    "city": "Huje"
  },
  {
    "postcode": "25588",
    "city": "Mehlbek"
  },
  {
    "postcode": "25588",
    "city": "Oldendorf Holstein"
  },
  {
    "postcode": "25588",
    "city": "Oldendorf"
  },
  {
    "postcode": "25588",
    "city": "Steinburg"
  },
  {
    "postcode": "25588",
    "city": "Kaisborstel"
  },
  {
    "postcode": "25588",
    "city": "Mehlbek Siedlung"
  },
  {
    "postcode": "25590",
    "city": "Osterstedt"
  },
  {
    "postcode": "25590",
    "city": "Vieh"
  },
  {
    "postcode": "25590",
    "city": "Rendsburg-Eckernförde"
  },
  {
    "postcode": "25591",
    "city": "Ottenbüttel"
  },
  {
    "postcode": "25591",
    "city": "Westermühlen"
  },
  {
    "postcode": "25591",
    "city": "Steinburg"
  },
  {
    "postcode": "25593",
    "city": "Christinenthal Holstein"
  },
  {
    "postcode": "25593",
    "city": "Christinenthal"
  },
  {
    "postcode": "25593",
    "city": "Reher Holstein"
  },
  {
    "postcode": "25593",
    "city": "Reher"
  },
  {
    "postcode": "25593",
    "city": "Steinburg"
  },
  {
    "postcode": "25594",
    "city": "Nutteln Holstein"
  },
  {
    "postcode": "25594",
    "city": "Nutteln"
  },
  {
    "postcode": "25594",
    "city": "Vaale Holstein"
  },
  {
    "postcode": "25594",
    "city": "Vaale"
  },
  {
    "postcode": "25594",
    "city": "Vaalermoor"
  },
  {
    "postcode": "25594",
    "city": "Steinburg"
  },
  {
    "postcode": "25596",
    "city": "Bokelrehm"
  },
  {
    "postcode": "25596",
    "city": "Gribbohm"
  },
  {
    "postcode": "25596",
    "city": "Nienbüttel bei Wacken"
  },
  {
    "postcode": "25596",
    "city": "Wacken"
  },
  {
    "postcode": "25596",
    "city": "Steinburg"
  },
  {
    "postcode": "25596",
    "city": "Nienbüttel"
  },
  {
    "postcode": "25596",
    "city": "Kohlenbek"
  },
  {
    "postcode": "25597",
    "city": "Breitenberg bei Itzehoe"
  },
  {
    "postcode": "25597",
    "city": "Kronsmoor bei Westermoor"
  },
  {
    "postcode": "25597",
    "city": "Moordiek bei Westermoor"
  },
  {
    "postcode": "25597",
    "city": "Moordorf bei Westermoor"
  },
  {
    "postcode": "25597",
    "city": "Westermoor Holstein"
  },
  {
    "postcode": "25597",
    "city": "Westermoor"
  },
  {
    "postcode": "25597",
    "city": "Steinburg"
  },
  {
    "postcode": "25597",
    "city": "Breitenberg"
  },
  {
    "postcode": "25597",
    "city": "Kronsmoor"
  },
  {
    "postcode": "25597",
    "city": "Moordiek"
  },
  {
    "postcode": "25597",
    "city": "Moordorf"
  },
  {
    "postcode": "25599",
    "city": "Beesen"
  },
  {
    "postcode": "25599",
    "city": "Großwisch"
  },
  {
    "postcode": "25599",
    "city": "Hollerwettern"
  },
  {
    "postcode": "25599",
    "city": "Kleinwisch"
  },
  {
    "postcode": "25599",
    "city": "Roßkopp"
  },
  {
    "postcode": "25599",
    "city": "Wewelsfleth"
  },
  {
    "postcode": "25599",
    "city": "Steinburg"
  },
  {
    "postcode": "25693",
    "city": "Gudendorf Holstein"
  },
  {
    "postcode": "25693",
    "city": "Gudendorf"
  },
  {
    "postcode": "25693",
    "city": "Hindorf"
  },
  {
    "postcode": "25693",
    "city": "Hopen"
  },
  {
    "postcode": "25693",
    "city": "Norderlandsteig Gemeinde Volsemenhusen"
  },
  {
    "postcode": "25693",
    "city": "Norderlandsteig"
  },
  {
    "postcode": "25693",
    "city": "Norderwisch"
  },
  {
    "postcode": "25693",
    "city": "Sankt Michaelisdonn"
  },
  {
    "postcode": "25693",
    "city": "Trennewurth"
  },
  {
    "postcode": "25693",
    "city": "Volsemenhusen"
  },
  {
    "postcode": "25693",
    "city": "Dithmarschen"
  },
  {
    "postcode": "25693",
    "city": "St. Michaelisdonn"
  },
  {
    "postcode": "25704",
    "city": "Ammerswurth"
  },
  {
    "postcode": "25704",
    "city": "Bargenstedt"
  },
  {
    "postcode": "25704",
    "city": "Barsfleth"
  },
  {
    "postcode": "25704",
    "city": "Christianskoog"
  },
  {
    "postcode": "25704",
    "city": "Eesch"
  },
  {
    "postcode": "25704",
    "city": "Elpersbüttel"
  },
  {
    "postcode": "25704",
    "city": "Elpersbüttelerdonn"
  },
  {
    "postcode": "25704",
    "city": "Epenwöhrden"
  },
  {
    "postcode": "25704",
    "city": "Farnewinkel"
  },
  {
    "postcode": "25704",
    "city": "Harmswöhrden"
  },
  {
    "postcode": "25704",
    "city": "Hesel"
  },
  {
    "postcode": "25704",
    "city": "Lütjenbüttel"
  },
  {
    "postcode": "25704",
    "city": "Meldorf (Holstein)"
  },
  {
    "postcode": "25704",
    "city": "Meldorf"
  },
  {
    "postcode": "25704",
    "city": "Nindorf"
  },
  {
    "postcode": "25704",
    "city": "Nindorf bei Meldorf"
  },
  {
    "postcode": "25704",
    "city": "Nordermeldorf"
  },
  {
    "postcode": "25704",
    "city": "Thalingburen"
  },
  {
    "postcode": "25704",
    "city": "Wolmersdorf"
  },
  {
    "postcode": "25704",
    "city": "Dithmarschen"
  },
  {
    "postcode": "25704",
    "city": "Dehling"
  },
  {
    "postcode": "25704",
    "city": "Epenwöhrdenerfeld"
  },
  {
    "postcode": "25704",
    "city": "Wöhrdenerhafen"
  },
  {
    "postcode": "25704",
    "city": "Barsfletherdeich"
  },
  {
    "postcode": "25709",
    "city": "Diekhusen-Fahrstedt"
  },
  {
    "postcode": "25709",
    "city": "Helse"
  },
  {
    "postcode": "25709",
    "city": "Kaiser-Wilhelm-Koog"
  },
  {
    "postcode": "25709",
    "city": "Kronprinzenkoog"
  },
  {
    "postcode": "25709",
    "city": "Marne Holstein"
  },
  {
    "postcode": "25709",
    "city": "Marne"
  },
  {
    "postcode": "25709",
    "city": "Marnerdeich"
  },
  {
    "postcode": "25709",
    "city": "Dithmarschen"
  },
  {
    "postcode": "25709",
    "city": "Krumwehl"
  },
  {
    "postcode": "25709",
    "city": "Vitt"
  },
  {
    "postcode": "25709",
    "city": "Zippelkoog"
  },
  {
    "postcode": "25709",
    "city": "Sophienkoog"
  },
  {
    "postcode": "25712",
    "city": "Brickeln"
  },
  {
    "postcode": "25712",
    "city": "Buchholz Dithmarschen"
  },
  {
    "postcode": "25712",
    "city": "Buchholz"
  },
  {
    "postcode": "25712",
    "city": "Buchholzermoor"
  },
  {
    "postcode": "25712",
    "city": "Burg (Dithmarschen)"
  },
  {
    "postcode": "25712",
    "city": "Burg"
  },
  {
    "postcode": "25712",
    "city": "Burgerfeld Dithmarschen"
  },
  {
    "postcode": "25712",
    "city": "Großenrade"
  },
  {
    "postcode": "25712",
    "city": "Hochdonn"
  },
  {
    "postcode": "25712",
    "city": "Kuden"
  },
  {
    "postcode": "25712",
    "city": "Quickborn Dithmarschen"
  },
  {
    "postcode": "25712",
    "city": "Quickborn"
  },
  {
    "postcode": "25712",
    "city": "Stubbenberg Dithmarschen"
  },
  {
    "postcode": "25712",
    "city": "Stubbenberg"
  },
  {
    "postcode": "25712",
    "city": "Dithmarschen"
  },
  {
    "postcode": "25715",
    "city": "Averlak"
  },
  {
    "postcode": "25715",
    "city": "Dingen Dithmarschen"
  },
  {
    "postcode": "25715",
    "city": "Dingen"
  },
  {
    "postcode": "25715",
    "city": "Eddelak"
  },
  {
    "postcode": "25715",
    "city": "Ramhusen"
  },
  {
    "postcode": "25715",
    "city": "Theeberg"
  },
  {
    "postcode": "25715",
    "city": "Triangel"
  },
  {
    "postcode": "25715",
    "city": "Warferdonn"
  },
  {
    "postcode": "25715",
    "city": "Dithmarschen"
  },
  {
    "postcode": "25715",
    "city": "Blangenmoorfeld"
  },
  {
    "postcode": "25715",
    "city": "Diekshörn"
  },
  {
    "postcode": "25718",
    "city": "Friedrichskoog Dithmarschen"
  },
  {
    "postcode": "25718",
    "city": "Friedrichskoog"
  },
  {
    "postcode": "25718",
    "city": "Dithmarschen"
  },
  {
    "postcode": "25718",
    "city": "Rugenort"
  },
  {
    "postcode": "25719",
    "city": "Barlt"
  },
  {
    "postcode": "25719",
    "city": "Barlterkamp"
  },
  {
    "postcode": "25719",
    "city": "Busenwurth"
  },
  {
    "postcode": "25719",
    "city": "Himmelreich"
  },
  {
    "postcode": "25719",
    "city": "Dithmarschen"
  },
  {
    "postcode": "25719",
    "city": "Barlteraltendeich"
  },
  {
    "postcode": "25719",
    "city": "Barlterhafen"
  },
  {
    "postcode": "25719",
    "city": "Barlterneuendeich"
  },
  {
    "postcode": "25719",
    "city": "Busenwurtherdeich"
  },
  {
    "postcode": "25721",
    "city": "Eggstedt Holstein"
  },
  {
    "postcode": "25721",
    "city": "Eggstedt"
  },
  {
    "postcode": "25721",
    "city": "Dithmarschen"
  },
  {
    "postcode": "25724",
    "city": "Kattrepel Dithmarschen"
  },
  {
    "postcode": "25724",
    "city": "Kattrepel"
  },
  {
    "postcode": "25724",
    "city": "Marner Neuenkoogsdeich Dithmarschen"
  },
  {
    "postcode": "25724",
    "city": "Marner Neuenkoogsdeich"
  },
  {
    "postcode": "25724",
    "city": "Neufeld Dithmarschen"
  },
  {
    "postcode": "25724",
    "city": "Neufeld"
  },
  {
    "postcode": "25724",
    "city": "Neufelderkoog"
  },
  {
    "postcode": "25724",
    "city": "Schmedeswurth"
  },
  {
    "postcode": "25724",
    "city": "Dithmarschen"
  },
  {
    "postcode": "25725",
    "city": "Bornholt Holstein"
  },
  {
    "postcode": "25725",
    "city": "Bornholt"
  },
  {
    "postcode": "25725",
    "city": "Dückerswisch Dithmarschen"
  },
  {
    "postcode": "25725",
    "city": "Dückerswisch"
  },
  {
    "postcode": "25725",
    "city": "Hohenhörn Dithmarschen"
  },
  {
    "postcode": "25725",
    "city": "Hohenhörn"
  },
  {
    "postcode": "25725",
    "city": "Nordholz Dithmarschen"
  },
  {
    "postcode": "25725",
    "city": "Nordholz"
  },
  {
    "postcode": "25725",
    "city": "Schafstedt"
  },
  {
    "postcode": "25725",
    "city": "Schafstedt Dithmarschen"
  },
  {
    "postcode": "25725",
    "city": "Dithmarschen"
  },
  {
    "postcode": "25725",
    "city": "Bornholdt"
  },
  {
    "postcode": "25727",
    "city": "Frestedt"
  },
  {
    "postcode": "25727",
    "city": "Kleinhastedt Holstein"
  },
  {
    "postcode": "25727",
    "city": "Kleinhastedt"
  },
  {
    "postcode": "25727",
    "city": "Kleinrade Holstein"
  },
  {
    "postcode": "25727",
    "city": "Kleinrade"
  },
  {
    "postcode": "25727",
    "city": "Krumstedt"
  },
  {
    "postcode": "25727",
    "city": "Süderhastedt Holstein"
  },
  {
    "postcode": "25727",
    "city": "Süderhastedt"
  },
  {
    "postcode": "25727",
    "city": "Dithmarschen"
  },
  {
    "postcode": "25729",
    "city": "Windbergen"
  },
  {
    "postcode": "25729",
    "city": "Dithmarschen"
  },
  {
    "postcode": "25746",
    "city": "Dellweg Gemeinde Heide"
  },
  {
    "postcode": "25746",
    "city": "Dellweg"
  },
  {
    "postcode": "25746",
    "city": "Heide / Holstein"
  },
  {
    "postcode": "25746",
    "city": "Heide"
  },
  {
    "postcode": "25746",
    "city": "Hochfeld Holstein"
  },
  {
    "postcode": "25746",
    "city": "Hochfeld"
  },
  {
    "postcode": "25746",
    "city": "Lohe-Rickelshof"
  },
  {
    "postcode": "25746",
    "city": "Norderwöhrden"
  },
  {
    "postcode": "25746",
    "city": "Ostrohe"
  },
  {
    "postcode": "25746",
    "city": "Süderholm über Heide Holstein"
  },
  {
    "postcode": "25746",
    "city": "Süderholm über Heide"
  },
  {
    "postcode": "25746",
    "city": "Wesseln Dithmarschen"
  },
  {
    "postcode": "25746",
    "city": "Wesseln"
  },
  {
    "postcode": "25746",
    "city": "Dithmarschen"
  },
  {
    "postcode": "25746",
    "city": "Süderholm"
  },
  {
    "postcode": "25761",
    "city": "Büsum"
  },
  {
    "postcode": "25761",
    "city": "Büsumer Deichhausen"
  },
  {
    "postcode": "25761",
    "city": "Erlengrund"
  },
  {
    "postcode": "25761",
    "city": "Groven Gemeinde Büsum"
  },
  {
    "postcode": "25761",
    "city": "Groven"
  },
  {
    "postcode": "25761",
    "city": "Hedwigenkoog"
  },
  {
    "postcode": "25761",
    "city": "Oesterdeichstrich"
  },
  {
    "postcode": "25761",
    "city": "Warwerort"
  },
  {
    "postcode": "25761",
    "city": "Westerdeichstrich"
  },
  {
    "postcode": "25761",
    "city": "Dithmarschen"
  },
  {
    "postcode": "25761",
    "city": "Hirtenstall"
  },
  {
    "postcode": "25764",
    "city": "Friedrichsgabekoog"
  },
  {
    "postcode": "25764",
    "city": "Hellschen-Heringsand-Unterschaar"
  },
  {
    "postcode": "25764",
    "city": "Hillgroven"
  },
  {
    "postcode": "25764",
    "city": "Norddeich Dithmarschen"
  },
  {
    "postcode": "25764",
    "city": "Norddeich"
  },
  {
    "postcode": "25764",
    "city": "Oesterwurth"
  },
  {
    "postcode": "25764",
    "city": "Reinsbüttel"
  },
  {
    "postcode": "25764",
    "city": "Schülp Dithmarschen"
  },
  {
    "postcode": "25764",
    "city": "Schülp"
  },
  {
    "postcode": "25764",
    "city": "Schülperweide Dithmarschen"
  },
  {
    "postcode": "25764",
    "city": "Schülperweide"
  },
  {
    "postcode": "25764",
    "city": "Süderdeich Dithmarschen"
  },
  {
    "postcode": "25764",
    "city": "Süderdeich"
  },
  {
    "postcode": "25764",
    "city": "Weidehof"
  },
  {
    "postcode": "25764",
    "city": "Wesselburen"
  },
  {
    "postcode": "25764",
    "city": "Wesselburener Deichhausen"
  },
  {
    "postcode": "25764",
    "city": "Wesselburenerkoog"
  },
  {
    "postcode": "25764",
    "city": "Dithmarschen"
  },
  {
    "postcode": "25764",
    "city": "Hellschen-Heringsand-Unterscha"
  },
  {
    "postcode": "25764",
    "city": "Heringsand"
  },
  {
    "postcode": "25764",
    "city": "Hellschen"
  },
  {
    "postcode": "25764",
    "city": "Hartenkröge"
  },
  {
    "postcode": "25767",
    "city": "Albersdorf Holstein"
  },
  {
    "postcode": "25767",
    "city": "Albersdorf"
  },
  {
    "postcode": "25767",
    "city": "Arkebek"
  },
  {
    "postcode": "25767",
    "city": "Bunsoh Dithmarschen"
  },
  {
    "postcode": "25767",
    "city": "Bunsoh"
  },
  {
    "postcode": "25767",
    "city": "Christianshütte"
  },
  {
    "postcode": "25767",
    "city": "Dammsknöll"
  },
  {
    "postcode": "25767",
    "city": "Heinkenstruck Gemeinde Offenbüttel"
  },
  {
    "postcode": "25767",
    "city": "Heinkenstruck"
  },
  {
    "postcode": "25767",
    "city": "Hinrichshörn"
  },
  {
    "postcode": "25767",
    "city": "Immenstedt bei Albersdorf"
  },
  {
    "postcode": "25767",
    "city": "Jützbüttel"
  },
  {
    "postcode": "25767",
    "city": "Nordheide"
  },
  {
    "postcode": "25767",
    "city": "Offenbüttel"
  },
  {
    "postcode": "25767",
    "city": "Osterrade"
  },
  {
    "postcode": "25767",
    "city": "Osterrade Dithmarschen"
  },
  {
    "postcode": "25767",
    "city": "Röst Holstein"
  },
  {
    "postcode": "25767",
    "city": "Röst"
  },
  {
    "postcode": "25767",
    "city": "Schormoor"
  },
  {
    "postcode": "25767",
    "city": "Süderrade"
  },
  {
    "postcode": "25767",
    "city": "Tensbüttel"
  },
  {
    "postcode": "25767",
    "city": "Tensbüttel-Röst"
  },
  {
    "postcode": "25767",
    "city": "Wennbüttel"
  },
  {
    "postcode": "25767",
    "city": "Dithmarschen"
  },
  {
    "postcode": "25767",
    "city": "Grünental"
  },
  {
    "postcode": "25767",
    "city": "Immenstedt"
  },
  {
    "postcode": "25767",
    "city": "Riesewohld"
  },
  {
    "postcode": "25767",
    "city": "Bunsoherfeld"
  },
  {
    "postcode": "25767",
    "city": "Tensbüttelerfeld"
  },
  {
    "postcode": "25767",
    "city": "Lichtenhof"
  },
  {
    "postcode": "25770",
    "city": "Hemmingstedt"
  },
  {
    "postcode": "25770",
    "city": "Hohenheide"
  },
  {
    "postcode": "25770",
    "city": "Lieth"
  },
  {
    "postcode": "25770",
    "city": "Dithmarschen"
  },
  {
    "postcode": "25774",
    "city": "Groven Dithmarschen"
  },
  {
    "postcode": "25774",
    "city": "Groven"
  },
  {
    "postcode": "25774",
    "city": "Hemme Holstein"
  },
  {
    "postcode": "25774",
    "city": "Hemme"
  },
  {
    "postcode": "25774",
    "city": "Karolinenkoog"
  },
  {
    "postcode": "25774",
    "city": "Krempel Holstein"
  },
  {
    "postcode": "25774",
    "city": "Krempel"
  },
  {
    "postcode": "25774",
    "city": "Lehe Dithmarschen"
  },
  {
    "postcode": "25774",
    "city": "Lehe"
  },
  {
    "postcode": "25774",
    "city": "Lunden Holstein"
  },
  {
    "postcode": "25774",
    "city": "Lunden"
  },
  {
    "postcode": "25774",
    "city": "Nesserdeich"
  },
  {
    "postcode": "25774",
    "city": "Zennhusen"
  },
  {
    "postcode": "25774",
    "city": "Dithmarschen"
  },
  {
    "postcode": "25774",
    "city": "Dahrenwurth"
  },
  {
    "postcode": "25776",
    "city": "Bösbüttel"
  },
  {
    "postcode": "25776",
    "city": "Dammsdeich"
  },
  {
    "postcode": "25776",
    "city": "Eiderdeich"
  },
  {
    "postcode": "25776",
    "city": "Hehm"
  },
  {
    "postcode": "25776",
    "city": "Kleinmoor"
  },
  {
    "postcode": "25776",
    "city": "Nordfeld Dithmarschen"
  },
  {
    "postcode": "25776",
    "city": "Österfeld"
  },
  {
    "postcode": "25776",
    "city": "Rehm-Flehde-Bargen"
  },
  {
    "postcode": "25776",
    "city": "Sankt Annen Dithmarschen"
  },
  {
    "postcode": "25776",
    "city": "Sankt Annen"
  },
  {
    "postcode": "25776",
    "city": "Schlichting Dithmarschen"
  },
  {
    "postcode": "25776",
    "city": "Schlichting"
  },
  {
    "postcode": "25776",
    "city": "Dithmarschen"
  },
  {
    "postcode": "25776",
    "city": "Leherfeld"
  },
  {
    "postcode": "25776",
    "city": "St. Annen"
  },
  {
    "postcode": "25776",
    "city": "Lehe"
  },
  {
    "postcode": "25776",
    "city": "Bargen"
  },
  {
    "postcode": "25776",
    "city": "Westerbur"
  },
  {
    "postcode": "25779",
    "city": "Bergewöhrden"
  },
  {
    "postcode": "25779",
    "city": "Fedderingen"
  },
  {
    "postcode": "25779",
    "city": "Glüsing Dithmarschen"
  },
  {
    "postcode": "25779",
    "city": "Glüsing"
  },
  {
    "postcode": "25779",
    "city": "Hägen"
  },
  {
    "postcode": "25779",
    "city": "Hennstedt"
  },
  {
    "postcode": "25779",
    "city": "Hennstedt / Dithmarschen"
  },
  {
    "postcode": "25779",
    "city": "Horst Dithmarschen"
  },
  {
    "postcode": "25779",
    "city": "Horst"
  },
  {
    "postcode": "25779",
    "city": "Kleve Dithmarschen"
  },
  {
    "postcode": "25779",
    "city": "Kleve"
  },
  {
    "postcode": "25779",
    "city": "Kummerfeld Dithmarschen"
  },
  {
    "postcode": "25779",
    "city": "Kummerfeld"
  },
  {
    "postcode": "25779",
    "city": "Norderheistedt"
  },
  {
    "postcode": "25779",
    "city": "Östermoor Dithmarschen"
  },
  {
    "postcode": "25779",
    "city": "Östermoor"
  },
  {
    "postcode": "25779",
    "city": "Pferdekrug Dithmarschen"
  },
  {
    "postcode": "25779",
    "city": "Pferdekrug"
  },
  {
    "postcode": "25779",
    "city": "Süderheistedt"
  },
  {
    "postcode": "25779",
    "city": "Wiemerstedt"
  },
  {
    "postcode": "25779",
    "city": "Dithmarschen"
  },
  {
    "postcode": "25779",
    "city": "Schlichting"
  },
  {
    "postcode": "25779",
    "city": "Mannecker"
  },
  {
    "postcode": "25779",
    "city": "Kleverweg"
  },
  {
    "postcode": "25779",
    "city": "Nordfeld"
  },
  {
    "postcode": "25782",
    "city": "Gaushorn"
  },
  {
    "postcode": "25782",
    "city": "Hövede"
  },
  {
    "postcode": "25782",
    "city": "Kreuzberg"
  },
  {
    "postcode": "25782",
    "city": "Krim"
  },
  {
    "postcode": "25782",
    "city": "Rederstall"
  },
  {
    "postcode": "25782",
    "city": "Schalkholz"
  },
  {
    "postcode": "25782",
    "city": "Schrum Dithmarschen"
  },
  {
    "postcode": "25782",
    "city": "Schrum"
  },
  {
    "postcode": "25782",
    "city": "Steinkrug"
  },
  {
    "postcode": "25782",
    "city": "Süderdorf"
  },
  {
    "postcode": "25782",
    "city": "Tellingstedt"
  },
  {
    "postcode": "25782",
    "city": "Welmbüttel"
  },
  {
    "postcode": "25782",
    "city": "Westerborstel"
  },
  {
    "postcode": "25782",
    "city": "Dithmarschen"
  },
  {
    "postcode": "25782",
    "city": "Schelrade"
  },
  {
    "postcode": "25782",
    "city": "Lendernhude"
  },
  {
    "postcode": "25782",
    "city": "Lüdersbüttel"
  },
  {
    "postcode": "25782",
    "city": "Bergelieth"
  },
  {
    "postcode": "25782",
    "city": "Stockwedel"
  },
  {
    "postcode": "25785",
    "city": "Fiel"
  },
  {
    "postcode": "25785",
    "city": "Nordhastedt"
  },
  {
    "postcode": "25785",
    "city": "Odderade"
  },
  {
    "postcode": "25785",
    "city": "Sarzbüttel"
  },
  {
    "postcode": "25785",
    "city": "Westerwohld"
  },
  {
    "postcode": "25785",
    "city": "Dithmarschen"
  },
  {
    "postcode": "25785",
    "city": "Hohenhain"
  },
  {
    "postcode": "25786",
    "city": "Dellstedt"
  },
  {
    "postcode": "25786",
    "city": "Rethbucht"
  },
  {
    "postcode": "25786",
    "city": "Dithmarschen"
  },
  {
    "postcode": "25788",
    "city": "Delve Holstein"
  },
  {
    "postcode": "25788",
    "city": "Delve"
  },
  {
    "postcode": "25788",
    "city": "Hollingstedt bei Delve"
  },
  {
    "postcode": "25788",
    "city": "Krusenbusch Holstein"
  },
  {
    "postcode": "25788",
    "city": "Krusenbusch"
  },
  {
    "postcode": "25788",
    "city": "Langenhorn Holstein"
  },
  {
    "postcode": "25788",
    "city": "Langenhorn"
  },
  {
    "postcode": "25788",
    "city": "Lopshop Holstein"
  },
  {
    "postcode": "25788",
    "city": "Lopshop"
  },
  {
    "postcode": "25788",
    "city": "Schweineweide Holstein"
  },
  {
    "postcode": "25788",
    "city": "Schweineweide"
  },
  {
    "postcode": "25788",
    "city": "Viertel Holstein"
  },
  {
    "postcode": "25788",
    "city": "Viertel"
  },
  {
    "postcode": "25788",
    "city": "Wallen Holstein"
  },
  {
    "postcode": "25788",
    "city": "Wallen"
  },
  {
    "postcode": "25788",
    "city": "Dithmarschen"
  },
  {
    "postcode": "25788",
    "city": "Hollingstedt"
  },
  {
    "postcode": "25791",
    "city": "Barkenholm Holstein"
  },
  {
    "postcode": "25791",
    "city": "Barkenholm"
  },
  {
    "postcode": "25791",
    "city": "Brandmoor Gemeinde Hennstedt"
  },
  {
    "postcode": "25791",
    "city": "Brandmoor"
  },
  {
    "postcode": "25791",
    "city": "Linden Holstein"
  },
  {
    "postcode": "25791",
    "city": "Linden"
  },
  {
    "postcode": "25791",
    "city": "Pahlkrug Holstein"
  },
  {
    "postcode": "25791",
    "city": "Pahlkrug"
  },
  {
    "postcode": "25791",
    "city": "Dithmarschen"
  },
  {
    "postcode": "25792",
    "city": "Blankenmoor Dithmarschen"
  },
  {
    "postcode": "25792",
    "city": "Blankenmoor"
  },
  {
    "postcode": "25792",
    "city": "Böddinghusen Dithmarschen"
  },
  {
    "postcode": "25792",
    "city": "Böddinghusen"
  },
  {
    "postcode": "25792",
    "city": "Heuwisch Dithmarschen"
  },
  {
    "postcode": "25792",
    "city": "Heuwisch"
  },
  {
    "postcode": "25792",
    "city": "Neuenkirchen Dithmarschen"
  },
  {
    "postcode": "25792",
    "city": "Neuenkirchen"
  },
  {
    "postcode": "25792",
    "city": "Strübbel"
  },
  {
    "postcode": "25792",
    "city": "Tödienwisch Dithmarschen"
  },
  {
    "postcode": "25792",
    "city": "Tödienwisch"
  },
  {
    "postcode": "25792",
    "city": "Dithmarschen"
  },
  {
    "postcode": "25794",
    "city": "Dörpling"
  },
  {
    "postcode": "25794",
    "city": "Eiderdeich"
  },
  {
    "postcode": "25794",
    "city": "Pahlen"
  },
  {
    "postcode": "25794",
    "city": "Pahlhude"
  },
  {
    "postcode": "25794",
    "city": "Schüttingdeich"
  },
  {
    "postcode": "25794",
    "city": "Tielenhemme"
  },
  {
    "postcode": "25794",
    "city": "Dithmarschen"
  },
  {
    "postcode": "25794",
    "city": "Hohenlieth"
  },
  {
    "postcode": "25795",
    "city": "Borgholz"
  },
  {
    "postcode": "25795",
    "city": "Stelle"
  },
  {
    "postcode": "25795",
    "city": "Stelle-Wittenwurth"
  },
  {
    "postcode": "25795",
    "city": "Weddinghusen"
  },
  {
    "postcode": "25795",
    "city": "Weddingstedt"
  },
  {
    "postcode": "25795",
    "city": "Wittenwurth"
  },
  {
    "postcode": "25795",
    "city": "Dithmarschen"
  },
  {
    "postcode": "25797",
    "city": "Büttlerdeich Dithmarschen"
  },
  {
    "postcode": "25797",
    "city": "Büttlerdeich"
  },
  {
    "postcode": "25797",
    "city": "Großbüttel"
  },
  {
    "postcode": "25797",
    "city": "Ketelsbüttel"
  },
  {
    "postcode": "25797",
    "city": "Neuenkrug Dithmarschen"
  },
  {
    "postcode": "25797",
    "city": "Neuenkrug"
  },
  {
    "postcode": "25797",
    "city": "Neuenwisch Dithmarschen"
  },
  {
    "postcode": "25797",
    "city": "Neuenwisch"
  },
  {
    "postcode": "25797",
    "city": "Wackenhusen Dithmarschen"
  },
  {
    "postcode": "25797",
    "city": "Wackenhusen"
  },
  {
    "postcode": "25797",
    "city": "Walle Dithmarschen"
  },
  {
    "postcode": "25797",
    "city": "Walle"
  },
  {
    "postcode": "25797",
    "city": "Wöhrden"
  },
  {
    "postcode": "25797",
    "city": "Wöhrden Dithmarschen"
  },
  {
    "postcode": "25797",
    "city": "Dithmarschen"
  },
  {
    "postcode": "25799",
    "city": "Altenfähre"
  },
  {
    "postcode": "25799",
    "city": "Neuenfähre"
  },
  {
    "postcode": "25799",
    "city": "Wrohm Dithmarschen"
  },
  {
    "postcode": "25799",
    "city": "Wrohm"
  },
  {
    "postcode": "25799",
    "city": "Dithmarschen"
  },
  {
    "postcode": "25813",
    "city": "Husum Nordsee"
  },
  {
    "postcode": "25813",
    "city": "Husum"
  },
  {
    "postcode": "25813",
    "city": "Schwesing"
  },
  {
    "postcode": "25813",
    "city": "Simonsberg bei Husum"
  },
  {
    "postcode": "25813",
    "city": "Südermarsch bei Husum"
  },
  {
    "postcode": "25813",
    "city": "Nordfriesland"
  },
  {
    "postcode": "25813",
    "city": "Simonsberg"
  },
  {
    "postcode": "25813",
    "city": "Südermarsch"
  },
  {
    "postcode": "25813",
    "city": "Schobüll"
  },
  {
    "postcode": "25813",
    "city": "Hockensbüll"
  },
  {
    "postcode": "25813",
    "city": "Hockensbüllfeld"
  },
  {
    "postcode": "25813",
    "city": "Rödemis"
  },
  {
    "postcode": "25813",
    "city": "Lund"
  },
  {
    "postcode": "25813",
    "city": "Finkhaushallig"
  },
  {
    "postcode": "25821",
    "city": "Almdorf"
  },
  {
    "postcode": "25821",
    "city": "Bredstedt"
  },
  {
    "postcode": "25821",
    "city": "Breklum"
  },
  {
    "postcode": "25821",
    "city": "Fehsholm"
  },
  {
    "postcode": "25821",
    "city": "Glücksburg Nordfriesland"
  },
  {
    "postcode": "25821",
    "city": "Glücksburg"
  },
  {
    "postcode": "25821",
    "city": "Reußenköge"
  },
  {
    "postcode": "25821",
    "city": "Riddorf"
  },
  {
    "postcode": "25821",
    "city": "Sönnebüll"
  },
  {
    "postcode": "25821",
    "city": "Struckum"
  },
  {
    "postcode": "25821",
    "city": "Vollstedt"
  },
  {
    "postcode": "25821",
    "city": "Wallsbüll"
  },
  {
    "postcode": "25821",
    "city": "Nordfriesland"
  },
  {
    "postcode": "25821",
    "city": "Bordelumsiel"
  },
  {
    "postcode": "25821",
    "city": "Brommelund"
  },
  {
    "postcode": "25821",
    "city": "Dörpum"
  },
  {
    "postcode": "25821",
    "city": "Dörpumfeld"
  },
  {
    "postcode": "25826",
    "city": "Sankt Peter-Ording"
  },
  {
    "postcode": "25826",
    "city": "Nordfriesland"
  },
  {
    "postcode": "25826",
    "city": "Sankt Peter-Dorf"
  },
  {
    "postcode": "25826",
    "city": "Ording-Süd"
  },
  {
    "postcode": "25832",
    "city": "Katingsiel"
  },
  {
    "postcode": "25832",
    "city": "Kotzenbüll"
  },
  {
    "postcode": "25832",
    "city": "Tönning (Nordseebad)"
  },
  {
    "postcode": "25832",
    "city": "Tönning"
  },
  {
    "postcode": "25832",
    "city": "Nordfriesland"
  },
  {
    "postcode": "25832",
    "city": "Kating"
  },
  {
    "postcode": "25832",
    "city": "Schimmelhörn"
  },
  {
    "postcode": "25836",
    "city": "Altendeich Gemeinde Vollerwiek"
  },
  {
    "postcode": "25836",
    "city": "Altendeich"
  },
  {
    "postcode": "25836",
    "city": "Augustenkoog"
  },
  {
    "postcode": "25836",
    "city": "Garding"
  },
  {
    "postcode": "25836",
    "city": "Garding Kirchspiel"
  },
  {
    "postcode": "25836",
    "city": "Grothusenkoog"
  },
  {
    "postcode": "25836",
    "city": "Katharinenheerd"
  },
  {
    "postcode": "25836",
    "city": "Mühlendeich"
  },
  {
    "postcode": "25836",
    "city": "Mühlendeich Gemeinde Osterhever"
  },
  {
    "postcode": "25836",
    "city": "Osterhever"
  },
  {
    "postcode": "25836",
    "city": "Poppenbüll"
  },
  {
    "postcode": "25836",
    "city": "Schockenbüll Gemeinde Osterhever"
  },
  {
    "postcode": "25836",
    "city": "Schockenbüll"
  },
  {
    "postcode": "25836",
    "city": "Slatterack"
  },
  {
    "postcode": "25836",
    "city": "Süderdeich"
  },
  {
    "postcode": "25836",
    "city": "Vollerwiek"
  },
  {
    "postcode": "25836",
    "city": "Welt"
  },
  {
    "postcode": "25836",
    "city": "Westerdeich"
  },
  {
    "postcode": "25836",
    "city": "Nordfriesland"
  },
  {
    "postcode": "25836",
    "city": "Südermarsch"
  },
  {
    "postcode": "25836",
    "city": "Garding Kirchspiel"
  },
  {
    "postcode": "25836",
    "city": "Norderweg"
  },
  {
    "postcode": "25836",
    "city": "Sandwehle"
  },
  {
    "postcode": "25836",
    "city": "Hülkenbüll"
  },
  {
    "postcode": "25836",
    "city": "Köpsiel"
  },
  {
    "postcode": "25836",
    "city": "Grünhörn"
  },
  {
    "postcode": "25836",
    "city": "Schweinsgaard"
  },
  {
    "postcode": "25836",
    "city": "Nickelswarft"
  },
  {
    "postcode": "25836",
    "city": "Elhorn"
  },
  {
    "postcode": "25836",
    "city": "Tüll"
  },
  {
    "postcode": "25840",
    "city": "An der Chaussee bei Friedrichstadt Eider"
  },
  {
    "postcode": "25840",
    "city": "An der Chaussee bei Friedrichstadt"
  },
  {
    "postcode": "25840",
    "city": "Friedrichstadt an der Eider"
  },
  {
    "postcode": "25840",
    "city": "Koldenbüttel"
  },
  {
    "postcode": "25840",
    "city": "Nordfriesland"
  },
  {
    "postcode": "25840",
    "city": "Feddersdeich"
  },
  {
    "postcode": "25840",
    "city": "Friedrichstadt"
  },
  {
    "postcode": "25840",
    "city": "Hakenhof"
  },
  {
    "postcode": "25840",
    "city": "Mildterhof"
  },
  {
    "postcode": "25840",
    "city": "Treenedeich"
  },
  {
    "postcode": "25842",
    "city": "Addebüll"
  },
  {
    "postcode": "25842",
    "city": "Bargum"
  },
  {
    "postcode": "25842",
    "city": "Bongsiel"
  },
  {
    "postcode": "25842",
    "city": "Fedderswarf"
  },
  {
    "postcode": "25842",
    "city": "Langenhorn bei Husum"
  },
  {
    "postcode": "25842",
    "city": "Lütjenholm"
  },
  {
    "postcode": "25842",
    "city": "Nordwarft"
  },
  {
    "postcode": "25842",
    "city": "Ockholm"
  },
  {
    "postcode": "25842",
    "city": "Soholmbrück"
  },
  {
    "postcode": "25842",
    "city": "Süderdeich"
  },
  {
    "postcode": "25842",
    "city": "Süderwarf"
  },
  {
    "postcode": "25842",
    "city": "Tadenswarf"
  },
  {
    "postcode": "25842",
    "city": "Nordfriesland"
  },
  {
    "postcode": "25842",
    "city": "Langenhorn"
  },
  {
    "postcode": "25842",
    "city": "West-Bargum"
  },
  {
    "postcode": "25842",
    "city": "Ost-Bargum"
  },
  {
    "postcode": "25842",
    "city": "Soholmbrük"
  },
  {
    "postcode": "25842",
    "city": "Loheide"
  },
  {
    "postcode": "25842",
    "city": "Efkebüll"
  },
  {
    "postcode": "25842",
    "city": "Langenhorner Heide"
  },
  {
    "postcode": "25842",
    "city": "Große Gaarde"
  },
  {
    "postcode": "25842",
    "city": "Nordwarf"
  },
  {
    "postcode": "25845",
    "city": "Dreisprung"
  },
  {
    "postcode": "25845",
    "city": "Elisabeth-Sophien-Koog"
  },
  {
    "postcode": "25845",
    "city": "Herrendeich"
  },
  {
    "postcode": "25845",
    "city": "Kiefhuck"
  },
  {
    "postcode": "25845",
    "city": "Mitteldeich"
  },
  {
    "postcode": "25845",
    "city": "Moordeich"
  },
  {
    "postcode": "25845",
    "city": "Nordstrand"
  },
  {
    "postcode": "25845",
    "city": "Odenbüll"
  },
  {
    "postcode": "25845",
    "city": "Osterdeich"
  },
  {
    "postcode": "25845",
    "city": "Süden"
  },
  {
    "postcode": "25845",
    "city": "Nordfriesland"
  },
  {
    "postcode": "25845",
    "city": "Nordstrandischmoor"
  },
  {
    "postcode": "25849",
    "city": "Alte Kirche"
  },
  {
    "postcode": "25849",
    "city": "Junkersmitteldeich"
  },
  {
    "postcode": "25849",
    "city": "Nordermitteldeich"
  },
  {
    "postcode": "25849",
    "city": "Osterschütting"
  },
  {
    "postcode": "25849",
    "city": "Ostersiel"
  },
  {
    "postcode": "25849",
    "city": "Ostertilli"
  },
  {
    "postcode": "25849",
    "city": "Parlament"
  },
  {
    "postcode": "25849",
    "city": "Pellworm"
  },
  {
    "postcode": "25849",
    "city": "Schardeich"
  },
  {
    "postcode": "25849",
    "city": "Südermitteldeich"
  },
  {
    "postcode": "25849",
    "city": "Tammensiel"
  },
  {
    "postcode": "25849",
    "city": "Waldhusen"
  },
  {
    "postcode": "25849",
    "city": "Westerschütting"
  },
  {
    "postcode": "25849",
    "city": "Westertilli"
  },
  {
    "postcode": "25849",
    "city": "Nordfriesland"
  },
  {
    "postcode": "25850",
    "city": "Behrendorf bei Husum"
  },
  {
    "postcode": "25850",
    "city": "Bondelum"
  },
  {
    "postcode": "25850",
    "city": "Nordfriesland"
  },
  {
    "postcode": "25850",
    "city": "Behrendorf"
  },
  {
    "postcode": "25852",
    "city": "Bordelum"
  },
  {
    "postcode": "25852",
    "city": "Büttjebüll"
  },
  {
    "postcode": "25852",
    "city": "Ebüll"
  },
  {
    "postcode": "25852",
    "city": "Ebüllfeld"
  },
  {
    "postcode": "25852",
    "city": "Sterdebüll"
  },
  {
    "postcode": "25852",
    "city": "Stollberg"
  },
  {
    "postcode": "25852",
    "city": "Nordfriesland"
  },
  {
    "postcode": "25852",
    "city": "Ost-Bordelum"
  },
  {
    "postcode": "25852",
    "city": "Uphusum"
  },
  {
    "postcode": "25852",
    "city": "West-Bordelum"
  },
  {
    "postcode": "25852",
    "city": "Ost-Bordelumfeld"
  },
  {
    "postcode": "25853",
    "city": "Ahrenshöft"
  },
  {
    "postcode": "25853",
    "city": "Bohmstedt"
  },
  {
    "postcode": "25853",
    "city": "Bohmstedtfeld"
  },
  {
    "postcode": "25853",
    "city": "Drelsdorf"
  },
  {
    "postcode": "25853",
    "city": "Jägerkrug"
  },
  {
    "postcode": "25853",
    "city": "Morgenstern"
  },
  {
    "postcode": "25853",
    "city": "Nordfriesland"
  },
  {
    "postcode": "25853",
    "city": "Drelsdorf-Osterfeld"
  },
  {
    "postcode": "25855",
    "city": "Brook"
  },
  {
    "postcode": "25855",
    "city": "Haselund"
  },
  {
    "postcode": "25855",
    "city": "Kollund"
  },
  {
    "postcode": "25855",
    "city": "Nordfriesland"
  },
  {
    "postcode": "25856",
    "city": "Drift Gemeinde Hattstedt"
  },
  {
    "postcode": "25856",
    "city": "Drift"
  },
  {
    "postcode": "25856",
    "city": "Hattstedt"
  },
  {
    "postcode": "25856",
    "city": "Hattstedtermarsch"
  },
  {
    "postcode": "25856",
    "city": "Hattstedtfeld"
  },
  {
    "postcode": "25856",
    "city": "Wittland"
  },
  {
    "postcode": "25856",
    "city": "Wobbenbüll"
  },
  {
    "postcode": "25856",
    "city": "Nordfriesland"
  },
  {
    "postcode": "25856",
    "city": "Sterdebüll"
  },
  {
    "postcode": "25858",
    "city": "Högel"
  },
  {
    "postcode": "25858",
    "city": "Mirebüll"
  },
  {
    "postcode": "25858",
    "city": "Nordfriesland"
  },
  {
    "postcode": "25859",
    "city": "Backenswarft Hallig"
  },
  {
    "postcode": "25859",
    "city": "Backenswarft"
  },
  {
    "postcode": "25859",
    "city": "Hanswarft Hallig"
  },
  {
    "postcode": "25859",
    "city": "Hanswarft"
  },
  {
    "postcode": "25859",
    "city": "Hooge Hallig"
  },
  {
    "postcode": "25859",
    "city": "Hooge"
  },
  {
    "postcode": "25859",
    "city": "Lorenzwarft Hallig"
  },
  {
    "postcode": "25859",
    "city": "Lorenzwarft"
  },
  {
    "postcode": "25859",
    "city": "Ockelützwarft Hallig"
  },
  {
    "postcode": "25859",
    "city": "Ockelützwarft"
  },
  {
    "postcode": "25859",
    "city": "Ockenswarft Hallig"
  },
  {
    "postcode": "25859",
    "city": "Ockenswarft"
  },
  {
    "postcode": "25859",
    "city": "Nordfriesland"
  },
  {
    "postcode": "25859",
    "city": "Hallig Hooge"
  },
  {
    "postcode": "25860",
    "city": "Arlewatt"
  },
  {
    "postcode": "25860",
    "city": "Arlewattfeld"
  },
  {
    "postcode": "25860",
    "city": "Horstedt bei Husum"
  },
  {
    "postcode": "25860",
    "city": "Horstedtfeld bei Husum Nordsee"
  },
  {
    "postcode": "25860",
    "city": "Horstedtfeld bei Husum"
  },
  {
    "postcode": "25860",
    "city": "Olderup"
  },
  {
    "postcode": "25860",
    "city": "Olderupfeld bei Husum Nordsee"
  },
  {
    "postcode": "25860",
    "city": "Olderupfeld bei Husum"
  },
  {
    "postcode": "25860",
    "city": "Nordfriesland"
  },
  {
    "postcode": "25860",
    "city": "Horstedt"
  },
  {
    "postcode": "25862",
    "city": "Goldebek Nordfriesland"
  },
  {
    "postcode": "25862",
    "city": "Goldebek"
  },
  {
    "postcode": "25862",
    "city": "Goldelund"
  },
  {
    "postcode": "25862",
    "city": "Joldelund"
  },
  {
    "postcode": "25862",
    "city": "Joldelundfeld"
  },
  {
    "postcode": "25862",
    "city": "Kolkerheide"
  },
  {
    "postcode": "25862",
    "city": "Süderhuus"
  },
  {
    "postcode": "25862",
    "city": "Nordfriesland"
  },
  {
    "postcode": "25863",
    "city": "Hilligenley"
  },
  {
    "postcode": "25863",
    "city": "Ketelswarft"
  },
  {
    "postcode": "25863",
    "city": "Kirchhofswarft"
  },
  {
    "postcode": "25863",
    "city": "Langeneß"
  },
  {
    "postcode": "25863",
    "city": "Norderhörn"
  },
  {
    "postcode": "25863",
    "city": "Süderhörn"
  },
  {
    "postcode": "25863",
    "city": "Nordfriesland"
  },
  {
    "postcode": "25864",
    "city": "Löwenstedt"
  },
  {
    "postcode": "25864",
    "city": "Ostenau"
  },
  {
    "postcode": "25864",
    "city": "Nordfriesland"
  },
  {
    "postcode": "25866",
    "city": "Mildstedt"
  },
  {
    "postcode": "25866",
    "city": "Rosendahl Nordsee"
  },
  {
    "postcode": "25866",
    "city": "Rosendahl"
  },
  {
    "postcode": "25866",
    "city": "Nordfriesland"
  },
  {
    "postcode": "25866",
    "city": "Schwesing-Bahnhof"
  },
  {
    "postcode": "25868",
    "city": "Norderstapel"
  },
  {
    "postcode": "25868",
    "city": "Schleswig-Flensburg"
  },
  {
    "postcode": "25869",
    "city": "Gröde Hallig"
  },
  {
    "postcode": "25869",
    "city": "Gröde"
  },
  {
    "postcode": "25869",
    "city": "Habel bei Oland Hallig"
  },
  {
    "postcode": "25869",
    "city": "Habel bei Oland"
  },
  {
    "postcode": "25869",
    "city": "Oland Hallig"
  },
  {
    "postcode": "25869",
    "city": "Oland"
  },
  {
    "postcode": "25869",
    "city": "Nordfriesland"
  },
  {
    "postcode": "25869",
    "city": "Habel"
  },
  {
    "postcode": "25870",
    "city": "Altneukoog"
  },
  {
    "postcode": "25870",
    "city": "Gunsbüttel"
  },
  {
    "postcode": "25870",
    "city": "Harblek"
  },
  {
    "postcode": "25870",
    "city": "Hochbrücksiel"
  },
  {
    "postcode": "25870",
    "city": "Norderfriedrichskoog"
  },
  {
    "postcode": "25870",
    "city": "Oldenswort"
  },
  {
    "postcode": "25870",
    "city": "Osterende"
  },
  {
    "postcode": "25870",
    "city": "Osteroffenbüll"
  },
  {
    "postcode": "25870",
    "city": "Riep"
  },
  {
    "postcode": "25870",
    "city": "Schiedhörn Gemeinde Oldenswort"
  },
  {
    "postcode": "25870",
    "city": "Schiedhörn"
  },
  {
    "postcode": "25870",
    "city": "Schlapphörn"
  },
  {
    "postcode": "25870",
    "city": "Nordfriesland"
  },
  {
    "postcode": "25870",
    "city": "Altendeich"
  },
  {
    "postcode": "25872",
    "city": "Ostenfeld (Husum)"
  },
  {
    "postcode": "25872",
    "city": "Ostenfeld"
  },
  {
    "postcode": "25872",
    "city": "Ostenfeldfeld bei Husum Nordsee"
  },
  {
    "postcode": "25872",
    "city": "Ostenfeldfeld bei Husum"
  },
  {
    "postcode": "25872",
    "city": "Rott bei Husum Nordsee"
  },
  {
    "postcode": "25872",
    "city": "Rott bei Husum"
  },
  {
    "postcode": "25872",
    "city": "Wittbek bei Husum"
  },
  {
    "postcode": "25872",
    "city": "Nordfriesland"
  },
  {
    "postcode": "25872",
    "city": "Wittbek"
  },
  {
    "postcode": "25873",
    "city": "Oldersbek"
  },
  {
    "postcode": "25873",
    "city": "Rantrum bei Husum"
  },
  {
    "postcode": "25873",
    "city": "Nordfriesland"
  },
  {
    "postcode": "25873",
    "city": "Rantrum"
  },
  {
    "postcode": "25873",
    "city": "Steinberg"
  },
  {
    "postcode": "25873",
    "city": "Ipernstedt"
  },
  {
    "postcode": "25875",
    "city": "Halebüll bei Husum Nordsee"
  },
  {
    "postcode": "25875",
    "city": "Halebüll bei Husum"
  },
  {
    "postcode": "25875",
    "city": "Hockensbüll bei Husum Nordsee"
  },
  {
    "postcode": "25875",
    "city": "Hockensbüll bei Husum"
  },
  {
    "postcode": "25875",
    "city": "Lund Nordsee"
  },
  {
    "postcode": "25875",
    "city": "Lund"
  },
  {
    "postcode": "25875",
    "city": "Schobüll bei Husum"
  },
  {
    "postcode": "25876",
    "city": "Fresendelf"
  },
  {
    "postcode": "25876",
    "city": "Hemme"
  },
  {
    "postcode": "25876",
    "city": "Hollbüllhuus"
  },
  {
    "postcode": "25876",
    "city": "Hude bei Husum"
  },
  {
    "postcode": "25876",
    "city": "Lehmsiek"
  },
  {
    "postcode": "25876",
    "city": "Ramstedt Nordfriesland"
  },
  {
    "postcode": "25876",
    "city": "Ramstedt"
  },
  {
    "postcode": "25876",
    "city": "Schwabstedt"
  },
  {
    "postcode": "25876",
    "city": "Schwabstedter Westerkoog"
  },
  {
    "postcode": "25876",
    "city": "Süderhöft"
  },
  {
    "postcode": "25876",
    "city": "Wisch Nordfriesland"
  },
  {
    "postcode": "25876",
    "city": "Wisch"
  },
  {
    "postcode": "25876",
    "city": "Nordfriesland"
  },
  {
    "postcode": "25876",
    "city": "Hude"
  },
  {
    "postcode": "25876",
    "city": "Huderfähre"
  },
  {
    "postcode": "25878",
    "city": "Drage Nordfriesland"
  },
  {
    "postcode": "25878",
    "city": "Drage"
  },
  {
    "postcode": "25878",
    "city": "Krelau"
  },
  {
    "postcode": "25878",
    "city": "Seeth bei Husum"
  },
  {
    "postcode": "25878",
    "city": "Nordfriesland"
  },
  {
    "postcode": "25878",
    "city": "Seeth"
  },
  {
    "postcode": "25879",
    "city": "Süderstapel"
  },
  {
    "postcode": "25879",
    "city": "Schleswig-Flensburg"
  },
  {
    "postcode": "25879",
    "city": "Stapel"
  },
  {
    "postcode": "25879",
    "city": "Norderstapel"
  },
  {
    "postcode": "25879",
    "city": "Jeppern"
  },
  {
    "postcode": "25879",
    "city": "Steinschleuse"
  },
  {
    "postcode": "25881",
    "city": "Ahndel"
  },
  {
    "postcode": "25881",
    "city": "Augustenkoog"
  },
  {
    "postcode": "25881",
    "city": "Büttel Eiderstedt"
  },
  {
    "postcode": "25881",
    "city": "Büttel"
  },
  {
    "postcode": "25881",
    "city": "Ehst Eiderstedt"
  },
  {
    "postcode": "25881",
    "city": "Ehst"
  },
  {
    "postcode": "25881",
    "city": "Esing Eiderstedt"
  },
  {
    "postcode": "25881",
    "city": "Esing"
  },
  {
    "postcode": "25881",
    "city": "Hauert Eiderstedt"
  },
  {
    "postcode": "25881",
    "city": "Hauert"
  },
  {
    "postcode": "25881",
    "city": "Krimm Eiderstedt"
  },
  {
    "postcode": "25881",
    "city": "Krimm"
  },
  {
    "postcode": "25881",
    "city": "Leikenhusen"
  },
  {
    "postcode": "25881",
    "city": "Lokert Eiderstedt"
  },
  {
    "postcode": "25881",
    "city": "Lokert"
  },
  {
    "postcode": "25881",
    "city": "Norderdeich Eiderstedt"
  },
  {
    "postcode": "25881",
    "city": "Norderdeich"
  },
  {
    "postcode": "25881",
    "city": "Osterende Eiderstedt"
  },
  {
    "postcode": "25881",
    "city": "Osterende"
  },
  {
    "postcode": "25881",
    "city": "Schanze"
  },
  {
    "postcode": "25881",
    "city": "Sieversbüll"
  },
  {
    "postcode": "25881",
    "city": "Steinhütten"
  },
  {
    "postcode": "25881",
    "city": "Süderdeich Eiderstedt"
  },
  {
    "postcode": "25881",
    "city": "Süderdeich"
  },
  {
    "postcode": "25881",
    "city": "Tating Eiderstedt"
  },
  {
    "postcode": "25881",
    "city": "Tating"
  },
  {
    "postcode": "25881",
    "city": "Tholendorf Eiderstedt"
  },
  {
    "postcode": "25881",
    "city": "Tholendorf"
  },
  {
    "postcode": "25881",
    "city": "Tümlauer Koog"
  },
  {
    "postcode": "25881",
    "city": "Westerhever"
  },
  {
    "postcode": "25881",
    "city": "Nordfriesland"
  },
  {
    "postcode": "25881",
    "city": "Hütten"
  },
  {
    "postcode": "25881",
    "city": "Harmonie"
  },
  {
    "postcode": "25882",
    "city": "Altneukoogsbühr"
  },
  {
    "postcode": "25882",
    "city": "Friddenbüll"
  },
  {
    "postcode": "25882",
    "city": "Tetenbüll"
  },
  {
    "postcode": "25882",
    "city": "Nordfriesland"
  },
  {
    "postcode": "25882",
    "city": "Altendeich"
  },
  {
    "postcode": "25884",
    "city": "Boxlund"
  },
  {
    "postcode": "25884",
    "city": "Eckstock"
  },
  {
    "postcode": "25884",
    "city": "Hochviöl"
  },
  {
    "postcode": "25884",
    "city": "Hoffnung"
  },
  {
    "postcode": "25884",
    "city": "Hoxtrup"
  },
  {
    "postcode": "25884",
    "city": "Norstedt"
  },
  {
    "postcode": "25884",
    "city": "Pobüll"
  },
  {
    "postcode": "25884",
    "city": "Sollwitt"
  },
  {
    "postcode": "25884",
    "city": "Viöl"
  },
  {
    "postcode": "25884",
    "city": "Nordfriesland"
  },
  {
    "postcode": "25884",
    "city": "Spinkebüll"
  },
  {
    "postcode": "25885",
    "city": "Ahrenviöl"
  },
  {
    "postcode": "25885",
    "city": "Ahrenviölfeld"
  },
  {
    "postcode": "25885",
    "city": "Haneburg"
  },
  {
    "postcode": "25885",
    "city": "Immenstedt bei Albersdorf"
  },
  {
    "postcode": "25885",
    "city": "Immenstedt Nordfriesland"
  },
  {
    "postcode": "25885",
    "city": "Immenstedt"
  },
  {
    "postcode": "25885",
    "city": "Ohrstedt Bahnhof"
  },
  {
    "postcode": "25885",
    "city": "Ohrstedt"
  },
  {
    "postcode": "25885",
    "city": "Oster-Ohrstedt"
  },
  {
    "postcode": "25885",
    "city": "Wester-Ohrstedt"
  },
  {
    "postcode": "25885",
    "city": "Westerholz"
  },
  {
    "postcode": "25885",
    "city": "Dithmarschen"
  },
  {
    "postcode": "25887",
    "city": "Osterwinnert"
  },
  {
    "postcode": "25887",
    "city": "Winnert bei Husum"
  },
  {
    "postcode": "25887",
    "city": "Nordfriesland"
  },
  {
    "postcode": "25887",
    "city": "Winnert"
  },
  {
    "postcode": "25889",
    "city": "Büttel Gemeinde Witzwort"
  },
  {
    "postcode": "25889",
    "city": "Büttel"
  },
  {
    "postcode": "25889",
    "city": "Kringelkrug"
  },
  {
    "postcode": "25889",
    "city": "Moordeich Gemeinde Witzwort"
  },
  {
    "postcode": "25889",
    "city": "Moordeich"
  },
  {
    "postcode": "25889",
    "city": "Nordende"
  },
  {
    "postcode": "25889",
    "city": "Porrendeich"
  },
  {
    "postcode": "25889",
    "city": "Reimersbude Gemeinde Witzwort"
  },
  {
    "postcode": "25889",
    "city": "Reimersbude"
  },
  {
    "postcode": "25889",
    "city": "Uelvesbüll"
  },
  {
    "postcode": "25889",
    "city": "Witzwort"
  },
  {
    "postcode": "25889",
    "city": "Nordfriesland"
  },
  {
    "postcode": "25899",
    "city": "Bosbüll"
  },
  {
    "postcode": "25899",
    "city": "Christian-Albrechts-Koog"
  },
  {
    "postcode": "25899",
    "city": "Dagebüll"
  },
  {
    "postcode": "25899",
    "city": "Fahretoft"
  },
  {
    "postcode": "25899",
    "city": "Galmsbüll"
  },
  {
    "postcode": "25899",
    "city": "Katzhörn"
  },
  {
    "postcode": "25899",
    "city": "Klixbüll"
  },
  {
    "postcode": "25899",
    "city": "Langstoft"
  },
  {
    "postcode": "25899",
    "city": "Marienkoog"
  },
  {
    "postcode": "25899",
    "city": "Moorhäuser"
  },
  {
    "postcode": "25899",
    "city": "Niebüll (Schleswig)"
  },
  {
    "postcode": "25899",
    "city": "Niebüll"
  },
  {
    "postcode": "25899",
    "city": "Osterdeich bei Niebüll"
  },
  {
    "postcode": "25899",
    "city": "Waygaard"
  },
  {
    "postcode": "25899",
    "city": "Nordfriesland"
  },
  {
    "postcode": "25899",
    "city": "Gasthafen"
  },
  {
    "postcode": "25899",
    "city": "Gotteskoogdeich"
  },
  {
    "postcode": "25899",
    "city": "Kleinkoogsdeich"
  },
  {
    "postcode": "25899",
    "city": "Osterdeich"
  },
  {
    "postcode": "25899",
    "city": "Dagebüll-Kirche"
  },
  {
    "postcode": "25899",
    "city": "Hauke-Haien-Koog"
  },
  {
    "postcode": "25899",
    "city": "Blocksberg"
  },
  {
    "postcode": "25899",
    "city": "Klixbüllfeld"
  },
  {
    "postcode": "25917",
    "city": "Achtrup"
  },
  {
    "postcode": "25917",
    "city": "Enge-Sande"
  },
  {
    "postcode": "25917",
    "city": "Klintum"
  },
  {
    "postcode": "25917",
    "city": "Leck"
  },
  {
    "postcode": "25917",
    "city": "Sprakebüll"
  },
  {
    "postcode": "25917",
    "city": "Stadum"
  },
  {
    "postcode": "25917",
    "city": "Tinningstedt"
  },
  {
    "postcode": "25917",
    "city": "Nordfriesland"
  },
  {
    "postcode": "25917",
    "city": "Schruplund"
  },
  {
    "postcode": "25917",
    "city": "Kalleshave"
  },
  {
    "postcode": "25917",
    "city": "Lütjenhorn"
  },
  {
    "postcode": "25917",
    "city": "Soholmfeld"
  },
  {
    "postcode": "25917",
    "city": "Enge"
  },
  {
    "postcode": "25917",
    "city": "Knorburg"
  },
  {
    "postcode": "25917",
    "city": "Soholm"
  },
  {
    "postcode": "25917",
    "city": "Sande"
  },
  {
    "postcode": "25917",
    "city": "Oster-Schnatebüll"
  },
  {
    "postcode": "25917",
    "city": "Sandacker"
  },
  {
    "postcode": "25917",
    "city": "Sprakebüllfeld"
  },
  {
    "postcode": "25917",
    "city": "Stadumfeld"
  },
  {
    "postcode": "25917",
    "city": "Stadumwatt"
  },
  {
    "postcode": "25920",
    "city": "Klockries"
  },
  {
    "postcode": "25920",
    "city": "Kremperhaus"
  },
  {
    "postcode": "25920",
    "city": "Lindholm"
  },
  {
    "postcode": "25920",
    "city": "Maasbüll"
  },
  {
    "postcode": "25920",
    "city": "Risum"
  },
  {
    "postcode": "25920",
    "city": "Risum-Lindholm"
  },
  {
    "postcode": "25920",
    "city": "Stedesand"
  },
  {
    "postcode": "25920",
    "city": "Trollebüll"
  },
  {
    "postcode": "25920",
    "city": "Wegacker"
  },
  {
    "postcode": "25920",
    "city": "Nordfriesland"
  },
  {
    "postcode": "25920",
    "city": "Legerade"
  },
  {
    "postcode": "25923",
    "city": "Braderup bei Niebüll"
  },
  {
    "postcode": "25923",
    "city": "Ellhöft"
  },
  {
    "postcode": "25923",
    "city": "Holm bei Süderlügum"
  },
  {
    "postcode": "25923",
    "city": "Humptrup"
  },
  {
    "postcode": "25923",
    "city": "Lexgaard"
  },
  {
    "postcode": "25923",
    "city": "Süderlügum"
  },
  {
    "postcode": "25923",
    "city": "Uphusum bei Süderlügum"
  },
  {
    "postcode": "25923",
    "city": "Nordfriesland"
  },
  {
    "postcode": "25923",
    "city": "Braderup"
  },
  {
    "postcode": "25923",
    "city": "Holm"
  },
  {
    "postcode": "25923",
    "city": "Uphusum"
  },
  {
    "postcode": "25923",
    "city": "Grellsbüll-Feld"
  },
  {
    "postcode": "25923",
    "city": "Kahlebüll"
  },
  {
    "postcode": "25923",
    "city": "Krakebüll"
  },
  {
    "postcode": "25923",
    "city": "Horsberg"
  },
  {
    "postcode": "25924",
    "city": "Bombüll"
  },
  {
    "postcode": "25924",
    "city": "Burg"
  },
  {
    "postcode": "25924",
    "city": "Emmelsbüll-Horsbüll"
  },
  {
    "postcode": "25924",
    "city": "Friedrich-Wilhelm-Lübke-Koog"
  },
  {
    "postcode": "25924",
    "city": "Klanxbüll"
  },
  {
    "postcode": "25924",
    "city": "Osterdeich"
  },
  {
    "postcode": "25924",
    "city": "Osterklanxbüll"
  },
  {
    "postcode": "25924",
    "city": "Rodenäs"
  },
  {
    "postcode": "25924",
    "city": "Westerklanxbüll"
  },
  {
    "postcode": "25924",
    "city": "Wisch"
  },
  {
    "postcode": "25924",
    "city": "Nordfriesland"
  },
  {
    "postcode": "25924",
    "city": "Emmelsbüll"
  },
  {
    "postcode": "25926",
    "city": "Boverstedt"
  },
  {
    "postcode": "25926",
    "city": "Bramstedtlund"
  },
  {
    "postcode": "25926",
    "city": "Karlum"
  },
  {
    "postcode": "25926",
    "city": "Klint"
  },
  {
    "postcode": "25926",
    "city": "Ladelund"
  },
  {
    "postcode": "25926",
    "city": "Ladelundfeld"
  },
  {
    "postcode": "25926",
    "city": "Westre"
  },
  {
    "postcode": "25926",
    "city": "Nordfriesland"
  },
  {
    "postcode": "25926",
    "city": "Bramstedtfeld"
  },
  {
    "postcode": "25926",
    "city": "Westrefeld"
  },
  {
    "postcode": "25927",
    "city": "Aventoft"
  },
  {
    "postcode": "25927",
    "city": "Bevertoft bei Niebüll"
  },
  {
    "postcode": "25927",
    "city": "Fegetasch bei Niebüll"
  },
  {
    "postcode": "25927",
    "city": "Fischerhäuser"
  },
  {
    "postcode": "25927",
    "city": "Gotteskoog"
  },
  {
    "postcode": "25927",
    "city": "Hörn bei Niebüll"
  },
  {
    "postcode": "25927",
    "city": "Hungerburg"
  },
  {
    "postcode": "25927",
    "city": "Kehrwieder"
  },
  {
    "postcode": "25927",
    "city": "Neukirchen bei Niebüll"
  },
  {
    "postcode": "25927",
    "city": "Nordosterdeich bei Niebüll"
  },
  {
    "postcode": "25927",
    "city": "Osterdeich"
  },
  {
    "postcode": "25927",
    "city": "Otzhusum bei Niebüll"
  },
  {
    "postcode": "25927",
    "city": "Rosenkranz"
  },
  {
    "postcode": "25927",
    "city": "Süderdeich bei Niebüll"
  },
  {
    "postcode": "25927",
    "city": "Nordfriesland"
  },
  {
    "postcode": "25927",
    "city": "Neukirchen"
  },
  {
    "postcode": "25927",
    "city": "Hornburg"
  },
  {
    "postcode": "25927",
    "city": "Fegetasch"
  },
  {
    "postcode": "25938",
    "city": "Alkersum"
  },
  {
    "postcode": "25938",
    "city": "Borgsum"
  },
  {
    "postcode": "25938",
    "city": "Dunsum"
  },
  {
    "postcode": "25938",
    "city": "Midlum Föhr"
  },
  {
    "postcode": "25938",
    "city": "Midlum"
  },
  {
    "postcode": "25938",
    "city": "Nieblum"
  },
  {
    "postcode": "25938",
    "city": "Oevenum"
  },
  {
    "postcode": "25938",
    "city": "Oldsum"
  },
  {
    "postcode": "25938",
    "city": "Süderende auf Föhr"
  },
  {
    "postcode": "25938",
    "city": "Utersum"
  },
  {
    "postcode": "25938",
    "city": "Witsum"
  },
  {
    "postcode": "25938",
    "city": "Wrixum"
  },
  {
    "postcode": "25938",
    "city": "Wyk auf Föhr"
  },
  {
    "postcode": "25938",
    "city": "Nordfriesland"
  },
  {
    "postcode": "25938",
    "city": "Süderende"
  },
  {
    "postcode": "25938",
    "city": "Großdunsum"
  },
  {
    "postcode": "25938",
    "city": "Goting"
  },
  {
    "postcode": "25938",
    "city": "Klintum"
  },
  {
    "postcode": "25938",
    "city": "Toftum"
  },
  {
    "postcode": "25946",
    "city": "Nebel Amrum"
  },
  {
    "postcode": "25946",
    "city": "Nebel"
  },
  {
    "postcode": "25946",
    "city": "Norddorf Amrum"
  },
  {
    "postcode": "25946",
    "city": "Norddorf"
  },
  {
    "postcode": "25946",
    "city": "Wittdün Amrum"
  },
  {
    "postcode": "25946",
    "city": "Wittdün"
  },
  {
    "postcode": "25946",
    "city": "Nordfriesland"
  },
  {
    "postcode": "25946",
    "city": "Norddorf auf Amrum"
  },
  {
    "postcode": "25946",
    "city": "Wittdün auf Amrum"
  },
  {
    "postcode": "25980",
    "city": "Archsum"
  },
  {
    "postcode": "25980",
    "city": "Keitum"
  },
  {
    "postcode": "25980",
    "city": "Morsum Sylt"
  },
  {
    "postcode": "25980",
    "city": "Morsum"
  },
  {
    "postcode": "25980",
    "city": "Munkmarsch"
  },
  {
    "postcode": "25980",
    "city": "Rantum (Sylt)"
  },
  {
    "postcode": "25980",
    "city": "Rantum"
  },
  {
    "postcode": "25980",
    "city": "Sylt-Ost"
  },
  {
    "postcode": "25980",
    "city": "Tinnum"
  },
  {
    "postcode": "25980",
    "city": "Westerland"
  },
  {
    "postcode": "25980",
    "city": "Nordfriesland"
  },
  {
    "postcode": "25980",
    "city": "Sylt"
  },
  {
    "postcode": "25992",
    "city": "List Sylt"
  },
  {
    "postcode": "25992",
    "city": "List"
  },
  {
    "postcode": "25992",
    "city": "Nordfriesland"
  },
  {
    "postcode": "25992",
    "city": "List auf Sylt"
  },
  {
    "postcode": "25996",
    "city": "Braderup Sylt"
  },
  {
    "postcode": "25996",
    "city": "Braderup"
  },
  {
    "postcode": "25996",
    "city": "Wenningstedt (Sylt)"
  },
  {
    "postcode": "25996",
    "city": "Wenningstedt"
  },
  {
    "postcode": "25996",
    "city": "Nordfriesland"
  },
  {
    "postcode": "25996",
    "city": "Wenningstedt-Braderup (Sylt)"
  },
  {
    "postcode": "25996",
    "city": "Wenningstedt-Braderup"
  },
  {
    "postcode": "25997",
    "city": "Hörnum (Sylt)"
  },
  {
    "postcode": "25997",
    "city": "Hörnum"
  },
  {
    "postcode": "25997",
    "city": "Nordfriesland"
  },
  {
    "postcode": "25999",
    "city": "Kampen (Sylt)"
  },
  {
    "postcode": "25999",
    "city": "Kampen"
  },
  {
    "postcode": "25999",
    "city": "Nordfriesland"
  },
  {
    "postcode": "25867",
    "city": "Nordfriesland"
  },
  {
    "postcode": "25867",
    "city": "Oland"
  }
]