[
  {
    "postcode": "89073",
    "city": "Mitte"
  },
  {
    "postcode": "89073",
    "city": "Oststadt"
  },
  {
    "postcode": "89073",
    "city": "Römerhöfe"
  },
  {
    "postcode": "89073",
    "city": "Sankt Moritz"
  },
  {
    "postcode": "89073",
    "city": "Schaffelkingen"
  },
  {
    "postcode": "89073",
    "city": "Ulm (Donau)"
  },
  {
    "postcode": "89073",
    "city": "Ulm"
  },
  {
    "postcode": "89073",
    "city": "Unterer Riedhof"
  },
  {
    "postcode": "89075",
    "city": "Böfingen"
  },
  {
    "postcode": "89075",
    "city": "Eselsberg"
  },
  {
    "postcode": "89075",
    "city": "Mitte"
  },
  {
    "postcode": "89075",
    "city": "Oststadt"
  },
  {
    "postcode": "89075",
    "city": "Söflingen"
  },
  {
    "postcode": "89075",
    "city": "Ulm (Donau)"
  },
  {
    "postcode": "89075",
    "city": "Ulm"
  },
  {
    "postcode": "89075",
    "city": "Jungingen"
  },
  {
    "postcode": "89077",
    "city": "Söflingen"
  },
  {
    "postcode": "89077",
    "city": "Ulm (Donau)"
  },
  {
    "postcode": "89077",
    "city": "Ulm"
  },
  {
    "postcode": "89077",
    "city": "Weststadt"
  },
  {
    "postcode": "89079",
    "city": "Donaustetten"
  },
  {
    "postcode": "89079",
    "city": "Donautal"
  },
  {
    "postcode": "89079",
    "city": "Eggingen"
  },
  {
    "postcode": "89079",
    "city": "Einsingen"
  },
  {
    "postcode": "89079",
    "city": "Gögglingen"
  },
  {
    "postcode": "89079",
    "city": "Oberer Riedhof"
  },
  {
    "postcode": "89079",
    "city": "Ulm (Donau)"
  },
  {
    "postcode": "89079",
    "city": "Ulm"
  },
  {
    "postcode": "89079",
    "city": "Unterweiler"
  },
  {
    "postcode": "89079",
    "city": "Wiblingen"
  },
  {
    "postcode": "89081",
    "city": "Allewind"
  },
  {
    "postcode": "89081",
    "city": "Ermingen"
  },
  {
    "postcode": "89081",
    "city": "Eselsberg"
  },
  {
    "postcode": "89081",
    "city": "Grimmelfingen"
  },
  {
    "postcode": "89081",
    "city": "Harthausen"
  },
  {
    "postcode": "89081",
    "city": "Jungingen"
  },
  {
    "postcode": "89081",
    "city": "Kesselbronn"
  },
  {
    "postcode": "89081",
    "city": "Lehr"
  },
  {
    "postcode": "89081",
    "city": "Mähringen"
  },
  {
    "postcode": "89081",
    "city": "Mitte"
  },
  {
    "postcode": "89081",
    "city": "Oberhaslach"
  },
  {
    "postcode": "89081",
    "city": "Oststadt"
  },
  {
    "postcode": "89081",
    "city": "Söflingen"
  },
  {
    "postcode": "89081",
    "city": "Ulm (Donau)"
  },
  {
    "postcode": "89081",
    "city": "Ulm"
  },
  {
    "postcode": "89081",
    "city": "Unterhaslach"
  },
  {
    "postcode": "89081",
    "city": "Weststadt"
  },
  {
    "postcode": "89081",
    "city": "Seligweiler"
  },
  {
    "postcode": "89081",
    "city": "Böfingen"
  },
  {
    "postcode": "89129",
    "city": "Albeck"
  },
  {
    "postcode": "89129",
    "city": "Göttingen"
  },
  {
    "postcode": "89129",
    "city": "Hörvelsingen"
  },
  {
    "postcode": "89129",
    "city": "Langenau"
  },
  {
    "postcode": "89129",
    "city": "Langenau (Württemberg)"
  },
  {
    "postcode": "89129",
    "city": "Nerenstetten"
  },
  {
    "postcode": "89129",
    "city": "Öllingen (Württemberg)"
  },
  {
    "postcode": "89129",
    "city": "Öllingen"
  },
  {
    "postcode": "89129",
    "city": "Osterstetten"
  },
  {
    "postcode": "89129",
    "city": "Riedhöfe"
  },
  {
    "postcode": "89129",
    "city": "Setzingen"
  },
  {
    "postcode": "89129",
    "city": "Staudenhöfe"
  },
  {
    "postcode": "89129",
    "city": "Stuppelau"
  },
  {
    "postcode": "89129",
    "city": "Witthau"
  },
  {
    "postcode": "89129",
    "city": "Alb-Donau-Kreis"
  },
  {
    "postcode": "89129",
    "city": "Wettingen"
  },
  {
    "postcode": "89134",
    "city": "Arnegg"
  },
  {
    "postcode": "89134",
    "city": "Bermaringen"
  },
  {
    "postcode": "89134",
    "city": "Blaustein (Württemberg)"
  },
  {
    "postcode": "89134",
    "city": "Blaustein"
  },
  {
    "postcode": "89134",
    "city": "Dietingen"
  },
  {
    "postcode": "89134",
    "city": "Ehrenstein"
  },
  {
    "postcode": "89134",
    "city": "Herrlingen"
  },
  {
    "postcode": "89134",
    "city": "Hohenstein"
  },
  {
    "postcode": "89134",
    "city": "Klingenstein"
  },
  {
    "postcode": "89134",
    "city": "Markbronn"
  },
  {
    "postcode": "89134",
    "city": "Oberherrlingen"
  },
  {
    "postcode": "89134",
    "city": "Weidach"
  },
  {
    "postcode": "89134",
    "city": "Wippingen"
  },
  {
    "postcode": "89134",
    "city": "Alb-Donau-Kreis"
  },
  {
    "postcode": "89143",
    "city": "Altental"
  },
  {
    "postcode": "89143",
    "city": "Asch"
  },
  {
    "postcode": "89143",
    "city": "Beiningen"
  },
  {
    "postcode": "89143",
    "city": "Blaubeuren"
  },
  {
    "postcode": "89143",
    "city": "Erstetten"
  },
  {
    "postcode": "89143",
    "city": "Gerhausen"
  },
  {
    "postcode": "89143",
    "city": "Hessenhöfe"
  },
  {
    "postcode": "89143",
    "city": "Pappelau"
  },
  {
    "postcode": "89143",
    "city": "Seißen"
  },
  {
    "postcode": "89143",
    "city": "Sonderbuch"
  },
  {
    "postcode": "89143",
    "city": "Sotzenhausen Gemeinde Pappelau"
  },
  {
    "postcode": "89143",
    "city": "Sotzenhausen"
  },
  {
    "postcode": "89143",
    "city": "Steigziegelhütte"
  },
  {
    "postcode": "89143",
    "city": "Weiler"
  },
  {
    "postcode": "89143",
    "city": "Wennenden"
  },
  {
    "postcode": "89143",
    "city": "Alb-Donau-Kreis"
  },
  {
    "postcode": "89143",
    "city": "Hinterer Hessenhof"
  },
  {
    "postcode": "89143",
    "city": "Stadt Schelklingen"
  },
  {
    "postcode": "89150",
    "city": "Feldstetten"
  },
  {
    "postcode": "89150",
    "city": "Laichingen"
  },
  {
    "postcode": "89150",
    "city": "Machtolsheim"
  },
  {
    "postcode": "89150",
    "city": "Suppingen"
  },
  {
    "postcode": "89150",
    "city": "Ziegelhäuser"
  },
  {
    "postcode": "89150",
    "city": "Alb-Donau-Kreis"
  },
  {
    "postcode": "89155",
    "city": "Bach"
  },
  {
    "postcode": "89155",
    "city": "Dellmensingen"
  },
  {
    "postcode": "89155",
    "city": "Donaurieden"
  },
  {
    "postcode": "89155",
    "city": "Erbach"
  },
  {
    "postcode": "89155",
    "city": "Erbach (Donau)"
  },
  {
    "postcode": "89155",
    "city": "Ersingen"
  },
  {
    "postcode": "89155",
    "city": "Ringingen"
  },
  {
    "postcode": "89155",
    "city": "Steinenfeld"
  },
  {
    "postcode": "89155",
    "city": "Wernau"
  },
  {
    "postcode": "89155",
    "city": "Alb-Donau-Kreis"
  },
  {
    "postcode": "89160",
    "city": "Bollingen"
  },
  {
    "postcode": "89160",
    "city": "Böttingen"
  },
  {
    "postcode": "89160",
    "city": "Dornstadt"
  },
  {
    "postcode": "89160",
    "city": "Dornstadt (Württemberg)"
  },
  {
    "postcode": "89160",
    "city": "Scharenstetten"
  },
  {
    "postcode": "89160",
    "city": "Temmenhausen"
  },
  {
    "postcode": "89160",
    "city": "Tomerdingen"
  },
  {
    "postcode": "89160",
    "city": "Alb-Donau-Kreis"
  },
  {
    "postcode": "89160",
    "city": "Himmelweiler"
  },
  {
    "postcode": "89165",
    "city": "Brandenburg"
  },
  {
    "postcode": "89165",
    "city": "Dietenheim"
  },
  {
    "postcode": "89165",
    "city": "Dietenheim (Iller)"
  },
  {
    "postcode": "89165",
    "city": "Kreuthöfe"
  },
  {
    "postcode": "89165",
    "city": "Regglisweiler"
  },
  {
    "postcode": "89165",
    "city": "Alb-Donau-Kreis"
  },
  {
    "postcode": "89165",
    "city": "Dürach"
  },
  {
    "postcode": "89165",
    "city": "Halbertshof"
  },
  {
    "postcode": "89165",
    "city": "Oberführbuch"
  },
  {
    "postcode": "89165",
    "city": "Unterführbuch"
  },
  {
    "postcode": "89168",
    "city": "Lontal"
  },
  {
    "postcode": "89168",
    "city": "Niederstotzingen"
  },
  {
    "postcode": "89168",
    "city": "Oberstotzingen"
  },
  {
    "postcode": "89168",
    "city": "Reuendorf"
  },
  {
    "postcode": "89168",
    "city": "Stetten"
  },
  {
    "postcode": "89168",
    "city": "Heidenheim"
  },
  {
    "postcode": "89171",
    "city": "Beutelreusch"
  },
  {
    "postcode": "89171",
    "city": "Buch"
  },
  {
    "postcode": "89171",
    "city": "Illerkirchberg"
  },
  {
    "postcode": "89171",
    "city": "Mussingen"
  },
  {
    "postcode": "89171",
    "city": "Oberkirchberg"
  },
  {
    "postcode": "89171",
    "city": "Oberweiler"
  },
  {
    "postcode": "89171",
    "city": "Unterkirchberg"
  },
  {
    "postcode": "89171",
    "city": "Alb-Donau-Kreis"
  },
  {
    "postcode": "89173",
    "city": "Ettlenschieß"
  },
  {
    "postcode": "89173",
    "city": "Halzhausen"
  },
  {
    "postcode": "89173",
    "city": "Lonsee"
  },
  {
    "postcode": "89173",
    "city": "Luizhausen"
  },
  {
    "postcode": "89173",
    "city": "Radelstetten"
  },
  {
    "postcode": "89173",
    "city": "Sinabronn"
  },
  {
    "postcode": "89173",
    "city": "Urspring"
  },
  {
    "postcode": "89173",
    "city": "Alb-Donau-Kreis"
  },
  {
    "postcode": "89174",
    "city": "Altheim"
  },
  {
    "postcode": "89174",
    "city": "Altheim (Alb)"
  },
  {
    "postcode": "89174",
    "city": "Söglingen"
  },
  {
    "postcode": "89174",
    "city": "Zähringen"
  },
  {
    "postcode": "89174",
    "city": "Alb-Donau-Kreis"
  },
  {
    "postcode": "89174",
    "city": "Märkleshöfe"
  },
  {
    "postcode": "89176",
    "city": "Asselfingen"
  },
  {
    "postcode": "89176",
    "city": "Alb-Donau-Kreis"
  },
  {
    "postcode": "89177",
    "city": "Ballendorf"
  },
  {
    "postcode": "89177",
    "city": "Ballendorf (Württemberg)"
  },
  {
    "postcode": "89177",
    "city": "Börslingen"
  },
  {
    "postcode": "89177",
    "city": "Mehrstetten"
  },
  {
    "postcode": "89177",
    "city": "Alb-Donau-Kreis"
  },
  {
    "postcode": "89179",
    "city": "Beimerstetten"
  },
  {
    "postcode": "89179",
    "city": "Eiselau"
  },
  {
    "postcode": "89179",
    "city": "Hagen"
  },
  {
    "postcode": "89179",
    "city": "Alb-Donau-Kreis"
  },
  {
    "postcode": "89180",
    "city": "Berghülen"
  },
  {
    "postcode": "89180",
    "city": "Bühlenhausen"
  },
  {
    "postcode": "89180",
    "city": "Treffensbuch"
  },
  {
    "postcode": "89180",
    "city": "Ziegelhütte"
  },
  {
    "postcode": "89180",
    "city": "Alb-Donau-Kreis"
  },
  {
    "postcode": "89182",
    "city": "Bernstadt (Württemberg)"
  },
  {
    "postcode": "89182",
    "city": "Bernstadt"
  },
  {
    "postcode": "89182",
    "city": "Alb-Donau-Kreis"
  },
  {
    "postcode": "89183",
    "city": "Breitingen"
  },
  {
    "postcode": "89183",
    "city": "Holzkirch"
  },
  {
    "postcode": "89183",
    "city": "Schönrain"
  },
  {
    "postcode": "89183",
    "city": "Alb-Donau-Kreis"
  },
  {
    "postcode": "89185",
    "city": "Humlangen"
  },
  {
    "postcode": "89185",
    "city": "Hüttisheim"
  },
  {
    "postcode": "89185",
    "city": "Alb-Donau-Kreis"
  },
  {
    "postcode": "89186",
    "city": "Dorndorf"
  },
  {
    "postcode": "89186",
    "city": "Illerrieden"
  },
  {
    "postcode": "89186",
    "city": "Wangen"
  },
  {
    "postcode": "89186",
    "city": "Alb-Donau-Kreis"
  },
  {
    "postcode": "89188",
    "city": "Merklingen"
  },
  {
    "postcode": "89188",
    "city": "Merklingen (Alb)"
  },
  {
    "postcode": "89188",
    "city": "Widderstall"
  },
  {
    "postcode": "89188",
    "city": "Alb-Donau-Kreis"
  },
  {
    "postcode": "89188",
    "city": "Wochenendhausgebiet Ohnreine"
  },
  {
    "postcode": "89189",
    "city": "Neenstetten"
  },
  {
    "postcode": "89189",
    "city": "Alb-Donau-Kreis"
  },
  {
    "postcode": "89189",
    "city": "Eisental"
  },
  {
    "postcode": "89189",
    "city": "Himmelreich"
  },
  {
    "postcode": "89191",
    "city": "Aichen"
  },
  {
    "postcode": "89191",
    "city": "Nellingen"
  },
  {
    "postcode": "89191",
    "city": "Nellingen (Alb)"
  },
  {
    "postcode": "89191",
    "city": "Oppingen"
  },
  {
    "postcode": "89191",
    "city": "Alb-Donau-Kreis"
  },
  {
    "postcode": "89191",
    "city": "Geislingen"
  },
  {
    "postcode": "89191",
    "city": "Geislingen an der Steige"
  },
  {
    "postcode": "89192",
    "city": "Lindenau"
  },
  {
    "postcode": "89192",
    "city": "Rammingen"
  },
  {
    "postcode": "89192",
    "city": "Rammingen (Württemberg)"
  },
  {
    "postcode": "89192",
    "city": "Alb-Donau-Kreis"
  },
  {
    "postcode": "89194",
    "city": "Ammerstetten"
  },
  {
    "postcode": "89194",
    "city": "Beuren"
  },
  {
    "postcode": "89194",
    "city": "Schnürpflingen"
  },
  {
    "postcode": "89194",
    "city": "Alb-Donau-Kreis"
  },
  {
    "postcode": "89195",
    "city": "Altheim ob Weihung"
  },
  {
    "postcode": "89195",
    "city": "Essendorf"
  },
  {
    "postcode": "89195",
    "city": "Harthausen"
  },
  {
    "postcode": "89195",
    "city": "Staig"
  },
  {
    "postcode": "89195",
    "city": "Staig (Weihung)"
  },
  {
    "postcode": "89195",
    "city": "Steinberg"
  },
  {
    "postcode": "89195",
    "city": "Weinstetten"
  },
  {
    "postcode": "89195",
    "city": "Alb-Donau-Kreis"
  },
  {
    "postcode": "89195",
    "city": "Altheim"
  },
  {
    "postcode": "89195",
    "city": "Gem Illerkirchberg"
  },
  {
    "postcode": "89197",
    "city": "Schechstetten"
  },
  {
    "postcode": "89197",
    "city": "Weidenstetten"
  },
  {
    "postcode": "89197",
    "city": "Alb-Donau-Kreis"
  },
  {
    "postcode": "89198",
    "city": "Birkhof"
  },
  {
    "postcode": "89198",
    "city": "Hinterdenkental"
  },
  {
    "postcode": "89198",
    "city": "Vorderdenkental"
  },
  {
    "postcode": "89198",
    "city": "Westerstetten"
  },
  {
    "postcode": "89198",
    "city": "Alb-Donau-Kreis"
  },
  {
    "postcode": "89198",
    "city": "Neudenkental"
  },
  {
    "postcode": "89231",
    "city": "Ludwigsfeld"
  },
  {
    "postcode": "89231",
    "city": "Neu-Ulm"
  },
  {
    "postcode": "89231",
    "city": "Offenhausen"
  },
  {
    "postcode": "89231",
    "city": "Schwaighofen"
  },
  {
    "postcode": "89231",
    "city": "Stadtmitte"
  },
  {
    "postcode": "89231",
    "city": "Weststadt"
  },
  {
    "postcode": "89233",
    "city": "Burlafingen Kreis Neu-Ulm"
  },
  {
    "postcode": "89233",
    "city": "Burlafingen"
  },
  {
    "postcode": "89233",
    "city": "Finningen"
  },
  {
    "postcode": "89233",
    "city": "Gerlenhofen"
  },
  {
    "postcode": "89233",
    "city": "Hausen"
  },
  {
    "postcode": "89233",
    "city": "Holzschwang"
  },
  {
    "postcode": "89233",
    "city": "Jedelhausen"
  },
  {
    "postcode": "89233",
    "city": "Neu-Ulm"
  },
  {
    "postcode": "89233",
    "city": "Offenhausen"
  },
  {
    "postcode": "89233",
    "city": "Pfuhl"
  },
  {
    "postcode": "89233",
    "city": "Reutti"
  },
  {
    "postcode": "89233",
    "city": "Schwaighofen"
  },
  {
    "postcode": "89233",
    "city": "Steinheim"
  },
  {
    "postcode": "89233",
    "city": "Tiefenbach"
  },
  {
    "postcode": "89233",
    "city": "Weiler"
  },
  {
    "postcode": "89233",
    "city": "Ulm"
  },
  {
    "postcode": "89250",
    "city": "Aufheim Iller"
  },
  {
    "postcode": "89250",
    "city": "Aufheim"
  },
  {
    "postcode": "89250",
    "city": "Ay an der Iller"
  },
  {
    "postcode": "89250",
    "city": "Freudenegg an der Iller"
  },
  {
    "postcode": "89250",
    "city": "Hittistetten"
  },
  {
    "postcode": "89250",
    "city": "Senden"
  },
  {
    "postcode": "89250",
    "city": "Senden (Iller)"
  },
  {
    "postcode": "89250",
    "city": "Witzighausen"
  },
  {
    "postcode": "89250",
    "city": "Wullenstetten"
  },
  {
    "postcode": "89250",
    "city": "Neu-Ulm"
  },
  {
    "postcode": "89250",
    "city": "Ay"
  },
  {
    "postcode": "89250",
    "city": "Freudenegg"
  },
  {
    "postcode": "89257",
    "city": "Au bei Illertissen"
  },
  {
    "postcode": "89257",
    "city": "Betlinshausen"
  },
  {
    "postcode": "89257",
    "city": "Binsengraben"
  },
  {
    "postcode": "89257",
    "city": "Dornweiler"
  },
  {
    "postcode": "89257",
    "city": "Illertissen"
  },
  {
    "postcode": "89257",
    "city": "Jedesheim"
  },
  {
    "postcode": "89257",
    "city": "Tiefenbach bei Illertissen"
  },
  {
    "postcode": "89257",
    "city": "Neu-Ulm"
  },
  {
    "postcode": "89257",
    "city": "Tiefenbach"
  },
  {
    "postcode": "89257",
    "city": "Au"
  },
  {
    "postcode": "89257",
    "city": "Auwald"
  },
  {
    "postcode": "89264",
    "city": "Asch Kreis Neu-Ulm"
  },
  {
    "postcode": "89264",
    "city": "Asch"
  },
  {
    "postcode": "89264",
    "city": "Attenhofen Kreis Neu-Ulm"
  },
  {
    "postcode": "89264",
    "city": "Attenhofen"
  },
  {
    "postcode": "89264",
    "city": "Biberachzell"
  },
  {
    "postcode": "89264",
    "city": "Bubenhausen"
  },
  {
    "postcode": "89264",
    "city": "Emershofen"
  },
  {
    "postcode": "89264",
    "city": "Grafertshofen"
  },
  {
    "postcode": "89264",
    "city": "Hegelhofen"
  },
  {
    "postcode": "89264",
    "city": "Oberhausen"
  },
  {
    "postcode": "89264",
    "city": "Oberreichenbach Kreis Neu-Ulm"
  },
  {
    "postcode": "89264",
    "city": "Oberreichenbach"
  },
  {
    "postcode": "89264",
    "city": "Unterreichenbach Kreis Neu-Ulm"
  },
  {
    "postcode": "89264",
    "city": "Unterreichenbach"
  },
  {
    "postcode": "89264",
    "city": "Wallenhausen"
  },
  {
    "postcode": "89264",
    "city": "Weißenhorn"
  },
  {
    "postcode": "89264",
    "city": "Neu-Ulm"
  },
  {
    "postcode": "89269",
    "city": "Illerberg"
  },
  {
    "postcode": "89269",
    "city": "Illerzell"
  },
  {
    "postcode": "89269",
    "city": "Thal"
  },
  {
    "postcode": "89269",
    "city": "Vöhringen"
  },
  {
    "postcode": "89269",
    "city": "Vöhringen (Iller)"
  },
  {
    "postcode": "89269",
    "city": "Neu-Ulm"
  },
  {
    "postcode": "89275",
    "city": "Elchingen (Donau)"
  },
  {
    "postcode": "89275",
    "city": "Elchingen"
  },
  {
    "postcode": "89275",
    "city": "Oberelchingen"
  },
  {
    "postcode": "89275",
    "city": "Thalfingen"
  },
  {
    "postcode": "89275",
    "city": "Unterelchingen"
  },
  {
    "postcode": "89275",
    "city": "Neu-Ulm"
  },
  {
    "postcode": "89278",
    "city": "Leibi"
  },
  {
    "postcode": "89278",
    "city": "Nersingen"
  },
  {
    "postcode": "89278",
    "city": "Oberfahlheim"
  },
  {
    "postcode": "89278",
    "city": "Straß bei Neu-Ulm"
  },
  {
    "postcode": "89278",
    "city": "Unterfahlheim"
  },
  {
    "postcode": "89278",
    "city": "Neu-Ulm"
  },
  {
    "postcode": "89278",
    "city": "Straß"
  },
  {
    "postcode": "89281",
    "city": "Altenstadt"
  },
  {
    "postcode": "89281",
    "city": "Altenstadt Iller"
  },
  {
    "postcode": "89281",
    "city": "Bergenstetten Iller"
  },
  {
    "postcode": "89281",
    "city": "Bergenstetten"
  },
  {
    "postcode": "89281",
    "city": "Dattenhausen Kreis Illertissen"
  },
  {
    "postcode": "89281",
    "city": "Dattenhausen"
  },
  {
    "postcode": "89281",
    "city": "Filzingen Iller"
  },
  {
    "postcode": "89281",
    "city": "Filzingen"
  },
  {
    "postcode": "89281",
    "city": "Herrenstetten"
  },
  {
    "postcode": "89281",
    "city": "Illereichen Iller"
  },
  {
    "postcode": "89281",
    "city": "Illereichen"
  },
  {
    "postcode": "89281",
    "city": "Untereichen Iller"
  },
  {
    "postcode": "89281",
    "city": "Untereichen"
  },
  {
    "postcode": "89281",
    "city": "Neu-Ulm"
  },
  {
    "postcode": "89284",
    "city": "Balmertshofen"
  },
  {
    "postcode": "89284",
    "city": "Berg Kreis Neu-Ulm"
  },
  {
    "postcode": "89284",
    "city": "Berg"
  },
  {
    "postcode": "89284",
    "city": "Beuren bei Neu-Ulm"
  },
  {
    "postcode": "89284",
    "city": "Biberberg"
  },
  {
    "postcode": "89284",
    "city": "Diepertshofen an der Roth"
  },
  {
    "postcode": "89284",
    "city": "Erbishofen an der Roth"
  },
  {
    "postcode": "89284",
    "city": "Hirbishofen"
  },
  {
    "postcode": "89284",
    "city": "Kadeltshofen an der Roth"
  },
  {
    "postcode": "89284",
    "city": "Luippen bei Neu-Ulm"
  },
  {
    "postcode": "89284",
    "city": "Niederhausen bei Neu-Ulm"
  },
  {
    "postcode": "89284",
    "city": "Pfaffenhofen"
  },
  {
    "postcode": "89284",
    "city": "Pfaffenhofen an der Roth"
  },
  {
    "postcode": "89284",
    "city": "Raunertshofen"
  },
  {
    "postcode": "89284",
    "city": "Remmeltshofen"
  },
  {
    "postcode": "89284",
    "city": "Roth an der Roth"
  },
  {
    "postcode": "89284",
    "city": "Volkertshofen an der Roth"
  },
  {
    "postcode": "89284",
    "city": "Neu-Ulm"
  },
  {
    "postcode": "89284",
    "city": "Pfaffenhofen a.d.Roth"
  },
  {
    "postcode": "89284",
    "city": "Niederhausen"
  },
  {
    "postcode": "89284",
    "city": "Kadeltshofen"
  },
  {
    "postcode": "89284",
    "city": "Beuren"
  },
  {
    "postcode": "89284",
    "city": "Roth"
  },
  {
    "postcode": "89284",
    "city": "Diepertshofen"
  },
  {
    "postcode": "89284",
    "city": "Erbishofen"
  },
  {
    "postcode": "89284",
    "city": "Volkertshofen"
  },
  {
    "postcode": "89284",
    "city": "Luippen"
  },
  {
    "postcode": "89287",
    "city": "Bellenberg Schwaben"
  },
  {
    "postcode": "89287",
    "city": "Bellenberg"
  },
  {
    "postcode": "89287",
    "city": "Neu-Ulm"
  },
  {
    "postcode": "89290",
    "city": "Buch bei Illertissen"
  },
  {
    "postcode": "89290",
    "city": "Christertshofen bei Illertissen"
  },
  {
    "postcode": "89290",
    "city": "Dietershofen bei Illertissen"
  },
  {
    "postcode": "89290",
    "city": "Ebersbach Kreis Illertissen"
  },
  {
    "postcode": "89290",
    "city": "Ebersbach"
  },
  {
    "postcode": "89290",
    "city": "Friesenhofen"
  },
  {
    "postcode": "89290",
    "city": "Gannertshofen bei Illertissen"
  },
  {
    "postcode": "89290",
    "city": "Halbertshofen"
  },
  {
    "postcode": "89290",
    "city": "Hochbuch"
  },
  {
    "postcode": "89290",
    "city": "Nordholz bei Illertissen"
  },
  {
    "postcode": "89290",
    "city": "Obenhausen bei Illertissen"
  },
  {
    "postcode": "89290",
    "city": "Rennertshofen bei Illertissen"
  },
  {
    "postcode": "89290",
    "city": "Ritzisried bei Illertissen"
  },
  {
    "postcode": "89290",
    "city": "Waldreichenbach bei Illertissen"
  },
  {
    "postcode": "89290",
    "city": "Neu-Ulm"
  },
  {
    "postcode": "89290",
    "city": "Buch"
  },
  {
    "postcode": "89290",
    "city": "Dietershofen"
  },
  {
    "postcode": "89290",
    "city": "Gannertshofen"
  },
  {
    "postcode": "89290",
    "city": "Nordholz"
  },
  {
    "postcode": "89290",
    "city": "Rennertshofen"
  },
  {
    "postcode": "89290",
    "city": "Christertshofen"
  },
  {
    "postcode": "89290",
    "city": "Obenhausen"
  },
  {
    "postcode": "89290",
    "city": "Ritzisried"
  },
  {
    "postcode": "89291",
    "city": "Holzheim"
  },
  {
    "postcode": "89291",
    "city": "Holzheim bei Neu-Ulm"
  },
  {
    "postcode": "89291",
    "city": "Neuhausen Kreis Neu-Ulm"
  },
  {
    "postcode": "89291",
    "city": "Neuhausen"
  },
  {
    "postcode": "89291",
    "city": "Neu-Ulm"
  },
  {
    "postcode": "89293",
    "city": "Kellmünz an der Iller"
  },
  {
    "postcode": "89293",
    "city": "Neu-Ulm"
  },
  {
    "postcode": "89293",
    "city": "Kellmünz a.d.Iller"
  },
  {
    "postcode": "89294",
    "city": "Oberroth"
  },
  {
    "postcode": "89294",
    "city": "Oberroth bei Illertissen"
  },
  {
    "postcode": "89294",
    "city": "Schalkshofen bei Illertissen"
  },
  {
    "postcode": "89294",
    "city": "Neu-Ulm"
  },
  {
    "postcode": "89294",
    "city": "Schalkshofen"
  },
  {
    "postcode": "89296",
    "city": "Osterberg"
  },
  {
    "postcode": "89296",
    "city": "Osterberg bei Illertissen"
  },
  {
    "postcode": "89296",
    "city": "Weiler an der Iller"
  },
  {
    "postcode": "89296",
    "city": "Neu-Ulm"
  },
  {
    "postcode": "89296",
    "city": "Weiler"
  },
  {
    "postcode": "89297",
    "city": "Biberach Kreis Neu-Ulm"
  },
  {
    "postcode": "89297",
    "city": "Biberach"
  },
  {
    "postcode": "89297",
    "city": "Ingstetten Kreis Neu-Ulm"
  },
  {
    "postcode": "89297",
    "city": "Ingstetten"
  },
  {
    "postcode": "89297",
    "city": "Meßhofen"
  },
  {
    "postcode": "89297",
    "city": "Roggenburg"
  },
  {
    "postcode": "89297",
    "city": "Roggenburg Schwaben"
  },
  {
    "postcode": "89297",
    "city": "Schießen"
  },
  {
    "postcode": "89297",
    "city": "Schleebuch"
  },
  {
    "postcode": "89297",
    "city": "Unteregg"
  },
  {
    "postcode": "89297",
    "city": "Neu-Ulm"
  },
  {
    "postcode": "89297",
    "city": "Dirrfelden"
  },
  {
    "postcode": "89299",
    "city": "Matzenhofen bei Illertissen"
  },
  {
    "postcode": "89299",
    "city": "Unterroth bei Illertissen"
  },
  {
    "postcode": "89299",
    "city": "Neu-Ulm"
  },
  {
    "postcode": "89299",
    "city": "Unterroth"
  },
  {
    "postcode": "89312",
    "city": "Deffingen"
  },
  {
    "postcode": "89312",
    "city": "Denzingen"
  },
  {
    "postcode": "89312",
    "city": "Günzburg"
  },
  {
    "postcode": "89312",
    "city": "Leinheim"
  },
  {
    "postcode": "89312",
    "city": "Nornheim"
  },
  {
    "postcode": "89312",
    "city": "Reisensburg"
  },
  {
    "postcode": "89312",
    "city": "Riedhausen bei Günzburg"
  },
  {
    "postcode": "89312",
    "city": "Wasserburg"
  },
  {
    "postcode": "89312",
    "city": "Riedhausen"
  },
  {
    "postcode": "89312",
    "city": "Mittelriedsiedlung"
  },
  {
    "postcode": "89331",
    "city": "Burgau"
  },
  {
    "postcode": "89331",
    "city": "Burgau Schwaben"
  },
  {
    "postcode": "89331",
    "city": "Großanhausen"
  },
  {
    "postcode": "89331",
    "city": "Kleinanhausen"
  },
  {
    "postcode": "89331",
    "city": "Limbach Kreis Günzburg"
  },
  {
    "postcode": "89331",
    "city": "Limbach"
  },
  {
    "postcode": "89331",
    "city": "Oberknöringen"
  },
  {
    "postcode": "89331",
    "city": "Unterknöringen"
  },
  {
    "postcode": "89331",
    "city": "Günzburg"
  },
  {
    "postcode": "89331",
    "city": "Gemeinde Kammeltal"
  },
  {
    "postcode": "89335",
    "city": "Autenried Kreis Günzburg"
  },
  {
    "postcode": "89335",
    "city": "Autenried"
  },
  {
    "postcode": "89335",
    "city": "Deubach"
  },
  {
    "postcode": "89335",
    "city": "Hochwang Kreis Günzburg"
  },
  {
    "postcode": "89335",
    "city": "Hochwang"
  },
  {
    "postcode": "89335",
    "city": "Ichenhausen"
  },
  {
    "postcode": "89335",
    "city": "Oxenbronn"
  },
  {
    "postcode": "89335",
    "city": "Rieden bei Günzburg"
  },
  {
    "postcode": "89335",
    "city": "Günzburg"
  },
  {
    "postcode": "89335",
    "city": "Brandfeld"
  },
  {
    "postcode": "89335",
    "city": "Heubelsburg"
  },
  {
    "postcode": "89335",
    "city": "Wiblishauserhof"
  },
  {
    "postcode": "89335",
    "city": "Rieden"
  },
  {
    "postcode": "89340",
    "city": "Leipheim"
  },
  {
    "postcode": "89340",
    "city": "Riedheim Kreis Günzburg"
  },
  {
    "postcode": "89340",
    "city": "Riedheim"
  },
  {
    "postcode": "89340",
    "city": "Weißingen Kreis Günzburg"
  },
  {
    "postcode": "89340",
    "city": "Weißingen"
  },
  {
    "postcode": "89340",
    "city": "Günzburg"
  },
  {
    "postcode": "89343",
    "city": "Eberstall"
  },
  {
    "postcode": "89343",
    "city": "Freihalden"
  },
  {
    "postcode": "89343",
    "city": "Jettingen"
  },
  {
    "postcode": "89343",
    "city": "Jettingen-Scheppach"
  },
  {
    "postcode": "89343",
    "city": "Ried"
  },
  {
    "postcode": "89343",
    "city": "Scheppach"
  },
  {
    "postcode": "89343",
    "city": "Schönenberg Kreis Günzburg"
  },
  {
    "postcode": "89343",
    "city": "Schönenberg"
  },
  {
    "postcode": "89343",
    "city": "Günzburg"
  },
  {
    "postcode": "89343",
    "city": "Unterwaldbach"
  },
  {
    "postcode": "89344",
    "city": "Aislingen"
  },
  {
    "postcode": "89344",
    "city": "Aislingen Schwaben"
  },
  {
    "postcode": "89344",
    "city": "Baumgarten Schwaben"
  },
  {
    "postcode": "89344",
    "city": "Baumgarten"
  },
  {
    "postcode": "89344",
    "city": "Rieder Schwaben"
  },
  {
    "postcode": "89344",
    "city": "Rieder"
  },
  {
    "postcode": "89344",
    "city": "Dillingen an der Donau"
  },
  {
    "postcode": "89344",
    "city": "Windhausen"
  },
  {
    "postcode": "89346",
    "city": "Anhofen Kreis Günzburg"
  },
  {
    "postcode": "89346",
    "city": "Anhofen"
  },
  {
    "postcode": "89346",
    "city": "Bibertal Schwaben"
  },
  {
    "postcode": "89346",
    "city": "Bibertal"
  },
  {
    "postcode": "89346",
    "city": "Bühl Kreis Günzburg"
  },
  {
    "postcode": "89346",
    "city": "Bühl"
  },
  {
    "postcode": "89346",
    "city": "Echlishausen Kreis Günzburg"
  },
  {
    "postcode": "89346",
    "city": "Echlishausen"
  },
  {
    "postcode": "89346",
    "city": "Ettlishofen"
  },
  {
    "postcode": "89346",
    "city": "Hetschwang"
  },
  {
    "postcode": "89346",
    "city": "Kissendorf"
  },
  {
    "postcode": "89346",
    "city": "Opferstetten Kreis Günzburg"
  },
  {
    "postcode": "89346",
    "city": "Opferstetten"
  },
  {
    "postcode": "89346",
    "city": "Schneckenhofen"
  },
  {
    "postcode": "89346",
    "city": "Silheim"
  },
  {
    "postcode": "89346",
    "city": "Günzburg"
  },
  {
    "postcode": "89347",
    "city": "Bubesheim"
  },
  {
    "postcode": "89347",
    "city": "Günzburg"
  },
  {
    "postcode": "89349",
    "city": "Burtenbach"
  },
  {
    "postcode": "89349",
    "city": "Kemnat Kreis Günzburg"
  },
  {
    "postcode": "89349",
    "city": "Kemnat"
  },
  {
    "postcode": "89349",
    "city": "Oberwaldbach"
  },
  {
    "postcode": "89349",
    "city": "Günzburg"
  },
  {
    "postcode": "89350",
    "city": "Dürrlauingen"
  },
  {
    "postcode": "89350",
    "city": "Mindelaltheim"
  },
  {
    "postcode": "89350",
    "city": "Mönstetten"
  },
  {
    "postcode": "89350",
    "city": "Günzburg"
  },
  {
    "postcode": "89352",
    "city": "Ellzee"
  },
  {
    "postcode": "89352",
    "city": "Hausen bei Günzburg"
  },
  {
    "postcode": "89352",
    "city": "Stoffenried"
  },
  {
    "postcode": "89352",
    "city": "Günzburg"
  },
  {
    "postcode": "89352",
    "city": "Hausen"
  },
  {
    "postcode": "89353",
    "city": "Glött Schwaben"
  },
  {
    "postcode": "89353",
    "city": "Glött"
  },
  {
    "postcode": "89353",
    "city": "Heudorf"
  },
  {
    "postcode": "89353",
    "city": "Dillingen an der Donau"
  },
  {
    "postcode": "89355",
    "city": "Gundremmingen"
  },
  {
    "postcode": "89355",
    "city": "Günzburg"
  },
  {
    "postcode": "89356",
    "city": "Eichenhofen Kreis Günzburg"
  },
  {
    "postcode": "89356",
    "city": "Eichenhofen"
  },
  {
    "postcode": "89356",
    "city": "Hafenhofen"
  },
  {
    "postcode": "89356",
    "city": "Haldenwang"
  },
  {
    "postcode": "89356",
    "city": "Haldenwang Kreis Günzburg"
  },
  {
    "postcode": "89356",
    "city": "Konzenberg Kreis Günzburg"
  },
  {
    "postcode": "89356",
    "city": "Konzenberg"
  },
  {
    "postcode": "89356",
    "city": "Günzburg"
  },
  {
    "postcode": "89358",
    "city": "Behlingen Schwaben"
  },
  {
    "postcode": "89358",
    "city": "Behlingen"
  },
  {
    "postcode": "89358",
    "city": "Egenhofen Kreis Günzburg"
  },
  {
    "postcode": "89358",
    "city": "Egenhofen"
  },
  {
    "postcode": "89358",
    "city": "Ettenbeuren"
  },
  {
    "postcode": "89358",
    "city": "Goldbach"
  },
  {
    "postcode": "89358",
    "city": "Hammerstetten"
  },
  {
    "postcode": "89358",
    "city": "Kammeltal"
  },
  {
    "postcode": "89358",
    "city": "Kleinbeuren"
  },
  {
    "postcode": "89358",
    "city": "Ried"
  },
  {
    "postcode": "89358",
    "city": "Unterrohr Kreis Günzburg"
  },
  {
    "postcode": "89358",
    "city": "Unterrohr"
  },
  {
    "postcode": "89358",
    "city": "Wettenhausen"
  },
  {
    "postcode": "89358",
    "city": "Günzburg"
  },
  {
    "postcode": "89358",
    "city": "Grünhöfe"
  },
  {
    "postcode": "89359",
    "city": "Ebersbach"
  },
  {
    "postcode": "89359",
    "city": "Großkötz"
  },
  {
    "postcode": "89359",
    "city": "Kleinkötz"
  },
  {
    "postcode": "89359",
    "city": "Kötz"
  },
  {
    "postcode": "89359",
    "city": "Günzburg"
  },
  {
    "postcode": "89361",
    "city": "Glöttweng"
  },
  {
    "postcode": "89361",
    "city": "Landensberg"
  },
  {
    "postcode": "89361",
    "city": "Günzburg"
  },
  {
    "postcode": "89362",
    "city": "Offingen"
  },
  {
    "postcode": "89362",
    "city": "Offingen Donau"
  },
  {
    "postcode": "89362",
    "city": "Schnuttenbach"
  },
  {
    "postcode": "89362",
    "city": "Günzburg"
  },
  {
    "postcode": "89364",
    "city": "Harthausen Kreis Günzburg"
  },
  {
    "postcode": "89364",
    "city": "Harthausen"
  },
  {
    "postcode": "89364",
    "city": "Remshart Kreis Günzburg"
  },
  {
    "postcode": "89364",
    "city": "Remshart"
  },
  {
    "postcode": "89364",
    "city": "Rettenbach"
  },
  {
    "postcode": "89364",
    "city": "Rettenbach Kreis Günzburg"
  },
  {
    "postcode": "89364",
    "city": "Günzburg"
  },
  {
    "postcode": "89365",
    "city": "Röfingen"
  },
  {
    "postcode": "89365",
    "city": "Roßhaupten"
  },
  {
    "postcode": "89365",
    "city": "Günzburg"
  },
  {
    "postcode": "89367",
    "city": "Waldstetten (Kreis Günzburg)"
  },
  {
    "postcode": "89367",
    "city": "Waldstetten"
  },
  {
    "postcode": "89367",
    "city": "Günzburg"
  },
  {
    "postcode": "89368",
    "city": "Rechbergreuthen"
  },
  {
    "postcode": "89368",
    "city": "Waldkirch Kreis Günzburg"
  },
  {
    "postcode": "89368",
    "city": "Waldkirch"
  },
  {
    "postcode": "89368",
    "city": "Winterbach (Kreis Günzburg)"
  },
  {
    "postcode": "89368",
    "city": "Winterbach"
  },
  {
    "postcode": "89368",
    "city": "Günzburg"
  },
  {
    "postcode": "89407",
    "city": "Dillingen"
  },
  {
    "postcode": "89407",
    "city": "Dillingen an der Donau"
  },
  {
    "postcode": "89407",
    "city": "Donaualtheim"
  },
  {
    "postcode": "89407",
    "city": "Fristingen"
  },
  {
    "postcode": "89407",
    "city": "Hausen Kreis Dillingen an der Donau"
  },
  {
    "postcode": "89407",
    "city": "Hausen"
  },
  {
    "postcode": "89407",
    "city": "Kicklingen"
  },
  {
    "postcode": "89407",
    "city": "Schretzheim Kreis Dillingen an der Donau"
  },
  {
    "postcode": "89407",
    "city": "Schretzheim"
  },
  {
    "postcode": "89407",
    "city": "Steinheim Kreis Dillingen an der Donau"
  },
  {
    "postcode": "89407",
    "city": "Steinheim"
  },
  {
    "postcode": "89407",
    "city": "Dillingen a.d.Donau"
  },
  {
    "postcode": "89415",
    "city": "Faimingen Donau"
  },
  {
    "postcode": "89415",
    "city": "Faimingen"
  },
  {
    "postcode": "89415",
    "city": "Frauenriedhausen Donau"
  },
  {
    "postcode": "89415",
    "city": "Frauenriedhausen"
  },
  {
    "postcode": "89415",
    "city": "Lauingen"
  },
  {
    "postcode": "89415",
    "city": "Lauingen (Donau)"
  },
  {
    "postcode": "89415",
    "city": "Veitriedhausen"
  },
  {
    "postcode": "89415",
    "city": "Dillingen an der Donau"
  },
  {
    "postcode": "89420",
    "city": "Deisenhofen"
  },
  {
    "postcode": "89420",
    "city": "Höchstädt"
  },
  {
    "postcode": "89420",
    "city": "Höchstädt an der Donau"
  },
  {
    "postcode": "89420",
    "city": "Oberglauheim"
  },
  {
    "postcode": "89420",
    "city": "Schwennenbach"
  },
  {
    "postcode": "89420",
    "city": "Sonderheim Kreis Dillingen an der Donau"
  },
  {
    "postcode": "89420",
    "city": "Sonderheim"
  },
  {
    "postcode": "89420",
    "city": "Dillingen an der Donau"
  },
  {
    "postcode": "89420",
    "city": "Höchstädt a.d.Donau"
  },
  {
    "postcode": "89423",
    "city": "Echenbrunn an der Donau"
  },
  {
    "postcode": "89423",
    "city": "Gundelfingen"
  },
  {
    "postcode": "89423",
    "city": "Gundelfingen an der Donau"
  },
  {
    "postcode": "89423",
    "city": "Peterswörth an der Donau"
  },
  {
    "postcode": "89423",
    "city": "Dillingen an der Donau"
  },
  {
    "postcode": "89423",
    "city": "Gundelfingen a.d.Donau"
  },
  {
    "postcode": "89423",
    "city": "Peterswörth"
  },
  {
    "postcode": "89423",
    "city": "Echenbrunn"
  },
  {
    "postcode": "89423",
    "city": "Emmausheim"
  },
  {
    "postcode": "89426",
    "city": "Bergheim"
  },
  {
    "postcode": "89426",
    "city": "Mödingen"
  },
  {
    "postcode": "89426",
    "city": "Schabringen"
  },
  {
    "postcode": "89426",
    "city": "Wittislingen"
  },
  {
    "postcode": "89426",
    "city": "Zöschlingsweiler"
  },
  {
    "postcode": "89426",
    "city": "Dillingen an der Donau"
  },
  {
    "postcode": "89428",
    "city": "Landshausen Kreis Dillingen an der Donau"
  },
  {
    "postcode": "89428",
    "city": "Landshausen"
  },
  {
    "postcode": "89428",
    "city": "Staufen Kreis Dillingen an der Donau"
  },
  {
    "postcode": "89428",
    "city": "Staufen"
  },
  {
    "postcode": "89428",
    "city": "Syrgenstein Schwaben"
  },
  {
    "postcode": "89428",
    "city": "Syrgenstein"
  },
  {
    "postcode": "89428",
    "city": "Dillingen an der Donau"
  },
  {
    "postcode": "89429",
    "city": "Bachhagel"
  },
  {
    "postcode": "89429",
    "city": "Burghagel"
  },
  {
    "postcode": "89429",
    "city": "Oberbechingen"
  },
  {
    "postcode": "89429",
    "city": "Dillingen an der Donau"
  },
  {
    "postcode": "89431",
    "city": "Bächingen an der Brenz"
  },
  {
    "postcode": "89431",
    "city": "Dillingen an der Donau"
  },
  {
    "postcode": "89431",
    "city": "Bächingen a.d.Brenz"
  },
  {
    "postcode": "89432",
    "city": "Binswangen bei Dillingen an der Donau"
  },
  {
    "postcode": "89434",
    "city": "Blindheim bei Dillingen an der Donau"
  },
  {
    "postcode": "89434",
    "city": "Blindheim Bahnhof"
  },
  {
    "postcode": "89434",
    "city": "Blindheim"
  },
  {
    "postcode": "89434",
    "city": "Unterglauheim"
  },
  {
    "postcode": "89434",
    "city": "Wolpertstetten"
  },
  {
    "postcode": "89434",
    "city": "Dillingen an der Donau"
  },
  {
    "postcode": "89435",
    "city": "Finningen"
  },
  {
    "postcode": "89435",
    "city": "Finningen bei Dillingen an der Donau"
  },
  {
    "postcode": "89435",
    "city": "Mörslingen"
  },
  {
    "postcode": "89435",
    "city": "Oberfinningen Schwaben"
  },
  {
    "postcode": "89435",
    "city": "Oberfinningen"
  },
  {
    "postcode": "89435",
    "city": "Unterfinningen Schwaben"
  },
  {
    "postcode": "89435",
    "city": "Unterfinningen"
  },
  {
    "postcode": "89435",
    "city": "Dillingen an der Donau"
  },
  {
    "postcode": "89437",
    "city": "Haunsheim"
  },
  {
    "postcode": "89437",
    "city": "Unterbechingen"
  },
  {
    "postcode": "89437",
    "city": "Dillingen an der Donau"
  },
  {
    "postcode": "89438",
    "city": "Altenbaindt Kreis Dillingen an der Donau"
  },
  {
    "postcode": "89438",
    "city": "Altenbaindt"
  },
  {
    "postcode": "89438",
    "city": "Ellerbach Kreis Dillingen an der Donau"
  },
  {
    "postcode": "89438",
    "city": "Ellerbach"
  },
  {
    "postcode": "89438",
    "city": "Eppisburg"
  },
  {
    "postcode": "89438",
    "city": "Fultenbach"
  },
  {
    "postcode": "89438",
    "city": "Holzheim"
  },
  {
    "postcode": "89438",
    "city": "Holzheim Kreis Dillingen an der Donau"
  },
  {
    "postcode": "89438",
    "city": "Weisingen Kreis Dillingen an der Donau"
  },
  {
    "postcode": "89438",
    "city": "Weisingen"
  },
  {
    "postcode": "89438",
    "city": "Dillingen an der Donau"
  },
  {
    "postcode": "89440",
    "city": "Lutzingen"
  },
  {
    "postcode": "89440",
    "city": "Unterliezheim"
  },
  {
    "postcode": "89440",
    "city": "Dillingen an der Donau"
  },
  {
    "postcode": "89441",
    "city": "Medlingen"
  },
  {
    "postcode": "89441",
    "city": "Obermedlingen"
  },
  {
    "postcode": "89441",
    "city": "Untermedlingen"
  },
  {
    "postcode": "89441",
    "city": "Dillingen an der Donau"
  },
  {
    "postcode": "89443",
    "city": "Gremheim Kreis Dillingen an der Donau"
  },
  {
    "postcode": "89443",
    "city": "Gremheim"
  },
  {
    "postcode": "89443",
    "city": "Schwenningen"
  },
  {
    "postcode": "89443",
    "city": "Schwenningen (Kreis Dillingen an der Donau)"
  },
  {
    "postcode": "89443",
    "city": "Dillingen an der Donau"
  },
  {
    "postcode": "89443",
    "city": "Dettenhart"
  },
  {
    "postcode": "89444",
    "city": "Villenbach"
  },
  {
    "postcode": "89446",
    "city": "Dattenhausen"
  },
  {
    "postcode": "89446",
    "city": "Reistingen"
  },
  {
    "postcode": "89446",
    "city": "Ziertheim"
  },
  {
    "postcode": "89446",
    "city": "Dillingen an der Donau"
  },
  {
    "postcode": "89447",
    "city": "Zöschingen"
  },
  {
    "postcode": "89447",
    "city": "Dillingen an der Donau"
  },
  {
    "postcode": "89449",
    "city": "Zusamaltheim"
  },
  {
    "postcode": "89518",
    "city": "Heidenheim an der Brenz"
  },
  {
    "postcode": "89518",
    "city": "Innenstadt"
  },
  {
    "postcode": "89518",
    "city": "Heidenheim"
  },
  {
    "postcode": "89518",
    "city": "Schnaitheim"
  },
  {
    "postcode": "89520",
    "city": "Asbach (Brenz)"
  },
  {
    "postcode": "89520",
    "city": "Asbach"
  },
  {
    "postcode": "89520",
    "city": "Aufhausen"
  },
  {
    "postcode": "89520",
    "city": "Großkuchen"
  },
  {
    "postcode": "89520",
    "city": "Heidenheim an der Brenz"
  },
  {
    "postcode": "89520",
    "city": "Innenstadt"
  },
  {
    "postcode": "89520",
    "city": "Kleinkuchen"
  },
  {
    "postcode": "89520",
    "city": "Nietheim"
  },
  {
    "postcode": "89520",
    "city": "Rotensohl"
  },
  {
    "postcode": "89520",
    "city": "Schnaitheim"
  },
  {
    "postcode": "89520",
    "city": "Heidenheim"
  },
  {
    "postcode": "89522",
    "city": "Asbach (Brenz)"
  },
  {
    "postcode": "89522",
    "city": "Asbach"
  },
  {
    "postcode": "89522",
    "city": "Heidenheim an der Brenz"
  },
  {
    "postcode": "89522",
    "city": "Innenstadt"
  },
  {
    "postcode": "89522",
    "city": "Mergelstetten"
  },
  {
    "postcode": "89522",
    "city": "Oggenhausen"
  },
  {
    "postcode": "89522",
    "city": "Heidenheim"
  },
  {
    "postcode": "89522",
    "city": "Christophruhe"
  },
  {
    "postcode": "89522",
    "city": "Neu Asbach"
  },
  {
    "postcode": "89537",
    "city": "Burgberg"
  },
  {
    "postcode": "89537",
    "city": "Gemeinde Hermaringen"
  },
  {
    "postcode": "89537",
    "city": "Giengen"
  },
  {
    "postcode": "89537",
    "city": "Giengen an der Brenz"
  },
  {
    "postcode": "89537",
    "city": "Hohenmemmingen"
  },
  {
    "postcode": "89537",
    "city": "Hürben"
  },
  {
    "postcode": "89537",
    "city": "Sachsenhausen"
  },
  {
    "postcode": "89537",
    "city": "Heidenheim"
  },
  {
    "postcode": "89537",
    "city": "Gerschweiler"
  },
  {
    "postcode": "89542",
    "city": "Anhausen"
  },
  {
    "postcode": "89542",
    "city": "Bernau"
  },
  {
    "postcode": "89542",
    "city": "Bissingen"
  },
  {
    "postcode": "89542",
    "city": "Bolheim"
  },
  {
    "postcode": "89542",
    "city": "Eselsburg"
  },
  {
    "postcode": "89542",
    "city": "Hausen"
  },
  {
    "postcode": "89542",
    "city": "Herbrechtingen"
  },
  {
    "postcode": "89542",
    "city": "Neubolheim"
  },
  {
    "postcode": "89542",
    "city": "Ugenhof"
  },
  {
    "postcode": "89542",
    "city": "Heidenheim"
  },
  {
    "postcode": "89542",
    "city": "Industriepark"
  },
  {
    "postcode": "89547",
    "city": "Dettingen"
  },
  {
    "postcode": "89547",
    "city": "Gerstetten"
  },
  {
    "postcode": "89547",
    "city": "Gerstetten (Württemberg)"
  },
  {
    "postcode": "89547",
    "city": "Gussenstadt"
  },
  {
    "postcode": "89547",
    "city": "Heldenfingen"
  },
  {
    "postcode": "89547",
    "city": "Heuchlingen"
  },
  {
    "postcode": "89547",
    "city": "Heuchstetten"
  },
  {
    "postcode": "89547",
    "city": "Heutenburg"
  },
  {
    "postcode": "89547",
    "city": "Sontbergen"
  },
  {
    "postcode": "89547",
    "city": "Heidenheim"
  },
  {
    "postcode": "89551",
    "city": "Itzelberg"
  },
  {
    "postcode": "89551",
    "city": "Königsbronn"
  },
  {
    "postcode": "89551",
    "city": "Königsbronn (Württemberg)"
  },
  {
    "postcode": "89551",
    "city": "Ochsenberg"
  },
  {
    "postcode": "89551",
    "city": "Zang"
  },
  {
    "postcode": "89551",
    "city": "Heidenheim"
  },
  {
    "postcode": "89555",
    "city": "Dudelhof"
  },
  {
    "postcode": "89555",
    "city": "Gnannenweiler"
  },
  {
    "postcode": "89555",
    "city": "Klosterhof"
  },
  {
    "postcode": "89555",
    "city": "Küpfendorf"
  },
  {
    "postcode": "89555",
    "city": "Neuselhalden"
  },
  {
    "postcode": "89555",
    "city": "Söhnstetten"
  },
  {
    "postcode": "89555",
    "city": "Sontheim"
  },
  {
    "postcode": "89555",
    "city": "Sontheim im Stubental"
  },
  {
    "postcode": "89555",
    "city": "Steinheim"
  },
  {
    "postcode": "89555",
    "city": "Steinheim am Albuch"
  },
  {
    "postcode": "89555",
    "city": "Heidenheim"
  },
  {
    "postcode": "89558",
    "city": "Böhmenkirch"
  },
  {
    "postcode": "89558",
    "city": "Heidhöfe"
  },
  {
    "postcode": "89558",
    "city": "Schnittlingen"
  },
  {
    "postcode": "89558",
    "city": "Steinenkirch"
  },
  {
    "postcode": "89558",
    "city": "Trasenberg"
  },
  {
    "postcode": "89558",
    "city": "Treffelhausen"
  },
  {
    "postcode": "89558",
    "city": "Göppingen"
  },
  {
    "postcode": "89558",
    "city": "Lauterstein"
  },
  {
    "postcode": "89561",
    "city": "Ballmertshofen"
  },
  {
    "postcode": "89561",
    "city": "Demmingen"
  },
  {
    "postcode": "89561",
    "city": "Dischingen"
  },
  {
    "postcode": "89561",
    "city": "Dunstelkingen"
  },
  {
    "postcode": "89561",
    "city": "Eglingen"
  },
  {
    "postcode": "89561",
    "city": "Frickingen"
  },
  {
    "postcode": "89561",
    "city": "Hofen"
  },
  {
    "postcode": "89561",
    "city": "Iggenhausen"
  },
  {
    "postcode": "89561",
    "city": "Katzenstein"
  },
  {
    "postcode": "89561",
    "city": "Osterhofen"
  },
  {
    "postcode": "89561",
    "city": "Taxis"
  },
  {
    "postcode": "89561",
    "city": "Trugenhofen"
  },
  {
    "postcode": "89561",
    "city": "Wagenhofen"
  },
  {
    "postcode": "89561",
    "city": "Heidenheim"
  },
  {
    "postcode": "89561",
    "city": "Schrezheim"
  },
  {
    "postcode": "89564",
    "city": "Auernheim"
  },
  {
    "postcode": "89564",
    "city": "Fleinheim"
  },
  {
    "postcode": "89564",
    "city": "Nattheim"
  },
  {
    "postcode": "89564",
    "city": "Steinweiler"
  },
  {
    "postcode": "89564",
    "city": "Wahlberg"
  },
  {
    "postcode": "89564",
    "city": "Heidenheim"
  },
  {
    "postcode": "89567",
    "city": "Bergenweiler"
  },
  {
    "postcode": "89567",
    "city": "Brenz"
  },
  {
    "postcode": "89567",
    "city": "Sontheim"
  },
  {
    "postcode": "89567",
    "city": "Sontheim an der Brenz"
  },
  {
    "postcode": "89567",
    "city": "Heidenheim"
  },
  {
    "postcode": "89568",
    "city": "Hermaringen"
  },
  {
    "postcode": "89568",
    "city": "Heidenheim"
  },
  {
    "postcode": "89584",
    "city": "Altbierlingen"
  },
  {
    "postcode": "89584",
    "city": "Altsteußlingen"
  },
  {
    "postcode": "89584",
    "city": "Berg"
  },
  {
    "postcode": "89584",
    "city": "Berkach"
  },
  {
    "postcode": "89584",
    "city": "Blienshofen"
  },
  {
    "postcode": "89584",
    "city": "Bockighofen"
  },
  {
    "postcode": "89584",
    "city": "Briel"
  },
  {
    "postcode": "89584",
    "city": "Dächingen"
  },
  {
    "postcode": "89584",
    "city": "Deppenhausen"
  },
  {
    "postcode": "89584",
    "city": "Dettingen"
  },
  {
    "postcode": "89584",
    "city": "Dintenhofen"
  },
  {
    "postcode": "89584",
    "city": "Ehingen"
  },
  {
    "postcode": "89584",
    "city": "Ehingen an der Donau"
  },
  {
    "postcode": "89584",
    "city": "Erbstetten"
  },
  {
    "postcode": "89584",
    "city": "Frankenhofen"
  },
  {
    "postcode": "89584",
    "city": "Gamerschwang"
  },
  {
    "postcode": "89584",
    "city": "Granheim"
  },
  {
    "postcode": "89584",
    "city": "Herbertshofen"
  },
  {
    "postcode": "89584",
    "city": "Heufelden"
  },
  {
    "postcode": "89584",
    "city": "Kirchbierlingen"
  },
  {
    "postcode": "89584",
    "city": "Kirchen"
  },
  {
    "postcode": "89584",
    "city": "Lauterach"
  },
  {
    "postcode": "89584",
    "city": "Lauterach (Württemberg)"
  },
  {
    "postcode": "89584",
    "city": "Mühlen"
  },
  {
    "postcode": "89584",
    "city": "Mundingen"
  },
  {
    "postcode": "89584",
    "city": "Nasgenstadt"
  },
  {
    "postcode": "89584",
    "city": "Neuburg"
  },
  {
    "postcode": "89584",
    "city": "Reichenstein"
  },
  {
    "postcode": "89584",
    "city": "Rißtissen"
  },
  {
    "postcode": "89584",
    "city": "Schaiblishausen"
  },
  {
    "postcode": "89584",
    "city": "Schlechtenfeld"
  },
  {
    "postcode": "89584",
    "city": "Sontheim"
  },
  {
    "postcode": "89584",
    "city": "Stetten"
  },
  {
    "postcode": "89584",
    "city": "Talheim"
  },
  {
    "postcode": "89584",
    "city": "Tiefenhülen"
  },
  {
    "postcode": "89584",
    "city": "Unterwilzingen"
  },
  {
    "postcode": "89584",
    "city": "Volkersheim"
  },
  {
    "postcode": "89584",
    "city": "Weisel"
  },
  {
    "postcode": "89584",
    "city": "Alb-Donau-Kreis"
  },
  {
    "postcode": "89584",
    "city": "Ehingen (Donau)"
  },
  {
    "postcode": "89584",
    "city": "Karlshof"
  },
  {
    "postcode": "89597",
    "city": "Algershofen"
  },
  {
    "postcode": "89597",
    "city": "Hausen am Bussen"
  },
  {
    "postcode": "89597",
    "city": "Munderkingen"
  },
  {
    "postcode": "89597",
    "city": "Unterwachingen"
  },
  {
    "postcode": "89597",
    "city": "Alb-Donau-Kreis"
  },
  {
    "postcode": "89601",
    "city": "Gundershofen"
  },
  {
    "postcode": "89601",
    "city": "Hausen ob Urspring"
  },
  {
    "postcode": "89601",
    "city": "Hütten"
  },
  {
    "postcode": "89601",
    "city": "Ingstetten"
  },
  {
    "postcode": "89601",
    "city": "Justingen"
  },
  {
    "postcode": "89601",
    "city": "Schelklingen"
  },
  {
    "postcode": "89601",
    "city": "Schmiechen"
  },
  {
    "postcode": "89601",
    "city": "Sondernach"
  },
  {
    "postcode": "89601",
    "city": "Talsteußlingen"
  },
  {
    "postcode": "89601",
    "city": "Teuringshofen"
  },
  {
    "postcode": "89601",
    "city": "Vohenbronnen"
  },
  {
    "postcode": "89601",
    "city": "Alb-Donau-Kreis"
  },
  {
    "postcode": "89601",
    "city": "Hausen"
  },
  {
    "postcode": "89604",
    "city": "Allmendingen"
  },
  {
    "postcode": "89604",
    "city": "Allmendingen (Württemberg)"
  },
  {
    "postcode": "89604",
    "city": "Ennahofen"
  },
  {
    "postcode": "89604",
    "city": "Ermelau"
  },
  {
    "postcode": "89604",
    "city": "Grötzingen"
  },
  {
    "postcode": "89604",
    "city": "Hausen ob Allmendingen"
  },
  {
    "postcode": "89604",
    "city": "Niederhofen"
  },
  {
    "postcode": "89604",
    "city": "Pfraunstetten"
  },
  {
    "postcode": "89604",
    "city": "Schwörzkirch"
  },
  {
    "postcode": "89604",
    "city": "Weilersteußlingen"
  },
  {
    "postcode": "89604",
    "city": "Alb-Donau-Kreis"
  },
  {
    "postcode": "89604",
    "city": "Hausen"
  },
  {
    "postcode": "89604",
    "city": "Groß-Allmendingen"
  },
  {
    "postcode": "89605",
    "city": "Altheim bei Ehingen (Donau)"
  },
  {
    "postcode": "89605",
    "city": "Altheim bei Ehingen"
  },
  {
    "postcode": "89605",
    "city": "Alb-Donau-Kreis"
  },
  {
    "postcode": "89605",
    "city": "Altheim"
  },
  {
    "postcode": "89607",
    "city": "Emerkingen"
  },
  {
    "postcode": "89607",
    "city": "Alb-Donau-Kreis"
  },
  {
    "postcode": "89608",
    "city": "Griesingen"
  },
  {
    "postcode": "89608",
    "city": "Obergriesingen"
  },
  {
    "postcode": "89608",
    "city": "Untergriesingen"
  },
  {
    "postcode": "89608",
    "city": "Alb-Donau-Kreis"
  },
  {
    "postcode": "89610",
    "city": "Oberdischingen"
  },
  {
    "postcode": "89610",
    "city": "Alb-Donau-Kreis"
  },
  {
    "postcode": "89611",
    "city": "Brühlhof"
  },
  {
    "postcode": "89611",
    "city": "Datthausen"
  },
  {
    "postcode": "89611",
    "city": "Gütelhofen"
  },
  {
    "postcode": "89611",
    "city": "Luppenhofen"
  },
  {
    "postcode": "89611",
    "city": "Mittenhausen"
  },
  {
    "postcode": "89611",
    "city": "Obermarchtal"
  },
  {
    "postcode": "89611",
    "city": "Rechtenstein"
  },
  {
    "postcode": "89611",
    "city": "Reutlingendorf"
  },
  {
    "postcode": "89611",
    "city": "Alb-Donau-Kreis"
  },
  {
    "postcode": "89613",
    "city": "Grundsheim"
  },
  {
    "postcode": "89613",
    "city": "Hundersingen"
  },
  {
    "postcode": "89613",
    "city": "Moosbeuren"
  },
  {
    "postcode": "89613",
    "city": "Mühlhausen"
  },
  {
    "postcode": "89613",
    "city": "Mundeldingen"
  },
  {
    "postcode": "89613",
    "city": "Oberstadion"
  },
  {
    "postcode": "89613",
    "city": "Rettighofen"
  },
  {
    "postcode": "89613",
    "city": "Alb-Donau-Kreis"
  },
  {
    "postcode": "89614",
    "city": "Öpfingen"
  },
  {
    "postcode": "89614",
    "city": "Alb-Donau-Kreis"
  },
  {
    "postcode": "89616",
    "city": "Neudorf"
  },
  {
    "postcode": "89616",
    "city": "Rottenacker"
  },
  {
    "postcode": "89616",
    "city": "Alb-Donau-Kreis"
  },
  {
    "postcode": "89617",
    "city": "Untermarchtal"
  },
  {
    "postcode": "89617",
    "city": "Alb-Donau-Kreis"
  },
  {
    "postcode": "89619",
    "city": "Bettighofen"
  },
  {
    "postcode": "89619",
    "city": "Unterstadion"
  },
  {
    "postcode": "89619",
    "city": "Alb-Donau-Kreis"
  }
]