[
  {
    "postcode": "21029",
    "city": "Altengamme"
  },
  {
    "postcode": "21029",
    "city": "Bergedorf"
  },
  {
    "postcode": "21029",
    "city": "Curslack"
  },
  {
    "postcode": "21029",
    "city": "Hamburg"
  },
  {
    "postcode": "21029",
    "city": "Hampuri"
  },
  {
    "postcode": "21029",
    "city": "Lohbrügge"
  },
  {
    "postcode": "21031",
    "city": "Bergedorf"
  },
  {
    "postcode": "21031",
    "city": "Hamburg"
  },
  {
    "postcode": "21031",
    "city": "Hampuri"
  },
  {
    "postcode": "21031",
    "city": "Lohbrügge"
  },
  {
    "postcode": "21033",
    "city": "Bergedorf"
  },
  {
    "postcode": "21033",
    "city": "Billwerder"
  },
  {
    "postcode": "21033",
    "city": "Hamburg"
  },
  {
    "postcode": "21033",
    "city": "Hampuri"
  },
  {
    "postcode": "21033",
    "city": "Lohbrügge"
  },
  {
    "postcode": "21035",
    "city": "Allermöhe"
  },
  {
    "postcode": "21035",
    "city": "Bergedorf"
  },
  {
    "postcode": "21035",
    "city": "Billwerder"
  },
  {
    "postcode": "21035",
    "city": "Hamburg"
  },
  {
    "postcode": "21035",
    "city": "Hampuri"
  },
  {
    "postcode": "21035",
    "city": "Neuallermöhe"
  },
  {
    "postcode": "21037",
    "city": "Allermöhe"
  },
  {
    "postcode": "21037",
    "city": "Bergedorf"
  },
  {
    "postcode": "21037",
    "city": "Curslack"
  },
  {
    "postcode": "21037",
    "city": "Hamburg"
  },
  {
    "postcode": "21037",
    "city": "Hampuri"
  },
  {
    "postcode": "21037",
    "city": "Kirchwerder"
  },
  {
    "postcode": "21037",
    "city": "Neuengamme"
  },
  {
    "postcode": "21037",
    "city": "Ochsenwerder"
  },
  {
    "postcode": "21037",
    "city": "Reitbrook"
  },
  {
    "postcode": "21037",
    "city": "Spadenland"
  },
  {
    "postcode": "21037",
    "city": "Tatenberg"
  },
  {
    "postcode": "21039",
    "city": "Altengamme"
  },
  {
    "postcode": "21039",
    "city": "Bergedorf"
  },
  {
    "postcode": "21039",
    "city": "Börnsen"
  },
  {
    "postcode": "21039",
    "city": "Curslack"
  },
  {
    "postcode": "21039",
    "city": "Escheburg"
  },
  {
    "postcode": "21039",
    "city": "Fahrendorf Kreis Hzgt Lauenb"
  },
  {
    "postcode": "21039",
    "city": "Fahrendorf"
  },
  {
    "postcode": "21039",
    "city": "Hamburg"
  },
  {
    "postcode": "21039",
    "city": "Hampuri"
  },
  {
    "postcode": "21039",
    "city": "Neuengamme"
  },
  {
    "postcode": "21039",
    "city": "Sterup"
  },
  {
    "postcode": "21039",
    "city": "Neu-Börnsen"
  },
  {
    "postcode": "21039",
    "city": "Voßmoor"
  },
  {
    "postcode": "21039",
    "city": "Sachsenwald (Forstgutsbez.)"
  },
  {
    "postcode": "21039",
    "city": "Sachsenwald"
  },
  {
    "postcode": "21073",
    "city": "Eißendorf"
  },
  {
    "postcode": "21073",
    "city": "Hamburg"
  },
  {
    "postcode": "21073",
    "city": "Hampuri"
  },
  {
    "postcode": "21073",
    "city": "Harburg"
  },
  {
    "postcode": "21073",
    "city": "Heimfeld"
  },
  {
    "postcode": "21073",
    "city": "Wilstorf"
  },
  {
    "postcode": "21073",
    "city": "Kleingartenanlage"
  },
  {
    "postcode": "21075",
    "city": "Eißendorf"
  },
  {
    "postcode": "21075",
    "city": "Hamburg"
  },
  {
    "postcode": "21075",
    "city": "Hampuri"
  },
  {
    "postcode": "21075",
    "city": "Harburg"
  },
  {
    "postcode": "21075",
    "city": "Hausbruch"
  },
  {
    "postcode": "21075",
    "city": "Heimfeld"
  },
  {
    "postcode": "21077",
    "city": "Eißendorf"
  },
  {
    "postcode": "21077",
    "city": "Hamburg"
  },
  {
    "postcode": "21077",
    "city": "Hampuri"
  },
  {
    "postcode": "21077",
    "city": "Harburg"
  },
  {
    "postcode": "21077",
    "city": "Langenbek"
  },
  {
    "postcode": "21077",
    "city": "Marmstorf"
  },
  {
    "postcode": "21077",
    "city": "Rönneburg"
  },
  {
    "postcode": "21077",
    "city": "Sinstorf"
  },
  {
    "postcode": "21077",
    "city": "Wilstorf"
  },
  {
    "postcode": "21077",
    "city": "Osdorf"
  },
  {
    "postcode": "21079",
    "city": "Gut Moor"
  },
  {
    "postcode": "21079",
    "city": "Hamburg"
  },
  {
    "postcode": "21079",
    "city": "Hampuri"
  },
  {
    "postcode": "21079",
    "city": "Harburg"
  },
  {
    "postcode": "21079",
    "city": "Hausbruch"
  },
  {
    "postcode": "21079",
    "city": "Heimfeld"
  },
  {
    "postcode": "21079",
    "city": "Langenbek"
  },
  {
    "postcode": "21079",
    "city": "Moorburg"
  },
  {
    "postcode": "21079",
    "city": "Neuland"
  },
  {
    "postcode": "21079",
    "city": "Rönneburg"
  },
  {
    "postcode": "21079",
    "city": "Sinstorf"
  },
  {
    "postcode": "21079",
    "city": "Wilstorf"
  },
  {
    "postcode": "21107",
    "city": "Hamburg"
  },
  {
    "postcode": "21107",
    "city": "Hamburg-Mitte"
  },
  {
    "postcode": "21107",
    "city": "Hampuri"
  },
  {
    "postcode": "21107",
    "city": "Steinwerder"
  },
  {
    "postcode": "21107",
    "city": "Wilhelmsburg"
  },
  {
    "postcode": "21107",
    "city": "Moorburg"
  },
  {
    "postcode": "21107",
    "city": "Kleiner Grasbrook"
  },
  {
    "postcode": "21109",
    "city": "Hamburg"
  },
  {
    "postcode": "21109",
    "city": "Hamburg-Mitte"
  },
  {
    "postcode": "21109",
    "city": "Hampuri"
  },
  {
    "postcode": "21109",
    "city": "Veddel"
  },
  {
    "postcode": "21109",
    "city": "Wilhelmsburg"
  },
  {
    "postcode": "21129",
    "city": "Altenwerder"
  },
  {
    "postcode": "21129",
    "city": "Cranz"
  },
  {
    "postcode": "21129",
    "city": "Finkenwerder"
  },
  {
    "postcode": "21129",
    "city": "Francop"
  },
  {
    "postcode": "21129",
    "city": "Hamburg"
  },
  {
    "postcode": "21129",
    "city": "Hamburg-Mitte"
  },
  {
    "postcode": "21129",
    "city": "Hampuri"
  },
  {
    "postcode": "21129",
    "city": "Harburg"
  },
  {
    "postcode": "21129",
    "city": "Moorburg"
  },
  {
    "postcode": "21129",
    "city": "Neuenfelde"
  },
  {
    "postcode": "21129",
    "city": "Waltershof"
  },
  {
    "postcode": "21129",
    "city": "Jork"
  },
  {
    "postcode": "21129",
    "city": "Gem Jork"
  },
  {
    "postcode": "21147",
    "city": "Hamburg"
  },
  {
    "postcode": "21147",
    "city": "Hampuri"
  },
  {
    "postcode": "21147",
    "city": "Harburg"
  },
  {
    "postcode": "21147",
    "city": "Hausbruch"
  },
  {
    "postcode": "21147",
    "city": "Neugraben-Fischbek"
  },
  {
    "postcode": "21149",
    "city": "Hamburg"
  },
  {
    "postcode": "21149",
    "city": "Hampuri"
  },
  {
    "postcode": "21149",
    "city": "Harburg"
  },
  {
    "postcode": "21149",
    "city": "Hausbruch"
  },
  {
    "postcode": "21149",
    "city": "Neugraben-Fischbek"
  },
  {
    "postcode": "21217",
    "city": "Beckedorf Kreis Harburg"
  },
  {
    "postcode": "21217",
    "city": "Beckedorf"
  },
  {
    "postcode": "21217",
    "city": "Bullenhausen"
  },
  {
    "postcode": "21217",
    "city": "Fleestedt"
  },
  {
    "postcode": "21217",
    "city": "Friesenwerdermoor"
  },
  {
    "postcode": "21217",
    "city": "Glüsingen Kreis Harburg"
  },
  {
    "postcode": "21217",
    "city": "Glüsingen"
  },
  {
    "postcode": "21217",
    "city": "Groß Moor"
  },
  {
    "postcode": "21217",
    "city": "Hittfeld"
  },
  {
    "postcode": "21217",
    "city": "Hörsten Seeve"
  },
  {
    "postcode": "21217",
    "city": "Hörsten"
  },
  {
    "postcode": "21217",
    "city": "Klein Moor"
  },
  {
    "postcode": "21217",
    "city": "Meckelfeld"
  },
  {
    "postcode": "21217",
    "city": "Over Kreis Harburg"
  },
  {
    "postcode": "21217",
    "city": "Over"
  },
  {
    "postcode": "21217",
    "city": "Seevetal"
  },
  {
    "postcode": "21217",
    "city": "Harburg"
  },
  {
    "postcode": "21217",
    "city": "Jehrden"
  },
  {
    "postcode": "21218",
    "city": "Beckedorf Kreis Harburg"
  },
  {
    "postcode": "21218",
    "city": "Beckedorf"
  },
  {
    "postcode": "21218",
    "city": "Eddelsen"
  },
  {
    "postcode": "21218",
    "city": "Emmelndorf"
  },
  {
    "postcode": "21218",
    "city": "Fleestedt"
  },
  {
    "postcode": "21218",
    "city": "Helmstorf Kreis Harburg"
  },
  {
    "postcode": "21218",
    "city": "Helmstorf"
  },
  {
    "postcode": "21218",
    "city": "Hittfeld"
  },
  {
    "postcode": "21218",
    "city": "Lindhorst Kreis Harburg"
  },
  {
    "postcode": "21218",
    "city": "Lindhorst"
  },
  {
    "postcode": "21218",
    "city": "Metzendorf"
  },
  {
    "postcode": "21218",
    "city": "Seevetal"
  },
  {
    "postcode": "21218",
    "city": "Woxdorf"
  },
  {
    "postcode": "21218",
    "city": "Harburg"
  },
  {
    "postcode": "21220",
    "city": "Holtorfsloh"
  },
  {
    "postcode": "21220",
    "city": "Horst"
  },
  {
    "postcode": "21220",
    "city": "Maschen"
  },
  {
    "postcode": "21220",
    "city": "Ohlendorf Buchwedel"
  },
  {
    "postcode": "21220",
    "city": "Ohlendorf"
  },
  {
    "postcode": "21220",
    "city": "Ramelsloh"
  },
  {
    "postcode": "21220",
    "city": "Seevetal"
  },
  {
    "postcode": "21220",
    "city": "Harburg"
  },
  {
    "postcode": "21224",
    "city": "Alvesen"
  },
  {
    "postcode": "21224",
    "city": "Eckel"
  },
  {
    "postcode": "21224",
    "city": "Ehestorf Kreis Harburg"
  },
  {
    "postcode": "21224",
    "city": "Ehestorf"
  },
  {
    "postcode": "21224",
    "city": "Emsen"
  },
  {
    "postcode": "21224",
    "city": "Iddensen"
  },
  {
    "postcode": "21224",
    "city": "Klecken"
  },
  {
    "postcode": "21224",
    "city": "Langenrehm"
  },
  {
    "postcode": "21224",
    "city": "Leversen"
  },
  {
    "postcode": "21224",
    "city": "Nenndorf Kreis Harburg"
  },
  {
    "postcode": "21224",
    "city": "Nenndorf"
  },
  {
    "postcode": "21224",
    "city": "Rosengarten Kreis Harburg"
  },
  {
    "postcode": "21224",
    "city": "Rosengarten"
  },
  {
    "postcode": "21224",
    "city": "Sieversen"
  },
  {
    "postcode": "21224",
    "city": "Sottorf Kreis Harburg"
  },
  {
    "postcode": "21224",
    "city": "Sottorf"
  },
  {
    "postcode": "21224",
    "city": "Tötensen"
  },
  {
    "postcode": "21224",
    "city": "Vahrendorf Siedlung"
  },
  {
    "postcode": "21224",
    "city": "Vahrendorf"
  },
  {
    "postcode": "21224",
    "city": "Westerhof"
  },
  {
    "postcode": "21224",
    "city": "Harburg"
  },
  {
    "postcode": "21224",
    "city": "Hinteln"
  },
  {
    "postcode": "21224",
    "city": "Neu Eckel"
  },
  {
    "postcode": "21224",
    "city": "Neu-Leversen"
  },
  {
    "postcode": "21227",
    "city": "Bendestorf"
  },
  {
    "postcode": "21227",
    "city": "Harburg"
  },
  {
    "postcode": "21228",
    "city": "Harmstorf Kreis Harburg"
  },
  {
    "postcode": "21228",
    "city": "Harmstorf"
  },
  {
    "postcode": "21228",
    "city": "Harburg"
  },
  {
    "postcode": "21244",
    "city": "Buchholz in der Nordheide"
  },
  {
    "postcode": "21244",
    "city": "Dibbersen Kreis Harburg"
  },
  {
    "postcode": "21244",
    "city": "Dibbersen"
  },
  {
    "postcode": "21244",
    "city": "Holm"
  },
  {
    "postcode": "21244",
    "city": "Holm-Seppensen"
  },
  {
    "postcode": "21244",
    "city": "Meilsen in der Nordheide"
  },
  {
    "postcode": "21244",
    "city": "Reindorf"
  },
  {
    "postcode": "21244",
    "city": "Seppensen in der Nordheide"
  },
  {
    "postcode": "21244",
    "city": "Sprötze"
  },
  {
    "postcode": "21244",
    "city": "Steinbeck Nordheide"
  },
  {
    "postcode": "21244",
    "city": "Steinbeck"
  },
  {
    "postcode": "21244",
    "city": "Trelde"
  },
  {
    "postcode": "21244",
    "city": "Vaensen in der Nordheide"
  },
  {
    "postcode": "21244",
    "city": "Harburg"
  },
  {
    "postcode": "21244",
    "city": "Buchholz"
  },
  {
    "postcode": "21244",
    "city": "Seppensen"
  },
  {
    "postcode": "21244",
    "city": "Gem Jesteburg"
  },
  {
    "postcode": "21255",
    "city": "Bötersheim"
  },
  {
    "postcode": "21255",
    "city": "Dohren Nordheide"
  },
  {
    "postcode": "21255",
    "city": "Dohren"
  },
  {
    "postcode": "21255",
    "city": "Gehege Nordheide"
  },
  {
    "postcode": "21255",
    "city": "Gehege"
  },
  {
    "postcode": "21255",
    "city": "Kakenstorf"
  },
  {
    "postcode": "21255",
    "city": "Königsmoor Nordheide"
  },
  {
    "postcode": "21255",
    "city": "Königsmoor"
  },
  {
    "postcode": "21255",
    "city": "Langeloh"
  },
  {
    "postcode": "21255",
    "city": "Neddernhof"
  },
  {
    "postcode": "21255",
    "city": "Quellen Nordheide"
  },
  {
    "postcode": "21255",
    "city": "Quellen"
  },
  {
    "postcode": "21255",
    "city": "Todtglüsingen"
  },
  {
    "postcode": "21255",
    "city": "Tostedt"
  },
  {
    "postcode": "21255",
    "city": "Wistedt"
  },
  {
    "postcode": "21255",
    "city": "Wistedt Nordheide"
  },
  {
    "postcode": "21255",
    "city": "Wümme Nordheide"
  },
  {
    "postcode": "21255",
    "city": "Wümme"
  },
  {
    "postcode": "21255",
    "city": "Wüstenhöfen Nordheide"
  },
  {
    "postcode": "21255",
    "city": "Wüstenhöfen"
  },
  {
    "postcode": "21255",
    "city": "Harburg"
  },
  {
    "postcode": "21255",
    "city": "Riepshof"
  },
  {
    "postcode": "21255",
    "city": "Tostedt-Land"
  },
  {
    "postcode": "21256",
    "city": "Handeloh"
  },
  {
    "postcode": "21256",
    "city": "Handeloh Bahnhof"
  },
  {
    "postcode": "21256",
    "city": "Höckel Nordheide"
  },
  {
    "postcode": "21256",
    "city": "Höckel"
  },
  {
    "postcode": "21256",
    "city": "Inzmühlen"
  },
  {
    "postcode": "21256",
    "city": "Wörme"
  },
  {
    "postcode": "21256",
    "city": "Harburg"
  },
  {
    "postcode": "21258",
    "city": "Avensermoor Nordheide"
  },
  {
    "postcode": "21258",
    "city": "Avensermoor"
  },
  {
    "postcode": "21258",
    "city": "Everstorfermoor Nordheide"
  },
  {
    "postcode": "21258",
    "city": "Everstorfermoor"
  },
  {
    "postcode": "21258",
    "city": "Heidenau"
  },
  {
    "postcode": "21258",
    "city": "Heidenau Nordheide"
  },
  {
    "postcode": "21258",
    "city": "Hollinde"
  },
  {
    "postcode": "21258",
    "city": "Kallmoor Nordheide"
  },
  {
    "postcode": "21258",
    "city": "Kallmoor"
  },
  {
    "postcode": "21258",
    "city": "Vaerloh Nordheide"
  },
  {
    "postcode": "21258",
    "city": "Vaerloh"
  },
  {
    "postcode": "21258",
    "city": "Harburg"
  },
  {
    "postcode": "21258",
    "city": "Birkenbüschen"
  },
  {
    "postcode": "21259",
    "city": "Knick"
  },
  {
    "postcode": "21259",
    "city": "Otter"
  },
  {
    "postcode": "21259",
    "city": "Todtshorn"
  },
  {
    "postcode": "21259",
    "city": "Harburg"
  },
  {
    "postcode": "21261",
    "city": "Hoinkenbostel"
  },
  {
    "postcode": "21261",
    "city": "Kampen Nordheide"
  },
  {
    "postcode": "21261",
    "city": "Kampen"
  },
  {
    "postcode": "21261",
    "city": "Welle"
  },
  {
    "postcode": "21261",
    "city": "Welle Nordheide"
  },
  {
    "postcode": "21261",
    "city": "Harburg"
  },
  {
    "postcode": "21266",
    "city": "Fünfhausen"
  },
  {
    "postcode": "21266",
    "city": "Itzenbüttel"
  },
  {
    "postcode": "21266",
    "city": "Jesteburg"
  },
  {
    "postcode": "21266",
    "city": "Lüllau"
  },
  {
    "postcode": "21266",
    "city": "Harburg"
  },
  {
    "postcode": "21266",
    "city": "Wiedenhof"
  },
  {
    "postcode": "21271",
    "city": "Asendorf"
  },
  {
    "postcode": "21271",
    "city": "Asendorf Nordheide"
  },
  {
    "postcode": "21271",
    "city": "Dierkshausen"
  },
  {
    "postcode": "21271",
    "city": "Hanstedt"
  },
  {
    "postcode": "21271",
    "city": "Hanstedt Nordheide"
  },
  {
    "postcode": "21271",
    "city": "Nindorf Nordheide"
  },
  {
    "postcode": "21271",
    "city": "Nindorf"
  },
  {
    "postcode": "21271",
    "city": "Ollsen Nordheide"
  },
  {
    "postcode": "21271",
    "city": "Ollsen"
  },
  {
    "postcode": "21271",
    "city": "Quarrendorf"
  },
  {
    "postcode": "21271",
    "city": "Schierhorn"
  },
  {
    "postcode": "21271",
    "city": "Harburg"
  },
  {
    "postcode": "21272",
    "city": "Döhle"
  },
  {
    "postcode": "21272",
    "city": "Egestorf"
  },
  {
    "postcode": "21272",
    "city": "Egestorf Nordheide"
  },
  {
    "postcode": "21272",
    "city": "Evendorf"
  },
  {
    "postcode": "21272",
    "city": "Sahrendorf"
  },
  {
    "postcode": "21272",
    "city": "Schätzendorf"
  },
  {
    "postcode": "21272",
    "city": "Harburg"
  },
  {
    "postcode": "21274",
    "city": "Undeloh"
  },
  {
    "postcode": "21274",
    "city": "Wesel Nordheide"
  },
  {
    "postcode": "21274",
    "city": "Wesel"
  },
  {
    "postcode": "21274",
    "city": "Harburg"
  },
  {
    "postcode": "21279",
    "city": "Appel"
  },
  {
    "postcode": "21279",
    "city": "Appel Nordheide"
  },
  {
    "postcode": "21279",
    "city": "Dierstorf Nordheide"
  },
  {
    "postcode": "21279",
    "city": "Dierstorf"
  },
  {
    "postcode": "21279",
    "city": "Drestedt"
  },
  {
    "postcode": "21279",
    "city": "Emmen Nordheide"
  },
  {
    "postcode": "21279",
    "city": "Emmen"
  },
  {
    "postcode": "21279",
    "city": "Eversen Nordheide"
  },
  {
    "postcode": "21279",
    "city": "Eversen"
  },
  {
    "postcode": "21279",
    "city": "Grauen Nordheide"
  },
  {
    "postcode": "21279",
    "city": "Grauen"
  },
  {
    "postcode": "21279",
    "city": "Hollenstedt"
  },
  {
    "postcode": "21279",
    "city": "Hollenstedt Nordheide"
  },
  {
    "postcode": "21279",
    "city": "Ochtmannsbruch Nordheide"
  },
  {
    "postcode": "21279",
    "city": "Ochtmannsbruch"
  },
  {
    "postcode": "21279",
    "city": "Oldendorf Nordheide"
  },
  {
    "postcode": "21279",
    "city": "Oldendorf"
  },
  {
    "postcode": "21279",
    "city": "Wennerstorf"
  },
  {
    "postcode": "21279",
    "city": "Wenzendorf"
  },
  {
    "postcode": "21279",
    "city": "Wohlesbostel"
  },
  {
    "postcode": "21279",
    "city": "Harburg"
  },
  {
    "postcode": "21279",
    "city": "Eversen-Heide"
  },
  {
    "postcode": "21279",
    "city": "Wohlesbostel-Staersbeck"
  },
  {
    "postcode": "21279",
    "city": "Dierstorf-Heide"
  },
  {
    "postcode": "21279",
    "city": "Wennerstorf-Heide"
  },
  {
    "postcode": "21335",
    "city": "Häcklingen"
  },
  {
    "postcode": "21335",
    "city": "Hasenburg"
  },
  {
    "postcode": "21335",
    "city": "Lüneburg"
  },
  {
    "postcode": "21335",
    "city": "Oedeme"
  },
  {
    "postcode": "21335",
    "city": "Rettmer"
  },
  {
    "postcode": "21335",
    "city": "Altstadt"
  },
  {
    "postcode": "21335",
    "city": "Bockelsberg"
  },
  {
    "postcode": "21335",
    "city": "Kreideberg"
  },
  {
    "postcode": "21335",
    "city": "Rotes Feld"
  },
  {
    "postcode": "21335",
    "city": "Mittelfeld"
  },
  {
    "postcode": "21335",
    "city": "Weststadt"
  },
  {
    "postcode": "21335",
    "city": "Lüne-Moorfeld"
  },
  {
    "postcode": "21335",
    "city": "Schützenplatz"
  },
  {
    "postcode": "21337",
    "city": "Lüneburg"
  },
  {
    "postcode": "21337",
    "city": "Kaltenmoor"
  },
  {
    "postcode": "21337",
    "city": "Neu Hagen"
  },
  {
    "postcode": "21337",
    "city": "Ebensberg"
  },
  {
    "postcode": "21337",
    "city": "Schützenplatz"
  },
  {
    "postcode": "21337",
    "city": "Lüne-Moorfeld"
  },
  {
    "postcode": "21337",
    "city": "Wilschenbruch"
  },
  {
    "postcode": "21339",
    "city": "Lüneburg"
  },
  {
    "postcode": "21339",
    "city": "Ochtmissen"
  },
  {
    "postcode": "21339",
    "city": "Oedeme"
  },
  {
    "postcode": "21339",
    "city": "Goseburg-Zeltberg"
  },
  {
    "postcode": "21339",
    "city": "Weststadt"
  },
  {
    "postcode": "21339",
    "city": "Kreideberg"
  },
  {
    "postcode": "21339",
    "city": "Mittelfeld"
  },
  {
    "postcode": "21339",
    "city": "Lüne-Moorfeld"
  },
  {
    "postcode": "21354",
    "city": "Alt Garge"
  },
  {
    "postcode": "21354",
    "city": "Barskamp"
  },
  {
    "postcode": "21354",
    "city": "Bleckede"
  },
  {
    "postcode": "21354",
    "city": "Brackede Kreis Lüneburg"
  },
  {
    "postcode": "21354",
    "city": "Brackede"
  },
  {
    "postcode": "21354",
    "city": "Breetze"
  },
  {
    "postcode": "21354",
    "city": "Garlstorf"
  },
  {
    "postcode": "21354",
    "city": "Garze"
  },
  {
    "postcode": "21354",
    "city": "Göddingen"
  },
  {
    "postcode": "21354",
    "city": "Karze"
  },
  {
    "postcode": "21354",
    "city": "Nindorf bei Dahlenburg"
  },
  {
    "postcode": "21354",
    "city": "Radegast Kreis Lüneburg"
  },
  {
    "postcode": "21354",
    "city": "Radegast"
  },
  {
    "postcode": "21354",
    "city": "Reeßeln"
  },
  {
    "postcode": "21354",
    "city": "Rosenthal Kreis Lüneburg"
  },
  {
    "postcode": "21354",
    "city": "Rosenthal"
  },
  {
    "postcode": "21354",
    "city": "Vogelsang"
  },
  {
    "postcode": "21354",
    "city": "Walmsburg"
  },
  {
    "postcode": "21354",
    "city": "Wendewisch"
  },
  {
    "postcode": "21354",
    "city": "Lüneburg"
  },
  {
    "postcode": "21354",
    "city": "Bleckeder Moor"
  },
  {
    "postcode": "21354",
    "city": "Nindorf"
  },
  {
    "postcode": "21357",
    "city": "Bardowick"
  },
  {
    "postcode": "21357",
    "city": "Barum"
  },
  {
    "postcode": "21357",
    "city": "Barum Kreis Lüneburg"
  },
  {
    "postcode": "21357",
    "city": "Horburg Kreis Lüneburg"
  },
  {
    "postcode": "21357",
    "city": "Horburg"
  },
  {
    "postcode": "21357",
    "city": "Sankt Dionys"
  },
  {
    "postcode": "21357",
    "city": "Wittorf Kreis Lüneburg"
  },
  {
    "postcode": "21357",
    "city": "Wittorf"
  },
  {
    "postcode": "21357",
    "city": "Lüneburg"
  },
  {
    "postcode": "21357",
    "city": "St. Dionys"
  },
  {
    "postcode": "21358",
    "city": "Mechtersen"
  },
  {
    "postcode": "21358",
    "city": "Lüneburg"
  },
  {
    "postcode": "21360",
    "city": "Vögelsen"
  },
  {
    "postcode": "21360",
    "city": "Lüneburg"
  },
  {
    "postcode": "21365",
    "city": "Adendorf"
  },
  {
    "postcode": "21365",
    "city": "Adendorf Kreis Lüneburg"
  },
  {
    "postcode": "21365",
    "city": "Erbstorf"
  },
  {
    "postcode": "21365",
    "city": "Lüneburg"
  },
  {
    "postcode": "21368",
    "city": "Ahndorf"
  },
  {
    "postcode": "21368",
    "city": "Becklingen"
  },
  {
    "postcode": "21368",
    "city": "Boitze"
  },
  {
    "postcode": "21368",
    "city": "Buendorf"
  },
  {
    "postcode": "21368",
    "city": "Dahlem"
  },
  {
    "postcode": "21368",
    "city": "Dahlem Niedersachsen"
  },
  {
    "postcode": "21368",
    "city": "Dahlenburg"
  },
  {
    "postcode": "21368",
    "city": "Dumstorf"
  },
  {
    "postcode": "21368",
    "city": "Eimstorf"
  },
  {
    "postcode": "21368",
    "city": "Ellringen"
  },
  {
    "postcode": "21368",
    "city": "Gienau"
  },
  {
    "postcode": "21368",
    "city": "Groß Sommerbeck"
  },
  {
    "postcode": "21368",
    "city": "Harmstorf bei Dahlenburg"
  },
  {
    "postcode": "21368",
    "city": "Klein Sommerbeck"
  },
  {
    "postcode": "21368",
    "city": "Köstorf"
  },
  {
    "postcode": "21368",
    "city": "Leestahl"
  },
  {
    "postcode": "21368",
    "city": "Lemgrabe"
  },
  {
    "postcode": "21368",
    "city": "Neetzendorf"
  },
  {
    "postcode": "21368",
    "city": "Quickborn"
  },
  {
    "postcode": "21368",
    "city": "Seedorf"
  },
  {
    "postcode": "21368",
    "city": "Siecke"
  },
  {
    "postcode": "21368",
    "city": "Vindorf"
  },
  {
    "postcode": "21368",
    "city": "Lüneburg"
  },
  {
    "postcode": "21368",
    "city": "Fladen"
  },
  {
    "postcode": "21368",
    "city": "Gut Horn"
  },
  {
    "postcode": "21368",
    "city": "Harmstorf"
  },
  {
    "postcode": "21368",
    "city": "Marienau"
  },
  {
    "postcode": "21368",
    "city": "Riecklingen"
  },
  {
    "postcode": "21368",
    "city": "Bargmoor"
  },
  {
    "postcode": "21369",
    "city": "Breese am Seißelberge"
  },
  {
    "postcode": "21369",
    "city": "Eichdorf"
  },
  {
    "postcode": "21369",
    "city": "Kovahl"
  },
  {
    "postcode": "21369",
    "city": "Lüben"
  },
  {
    "postcode": "21369",
    "city": "Moislingen"
  },
  {
    "postcode": "21369",
    "city": "Mücklingen"
  },
  {
    "postcode": "21369",
    "city": "Nahrendorf"
  },
  {
    "postcode": "21369",
    "city": "Neestahl"
  },
  {
    "postcode": "21369",
    "city": "Nieperfitz"
  },
  {
    "postcode": "21369",
    "city": "Oldendorf an der Göhrde"
  },
  {
    "postcode": "21369",
    "city": "Pommoißel"
  },
  {
    "postcode": "21369",
    "city": "Süschendorf"
  },
  {
    "postcode": "21369",
    "city": "Tangsehl"
  },
  {
    "postcode": "21369",
    "city": "Lüneburg"
  },
  {
    "postcode": "21369",
    "city": "Breese"
  },
  {
    "postcode": "21369",
    "city": "Nüdlitz"
  },
  {
    "postcode": "21369",
    "city": "Röthen"
  },
  {
    "postcode": "21371",
    "city": "Horndorf"
  },
  {
    "postcode": "21371",
    "city": "Köhlingen"
  },
  {
    "postcode": "21371",
    "city": "Tosterglope"
  },
  {
    "postcode": "21371",
    "city": "Ventschau"
  },
  {
    "postcode": "21371",
    "city": "Lüneburg"
  },
  {
    "postcode": "21376",
    "city": "Eyendorf Lüneburger Heide"
  },
  {
    "postcode": "21376",
    "city": "Eyendorf"
  },
  {
    "postcode": "21376",
    "city": "Garlstorf am Walde"
  },
  {
    "postcode": "21376",
    "city": "Gödenstorf"
  },
  {
    "postcode": "21376",
    "city": "Lübberstedt Lüneburger Heide"
  },
  {
    "postcode": "21376",
    "city": "Lübberstedt"
  },
  {
    "postcode": "21376",
    "city": "Luhmühlen"
  },
  {
    "postcode": "21376",
    "city": "Oelstorf"
  },
  {
    "postcode": "21376",
    "city": "Putensen"
  },
  {
    "postcode": "21376",
    "city": "Salzhausen"
  },
  {
    "postcode": "21376",
    "city": "Salzhausen Lüneburger Heide"
  },
  {
    "postcode": "21376",
    "city": "Harburg"
  },
  {
    "postcode": "21376",
    "city": "Garlstorf"
  },
  {
    "postcode": "21379",
    "city": "Bockelkathen"
  },
  {
    "postcode": "21379",
    "city": "Boltersen"
  },
  {
    "postcode": "21379",
    "city": "Echem"
  },
  {
    "postcode": "21379",
    "city": "Jürgenstorf Kreis Lüneburg"
  },
  {
    "postcode": "21379",
    "city": "Jürgenstorf"
  },
  {
    "postcode": "21379",
    "city": "Lüdersburg"
  },
  {
    "postcode": "21379",
    "city": "Neu Jürgenstorf Kreis Lüneburg"
  },
  {
    "postcode": "21379",
    "city": "Neu Jürgenstorf"
  },
  {
    "postcode": "21379",
    "city": "Nutzfelde"
  },
  {
    "postcode": "21379",
    "city": "Rullstorf"
  },
  {
    "postcode": "21379",
    "city": "Scharnebeck"
  },
  {
    "postcode": "21379",
    "city": "Scharnebeck bei Lüneburg"
  },
  {
    "postcode": "21379",
    "city": "Lüneburg"
  },
  {
    "postcode": "21379",
    "city": "Neumühlen"
  },
  {
    "postcode": "21379",
    "city": "Bullendorf"
  },
  {
    "postcode": "21379",
    "city": "Fischhausen"
  },
  {
    "postcode": "21379",
    "city": "Ahrenschulter"
  },
  {
    "postcode": "21379",
    "city": "Neu Rullstorf"
  },
  {
    "postcode": "21379",
    "city": "Neu Boltersen"
  },
  {
    "postcode": "21379",
    "city": "Lentenau"
  },
  {
    "postcode": "21380",
    "city": "Artlenburg"
  },
  {
    "postcode": "21380",
    "city": "Lüneburg"
  },
  {
    "postcode": "21380",
    "city": "Marienthal"
  },
  {
    "postcode": "21382",
    "city": "Brietlingen"
  },
  {
    "postcode": "21382",
    "city": "Lüdershausen"
  },
  {
    "postcode": "21382",
    "city": "Moorburg"
  },
  {
    "postcode": "21382",
    "city": "Lüneburg"
  },
  {
    "postcode": "21385",
    "city": "Amelinghausen"
  },
  {
    "postcode": "21385",
    "city": "Bockum Kreis Lüneburg"
  },
  {
    "postcode": "21385",
    "city": "Bockum"
  },
  {
    "postcode": "21385",
    "city": "Dehnsen Kreis Lüneburg"
  },
  {
    "postcode": "21385",
    "city": "Dehnsen"
  },
  {
    "postcode": "21385",
    "city": "Diersbüttel"
  },
  {
    "postcode": "21385",
    "city": "Ehlbeck"
  },
  {
    "postcode": "21385",
    "city": "Etzen Kreis Lüneburg"
  },
  {
    "postcode": "21385",
    "city": "Etzen"
  },
  {
    "postcode": "21385",
    "city": "Marxen am Berge"
  },
  {
    "postcode": "21385",
    "city": "Oldendorf (Luhe)"
  },
  {
    "postcode": "21385",
    "city": "Oldendorf"
  },
  {
    "postcode": "21385",
    "city": "Rehlingen"
  },
  {
    "postcode": "21385",
    "city": "Rehlingen Kreis Lüneburg"
  },
  {
    "postcode": "21385",
    "city": "Rehrhof"
  },
  {
    "postcode": "21385",
    "city": "Wetzen"
  },
  {
    "postcode": "21385",
    "city": "Wohlenbüttel"
  },
  {
    "postcode": "21385",
    "city": "Lüneburg"
  },
  {
    "postcode": "21385",
    "city": "Neu Oldendorf"
  },
  {
    "postcode": "21386",
    "city": "Betzendorf"
  },
  {
    "postcode": "21386",
    "city": "Betzendorf Kreis Lüneburg"
  },
  {
    "postcode": "21386",
    "city": "Drögennindorf"
  },
  {
    "postcode": "21386",
    "city": "Glüsingen Kreis Lüneburg"
  },
  {
    "postcode": "21386",
    "city": "Glüsingen"
  },
  {
    "postcode": "21386",
    "city": "Tellmer"
  },
  {
    "postcode": "21386",
    "city": "Lüneburg"
  },
  {
    "postcode": "21388",
    "city": "Raven Lüneburger Heide"
  },
  {
    "postcode": "21388",
    "city": "Raven"
  },
  {
    "postcode": "21388",
    "city": "Rolfsen"
  },
  {
    "postcode": "21388",
    "city": "Schwindebeck"
  },
  {
    "postcode": "21388",
    "city": "Soderstorf"
  },
  {
    "postcode": "21388",
    "city": "Thansen"
  },
  {
    "postcode": "21388",
    "city": "Lüneburg"
  },
  {
    "postcode": "21388",
    "city": "Oldendorf (Luhe)"
  },
  {
    "postcode": "21388",
    "city": "Oldendorf"
  },
  {
    "postcode": "21391",
    "city": "Dachtmissen"
  },
  {
    "postcode": "21391",
    "city": "Reppenstedt"
  },
  {
    "postcode": "21391",
    "city": "Lüneburg"
  },
  {
    "postcode": "21391",
    "city": "Weststadt"
  },
  {
    "postcode": "21394",
    "city": "Heiligenthal Kreis Lüneburg"
  },
  {
    "postcode": "21394",
    "city": "Heiligenthal"
  },
  {
    "postcode": "21394",
    "city": "Kirchgellersen"
  },
  {
    "postcode": "21394",
    "city": "Südergellersen"
  },
  {
    "postcode": "21394",
    "city": "Westergellersen"
  },
  {
    "postcode": "21394",
    "city": "Lüneburg"
  },
  {
    "postcode": "21395",
    "city": "Avendorf Kreis Lüneburg"
  },
  {
    "postcode": "21395",
    "city": "Avendorf"
  },
  {
    "postcode": "21395",
    "city": "Bütlingen"
  },
  {
    "postcode": "21395",
    "city": "Tespe"
  },
  {
    "postcode": "21395",
    "city": "Harburg"
  },
  {
    "postcode": "21397",
    "city": "Barendorf Kreis Lüneburg"
  },
  {
    "postcode": "21397",
    "city": "Barendorf"
  },
  {
    "postcode": "21397",
    "city": "Gifkendorf"
  },
  {
    "postcode": "21397",
    "city": "Rohstorf"
  },
  {
    "postcode": "21397",
    "city": "Vastorf"
  },
  {
    "postcode": "21397",
    "city": "Volkstorf"
  },
  {
    "postcode": "21397",
    "city": "Lüneburg"
  },
  {
    "postcode": "21398",
    "city": "Neetze"
  },
  {
    "postcode": "21398",
    "city": "Neetze Kreis Lüneburg"
  },
  {
    "postcode": "21398",
    "city": "Neu Neetze Kreis Lüneburg"
  },
  {
    "postcode": "21398",
    "city": "Neu Neetze"
  },
  {
    "postcode": "21398",
    "city": "Süttorf bei Dahlenburg"
  },
  {
    "postcode": "21398",
    "city": "Lüneburg"
  },
  {
    "postcode": "21398",
    "city": "Süttorf"
  },
  {
    "postcode": "21398",
    "city": "Neu Süttorf"
  },
  {
    "postcode": "21400",
    "city": "Holzen bei Dahlenburg"
  },
  {
    "postcode": "21400",
    "city": "Horndorf"
  },
  {
    "postcode": "21400",
    "city": "Reinstorf Kreis Lüneburg"
  },
  {
    "postcode": "21400",
    "city": "Reinstorf"
  },
  {
    "postcode": "21400",
    "city": "Sülbeck Kreis Lüneburg"
  },
  {
    "postcode": "21400",
    "city": "Sülbeck"
  },
  {
    "postcode": "21400",
    "city": "Wendhausen Kreis Lüneburg"
  },
  {
    "postcode": "21400",
    "city": "Wendhausen"
  },
  {
    "postcode": "21400",
    "city": "Lüneburg"
  },
  {
    "postcode": "21400",
    "city": "Holzen"
  },
  {
    "postcode": "21400",
    "city": "Neu Wendhausen"
  },
  {
    "postcode": "21400",
    "city": "Neu Sülbeck"
  },
  {
    "postcode": "21401",
    "city": "Bavendorf Niedersachsen"
  },
  {
    "postcode": "21401",
    "city": "Bavendorf"
  },
  {
    "postcode": "21401",
    "city": "Radenbeck bei Dahlenburg"
  },
  {
    "postcode": "21401",
    "city": "Thomasburg"
  },
  {
    "postcode": "21401",
    "city": "Thomasburg Kreis Lüneburg"
  },
  {
    "postcode": "21401",
    "city": "Wennekath"
  },
  {
    "postcode": "21401",
    "city": "Wiecheln"
  },
  {
    "postcode": "21401",
    "city": "Lüneburg"
  },
  {
    "postcode": "21401",
    "city": "Radenbeck"
  },
  {
    "postcode": "21403",
    "city": "Wendisch Evern"
  },
  {
    "postcode": "21403",
    "city": "Lüneburg"
  },
  {
    "postcode": "21406",
    "city": "Barnstedt"
  },
  {
    "postcode": "21406",
    "city": "Barnstedt Kreis Lüneburg"
  },
  {
    "postcode": "21406",
    "city": "Kolkhagen Lager"
  },
  {
    "postcode": "21406",
    "city": "Kolkhagen"
  },
  {
    "postcode": "21406",
    "city": "Melbeck"
  },
  {
    "postcode": "21406",
    "city": "Neukolkhagen Kreis Lüneburg"
  },
  {
    "postcode": "21406",
    "city": "Neukolkhagen"
  },
  {
    "postcode": "21406",
    "city": "Lüneburg"
  },
  {
    "postcode": "21407",
    "city": "Deutsch Evern"
  },
  {
    "postcode": "21407",
    "city": "Lüneburg"
  },
  {
    "postcode": "21409",
    "city": "Embsen"
  },
  {
    "postcode": "21409",
    "city": "Embsen Kreis Lüneburg"
  },
  {
    "postcode": "21409",
    "city": "Heinsen Kreis Lüneburg"
  },
  {
    "postcode": "21409",
    "city": "Heinsen"
  },
  {
    "postcode": "21409",
    "city": "Oerzen"
  },
  {
    "postcode": "21409",
    "city": "Lüneburg"
  },
  {
    "postcode": "21409",
    "city": "Neu Oerzen"
  },
  {
    "postcode": "21409",
    "city": "Hof Marquard"
  },
  {
    "postcode": "21423",
    "city": "Bahlburg"
  },
  {
    "postcode": "21423",
    "city": "Borstel Winsener Marsch"
  },
  {
    "postcode": "21423",
    "city": "Borstel"
  },
  {
    "postcode": "21423",
    "city": "Drage"
  },
  {
    "postcode": "21423",
    "city": "Drage Elbe"
  },
  {
    "postcode": "21423",
    "city": "Drennhausen Elbe"
  },
  {
    "postcode": "21423",
    "city": "Drennhausen"
  },
  {
    "postcode": "21423",
    "city": "Elbstorf Elbe"
  },
  {
    "postcode": "21423",
    "city": "Elbstorf"
  },
  {
    "postcode": "21423",
    "city": "Fahrenholz"
  },
  {
    "postcode": "21423",
    "city": "Gehrden"
  },
  {
    "postcode": "21423",
    "city": "Hoopte"
  },
  {
    "postcode": "21423",
    "city": "Hunden"
  },
  {
    "postcode": "21423",
    "city": "Krümse"
  },
  {
    "postcode": "21423",
    "city": "Laßrönne"
  },
  {
    "postcode": "21423",
    "city": "Luhdorf"
  },
  {
    "postcode": "21423",
    "city": "Mover"
  },
  {
    "postcode": "21423",
    "city": "Pattensen bei Winsen Luhe"
  },
  {
    "postcode": "21423",
    "city": "Pattensen bei Winsen"
  },
  {
    "postcode": "21423",
    "city": "Rottorf Winsener Marsch"
  },
  {
    "postcode": "21423",
    "city": "Rottorf"
  },
  {
    "postcode": "21423",
    "city": "Roydorf"
  },
  {
    "postcode": "21423",
    "city": "Sangenstedt"
  },
  {
    "postcode": "21423",
    "city": "Scharmbeck Buchwedel"
  },
  {
    "postcode": "21423",
    "city": "Scharmbeck"
  },
  {
    "postcode": "21423",
    "city": "Schwinde"
  },
  {
    "postcode": "21423",
    "city": "Stöckte"
  },
  {
    "postcode": "21423",
    "city": "Stove"
  },
  {
    "postcode": "21423",
    "city": "Tönnhausen"
  },
  {
    "postcode": "21423",
    "city": "Uhlenbusch Elbe"
  },
  {
    "postcode": "21423",
    "city": "Uhlenbusch"
  },
  {
    "postcode": "21423",
    "city": "Winsen"
  },
  {
    "postcode": "21423",
    "city": "Winsen (Luhe)"
  },
  {
    "postcode": "21423",
    "city": "Harburg"
  },
  {
    "postcode": "21423",
    "city": "Pattensen"
  },
  {
    "postcode": "21435",
    "city": "Achterdeich Buchwedel"
  },
  {
    "postcode": "21435",
    "city": "Achterdeich"
  },
  {
    "postcode": "21435",
    "city": "Ashausen"
  },
  {
    "postcode": "21435",
    "city": "Fachenfelde Buchwedel"
  },
  {
    "postcode": "21435",
    "city": "Fachenfelde"
  },
  {
    "postcode": "21435",
    "city": "Rosenweide"
  },
  {
    "postcode": "21435",
    "city": "Stelle"
  },
  {
    "postcode": "21435",
    "city": "Stelle Kreis Harburg"
  },
  {
    "postcode": "21435",
    "city": "Wuhlenburg"
  },
  {
    "postcode": "21435",
    "city": "Harburg"
  },
  {
    "postcode": "21435",
    "city": "Fliegenberg"
  },
  {
    "postcode": "21435",
    "city": "Büllhorn"
  },
  {
    "postcode": "21436",
    "city": "Eichholz Winsener Marsch"
  },
  {
    "postcode": "21436",
    "city": "Eichholz"
  },
  {
    "postcode": "21436",
    "city": "Marschacht"
  },
  {
    "postcode": "21436",
    "city": "Niedermarschacht"
  },
  {
    "postcode": "21436",
    "city": "Obermarschacht"
  },
  {
    "postcode": "21436",
    "city": "Oldershausen Winsener Marsch"
  },
  {
    "postcode": "21436",
    "city": "Oldershausen"
  },
  {
    "postcode": "21436",
    "city": "Rönne Winsener Marsch"
  },
  {
    "postcode": "21436",
    "city": "Rönne"
  },
  {
    "postcode": "21436",
    "city": "Harburg"
  },
  {
    "postcode": "21438",
    "city": "Brackel"
  },
  {
    "postcode": "21438",
    "city": "Brackel bei Winsen Luhe"
  },
  {
    "postcode": "21438",
    "city": "Brackel bei Winsen"
  },
  {
    "postcode": "21438",
    "city": "Thieshope"
  },
  {
    "postcode": "21438",
    "city": "Harburg"
  },
  {
    "postcode": "21439",
    "city": "Marxen"
  },
  {
    "postcode": "21439",
    "city": "Marxen Auetal"
  },
  {
    "postcode": "21439",
    "city": "Schmalenfelde Auetal"
  },
  {
    "postcode": "21439",
    "city": "Schmalenfelde"
  },
  {
    "postcode": "21439",
    "city": "Harburg"
  },
  {
    "postcode": "21441",
    "city": "Garstedt Winsener Geest"
  },
  {
    "postcode": "21441",
    "city": "Garstedt"
  },
  {
    "postcode": "21441",
    "city": "Harburg"
  },
  {
    "postcode": "21442",
    "city": "Tangendorf Winsener Geest"
  },
  {
    "postcode": "21442",
    "city": "Tangendorf"
  },
  {
    "postcode": "21442",
    "city": "Toppenstedt"
  },
  {
    "postcode": "21442",
    "city": "Harburg"
  },
  {
    "postcode": "21444",
    "city": "Gut Schnede"
  },
  {
    "postcode": "21444",
    "city": "Vierhöfen"
  },
  {
    "postcode": "21444",
    "city": "Vierhöfen bei Winsen Luhe"
  },
  {
    "postcode": "21444",
    "city": "Vierhöfen bei Winsen"
  },
  {
    "postcode": "21444",
    "city": "Weddermöde"
  },
  {
    "postcode": "21444",
    "city": "Harburg"
  },
  {
    "postcode": "21444",
    "city": "Einemhof"
  },
  {
    "postcode": "21445",
    "city": "Wulfsen"
  },
  {
    "postcode": "21445",
    "city": "Harburg"
  },
  {
    "postcode": "21447",
    "city": "Handorf Winsener Marsch"
  },
  {
    "postcode": "21447",
    "city": "Handorf"
  },
  {
    "postcode": "21447",
    "city": "Lüneburg"
  },
  {
    "postcode": "21447",
    "city": "Clues"
  },
  {
    "postcode": "21449",
    "city": "Radbruch"
  },
  {
    "postcode": "21449",
    "city": "Lüneburg"
  },
  {
    "postcode": "21465",
    "city": "Reinbek"
  },
  {
    "postcode": "21465",
    "city": "Wentorf bei Hamburg"
  },
  {
    "postcode": "21465",
    "city": "Herzogtum Lauenburg"
  },
  {
    "postcode": "21465",
    "city": "Schönningstedt"
  },
  {
    "postcode": "21481",
    "city": "Buchhorst Kreis Herzogtum Lauenburg"
  },
  {
    "postcode": "21481",
    "city": "Buchhorst"
  },
  {
    "postcode": "21481",
    "city": "Lauenburg / Elbe"
  },
  {
    "postcode": "21481",
    "city": "Lauenburg"
  },
  {
    "postcode": "21481",
    "city": "Schnakenbek"
  },
  {
    "postcode": "21481",
    "city": "Herzogtum Lauenburg"
  },
  {
    "postcode": "21483",
    "city": "Basedow Kreis Herzogtum Lauenburg"
  },
  {
    "postcode": "21483",
    "city": "Basedow"
  },
  {
    "postcode": "21483",
    "city": "Dalldorf Kreis Herzogtum Lauenburg"
  },
  {
    "postcode": "21483",
    "city": "Dalldorf"
  },
  {
    "postcode": "21483",
    "city": "Gülzow Kreis Herzogtum Lauenburg"
  },
  {
    "postcode": "21483",
    "city": "Gülzow"
  },
  {
    "postcode": "21483",
    "city": "Juliusburg"
  },
  {
    "postcode": "21483",
    "city": "Krukow Kreis Herzogtum Lauenburg"
  },
  {
    "postcode": "21483",
    "city": "Krukow"
  },
  {
    "postcode": "21483",
    "city": "Krüzen"
  },
  {
    "postcode": "21483",
    "city": "Lanze Kreis Herzogtum Lauenburg"
  },
  {
    "postcode": "21483",
    "city": "Lanze"
  },
  {
    "postcode": "21483",
    "city": "Lütau"
  },
  {
    "postcode": "21483",
    "city": "Wangelau"
  },
  {
    "postcode": "21483",
    "city": "Herzogtum Lauenburg"
  },
  {
    "postcode": "21483",
    "city": "Wochenendsiedlung Basedow"
  },
  {
    "postcode": "21493",
    "city": "Basthorst Kreis Herzogtum Lauenburg"
  },
  {
    "postcode": "21493",
    "city": "Basthorst"
  },
  {
    "postcode": "21493",
    "city": "Elmenhorst Kreis Herzogtum Lauenburg"
  },
  {
    "postcode": "21493",
    "city": "Elmenhorst"
  },
  {
    "postcode": "21493",
    "city": "Fuhlenhagen"
  },
  {
    "postcode": "21493",
    "city": "Grabau bei Schwarzenbek"
  },
  {
    "postcode": "21493",
    "city": "Groß Pampau"
  },
  {
    "postcode": "21493",
    "city": "Grove"
  },
  {
    "postcode": "21493",
    "city": "Havekost bei Schwarzenbek"
  },
  {
    "postcode": "21493",
    "city": "Louisenhof Siedlung"
  },
  {
    "postcode": "21493",
    "city": "Louisenhof"
  },
  {
    "postcode": "21493",
    "city": "Möhnsen"
  },
  {
    "postcode": "21493",
    "city": "Mühlenrade"
  },
  {
    "postcode": "21493",
    "city": "Sahms"
  },
  {
    "postcode": "21493",
    "city": "Schretstaken"
  },
  {
    "postcode": "21493",
    "city": "Schwarzenbek"
  },
  {
    "postcode": "21493",
    "city": "Talkau"
  },
  {
    "postcode": "21493",
    "city": "Herzogtum Lauenburg"
  },
  {
    "postcode": "21493",
    "city": "Grabau"
  },
  {
    "postcode": "21493",
    "city": "Havekost"
  },
  {
    "postcode": "21493",
    "city": "Kollow Kurheim"
  },
  {
    "postcode": "21493",
    "city": "Müssen"
  },
  {
    "postcode": "21493",
    "city": "Gem Müssen"
  },
  {
    "postcode": "21493",
    "city": "Kleintalkau"
  },
  {
    "postcode": "21502",
    "city": "Geesthacht"
  },
  {
    "postcode": "21502",
    "city": "Grüner Jäger"
  },
  {
    "postcode": "21502",
    "city": "Hamwarde"
  },
  {
    "postcode": "21502",
    "city": "Heidkaten bei Geesthacht"
  },
  {
    "postcode": "21502",
    "city": "Wiershop"
  },
  {
    "postcode": "21502",
    "city": "Worth bei Geesthacht"
  },
  {
    "postcode": "21502",
    "city": "Herzogtum Lauenburg"
  },
  {
    "postcode": "21502",
    "city": "Heidkaten"
  },
  {
    "postcode": "21502",
    "city": "Worth"
  },
  {
    "postcode": "21502",
    "city": "Tesperhude"
  },
  {
    "postcode": "21509",
    "city": "Glinde Kreis Stormarn"
  },
  {
    "postcode": "21509",
    "city": "Glinde"
  },
  {
    "postcode": "21509",
    "city": "Stormarn"
  },
  {
    "postcode": "21514",
    "city": "Bröthen Kreis Herzogtum Lauenburg"
  },
  {
    "postcode": "21514",
    "city": "Bröthen"
  },
  {
    "postcode": "21514",
    "city": "Büchen Lauenburg"
  },
  {
    "postcode": "21514",
    "city": "Büchen"
  },
  {
    "postcode": "21514",
    "city": "Fitzen"
  },
  {
    "postcode": "21514",
    "city": "Göttin Kreis Herzogtum Lauenburg"
  },
  {
    "postcode": "21514",
    "city": "Göttin"
  },
  {
    "postcode": "21514",
    "city": "Güster"
  },
  {
    "postcode": "21514",
    "city": "Hornbek"
  },
  {
    "postcode": "21514",
    "city": "Kankelau"
  },
  {
    "postcode": "21514",
    "city": "Klein Pampau"
  },
  {
    "postcode": "21514",
    "city": "Langenlehsten"
  },
  {
    "postcode": "21514",
    "city": "Roseburg"
  },
  {
    "postcode": "21514",
    "city": "Siebeneichen Kreis Herzogtum Lauenburg"
  },
  {
    "postcode": "21514",
    "city": "Siebeneichen"
  },
  {
    "postcode": "21514",
    "city": "Witzeeze"
  },
  {
    "postcode": "21514",
    "city": "Wotersen"
  },
  {
    "postcode": "21514",
    "city": "Herzogtum Lauenburg"
  },
  {
    "postcode": "21514",
    "city": "Neue Mühle"
  },
  {
    "postcode": "21514",
    "city": "Neu-Güster"
  },
  {
    "postcode": "21516",
    "city": "Bartelsdorf Kreis Herzogtum Lauenburg"
  },
  {
    "postcode": "21516",
    "city": "Bartelsdorf"
  },
  {
    "postcode": "21516",
    "city": "Franzhagen"
  },
  {
    "postcode": "21516",
    "city": "Müssen Kreis Herzogtum Lauenburg"
  },
  {
    "postcode": "21516",
    "city": "Müssen"
  },
  {
    "postcode": "21516",
    "city": "Schulendorf"
  },
  {
    "postcode": "21516",
    "city": "Schulendorf Lauenburg"
  },
  {
    "postcode": "21516",
    "city": "Tramm Kreis Herzogtum Lauenburg"
  },
  {
    "postcode": "21516",
    "city": "Tramm"
  },
  {
    "postcode": "21516",
    "city": "Witzeeze"
  },
  {
    "postcode": "21516",
    "city": "Woltersdorf Kreis Herzogtum Lauenburg"
  },
  {
    "postcode": "21516",
    "city": "Woltersdorf"
  },
  {
    "postcode": "21516",
    "city": "Herzogtum Lauenburg"
  },
  {
    "postcode": "21521",
    "city": "Aumühle bei Hamburg"
  },
  {
    "postcode": "21521",
    "city": "Dassendorf"
  },
  {
    "postcode": "21521",
    "city": "Friedrichsruh bei Hamburg"
  },
  {
    "postcode": "21521",
    "city": "Krim bei Hamburg"
  },
  {
    "postcode": "21521",
    "city": "Wohltorf"
  },
  {
    "postcode": "21521",
    "city": "Herzogtum Lauenburg"
  },
  {
    "postcode": "21521",
    "city": "Aumühle"
  },
  {
    "postcode": "21521",
    "city": "Friedrichsruh"
  },
  {
    "postcode": "21521",
    "city": "Sterup"
  },
  {
    "postcode": "21521",
    "city": "Groß Viert"
  },
  {
    "postcode": "21521",
    "city": "Sachsenwald (Forstgutsbez.)"
  },
  {
    "postcode": "21521",
    "city": "Sachsenwald"
  },
  {
    "postcode": "21522",
    "city": "Bullendorf bei Lauenburg Elbe"
  },
  {
    "postcode": "21522",
    "city": "Bullendorf bei Lauenburg"
  },
  {
    "postcode": "21522",
    "city": "Hittbergen"
  },
  {
    "postcode": "21522",
    "city": "Hohnstorf"
  },
  {
    "postcode": "21522",
    "city": "Hohnstorf (Elbe)"
  },
  {
    "postcode": "21522",
    "city": "Sassendorf Elbe"
  },
  {
    "postcode": "21522",
    "city": "Sassendorf"
  },
  {
    "postcode": "21522",
    "city": "Lüneburg"
  },
  {
    "postcode": "21522",
    "city": "Barförde"
  },
  {
    "postcode": "21522",
    "city": "Bullendorf"
  },
  {
    "postcode": "21524",
    "city": "Brunstorf Kreis Herzogtum Lauenburg"
  },
  {
    "postcode": "21524",
    "city": "Brunstorf"
  },
  {
    "postcode": "21524",
    "city": "Herzogtum Lauenburg"
  },
  {
    "postcode": "21524",
    "city": "Sterup"
  },
  {
    "postcode": "21524",
    "city": "Sachsenwald (Forstgutsbez.)"
  },
  {
    "postcode": "21524",
    "city": "Sachsenwald"
  },
  {
    "postcode": "21526",
    "city": "Hohenhorn"
  },
  {
    "postcode": "21526",
    "city": "Herzogtum Lauenburg"
  },
  {
    "postcode": "21527",
    "city": "Kollow Kreis Herzogtum Lauenburg"
  },
  {
    "postcode": "21527",
    "city": "Kollow"
  },
  {
    "postcode": "21527",
    "city": "Herzogtum Lauenburg"
  },
  {
    "postcode": "21529",
    "city": "Kröppelshagen-Fahrendorf"
  },
  {
    "postcode": "21529",
    "city": "Herzogtum Lauenburg"
  },
  {
    "postcode": "21614",
    "city": "Buxtehude"
  },
  {
    "postcode": "21614",
    "city": "Daensen"
  },
  {
    "postcode": "21614",
    "city": "Dammhausen"
  },
  {
    "postcode": "21614",
    "city": "Eilendorf bei Buxtehude"
  },
  {
    "postcode": "21614",
    "city": "Hedendorf"
  },
  {
    "postcode": "21614",
    "city": "Immenbeck"
  },
  {
    "postcode": "21614",
    "city": "Neukloster Niederelbe"
  },
  {
    "postcode": "21614",
    "city": "Neukloster"
  },
  {
    "postcode": "21614",
    "city": "Neuland"
  },
  {
    "postcode": "21614",
    "city": "Ottensen bei Buxtehude"
  },
  {
    "postcode": "21614",
    "city": "Ovelgönne / Ketzendorf"
  },
  {
    "postcode": "21614",
    "city": "Ovelgönne"
  },
  {
    "postcode": "21614",
    "city": "Westmoor"
  },
  {
    "postcode": "21614",
    "city": "Stade"
  },
  {
    "postcode": "21614",
    "city": "Eilendorf"
  },
  {
    "postcode": "21614",
    "city": "Ottensen"
  },
  {
    "postcode": "21614",
    "city": "Ovelgönne/Ketzendorf"
  },
  {
    "postcode": "21629",
    "city": "Ardestorf"
  },
  {
    "postcode": "21629",
    "city": "Daerstorf"
  },
  {
    "postcode": "21629",
    "city": "Elstorf"
  },
  {
    "postcode": "21629",
    "city": "Mienenbüttel"
  },
  {
    "postcode": "21629",
    "city": "Neu Wulmstorf"
  },
  {
    "postcode": "21629",
    "city": "Neu Wulmstorf Niederelbe"
  },
  {
    "postcode": "21629",
    "city": "Ohlenbüttel"
  },
  {
    "postcode": "21629",
    "city": "Rade Nordheide"
  },
  {
    "postcode": "21629",
    "city": "Rade"
  },
  {
    "postcode": "21629",
    "city": "Rübke"
  },
  {
    "postcode": "21629",
    "city": "Schwiederstorf"
  },
  {
    "postcode": "21629",
    "city": "Wulmstorf"
  },
  {
    "postcode": "21629",
    "city": "Harburg"
  },
  {
    "postcode": "21635",
    "city": "Borstel Niederelbe"
  },
  {
    "postcode": "21635",
    "city": "Borstel"
  },
  {
    "postcode": "21635",
    "city": "Estebrügge"
  },
  {
    "postcode": "21635",
    "city": "Gehrden Niederelbe"
  },
  {
    "postcode": "21635",
    "city": "Gehrden"
  },
  {
    "postcode": "21635",
    "city": "Hinterbrack Niederelbe"
  },
  {
    "postcode": "21635",
    "city": "Hinterbrack"
  },
  {
    "postcode": "21635",
    "city": "Hinterdeich"
  },
  {
    "postcode": "21635",
    "city": "Hove"
  },
  {
    "postcode": "21635",
    "city": "Jork"
  },
  {
    "postcode": "21635",
    "city": "Jork Niederelbe"
  },
  {
    "postcode": "21635",
    "city": "Kohlenhusen Niederelbe"
  },
  {
    "postcode": "21635",
    "city": "Kohlenhusen"
  },
  {
    "postcode": "21635",
    "city": "Ladekop Niederelbe"
  },
  {
    "postcode": "21635",
    "city": "Ladekop"
  },
  {
    "postcode": "21635",
    "city": "Moorende"
  },
  {
    "postcode": "21635",
    "city": "Neuenschleuse Niederelbe"
  },
  {
    "postcode": "21635",
    "city": "Neuenschleuse"
  },
  {
    "postcode": "21635",
    "city": "Wisch Niederelbe"
  },
  {
    "postcode": "21635",
    "city": "Wisch"
  },
  {
    "postcode": "21635",
    "city": "Stade"
  },
  {
    "postcode": "21635",
    "city": "Neuenkirchen"
  },
  {
    "postcode": "21635",
    "city": "Königreich"
  },
  {
    "postcode": "21635",
    "city": "Gemeinde Mittelnkirchen"
  },
  {
    "postcode": "21635",
    "city": "Gemeinde Neuenkirchen"
  },
  {
    "postcode": "21640",
    "city": "Bliedersdorf"
  },
  {
    "postcode": "21640",
    "city": "Horneburg Niederelbe"
  },
  {
    "postcode": "21640",
    "city": "Horneburg"
  },
  {
    "postcode": "21640",
    "city": "Neuenkirchen bei Horneburg Niederel"
  },
  {
    "postcode": "21640",
    "city": "Neuenkirchen bei Horneburg"
  },
  {
    "postcode": "21640",
    "city": "Nottensdorf"
  },
  {
    "postcode": "21640",
    "city": "Stade"
  },
  {
    "postcode": "21640",
    "city": "Neuenkirchen"
  },
  {
    "postcode": "21640",
    "city": "Hinterdeich"
  },
  {
    "postcode": "21641",
    "city": "Apensen"
  },
  {
    "postcode": "21641",
    "city": "Stade"
  },
  {
    "postcode": "21643",
    "city": "Beckdorf"
  },
  {
    "postcode": "21643",
    "city": "Goldbeck bei Buxtehude"
  },
  {
    "postcode": "21643",
    "city": "Nindorf bei Buxtehude"
  },
  {
    "postcode": "21643",
    "city": "Stade"
  },
  {
    "postcode": "21643",
    "city": "Goldbeck"
  },
  {
    "postcode": "21643",
    "city": "Nindorf"
  },
  {
    "postcode": "21643",
    "city": "Klein Nindorf"
  },
  {
    "postcode": "21644",
    "city": "Bockhorst"
  },
  {
    "postcode": "21644",
    "city": "Bredenhorn"
  },
  {
    "postcode": "21644",
    "city": "Löhe"
  },
  {
    "postcode": "21644",
    "city": "Revenahe"
  },
  {
    "postcode": "21644",
    "city": "Sauensiek"
  },
  {
    "postcode": "21644",
    "city": "Wiegersen"
  },
  {
    "postcode": "21644",
    "city": "Stade"
  },
  {
    "postcode": "21646",
    "city": "Halvesbostel"
  },
  {
    "postcode": "21646",
    "city": "Holvede"
  },
  {
    "postcode": "21646",
    "city": "Harburg"
  },
  {
    "postcode": "21647",
    "city": "Moisburg"
  },
  {
    "postcode": "21647",
    "city": "Podendorf"
  },
  {
    "postcode": "21647",
    "city": "Harburg"
  },
  {
    "postcode": "21647",
    "city": "Appelbeck"
  },
  {
    "postcode": "21649",
    "city": "Holtorfsbostel"
  },
  {
    "postcode": "21649",
    "city": "Rahmstorf"
  },
  {
    "postcode": "21649",
    "city": "Regesbostel"
  },
  {
    "postcode": "21649",
    "city": "Harburg"
  },
  {
    "postcode": "21680",
    "city": "Barge"
  },
  {
    "postcode": "21680",
    "city": "Groß Thun"
  },
  {
    "postcode": "21680",
    "city": "Riensförde"
  },
  {
    "postcode": "21680",
    "city": "Stade"
  },
  {
    "postcode": "21680",
    "city": "Stade Niederelbe"
  },
  {
    "postcode": "21682",
    "city": "Schölisch"
  },
  {
    "postcode": "21682",
    "city": "Stade"
  },
  {
    "postcode": "21682",
    "city": "Stade Niederelbe"
  },
  {
    "postcode": "21683",
    "city": "Brunshausen"
  },
  {
    "postcode": "21683",
    "city": "Bützfleth"
  },
  {
    "postcode": "21683",
    "city": "Haddorf"
  },
  {
    "postcode": "21683",
    "city": "Schölisch"
  },
  {
    "postcode": "21683",
    "city": "Stade"
  },
  {
    "postcode": "21683",
    "city": "Stade Niederelbe"
  },
  {
    "postcode": "21683",
    "city": "Stadersand"
  },
  {
    "postcode": "21684",
    "city": "Agathenburg"
  },
  {
    "postcode": "21684",
    "city": "Hagen Kreis Stade"
  },
  {
    "postcode": "21684",
    "city": "Hagen"
  },
  {
    "postcode": "21684",
    "city": "Stade"
  },
  {
    "postcode": "21684",
    "city": "Stade Niederelbe"
  },
  {
    "postcode": "21684",
    "city": "Wiepenkathen"
  },
  {
    "postcode": "21698",
    "city": "Bargstedt"
  },
  {
    "postcode": "21698",
    "city": "Bargstedt Kreis Stade"
  },
  {
    "postcode": "21698",
    "city": "Brest"
  },
  {
    "postcode": "21698",
    "city": "Brest Kreis Stade"
  },
  {
    "postcode": "21698",
    "city": "Frankenmoor Kreis Stade"
  },
  {
    "postcode": "21698",
    "city": "Frankenmoor"
  },
  {
    "postcode": "21698",
    "city": "Griemshorst"
  },
  {
    "postcode": "21698",
    "city": "Hahnenbalken"
  },
  {
    "postcode": "21698",
    "city": "Harsefeld"
  },
  {
    "postcode": "21698",
    "city": "Issendorf"
  },
  {
    "postcode": "21698",
    "city": "Knüll Kreis Stade"
  },
  {
    "postcode": "21698",
    "city": "Knüll"
  },
  {
    "postcode": "21698",
    "city": "Ohrensen"
  },
  {
    "postcode": "21698",
    "city": "Reith"
  },
  {
    "postcode": "21698",
    "city": "Ruschwedel"
  },
  {
    "postcode": "21698",
    "city": "Stühkamp Kreis Stade"
  },
  {
    "postcode": "21698",
    "city": "Stühkamp"
  },
  {
    "postcode": "21698",
    "city": "Wohlerst"
  },
  {
    "postcode": "21698",
    "city": "Stade"
  },
  {
    "postcode": "21698",
    "city": "Hollenbeck"
  },
  {
    "postcode": "21702",
    "city": "Ahlerstedt"
  },
  {
    "postcode": "21702",
    "city": "Ahrensmoor"
  },
  {
    "postcode": "21702",
    "city": "Ahrenswohlde"
  },
  {
    "postcode": "21702",
    "city": "Bokel"
  },
  {
    "postcode": "21702",
    "city": "Kakerbeck Kreis Stade"
  },
  {
    "postcode": "21702",
    "city": "Kakerbeck"
  },
  {
    "postcode": "21702",
    "city": "Klethen"
  },
  {
    "postcode": "21702",
    "city": "Oersdorf Kreis Stade"
  },
  {
    "postcode": "21702",
    "city": "Oersdorf"
  },
  {
    "postcode": "21702",
    "city": "Ottendorf Kreis Stade"
  },
  {
    "postcode": "21702",
    "city": "Ottendorf"
  },
  {
    "postcode": "21702",
    "city": "Wangersen"
  },
  {
    "postcode": "21702",
    "city": "Stade"
  },
  {
    "postcode": "21706",
    "city": "Aschhorn"
  },
  {
    "postcode": "21706",
    "city": "Aschhornermoor Kreis Stade"
  },
  {
    "postcode": "21706",
    "city": "Aschhornermoor"
  },
  {
    "postcode": "21706",
    "city": "Assel Kreis Stade"
  },
  {
    "postcode": "21706",
    "city": "Assel"
  },
  {
    "postcode": "21706",
    "city": "Asselermoor"
  },
  {
    "postcode": "21706",
    "city": "Barnkrug"
  },
  {
    "postcode": "21706",
    "city": "Dornbusch Kreis Stade"
  },
  {
    "postcode": "21706",
    "city": "Dornbusch"
  },
  {
    "postcode": "21706",
    "city": "Dornbuschermoor"
  },
  {
    "postcode": "21706",
    "city": "Drochtersen"
  },
  {
    "postcode": "21706",
    "city": "Drochtersermoor"
  },
  {
    "postcode": "21706",
    "city": "Hüll Niederelbe"
  },
  {
    "postcode": "21706",
    "city": "Hüll"
  },
  {
    "postcode": "21706",
    "city": "Krautsand"
  },
  {
    "postcode": "21706",
    "city": "Nindorf"
  },
  {
    "postcode": "21706",
    "city": "Ritsch Kreis Stade"
  },
  {
    "postcode": "21706",
    "city": "Ritsch"
  },
  {
    "postcode": "21706",
    "city": "Ritschermoor"
  },
  {
    "postcode": "21706",
    "city": "Theisbrüggermoor Kreis Stade"
  },
  {
    "postcode": "21706",
    "city": "Theisbrüggermoor"
  },
  {
    "postcode": "21706",
    "city": "Stade"
  },
  {
    "postcode": "21706",
    "city": "Am Rönndeich"
  },
  {
    "postcode": "21706",
    "city": "Asselersand"
  },
  {
    "postcode": "21706",
    "city": "Buschhörne"
  },
  {
    "postcode": "21706",
    "city": "Gauensiekermoor"
  },
  {
    "postcode": "21706",
    "city": "Rönn"
  },
  {
    "postcode": "21709",
    "city": "Blumenthal Niederelbe"
  },
  {
    "postcode": "21709",
    "city": "Blumenthal"
  },
  {
    "postcode": "21709",
    "city": "Bossel Niederelbe"
  },
  {
    "postcode": "21709",
    "city": "Bossel"
  },
  {
    "postcode": "21709",
    "city": "Breitenwisch Niederelbe"
  },
  {
    "postcode": "21709",
    "city": "Breitenwisch"
  },
  {
    "postcode": "21709",
    "city": "Burweg"
  },
  {
    "postcode": "21709",
    "city": "Düdenbüttel"
  },
  {
    "postcode": "21709",
    "city": "Himmelpforten"
  },
  {
    "postcode": "21709",
    "city": "Himmelpforten Niederelbe"
  },
  {
    "postcode": "21709",
    "city": "Kuhla Niederelbe"
  },
  {
    "postcode": "21709",
    "city": "Kuhla"
  },
  {
    "postcode": "21709",
    "city": "Löhe Niederelbe"
  },
  {
    "postcode": "21709",
    "city": "Löhe"
  },
  {
    "postcode": "21709",
    "city": "Neukuhla Niederelbe"
  },
  {
    "postcode": "21709",
    "city": "Neukuhla"
  },
  {
    "postcode": "21709",
    "city": "Stade"
  },
  {
    "postcode": "21709",
    "city": "Seemoor"
  },
  {
    "postcode": "21709",
    "city": "Hörnsteeg"
  },
  {
    "postcode": "21709",
    "city": "Kajedeich"
  },
  {
    "postcode": "21709",
    "city": "Ochsenpohl"
  },
  {
    "postcode": "21709",
    "city": "Ostedeich"
  },
  {
    "postcode": "21710",
    "city": "Engelschoff"
  },
  {
    "postcode": "21710",
    "city": "Neuland Kreis Stade"
  },
  {
    "postcode": "21710",
    "city": "Neuland"
  },
  {
    "postcode": "21710",
    "city": "Stade"
  },
  {
    "postcode": "21710",
    "city": "Moormerben"
  },
  {
    "postcode": "21710",
    "city": "Burg"
  },
  {
    "postcode": "21710",
    "city": "Ruffel"
  },
  {
    "postcode": "21712",
    "city": "Großenwörden"
  },
  {
    "postcode": "21712",
    "city": "Königsmoor"
  },
  {
    "postcode": "21712",
    "city": "Stade"
  },
  {
    "postcode": "21714",
    "city": "Groß Sterneberg"
  },
  {
    "postcode": "21714",
    "city": "Hammah"
  },
  {
    "postcode": "21714",
    "city": "Hammah Niederelbe"
  },
  {
    "postcode": "21714",
    "city": "Mittelsdorf Niederelbe"
  },
  {
    "postcode": "21714",
    "city": "Mittelsdorf"
  },
  {
    "postcode": "21714",
    "city": "Stade"
  },
  {
    "postcode": "21714",
    "city": "Groß Neuland"
  },
  {
    "postcode": "21717",
    "city": "Deinste"
  },
  {
    "postcode": "21717",
    "city": "Dinghorn"
  },
  {
    "postcode": "21717",
    "city": "Fredenbeck"
  },
  {
    "postcode": "21717",
    "city": "Helmste"
  },
  {
    "postcode": "21717",
    "city": "Schwinge Kreis Stade"
  },
  {
    "postcode": "21717",
    "city": "Schwinge"
  },
  {
    "postcode": "21717",
    "city": "Wedel Kreis Stade"
  },
  {
    "postcode": "21717",
    "city": "Wedel"
  },
  {
    "postcode": "21717",
    "city": "Stade"
  },
  {
    "postcode": "21720",
    "city": "Grünendeich Niederelbe"
  },
  {
    "postcode": "21720",
    "city": "Grünendeich"
  },
  {
    "postcode": "21720",
    "city": "Guderhandviertel"
  },
  {
    "postcode": "21720",
    "city": "Mittelnkirchen"
  },
  {
    "postcode": "21720",
    "city": "Steinkirchen Kreis Stade"
  },
  {
    "postcode": "21720",
    "city": "Steinkirchen"
  },
  {
    "postcode": "21720",
    "city": "Wetterndorf Kreis Stade"
  },
  {
    "postcode": "21720",
    "city": "Wetterndorf"
  },
  {
    "postcode": "21720",
    "city": "Stade"
  },
  {
    "postcode": "21723",
    "city": "Hollern-Twielenfleth"
  },
  {
    "postcode": "21723",
    "city": "Stade"
  },
  {
    "postcode": "21723",
    "city": "Melau"
  },
  {
    "postcode": "21726",
    "city": "Brobergen Kreis Stade"
  },
  {
    "postcode": "21726",
    "city": "Brobergen"
  },
  {
    "postcode": "21726",
    "city": "Hagenah"
  },
  {
    "postcode": "21726",
    "city": "Heinbockel"
  },
  {
    "postcode": "21726",
    "city": "Kaken Kreis Stade"
  },
  {
    "postcode": "21726",
    "city": "Kaken"
  },
  {
    "postcode": "21726",
    "city": "Kranenburg"
  },
  {
    "postcode": "21726",
    "city": "Kranenburg Niederelbe"
  },
  {
    "postcode": "21726",
    "city": "Oldendorf Kreis Stade"
  },
  {
    "postcode": "21726",
    "city": "Oldendorf"
  },
  {
    "postcode": "21726",
    "city": "Sunde Kreis Stade"
  },
  {
    "postcode": "21726",
    "city": "Sunde"
  },
  {
    "postcode": "21726",
    "city": "Timmerlade Kreis Stade"
  },
  {
    "postcode": "21726",
    "city": "Timmerlade"
  },
  {
    "postcode": "21726",
    "city": "Stade"
  },
  {
    "postcode": "21727",
    "city": "Behrste Kreis Bremervörde"
  },
  {
    "postcode": "21727",
    "city": "Behrste"
  },
  {
    "postcode": "21727",
    "city": "Estorf"
  },
  {
    "postcode": "21727",
    "city": "Estorf Kreis Stade"
  },
  {
    "postcode": "21727",
    "city": "Gräpel"
  },
  {
    "postcode": "21727",
    "city": "Stade"
  },
  {
    "postcode": "21729",
    "city": "Allwörden Elbe"
  },
  {
    "postcode": "21729",
    "city": "Allwörden"
  },
  {
    "postcode": "21729",
    "city": "Esch Elbe"
  },
  {
    "postcode": "21729",
    "city": "Esch"
  },
  {
    "postcode": "21729",
    "city": "Freiburg (Elbe)"
  },
  {
    "postcode": "21729",
    "city": "Freiburg"
  },
  {
    "postcode": "21729",
    "city": "Neuensteden Elbe"
  },
  {
    "postcode": "21729",
    "city": "Neuensteden"
  },
  {
    "postcode": "21729",
    "city": "Schöneworth Elbe"
  },
  {
    "postcode": "21729",
    "city": "Schöneworth"
  },
  {
    "postcode": "21729",
    "city": "Stade"
  },
  {
    "postcode": "21730",
    "city": "Balje"
  },
  {
    "postcode": "21730",
    "city": "Balje Kreis Stade"
  },
  {
    "postcode": "21730",
    "city": "Baljerdorf"
  },
  {
    "postcode": "21730",
    "city": "Breitendeich"
  },
  {
    "postcode": "21730",
    "city": "Hörne"
  },
  {
    "postcode": "21730",
    "city": "Süderdeich Kreis Stade"
  },
  {
    "postcode": "21730",
    "city": "Süderdeich"
  },
  {
    "postcode": "21730",
    "city": "Stade"
  },
  {
    "postcode": "21730",
    "city": "Eggerkamp"
  },
  {
    "postcode": "21730",
    "city": "Gut Balje"
  },
  {
    "postcode": "21730",
    "city": "Wehlken"
  },
  {
    "postcode": "21732",
    "city": "Krummendeich"
  },
  {
    "postcode": "21732",
    "city": "Ritterhof"
  },
  {
    "postcode": "21732",
    "city": "Stellenfleth"
  },
  {
    "postcode": "21732",
    "city": "Wechtern"
  },
  {
    "postcode": "21732",
    "city": "Stade"
  },
  {
    "postcode": "21734",
    "city": "Dösemoor"
  },
  {
    "postcode": "21734",
    "city": "Hollerdeich Niederelbe"
  },
  {
    "postcode": "21734",
    "city": "Hollerdeich"
  },
  {
    "postcode": "21734",
    "city": "Klinten"
  },
  {
    "postcode": "21734",
    "city": "Landesbrück"
  },
  {
    "postcode": "21734",
    "city": "Oederquart"
  },
  {
    "postcode": "21734",
    "city": "Schinkel"
  },
  {
    "postcode": "21734",
    "city": "Stade"
  },
  {
    "postcode": "21737",
    "city": "Altendorf"
  },
  {
    "postcode": "21737",
    "city": "Hamelwörden"
  },
  {
    "postcode": "21737",
    "city": "Hamelwördenermoor"
  },
  {
    "postcode": "21737",
    "city": "Neuland"
  },
  {
    "postcode": "21737",
    "city": "Neulandermoor"
  },
  {
    "postcode": "21737",
    "city": "Wischhafen"
  },
  {
    "postcode": "21737",
    "city": "Wolfsbruchermoor"
  },
  {
    "postcode": "21737",
    "city": "Stade"
  },
  {
    "postcode": "21737",
    "city": "Holenwisch"
  },
  {
    "postcode": "21739",
    "city": "Dollern"
  },
  {
    "postcode": "21739",
    "city": "Stade"
  },
  {
    "postcode": "21745",
    "city": "Basbeck Niederelbe"
  },
  {
    "postcode": "21745",
    "city": "Basbeck"
  },
  {
    "postcode": "21745",
    "city": "Heeßel"
  },
  {
    "postcode": "21745",
    "city": "Hemm"
  },
  {
    "postcode": "21745",
    "city": "Hemmoor"
  },
  {
    "postcode": "21745",
    "city": "Warstade"
  },
  {
    "postcode": "21745",
    "city": "Westersode"
  },
  {
    "postcode": "21745",
    "city": "Cuxhaven"
  },
  {
    "postcode": "21745",
    "city": "Althemmoor"
  },
  {
    "postcode": "21745",
    "city": "Wedelsforth"
  },
  {
    "postcode": "21755",
    "city": "Bornberg"
  },
  {
    "postcode": "21755",
    "city": "Hechthausen"
  },
  {
    "postcode": "21755",
    "city": "Kleinwörden"
  },
  {
    "postcode": "21755",
    "city": "Klint"
  },
  {
    "postcode": "21755",
    "city": "Laumühlen"
  },
  {
    "postcode": "21755",
    "city": "Wisch"
  },
  {
    "postcode": "21755",
    "city": "Cuxhaven"
  },
  {
    "postcode": "21756",
    "city": "Altendorf Niederelbe"
  },
  {
    "postcode": "21756",
    "city": "Altendorf"
  },
  {
    "postcode": "21756",
    "city": "Isensee"
  },
  {
    "postcode": "21756",
    "city": "Osten Oste"
  },
  {
    "postcode": "21756",
    "city": "Osten"
  },
  {
    "postcode": "21756",
    "city": "Rönndeich Oste"
  },
  {
    "postcode": "21756",
    "city": "Rönndeich"
  },
  {
    "postcode": "21756",
    "city": "Cuxhaven"
  },
  {
    "postcode": "21756",
    "city": "Kajedeich"
  },
  {
    "postcode": "21762",
    "city": "Kampen Niederelbe"
  },
  {
    "postcode": "21762",
    "city": "Kampen"
  },
  {
    "postcode": "21762",
    "city": "Müggendorf Niederelbe"
  },
  {
    "postcode": "21762",
    "city": "Müggendorf"
  },
  {
    "postcode": "21762",
    "city": "Nordermittelteil"
  },
  {
    "postcode": "21762",
    "city": "Nubhusen"
  },
  {
    "postcode": "21762",
    "city": "Osterbruch Niederelbe"
  },
  {
    "postcode": "21762",
    "city": "Osterbruch"
  },
  {
    "postcode": "21762",
    "city": "Otterndorf"
  },
  {
    "postcode": "21762",
    "city": "Otterndorf Niederelbe"
  },
  {
    "postcode": "21762",
    "city": "Südermittelteil"
  },
  {
    "postcode": "21762",
    "city": "Süderwisch Niederelbe"
  },
  {
    "postcode": "21762",
    "city": "Süderwisch"
  },
  {
    "postcode": "21762",
    "city": "Cuxhaven"
  },
  {
    "postcode": "21762",
    "city": "Besenhalmerteil"
  },
  {
    "postcode": "21762",
    "city": "Osterhof"
  },
  {
    "postcode": "21762",
    "city": "Ostermischerteil"
  },
  {
    "postcode": "21762",
    "city": "Schodenbüttlerteil"
  },
  {
    "postcode": "21763",
    "city": "Höden Kreis Land Hadeln"
  },
  {
    "postcode": "21763",
    "city": "Höden"
  },
  {
    "postcode": "21763",
    "city": "Hörfelde Kreis Land Hadeln"
  },
  {
    "postcode": "21763",
    "city": "Hörfelde"
  },
  {
    "postcode": "21763",
    "city": "Kreuzweg Kreis Land Hadeln"
  },
  {
    "postcode": "21763",
    "city": "Kreuzweg"
  },
  {
    "postcode": "21763",
    "city": "Neuenkirchen Land Hadeln"
  },
  {
    "postcode": "21763",
    "city": "Neuenkirchen"
  },
  {
    "postcode": "21763",
    "city": "Pedingworth Kreis Land Hadeln"
  },
  {
    "postcode": "21763",
    "city": "Pedingworth"
  },
  {
    "postcode": "21763",
    "city": "Cuxhaven"
  },
  {
    "postcode": "21765",
    "city": "Mittelteil"
  },
  {
    "postcode": "21765",
    "city": "Nordleda"
  },
  {
    "postcode": "21765",
    "city": "Osterende"
  },
  {
    "postcode": "21765",
    "city": "Cuxhaven"
  },
  {
    "postcode": "21769",
    "city": "Abbenseth"
  },
  {
    "postcode": "21769",
    "city": "Armstorf"
  },
  {
    "postcode": "21769",
    "city": "Armstorf Niederelbe"
  },
  {
    "postcode": "21769",
    "city": "Dornsode"
  },
  {
    "postcode": "21769",
    "city": "Hackemühlen"
  },
  {
    "postcode": "21769",
    "city": "Hollen Niederelbe"
  },
  {
    "postcode": "21769",
    "city": "Hollen"
  },
  {
    "postcode": "21769",
    "city": "Hollnseth"
  },
  {
    "postcode": "21769",
    "city": "Ihlbeck"
  },
  {
    "postcode": "21769",
    "city": "Kleinmühlen"
  },
  {
    "postcode": "21769",
    "city": "Lamstedt"
  },
  {
    "postcode": "21769",
    "city": "Langenmoor"
  },
  {
    "postcode": "21769",
    "city": "Nindorf Kreis Land Hadeln"
  },
  {
    "postcode": "21769",
    "city": "Nindorf"
  },
  {
    "postcode": "21769",
    "city": "Rahden"
  },
  {
    "postcode": "21769",
    "city": "Wohlenbeck"
  },
  {
    "postcode": "21769",
    "city": "Cuxhaven"
  },
  {
    "postcode": "21769",
    "city": "Moor"
  },
  {
    "postcode": "21769",
    "city": "Tannenkamp"
  },
  {
    "postcode": "21769",
    "city": "An der Landstraße"
  },
  {
    "postcode": "21769",
    "city": "Langeln"
  },
  {
    "postcode": "21769",
    "city": "Petersdorf"
  },
  {
    "postcode": "21769",
    "city": "Reesehof"
  },
  {
    "postcode": "21769",
    "city": "Wohlenbecker Moor"
  },
  {
    "postcode": "21770",
    "city": "Mittelstenahe"
  },
  {
    "postcode": "21770",
    "city": "Nordahn"
  },
  {
    "postcode": "21770",
    "city": "Sticht"
  },
  {
    "postcode": "21770",
    "city": "Varrel Niederelbe"
  },
  {
    "postcode": "21770",
    "city": "Varrel"
  },
  {
    "postcode": "21770",
    "city": "Cuxhaven"
  },
  {
    "postcode": "21772",
    "city": "Eichhofsberg Niederelbe"
  },
  {
    "postcode": "21772",
    "city": "Eichhofsberg"
  },
  {
    "postcode": "21772",
    "city": "Moorausmoor"
  },
  {
    "postcode": "21772",
    "city": "Neubachenbruch Niederelbe"
  },
  {
    "postcode": "21772",
    "city": "Neubachenbruch"
  },
  {
    "postcode": "21772",
    "city": "Sankt Joost Niederelbe"
  },
  {
    "postcode": "21772",
    "city": "Sankt Joost"
  },
  {
    "postcode": "21772",
    "city": "Stinstedt"
  },
  {
    "postcode": "21772",
    "city": "Stinstedt Niederelbe"
  },
  {
    "postcode": "21772",
    "city": "Cuxhaven"
  },
  {
    "postcode": "21775",
    "city": "Altbachenbruch Niederelbe"
  },
  {
    "postcode": "21775",
    "city": "Altbachenbruch"
  },
  {
    "postcode": "21775",
    "city": "Auedeich"
  },
  {
    "postcode": "21775",
    "city": "Höring Niederelbe"
  },
  {
    "postcode": "21775",
    "city": "Höring"
  },
  {
    "postcode": "21775",
    "city": "Ihlienworth"
  },
  {
    "postcode": "21775",
    "city": "Kirchdorf"
  },
  {
    "postcode": "21775",
    "city": "Lauenteil Niederelbe"
  },
  {
    "postcode": "21775",
    "city": "Lauenteil"
  },
  {
    "postcode": "21775",
    "city": "Medemstade"
  },
  {
    "postcode": "21775",
    "city": "Mislag"
  },
  {
    "postcode": "21775",
    "city": "Norderende Niederelbe"
  },
  {
    "postcode": "21775",
    "city": "Norderende"
  },
  {
    "postcode": "21775",
    "city": "Norderteil"
  },
  {
    "postcode": "21775",
    "city": "Odisheim"
  },
  {
    "postcode": "21775",
    "city": "Steinau Niederelbe"
  },
  {
    "postcode": "21775",
    "city": "Steinau"
  },
  {
    "postcode": "21775",
    "city": "Straßdeich"
  },
  {
    "postcode": "21775",
    "city": "Süderende Niederelbe"
  },
  {
    "postcode": "21775",
    "city": "Süderende"
  },
  {
    "postcode": "21775",
    "city": "Süderteil"
  },
  {
    "postcode": "21775",
    "city": "Süderwesterseite Niederelbe"
  },
  {
    "postcode": "21775",
    "city": "Süderwesterseite"
  },
  {
    "postcode": "21775",
    "city": "Vierhausendorf"
  },
  {
    "postcode": "21775",
    "city": "Cuxhaven"
  },
  {
    "postcode": "21775",
    "city": "Lauentheil"
  },
  {
    "postcode": "21776",
    "city": "Ahlen-Falkenberg"
  },
  {
    "postcode": "21776",
    "city": "Süderleda"
  },
  {
    "postcode": "21776",
    "city": "Wanna"
  },
  {
    "postcode": "21776",
    "city": "Westerwanna"
  },
  {
    "postcode": "21776",
    "city": "Cuxhaven"
  },
  {
    "postcode": "21781",
    "city": "Bullenwinkel"
  },
  {
    "postcode": "21781",
    "city": "Cadenberge"
  },
  {
    "postcode": "21781",
    "city": "Westercadewisch"
  },
  {
    "postcode": "21781",
    "city": "Cuxhaven"
  },
  {
    "postcode": "21781",
    "city": "Geversdorf"
  },
  {
    "postcode": "21781",
    "city": "Heuhof"
  },
  {
    "postcode": "21781",
    "city": "Neuenseebogen"
  },
  {
    "postcode": "21782",
    "city": "Aue"
  },
  {
    "postcode": "21782",
    "city": "Bovenmoor"
  },
  {
    "postcode": "21782",
    "city": "Bülkau"
  },
  {
    "postcode": "21782",
    "city": "Landmark"
  },
  {
    "postcode": "21782",
    "city": "Norderende"
  },
  {
    "postcode": "21782",
    "city": "Süderende"
  },
  {
    "postcode": "21782",
    "city": "Cuxhaven"
  },
  {
    "postcode": "21782",
    "city": "Gehren"
  },
  {
    "postcode": "21784",
    "city": "Geversdorf Niederelbe"
  },
  {
    "postcode": "21784",
    "city": "Geversdorf"
  },
  {
    "postcode": "21784",
    "city": "Laak Niederelbe"
  },
  {
    "postcode": "21784",
    "city": "Laak"
  },
  {
    "postcode": "21784",
    "city": "Marne Niederelbe"
  },
  {
    "postcode": "21784",
    "city": "Marne"
  },
  {
    "postcode": "21784",
    "city": "Cuxhaven"
  },
  {
    "postcode": "21785",
    "city": "Bahrdorf"
  },
  {
    "postcode": "21785",
    "city": "Belum"
  },
  {
    "postcode": "21785",
    "city": "Kehdingbruch"
  },
  {
    "postcode": "21785",
    "city": "Neuhaus (Oste)"
  },
  {
    "postcode": "21785",
    "city": "Neuhaus"
  },
  {
    "postcode": "21785",
    "city": "Neuhäuserdeich Oste"
  },
  {
    "postcode": "21785",
    "city": "Neuhäuserdeich"
  },
  {
    "postcode": "21785",
    "city": "Cuxhaven"
  },
  {
    "postcode": "21785",
    "city": "Am Ostedeich"
  },
  {
    "postcode": "21785",
    "city": "Belumer Deich"
  },
  {
    "postcode": "21785",
    "city": "Westerndorf"
  },
  {
    "postcode": "21787",
    "city": "Oberndorf Oste"
  },
  {
    "postcode": "21787",
    "city": "Oberndorf"
  },
  {
    "postcode": "21787",
    "city": "Cuxhaven"
  },
  {
    "postcode": "21787",
    "city": "Ahrensfluchter Moor"
  },
  {
    "postcode": "21789",
    "city": "Oppeln Kreis Land Hadeln"
  },
  {
    "postcode": "21789",
    "city": "Oppeln"
  },
  {
    "postcode": "21789",
    "city": "Wingst"
  },
  {
    "postcode": "21789",
    "city": "Cuxhaven"
  },
  {
    "postcode": "21789",
    "city": "Grift"
  },
  {
    "postcode": "21789",
    "city": "Dobrock"
  },
  {
    "postcode": "21789",
    "city": "Kirchdorf"
  },
  {
    "postcode": "21789",
    "city": "Wassermühle"
  },
  {
    "postcode": "21789",
    "city": "Norderende"
  },
  {
    "postcode": "21789",
    "city": "Höden"
  }
]