[
  {
    "postcode": "4600",
    "city": "Altenburg Thüringen"
  },
  {
    "postcode": "4600",
    "city": "Altenburg"
  },
  {
    "postcode": "4600",
    "city": "Altenburger Land"
  },
  {
    "postcode": "4600",
    "city": "Kosma"
  },
  {
    "postcode": "4600",
    "city": "Ehrenberg"
  },
  {
    "postcode": "4600",
    "city": "Zetzscha"
  },
  {
    "postcode": "4603",
    "city": "Göhren bei Altenburg Thüringen"
  },
  {
    "postcode": "4603",
    "city": "Göhren bei Altenburg"
  },
  {
    "postcode": "4603",
    "city": "Nobitz"
  },
  {
    "postcode": "4603",
    "city": "Saara bei Schmölln Thüringen"
  },
  {
    "postcode": "4603",
    "city": "Saara bei Schmölln"
  },
  {
    "postcode": "4603",
    "city": "Windischleuba"
  },
  {
    "postcode": "4603",
    "city": "Altenburger Land"
  },
  {
    "postcode": "4603",
    "city": "Göhren"
  },
  {
    "postcode": "4603",
    "city": "Lossen"
  },
  {
    "postcode": "4603",
    "city": "Romschütz"
  },
  {
    "postcode": "4603",
    "city": "Gödern"
  },
  {
    "postcode": "4603",
    "city": "Lutschütz"
  },
  {
    "postcode": "4603",
    "city": "Saara"
  },
  {
    "postcode": "4603",
    "city": "Lehndorf"
  },
  {
    "postcode": "4603",
    "city": "Wilchwitz"
  },
  {
    "postcode": "4603",
    "city": "Engertsdorf"
  },
  {
    "postcode": "4603",
    "city": "Oberleupten"
  },
  {
    "postcode": "4603",
    "city": "Ziegelheim"
  },
  {
    "postcode": "4603",
    "city": "Priefel"
  },
  {
    "postcode": "4603",
    "city": "Flemmingen"
  },
  {
    "postcode": "4603",
    "city": "Klausa"
  },
  {
    "postcode": "4603",
    "city": "Ehrenhain"
  },
  {
    "postcode": "4603",
    "city": "Münsa"
  },
  {
    "postcode": "4603",
    "city": "Nirkendorf"
  },
  {
    "postcode": "4603",
    "city": "Dippelsdorf"
  },
  {
    "postcode": "4603",
    "city": "Garbus"
  },
  {
    "postcode": "4603",
    "city": "Kraschwitz"
  },
  {
    "postcode": "4603",
    "city": "Niederarnsdorf"
  },
  {
    "postcode": "4603",
    "city": "Bornshain"
  },
  {
    "postcode": "4603",
    "city": "Burkersdorf"
  },
  {
    "postcode": "4603",
    "city": "Mockern"
  },
  {
    "postcode": "4603",
    "city": "Hauersdorf"
  },
  {
    "postcode": "4603",
    "city": "Frohnsdorf"
  },
  {
    "postcode": "4603",
    "city": "Jückelberg"
  },
  {
    "postcode": "4603",
    "city": "Heiersdorf (Ehrenhain)"
  },
  {
    "postcode": "4603",
    "city": "Gösdorf"
  },
  {
    "postcode": "4603",
    "city": "Gardschütz"
  },
  {
    "postcode": "4603",
    "city": "Gieba"
  },
  {
    "postcode": "4603",
    "city": "Gleina"
  },
  {
    "postcode": "4603",
    "city": "Goldschau"
  },
  {
    "postcode": "4603",
    "city": "Großmecka"
  },
  {
    "postcode": "4603",
    "city": "Gähsnitz"
  },
  {
    "postcode": "4603",
    "city": "Niederleupten"
  },
  {
    "postcode": "4603",
    "city": "Heiligenleichnam"
  },
  {
    "postcode": "4603",
    "city": "Kaimnitz"
  },
  {
    "postcode": "4603",
    "city": "Löhmigen"
  },
  {
    "postcode": "4603",
    "city": "Löpitz"
  },
  {
    "postcode": "4603",
    "city": "Maltis"
  },
  {
    "postcode": "4603",
    "city": "Kotteritz"
  },
  {
    "postcode": "4603",
    "city": "Podelwitz"
  },
  {
    "postcode": "4603",
    "city": "Oberarnsdorf"
  },
  {
    "postcode": "4603",
    "city": "Runsdorf"
  },
  {
    "postcode": "4603",
    "city": "Selleris"
  },
  {
    "postcode": "4603",
    "city": "Taupadel"
  },
  {
    "postcode": "4603",
    "city": "Tautenhain"
  },
  {
    "postcode": "4603",
    "city": "Wolperndorf"
  },
  {
    "postcode": "4603",
    "city": "Zehma"
  },
  {
    "postcode": "4603",
    "city": "Zumroda"
  },
  {
    "postcode": "4603",
    "city": "Zürchau"
  },
  {
    "postcode": "4603",
    "city": "Schelchwitz"
  },
  {
    "postcode": "4603",
    "city": "Bocka"
  },
  {
    "postcode": "4603",
    "city": "Borgishain"
  },
  {
    "postcode": "4603",
    "city": "Pähnitz"
  },
  {
    "postcode": "4603",
    "city": "Pöppschen"
  },
  {
    "postcode": "4603",
    "city": "Remsa"
  },
  {
    "postcode": "4603",
    "city": "Zschaschelwitz"
  },
  {
    "postcode": "4603",
    "city": "Heiersdorf"
  },
  {
    "postcode": "4610",
    "city": "Lehma"
  },
  {
    "postcode": "4610",
    "city": "Meuselwitz Thüringen"
  },
  {
    "postcode": "4610",
    "city": "Meuselwitz"
  },
  {
    "postcode": "4610",
    "city": "Wintersdorf bei Meuselwitz"
  },
  {
    "postcode": "4610",
    "city": "Altenburger Land"
  },
  {
    "postcode": "4610",
    "city": "Wintersdorf"
  },
  {
    "postcode": "4610",
    "city": "Falkenhain"
  },
  {
    "postcode": "4610",
    "city": "Bünauroda"
  },
  {
    "postcode": "4610",
    "city": "Mumsdorf"
  },
  {
    "postcode": "4610",
    "city": "Brossen"
  },
  {
    "postcode": "4610",
    "city": "Waltersdorf"
  },
  {
    "postcode": "4610",
    "city": "Schnauderhainichen"
  },
  {
    "postcode": "4610",
    "city": "Neupoderschau"
  },
  {
    "postcode": "4610",
    "city": "Neubraunshain"
  },
  {
    "postcode": "4613",
    "city": "Lucka Thüringen"
  },
  {
    "postcode": "4613",
    "city": "Lucka"
  },
  {
    "postcode": "4613",
    "city": "Altenburger Land"
  },
  {
    "postcode": "4613",
    "city": "Prößdorf"
  },
  {
    "postcode": "4613",
    "city": "Teuritz"
  },
  {
    "postcode": "4617",
    "city": "Fockendorf bei Altenburg"
  },
  {
    "postcode": "4617",
    "city": "Gerstenberg"
  },
  {
    "postcode": "4617",
    "city": "Großröda"
  },
  {
    "postcode": "4617",
    "city": "Haselbach bei Altenburg"
  },
  {
    "postcode": "4617",
    "city": "Kriebitzsch"
  },
  {
    "postcode": "4617",
    "city": "Lehma"
  },
  {
    "postcode": "4617",
    "city": "Lödla"
  },
  {
    "postcode": "4617",
    "city": "Monstab"
  },
  {
    "postcode": "4617",
    "city": "Naundorf bei Altenburg"
  },
  {
    "postcode": "4617",
    "city": "Rositz"
  },
  {
    "postcode": "4617",
    "city": "Starkenberg"
  },
  {
    "postcode": "4617",
    "city": "Tegkwitz"
  },
  {
    "postcode": "4617",
    "city": "Treben bei Altenburg"
  },
  {
    "postcode": "4617",
    "city": "Altenburger Land"
  },
  {
    "postcode": "4617",
    "city": "Fockendorf"
  },
  {
    "postcode": "4617",
    "city": "Haselbach"
  },
  {
    "postcode": "4617",
    "city": "Treben"
  },
  {
    "postcode": "4617",
    "city": "Pahna"
  },
  {
    "postcode": "4617",
    "city": "Pöschwitz"
  },
  {
    "postcode": "4617",
    "city": "Altpoderschau"
  },
  {
    "postcode": "4617",
    "city": "Zechau"
  },
  {
    "postcode": "4617",
    "city": "Rödigen"
  },
  {
    "postcode": "4617",
    "city": "Oberlödla"
  },
  {
    "postcode": "4617",
    "city": "Wieseberg"
  },
  {
    "postcode": "4617",
    "city": "Unterlödla"
  },
  {
    "postcode": "4617",
    "city": "Kröbern"
  },
  {
    "postcode": "4617",
    "city": "Krebitzschen"
  },
  {
    "postcode": "4617",
    "city": "Schlauditz"
  },
  {
    "postcode": "4617",
    "city": "Wiesenmühle"
  },
  {
    "postcode": "4617",
    "city": "Molbitz"
  },
  {
    "postcode": "4617",
    "city": "Gorma"
  },
  {
    "postcode": "4617",
    "city": "Schelditz"
  },
  {
    "postcode": "4617",
    "city": "Kostitz"
  },
  {
    "postcode": "4617",
    "city": "Oberkossa"
  },
  {
    "postcode": "4617",
    "city": "Kleinröda"
  },
  {
    "postcode": "4617",
    "city": "Pöhla"
  },
  {
    "postcode": "4617",
    "city": "Kreutzen"
  },
  {
    "postcode": "4617",
    "city": "Kraasa"
  },
  {
    "postcode": "4617",
    "city": "Naundorf"
  },
  {
    "postcode": "4617",
    "city": "Neuposa"
  },
  {
    "postcode": "4617",
    "city": "Dölzig"
  },
  {
    "postcode": "4617",
    "city": "Dobraschütz"
  },
  {
    "postcode": "4617",
    "city": "Misselwitz"
  },
  {
    "postcode": "4617",
    "city": "Tanna"
  },
  {
    "postcode": "4617",
    "city": "Wernsdorf"
  },
  {
    "postcode": "4617",
    "city": "Posa"
  },
  {
    "postcode": "4617",
    "city": "Breesen"
  },
  {
    "postcode": "4617",
    "city": "Trebanz"
  },
  {
    "postcode": "4617",
    "city": "Plottendorf"
  },
  {
    "postcode": "4617",
    "city": "Primmelwitz"
  },
  {
    "postcode": "4617",
    "city": "Serbitz"
  },
  {
    "postcode": "4618",
    "city": "Frohnsdorf bei Altenburg"
  },
  {
    "postcode": "4618",
    "city": "Göpfersdorf"
  },
  {
    "postcode": "4618",
    "city": "Jückelberg"
  },
  {
    "postcode": "4618",
    "city": "Langenleuba-Niederhain"
  },
  {
    "postcode": "4618",
    "city": "Ziegelheim"
  },
  {
    "postcode": "4618",
    "city": "Altenburger Land"
  },
  {
    "postcode": "4618",
    "city": "Garbisdorf"
  },
  {
    "postcode": "4618",
    "city": "Beiern"
  },
  {
    "postcode": "4618",
    "city": "Boderitz"
  },
  {
    "postcode": "4618",
    "city": "Buscha"
  },
  {
    "postcode": "4618",
    "city": "Lohma"
  },
  {
    "postcode": "4618",
    "city": "Neuenmörbitz"
  },
  {
    "postcode": "4618",
    "city": "Schömbach"
  },
  {
    "postcode": "4618",
    "city": "Zschernichen"
  },
  {
    "postcode": "4626",
    "city": "Altkirchen bei Schmölln"
  },
  {
    "postcode": "4626",
    "city": "Dobitschen"
  },
  {
    "postcode": "4626",
    "city": "Drogen"
  },
  {
    "postcode": "4626",
    "city": "Göllnitz bei Schmölln"
  },
  {
    "postcode": "4626",
    "city": "Heukewalde"
  },
  {
    "postcode": "4626",
    "city": "Heyersdorf"
  },
  {
    "postcode": "4626",
    "city": "Jonaswalde"
  },
  {
    "postcode": "4626",
    "city": "Löbichau"
  },
  {
    "postcode": "4626",
    "city": "Lumpzig"
  },
  {
    "postcode": "4626",
    "city": "Mehna"
  },
  {
    "postcode": "4626",
    "city": "Nöbdenitz"
  },
  {
    "postcode": "4626",
    "city": "Posterstein"
  },
  {
    "postcode": "4626",
    "city": "Schmölln Thüringen"
  },
  {
    "postcode": "4626",
    "city": "Schmölln"
  },
  {
    "postcode": "4626",
    "city": "Thonhausen bei Schmölln"
  },
  {
    "postcode": "4626",
    "city": "Vollmershain"
  },
  {
    "postcode": "4626",
    "city": "Wildenbörten"
  },
  {
    "postcode": "4626",
    "city": "Altenburger Land"
  },
  {
    "postcode": "4626",
    "city": "Göllnitz"
  },
  {
    "postcode": "4626",
    "city": "Thonhausen"
  },
  {
    "postcode": "4626",
    "city": "Meucha"
  },
  {
    "postcode": "4626",
    "city": "Pontewitz"
  },
  {
    "postcode": "4626",
    "city": "Rolika"
  },
  {
    "postcode": "4626",
    "city": "Kertschütz"
  },
  {
    "postcode": "4626",
    "city": "Zschöpperitz"
  },
  {
    "postcode": "4626",
    "city": "Schwanditz"
  },
  {
    "postcode": "4626",
    "city": "Nischwitz"
  },
  {
    "postcode": "4626",
    "city": "Beerwalde"
  },
  {
    "postcode": "4626",
    "city": "Drosen"
  },
  {
    "postcode": "4626",
    "city": "Großstechau"
  },
  {
    "postcode": "4626",
    "city": "Kleinstechau"
  },
  {
    "postcode": "4626",
    "city": "Ingramsdorf"
  },
  {
    "postcode": "4626",
    "city": "Falkenau"
  },
  {
    "postcode": "4626",
    "city": "Tannenfeld"
  },
  {
    "postcode": "4626",
    "city": "Rodameuschel"
  },
  {
    "postcode": "4626",
    "city": "Zweitschen"
  },
  {
    "postcode": "4626",
    "city": "Stolzenberg"
  },
  {
    "postcode": "4626",
    "city": "Lohma"
  },
  {
    "postcode": "4626",
    "city": "Sommeritz"
  },
  {
    "postcode": "4626",
    "city": "Trebula"
  },
  {
    "postcode": "4626",
    "city": "Kratschütz"
  },
  {
    "postcode": "4626",
    "city": "Bohra"
  },
  {
    "postcode": "4626",
    "city": "Großstöbnitz"
  },
  {
    "postcode": "4626",
    "city": "Nitzschka"
  },
  {
    "postcode": "4626",
    "city": "Großbraunshain"
  },
  {
    "postcode": "4626",
    "city": "Schloßig"
  },
  {
    "postcode": "4626",
    "city": "Altkirchen"
  },
  {
    "postcode": "4626",
    "city": "Röthenitz"
  },
  {
    "postcode": "4626",
    "city": "Illsitz"
  },
  {
    "postcode": "4626",
    "city": "Kummer"
  },
  {
    "postcode": "4626",
    "city": "Selka"
  },
  {
    "postcode": "4626",
    "city": "Zschernitzsch"
  },
  {
    "postcode": "4626",
    "city": "Weißbach"
  },
  {
    "postcode": "4626",
    "city": "Brandrübel"
  },
  {
    "postcode": "4626",
    "city": "Burkersdorf"
  },
  {
    "postcode": "4626",
    "city": "Jauern"
  },
  {
    "postcode": "4626",
    "city": "Dobra"
  },
  {
    "postcode": "4626",
    "city": "Nödenitzsch"
  },
  {
    "postcode": "4626",
    "city": "Gödissa"
  },
  {
    "postcode": "4626",
    "city": "Göldschen"
  },
  {
    "postcode": "4626",
    "city": "Graicha"
  },
  {
    "postcode": "4626",
    "city": "Großtauschwitz"
  },
  {
    "postcode": "4626",
    "city": "Hartroda"
  },
  {
    "postcode": "4626",
    "city": "Steinsdorf"
  },
  {
    "postcode": "4626",
    "city": "Kakau"
  },
  {
    "postcode": "4626",
    "city": "Kleintauschwitz"
  },
  {
    "postcode": "4626",
    "city": "Gimmel"
  },
  {
    "postcode": "4626",
    "city": "Kleinstöbnitz"
  },
  {
    "postcode": "4626",
    "city": "Mohlis"
  },
  {
    "postcode": "4626",
    "city": "Papiermühle"
  },
  {
    "postcode": "4626",
    "city": "Platschütz"
  },
  {
    "postcode": "4626",
    "city": "Gnadschütz"
  },
  {
    "postcode": "4626",
    "city": "Köthenitz"
  },
  {
    "postcode": "4626",
    "city": "Untschen"
  },
  {
    "postcode": "4626",
    "city": "Zagkwitz"
  },
  {
    "postcode": "4626",
    "city": "Wettelswalde"
  },
  {
    "postcode": "4626",
    "city": "Schönhaide"
  },
  {
    "postcode": "4639",
    "city": "Gößnitz Thüringen"
  },
  {
    "postcode": "4639",
    "city": "Gößnitz"
  },
  {
    "postcode": "4639",
    "city": "Ponitz bei Schmölln Thüringen"
  },
  {
    "postcode": "4639",
    "city": "Ponitz bei Schmölln"
  },
  {
    "postcode": "4639",
    "city": "Altenburger Land"
  },
  {
    "postcode": "4639",
    "city": "Ponitz"
  },
  {
    "postcode": "4639",
    "city": "Naundorf"
  },
  {
    "postcode": "4639",
    "city": "Hainichen"
  },
  {
    "postcode": "4639",
    "city": "Koblenz"
  },
  {
    "postcode": "4639",
    "city": "Pfarrsdorf"
  },
  {
    "postcode": "4639",
    "city": "Nörditz"
  },
  {
    "postcode": "4639",
    "city": "Guteborn"
  },
  {
    "postcode": "4639",
    "city": "Merlach"
  },
  {
    "postcode": "4639",
    "city": "Grünberg"
  },
  {
    "postcode": "4639",
    "city": "Dreußen"
  },
  {
    "postcode": "4639",
    "city": "Zschöpel"
  },
  {
    "postcode": "4643",
    "city": "Geithain"
  },
  {
    "postcode": "4643",
    "city": "Kolka"
  },
  {
    "postcode": "4643",
    "city": "Wenigossa"
  },
  {
    "postcode": "4643",
    "city": "Leipzig"
  },
  {
    "postcode": "4643",
    "city": "Ossa"
  },
  {
    "postcode": "4643",
    "city": "Narsdorf"
  },
  {
    "postcode": "4643",
    "city": "Syhra"
  },
  {
    "postcode": "4643",
    "city": "Nauenhain"
  },
  {
    "postcode": "4643",
    "city": "Niedergräfenhain"
  },
  {
    "postcode": "4643",
    "city": "Rathendorf"
  },
  {
    "postcode": "4643",
    "city": "Theusdorf"
  },
  {
    "postcode": "4643",
    "city": "Sommerhof"
  },
  {
    "postcode": "4643",
    "city": "Wickershain"
  },
  {
    "postcode": "4651",
    "city": "Bad Lausick"
  },
  {
    "postcode": "4651",
    "city": "Eulatal"
  },
  {
    "postcode": "4651",
    "city": "Leipzig"
  },
  {
    "postcode": "4651",
    "city": "Ballendorf"
  },
  {
    "postcode": "4651",
    "city": "Buchheim"
  },
  {
    "postcode": "4651",
    "city": "Lauterbach"
  },
  {
    "postcode": "4651",
    "city": "Thierbaum"
  },
  {
    "postcode": "4651",
    "city": "Kleinbeucha"
  },
  {
    "postcode": "4651",
    "city": "Etzoldshain"
  },
  {
    "postcode": "4651",
    "city": "Beucha"
  },
  {
    "postcode": "4651",
    "city": "Steinbach"
  },
  {
    "postcode": "4651",
    "city": "Glasten"
  },
  {
    "postcode": "4651",
    "city": "Ebersbach"
  },
  {
    "postcode": "4651",
    "city": "Stockheim"
  },
  {
    "postcode": "4654",
    "city": "Frohburg"
  },
  {
    "postcode": "4654",
    "city": "Leipzig"
  },
  {
    "postcode": "4654",
    "city": "Greifenhain"
  },
  {
    "postcode": "4654",
    "city": "Streitwald"
  },
  {
    "postcode": "4654",
    "city": "Frauendorf"
  },
  {
    "postcode": "4654",
    "city": "Kohren-Sahlis"
  },
  {
    "postcode": "4654",
    "city": "Bubendorf"
  },
  {
    "postcode": "4654",
    "city": "Altmörbitz"
  },
  {
    "postcode": "4654",
    "city": "Dolsenhain"
  },
  {
    "postcode": "4654",
    "city": "Roda"
  },
  {
    "postcode": "4654",
    "city": "Flößberg"
  },
  {
    "postcode": "4654",
    "city": "Eschefeld"
  },
  {
    "postcode": "4654",
    "city": "Benndorf"
  },
  {
    "postcode": "4654",
    "city": "Tautenhain"
  },
  {
    "postcode": "4654",
    "city": "Prießnitz"
  },
  {
    "postcode": "4654",
    "city": "Nenkersdorf"
  },
  {
    "postcode": "4654",
    "city": "Trebishain"
  },
  {
    "postcode": "4654",
    "city": "Ottenhain"
  },
  {
    "postcode": "4654",
    "city": "Hopfgarten"
  },
  {
    "postcode": "4654",
    "city": "Gnandstein"
  },
  {
    "postcode": "4654",
    "city": "Altottenhain"
  },
  {
    "postcode": "4654",
    "city": "Frankenhain"
  },
  {
    "postcode": "4654",
    "city": "Jahnshain"
  },
  {
    "postcode": "4654",
    "city": "Elbisbach"
  },
  {
    "postcode": "4654",
    "city": "Eckersberg"
  },
  {
    "postcode": "4654",
    "city": "Linda"
  },
  {
    "postcode": "4654",
    "city": "Meusdorf"
  },
  {
    "postcode": "4654",
    "city": "Neuhof"
  },
  {
    "postcode": "4654",
    "city": "Schönau"
  },
  {
    "postcode": "4654",
    "city": "Pflug"
  },
  {
    "postcode": "4654",
    "city": "Rüdigsdorf"
  },
  {
    "postcode": "4654",
    "city": "Terpitz"
  },
  {
    "postcode": "4654",
    "city": "Walditz"
  },
  {
    "postcode": "4654",
    "city": "Wüstenhain"
  },
  {
    "postcode": "4655",
    "city": "Kohren-Sahlis"
  },
  {
    "postcode": "4655",
    "city": "Neuhof"
  },
  {
    "postcode": "4655",
    "city": "Leipzig"
  },
  {
    "postcode": "4657",
    "city": "Narsdorf"
  },
  {
    "postcode": "4657",
    "city": "Penig"
  },
  {
    "postcode": "4657",
    "city": "Leipzig"
  },
  {
    "postcode": "4668",
    "city": "Grimma"
  },
  {
    "postcode": "4668",
    "city": "Großbardau"
  },
  {
    "postcode": "4668",
    "city": "Großbothen"
  },
  {
    "postcode": "4668",
    "city": "Otterwisch"
  },
  {
    "postcode": "4668",
    "city": "Parthenstein bei Grimma"
  },
  {
    "postcode": "4668",
    "city": "Thümmlitzwalde"
  },
  {
    "postcode": "4668",
    "city": "Leipzig"
  },
  {
    "postcode": "4668",
    "city": "Parthenstein"
  },
  {
    "postcode": "4668",
    "city": "Draschwitz"
  },
  {
    "postcode": "4668",
    "city": "Wetteritz"
  },
  {
    "postcode": "4668",
    "city": "Nerchau"
  },
  {
    "postcode": "4668",
    "city": "Pöhsig"
  },
  {
    "postcode": "4668",
    "city": "Cannewitz"
  },
  {
    "postcode": "4668",
    "city": "Jeesewitz"
  },
  {
    "postcode": "4668",
    "city": "Zaschwitz"
  },
  {
    "postcode": "4668",
    "city": "Mutzschen"
  },
  {
    "postcode": "4668",
    "city": "Köllmichen"
  },
  {
    "postcode": "4668",
    "city": "Leipnitz"
  },
  {
    "postcode": "4668",
    "city": "Zschoppach"
  },
  {
    "postcode": "4668",
    "city": "Kössern"
  },
  {
    "postcode": "4668",
    "city": "Schkortitz"
  },
  {
    "postcode": "4668",
    "city": "Ragewitz"
  },
  {
    "postcode": "4668",
    "city": "Kleinbardau"
  },
  {
    "postcode": "4668",
    "city": "Bahren"
  },
  {
    "postcode": "4668",
    "city": "Dürrweitzschen"
  },
  {
    "postcode": "4668",
    "city": "Waldbardau"
  },
  {
    "postcode": "4668",
    "city": "Beiersdorf"
  },
  {
    "postcode": "4668",
    "city": "Kaditzsch"
  },
  {
    "postcode": "4668",
    "city": "Höfgen"
  },
  {
    "postcode": "4668",
    "city": "Haubitz"
  },
  {
    "postcode": "4668",
    "city": "Böhlen"
  },
  {
    "postcode": "4668",
    "city": "Seidewitz"
  },
  {
    "postcode": "4668",
    "city": "Döben"
  },
  {
    "postcode": "4668",
    "city": "Grechwitz"
  },
  {
    "postcode": "4668",
    "city": "Wagelwitz"
  },
  {
    "postcode": "4668",
    "city": "Ostrau"
  },
  {
    "postcode": "4668",
    "city": "Roda"
  },
  {
    "postcode": "4668",
    "city": "Kleinbothen"
  },
  {
    "postcode": "4668",
    "city": "Golzern"
  },
  {
    "postcode": "4668",
    "city": "Schaddel"
  },
  {
    "postcode": "4668",
    "city": "Nauberg"
  },
  {
    "postcode": "4668",
    "city": "Dorna"
  },
  {
    "postcode": "4668",
    "city": "Keiselwitz"
  },
  {
    "postcode": "4668",
    "city": "Neunitz"
  },
  {
    "postcode": "4668",
    "city": "Förstgen"
  },
  {
    "postcode": "4668",
    "city": "Göttwitz"
  },
  {
    "postcode": "4668",
    "city": "Deditz"
  },
  {
    "postcode": "4668",
    "city": "Denkwitz"
  },
  {
    "postcode": "4668",
    "city": "Frauendorf"
  },
  {
    "postcode": "4668",
    "city": "Fremdiswalde"
  },
  {
    "postcode": "4668",
    "city": "Gaudichsroda"
  },
  {
    "postcode": "4668",
    "city": "Bröhsen"
  },
  {
    "postcode": "4668",
    "city": "Gornewitz"
  },
  {
    "postcode": "4668",
    "city": "Bernbruch"
  },
  {
    "postcode": "4668",
    "city": "Grottewitz"
  },
  {
    "postcode": "4668",
    "city": "Kuckeland"
  },
  {
    "postcode": "4668",
    "city": "Löbschütz"
  },
  {
    "postcode": "4668",
    "city": "Naundorf"
  },
  {
    "postcode": "4668",
    "city": "Motterwitz"
  },
  {
    "postcode": "4668",
    "city": "Muschau"
  },
  {
    "postcode": "4668",
    "city": "Papsdorf"
  },
  {
    "postcode": "4668",
    "city": "Poischwitz"
  },
  {
    "postcode": "4668",
    "city": "Prösitz"
  },
  {
    "postcode": "4668",
    "city": "Schmorditz"
  },
  {
    "postcode": "4668",
    "city": "Serka"
  },
  {
    "postcode": "4668",
    "city": "Thümmlitz"
  },
  {
    "postcode": "4668",
    "city": "Würschwitz"
  },
  {
    "postcode": "4668",
    "city": "Zeunitz"
  },
  {
    "postcode": "4668",
    "city": "Gastewitz"
  },
  {
    "postcode": "4668",
    "city": "Großbuch"
  },
  {
    "postcode": "4668",
    "city": "Großsteinberg"
  },
  {
    "postcode": "4668",
    "city": "Grethen"
  },
  {
    "postcode": "4668",
    "city": "Pomßen"
  },
  {
    "postcode": "4668",
    "city": "Klinga"
  },
  {
    "postcode": "4680",
    "city": "Colditz"
  },
  {
    "postcode": "4680",
    "city": "Zschadraß"
  },
  {
    "postcode": "4680",
    "city": "Leipzig"
  },
  {
    "postcode": "4680",
    "city": "Schönbach"
  },
  {
    "postcode": "4680",
    "city": "Leisenau"
  },
  {
    "postcode": "4680",
    "city": "Hausdorf"
  },
  {
    "postcode": "4680",
    "city": "Sermuth"
  },
  {
    "postcode": "4680",
    "city": "Zschetzsch"
  },
  {
    "postcode": "4680",
    "city": "Collmen"
  },
  {
    "postcode": "4680",
    "city": "Zollwitz"
  },
  {
    "postcode": "4680",
    "city": "Podelwitz"
  },
  {
    "postcode": "4680",
    "city": "Maaschwitz"
  },
  {
    "postcode": "4680",
    "city": "Tanndorf"
  },
  {
    "postcode": "4680",
    "city": "Commichau"
  },
  {
    "postcode": "4680",
    "city": "Erlbach"
  },
  {
    "postcode": "4680",
    "city": "Koltzschen"
  },
  {
    "postcode": "4680",
    "city": "Bockwitz"
  },
  {
    "postcode": "4680",
    "city": "Skoplau"
  },
  {
    "postcode": "4680",
    "city": "Möseln"
  },
  {
    "postcode": "4680",
    "city": "Lastau"
  },
  {
    "postcode": "4680",
    "city": "Hohnbach"
  },
  {
    "postcode": "4680",
    "city": "Terpitzsch"
  },
  {
    "postcode": "4680",
    "city": "Zschirla"
  },
  {
    "postcode": "4680",
    "city": "Kaltenborn"
  },
  {
    "postcode": "4680",
    "city": "Meuselwitz"
  },
  {
    "postcode": "4680",
    "city": "Raschütz"
  },
  {
    "postcode": "4680",
    "city": "Erlln"
  },
  {
    "postcode": "4683",
    "city": "Belgershain"
  },
  {
    "postcode": "4683",
    "city": "Naunhof bei Grimma"
  },
  {
    "postcode": "4683",
    "city": "Leipzig"
  },
  {
    "postcode": "4683",
    "city": "Fuchshain"
  },
  {
    "postcode": "4683",
    "city": "Naunhof"
  },
  {
    "postcode": "4683",
    "city": "Threna"
  },
  {
    "postcode": "4683",
    "city": "Rohrbach"
  },
  {
    "postcode": "4683",
    "city": "Köhra"
  },
  {
    "postcode": "4683",
    "city": "Erdmannshain"
  },
  {
    "postcode": "4683",
    "city": "Ammelshain"
  },
  {
    "postcode": "4683",
    "city": "Albrechtshain"
  },
  {
    "postcode": "4683",
    "city": "Lindhardt"
  },
  {
    "postcode": "4683",
    "city": "Eicha"
  },
  {
    "postcode": "4685",
    "city": "Nerchau"
  },
  {
    "postcode": "4687",
    "city": "Trebsen / Mulde"
  },
  {
    "postcode": "4687",
    "city": "Trebsen"
  },
  {
    "postcode": "4687",
    "city": "Leipzig"
  },
  {
    "postcode": "4687",
    "city": "Trebsen/Mulde"
  },
  {
    "postcode": "4687",
    "city": "Seelingstädt"
  },
  {
    "postcode": "4687",
    "city": "Altenhain"
  },
  {
    "postcode": "4687",
    "city": "Neichen"
  },
  {
    "postcode": "4688",
    "city": "Mutzschen"
  },
  {
    "postcode": "46045",
    "city": "Oberhausen Rheinland"
  },
  {
    "postcode": "46045",
    "city": "Oberhausen"
  },
  {
    "postcode": "46045",
    "city": "Styrum"
  },
  {
    "postcode": "46045",
    "city": "Stadtmitte"
  },
  {
    "postcode": "46045",
    "city": "Altstadt-Mitte"
  },
  {
    "postcode": "46045",
    "city": "Altstadt-Süd"
  },
  {
    "postcode": "46045",
    "city": "Dümpten"
  },
  {
    "postcode": "46045",
    "city": "Marienkirche"
  },
  {
    "postcode": "46045",
    "city": "Alt-Oberhausen"
  },
  {
    "postcode": "46045",
    "city": "Schlad"
  },
  {
    "postcode": "46047",
    "city": "Oberhausen Rheinland"
  },
  {
    "postcode": "46047",
    "city": "Oberhausen"
  },
  {
    "postcode": "46047",
    "city": "Bermensfeld"
  },
  {
    "postcode": "46047",
    "city": "Neue Mitte"
  },
  {
    "postcode": "46047",
    "city": "Alt-Oberhausen"
  },
  {
    "postcode": "46047",
    "city": "Marienkirche"
  },
  {
    "postcode": "46047",
    "city": "Dümpten"
  },
  {
    "postcode": "46047",
    "city": "Schlad"
  },
  {
    "postcode": "46047",
    "city": "Stadtmitte"
  },
  {
    "postcode": "46049",
    "city": "Oberhausen Rheinland"
  },
  {
    "postcode": "46049",
    "city": "Oberhausen"
  },
  {
    "postcode": "46049",
    "city": "Lirich-Nord"
  },
  {
    "postcode": "46049",
    "city": "Alstaden-Ost"
  },
  {
    "postcode": "46049",
    "city": "Stadtmitte"
  },
  {
    "postcode": "46049",
    "city": "Alstaden-West"
  },
  {
    "postcode": "46049",
    "city": "Marienkirche"
  },
  {
    "postcode": "46049",
    "city": "Alt-Oberhausen"
  },
  {
    "postcode": "46049",
    "city": "Lirich-Süd"
  },
  {
    "postcode": "46049",
    "city": "Altstadt-Mitte"
  },
  {
    "postcode": "46049",
    "city": "Alstaden"
  },
  {
    "postcode": "46117",
    "city": "Oberhausen Rheinland"
  },
  {
    "postcode": "46117",
    "city": "Oberhausen"
  },
  {
    "postcode": "46117",
    "city": "Eisenheim"
  },
  {
    "postcode": "46117",
    "city": "Borbeck"
  },
  {
    "postcode": "46117",
    "city": "Heide"
  },
  {
    "postcode": "46117",
    "city": "Osterfeld-Ost"
  },
  {
    "postcode": "46117",
    "city": "Osterfeld-West"
  },
  {
    "postcode": "46117",
    "city": "Stadtmitte"
  },
  {
    "postcode": "46117",
    "city": "Osterfeld"
  },
  {
    "postcode": "46117",
    "city": "Sterkrade-Mitte"
  },
  {
    "postcode": "46119",
    "city": "Oberhausen Rheinland"
  },
  {
    "postcode": "46119",
    "city": "Oberhausen"
  },
  {
    "postcode": "46119",
    "city": "Heide"
  },
  {
    "postcode": "46119",
    "city": "Klosterhardt-Nord"
  },
  {
    "postcode": "46119",
    "city": "Osterfeld-Ost"
  },
  {
    "postcode": "46119",
    "city": "Tackenberg"
  },
  {
    "postcode": "46119",
    "city": "Klosterhardt-Süd"
  },
  {
    "postcode": "46119",
    "city": "Osterfeld-West"
  },
  {
    "postcode": "46119",
    "city": "Klosterhardt"
  },
  {
    "postcode": "46119",
    "city": "Sterkrade"
  },
  {
    "postcode": "46119",
    "city": "Sterkrade-Mitte"
  },
  {
    "postcode": "46119",
    "city": "Osterfeld"
  },
  {
    "postcode": "46119",
    "city": "Stadtmitte"
  },
  {
    "postcode": "46145",
    "city": "Königshardt"
  },
  {
    "postcode": "46145",
    "city": "Oberhausen Rheinland"
  },
  {
    "postcode": "46145",
    "city": "Oberhausen"
  },
  {
    "postcode": "46145",
    "city": "Sterkrade-Mitte"
  },
  {
    "postcode": "46145",
    "city": "Sterkrade"
  },
  {
    "postcode": "46145",
    "city": "Stadtmitte"
  },
  {
    "postcode": "46145",
    "city": "Sterkrade-Nord"
  },
  {
    "postcode": "46145",
    "city": "Osterfeld-West"
  },
  {
    "postcode": "46145",
    "city": "Tackenberg"
  },
  {
    "postcode": "46145",
    "city": "Alsfeld"
  },
  {
    "postcode": "46145",
    "city": "Klosterhardt-Nord"
  },
  {
    "postcode": "46147",
    "city": "Holten"
  },
  {
    "postcode": "46147",
    "city": "Oberhausen Rheinland"
  },
  {
    "postcode": "46147",
    "city": "Oberhausen"
  },
  {
    "postcode": "46147",
    "city": "Schmachtendorf"
  },
  {
    "postcode": "46147",
    "city": "Sterkrade"
  },
  {
    "postcode": "46147",
    "city": "Sterkrade-Nord"
  },
  {
    "postcode": "46147",
    "city": "Alsfeld"
  },
  {
    "postcode": "46149",
    "city": "Buschhausen"
  },
  {
    "postcode": "46149",
    "city": "Oberhausen Rheinland"
  },
  {
    "postcode": "46149",
    "city": "Oberhausen"
  },
  {
    "postcode": "46149",
    "city": "Sterkrade-Mitte"
  },
  {
    "postcode": "46149",
    "city": "Alsfeld"
  },
  {
    "postcode": "46149",
    "city": "Schwarze Heide"
  },
  {
    "postcode": "46149",
    "city": "Sterkrade"
  },
  {
    "postcode": "46149",
    "city": "Stadtmitte"
  },
  {
    "postcode": "46236",
    "city": "Bottrop"
  },
  {
    "postcode": "46236",
    "city": "Stadtmitte"
  },
  {
    "postcode": "46238",
    "city": "Bottrop"
  },
  {
    "postcode": "46238",
    "city": "Batenbrock"
  },
  {
    "postcode": "46238",
    "city": "Welheimer Mark"
  },
  {
    "postcode": "46238",
    "city": "Welheim"
  },
  {
    "postcode": "46240",
    "city": "Bottrop"
  },
  {
    "postcode": "46240",
    "city": "Eigen"
  },
  {
    "postcode": "46240",
    "city": "Boy"
  },
  {
    "postcode": "46242",
    "city": "Bottrop"
  },
  {
    "postcode": "46242",
    "city": "Fuhlenbrock"
  },
  {
    "postcode": "46242",
    "city": "Vonderort"
  },
  {
    "postcode": "46242",
    "city": "Lehmkuhle"
  },
  {
    "postcode": "46242",
    "city": "Stadtmitte"
  },
  {
    "postcode": "46242",
    "city": "Ebel"
  },
  {
    "postcode": "46244",
    "city": "Bottrop"
  },
  {
    "postcode": "46244",
    "city": "Feldhausen"
  },
  {
    "postcode": "46244",
    "city": "Kirchhellen Mitte"
  },
  {
    "postcode": "46244",
    "city": "Hardinghausen"
  },
  {
    "postcode": "46244",
    "city": "Grafenwald"
  },
  {
    "postcode": "46244",
    "city": "Overhagen"
  },
  {
    "postcode": "46244",
    "city": "Kirchhellen"
  },
  {
    "postcode": "46244",
    "city": "Ekel"
  },
  {
    "postcode": "46244",
    "city": "Holthausen"
  },
  {
    "postcode": "46282",
    "city": "Altendorf Ulfkotte"
  },
  {
    "postcode": "46282",
    "city": "Dorsten"
  },
  {
    "postcode": "46282",
    "city": "Hardt"
  },
  {
    "postcode": "46282",
    "city": "Recklinghausen"
  },
  {
    "postcode": "46282",
    "city": "Altstadt"
  },
  {
    "postcode": "46282",
    "city": "Östrich"
  },
  {
    "postcode": "46282",
    "city": "Feldmark"
  },
  {
    "postcode": "46284",
    "city": "Dorsten"
  },
  {
    "postcode": "46284",
    "city": "Hervest"
  },
  {
    "postcode": "46284",
    "city": "Holsterhausen"
  },
  {
    "postcode": "46284",
    "city": "Recklinghausen"
  },
  {
    "postcode": "46286",
    "city": "Deuten Westfalen"
  },
  {
    "postcode": "46286",
    "city": "Deuten"
  },
  {
    "postcode": "46286",
    "city": "Dorsten"
  },
  {
    "postcode": "46286",
    "city": "Lembeck bei Dorsten"
  },
  {
    "postcode": "46286",
    "city": "Rhade Westfalen"
  },
  {
    "postcode": "46286",
    "city": "Rhade"
  },
  {
    "postcode": "46286",
    "city": "Wulfen Westfalen"
  },
  {
    "postcode": "46286",
    "city": "Wulfen"
  },
  {
    "postcode": "46286",
    "city": "Recklinghausen"
  },
  {
    "postcode": "46286",
    "city": "Barkenberg"
  },
  {
    "postcode": "46286",
    "city": "Lembeck"
  },
  {
    "postcode": "46325",
    "city": "Borken Westfalen"
  },
  {
    "postcode": "46325",
    "city": "Borken"
  },
  {
    "postcode": "46325",
    "city": "Burlo Kreis Borken Westfalen"
  },
  {
    "postcode": "46325",
    "city": "Burlo"
  },
  {
    "postcode": "46325",
    "city": "Gemen Kreis Borken Westfalen"
  },
  {
    "postcode": "46325",
    "city": "Gemen"
  },
  {
    "postcode": "46325",
    "city": "Weseke Westfalen"
  },
  {
    "postcode": "46325",
    "city": "Weseke"
  },
  {
    "postcode": "46325",
    "city": "Marbeck"
  },
  {
    "postcode": "46325",
    "city": "Borkenwirthe/Burlo"
  },
  {
    "postcode": "46325",
    "city": "Borkenwirthe"
  },
  {
    "postcode": "46342",
    "city": "Ramsdorf Kreis Borken Westfalen"
  },
  {
    "postcode": "46342",
    "city": "Ramsdorf"
  },
  {
    "postcode": "46342",
    "city": "Velen"
  },
  {
    "postcode": "46342",
    "city": "Borken"
  },
  {
    "postcode": "46348",
    "city": "Erle bei Dorsten"
  },
  {
    "postcode": "46348",
    "city": "Marbeck"
  },
  {
    "postcode": "46348",
    "city": "Raesfeld"
  },
  {
    "postcode": "46348",
    "city": "Borken"
  },
  {
    "postcode": "46348",
    "city": "Erle"
  },
  {
    "postcode": "46354",
    "city": "Oeding"
  },
  {
    "postcode": "46354",
    "city": "Südlohn"
  },
  {
    "postcode": "46354",
    "city": "Borken"
  },
  {
    "postcode": "46359",
    "city": "Buschhausen Kreis Borken Westfalen"
  },
  {
    "postcode": "46359",
    "city": "Buschhausen"
  },
  {
    "postcode": "46359",
    "city": "Heiden Kreis Borken"
  },
  {
    "postcode": "46359",
    "city": "Heiden"
  },
  {
    "postcode": "46359",
    "city": "Nordick Kreis Borken Westfalen"
  },
  {
    "postcode": "46359",
    "city": "Nordick"
  },
  {
    "postcode": "46359",
    "city": "Borken"
  },
  {
    "postcode": "46395",
    "city": "Biemenhorst"
  },
  {
    "postcode": "46395",
    "city": "Bocholt"
  },
  {
    "postcode": "46395",
    "city": "Lankern"
  },
  {
    "postcode": "46395",
    "city": "Liedern"
  },
  {
    "postcode": "46395",
    "city": "Lowick"
  },
  {
    "postcode": "46395",
    "city": "Mussum"
  },
  {
    "postcode": "46395",
    "city": "Borken"
  },
  {
    "postcode": "46395",
    "city": "Siegeheide"
  },
  {
    "postcode": "46397",
    "city": "Barlo Westfalen"
  },
  {
    "postcode": "46397",
    "city": "Barlo"
  },
  {
    "postcode": "46397",
    "city": "Bocholt"
  },
  {
    "postcode": "46397",
    "city": "Borken"
  },
  {
    "postcode": "46397",
    "city": "Stenern"
  },
  {
    "postcode": "46399",
    "city": "Barlo Westfalen"
  },
  {
    "postcode": "46399",
    "city": "Barlo"
  },
  {
    "postcode": "46399",
    "city": "Bocholt"
  },
  {
    "postcode": "46399",
    "city": "Hemden"
  },
  {
    "postcode": "46399",
    "city": "Holtwick bei Bocholt"
  },
  {
    "postcode": "46399",
    "city": "Lowick"
  },
  {
    "postcode": "46399",
    "city": "Spork"
  },
  {
    "postcode": "46399",
    "city": "Suderwick"
  },
  {
    "postcode": "46399",
    "city": "Borken"
  },
  {
    "postcode": "46399",
    "city": "Holtwick"
  },
  {
    "postcode": "46399",
    "city": "Stenern"
  },
  {
    "postcode": "46414",
    "city": "Büngern bei Bocholt"
  },
  {
    "postcode": "46414",
    "city": "Krechting bei Bocholt"
  },
  {
    "postcode": "46414",
    "city": "Rhede"
  },
  {
    "postcode": "46414",
    "city": "Rhede Westfalen"
  },
  {
    "postcode": "46414",
    "city": "Borken"
  },
  {
    "postcode": "46414",
    "city": "Krommert"
  },
  {
    "postcode": "46414",
    "city": "Vardingholt"
  },
  {
    "postcode": "46414",
    "city": "Büngern"
  },
  {
    "postcode": "46414",
    "city": "Krechting"
  },
  {
    "postcode": "46419",
    "city": "Anholt Westfalen"
  },
  {
    "postcode": "46419",
    "city": "Anholt"
  },
  {
    "postcode": "46419",
    "city": "Heelden"
  },
  {
    "postcode": "46419",
    "city": "Herzebocholt Westfalen"
  },
  {
    "postcode": "46419",
    "city": "Herzebocholt"
  },
  {
    "postcode": "46419",
    "city": "Isselburg"
  },
  {
    "postcode": "46419",
    "city": "Vehlingen"
  },
  {
    "postcode": "46419",
    "city": "Werth Westfalen"
  },
  {
    "postcode": "46419",
    "city": "Werth"
  },
  {
    "postcode": "46419",
    "city": "Borken"
  },
  {
    "postcode": "46446",
    "city": "Borghees"
  },
  {
    "postcode": "46446",
    "city": "Dornick"
  },
  {
    "postcode": "46446",
    "city": "Elten"
  },
  {
    "postcode": "46446",
    "city": "Emmerich"
  },
  {
    "postcode": "46446",
    "city": "Emmerich am Rhein"
  },
  {
    "postcode": "46446",
    "city": "Hüthum"
  },
  {
    "postcode": "46446",
    "city": "Praest"
  },
  {
    "postcode": "46446",
    "city": "Speelberg"
  },
  {
    "postcode": "46446",
    "city": "Vrasselt"
  },
  {
    "postcode": "46446",
    "city": "Kleve"
  },
  {
    "postcode": "46446",
    "city": "Klein-Netterden"
  },
  {
    "postcode": "46446",
    "city": "Elsepaß"
  },
  {
    "postcode": "46459",
    "city": "Bergswick"
  },
  {
    "postcode": "46459",
    "city": "Bienen"
  },
  {
    "postcode": "46459",
    "city": "Empel Kreis Rees"
  },
  {
    "postcode": "46459",
    "city": "Empel"
  },
  {
    "postcode": "46459",
    "city": "Esserden"
  },
  {
    "postcode": "46459",
    "city": "Grietherbusch"
  },
  {
    "postcode": "46459",
    "city": "Grietherort"
  },
  {
    "postcode": "46459",
    "city": "Haffen"
  },
  {
    "postcode": "46459",
    "city": "Haldern Rheinland"
  },
  {
    "postcode": "46459",
    "city": "Haldern"
  },
  {
    "postcode": "46459",
    "city": "Mehr bei Wesel"
  },
  {
    "postcode": "46459",
    "city": "Millingen Kreis Rees"
  },
  {
    "postcode": "46459",
    "city": "Millingen"
  },
  {
    "postcode": "46459",
    "city": "Rees"
  },
  {
    "postcode": "46459",
    "city": "Reeserward"
  },
  {
    "postcode": "46459",
    "city": "Speldrop"
  },
  {
    "postcode": "46459",
    "city": "Kleve"
  },
  {
    "postcode": "46459",
    "city": "Mehr"
  },
  {
    "postcode": "46483",
    "city": "Wesel"
  },
  {
    "postcode": "46483",
    "city": "Wesel am Rhein"
  },
  {
    "postcode": "46483",
    "city": "Feldmark"
  },
  {
    "postcode": "46485",
    "city": "Lackhausen"
  },
  {
    "postcode": "46485",
    "city": "Lippedorf Niederrhein"
  },
  {
    "postcode": "46485",
    "city": "Lippedorf"
  },
  {
    "postcode": "46485",
    "city": "Obrighoven"
  },
  {
    "postcode": "46485",
    "city": "Wesel"
  },
  {
    "postcode": "46485",
    "city": "Wesel am Rhein"
  },
  {
    "postcode": "46485",
    "city": "Feldmark"
  },
  {
    "postcode": "46485",
    "city": "Fusternberg/Wackenbruch"
  },
  {
    "postcode": "46485",
    "city": "Schepersfeld"
  },
  {
    "postcode": "46485",
    "city": "Fusternberg"
  },
  {
    "postcode": "46487",
    "city": "Bislich"
  },
  {
    "postcode": "46487",
    "city": "Büderich bei Wesel"
  },
  {
    "postcode": "46487",
    "city": "Diersfordt"
  },
  {
    "postcode": "46487",
    "city": "Flüren"
  },
  {
    "postcode": "46487",
    "city": "Ginderich"
  },
  {
    "postcode": "46487",
    "city": "Wesel"
  },
  {
    "postcode": "46487",
    "city": "Wesel am Rhein"
  },
  {
    "postcode": "46487",
    "city": "Feldmark"
  },
  {
    "postcode": "46487",
    "city": "Blumenkamp"
  },
  {
    "postcode": "46487",
    "city": "Büderich"
  },
  {
    "postcode": "46487",
    "city": "Bergerfurth"
  },
  {
    "postcode": "46499",
    "city": "Brünen"
  },
  {
    "postcode": "46499",
    "city": "Dingden"
  },
  {
    "postcode": "46499",
    "city": "Hamminkeln"
  },
  {
    "postcode": "46499",
    "city": "Loikum"
  },
  {
    "postcode": "46499",
    "city": "Mehrhoog"
  },
  {
    "postcode": "46499",
    "city": "Ringenberg"
  },
  {
    "postcode": "46499",
    "city": "Wertherbruch"
  },
  {
    "postcode": "46499",
    "city": "Wesel"
  },
  {
    "postcode": "46509",
    "city": "Birten"
  },
  {
    "postcode": "46509",
    "city": "Lüttingen"
  },
  {
    "postcode": "46509",
    "city": "Marienbaum"
  },
  {
    "postcode": "46509",
    "city": "Obermörmter"
  },
  {
    "postcode": "46509",
    "city": "Vynen"
  },
  {
    "postcode": "46509",
    "city": "Wardt"
  },
  {
    "postcode": "46509",
    "city": "Xanten"
  },
  {
    "postcode": "46509",
    "city": "Wesel"
  },
  {
    "postcode": "46509",
    "city": "Unterbirten"
  },
  {
    "postcode": "46514",
    "city": "Altschermbeck Niederrhein"
  },
  {
    "postcode": "46514",
    "city": "Altschermbeck"
  },
  {
    "postcode": "46514",
    "city": "Bricht Niederrhein"
  },
  {
    "postcode": "46514",
    "city": "Bricht"
  },
  {
    "postcode": "46514",
    "city": "Damm"
  },
  {
    "postcode": "46514",
    "city": "Gahlen Kreis Dinslaken"
  },
  {
    "postcode": "46514",
    "city": "Gahlen"
  },
  {
    "postcode": "46514",
    "city": "Schermbeck"
  },
  {
    "postcode": "46514",
    "city": "Schermbeck Niederrhein"
  },
  {
    "postcode": "46514",
    "city": "Wesel"
  },
  {
    "postcode": "46514",
    "city": "Weselerwald"
  },
  {
    "postcode": "46514",
    "city": "Dämmerwald"
  },
  {
    "postcode": "46514",
    "city": "Overbeck"
  },
  {
    "postcode": "46519",
    "city": "Alpen"
  },
  {
    "postcode": "46519",
    "city": "Bönninghardt"
  },
  {
    "postcode": "46519",
    "city": "Veen Rheinland"
  },
  {
    "postcode": "46519",
    "city": "Veen"
  },
  {
    "postcode": "46519",
    "city": "Wesel"
  },
  {
    "postcode": "46519",
    "city": "Menzelen-West"
  },
  {
    "postcode": "46519",
    "city": "Menzelen-Ost"
  },
  {
    "postcode": "46535",
    "city": "Averbruch"
  },
  {
    "postcode": "46535",
    "city": "Dinslaken"
  },
  {
    "postcode": "46535",
    "city": "Eppinghoven"
  },
  {
    "postcode": "46535",
    "city": "Wesel"
  },
  {
    "postcode": "46535",
    "city": "Innenstadt"
  },
  {
    "postcode": "46535",
    "city": "Am Stapp"
  },
  {
    "postcode": "46537",
    "city": "Bruch"
  },
  {
    "postcode": "46537",
    "city": "Dinslaken"
  },
  {
    "postcode": "46537",
    "city": "Wesel"
  },
  {
    "postcode": "46537",
    "city": "Lohberg"
  },
  {
    "postcode": "46537",
    "city": "Innenstadt"
  },
  {
    "postcode": "46539",
    "city": "Dinslaken"
  },
  {
    "postcode": "46539",
    "city": "Hiesfeld"
  },
  {
    "postcode": "46539",
    "city": "Oberlohberg"
  },
  {
    "postcode": "46539",
    "city": "Wesel"
  },
  {
    "postcode": "46539",
    "city": "Innenstadt"
  },
  {
    "postcode": "46562",
    "city": "Friedrichsfeld Niederrhein"
  },
  {
    "postcode": "46562",
    "city": "Friedrichsfeld"
  },
  {
    "postcode": "46562",
    "city": "Götterswickerhamm Niederrhein"
  },
  {
    "postcode": "46562",
    "city": "Götterswickerhamm"
  },
  {
    "postcode": "46562",
    "city": "Holthausen Niederrhein"
  },
  {
    "postcode": "46562",
    "city": "Holthausen"
  },
  {
    "postcode": "46562",
    "city": "Löhnen Niederrhein"
  },
  {
    "postcode": "46562",
    "city": "Löhnen"
  },
  {
    "postcode": "46562",
    "city": "Mehrum Niederrhein"
  },
  {
    "postcode": "46562",
    "city": "Mehrum"
  },
  {
    "postcode": "46562",
    "city": "Möllen Niederrhein"
  },
  {
    "postcode": "46562",
    "city": "Möllen"
  },
  {
    "postcode": "46562",
    "city": "Spellen Niederrhein"
  },
  {
    "postcode": "46562",
    "city": "Spellen"
  },
  {
    "postcode": "46562",
    "city": "Voerde"
  },
  {
    "postcode": "46562",
    "city": "Voerde (Niederrhein)"
  },
  {
    "postcode": "46562",
    "city": "Wesel"
  },
  {
    "postcode": "46562",
    "city": "Stockum"
  },
  {
    "postcode": "46569",
    "city": "Bruckhausen"
  },
  {
    "postcode": "46569",
    "city": "Drevenack"
  },
  {
    "postcode": "46569",
    "city": "Gartrop-Bühl"
  },
  {
    "postcode": "46569",
    "city": "Hünxe"
  },
  {
    "postcode": "46569",
    "city": "Krudenburg"
  },
  {
    "postcode": "46569",
    "city": "Wesel"
  },
  {
    "postcode": "46569",
    "city": "Bucholtwelmen"
  },
  {
    "postcode": "46569",
    "city": "Hünxerwald"
  }
]