[
  {
    "postcode": "3103",
    "city": "Lindchen"
  },
  {
    "postcode": "3103",
    "city": "Lubochow"
  },
  {
    "postcode": "3103",
    "city": "Neu-Seeland"
  },
  {
    "postcode": "3103",
    "city": "Neupetershain"
  },
  {
    "postcode": "3103",
    "city": "Ressen Niederlausitz"
  },
  {
    "postcode": "3103",
    "city": "Ressen"
  },
  {
    "postcode": "3103",
    "city": "Oberspreewald-Lausitz"
  },
  {
    "postcode": "3103",
    "city": "Bahnsdorf"
  },
  {
    "postcode": "3103",
    "city": "Leeskow"
  },
  {
    "postcode": "3103",
    "city": "Neupetershain Nord"
  },
  {
    "postcode": "3103",
    "city": "Geisendorf"
  },
  {
    "postcode": "3116",
    "city": "Casel"
  },
  {
    "postcode": "3116",
    "city": "Domsdorf"
  },
  {
    "postcode": "3116",
    "city": "Drebkau"
  },
  {
    "postcode": "3116",
    "city": "Greifenhain"
  },
  {
    "postcode": "3116",
    "city": "Jehserig"
  },
  {
    "postcode": "3116",
    "city": "Kausche"
  },
  {
    "postcode": "3116",
    "city": "Laubst"
  },
  {
    "postcode": "3116",
    "city": "Schorbus"
  },
  {
    "postcode": "3116",
    "city": "Siewisch"
  },
  {
    "postcode": "3116",
    "city": "Spree-Neiße"
  },
  {
    "postcode": "3116",
    "city": "Leuthen"
  },
  {
    "postcode": "3116",
    "city": "Steinitz"
  },
  {
    "postcode": "3116",
    "city": "Merkur"
  },
  {
    "postcode": "3119",
    "city": "Welzow"
  },
  {
    "postcode": "3119",
    "city": "Spree-Neiße"
  },
  {
    "postcode": "3119",
    "city": "Proschim"
  },
  {
    "postcode": "3130",
    "city": "Bagenz"
  },
  {
    "postcode": "3130",
    "city": "Bloischdorf"
  },
  {
    "postcode": "3130",
    "city": "Bohsdorf"
  },
  {
    "postcode": "3130",
    "city": "Drieschnitz-Kahsel"
  },
  {
    "postcode": "3130",
    "city": "Felixsee"
  },
  {
    "postcode": "3130",
    "city": "Friedrichshain"
  },
  {
    "postcode": "3130",
    "city": "Graustein"
  },
  {
    "postcode": "3130",
    "city": "Groß Luja"
  },
  {
    "postcode": "3130",
    "city": "Haidemühl"
  },
  {
    "postcode": "3130",
    "city": "Hornow"
  },
  {
    "postcode": "3130",
    "city": "Hornow-Wadelsdorf"
  },
  {
    "postcode": "3130",
    "city": "Jämlitz"
  },
  {
    "postcode": "3130",
    "city": "Jämlitz-Klein Düben"
  },
  {
    "postcode": "3130",
    "city": "Klein Düben"
  },
  {
    "postcode": "3130",
    "city": "Klein Loitz"
  },
  {
    "postcode": "3130",
    "city": "Lieskau bei Spremberg Niederlausitz"
  },
  {
    "postcode": "3130",
    "city": "Lieskau bei Spremberg"
  },
  {
    "postcode": "3130",
    "city": "Neuhausen / Spree"
  },
  {
    "postcode": "3130",
    "city": "Neuhausen"
  },
  {
    "postcode": "3130",
    "city": "Proschim"
  },
  {
    "postcode": "3130",
    "city": "Reuthen Niederlausitz"
  },
  {
    "postcode": "3130",
    "city": "Reuthen"
  },
  {
    "postcode": "3130",
    "city": "Schwarze Pumpe"
  },
  {
    "postcode": "3130",
    "city": "Sellessen"
  },
  {
    "postcode": "3130",
    "city": "Spremberg Niederlausitz"
  },
  {
    "postcode": "3130",
    "city": "Spremberg"
  },
  {
    "postcode": "3130",
    "city": "Terpe"
  },
  {
    "postcode": "3130",
    "city": "Tschernitz"
  },
  {
    "postcode": "3130",
    "city": "Türkendorf"
  },
  {
    "postcode": "3130",
    "city": "Wadelsdorf"
  },
  {
    "postcode": "3130",
    "city": "Wolfshain Niederlausitz"
  },
  {
    "postcode": "3130",
    "city": "Wolfshain"
  },
  {
    "postcode": "3130",
    "city": "Spree-Neiße"
  },
  {
    "postcode": "3130",
    "city": "Horlitza"
  },
  {
    "postcode": "3130",
    "city": "Bohsdorf Vorwerk"
  },
  {
    "postcode": "3130",
    "city": "Bloischdorf-Kolonie"
  },
  {
    "postcode": "3130",
    "city": "Zschorno"
  },
  {
    "postcode": "3130",
    "city": "Trattendorf"
  },
  {
    "postcode": "3130",
    "city": "Lieskau"
  },
  {
    "postcode": "3130",
    "city": "Schönheide"
  },
  {
    "postcode": "3130",
    "city": "Weskow"
  },
  {
    "postcode": "3130",
    "city": "Bühlow"
  },
  {
    "postcode": "3130",
    "city": "Muckrow"
  },
  {
    "postcode": "3130",
    "city": "Hornow Vorwerk"
  },
  {
    "postcode": "3130",
    "city": "Cantdorf"
  },
  {
    "postcode": "3139",
    "city": "Schwarze Pumpe"
  },
  {
    "postcode": "3139",
    "city": "Terpe"
  },
  {
    "postcode": "3149",
    "city": "Bohrau"
  },
  {
    "postcode": "3149",
    "city": "Briesnig"
  },
  {
    "postcode": "3149",
    "city": "Forst (Lausitz)"
  },
  {
    "postcode": "3149",
    "city": "Forst"
  },
  {
    "postcode": "3149",
    "city": "Gahry"
  },
  {
    "postcode": "3149",
    "city": "Gosda"
  },
  {
    "postcode": "3149",
    "city": "Groß Bademeusel"
  },
  {
    "postcode": "3149",
    "city": "Groß Jamno"
  },
  {
    "postcode": "3149",
    "city": "Groß Schacksdorf"
  },
  {
    "postcode": "3149",
    "city": "Groß Schacksdorf-Simmersdorf"
  },
  {
    "postcode": "3149",
    "city": "Jethe"
  },
  {
    "postcode": "3149",
    "city": "Jocksdorf"
  },
  {
    "postcode": "3149",
    "city": "Mattendorf"
  },
  {
    "postcode": "3149",
    "city": "Mulknitz"
  },
  {
    "postcode": "3149",
    "city": "Naundorf bei Forst Lausitz"
  },
  {
    "postcode": "3149",
    "city": "Naundorf bei Forst"
  },
  {
    "postcode": "3149",
    "city": "Simmersdorf"
  },
  {
    "postcode": "3149",
    "city": "Trebendorf"
  },
  {
    "postcode": "3149",
    "city": "Wiesengrund Lausitz"
  },
  {
    "postcode": "3149",
    "city": "Wiesengrund"
  },
  {
    "postcode": "3149",
    "city": "Spree-Neiße"
  },
  {
    "postcode": "3149",
    "city": "Forst-Stadt"
  },
  {
    "postcode": "3149",
    "city": "Klein Bademeusel"
  },
  {
    "postcode": "3149",
    "city": "Bademeusel"
  },
  {
    "postcode": "3149",
    "city": "Sacro"
  },
  {
    "postcode": "3149",
    "city": "Neu Sacro"
  },
  {
    "postcode": "3149",
    "city": "Klein Jamno"
  },
  {
    "postcode": "3149",
    "city": "Naundorf"
  },
  {
    "postcode": "3149",
    "city": "Klinge"
  },
  {
    "postcode": "3149",
    "city": "Dubrau"
  },
  {
    "postcode": "3149",
    "city": "Smarso"
  },
  {
    "postcode": "3159",
    "city": "Döbern Niederlausitz"
  },
  {
    "postcode": "3159",
    "city": "Döbern"
  },
  {
    "postcode": "3159",
    "city": "Groß Kölzig"
  },
  {
    "postcode": "3159",
    "city": "Jerischke"
  },
  {
    "postcode": "3159",
    "city": "Jocksdorf"
  },
  {
    "postcode": "3159",
    "city": "Klein Kölzig"
  },
  {
    "postcode": "3159",
    "city": "Mattendorf"
  },
  {
    "postcode": "3159",
    "city": "Neiße-Malxetal"
  },
  {
    "postcode": "3159",
    "city": "Preschen"
  },
  {
    "postcode": "3159",
    "city": "Wiesengrund Lausitz"
  },
  {
    "postcode": "3159",
    "city": "Wiesengrund"
  },
  {
    "postcode": "3159",
    "city": "Spree-Neiße"
  },
  {
    "postcode": "3159",
    "city": "Pusack"
  },
  {
    "postcode": "3159",
    "city": "Gosda"
  },
  {
    "postcode": "3159",
    "city": "Zelz"
  },
  {
    "postcode": "3172",
    "city": "Atterwasch"
  },
  {
    "postcode": "3172",
    "city": "Bärenklau Niederlausitz"
  },
  {
    "postcode": "3172",
    "city": "Bärenklau"
  },
  {
    "postcode": "3172",
    "city": "Bresinchen"
  },
  {
    "postcode": "3172",
    "city": "Deulowitz"
  },
  {
    "postcode": "3172",
    "city": "Gastrose-Kerkwitz"
  },
  {
    "postcode": "3172",
    "city": "Grabko"
  },
  {
    "postcode": "3172",
    "city": "Grano"
  },
  {
    "postcode": "3172",
    "city": "Grießen Niederlausitz"
  },
  {
    "postcode": "3172",
    "city": "Grießen"
  },
  {
    "postcode": "3172",
    "city": "Groß Drewitz"
  },
  {
    "postcode": "3172",
    "city": "Groß Gastrose"
  },
  {
    "postcode": "3172",
    "city": "Guben"
  },
  {
    "postcode": "3172",
    "city": "Horno"
  },
  {
    "postcode": "3172",
    "city": "Kerkwitz"
  },
  {
    "postcode": "3172",
    "city": "Krayne"
  },
  {
    "postcode": "3172",
    "city": "Lauschütz"
  },
  {
    "postcode": "3172",
    "city": "Lübbinchen"
  },
  {
    "postcode": "3172",
    "city": "Lutzketal"
  },
  {
    "postcode": "3172",
    "city": "Pinnow Niederlausitz"
  },
  {
    "postcode": "3172",
    "city": "Pinnow"
  },
  {
    "postcode": "3172",
    "city": "Pinnow-Heideland"
  },
  {
    "postcode": "3172",
    "city": "Reicherskreuz"
  },
  {
    "postcode": "3172",
    "city": "Schenkendöbern"
  },
  {
    "postcode": "3172",
    "city": "Schlagsdorf Niederlausitz"
  },
  {
    "postcode": "3172",
    "city": "Schlagsdorf"
  },
  {
    "postcode": "3172",
    "city": "Sembten"
  },
  {
    "postcode": "3172",
    "city": "Staakow bei Beeskow"
  },
  {
    "postcode": "3172",
    "city": "Spree-Neiße"
  },
  {
    "postcode": "3172",
    "city": "Groß Breesen"
  },
  {
    "postcode": "3172",
    "city": "Wilschwitz"
  },
  {
    "postcode": "3172",
    "city": "Taubendorf"
  },
  {
    "postcode": "3172",
    "city": "Klein Gastrose"
  },
  {
    "postcode": "3172",
    "city": "Staakow"
  },
  {
    "postcode": "3185",
    "city": "Bärenbrück"
  },
  {
    "postcode": "3185",
    "city": "Drachhausen"
  },
  {
    "postcode": "3185",
    "city": "Drehnow"
  },
  {
    "postcode": "3185",
    "city": "Grötsch"
  },
  {
    "postcode": "3185",
    "city": "Heinersbrück"
  },
  {
    "postcode": "3185",
    "city": "Maust"
  },
  {
    "postcode": "3185",
    "city": "Neuendorf Niederlausitz"
  },
  {
    "postcode": "3185",
    "city": "Neuendorf"
  },
  {
    "postcode": "3185",
    "city": "Peitz"
  },
  {
    "postcode": "3185",
    "city": "Preilack"
  },
  {
    "postcode": "3185",
    "city": "Schönhöhe"
  },
  {
    "postcode": "3185",
    "city": "Tauer"
  },
  {
    "postcode": "3185",
    "city": "Teichland"
  },
  {
    "postcode": "3185",
    "city": "Turnow"
  },
  {
    "postcode": "3185",
    "city": "Turnow-Preilack"
  },
  {
    "postcode": "3185",
    "city": "Spree-Neiße"
  },
  {
    "postcode": "3185",
    "city": "Radewiese"
  },
  {
    "postcode": "3185",
    "city": "Cottbuser Vorstadt"
  },
  {
    "postcode": "3185",
    "city": "Drehnower Vorstadt"
  },
  {
    "postcode": "3185",
    "city": "Ottendorf"
  },
  {
    "postcode": "3185",
    "city": "Stadtmitte"
  },
  {
    "postcode": "3185",
    "city": "Gubener-Vorstadt"
  },
  {
    "postcode": "3185",
    "city": "Malxebogen"
  },
  {
    "postcode": "3197",
    "city": "Drewitz Niederlausitz"
  },
  {
    "postcode": "3197",
    "city": "Drewitz"
  },
  {
    "postcode": "3197",
    "city": "Jänschwalde"
  },
  {
    "postcode": "3197",
    "city": "Spree-Neiße"
  },
  {
    "postcode": "3197",
    "city": "Jänschwalde Ost"
  },
  {
    "postcode": "31008",
    "city": "Elze"
  },
  {
    "postcode": "31008",
    "city": "Elze Leine"
  },
  {
    "postcode": "31008",
    "city": "Esbeck bei Elze Leine"
  },
  {
    "postcode": "31008",
    "city": "Esbeck bei Elze"
  },
  {
    "postcode": "31008",
    "city": "Mehle"
  },
  {
    "postcode": "31008",
    "city": "Sehlde Leine"
  },
  {
    "postcode": "31008",
    "city": "Sehlde"
  },
  {
    "postcode": "31008",
    "city": "Sorsum bei Elze Leine"
  },
  {
    "postcode": "31008",
    "city": "Sorsum bei Elze"
  },
  {
    "postcode": "31008",
    "city": "Wittenburg Niedersachsen"
  },
  {
    "postcode": "31008",
    "city": "Wittenburg"
  },
  {
    "postcode": "31008",
    "city": "Wülfingen"
  },
  {
    "postcode": "31008",
    "city": "Hildesheim"
  },
  {
    "postcode": "31008",
    "city": "Esbeck"
  },
  {
    "postcode": "31008",
    "city": "Sorsum"
  },
  {
    "postcode": "31020",
    "city": "Ahrenfeld"
  },
  {
    "postcode": "31020",
    "city": "Benstorf Niedersachsen"
  },
  {
    "postcode": "31020",
    "city": "Benstorf"
  },
  {
    "postcode": "31020",
    "city": "Hemmendorf Niedersachsen"
  },
  {
    "postcode": "31020",
    "city": "Hemmendorf"
  },
  {
    "postcode": "31020",
    "city": "Lauenstein Niedersachsen"
  },
  {
    "postcode": "31020",
    "city": "Lauenstein"
  },
  {
    "postcode": "31020",
    "city": "Levedagsen"
  },
  {
    "postcode": "31020",
    "city": "Ockensen"
  },
  {
    "postcode": "31020",
    "city": "Oldendorf bei Elze Leine"
  },
  {
    "postcode": "31020",
    "city": "Oldendorf bei Elze"
  },
  {
    "postcode": "31020",
    "city": "Osterwald bei Elze Leine"
  },
  {
    "postcode": "31020",
    "city": "Osterwald bei Elze"
  },
  {
    "postcode": "31020",
    "city": "Salzhemmendorf"
  },
  {
    "postcode": "31020",
    "city": "Thüste"
  },
  {
    "postcode": "31020",
    "city": "Wallensen"
  },
  {
    "postcode": "31020",
    "city": "Hameln-Pyrmont"
  },
  {
    "postcode": "31020",
    "city": "Osterwald"
  },
  {
    "postcode": "31020",
    "city": "Oldendorf"
  },
  {
    "postcode": "31020",
    "city": "Stadt Elze"
  },
  {
    "postcode": "31028",
    "city": "Gronau (Leine)"
  },
  {
    "postcode": "31028",
    "city": "Gronau"
  },
  {
    "postcode": "31028",
    "city": "Hildesheim"
  },
  {
    "postcode": "31028",
    "city": "Betheln"
  },
  {
    "postcode": "31028",
    "city": "Rheden"
  },
  {
    "postcode": "31028",
    "city": "Banteln"
  },
  {
    "postcode": "31028",
    "city": "Wallenstedt"
  },
  {
    "postcode": "31028",
    "city": "Brüggen"
  },
  {
    "postcode": "31028",
    "city": "Barfelde"
  },
  {
    "postcode": "31028",
    "city": "Eitzum"
  },
  {
    "postcode": "31028",
    "city": "Haus Escherde"
  },
  {
    "postcode": "31028",
    "city": "Dötzum"
  },
  {
    "postcode": "31028",
    "city": "Eddinghausen"
  },
  {
    "postcode": "31028",
    "city": "Heinum"
  },
  {
    "postcode": "31028",
    "city": "Nienstedt"
  },
  {
    "postcode": "31029",
    "city": "Banteln"
  },
  {
    "postcode": "31029",
    "city": "Hildesheim"
  },
  {
    "postcode": "31032",
    "city": "Betheln"
  },
  {
    "postcode": "31032",
    "city": "Eddinghausen"
  },
  {
    "postcode": "31032",
    "city": "Haus Escherde"
  },
  {
    "postcode": "31032",
    "city": "Hildesheim"
  },
  {
    "postcode": "31033",
    "city": "Brüggen Leine"
  },
  {
    "postcode": "31033",
    "city": "Brüggen"
  },
  {
    "postcode": "31033",
    "city": "Hildesheim"
  },
  {
    "postcode": "31035",
    "city": "Barfelde"
  },
  {
    "postcode": "31035",
    "city": "Despetal"
  },
  {
    "postcode": "31035",
    "city": "Eitzum bei Elze Leine"
  },
  {
    "postcode": "31035",
    "city": "Eitzum bei Elze"
  },
  {
    "postcode": "31035",
    "city": "Nienstedt"
  },
  {
    "postcode": "31035",
    "city": "Hildesheim"
  },
  {
    "postcode": "31036",
    "city": "Deilmissen"
  },
  {
    "postcode": "31036",
    "city": "Deinsen"
  },
  {
    "postcode": "31036",
    "city": "Dunsen"
  },
  {
    "postcode": "31036",
    "city": "Eime"
  },
  {
    "postcode": "31036",
    "city": "Heinsen bei Elze Leine"
  },
  {
    "postcode": "31036",
    "city": "Heinsen bei Elze"
  },
  {
    "postcode": "31036",
    "city": "Hildesheim"
  },
  {
    "postcode": "31036",
    "city": "Heinsen"
  },
  {
    "postcode": "31039",
    "city": "Heinum"
  },
  {
    "postcode": "31039",
    "city": "Rheden"
  },
  {
    "postcode": "31039",
    "city": "Wallenstedt"
  },
  {
    "postcode": "31039",
    "city": "Hildesheim"
  },
  {
    "postcode": "31061",
    "city": "Alfeld"
  },
  {
    "postcode": "31061",
    "city": "Alfeld (Leine)"
  },
  {
    "postcode": "31061",
    "city": "Brunkensen"
  },
  {
    "postcode": "31061",
    "city": "Dehnsen Kreis Alfeld Leine"
  },
  {
    "postcode": "31061",
    "city": "Dehnsen"
  },
  {
    "postcode": "31061",
    "city": "Eimsen"
  },
  {
    "postcode": "31061",
    "city": "Föhrste Kreis Alfeld Leine"
  },
  {
    "postcode": "31061",
    "city": "Föhrste"
  },
  {
    "postcode": "31061",
    "city": "Gerzen Kreis Alfeld Leine"
  },
  {
    "postcode": "31061",
    "city": "Gerzen"
  },
  {
    "postcode": "31061",
    "city": "Hörsum"
  },
  {
    "postcode": "31061",
    "city": "Imsen"
  },
  {
    "postcode": "31061",
    "city": "Langenholzen"
  },
  {
    "postcode": "31061",
    "city": "Limmer"
  },
  {
    "postcode": "31061",
    "city": "Lütgenholzen"
  },
  {
    "postcode": "31061",
    "city": "Röllinghausen Kreis Alfeld Leine"
  },
  {
    "postcode": "31061",
    "city": "Röllinghausen"
  },
  {
    "postcode": "31061",
    "city": "Sack Kreis Alfeld Leine"
  },
  {
    "postcode": "31061",
    "city": "Sack"
  },
  {
    "postcode": "31061",
    "city": "Warzen"
  },
  {
    "postcode": "31061",
    "city": "Wettensen"
  },
  {
    "postcode": "31061",
    "city": "Wispenstein"
  },
  {
    "postcode": "31061",
    "city": "Hildesheim"
  },
  {
    "postcode": "31061",
    "city": "Godenau"
  },
  {
    "postcode": "31061",
    "city": "Gem Freden"
  },
  {
    "postcode": "31073",
    "city": "Ammensen"
  },
  {
    "postcode": "31073",
    "city": "Delligsen"
  },
  {
    "postcode": "31073",
    "city": "Hohenbüchen Niedersachsen"
  },
  {
    "postcode": "31073",
    "city": "Hohenbüchen"
  },
  {
    "postcode": "31073",
    "city": "Kaierde"
  },
  {
    "postcode": "31073",
    "city": "Varrigsen"
  },
  {
    "postcode": "31073",
    "city": "Holzminden"
  },
  {
    "postcode": "31073",
    "city": "Grünenplan"
  },
  {
    "postcode": "31079",
    "city": "Adenstedt"
  },
  {
    "postcode": "31079",
    "city": "Adenstedt bei Alfeld Leine"
  },
  {
    "postcode": "31079",
    "city": "Adenstedt bei Alfeld"
  },
  {
    "postcode": "31079",
    "city": "Almstedt"
  },
  {
    "postcode": "31079",
    "city": "Eberholzen"
  },
  {
    "postcode": "31079",
    "city": "Grafelde"
  },
  {
    "postcode": "31079",
    "city": "Hönze"
  },
  {
    "postcode": "31079",
    "city": "Möllensen"
  },
  {
    "postcode": "31079",
    "city": "Petze"
  },
  {
    "postcode": "31079",
    "city": "Segeste"
  },
  {
    "postcode": "31079",
    "city": "Sellenstedt"
  },
  {
    "postcode": "31079",
    "city": "Sibbesse"
  },
  {
    "postcode": "31079",
    "city": "Westfeld"
  },
  {
    "postcode": "31079",
    "city": "Westfeld bei Alfeld Leine"
  },
  {
    "postcode": "31079",
    "city": "Westfeld bei Alfeld"
  },
  {
    "postcode": "31079",
    "city": "Wrisbergholzen"
  },
  {
    "postcode": "31079",
    "city": "Hildesheim"
  },
  {
    "postcode": "31084",
    "city": "Freden"
  },
  {
    "postcode": "31084",
    "city": "Freden (Leine)"
  },
  {
    "postcode": "31084",
    "city": "Meimerhausen"
  },
  {
    "postcode": "31084",
    "city": "Hildesheim"
  },
  {
    "postcode": "31084",
    "city": "Eyershausen"
  },
  {
    "postcode": "31084",
    "city": "Wetteborn"
  },
  {
    "postcode": "31084",
    "city": "Ohlenrode"
  },
  {
    "postcode": "31084",
    "city": "Everode"
  },
  {
    "postcode": "31084",
    "city": "Winzenburg"
  },
  {
    "postcode": "31084",
    "city": "Klump"
  },
  {
    "postcode": "31084",
    "city": "Groß Freden"
  },
  {
    "postcode": "31084",
    "city": "Westerberg"
  },
  {
    "postcode": "31084",
    "city": "Schildhorst"
  },
  {
    "postcode": "31084",
    "city": "Eisumer Mühle"
  },
  {
    "postcode": "31085",
    "city": "Everode"
  },
  {
    "postcode": "31087",
    "city": "Eyershausen Niedersachsen"
  },
  {
    "postcode": "31087",
    "city": "Eyershausen"
  },
  {
    "postcode": "31087",
    "city": "Landwehr bei Alfeld Leine"
  },
  {
    "postcode": "31087",
    "city": "Landwehr bei Alfeld"
  },
  {
    "postcode": "31087",
    "city": "Ohlenrode"
  },
  {
    "postcode": "31087",
    "city": "Wetteborn"
  },
  {
    "postcode": "31088",
    "city": "Klump"
  },
  {
    "postcode": "31088",
    "city": "Schildhorst"
  },
  {
    "postcode": "31088",
    "city": "Westerberg"
  },
  {
    "postcode": "31088",
    "city": "Winzenburg"
  },
  {
    "postcode": "31089",
    "city": "Capellenhagen"
  },
  {
    "postcode": "31089",
    "city": "Duingen"
  },
  {
    "postcode": "31089",
    "city": "Fölziehausen"
  },
  {
    "postcode": "31089",
    "city": "Hildesheim"
  },
  {
    "postcode": "31089",
    "city": "Coppengrave"
  },
  {
    "postcode": "31089",
    "city": "Rott"
  },
  {
    "postcode": "31089",
    "city": "Marienhagen"
  },
  {
    "postcode": "31089",
    "city": "Hoyershausen"
  },
  {
    "postcode": "31089",
    "city": "Lübbrechtsen"
  },
  {
    "postcode": "31089",
    "city": "Weenzen"
  },
  {
    "postcode": "31091",
    "city": "Coppengrave"
  },
  {
    "postcode": "31091",
    "city": "Hildesheim"
  },
  {
    "postcode": "31093",
    "city": "Hoyershausen"
  },
  {
    "postcode": "31093",
    "city": "Lübbrechtsen"
  },
  {
    "postcode": "31093",
    "city": "Rott Kreis Alfeld Leine"
  },
  {
    "postcode": "31093",
    "city": "Rott"
  },
  {
    "postcode": "31093",
    "city": "Hildesheim"
  },
  {
    "postcode": "31094",
    "city": "Marienhagen bei Alfeld Leine"
  },
  {
    "postcode": "31094",
    "city": "Marienhagen bei Alfeld"
  },
  {
    "postcode": "31094",
    "city": "Hildesheim"
  },
  {
    "postcode": "31096",
    "city": "Weenzen"
  },
  {
    "postcode": "31096",
    "city": "Hildesheim"
  },
  {
    "postcode": "31097",
    "city": "Harbarnsen"
  },
  {
    "postcode": "31097",
    "city": "Irmenseul"
  },
  {
    "postcode": "31097",
    "city": "Hildesheim"
  },
  {
    "postcode": "31099",
    "city": "Graste"
  },
  {
    "postcode": "31099",
    "city": "Hornsen"
  },
  {
    "postcode": "31099",
    "city": "Netze Kreis Alfeld Leine"
  },
  {
    "postcode": "31099",
    "city": "Netze"
  },
  {
    "postcode": "31099",
    "city": "Woltershausen"
  },
  {
    "postcode": "31099",
    "city": "Hildesheim"
  },
  {
    "postcode": "31134",
    "city": "Hildesheim"
  },
  {
    "postcode": "31134",
    "city": "Mitte"
  },
  {
    "postcode": "31134",
    "city": "Ost"
  },
  {
    "postcode": "31134",
    "city": "Neustadt"
  },
  {
    "postcode": "31134",
    "city": "Süd"
  },
  {
    "postcode": "31134",
    "city": "West"
  },
  {
    "postcode": "31135",
    "city": "Achtum"
  },
  {
    "postcode": "31135",
    "city": "Bavenstedt"
  },
  {
    "postcode": "31135",
    "city": "Drispenstedt"
  },
  {
    "postcode": "31135",
    "city": "Einum Kreis Hildesheim"
  },
  {
    "postcode": "31135",
    "city": "Einum"
  },
  {
    "postcode": "31135",
    "city": "Hildesheim"
  },
  {
    "postcode": "31135",
    "city": "Uppen"
  },
  {
    "postcode": "31135",
    "city": "Ost"
  },
  {
    "postcode": "31135",
    "city": "Galgenberg"
  },
  {
    "postcode": "31137",
    "city": "Hildesheim"
  },
  {
    "postcode": "31137",
    "city": "Himmelsthür"
  },
  {
    "postcode": "31137",
    "city": "Moritzberg"
  },
  {
    "postcode": "31137",
    "city": "Steuerwald"
  },
  {
    "postcode": "31137",
    "city": "Nord"
  },
  {
    "postcode": "31137",
    "city": "West"
  },
  {
    "postcode": "31137",
    "city": "Ost"
  },
  {
    "postcode": "31137",
    "city": "Mitte"
  },
  {
    "postcode": "31139",
    "city": "Hildesheim"
  },
  {
    "postcode": "31139",
    "city": "Marienrode"
  },
  {
    "postcode": "31139",
    "city": "Moritzberg"
  },
  {
    "postcode": "31139",
    "city": "Neuhof"
  },
  {
    "postcode": "31139",
    "city": "Ochtersum über Hildesheim"
  },
  {
    "postcode": "31139",
    "city": "Sorsum Kreis Hildesheim"
  },
  {
    "postcode": "31139",
    "city": "Sorsum"
  },
  {
    "postcode": "31139",
    "city": "Ochtersum"
  },
  {
    "postcode": "31139",
    "city": "West"
  },
  {
    "postcode": "31139",
    "city": "Süd"
  },
  {
    "postcode": "31139",
    "city": "Hildesheimer Wald"
  },
  {
    "postcode": "31139",
    "city": "Mitte"
  },
  {
    "postcode": "31139",
    "city": "Neuhof-Hildesheim"
  },
  {
    "postcode": "31139",
    "city": "Gem Diekholzen"
  },
  {
    "postcode": "31141",
    "city": "Hildesheim"
  },
  {
    "postcode": "31141",
    "city": "Itzum"
  },
  {
    "postcode": "31141",
    "city": "Marienburg"
  },
  {
    "postcode": "31141",
    "city": "Marienburger Höhe"
  },
  {
    "postcode": "31141",
    "city": "Ost"
  },
  {
    "postcode": "31141",
    "city": "Süd"
  },
  {
    "postcode": "31141",
    "city": "Galgenberg"
  },
  {
    "postcode": "31157",
    "city": "Giften"
  },
  {
    "postcode": "31157",
    "city": "Gödringen"
  },
  {
    "postcode": "31157",
    "city": "Heisede"
  },
  {
    "postcode": "31157",
    "city": "Hotteln"
  },
  {
    "postcode": "31157",
    "city": "Ruthe"
  },
  {
    "postcode": "31157",
    "city": "Sarstedt"
  },
  {
    "postcode": "31157",
    "city": "Schliekum"
  },
  {
    "postcode": "31157",
    "city": "Hildesheim"
  },
  {
    "postcode": "31162",
    "city": "Bad Salzdetfurth"
  },
  {
    "postcode": "31162",
    "city": "Bodenburg"
  },
  {
    "postcode": "31162",
    "city": "Breinum"
  },
  {
    "postcode": "31162",
    "city": "Detfurth"
  },
  {
    "postcode": "31162",
    "city": "Groß Düngen"
  },
  {
    "postcode": "31162",
    "city": "Heinde"
  },
  {
    "postcode": "31162",
    "city": "Hockeln"
  },
  {
    "postcode": "31162",
    "city": "Klein Düngen"
  },
  {
    "postcode": "31162",
    "city": "Lechstedt"
  },
  {
    "postcode": "31162",
    "city": "Listringen"
  },
  {
    "postcode": "31162",
    "city": "Östrum"
  },
  {
    "postcode": "31162",
    "city": "Wehrstedt Niedersachsen"
  },
  {
    "postcode": "31162",
    "city": "Wehrstedt"
  },
  {
    "postcode": "31162",
    "city": "Wesseln Kreis Hildesheim"
  },
  {
    "postcode": "31162",
    "city": "Wesseln"
  },
  {
    "postcode": "31162",
    "city": "Hildesheim"
  },
  {
    "postcode": "31167",
    "city": "Bockenem"
  },
  {
    "postcode": "31167",
    "city": "Bönnien"
  },
  {
    "postcode": "31167",
    "city": "Bornum am Harz"
  },
  {
    "postcode": "31167",
    "city": "Bültum"
  },
  {
    "postcode": "31167",
    "city": "Groß Ilde"
  },
  {
    "postcode": "31167",
    "city": "Hary Kreis Hildesheim"
  },
  {
    "postcode": "31167",
    "city": "Hary"
  },
  {
    "postcode": "31167",
    "city": "Jerze"
  },
  {
    "postcode": "31167",
    "city": "Klein Ilde"
  },
  {
    "postcode": "31167",
    "city": "Königsdahlum"
  },
  {
    "postcode": "31167",
    "city": "Mahlum"
  },
  {
    "postcode": "31167",
    "city": "Nette Kreis Hildesheim"
  },
  {
    "postcode": "31167",
    "city": "Nette"
  },
  {
    "postcode": "31167",
    "city": "Ortshausen"
  },
  {
    "postcode": "31167",
    "city": "Schlewecke bei Hildesheim"
  },
  {
    "postcode": "31167",
    "city": "Störy"
  },
  {
    "postcode": "31167",
    "city": "Upstedt"
  },
  {
    "postcode": "31167",
    "city": "Volkersheim Niedersachsen"
  },
  {
    "postcode": "31167",
    "city": "Volkersheim"
  },
  {
    "postcode": "31167",
    "city": "Werder Kreis Hildesheim"
  },
  {
    "postcode": "31167",
    "city": "Werder"
  },
  {
    "postcode": "31167",
    "city": "Wohlenhausen"
  },
  {
    "postcode": "31167",
    "city": "Hildesheim"
  },
  {
    "postcode": "31167",
    "city": "Schlewecke"
  },
  {
    "postcode": "31171",
    "city": "Adensen"
  },
  {
    "postcode": "31171",
    "city": "Barnten"
  },
  {
    "postcode": "31171",
    "city": "Burgstemmen"
  },
  {
    "postcode": "31171",
    "city": "Groß Escherde"
  },
  {
    "postcode": "31171",
    "city": "Hallerburg"
  },
  {
    "postcode": "31171",
    "city": "Heyersum"
  },
  {
    "postcode": "31171",
    "city": "Klein Escherde"
  },
  {
    "postcode": "31171",
    "city": "Mahlerten"
  },
  {
    "postcode": "31171",
    "city": "Nordstemmen"
  },
  {
    "postcode": "31171",
    "city": "Rössing"
  },
  {
    "postcode": "31171",
    "city": "Hildesheim"
  },
  {
    "postcode": "31174",
    "city": "Ahstedt"
  },
  {
    "postcode": "31174",
    "city": "Bettmar Kreis Hildesheim"
  },
  {
    "postcode": "31174",
    "city": "Bettmar"
  },
  {
    "postcode": "31174",
    "city": "Dingelbe"
  },
  {
    "postcode": "31174",
    "city": "Dinklar Kreis Hildesheim"
  },
  {
    "postcode": "31174",
    "city": "Dinklar"
  },
  {
    "postcode": "31174",
    "city": "Farmsen"
  },
  {
    "postcode": "31174",
    "city": "Garmissen-Garbolzum"
  },
  {
    "postcode": "31174",
    "city": "Kemme"
  },
  {
    "postcode": "31174",
    "city": "Oedelum"
  },
  {
    "postcode": "31174",
    "city": "Ottbergen Kreis Hildesheim"
  },
  {
    "postcode": "31174",
    "city": "Ottbergen"
  },
  {
    "postcode": "31174",
    "city": "Schellerten"
  },
  {
    "postcode": "31174",
    "city": "Wendhausen Kreis Hildesheim"
  },
  {
    "postcode": "31174",
    "city": "Wendhausen"
  },
  {
    "postcode": "31174",
    "city": "Wöhle"
  },
  {
    "postcode": "31174",
    "city": "Hildesheim"
  },
  {
    "postcode": "31177",
    "city": "Adlum"
  },
  {
    "postcode": "31177",
    "city": "Asel"
  },
  {
    "postcode": "31177",
    "city": "Borsum Kreis Hildesheim"
  },
  {
    "postcode": "31177",
    "city": "Borsum"
  },
  {
    "postcode": "31177",
    "city": "Harsum"
  },
  {
    "postcode": "31177",
    "city": "Hönnersum"
  },
  {
    "postcode": "31177",
    "city": "Hüddessum"
  },
  {
    "postcode": "31177",
    "city": "Klein Förste"
  },
  {
    "postcode": "31177",
    "city": "Machtsum"
  },
  {
    "postcode": "31177",
    "city": "Rautenberg"
  },
  {
    "postcode": "31177",
    "city": "Hildesheim"
  },
  {
    "postcode": "31180",
    "city": "Ahrbergen"
  },
  {
    "postcode": "31180",
    "city": "Emmerke"
  },
  {
    "postcode": "31180",
    "city": "Giesen"
  },
  {
    "postcode": "31180",
    "city": "Giesen bei Hildesheim"
  },
  {
    "postcode": "31180",
    "city": "Groß Förste"
  },
  {
    "postcode": "31180",
    "city": "Hasede"
  },
  {
    "postcode": "31180",
    "city": "Hildesheim"
  },
  {
    "postcode": "31185",
    "city": "Bettrum"
  },
  {
    "postcode": "31185",
    "city": "Feldbergen"
  },
  {
    "postcode": "31185",
    "city": "Groß Himstedt"
  },
  {
    "postcode": "31185",
    "city": "Hoheneggelsen"
  },
  {
    "postcode": "31185",
    "city": "Klein Himstedt"
  },
  {
    "postcode": "31185",
    "city": "Mölme"
  },
  {
    "postcode": "31185",
    "city": "Nettlingen"
  },
  {
    "postcode": "31185",
    "city": "Söhlde"
  },
  {
    "postcode": "31185",
    "city": "Steinbrück"
  },
  {
    "postcode": "31185",
    "city": "Hildesheim"
  },
  {
    "postcode": "31188",
    "city": "Astenbeck"
  },
  {
    "postcode": "31188",
    "city": "Derneburg Bahnhof"
  },
  {
    "postcode": "31188",
    "city": "Derneburg"
  },
  {
    "postcode": "31188",
    "city": "Grasdorf Kreis Hildesheim"
  },
  {
    "postcode": "31188",
    "city": "Grasdorf"
  },
  {
    "postcode": "31188",
    "city": "Hackenstedt"
  },
  {
    "postcode": "31188",
    "city": "Heersum"
  },
  {
    "postcode": "31188",
    "city": "Henneckenrode Kreis Hildesheim"
  },
  {
    "postcode": "31188",
    "city": "Henneckenrode"
  },
  {
    "postcode": "31188",
    "city": "Holle"
  },
  {
    "postcode": "31188",
    "city": "Holle bei Hildesheim"
  },
  {
    "postcode": "31188",
    "city": "Luttrum"
  },
  {
    "postcode": "31188",
    "city": "Sillium"
  },
  {
    "postcode": "31188",
    "city": "Söder"
  },
  {
    "postcode": "31188",
    "city": "Sottrum Kreis Hildesheim"
  },
  {
    "postcode": "31188",
    "city": "Sottrum"
  },
  {
    "postcode": "31188",
    "city": "Hildesheim"
  },
  {
    "postcode": "31188",
    "city": "Gem. Söhlde"
  },
  {
    "postcode": "31191",
    "city": "Algermissen"
  },
  {
    "postcode": "31191",
    "city": "Bledeln"
  },
  {
    "postcode": "31191",
    "city": "Groß Lobke"
  },
  {
    "postcode": "31191",
    "city": "Lühnde"
  },
  {
    "postcode": "31191",
    "city": "Ummeln Niedersachsen"
  },
  {
    "postcode": "31191",
    "city": "Ummeln"
  },
  {
    "postcode": "31191",
    "city": "Wätzum Niedersachsen"
  },
  {
    "postcode": "31191",
    "city": "Wätzum"
  },
  {
    "postcode": "31191",
    "city": "Hildesheim"
  },
  {
    "postcode": "31195",
    "city": "Ammenhausen bei Lamspringe"
  },
  {
    "postcode": "31195",
    "city": "Lamspringe"
  },
  {
    "postcode": "31195",
    "city": "Neuhof bei Hildesheim"
  },
  {
    "postcode": "31195",
    "city": "Wöllersheim"
  },
  {
    "postcode": "31195",
    "city": "Hildesheim"
  },
  {
    "postcode": "31195",
    "city": "Irmenseul"
  },
  {
    "postcode": "31195",
    "city": "Sehlem"
  },
  {
    "postcode": "31195",
    "city": "Netze"
  },
  {
    "postcode": "31195",
    "city": "Harbarnsen"
  },
  {
    "postcode": "31195",
    "city": "Neuhof"
  },
  {
    "postcode": "31195",
    "city": "Woltershausen"
  },
  {
    "postcode": "31195",
    "city": "Graste"
  },
  {
    "postcode": "31195",
    "city": "Ammenhausen"
  },
  {
    "postcode": "31195",
    "city": "Hornsen"
  },
  {
    "postcode": "31195",
    "city": "Evensen"
  },
  {
    "postcode": "31196",
    "city": "Evensen"
  },
  {
    "postcode": "31196",
    "city": "Sehlem"
  },
  {
    "postcode": "31196",
    "city": "Sehlem Niedersachsen"
  },
  {
    "postcode": "31196",
    "city": "Hildesheim"
  },
  {
    "postcode": "31199",
    "city": "Barienrode"
  },
  {
    "postcode": "31199",
    "city": "Diekholzen"
  },
  {
    "postcode": "31199",
    "city": "Egenstedt"
  },
  {
    "postcode": "31199",
    "city": "Söhre"
  },
  {
    "postcode": "31199",
    "city": "Hildesheim"
  },
  {
    "postcode": "31224",
    "city": "Duttenstedt"
  },
  {
    "postcode": "31224",
    "city": "Essinghausen bei Peine"
  },
  {
    "postcode": "31224",
    "city": "Peine"
  },
  {
    "postcode": "31224",
    "city": "Woltorf Kreis Peine"
  },
  {
    "postcode": "31224",
    "city": "Woltorf"
  },
  {
    "postcode": "31224",
    "city": "Kernstadt Nord"
  },
  {
    "postcode": "31224",
    "city": "Essinghausen"
  },
  {
    "postcode": "31226",
    "city": "Berkum Kreis Peine"
  },
  {
    "postcode": "31226",
    "city": "Berkum"
  },
  {
    "postcode": "31226",
    "city": "Dungelbeck"
  },
  {
    "postcode": "31226",
    "city": "Handorf Kreis Peine"
  },
  {
    "postcode": "31226",
    "city": "Handorf"
  },
  {
    "postcode": "31226",
    "city": "Peine"
  },
  {
    "postcode": "31226",
    "city": "Rosenthal Kreis Peine"
  },
  {
    "postcode": "31226",
    "city": "Rosenthal"
  },
  {
    "postcode": "31226",
    "city": "Schmedenstedt"
  },
  {
    "postcode": "31226",
    "city": "Schwicheldt"
  },
  {
    "postcode": "31226",
    "city": "Kernstadt Süd"
  },
  {
    "postcode": "31228",
    "city": "Eixe"
  },
  {
    "postcode": "31228",
    "city": "Landwehr"
  },
  {
    "postcode": "31228",
    "city": "Peine"
  },
  {
    "postcode": "31228",
    "city": "Röhrse"
  },
  {
    "postcode": "31228",
    "city": "Stederdorf Kreis Peine"
  },
  {
    "postcode": "31228",
    "city": "Stederdorf"
  },
  {
    "postcode": "31228",
    "city": "Telgte"
  },
  {
    "postcode": "31228",
    "city": "Vöhrum"
  },
  {
    "postcode": "31228",
    "city": "Wendesse Kreis Peine"
  },
  {
    "postcode": "31228",
    "city": "Wendesse"
  },
  {
    "postcode": "31234",
    "city": "Abbensen Kreis Peine"
  },
  {
    "postcode": "31234",
    "city": "Abbensen"
  },
  {
    "postcode": "31234",
    "city": "Alvesse Kreis Peine"
  },
  {
    "postcode": "31234",
    "city": "Alvesse"
  },
  {
    "postcode": "31234",
    "city": "Blumenhagen Kreis Peine"
  },
  {
    "postcode": "31234",
    "city": "Blumenhagen"
  },
  {
    "postcode": "31234",
    "city": "Eddesse"
  },
  {
    "postcode": "31234",
    "city": "Edemissen"
  },
  {
    "postcode": "31234",
    "city": "Edemissen bei Peine"
  },
  {
    "postcode": "31234",
    "city": "Eickenrode"
  },
  {
    "postcode": "31234",
    "city": "Mödesse"
  },
  {
    "postcode": "31234",
    "city": "Oedesse"
  },
  {
    "postcode": "31234",
    "city": "Oelerse"
  },
  {
    "postcode": "31234",
    "city": "Oelheim über Peine"
  },
  {
    "postcode": "31234",
    "city": "Plockhorst"
  },
  {
    "postcode": "31234",
    "city": "Rietze"
  },
  {
    "postcode": "31234",
    "city": "Voigtholz-Ahlemissen Kreis Peine"
  },
  {
    "postcode": "31234",
    "city": "Voigtholz-Ahlemissen"
  },
  {
    "postcode": "31234",
    "city": "Wehnsen Kreis Peine"
  },
  {
    "postcode": "31234",
    "city": "Wehnsen"
  },
  {
    "postcode": "31234",
    "city": "Wipshausen"
  },
  {
    "postcode": "31234",
    "city": "Peine"
  },
  {
    "postcode": "31234",
    "city": "Oelheim"
  },
  {
    "postcode": "31241",
    "city": "Bülten"
  },
  {
    "postcode": "31241",
    "city": "Groß Bülten"
  },
  {
    "postcode": "31241",
    "city": "Groß Ilsede"
  },
  {
    "postcode": "31241",
    "city": "Ilsede"
  },
  {
    "postcode": "31241",
    "city": "Klein Ilsede"
  },
  {
    "postcode": "31241",
    "city": "Ölsburg"
  },
  {
    "postcode": "31241",
    "city": "Solschen"
  },
  {
    "postcode": "31241",
    "city": "Peine"
  },
  {
    "postcode": "31246",
    "city": "Adenstedt Kreis Peine"
  },
  {
    "postcode": "31246",
    "city": "Adenstedt"
  },
  {
    "postcode": "31246",
    "city": "Gadenstedt"
  },
  {
    "postcode": "31246",
    "city": "Groß Lafferde"
  },
  {
    "postcode": "31246",
    "city": "Lahstedt"
  },
  {
    "postcode": "31246",
    "city": "Münstedt Kreis Peine"
  },
  {
    "postcode": "31246",
    "city": "Münstedt"
  },
  {
    "postcode": "31246",
    "city": "Oberg"
  },
  {
    "postcode": "31246",
    "city": "Peine"
  },
  {
    "postcode": "31246",
    "city": "Ilsede"
  },
  {
    "postcode": "31249",
    "city": "Bierbergen"
  },
  {
    "postcode": "31249",
    "city": "Bründeln"
  },
  {
    "postcode": "31249",
    "city": "Clauen"
  },
  {
    "postcode": "31249",
    "city": "Equord"
  },
  {
    "postcode": "31249",
    "city": "Harber bei Lehrte"
  },
  {
    "postcode": "31249",
    "city": "Hohenhameln"
  },
  {
    "postcode": "31249",
    "city": "Mehrum Niedersachsen"
  },
  {
    "postcode": "31249",
    "city": "Mehrum"
  },
  {
    "postcode": "31249",
    "city": "Ohlum"
  },
  {
    "postcode": "31249",
    "city": "Rötzum"
  },
  {
    "postcode": "31249",
    "city": "Soßmar"
  },
  {
    "postcode": "31249",
    "city": "Stedum"
  },
  {
    "postcode": "31249",
    "city": "Peine"
  },
  {
    "postcode": "31249",
    "city": "Stedum-Bekum"
  },
  {
    "postcode": "31249",
    "city": "Harber"
  },
  {
    "postcode": "31275",
    "city": "Ahlten"
  },
  {
    "postcode": "31275",
    "city": "Aligse"
  },
  {
    "postcode": "31275",
    "city": "Arpke"
  },
  {
    "postcode": "31275",
    "city": "Hämelerwald"
  },
  {
    "postcode": "31275",
    "city": "Immensen bei Lehrte"
  },
  {
    "postcode": "31275",
    "city": "Kolshorn"
  },
  {
    "postcode": "31275",
    "city": "Lehrte"
  },
  {
    "postcode": "31275",
    "city": "Lehrte bei Hannover"
  },
  {
    "postcode": "31275",
    "city": "Röddensen"
  },
  {
    "postcode": "31275",
    "city": "Sievershausen bei Lehrte"
  },
  {
    "postcode": "31275",
    "city": "Steinwedel"
  },
  {
    "postcode": "31275",
    "city": "Hannover"
  },
  {
    "postcode": "31275",
    "city": "Immensen"
  },
  {
    "postcode": "31275",
    "city": "Sievershausen"
  },
  {
    "postcode": "31303",
    "city": "Beinhorn"
  },
  {
    "postcode": "31303",
    "city": "Burgdorf"
  },
  {
    "postcode": "31303",
    "city": "Burgdorf Kreis Hannover"
  },
  {
    "postcode": "31303",
    "city": "Dachtmissen bei Lehrte"
  },
  {
    "postcode": "31303",
    "city": "Heeßel bei Lehrte"
  },
  {
    "postcode": "31303",
    "city": "Hülptingsen"
  },
  {
    "postcode": "31303",
    "city": "Otze"
  },
  {
    "postcode": "31303",
    "city": "Schillerslage"
  },
  {
    "postcode": "31303",
    "city": "Sorgensen"
  },
  {
    "postcode": "31303",
    "city": "Weferlingsen"
  },
  {
    "postcode": "31303",
    "city": "Hannover"
  },
  {
    "postcode": "31303",
    "city": "Ramlingen-Ehlershausen"
  },
  {
    "postcode": "31303",
    "city": "Heeßel"
  },
  {
    "postcode": "31303",
    "city": "Dachtmissen"
  },
  {
    "postcode": "31303",
    "city": "Ramlingen"
  },
  {
    "postcode": "31311",
    "city": "Altmerdingsen"
  },
  {
    "postcode": "31311",
    "city": "Dahrenhorst"
  },
  {
    "postcode": "31311",
    "city": "Dedenhausen"
  },
  {
    "postcode": "31311",
    "city": "Dollbergen"
  },
  {
    "postcode": "31311",
    "city": "Eltze Kreis Peine"
  },
  {
    "postcode": "31311",
    "city": "Eltze"
  },
  {
    "postcode": "31311",
    "city": "Hänigsen"
  },
  {
    "postcode": "31311",
    "city": "Katensen bei Lehrte"
  },
  {
    "postcode": "31311",
    "city": "Obershagen"
  },
  {
    "postcode": "31311",
    "city": "Schwüblingsen"
  },
  {
    "postcode": "31311",
    "city": "Uetze"
  },
  {
    "postcode": "31311",
    "city": "Hannover"
  },
  {
    "postcode": "31311",
    "city": "Katensen"
  },
  {
    "postcode": "31319",
    "city": "Bilm"
  },
  {
    "postcode": "31319",
    "city": "Bolzum"
  },
  {
    "postcode": "31319",
    "city": "Dolgen Niedersachsen"
  },
  {
    "postcode": "31319",
    "city": "Dolgen"
  },
  {
    "postcode": "31319",
    "city": "Evern Niedersachsen"
  },
  {
    "postcode": "31319",
    "city": "Evern"
  },
  {
    "postcode": "31319",
    "city": "Gretenberg"
  },
  {
    "postcode": "31319",
    "city": "Haimar"
  },
  {
    "postcode": "31319",
    "city": "Höver Han"
  },
  {
    "postcode": "31319",
    "city": "Höver"
  },
  {
    "postcode": "31319",
    "city": "Ilten Han"
  },
  {
    "postcode": "31319",
    "city": "Ilten"
  },
  {
    "postcode": "31319",
    "city": "Klein Lobke"
  },
  {
    "postcode": "31319",
    "city": "Müllingen"
  },
  {
    "postcode": "31319",
    "city": "Rethmar"
  },
  {
    "postcode": "31319",
    "city": "Sehnde"
  },
  {
    "postcode": "31319",
    "city": "Wassel"
  },
  {
    "postcode": "31319",
    "city": "Wehmingen Han"
  },
  {
    "postcode": "31319",
    "city": "Wehmingen"
  },
  {
    "postcode": "31319",
    "city": "Wirringen"
  },
  {
    "postcode": "31319",
    "city": "Hannover"
  },
  {
    "postcode": "31515",
    "city": "Blumenau Niedersachsen"
  },
  {
    "postcode": "31515",
    "city": "Blumenau"
  },
  {
    "postcode": "31515",
    "city": "Bokeloh bei Wunstorf"
  },
  {
    "postcode": "31515",
    "city": "Großenheidorn"
  },
  {
    "postcode": "31515",
    "city": "Idensen"
  },
  {
    "postcode": "31515",
    "city": "Klein Heidorn"
  },
  {
    "postcode": "31515",
    "city": "Kolenfeld"
  },
  {
    "postcode": "31515",
    "city": "Luthe"
  },
  {
    "postcode": "31515",
    "city": "Mesmerode"
  },
  {
    "postcode": "31515",
    "city": "Steinhude"
  },
  {
    "postcode": "31515",
    "city": "Wunstorf"
  },
  {
    "postcode": "31515",
    "city": "Hannover"
  },
  {
    "postcode": "31515",
    "city": "Bokeloh"
  },
  {
    "postcode": "31515",
    "city": "Strand"
  },
  {
    "postcode": "31535",
    "city": "Amedorf"
  },
  {
    "postcode": "31535",
    "city": "Averhoy Niedersachsen"
  },
  {
    "postcode": "31535",
    "city": "Averhoy"
  },
  {
    "postcode": "31535",
    "city": "Basse Niedersachsen"
  },
  {
    "postcode": "31535",
    "city": "Basse"
  },
  {
    "postcode": "31535",
    "city": "Bevensen bei Nienburg Weser"
  },
  {
    "postcode": "31535",
    "city": "Bevensen bei Nienburg"
  },
  {
    "postcode": "31535",
    "city": "Bordenau"
  },
  {
    "postcode": "31535",
    "city": "Borstel bei Nienburg Weser"
  },
  {
    "postcode": "31535",
    "city": "Borstel bei Nienburg"
  },
  {
    "postcode": "31535",
    "city": "Brase"
  },
  {
    "postcode": "31535",
    "city": "Büren"
  },
  {
    "postcode": "31535",
    "city": "Dudensen"
  },
  {
    "postcode": "31535",
    "city": "Eilvese"
  },
  {
    "postcode": "31535",
    "city": "Empede"
  },
  {
    "postcode": "31535",
    "city": "Esperke"
  },
  {
    "postcode": "31535",
    "city": "Evensen bei Wunstorf"
  },
  {
    "postcode": "31535",
    "city": "Hagen bei Nienburg Weser"
  },
  {
    "postcode": "31535",
    "city": "Hagen bei Nienburg"
  },
  {
    "postcode": "31535",
    "city": "Helstorf"
  },
  {
    "postcode": "31535",
    "city": "Laderholz"
  },
  {
    "postcode": "31535",
    "city": "Lutter bei Nienburg Weser"
  },
  {
    "postcode": "31535",
    "city": "Lutter bei Nienburg"
  },
  {
    "postcode": "31535",
    "city": "Luttmersen"
  },
  {
    "postcode": "31535",
    "city": "Mandelsloh"
  },
  {
    "postcode": "31535",
    "city": "Mardorf Niedersachsen"
  },
  {
    "postcode": "31535",
    "city": "Mardorf"
  },
  {
    "postcode": "31535",
    "city": "Mariensee Leine"
  },
  {
    "postcode": "31535",
    "city": "Mariensee"
  },
  {
    "postcode": "31535",
    "city": "Metel"
  },
  {
    "postcode": "31535",
    "city": "Neustadt am Rübenberge"
  },
  {
    "postcode": "31535",
    "city": "Niedernstöcken"
  },
  {
    "postcode": "31535",
    "city": "Nöpke"
  },
  {
    "postcode": "31535",
    "city": "Otternhagen"
  },
  {
    "postcode": "31535",
    "city": "Poggenhagen"
  },
  {
    "postcode": "31535",
    "city": "Scharrel bei Wunstorf"
  },
  {
    "postcode": "31535",
    "city": "Schneeren"
  },
  {
    "postcode": "31535",
    "city": "Stöckendrebber"
  },
  {
    "postcode": "31535",
    "city": "Suttorf Leine"
  },
  {
    "postcode": "31535",
    "city": "Suttorf"
  },
  {
    "postcode": "31535",
    "city": "Vesbeck"
  },
  {
    "postcode": "31535",
    "city": "Welze bei Wunstorf"
  },
  {
    "postcode": "31535",
    "city": "Wulfelade"
  },
  {
    "postcode": "31535",
    "city": "Hannover"
  },
  {
    "postcode": "31535",
    "city": "Neustadt"
  },
  {
    "postcode": "31535",
    "city": "Scharrel"
  },
  {
    "postcode": "31535",
    "city": "Bevensen"
  },
  {
    "postcode": "31535",
    "city": "Hagen"
  },
  {
    "postcode": "31535",
    "city": "Borstel"
  },
  {
    "postcode": "31535",
    "city": "Welze"
  },
  {
    "postcode": "31535",
    "city": "Lutter"
  },
  {
    "postcode": "31535",
    "city": "Evensen"
  },
  {
    "postcode": "31535",
    "city": "Kernstadt"
  },
  {
    "postcode": "31542",
    "city": "Bad Nenndorf"
  },
  {
    "postcode": "31542",
    "city": "Horsten Kreis Grafschaft Schaumburg"
  },
  {
    "postcode": "31542",
    "city": "Horsten"
  },
  {
    "postcode": "31542",
    "city": "Riepen"
  },
  {
    "postcode": "31542",
    "city": "Waltringhausen Kreis Grafschaft Schaumburg"
  },
  {
    "postcode": "31542",
    "city": "Waltringhausen"
  },
  {
    "postcode": "31542",
    "city": "Schaumburg"
  },
  {
    "postcode": "31547",
    "city": "Bad Rehburg"
  },
  {
    "postcode": "31547",
    "city": "Loccum"
  },
  {
    "postcode": "31547",
    "city": "Münchehagen"
  },
  {
    "postcode": "31547",
    "city": "Rehburg"
  },
  {
    "postcode": "31547",
    "city": "Rehburg-Loccum"
  },
  {
    "postcode": "31547",
    "city": "Stadt Rehburg-Loccum"
  },
  {
    "postcode": "31547",
    "city": "Winzlar"
  },
  {
    "postcode": "31547",
    "city": "Nienburg_Weser"
  },
  {
    "postcode": "31547",
    "city": "Büchenberg"
  },
  {
    "postcode": "31552",
    "city": "Algesdorf"
  },
  {
    "postcode": "31552",
    "city": "Apelern"
  },
  {
    "postcode": "31552",
    "city": "Groß Hegesdorf"
  },
  {
    "postcode": "31552",
    "city": "Kleinhegesdorf"
  },
  {
    "postcode": "31552",
    "city": "Lyhren"
  },
  {
    "postcode": "31552",
    "city": "Reinsdorf Kreis Grafschaft Schaumburg"
  },
  {
    "postcode": "31552",
    "city": "Reinsdorf"
  },
  {
    "postcode": "31552",
    "city": "Rodenberg"
  },
  {
    "postcode": "31552",
    "city": "Rodenberg Deister"
  },
  {
    "postcode": "31552",
    "city": "Soldorf"
  },
  {
    "postcode": "31552",
    "city": "Schaumburg"
  },
  {
    "postcode": "31553",
    "city": "Auhagen"
  },
  {
    "postcode": "31553",
    "city": "Düdinghausen Kreis Grafschaft Schaumburg"
  },
  {
    "postcode": "31553",
    "city": "Düdinghausen"
  },
  {
    "postcode": "31553",
    "city": "Nienbrügge"
  },
  {
    "postcode": "31553",
    "city": "Rähden"
  },
  {
    "postcode": "31553",
    "city": "Sachsenhagen"
  },
  {
    "postcode": "31553",
    "city": "Schaumburg"
  },
  {
    "postcode": "31555",
    "city": "Helsinghausen"
  },
  {
    "postcode": "31555",
    "city": "Kreuzriehe"
  },
  {
    "postcode": "31555",
    "city": "Riehe"
  },
  {
    "postcode": "31555",
    "city": "Suthfeld"
  },
  {
    "postcode": "31555",
    "city": "Schaumburg"
  },
  {
    "postcode": "31556",
    "city": "Bergkirchen Kreis Schaumb-Lippe"
  },
  {
    "postcode": "31556",
    "city": "Bergkirchen"
  },
  {
    "postcode": "31556",
    "city": "Schmalenbruch-Windhorn"
  },
  {
    "postcode": "31556",
    "city": "Wiedenbrügge"
  },
  {
    "postcode": "31556",
    "city": "Wölpinghausen"
  },
  {
    "postcode": "31556",
    "city": "Schaumburg"
  },
  {
    "postcode": "31556",
    "city": "Berghol"
  },
  {
    "postcode": "31556",
    "city": "Schmalenbruch"
  },
  {
    "postcode": "31558",
    "city": "Altenhagen"
  },
  {
    "postcode": "31558",
    "city": "Hagenburg"
  },
  {
    "postcode": "31558",
    "city": "Hagenburg bei Wunstorf"
  },
  {
    "postcode": "31558",
    "city": "Schaumburg"
  },
  {
    "postcode": "31559",
    "city": "Haste bei Wunstorf"
  },
  {
    "postcode": "31559",
    "city": "Hohnhorst"
  },
  {
    "postcode": "31559",
    "city": "Hohnhorst bei Wunstorf"
  },
  {
    "postcode": "31559",
    "city": "Mathe Kreis Grafschaft Schaumburg"
  },
  {
    "postcode": "31559",
    "city": "Mathe"
  },
  {
    "postcode": "31559",
    "city": "Ohndorf"
  },
  {
    "postcode": "31559",
    "city": "Rehren bei Rodenberg Deister"
  },
  {
    "postcode": "31559",
    "city": "Rehren bei Rodenberg"
  },
  {
    "postcode": "31559",
    "city": "Schaumburg"
  },
  {
    "postcode": "31559",
    "city": "Haste"
  },
  {
    "postcode": "31559",
    "city": "Rehren A. R."
  },
  {
    "postcode": "31582",
    "city": "Erichshagen-Wölpe"
  },
  {
    "postcode": "31582",
    "city": "Holtorf Weser"
  },
  {
    "postcode": "31582",
    "city": "Holtorf"
  },
  {
    "postcode": "31582",
    "city": "Kattriede Weser"
  },
  {
    "postcode": "31582",
    "city": "Kattriede"
  },
  {
    "postcode": "31582",
    "city": "Langendamm Kreis Nienburg Weser"
  },
  {
    "postcode": "31582",
    "city": "Langendamm"
  },
  {
    "postcode": "31582",
    "city": "Nienburg (Weser)"
  },
  {
    "postcode": "31582",
    "city": "Nienburg"
  },
  {
    "postcode": "31582",
    "city": "Nienburg_Weser"
  },
  {
    "postcode": "31582",
    "city": "Erichshagen"
  },
  {
    "postcode": "31582",
    "city": "Gem. Stöckse"
  },
  {
    "postcode": "31592",
    "city": "Alterkamp Weser"
  },
  {
    "postcode": "31592",
    "city": "Alterkamp"
  },
  {
    "postcode": "31592",
    "city": "Anemolter-Schinna"
  },
  {
    "postcode": "31592",
    "city": "Böthel Weser"
  },
  {
    "postcode": "31592",
    "city": "Böthel"
  },
  {
    "postcode": "31592",
    "city": "Diethe bei Stolzenau Weser"
  },
  {
    "postcode": "31592",
    "city": "Diethe bei Stolzenau"
  },
  {
    "postcode": "31592",
    "city": "Ensen"
  },
  {
    "postcode": "31592",
    "city": "Frestorf bei Stolzenau Weser"
  },
  {
    "postcode": "31592",
    "city": "Frestorf bei Stolzenau"
  },
  {
    "postcode": "31592",
    "city": "Gemeinde Leese"
  },
  {
    "postcode": "31592",
    "city": "Haustedt bei Stolzenau Weser"
  },
  {
    "postcode": "31592",
    "city": "Haustedt bei Stolzenau"
  },
  {
    "postcode": "31592",
    "city": "Hibben Weser"
  },
  {
    "postcode": "31592",
    "city": "Hibben"
  },
  {
    "postcode": "31592",
    "city": "Holzhausen Weser"
  },
  {
    "postcode": "31592",
    "city": "Holzhausen"
  },
  {
    "postcode": "31592",
    "city": "Kohlenweihe Weser"
  },
  {
    "postcode": "31592",
    "city": "Kohlenweihe"
  },
  {
    "postcode": "31592",
    "city": "Langern bei Stolzenau Weser"
  },
  {
    "postcode": "31592",
    "city": "Langern bei Stolzenau"
  },
  {
    "postcode": "31592",
    "city": "Müsleringen"
  },
  {
    "postcode": "31592",
    "city": "Nendorf bei Stolzenau Weser"
  },
  {
    "postcode": "31592",
    "city": "Nendorf bei Stolzenau"
  },
  {
    "postcode": "31592",
    "city": "Sögeberg Weser"
  },
  {
    "postcode": "31592",
    "city": "Sögeberg"
  },
  {
    "postcode": "31592",
    "city": "Stolzenau"
  },
  {
    "postcode": "31592",
    "city": "Stolzenau Weser"
  },
  {
    "postcode": "31592",
    "city": "Nienburg_Weser"
  },
  {
    "postcode": "31592",
    "city": "Schinna"
  },
  {
    "postcode": "31592",
    "city": "Anemolter"
  },
  {
    "postcode": "31592",
    "city": "Nendorf"
  },
  {
    "postcode": "31592",
    "city": "Diethe"
  },
  {
    "postcode": "31592",
    "city": "Strahle"
  },
  {
    "postcode": "31592",
    "city": "Frestorf"
  },
  {
    "postcode": "31592",
    "city": "Langern"
  },
  {
    "postcode": "31595",
    "city": "Bruchhagen"
  },
  {
    "postcode": "31595",
    "city": "Deblinghausen"
  },
  {
    "postcode": "31595",
    "city": "Düdinghausen Kreis Nienburg Weser"
  },
  {
    "postcode": "31595",
    "city": "Düdinghausen"
  },
  {
    "postcode": "31595",
    "city": "Reese"
  },
  {
    "postcode": "31595",
    "city": "Sarninghausen"
  },
  {
    "postcode": "31595",
    "city": "Sehnsen"
  },
  {
    "postcode": "31595",
    "city": "Steyerberg"
  },
  {
    "postcode": "31595",
    "city": "Voigtei"
  },
  {
    "postcode": "31595",
    "city": "Wellie"
  },
  {
    "postcode": "31595",
    "city": "Nienburg_Weser"
  },
  {
    "postcode": "31595",
    "city": "Heemsche"
  },
  {
    "postcode": "31595",
    "city": "Stelle"
  },
  {
    "postcode": "31595",
    "city": "Hesterberg"
  },
  {
    "postcode": "31595",
    "city": "Ihlberg"
  },
  {
    "postcode": "31595",
    "city": "Im Dickel"
  },
  {
    "postcode": "31595",
    "city": "Eckershausen"
  },
  {
    "postcode": "31595",
    "city": "Siedenberg"
  },
  {
    "postcode": "31595",
    "city": "Staken"
  },
  {
    "postcode": "31595",
    "city": "Struckhausen"
  },
  {
    "postcode": "31595",
    "city": "Wehrenberg"
  },
  {
    "postcode": "31600",
    "city": "Lohhof"
  },
  {
    "postcode": "31600",
    "city": "Uchte"
  },
  {
    "postcode": "31600",
    "city": "Nienburg_Weser"
  },
  {
    "postcode": "31600",
    "city": "Buchholz"
  },
  {
    "postcode": "31600",
    "city": "Darlaten"
  },
  {
    "postcode": "31600",
    "city": "Fuchsberg"
  },
  {
    "postcode": "31600",
    "city": "Höfen"
  },
  {
    "postcode": "31600",
    "city": "Heidhorst"
  },
  {
    "postcode": "31600",
    "city": "Hoysinghausen"
  },
  {
    "postcode": "31600",
    "city": "Schlatthütte"
  },
  {
    "postcode": "31600",
    "city": "Köper"
  },
  {
    "postcode": "31600",
    "city": "Ohlensehlen"
  },
  {
    "postcode": "31600",
    "city": "Woltringhausen"
  },
  {
    "postcode": "31603",
    "city": "Bramkamp"
  },
  {
    "postcode": "31603",
    "city": "Diepenau"
  },
  {
    "postcode": "31603",
    "city": "Essern"
  },
  {
    "postcode": "31603",
    "city": "Kaltenhöfen"
  },
  {
    "postcode": "31603",
    "city": "Lavelsloh"
  },
  {
    "postcode": "31603",
    "city": "Nordel"
  },
  {
    "postcode": "31603",
    "city": "Osterloh"
  },
  {
    "postcode": "31603",
    "city": "Steinbrink"
  },
  {
    "postcode": "31603",
    "city": "Wickriede"
  },
  {
    "postcode": "31603",
    "city": "Nienburg_Weser"
  },
  {
    "postcode": "31604",
    "city": "Dierstorf"
  },
  {
    "postcode": "31604",
    "city": "Glissen bei Stolzenau Weser"
  },
  {
    "postcode": "31604",
    "city": "Glissen bei Stolzenau"
  },
  {
    "postcode": "31604",
    "city": "Gräsebilde"
  },
  {
    "postcode": "31604",
    "city": "Halle"
  },
  {
    "postcode": "31604",
    "city": "Harrienstedt"
  },
  {
    "postcode": "31604",
    "city": "Huddestorf"
  },
  {
    "postcode": "31604",
    "city": "Jenhorst"
  },
  {
    "postcode": "31604",
    "city": "Kleinenheerse"
  },
  {
    "postcode": "31604",
    "city": "Raddestorf"
  },
  {
    "postcode": "31604",
    "city": "Westenfeld bei Stolzenau Weser"
  },
  {
    "postcode": "31604",
    "city": "Westenfeld bei Stolzenau"
  },
  {
    "postcode": "31604",
    "city": "Nienburg_Weser"
  },
  {
    "postcode": "31604",
    "city": "Kreuzkrug"
  },
  {
    "postcode": "31604",
    "city": "Glissen"
  },
  {
    "postcode": "31604",
    "city": "Bramerloh"
  },
  {
    "postcode": "31604",
    "city": "Dammkrug"
  },
  {
    "postcode": "31604",
    "city": "Jägerkrug"
  },
  {
    "postcode": "31604",
    "city": "Westenfeld"
  },
  {
    "postcode": "31606",
    "city": "Bohnhorst"
  },
  {
    "postcode": "31606",
    "city": "Brüninghorstedt"
  },
  {
    "postcode": "31606",
    "city": "Großenvörde"
  },
  {
    "postcode": "31606",
    "city": "Hauskämpen"
  },
  {
    "postcode": "31606",
    "city": "Horst"
  },
  {
    "postcode": "31606",
    "city": "Oberheide"
  },
  {
    "postcode": "31606",
    "city": "Sapelloh"
  },
  {
    "postcode": "31606",
    "city": "Warmsen"
  },
  {
    "postcode": "31606",
    "city": "Nienburg_Weser"
  },
  {
    "postcode": "31606",
    "city": "Buschhorn"
  },
  {
    "postcode": "31606",
    "city": "Mösloh"
  },
  {
    "postcode": "31606",
    "city": "Hoyersvörde"
  },
  {
    "postcode": "31606",
    "city": "Meßwinkel"
  },
  {
    "postcode": "31606",
    "city": "Schamerloh"
  },
  {
    "postcode": "31608",
    "city": "Lemke Kreis Nienburg Weser"
  },
  {
    "postcode": "31608",
    "city": "Lemke"
  },
  {
    "postcode": "31608",
    "city": "Marklohe"
  },
  {
    "postcode": "31608",
    "city": "Oyle"
  },
  {
    "postcode": "31608",
    "city": "Sudhalenbeck Kreis Nienburg Weser"
  },
  {
    "postcode": "31608",
    "city": "Sudhalenbeck"
  },
  {
    "postcode": "31608",
    "city": "Wohlenhausen Kreis Nienburg Weser"
  },
  {
    "postcode": "31608",
    "city": "Wohlenhausen"
  },
  {
    "postcode": "31608",
    "city": "Nienburg_Weser"
  },
  {
    "postcode": "31608",
    "city": "Neulohe"
  },
  {
    "postcode": "31608",
    "city": "Kroge"
  },
  {
    "postcode": "31609",
    "city": "Balge"
  },
  {
    "postcode": "31609",
    "city": "Behlingen Kreis Nienburg Weser"
  },
  {
    "postcode": "31609",
    "city": "Behlingen"
  },
  {
    "postcode": "31609",
    "city": "Blenhorst"
  },
  {
    "postcode": "31609",
    "city": "Buchhorst Kreis Nienburg Weser"
  },
  {
    "postcode": "31609",
    "city": "Buchhorst"
  },
  {
    "postcode": "31609",
    "city": "Dolldorf"
  },
  {
    "postcode": "31609",
    "city": "Holzbalge"
  },
  {
    "postcode": "31609",
    "city": "Lerchenfeld"
  },
  {
    "postcode": "31609",
    "city": "Mehlbergen"
  },
  {
    "postcode": "31609",
    "city": "Sebbenhausen"
  },
  {
    "postcode": "31609",
    "city": "Nienburg_Weser"
  },
  {
    "postcode": "31609",
    "city": "Bötenberg"
  },
  {
    "postcode": "31609",
    "city": "Gut Wiede"
  },
  {
    "postcode": "31609",
    "city": "Möhlenhalenbeck"
  },
  {
    "postcode": "31613",
    "city": "Holte Kreis Nienburg Weser"
  },
  {
    "postcode": "31613",
    "city": "Holte"
  },
  {
    "postcode": "31613",
    "city": "Langeln"
  },
  {
    "postcode": "31613",
    "city": "Wietzen"
  },
  {
    "postcode": "31613",
    "city": "Nienburg_Weser"
  },
  {
    "postcode": "31613",
    "city": "Warpe"
  },
  {
    "postcode": "31613",
    "city": "Bredenbeck"
  },
  {
    "postcode": "31618",
    "city": "Liebenau Kreis Nienburg"
  },
  {
    "postcode": "31618",
    "city": "Liebenau"
  },
  {
    "postcode": "31618",
    "city": "Nienburg_Weser"
  },
  {
    "postcode": "31619",
    "city": "Binnen"
  },
  {
    "postcode": "31619",
    "city": "Glissen Kreis Nienburg Weser"
  },
  {
    "postcode": "31619",
    "city": "Glissen"
  },
  {
    "postcode": "31619",
    "city": "Nienburg_Weser"
  },
  {
    "postcode": "31621",
    "city": "Pennigsehl"
  },
  {
    "postcode": "31621",
    "city": "Nienburg_Weser"
  },
  {
    "postcode": "31622",
    "city": "Anderten Kreis Nienburg Weser"
  },
  {
    "postcode": "31622",
    "city": "Anderten"
  },
  {
    "postcode": "31622",
    "city": "Gadesbünden"
  },
  {
    "postcode": "31622",
    "city": "Heemsen"
  },
  {
    "postcode": "31622",
    "city": "Lichtenmoor"
  },
  {
    "postcode": "31622",
    "city": "Nienburg_Weser"
  },
  {
    "postcode": "31623",
    "city": "Drakenburg"
  },
  {
    "postcode": "31623",
    "city": "Nienburg_Weser"
  },
  {
    "postcode": "31626",
    "city": "Haßbergen"
  },
  {
    "postcode": "31626",
    "city": "Nienburg_Weser"
  },
  {
    "postcode": "31627",
    "city": "Rohrsen Kreis Nienburg"
  },
  {
    "postcode": "31627",
    "city": "Rohrsen"
  },
  {
    "postcode": "31627",
    "city": "Nienburg_Weser"
  },
  {
    "postcode": "31628",
    "city": "Brokeloh"
  },
  {
    "postcode": "31628",
    "city": "Hahnenberg Kreis Nienburg Weser"
  },
  {
    "postcode": "31628",
    "city": "Hahnenberg"
  },
  {
    "postcode": "31628",
    "city": "Heidhausen"
  },
  {
    "postcode": "31628",
    "city": "Landesbergen"
  },
  {
    "postcode": "31628",
    "city": "Stadt Rehburg-Loccum"
  },
  {
    "postcode": "31628",
    "city": "Nienburg_Weser"
  },
  {
    "postcode": "31628",
    "city": "Rehburg-Loccum"
  },
  {
    "postcode": "31629",
    "city": "Estorf"
  },
  {
    "postcode": "31629",
    "city": "Estorf Weser"
  },
  {
    "postcode": "31629",
    "city": "Leeseringen"
  },
  {
    "postcode": "31629",
    "city": "Nienburg_Weser"
  },
  {
    "postcode": "31632",
    "city": "Bolsehle"
  },
  {
    "postcode": "31632",
    "city": "Groß Varlingen Kreis Nienburg Weser"
  },
  {
    "postcode": "31632",
    "city": "Groß Varlingen"
  },
  {
    "postcode": "31632",
    "city": "Husum"
  },
  {
    "postcode": "31632",
    "city": "Husum Kreis Nienburg"
  },
  {
    "postcode": "31632",
    "city": "Schessinghausen"
  },
  {
    "postcode": "31632",
    "city": "Nienburg_Weser"
  },
  {
    "postcode": "31633",
    "city": "Leese Weser"
  },
  {
    "postcode": "31633",
    "city": "Leese"
  },
  {
    "postcode": "31633",
    "city": "Nienburg_Weser"
  },
  {
    "postcode": "31634",
    "city": "Glashof"
  },
  {
    "postcode": "31634",
    "city": "Klein Varlingen Kreis Nienburg Weser"
  },
  {
    "postcode": "31634",
    "city": "Klein Varlingen"
  },
  {
    "postcode": "31634",
    "city": "Lichtenhorst"
  },
  {
    "postcode": "31634",
    "city": "Sonnenborstel"
  },
  {
    "postcode": "31634",
    "city": "Steimbke"
  },
  {
    "postcode": "31634",
    "city": "Wenden Kreis Nienburg Weser"
  },
  {
    "postcode": "31634",
    "city": "Wenden"
  },
  {
    "postcode": "31634",
    "city": "Wendenborstel"
  },
  {
    "postcode": "31634",
    "city": "Nienburg_Weser"
  },
  {
    "postcode": "31636",
    "city": "Linsburg"
  },
  {
    "postcode": "31636",
    "city": "Meinkingsburg"
  },
  {
    "postcode": "31636",
    "city": "Nienburg_Weser"
  },
  {
    "postcode": "31637",
    "city": "Neudorf"
  },
  {
    "postcode": "31637",
    "city": "Rodewald"
  },
  {
    "postcode": "31637",
    "city": "Nienburg_Weser"
  },
  {
    "postcode": "31638",
    "city": "Stöckse"
  },
  {
    "postcode": "31638",
    "city": "Wenden Kreis Nienburg Weser"
  },
  {
    "postcode": "31638",
    "city": "Wenden"
  },
  {
    "postcode": "31638",
    "city": "Nienburg_Weser"
  },
  {
    "postcode": "31638",
    "city": "Lohe"
  },
  {
    "postcode": "31638",
    "city": "Krähe"
  },
  {
    "postcode": "31655",
    "city": "Blyinghausen"
  },
  {
    "postcode": "31655",
    "city": "Enzen Kreis Schaumb-Lippe"
  },
  {
    "postcode": "31655",
    "city": "Enzen"
  },
  {
    "postcode": "31655",
    "city": "Habichhorst"
  },
  {
    "postcode": "31655",
    "city": "Habichhorst-Blyinghausen"
  },
  {
    "postcode": "31655",
    "city": "Hobbensen Kreis Schaumb-Lippe"
  },
  {
    "postcode": "31655",
    "city": "Hobbensen"
  },
  {
    "postcode": "31655",
    "city": "Hörkamp-Langenbruch"
  },
  {
    "postcode": "31655",
    "city": "Krebshagen"
  },
  {
    "postcode": "31655",
    "city": "Obernwöhren"
  },
  {
    "postcode": "31655",
    "city": "Probsthagen"
  },
  {
    "postcode": "31655",
    "city": "Reinsen-Remeringhausen"
  },
  {
    "postcode": "31655",
    "city": "Stadthagen"
  },
  {
    "postcode": "31655",
    "city": "Wendthagen-Ehlen"
  },
  {
    "postcode": "31655",
    "city": "Schaumburg"
  },
  {
    "postcode": "31655",
    "city": "Wendthagen"
  },
  {
    "postcode": "31655",
    "city": "Reinsen"
  },
  {
    "postcode": "31655",
    "city": "Bruchhof"
  },
  {
    "postcode": "31675",
    "city": "Achum"
  },
  {
    "postcode": "31675",
    "city": "Berenbusch Kreis Schaumb-Lippe"
  },
  {
    "postcode": "31675",
    "city": "Berenbusch"
  },
  {
    "postcode": "31675",
    "city": "Bergdorf"
  },
  {
    "postcode": "31675",
    "city": "Bückeburg"
  },
  {
    "postcode": "31675",
    "city": "Cammer"
  },
  {
    "postcode": "31675",
    "city": "Evesen"
  },
  {
    "postcode": "31675",
    "city": "Meinsen"
  },
  {
    "postcode": "31675",
    "city": "Müsingen"
  },
  {
    "postcode": "31675",
    "city": "Nordholz Kreis Schaumb-Lippe"
  },
  {
    "postcode": "31675",
    "city": "Nordholz"
  },
  {
    "postcode": "31675",
    "city": "Petzen"
  },
  {
    "postcode": "31675",
    "city": "Röcke"
  },
  {
    "postcode": "31675",
    "city": "Rusbend"
  },
  {
    "postcode": "31675",
    "city": "Scheie"
  },
  {
    "postcode": "31675",
    "city": "Warber"
  },
  {
    "postcode": "31675",
    "city": "Schaumburg"
  },
  {
    "postcode": "31683",
    "city": "Gelldorf"
  },
  {
    "postcode": "31683",
    "city": "Krainhagen"
  },
  {
    "postcode": "31683",
    "city": "Obernkirchen"
  },
  {
    "postcode": "31683",
    "city": "Röhrkasten"
  },
  {
    "postcode": "31683",
    "city": "Vehlen Kreis Schaumb-Lippe"
  },
  {
    "postcode": "31683",
    "city": "Vehlen"
  },
  {
    "postcode": "31683",
    "city": "Schaumburg"
  },
  {
    "postcode": "31688",
    "city": "Liekwegen"
  },
  {
    "postcode": "31688",
    "city": "Meinefeld"
  },
  {
    "postcode": "31688",
    "city": "Nienstädt"
  },
  {
    "postcode": "31688",
    "city": "Nienstädt bei Stadthagen"
  },
  {
    "postcode": "31688",
    "city": "Sülbeck Kreis Schaumb-Lippe"
  },
  {
    "postcode": "31688",
    "city": "Sülbeck"
  },
  {
    "postcode": "31688",
    "city": "Wackerfeld Kreis Schaumb-Lippe"
  },
  {
    "postcode": "31688",
    "city": "Wackerfeld"
  },
  {
    "postcode": "31688",
    "city": "Schaumburg"
  },
  {
    "postcode": "31691",
    "city": "Alt Seggebruch"
  },
  {
    "postcode": "31691",
    "city": "Deinsen"
  },
  {
    "postcode": "31691",
    "city": "Helpsen"
  },
  {
    "postcode": "31691",
    "city": "Kirchhorsten"
  },
  {
    "postcode": "31691",
    "city": "Schierneichen-Deinsen"
  },
  {
    "postcode": "31691",
    "city": "Seggebruch"
  },
  {
    "postcode": "31691",
    "city": "Südhorsten"
  },
  {
    "postcode": "31691",
    "city": "Tallensen-Echtorf"
  },
  {
    "postcode": "31691",
    "city": "Schaumburg"
  },
  {
    "postcode": "31691",
    "city": "Schierneichen"
  },
  {
    "postcode": "31691",
    "city": "Alt-Seggebruch"
  },
  {
    "postcode": "31691",
    "city": "Neu-Seggebruch"
  },
  {
    "postcode": "31691",
    "city": "Siedlung Baum"
  },
  {
    "postcode": "31693",
    "city": "Hespe"
  },
  {
    "postcode": "31693",
    "city": "Hespe bei Stadthagen"
  },
  {
    "postcode": "31693",
    "city": "Hespe-Hiddensen"
  },
  {
    "postcode": "31693",
    "city": "Levesen Kreis Schaumb-Lippe"
  },
  {
    "postcode": "31693",
    "city": "Levesen"
  },
  {
    "postcode": "31693",
    "city": "Stemmen Kreis Schaumb-Lippe"
  },
  {
    "postcode": "31693",
    "city": "Stemmen"
  },
  {
    "postcode": "31693",
    "city": "Schaumburg"
  },
  {
    "postcode": "31693",
    "city": "Hiddensen"
  },
  {
    "postcode": "31698",
    "city": "Lindhorst"
  },
  {
    "postcode": "31698",
    "city": "Lindhorst bei Stadthagen"
  },
  {
    "postcode": "31698",
    "city": "Ottensen Kreis Grafschaft Schaumburg"
  },
  {
    "postcode": "31698",
    "city": "Ottensen"
  },
  {
    "postcode": "31698",
    "city": "Schöttlingen Kreis Schaumb-Lippe"
  },
  {
    "postcode": "31698",
    "city": "Schöttlingen"
  },
  {
    "postcode": "31698",
    "city": "Schaumburg"
  },
  {
    "postcode": "31699",
    "city": "Beckedorf bei Stadthagen"
  },
  {
    "postcode": "31699",
    "city": "Schaumburg"
  },
  {
    "postcode": "31699",
    "city": "Beckedorf"
  },
  {
    "postcode": "31700",
    "city": "Heuerßen"
  },
  {
    "postcode": "31700",
    "city": "Kobbensen"
  },
  {
    "postcode": "31700",
    "city": "Schaumburg"
  },
  {
    "postcode": "31702",
    "city": "Lüdersfeld"
  },
  {
    "postcode": "31702",
    "city": "Niedernholz"
  },
  {
    "postcode": "31702",
    "city": "Vornhagen"
  },
  {
    "postcode": "31702",
    "city": "Schaumburg"
  },
  {
    "postcode": "31707",
    "city": "Bad Eilsen"
  },
  {
    "postcode": "31707",
    "city": "Heeßen"
  },
  {
    "postcode": "31707",
    "city": "Schaumburg"
  },
  {
    "postcode": "31708",
    "city": "Ahnsen bei Stadthagen"
  },
  {
    "postcode": "31708",
    "city": "Schaumburg"
  },
  {
    "postcode": "31708",
    "city": "Ahnsen"
  },
  {
    "postcode": "31710",
    "city": "Buchholz bei Stadthagen"
  },
  {
    "postcode": "31710",
    "city": "Schaumburg"
  },
  {
    "postcode": "31710",
    "city": "Buchholz"
  },
  {
    "postcode": "31711",
    "city": "Luhden"
  },
  {
    "postcode": "31711",
    "city": "Luhden-Selliendorf"
  },
  {
    "postcode": "31711",
    "city": "Schermbeck"
  },
  {
    "postcode": "31711",
    "city": "Schaumburg"
  },
  {
    "postcode": "31712",
    "city": "Mittelbrink"
  },
  {
    "postcode": "31712",
    "city": "Niedernwöhren"
  },
  {
    "postcode": "31712",
    "city": "Wulfhagen"
  },
  {
    "postcode": "31712",
    "city": "Schaumburg"
  },
  {
    "postcode": "31712",
    "city": "Forsthaus Landwehr"
  },
  {
    "postcode": "31712",
    "city": "Wiehagen"
  },
  {
    "postcode": "31714",
    "city": "Hülshagen"
  },
  {
    "postcode": "31714",
    "city": "Lauenhagen"
  },
  {
    "postcode": "31714",
    "city": "Lauenhagen bei Stadthagen"
  },
  {
    "postcode": "31714",
    "city": "Schaumburg"
  },
  {
    "postcode": "31715",
    "city": "Kuckshagen"
  },
  {
    "postcode": "31715",
    "city": "Meerbeck"
  },
  {
    "postcode": "31715",
    "city": "Meerbeck bei Stadthagen"
  },
  {
    "postcode": "31715",
    "city": "Volksdorf"
  },
  {
    "postcode": "31715",
    "city": "Schaumburg"
  },
  {
    "postcode": "31715",
    "city": "Hiddenserborn"
  },
  {
    "postcode": "31717",
    "city": "Nordsehl"
  },
  {
    "postcode": "31717",
    "city": "Schaumburg"
  },
  {
    "postcode": "31718",
    "city": "Pollhagen"
  },
  {
    "postcode": "31718",
    "city": "Schaumburg"
  },
  {
    "postcode": "31719",
    "city": "Wiedensahl"
  },
  {
    "postcode": "31719",
    "city": "Schaumburg"
  },
  {
    "postcode": "31737",
    "city": "Ahe Kreis Grafschaft Schaumburg"
  },
  {
    "postcode": "31737",
    "city": "Ahe"
  },
  {
    "postcode": "31737",
    "city": "Deckbergen"
  },
  {
    "postcode": "31737",
    "city": "Engern Kreis Grafschaft Schaumburg"
  },
  {
    "postcode": "31737",
    "city": "Engern"
  },
  {
    "postcode": "31737",
    "city": "Exten"
  },
  {
    "postcode": "31737",
    "city": "Friedrichshöhe"
  },
  {
    "postcode": "31737",
    "city": "Friedrichswald"
  },
  {
    "postcode": "31737",
    "city": "Goldbeck Kreis Grafschaft Schaumburg"
  },
  {
    "postcode": "31737",
    "city": "Goldbeck"
  },
  {
    "postcode": "31737",
    "city": "Hohenrode Kreis Grafschaft Schaumburg"
  },
  {
    "postcode": "31737",
    "city": "Hohenrode"
  },
  {
    "postcode": "31737",
    "city": "Kohlenstädt Kreis Grafschaft Schaumburg"
  },
  {
    "postcode": "31737",
    "city": "Kohlenstädt"
  },
  {
    "postcode": "31737",
    "city": "Krankenhagen"
  },
  {
    "postcode": "31737",
    "city": "Möllenbeck Kreis Grafschaft Schaumburg"
  },
  {
    "postcode": "31737",
    "city": "Möllenbeck"
  },
  {
    "postcode": "31737",
    "city": "Rinteln"
  },
  {
    "postcode": "31737",
    "city": "Schaumburg Kreis Grafschaft Schaumburg"
  },
  {
    "postcode": "31737",
    "city": "Schaumburg"
  },
  {
    "postcode": "31737",
    "city": "Steinbergen Wesergebirge"
  },
  {
    "postcode": "31737",
    "city": "Steinbergen"
  },
  {
    "postcode": "31737",
    "city": "Strücken"
  },
  {
    "postcode": "31737",
    "city": "Todenmann"
  },
  {
    "postcode": "31737",
    "city": "Uchtdorf Kreis Grafschaft Schaumburg"
  },
  {
    "postcode": "31737",
    "city": "Uchtdorf"
  },
  {
    "postcode": "31737",
    "city": "Volksen Kreis Grafschaft Schaumburg"
  },
  {
    "postcode": "31737",
    "city": "Volksen"
  },
  {
    "postcode": "31737",
    "city": "Wennenkamp"
  },
  {
    "postcode": "31737",
    "city": "Westendorf"
  },
  {
    "postcode": "31737",
    "city": "Gemeinde Buchholz"
  },
  {
    "postcode": "31737",
    "city": "Großer Neelhof"
  },
  {
    "postcode": "31749",
    "city": "Altenhagen Kreis Grafschaft Schaumburg"
  },
  {
    "postcode": "31749",
    "city": "Altenhagen"
  },
  {
    "postcode": "31749",
    "city": "Antendorf"
  },
  {
    "postcode": "31749",
    "city": "Auetal"
  },
  {
    "postcode": "31749",
    "city": "Bernsen Kreis Grafschaft Schaumburg"
  },
  {
    "postcode": "31749",
    "city": "Bernsen"
  },
  {
    "postcode": "31749",
    "city": "Borstel Kreis Grafschaft Schaumburg"
  },
  {
    "postcode": "31749",
    "city": "Borstel"
  },
  {
    "postcode": "31749",
    "city": "Escher"
  },
  {
    "postcode": "31749",
    "city": "Hattendorf Kreis Grafschaft Schaumburg"
  },
  {
    "postcode": "31749",
    "city": "Hattendorf"
  },
  {
    "postcode": "31749",
    "city": "Kathrinhagen"
  },
  {
    "postcode": "31749",
    "city": "Klein Holtensen"
  },
  {
    "postcode": "31749",
    "city": "Poggenhagen bei Rinteln"
  },
  {
    "postcode": "31749",
    "city": "Raden Kreis Grafschaft Schaumburg"
  },
  {
    "postcode": "31749",
    "city": "Raden"
  },
  {
    "postcode": "31749",
    "city": "Rannenberg bei Rinteln"
  },
  {
    "postcode": "31749",
    "city": "Rehren bei Rinteln"
  },
  {
    "postcode": "31749",
    "city": "Rolfshagen Kreis Grafschaft Schaumburg"
  },
  {
    "postcode": "31749",
    "city": "Rolfshagen"
  },
  {
    "postcode": "31749",
    "city": "Schoholtensen"
  },
  {
    "postcode": "31749",
    "city": "Westerwald bei Rinteln"
  },
  {
    "postcode": "31749",
    "city": "Wiersen"
  },
  {
    "postcode": "31749",
    "city": "Schaumburg"
  },
  {
    "postcode": "31749",
    "city": "Rehren"
  },
  {
    "postcode": "31749",
    "city": "Rannenberg"
  },
  {
    "postcode": "31749",
    "city": "Gut Nienfeld"
  },
  {
    "postcode": "31749",
    "city": "Poggenhagen"
  },
  {
    "postcode": "31749",
    "city": "Westerwald"
  },
  {
    "postcode": "31785",
    "city": "Hameln"
  },
  {
    "postcode": "31785",
    "city": "Hameln-Pyrmont"
  },
  {
    "postcode": "31785",
    "city": "Innenstadt"
  },
  {
    "postcode": "31785",
    "city": "Gewerbegebiet Süd"
  },
  {
    "postcode": "31785",
    "city": "Güterbahnhof"
  },
  {
    "postcode": "31785",
    "city": "Am Schöt"
  },
  {
    "postcode": "31785",
    "city": "Nordstadt"
  },
  {
    "postcode": "31785",
    "city": "Südstadt"
  },
  {
    "postcode": "31785",
    "city": "Klütviertel"
  },
  {
    "postcode": "31787",
    "city": "Halvestorf"
  },
  {
    "postcode": "31787",
    "city": "Hameln"
  },
  {
    "postcode": "31787",
    "city": "Haverbeck"
  },
  {
    "postcode": "31787",
    "city": "Holtensen Kreis Hameln"
  },
  {
    "postcode": "31787",
    "city": "Holtensen"
  },
  {
    "postcode": "31787",
    "city": "Riepenburg"
  },
  {
    "postcode": "31787",
    "city": "Unsen"
  },
  {
    "postcode": "31787",
    "city": "Wehrbergen"
  },
  {
    "postcode": "31787",
    "city": "Welliehausen"
  },
  {
    "postcode": "31787",
    "city": "Hameln-Pyrmont"
  },
  {
    "postcode": "31787",
    "city": "Basberg"
  },
  {
    "postcode": "31787",
    "city": "Klütviertel"
  },
  {
    "postcode": "31787",
    "city": "Nordstadt"
  },
  {
    "postcode": "31787",
    "city": "Am Wehl"
  },
  {
    "postcode": "31787",
    "city": "Rotenberg"
  },
  {
    "postcode": "31787",
    "city": "Bismarckturm"
  },
  {
    "postcode": "31787",
    "city": "Innenstadt"
  },
  {
    "postcode": "31787",
    "city": "Finkenborn"
  },
  {
    "postcode": "31787",
    "city": "Am Schöt"
  },
  {
    "postcode": "31787",
    "city": "Friedrichswald"
  },
  {
    "postcode": "31787",
    "city": "Heisenküche"
  },
  {
    "postcode": "31787",
    "city": "Helpensen"
  },
  {
    "postcode": "31787",
    "city": "Klütturm"
  },
  {
    "postcode": "31787",
    "city": "Klütsüdhang"
  },
  {
    "postcode": "31787",
    "city": "Gem. Aerzen"
  },
  {
    "postcode": "31789",
    "city": "Afferde Kreis Hameln"
  },
  {
    "postcode": "31789",
    "city": "Afferde"
  },
  {
    "postcode": "31789",
    "city": "Hameln"
  },
  {
    "postcode": "31789",
    "city": "Hastenbeck"
  },
  {
    "postcode": "31789",
    "city": "Klein Berkel"
  },
  {
    "postcode": "31789",
    "city": "Rohrsen"
  },
  {
    "postcode": "31789",
    "city": "Tündern"
  },
  {
    "postcode": "31789",
    "city": "Wangelist"
  },
  {
    "postcode": "31789",
    "city": "Hameln-Pyrmont"
  },
  {
    "postcode": "31789",
    "city": "Hilligsfeld"
  },
  {
    "postcode": "31789",
    "city": "Gewerbegebiet Süd"
  },
  {
    "postcode": "31789",
    "city": "Galgenberg"
  },
  {
    "postcode": "31789",
    "city": "Klütsüdhang"
  },
  {
    "postcode": "31789",
    "city": "Südstadt"
  },
  {
    "postcode": "31789",
    "city": "Marienthal"
  },
  {
    "postcode": "31789",
    "city": "Klütviertel"
  },
  {
    "postcode": "31789",
    "city": "Tündernsche Warte"
  },
  {
    "postcode": "31789",
    "city": "Innenstadt"
  },
  {
    "postcode": "31812",
    "city": "Baarsen"
  },
  {
    "postcode": "31812",
    "city": "Bad Pyrmont"
  },
  {
    "postcode": "31812",
    "city": "Eichenborn bei Bad Pyrmont"
  },
  {
    "postcode": "31812",
    "city": "Großenberg bei Bad Pyrmont"
  },
  {
    "postcode": "31812",
    "city": "Hagen bei Bad Pyrmont"
  },
  {
    "postcode": "31812",
    "city": "Kleinenberg bei Bad Pyrmont"
  },
  {
    "postcode": "31812",
    "city": "Löwensen"
  },
  {
    "postcode": "31812",
    "city": "Neersen"
  },
  {
    "postcode": "31812",
    "city": "Thal bei Bad Pyrmont"
  },
  {
    "postcode": "31812",
    "city": "Hameln-Pyrmont"
  },
  {
    "postcode": "31812",
    "city": "Thal"
  },
  {
    "postcode": "31812",
    "city": "Kleinenberg"
  },
  {
    "postcode": "31812",
    "city": "Hagen"
  },
  {
    "postcode": "31812",
    "city": "Eichenborn"
  },
  {
    "postcode": "31812",
    "city": "Großenberg"
  },
  {
    "postcode": "31832",
    "city": "Alferde"
  },
  {
    "postcode": "31832",
    "city": "Altenhagen I"
  },
  {
    "postcode": "31832",
    "city": "Alvesrode"
  },
  {
    "postcode": "31832",
    "city": "Bennigsen"
  },
  {
    "postcode": "31832",
    "city": "Boitzum"
  },
  {
    "postcode": "31832",
    "city": "Dahle Domäne"
  },
  {
    "postcode": "31832",
    "city": "Dahle"
  },
  {
    "postcode": "31832",
    "city": "Eldagsen Deister"
  },
  {
    "postcode": "31832",
    "city": "Eldagsen"
  },
  {
    "postcode": "31832",
    "city": "Gestorf"
  },
  {
    "postcode": "31832",
    "city": "Holtensen bei Elze Leine"
  },
  {
    "postcode": "31832",
    "city": "Holtensen bei Elze"
  },
  {
    "postcode": "31832",
    "city": "Lüdersen"
  },
  {
    "postcode": "31832",
    "city": "Mittelrode Niedersachsen"
  },
  {
    "postcode": "31832",
    "city": "Mittelrode"
  },
  {
    "postcode": "31832",
    "city": "Springe"
  },
  {
    "postcode": "31832",
    "city": "Springe Deister"
  },
  {
    "postcode": "31832",
    "city": "Völksen"
  },
  {
    "postcode": "31832",
    "city": "Wülfinghausen"
  },
  {
    "postcode": "31832",
    "city": "Hannover"
  },
  {
    "postcode": "31832",
    "city": "Holtensen"
  },
  {
    "postcode": "31840",
    "city": "Barksen"
  },
  {
    "postcode": "31840",
    "city": "Bensen"
  },
  {
    "postcode": "31840",
    "city": "Fischbeck Weser"
  },
  {
    "postcode": "31840",
    "city": "Fischbeck"
  },
  {
    "postcode": "31840",
    "city": "Friedrichsburg Kreis Grafschaft Schaumburg"
  },
  {
    "postcode": "31840",
    "city": "Friedrichsburg"
  },
  {
    "postcode": "31840",
    "city": "Friedrichshagen"
  },
  {
    "postcode": "31840",
    "city": "Fuhlen"
  },
  {
    "postcode": "31840",
    "city": "Großenwieden"
  },
  {
    "postcode": "31840",
    "city": "Haddessen"
  },
  {
    "postcode": "31840",
    "city": "Hemeringen"
  },
  {
    "postcode": "31840",
    "city": "Heßlingen Kreis Grafschaft Schaumburg"
  },
  {
    "postcode": "31840",
    "city": "Heßlingen"
  },
  {
    "postcode": "31840",
    "city": "Hessisch Oldendorf"
  },
  {
    "postcode": "31840",
    "city": "Höfingen Kreis Grafschaft Schaumburg"
  },
  {
    "postcode": "31840",
    "city": "Höfingen"
  },
  {
    "postcode": "31840",
    "city": "Klein Heßlingen Kreis Grafschaft Schaumburg"
  },
  {
    "postcode": "31840",
    "city": "Klein Heßlingen"
  },
  {
    "postcode": "31840",
    "city": "Kleinenwieden"
  },
  {
    "postcode": "31840",
    "city": "Krückeberg"
  },
  {
    "postcode": "31840",
    "city": "Lachem"
  },
  {
    "postcode": "31840",
    "city": "Langenfeld Kreis Grafschaft Schaumburg"
  },
  {
    "postcode": "31840",
    "city": "Langenfeld"
  },
  {
    "postcode": "31840",
    "city": "Pötzen"
  },
  {
    "postcode": "31840",
    "city": "Rohden"
  },
  {
    "postcode": "31840",
    "city": "Rumbeck Kreis Grafschaft Schaumburg"
  },
  {
    "postcode": "31840",
    "city": "Rumbeck"
  },
  {
    "postcode": "31840",
    "city": "Segelhorst"
  },
  {
    "postcode": "31840",
    "city": "Wahrendahl"
  },
  {
    "postcode": "31840",
    "city": "Weibeck"
  },
  {
    "postcode": "31840",
    "city": "Welsede Kreis Grafschaft Schaumburg"
  },
  {
    "postcode": "31840",
    "city": "Welsede"
  },
  {
    "postcode": "31840",
    "city": "Wickbolsen"
  },
  {
    "postcode": "31840",
    "city": "Zersen"
  },
  {
    "postcode": "31840",
    "city": "Hameln-Pyrmont"
  },
  {
    "postcode": "31840",
    "city": "Texas"
  },
  {
    "postcode": "31848",
    "city": "Bad Münder"
  },
  {
    "postcode": "31848",
    "city": "Bad Münder am Deister"
  },
  {
    "postcode": "31848",
    "city": "Bakede"
  },
  {
    "postcode": "31848",
    "city": "Beber"
  },
  {
    "postcode": "31848",
    "city": "Böbber"
  },
  {
    "postcode": "31848",
    "city": "Brullsen"
  },
  {
    "postcode": "31848",
    "city": "Egestorf am Süntel"
  },
  {
    "postcode": "31848",
    "city": "Eimbeckhausen"
  },
  {
    "postcode": "31848",
    "city": "Flegessen"
  },
  {
    "postcode": "31848",
    "city": "Hachmühlen"
  },
  {
    "postcode": "31848",
    "city": "Hamelspringe"
  },
  {
    "postcode": "31848",
    "city": "Hasperde"
  },
  {
    "postcode": "31848",
    "city": "Klein Süntel"
  },
  {
    "postcode": "31848",
    "city": "Luttringhausen"
  },
  {
    "postcode": "31848",
    "city": "Nettelrede"
  },
  {
    "postcode": "31848",
    "city": "Nienstedt Deister"
  },
  {
    "postcode": "31848",
    "city": "Nienstedt"
  },
  {
    "postcode": "31848",
    "city": "Rohrsen bei Eimbeckhausen"
  },
  {
    "postcode": "31848",
    "city": "Hameln-Pyrmont"
  },
  {
    "postcode": "31848",
    "city": "Rohrsen"
  },
  {
    "postcode": "31848",
    "city": "Egestorf"
  },
  {
    "postcode": "31855",
    "city": "Aerzen"
  },
  {
    "postcode": "31855",
    "city": "Dehmke"
  },
  {
    "postcode": "31855",
    "city": "Dehmkerbrock"
  },
  {
    "postcode": "31855",
    "city": "Egge Kreis Hameln"
  },
  {
    "postcode": "31855",
    "city": "Egge"
  },
  {
    "postcode": "31855",
    "city": "Flakenholz"
  },
  {
    "postcode": "31855",
    "city": "Gellersen"
  },
  {
    "postcode": "31855",
    "city": "Grießem"
  },
  {
    "postcode": "31855",
    "city": "Groß Berkel"
  },
  {
    "postcode": "31855",
    "city": "Grupenhagen"
  },
  {
    "postcode": "31855",
    "city": "Herkendorf"
  },
  {
    "postcode": "31855",
    "city": "Königsförde"
  },
  {
    "postcode": "31855",
    "city": "Multhöpen"
  },
  {
    "postcode": "31855",
    "city": "Posteholz"
  },
  {
    "postcode": "31855",
    "city": "Reher Kreis Hameln"
  },
  {
    "postcode": "31855",
    "city": "Reher"
  },
  {
    "postcode": "31855",
    "city": "Reinerbeck"
  },
  {
    "postcode": "31855",
    "city": "Selxen"
  },
  {
    "postcode": "31855",
    "city": "Wördeholz"
  },
  {
    "postcode": "31855",
    "city": "Hameln-Pyrmont"
  },
  {
    "postcode": "31855",
    "city": "Rodenbeck"
  },
  {
    "postcode": "31855",
    "city": "Riepenburg"
  },
  {
    "postcode": "31855",
    "city": "Schevelstein"
  },
  {
    "postcode": "31860",
    "city": "Amelgatzen"
  },
  {
    "postcode": "31860",
    "city": "Bessinghausen"
  },
  {
    "postcode": "31860",
    "city": "Börry"
  },
  {
    "postcode": "31860",
    "city": "Brockensen"
  },
  {
    "postcode": "31860",
    "city": "Deitlevsen"
  },
  {
    "postcode": "31860",
    "city": "Emmern"
  },
  {
    "postcode": "31860",
    "city": "Emmerthal Niedersachsen"
  },
  {
    "postcode": "31860",
    "city": "Emmerthal"
  },
  {
    "postcode": "31860",
    "city": "Esperde"
  },
  {
    "postcode": "31860",
    "city": "Frenke"
  },
  {
    "postcode": "31860",
    "city": "Grohnde"
  },
  {
    "postcode": "31860",
    "city": "Hagenohsen"
  },
  {
    "postcode": "31860",
    "city": "Hajen Kreis Hameln"
  },
  {
    "postcode": "31860",
    "city": "Hajen"
  },
  {
    "postcode": "31860",
    "city": "Hämelschenburg"
  },
  {
    "postcode": "31860",
    "city": "Kirchohsen"
  },
  {
    "postcode": "31860",
    "city": "Latferde"
  },
  {
    "postcode": "31860",
    "city": "Lüntorf"
  },
  {
    "postcode": "31860",
    "city": "Ohr"
  },
  {
    "postcode": "31860",
    "city": "Völkerhausen"
  },
  {
    "postcode": "31860",
    "city": "Voremberg"
  },
  {
    "postcode": "31860",
    "city": "Welsede Kreis Hameln"
  },
  {
    "postcode": "31860",
    "city": "Welsede"
  },
  {
    "postcode": "31860",
    "city": "Hameln-Pyrmont"
  },
  {
    "postcode": "31860",
    "city": "Hanebülten"
  },
  {
    "postcode": "31863",
    "city": "Bäntorf"
  },
  {
    "postcode": "31863",
    "city": "Behrensen Kreis Hameln"
  },
  {
    "postcode": "31863",
    "city": "Behrensen"
  },
  {
    "postcode": "31863",
    "city": "Bessingen"
  },
  {
    "postcode": "31863",
    "city": "Bisperode"
  },
  {
    "postcode": "31863",
    "city": "Brünnighausen Kreis Hameln"
  },
  {
    "postcode": "31863",
    "city": "Brünnighausen"
  },
  {
    "postcode": "31863",
    "city": "Coppenbrügge"
  },
  {
    "postcode": "31863",
    "city": "Diedersen"
  },
  {
    "postcode": "31863",
    "city": "Dörpe"
  },
  {
    "postcode": "31863",
    "city": "Harderode"
  },
  {
    "postcode": "31863",
    "city": "Herkensen"
  },
  {
    "postcode": "31863",
    "city": "Hohnsen"
  },
  {
    "postcode": "31863",
    "city": "Marienau Kreis Hameln"
  },
  {
    "postcode": "31863",
    "city": "Marienau"
  },
  {
    "postcode": "31863",
    "city": "Salzburg"
  },
  {
    "postcode": "31863",
    "city": "Hameln-Pyrmont"
  },
  {
    "postcode": "31867",
    "city": "Altenhagen II"
  },
  {
    "postcode": "31867",
    "city": "Feggendorf"
  },
  {
    "postcode": "31867",
    "city": "Hülsede"
  },
  {
    "postcode": "31867",
    "city": "Lauenau"
  },
  {
    "postcode": "31867",
    "city": "Meinsen"
  },
  {
    "postcode": "31867",
    "city": "Messenkamp"
  },
  {
    "postcode": "31867",
    "city": "Pohle"
  },
  {
    "postcode": "31867",
    "city": "Schmarrie"
  },
  {
    "postcode": "31867",
    "city": "Schweiz"
  },
  {
    "postcode": "31867",
    "city": "Schaumburg"
  },
  {
    "postcode": "31867",
    "city": "Gemeinde Apelern"
  },
  {
    "postcode": "31868",
    "city": "Glesse"
  },
  {
    "postcode": "31868",
    "city": "Lichtenhagen bei Hameln"
  },
  {
    "postcode": "31868",
    "city": "Ottenstein"
  },
  {
    "postcode": "31868",
    "city": "Ottenstein Niedersachsen"
  },
  {
    "postcode": "31868",
    "city": "Holzminden"
  },
  {
    "postcode": "31868",
    "city": "Lichtenhagen"
  }
]