[
  {
    "postcode": "33014",
    "city": "Alhausen Westfalen"
  },
  {
    "postcode": "33014",
    "city": "Alhausen"
  },
  {
    "postcode": "33014",
    "city": "Bad Driburg"
  },
  {
    "postcode": "33014",
    "city": "Dringenberg"
  },
  {
    "postcode": "33014",
    "city": "Erpentrup"
  },
  {
    "postcode": "33014",
    "city": "Herste"
  },
  {
    "postcode": "33014",
    "city": "Kühlsen"
  },
  {
    "postcode": "33014",
    "city": "Langeland"
  },
  {
    "postcode": "33014",
    "city": "Neuenheerse"
  },
  {
    "postcode": "33014",
    "city": "Pömbsen"
  },
  {
    "postcode": "33014",
    "city": "Reelsen"
  },
  {
    "postcode": "33014",
    "city": "Siebenstern"
  },
  {
    "postcode": "33014",
    "city": "Höxter"
  },
  {
    "postcode": "33014",
    "city": "Bad Hermannsborn"
  },
  {
    "postcode": "33034",
    "city": "Auenhausen"
  },
  {
    "postcode": "33034",
    "city": "Beller"
  },
  {
    "postcode": "33034",
    "city": "Bellersen"
  },
  {
    "postcode": "33034",
    "city": "Bökendorf"
  },
  {
    "postcode": "33034",
    "city": "Brakel"
  },
  {
    "postcode": "33034",
    "city": "Brakel Westfalen"
  },
  {
    "postcode": "33034",
    "city": "Erkeln"
  },
  {
    "postcode": "33034",
    "city": "Frohnhausen Kreis Warburg Westfalen"
  },
  {
    "postcode": "33034",
    "city": "Frohnhausen"
  },
  {
    "postcode": "33034",
    "city": "Gehrden Westfalen"
  },
  {
    "postcode": "33034",
    "city": "Gehrden"
  },
  {
    "postcode": "33034",
    "city": "Hampenhausen Kreis Warburg Westfalen"
  },
  {
    "postcode": "33034",
    "city": "Hampenhausen"
  },
  {
    "postcode": "33034",
    "city": "Hembsen"
  },
  {
    "postcode": "33034",
    "city": "Hinnenburg"
  },
  {
    "postcode": "33034",
    "city": "Istrup bei Bad Driburg Westfalen"
  },
  {
    "postcode": "33034",
    "city": "Istrup bei Bad Driburg"
  },
  {
    "postcode": "33034",
    "city": "Rheder Nethe"
  },
  {
    "postcode": "33034",
    "city": "Rheder"
  },
  {
    "postcode": "33034",
    "city": "Riesel Westfalen"
  },
  {
    "postcode": "33034",
    "city": "Riesel"
  },
  {
    "postcode": "33034",
    "city": "Schmechten"
  },
  {
    "postcode": "33034",
    "city": "Siddessen"
  },
  {
    "postcode": "33034",
    "city": "Höxter"
  },
  {
    "postcode": "33034",
    "city": "Istrup"
  },
  {
    "postcode": "33039",
    "city": "Entrup bei Bad Pyrmont"
  },
  {
    "postcode": "33039",
    "city": "Himmighausen"
  },
  {
    "postcode": "33039",
    "city": "Holzhausen bei Bad Driburg Westfalen"
  },
  {
    "postcode": "33039",
    "city": "Holzhausen bei Bad Driburg"
  },
  {
    "postcode": "33039",
    "city": "Merlsheim"
  },
  {
    "postcode": "33039",
    "city": "Nieheim"
  },
  {
    "postcode": "33039",
    "city": "Oeynhausen"
  },
  {
    "postcode": "33039",
    "city": "Sommersell bei Steinheim Westfalen"
  },
  {
    "postcode": "33039",
    "city": "Sommersell bei Steinheim"
  },
  {
    "postcode": "33039",
    "city": "Höxter"
  },
  {
    "postcode": "33039",
    "city": "Sommersell"
  },
  {
    "postcode": "33039",
    "city": "Entrup"
  },
  {
    "postcode": "33039",
    "city": "Holzhausen"
  },
  {
    "postcode": "33098",
    "city": "Paderborn"
  },
  {
    "postcode": "33098",
    "city": "Kernstadt"
  },
  {
    "postcode": "33100",
    "city": "Benhausen"
  },
  {
    "postcode": "33100",
    "city": "Dahl Kreis Paderborn"
  },
  {
    "postcode": "33100",
    "city": "Dahl"
  },
  {
    "postcode": "33100",
    "city": "Marienloh"
  },
  {
    "postcode": "33100",
    "city": "Neuenbeken"
  },
  {
    "postcode": "33100",
    "city": "Paderborn"
  },
  {
    "postcode": "33100",
    "city": "Kernstadt"
  },
  {
    "postcode": "33102",
    "city": "Marienloh"
  },
  {
    "postcode": "33102",
    "city": "Paderborn"
  },
  {
    "postcode": "33102",
    "city": "Schloß Neuhaus"
  },
  {
    "postcode": "33102",
    "city": "Kernstadt"
  },
  {
    "postcode": "33104",
    "city": "Elsen Kreis Paderborn"
  },
  {
    "postcode": "33104",
    "city": "Elsen"
  },
  {
    "postcode": "33104",
    "city": "Marienloh"
  },
  {
    "postcode": "33104",
    "city": "Paderborn"
  },
  {
    "postcode": "33104",
    "city": "Sande Westfalen"
  },
  {
    "postcode": "33104",
    "city": "Sande"
  },
  {
    "postcode": "33104",
    "city": "Schloß Neuhaus"
  },
  {
    "postcode": "33104",
    "city": "Sennelager"
  },
  {
    "postcode": "33104",
    "city": "Kernstadt"
  },
  {
    "postcode": "33106",
    "city": "Elsen Kreis Paderborn"
  },
  {
    "postcode": "33106",
    "city": "Elsen"
  },
  {
    "postcode": "33106",
    "city": "Paderborn"
  },
  {
    "postcode": "33106",
    "city": "Sande Westfalen"
  },
  {
    "postcode": "33106",
    "city": "Sande"
  },
  {
    "postcode": "33106",
    "city": "Schloß Neuhaus"
  },
  {
    "postcode": "33106",
    "city": "Sennelager"
  },
  {
    "postcode": "33106",
    "city": "Wewer"
  },
  {
    "postcode": "33106",
    "city": "Kernstadt"
  },
  {
    "postcode": "33129",
    "city": "Anreppen"
  },
  {
    "postcode": "33129",
    "city": "Bentfeld"
  },
  {
    "postcode": "33129",
    "city": "Boke Westfalen"
  },
  {
    "postcode": "33129",
    "city": "Boke"
  },
  {
    "postcode": "33129",
    "city": "Delbrück"
  },
  {
    "postcode": "33129",
    "city": "Hagen Kreis Paderborn"
  },
  {
    "postcode": "33129",
    "city": "Hagen"
  },
  {
    "postcode": "33129",
    "city": "Lippling Kreis Paderborn"
  },
  {
    "postcode": "33129",
    "city": "Lippling"
  },
  {
    "postcode": "33129",
    "city": "Ostenland"
  },
  {
    "postcode": "33129",
    "city": "Schöning Kreis Paderborn"
  },
  {
    "postcode": "33129",
    "city": "Schöning"
  },
  {
    "postcode": "33129",
    "city": "Steinhorst Kreis Paderborn"
  },
  {
    "postcode": "33129",
    "city": "Steinhorst"
  },
  {
    "postcode": "33129",
    "city": "Westenholz Kreis Paderborn"
  },
  {
    "postcode": "33129",
    "city": "Westenholz"
  },
  {
    "postcode": "33129",
    "city": "Paderborn"
  },
  {
    "postcode": "33129",
    "city": "Sudhagen"
  },
  {
    "postcode": "33142",
    "city": "Ahden Kreis Büren Westfalen"
  },
  {
    "postcode": "33142",
    "city": "Ahden"
  },
  {
    "postcode": "33142",
    "city": "Barkhausen Kreis Büren Westfalen"
  },
  {
    "postcode": "33142",
    "city": "Barkhausen"
  },
  {
    "postcode": "33142",
    "city": "Brenken"
  },
  {
    "postcode": "33142",
    "city": "Büren"
  },
  {
    "postcode": "33142",
    "city": "Büren Westfalen"
  },
  {
    "postcode": "33142",
    "city": "Eickhoff"
  },
  {
    "postcode": "33142",
    "city": "Harth Kreis Büren Westfalen"
  },
  {
    "postcode": "33142",
    "city": "Harth"
  },
  {
    "postcode": "33142",
    "city": "Hegensdorf"
  },
  {
    "postcode": "33142",
    "city": "Siddinghausen Kreis Büren Westfalen"
  },
  {
    "postcode": "33142",
    "city": "Siddinghausen"
  },
  {
    "postcode": "33142",
    "city": "Steinhausen Kreis Büren Westfalen"
  },
  {
    "postcode": "33142",
    "city": "Steinhausen"
  },
  {
    "postcode": "33142",
    "city": "Weiberg"
  },
  {
    "postcode": "33142",
    "city": "Weine"
  },
  {
    "postcode": "33142",
    "city": "Wewelsburg"
  },
  {
    "postcode": "33142",
    "city": "Paderborn"
  },
  {
    "postcode": "33154",
    "city": "Bosenholz"
  },
  {
    "postcode": "33154",
    "city": "Dreckburg"
  },
  {
    "postcode": "33154",
    "city": "Mantinghausen"
  },
  {
    "postcode": "33154",
    "city": "Niederntudorf"
  },
  {
    "postcode": "33154",
    "city": "Oberntudorf"
  },
  {
    "postcode": "33154",
    "city": "Salzkotten"
  },
  {
    "postcode": "33154",
    "city": "Scharmede"
  },
  {
    "postcode": "33154",
    "city": "Schwelle"
  },
  {
    "postcode": "33154",
    "city": "Thüle Westfalen"
  },
  {
    "postcode": "33154",
    "city": "Thüle"
  },
  {
    "postcode": "33154",
    "city": "Upsprunge"
  },
  {
    "postcode": "33154",
    "city": "Verlar"
  },
  {
    "postcode": "33154",
    "city": "Verne Westfalen"
  },
  {
    "postcode": "33154",
    "city": "Verne"
  },
  {
    "postcode": "33154",
    "city": "Weltsöden"
  },
  {
    "postcode": "33154",
    "city": "Wewer"
  },
  {
    "postcode": "33154",
    "city": "Paderborn"
  },
  {
    "postcode": "33161",
    "city": "Espeln"
  },
  {
    "postcode": "33161",
    "city": "Hövelhof"
  },
  {
    "postcode": "33161",
    "city": "Hövelriege"
  },
  {
    "postcode": "33161",
    "city": "Klausheide"
  },
  {
    "postcode": "33161",
    "city": "Sennelager"
  },
  {
    "postcode": "33161",
    "city": "Staumühle"
  },
  {
    "postcode": "33161",
    "city": "Paderborn"
  },
  {
    "postcode": "33161",
    "city": "Riege"
  },
  {
    "postcode": "33165",
    "city": "Asseln"
  },
  {
    "postcode": "33165",
    "city": "Atteln"
  },
  {
    "postcode": "33165",
    "city": "Blankenrode"
  },
  {
    "postcode": "33165",
    "city": "Dalheim Kreis Büren Westfalen"
  },
  {
    "postcode": "33165",
    "city": "Dalheim"
  },
  {
    "postcode": "33165",
    "city": "Ebbinghausen"
  },
  {
    "postcode": "33165",
    "city": "Grundsteinheim"
  },
  {
    "postcode": "33165",
    "city": "Hakenberg Kreis Büren Westfalen"
  },
  {
    "postcode": "33165",
    "city": "Hakenberg"
  },
  {
    "postcode": "33165",
    "city": "Henglarn"
  },
  {
    "postcode": "33165",
    "city": "Herbram"
  },
  {
    "postcode": "33165",
    "city": "Holtheim"
  },
  {
    "postcode": "33165",
    "city": "Husen Kreis Büren Westfalen"
  },
  {
    "postcode": "33165",
    "city": "Husen"
  },
  {
    "postcode": "33165",
    "city": "Iggenhausen Westfalen"
  },
  {
    "postcode": "33165",
    "city": "Iggenhausen"
  },
  {
    "postcode": "33165",
    "city": "Kleinenberg Kreis Büren Westfalen"
  },
  {
    "postcode": "33165",
    "city": "Kleinenberg"
  },
  {
    "postcode": "33165",
    "city": "Lichtenau Westfalen"
  },
  {
    "postcode": "33165",
    "city": "Lichtenau"
  },
  {
    "postcode": "33165",
    "city": "Paderborn"
  },
  {
    "postcode": "33165",
    "city": "Herbram-Wald"
  },
  {
    "postcode": "33175",
    "city": "Bad Lippspringe"
  },
  {
    "postcode": "33175",
    "city": "Dumberg"
  },
  {
    "postcode": "33175",
    "city": "Senne"
  },
  {
    "postcode": "33175",
    "city": "Paderborn"
  },
  {
    "postcode": "33178",
    "city": "Alfen"
  },
  {
    "postcode": "33178",
    "city": "Borchen"
  },
  {
    "postcode": "33178",
    "city": "Dörenhagen"
  },
  {
    "postcode": "33178",
    "city": "Etteln"
  },
  {
    "postcode": "33178",
    "city": "Kirchborchen"
  },
  {
    "postcode": "33178",
    "city": "Nordborchen"
  },
  {
    "postcode": "33178",
    "city": "Schloß Hamborn"
  },
  {
    "postcode": "33178",
    "city": "Paderborn"
  },
  {
    "postcode": "33181",
    "city": "Bad Wünnenberg"
  },
  {
    "postcode": "33181",
    "city": "Bleiwäsche"
  },
  {
    "postcode": "33181",
    "city": "Elisenhof Kreis Büren Westfalen"
  },
  {
    "postcode": "33181",
    "city": "Elisenhof"
  },
  {
    "postcode": "33181",
    "city": "Fürstenberg Kreis Büren Westfalen"
  },
  {
    "postcode": "33181",
    "city": "Fürstenberg"
  },
  {
    "postcode": "33181",
    "city": "Haaren Kreis Büren Westfalen"
  },
  {
    "postcode": "33181",
    "city": "Haaren"
  },
  {
    "postcode": "33181",
    "city": "Helmern Kreis Büren Westfalen"
  },
  {
    "postcode": "33181",
    "city": "Helmern"
  },
  {
    "postcode": "33181",
    "city": "Leiberg"
  },
  {
    "postcode": "33181",
    "city": "Paderborn"
  },
  {
    "postcode": "33181",
    "city": "Eilern"
  },
  {
    "postcode": "33184",
    "city": "Altenbeken"
  },
  {
    "postcode": "33184",
    "city": "Buke"
  },
  {
    "postcode": "33184",
    "city": "Schwaney"
  },
  {
    "postcode": "33184",
    "city": "Paderborn"
  },
  {
    "postcode": "33189",
    "city": "Kohlstädt"
  },
  {
    "postcode": "33189",
    "city": "Oesterholz-Haustenbeck"
  },
  {
    "postcode": "33189",
    "city": "Schlangen"
  },
  {
    "postcode": "33189",
    "city": "Lippe"
  },
  {
    "postcode": "33330",
    "city": "Gütersloh"
  },
  {
    "postcode": "33330",
    "city": "Innenstadt"
  },
  {
    "postcode": "33332",
    "city": "Gütersloh"
  },
  {
    "postcode": "33332",
    "city": "Innenstadt"
  },
  {
    "postcode": "33332",
    "city": "Spexard"
  },
  {
    "postcode": "33334",
    "city": "Avenwedde"
  },
  {
    "postcode": "33334",
    "city": "Gütersloh"
  },
  {
    "postcode": "33334",
    "city": "Hollen bei Gütersloh"
  },
  {
    "postcode": "33334",
    "city": "Isselhorst"
  },
  {
    "postcode": "33334",
    "city": "Niehorst"
  },
  {
    "postcode": "33334",
    "city": "Innenstadt"
  },
  {
    "postcode": "33334",
    "city": "Spexard"
  },
  {
    "postcode": "33334",
    "city": "Hollen"
  },
  {
    "postcode": "33334",
    "city": "Ebbesloh"
  },
  {
    "postcode": "33335",
    "city": "Avenwedde"
  },
  {
    "postcode": "33335",
    "city": "Friedrichsdorf Westfalen"
  },
  {
    "postcode": "33335",
    "city": "Friedrichsdorf"
  },
  {
    "postcode": "33335",
    "city": "Gütersloh"
  },
  {
    "postcode": "33335",
    "city": "Innenstadt"
  },
  {
    "postcode": "33335",
    "city": "Spexard"
  },
  {
    "postcode": "33378",
    "city": "Batenhorst"
  },
  {
    "postcode": "33378",
    "city": "Rheda"
  },
  {
    "postcode": "33378",
    "city": "Rheda-Wiedenbrück"
  },
  {
    "postcode": "33378",
    "city": "Sankt Vit"
  },
  {
    "postcode": "33378",
    "city": "Sankt Vit"
  },
  {
    "postcode": "33378",
    "city": "Wiedenbrück"
  },
  {
    "postcode": "33378",
    "city": "Gütersloh"
  },
  {
    "postcode": "33378",
    "city": "Lintel"
  },
  {
    "postcode": "33378",
    "city": "St. Vit"
  },
  {
    "postcode": "33397",
    "city": "Bokel Kreis Wiedenbrück"
  },
  {
    "postcode": "33397",
    "city": "Bokel"
  },
  {
    "postcode": "33397",
    "city": "Druffel Kreis Wiedenbrück"
  },
  {
    "postcode": "33397",
    "city": "Druffel"
  },
  {
    "postcode": "33397",
    "city": "Mastholte"
  },
  {
    "postcode": "33397",
    "city": "Neuenkirchen Kreis Wiedenbrück"
  },
  {
    "postcode": "33397",
    "city": "Neuenkirchen"
  },
  {
    "postcode": "33397",
    "city": "Rietberg"
  },
  {
    "postcode": "33397",
    "city": "Varensell"
  },
  {
    "postcode": "33397",
    "city": "Westerwiehe Kreis Wiedenbrück"
  },
  {
    "postcode": "33397",
    "city": "Westerwiehe"
  },
  {
    "postcode": "33397",
    "city": "Gütersloh"
  },
  {
    "postcode": "33415",
    "city": "Bornholte Bahnhof"
  },
  {
    "postcode": "33415",
    "city": "Kaunitz"
  },
  {
    "postcode": "33415",
    "city": "Sürenheide"
  },
  {
    "postcode": "33415",
    "city": "Verl"
  },
  {
    "postcode": "33415",
    "city": "Gütersloh"
  },
  {
    "postcode": "33415",
    "city": "Bornholte Bhf"
  },
  {
    "postcode": "33415",
    "city": "Sende"
  },
  {
    "postcode": "33415",
    "city": "Göhrenwiesen"
  },
  {
    "postcode": "33428",
    "city": "Greffen Kreis Warendorf"
  },
  {
    "postcode": "33428",
    "city": "Greffen"
  },
  {
    "postcode": "33428",
    "city": "Harsewinkel"
  },
  {
    "postcode": "33428",
    "city": "Überems"
  },
  {
    "postcode": "33428",
    "city": "Gütersloh"
  },
  {
    "postcode": "33428",
    "city": "Marienfeld"
  },
  {
    "postcode": "33442",
    "city": "Clarholz"
  },
  {
    "postcode": "33442",
    "city": "Herzebrock"
  },
  {
    "postcode": "33442",
    "city": "Herzebrock-Clarholz"
  },
  {
    "postcode": "33442",
    "city": "Gütersloh"
  },
  {
    "postcode": "33449",
    "city": "Benteler"
  },
  {
    "postcode": "33449",
    "city": "Langenberg Kreis Gütersloh"
  },
  {
    "postcode": "33449",
    "city": "Langenberg"
  },
  {
    "postcode": "33449",
    "city": "Gütersloh"
  },
  {
    "postcode": "33449",
    "city": "Selhorst"
  },
  {
    "postcode": "33602",
    "city": "Bielefeld"
  },
  {
    "postcode": "33602",
    "city": "Innenstadt"
  },
  {
    "postcode": "33604",
    "city": "Bielefeld"
  },
  {
    "postcode": "33604",
    "city": "Sieker"
  },
  {
    "postcode": "33604",
    "city": "Innenstadt"
  },
  {
    "postcode": "33605",
    "city": "Bielefeld"
  },
  {
    "postcode": "33605",
    "city": "Sieker"
  },
  {
    "postcode": "33605",
    "city": "Stieghorst"
  },
  {
    "postcode": "33607",
    "city": "Bielefeld"
  },
  {
    "postcode": "33607",
    "city": "Innenstadt"
  },
  {
    "postcode": "33607",
    "city": "Heepen"
  },
  {
    "postcode": "33609",
    "city": "Bielefeld"
  },
  {
    "postcode": "33609",
    "city": "Schildesche"
  },
  {
    "postcode": "33609",
    "city": "Innenstadt"
  },
  {
    "postcode": "33609",
    "city": "Baumheide"
  },
  {
    "postcode": "33611",
    "city": "Bielefeld"
  },
  {
    "postcode": "33611",
    "city": "Schildesche"
  },
  {
    "postcode": "33613",
    "city": "Babenhausen Westfalen"
  },
  {
    "postcode": "33613",
    "city": "Babenhausen"
  },
  {
    "postcode": "33613",
    "city": "Bielefeld"
  },
  {
    "postcode": "33613",
    "city": "Gellershagen Westfalen"
  },
  {
    "postcode": "33613",
    "city": "Gellershagen"
  },
  {
    "postcode": "33613",
    "city": "Innenstadt"
  },
  {
    "postcode": "33615",
    "city": "Bielefeld"
  },
  {
    "postcode": "33615",
    "city": "Gellershagen Westfalen"
  },
  {
    "postcode": "33615",
    "city": "Gellershagen"
  },
  {
    "postcode": "33615",
    "city": "Großdornberg"
  },
  {
    "postcode": "33615",
    "city": "Innenstadt"
  },
  {
    "postcode": "33617",
    "city": "Bielefeld"
  },
  {
    "postcode": "33617",
    "city": "Gadderbaum Kreis Bielefeld"
  },
  {
    "postcode": "33617",
    "city": "Gadderbaum"
  },
  {
    "postcode": "33617",
    "city": "Innenstadt"
  },
  {
    "postcode": "33619",
    "city": "Babenhausen Westfalen"
  },
  {
    "postcode": "33619",
    "city": "Babenhausen"
  },
  {
    "postcode": "33619",
    "city": "Bielefeld"
  },
  {
    "postcode": "33619",
    "city": "Deppendorf Kreis Halle Westfalen"
  },
  {
    "postcode": "33619",
    "city": "Deppendorf"
  },
  {
    "postcode": "33619",
    "city": "Großdornberg"
  },
  {
    "postcode": "33619",
    "city": "Hoberge-Uerentrup"
  },
  {
    "postcode": "33619",
    "city": "Kirchdornberg"
  },
  {
    "postcode": "33619",
    "city": "Niederdornberg"
  },
  {
    "postcode": "33619",
    "city": "Schildesche"
  },
  {
    "postcode": "33619",
    "city": "Schröttinghausen Kreis Halle Westfalen"
  },
  {
    "postcode": "33619",
    "city": "Schröttinghausen"
  },
  {
    "postcode": "33619",
    "city": "Innenstadt"
  },
  {
    "postcode": "33647",
    "city": "Bielefeld"
  },
  {
    "postcode": "33647",
    "city": "Brackwede Westfalen"
  },
  {
    "postcode": "33647",
    "city": "Brackwede"
  },
  {
    "postcode": "33647",
    "city": "Senne"
  },
  {
    "postcode": "33647",
    "city": "Ummeln Kreis Bielefeld"
  },
  {
    "postcode": "33647",
    "city": "Ummeln"
  },
  {
    "postcode": "33649",
    "city": "Bielefeld"
  },
  {
    "postcode": "33649",
    "city": "Brackwede Westfalen"
  },
  {
    "postcode": "33649",
    "city": "Brackwede"
  },
  {
    "postcode": "33649",
    "city": "Holtkamp"
  },
  {
    "postcode": "33649",
    "city": "Quelle"
  },
  {
    "postcode": "33649",
    "city": "Ummeln Kreis Bielefeld"
  },
  {
    "postcode": "33649",
    "city": "Ummeln"
  },
  {
    "postcode": "33659",
    "city": "Bielefeld"
  },
  {
    "postcode": "33659",
    "city": "Senne"
  },
  {
    "postcode": "33689",
    "city": "Bielefeld"
  },
  {
    "postcode": "33689",
    "city": "Dalbke"
  },
  {
    "postcode": "33689",
    "city": "Sennestadt"
  },
  {
    "postcode": "33699",
    "city": "Bielefeld"
  },
  {
    "postcode": "33699",
    "city": "Gräfinghagen"
  },
  {
    "postcode": "33699",
    "city": "Hillegossen"
  },
  {
    "postcode": "33699",
    "city": "Lämershagen"
  },
  {
    "postcode": "33699",
    "city": "Ubbedissen"
  },
  {
    "postcode": "33719",
    "city": "Altenhagen Kreis Bielefeld"
  },
  {
    "postcode": "33719",
    "city": "Altenhagen"
  },
  {
    "postcode": "33719",
    "city": "Bielefeld"
  },
  {
    "postcode": "33719",
    "city": "Brönninghausen"
  },
  {
    "postcode": "33719",
    "city": "Heepen"
  },
  {
    "postcode": "33719",
    "city": "Oldentrup"
  },
  {
    "postcode": "33719",
    "city": "Ubbedissen"
  },
  {
    "postcode": "33729",
    "city": "Altenhagen Kreis Bielefeld"
  },
  {
    "postcode": "33729",
    "city": "Altenhagen"
  },
  {
    "postcode": "33729",
    "city": "Bielefeld"
  },
  {
    "postcode": "33729",
    "city": "Milse"
  },
  {
    "postcode": "33729",
    "city": "Brake"
  },
  {
    "postcode": "33739",
    "city": "Babenhausen Westfalen"
  },
  {
    "postcode": "33739",
    "city": "Babenhausen"
  },
  {
    "postcode": "33739",
    "city": "Bielefeld"
  },
  {
    "postcode": "33739",
    "city": "Deppendorf Kreis Halle Westfalen"
  },
  {
    "postcode": "33739",
    "city": "Deppendorf"
  },
  {
    "postcode": "33739",
    "city": "Jöllenbeck"
  },
  {
    "postcode": "33739",
    "city": "Niederdornberg"
  },
  {
    "postcode": "33739",
    "city": "Schröttinghausen Kreis Halle Westfalen"
  },
  {
    "postcode": "33739",
    "city": "Schröttinghausen"
  },
  {
    "postcode": "33739",
    "city": "Theesen Kreis Bielefeld"
  },
  {
    "postcode": "33739",
    "city": "Theesen"
  },
  {
    "postcode": "33739",
    "city": "Vilsendorf"
  },
  {
    "postcode": "33758",
    "city": "Liemke"
  },
  {
    "postcode": "33758",
    "city": "Schloß Holte-Stukenbrock Stadt Gütersloh"
  },
  {
    "postcode": "33758",
    "city": "Schloß Holte-Stukenbrock"
  },
  {
    "postcode": "33758",
    "city": "Sende"
  },
  {
    "postcode": "33758",
    "city": "Stukenbrock"
  },
  {
    "postcode": "33758",
    "city": "Gütersloh"
  },
  {
    "postcode": "33758",
    "city": "Stukenbrock-Senne"
  },
  {
    "postcode": "33758",
    "city": "Schloß Holte"
  },
  {
    "postcode": "33758",
    "city": "Mergelheide"
  },
  {
    "postcode": "33775",
    "city": "Bockhorst Teutoburger Wald"
  },
  {
    "postcode": "33775",
    "city": "Bockhorst"
  },
  {
    "postcode": "33775",
    "city": "Hesselteich"
  },
  {
    "postcode": "33775",
    "city": "Loxten"
  },
  {
    "postcode": "33775",
    "city": "Oesterweg"
  },
  {
    "postcode": "33775",
    "city": "Peckeloh"
  },
  {
    "postcode": "33775",
    "city": "Versmold"
  },
  {
    "postcode": "33775",
    "city": "Gütersloh"
  },
  {
    "postcode": "33775",
    "city": "Knetterhausen"
  },
  {
    "postcode": "33775",
    "city": "Peifuß"
  },
  {
    "postcode": "33790",
    "city": "Ascheloh Westfalen"
  },
  {
    "postcode": "33790",
    "city": "Ascheloh"
  },
  {
    "postcode": "33790",
    "city": "Bokel Westfalen"
  },
  {
    "postcode": "33790",
    "city": "Bokel"
  },
  {
    "postcode": "33790",
    "city": "Eggeberg Westfalen"
  },
  {
    "postcode": "33790",
    "city": "Eggeberg"
  },
  {
    "postcode": "33790",
    "city": "Halle"
  },
  {
    "postcode": "33790",
    "city": "Halle (Westfalen)"
  },
  {
    "postcode": "33790",
    "city": "Hesseln Westfalen"
  },
  {
    "postcode": "33790",
    "city": "Hesseln"
  },
  {
    "postcode": "33790",
    "city": "Hörste Kreis Halle Westfalen"
  },
  {
    "postcode": "33790",
    "city": "Hörste"
  },
  {
    "postcode": "33790",
    "city": "Kölkebeck"
  },
  {
    "postcode": "33790",
    "city": "Künsebeck"
  },
  {
    "postcode": "33790",
    "city": "Gütersloh"
  },
  {
    "postcode": "33790",
    "city": "Halle (Westf.)"
  },
  {
    "postcode": "33790",
    "city": "Tatenhausen"
  },
  {
    "postcode": "33803",
    "city": "Amshausen"
  },
  {
    "postcode": "33803",
    "city": "Brockhagen"
  },
  {
    "postcode": "33803",
    "city": "Steinhagen Westfalen"
  },
  {
    "postcode": "33803",
    "city": "Steinhagen"
  },
  {
    "postcode": "33803",
    "city": "Gütersloh"
  },
  {
    "postcode": "33803",
    "city": "Heimchen"
  },
  {
    "postcode": "33803",
    "city": "Nieder-Amshausen"
  },
  {
    "postcode": "33803",
    "city": "Rote Erde"
  },
  {
    "postcode": "33813",
    "city": "Helpup"
  },
  {
    "postcode": "33813",
    "city": "Lipperreihe"
  },
  {
    "postcode": "33813",
    "city": "Oerlinghausen"
  },
  {
    "postcode": "33813",
    "city": "Währentrup"
  },
  {
    "postcode": "33813",
    "city": "Lippe"
  },
  {
    "postcode": "33818",
    "city": "Asemissen"
  },
  {
    "postcode": "33818",
    "city": "Bechterdissen"
  },
  {
    "postcode": "33818",
    "city": "Bexterhagen"
  },
  {
    "postcode": "33818",
    "city": "Greste"
  },
  {
    "postcode": "33818",
    "city": "Krentrup"
  },
  {
    "postcode": "33818",
    "city": "Leopoldshöhe"
  },
  {
    "postcode": "33818",
    "city": "Nienhagen"
  },
  {
    "postcode": "33818",
    "city": "Schuckenbaum"
  },
  {
    "postcode": "33818",
    "city": "Lippe"
  },
  {
    "postcode": "33818",
    "city": "Evenhausen"
  },
  {
    "postcode": "33824",
    "city": "Häger"
  },
  {
    "postcode": "33824",
    "city": "Theenhausen"
  },
  {
    "postcode": "33824",
    "city": "Werther"
  },
  {
    "postcode": "33824",
    "city": "Werther (Westfalen)"
  },
  {
    "postcode": "33824",
    "city": "Gütersloh"
  },
  {
    "postcode": "33824",
    "city": "Werther (Westf.)"
  },
  {
    "postcode": "33829",
    "city": "Barnhausen"
  },
  {
    "postcode": "33829",
    "city": "Berghausen"
  },
  {
    "postcode": "33829",
    "city": "Borgholzhausen"
  },
  {
    "postcode": "33829",
    "city": "Cleve"
  },
  {
    "postcode": "33829",
    "city": "Holtfeld"
  },
  {
    "postcode": "33829",
    "city": "Kleekamp"
  },
  {
    "postcode": "33829",
    "city": "Ostbarthausen"
  },
  {
    "postcode": "33829",
    "city": "Westbarthausen"
  },
  {
    "postcode": "33829",
    "city": "Wichlinghausen"
  },
  {
    "postcode": "33829",
    "city": "Gütersloh"
  },
  {
    "postcode": "33829",
    "city": "Oldendorf"
  },
  {
    "postcode": "33829",
    "city": "Bödinghausen"
  },
  {
    "postcode": "33829",
    "city": "Casum"
  },
  {
    "postcode": "33829",
    "city": "Hamlingdorf"
  },
  {
    "postcode": "33333",
    "city": "Gütersloh"
  },
  {
    "postcode": "33333",
    "city": "Spexard"
  }
]