[
  {
    "postcode": "97070",
    "city": "Würzburg"
  },
  {
    "postcode": "97070",
    "city": "Altstadt"
  },
  {
    "postcode": "97072",
    "city": "Würzburg"
  },
  {
    "postcode": "97072",
    "city": "Sanderau"
  },
  {
    "postcode": "97072",
    "city": "Altstadt"
  },
  {
    "postcode": "97074",
    "city": "Würzburg"
  },
  {
    "postcode": "97074",
    "city": "Frauenland"
  },
  {
    "postcode": "97074",
    "city": "Sanderau"
  },
  {
    "postcode": "97076",
    "city": "Lengfeld Kreis Würzburg"
  },
  {
    "postcode": "97076",
    "city": "Lengfeld"
  },
  {
    "postcode": "97076",
    "city": "Würzburg"
  },
  {
    "postcode": "97076",
    "city": "Grombühl"
  },
  {
    "postcode": "97078",
    "city": "Versbach"
  },
  {
    "postcode": "97078",
    "city": "Würzburg"
  },
  {
    "postcode": "97078",
    "city": "Lindleinsmühle"
  },
  {
    "postcode": "97078",
    "city": "Grombühl"
  },
  {
    "postcode": "97080",
    "city": "Oberdürrbach"
  },
  {
    "postcode": "97080",
    "city": "Unterdürrbach"
  },
  {
    "postcode": "97080",
    "city": "Würzburg"
  },
  {
    "postcode": "97080",
    "city": "Dürrbachau"
  },
  {
    "postcode": "97080",
    "city": "Grombühl"
  },
  {
    "postcode": "97080",
    "city": "Altstadt"
  },
  {
    "postcode": "97082",
    "city": "Heidingsfeld"
  },
  {
    "postcode": "97082",
    "city": "Markt Höchberg"
  },
  {
    "postcode": "97082",
    "city": "Würzburg"
  },
  {
    "postcode": "97082",
    "city": "Steinbachtal"
  },
  {
    "postcode": "97082",
    "city": "Zellerau"
  },
  {
    "postcode": "97082",
    "city": "Altstadt"
  },
  {
    "postcode": "97084",
    "city": "Heidingsfeld"
  },
  {
    "postcode": "97084",
    "city": "Rottenbauer"
  },
  {
    "postcode": "97084",
    "city": "Würzburg"
  },
  {
    "postcode": "97084",
    "city": "Heuchelhof"
  },
  {
    "postcode": "97199",
    "city": "Darstadt am Main"
  },
  {
    "postcode": "97199",
    "city": "Erlach Kreis Ochsenfurt"
  },
  {
    "postcode": "97199",
    "city": "Erlach"
  },
  {
    "postcode": "97199",
    "city": "Goßmannsdorf am Main"
  },
  {
    "postcode": "97199",
    "city": "Hohestadt"
  },
  {
    "postcode": "97199",
    "city": "Hopferstadt"
  },
  {
    "postcode": "97199",
    "city": "Kleinochsenfurt"
  },
  {
    "postcode": "97199",
    "city": "Ochsenfurt"
  },
  {
    "postcode": "97199",
    "city": "Ochsenfurt Unterfranken"
  },
  {
    "postcode": "97199",
    "city": "Tückelhausen"
  },
  {
    "postcode": "97199",
    "city": "Zeubelried"
  },
  {
    "postcode": "97199",
    "city": "Würzburg"
  },
  {
    "postcode": "97199",
    "city": "Darstadt"
  },
  {
    "postcode": "97199",
    "city": "Goßmannsdorf"
  },
  {
    "postcode": "97199",
    "city": "Eßfeld"
  },
  {
    "postcode": "97204",
    "city": "Höchberg"
  },
  {
    "postcode": "97204",
    "city": "Würzburg"
  },
  {
    "postcode": "97209",
    "city": "Veitshöchheim"
  },
  {
    "postcode": "97209",
    "city": "Würzburg"
  },
  {
    "postcode": "97209",
    "city": "Gadheim"
  },
  {
    "postcode": "97215",
    "city": "Adelhofen"
  },
  {
    "postcode": "97215",
    "city": "Auernhofen"
  },
  {
    "postcode": "97215",
    "city": "Brackenlohr"
  },
  {
    "postcode": "97215",
    "city": "Custenlohr"
  },
  {
    "postcode": "97215",
    "city": "Equarhofen"
  },
  {
    "postcode": "97215",
    "city": "Geckenheim"
  },
  {
    "postcode": "97215",
    "city": "Hohlach"
  },
  {
    "postcode": "97215",
    "city": "Kleinharbach"
  },
  {
    "postcode": "97215",
    "city": "Langensteinach"
  },
  {
    "postcode": "97215",
    "city": "Reusch bei Würzburg"
  },
  {
    "postcode": "97215",
    "city": "Rudolzhofen"
  },
  {
    "postcode": "97215",
    "city": "Simmershofen"
  },
  {
    "postcode": "97215",
    "city": "Uffenheim"
  },
  {
    "postcode": "97215",
    "city": "Uttenhofen Mittelfranken"
  },
  {
    "postcode": "97215",
    "city": "Uttenhofen"
  },
  {
    "postcode": "97215",
    "city": "Walkershofen"
  },
  {
    "postcode": "97215",
    "city": "Wallmersbach"
  },
  {
    "postcode": "97215",
    "city": "Weigenheim"
  },
  {
    "postcode": "97215",
    "city": "Welbhausen"
  },
  {
    "postcode": "97215",
    "city": "Neustadt an der Aisch-Bad Windsheim"
  },
  {
    "postcode": "97215",
    "city": "Hinterpfeinach"
  },
  {
    "postcode": "97215",
    "city": "Vorderpfeinach"
  },
  {
    "postcode": "97215",
    "city": "Reusch"
  },
  {
    "postcode": "97218",
    "city": "Gerbrunn"
  },
  {
    "postcode": "97218",
    "city": "Würzburg"
  },
  {
    "postcode": "97222",
    "city": "Gramschatz"
  },
  {
    "postcode": "97222",
    "city": "Maidbronn"
  },
  {
    "postcode": "97222",
    "city": "Rimpar"
  },
  {
    "postcode": "97222",
    "city": "Würzburg"
  },
  {
    "postcode": "97222",
    "city": "Gramschatzer Wald"
  },
  {
    "postcode": "97225",
    "city": "Duttenbrunn"
  },
  {
    "postcode": "97225",
    "city": "Retzbach"
  },
  {
    "postcode": "97225",
    "city": "Zellingen"
  },
  {
    "postcode": "97225",
    "city": "Main-Spessart"
  },
  {
    "postcode": "97228",
    "city": "Rothof Unterfranken"
  },
  {
    "postcode": "97228",
    "city": "Rothof"
  },
  {
    "postcode": "97228",
    "city": "Rottendorf Unterfranken"
  },
  {
    "postcode": "97228",
    "city": "Rottendorf"
  },
  {
    "postcode": "97228",
    "city": "Würzburg"
  },
  {
    "postcode": "97230",
    "city": "Estenfeld"
  },
  {
    "postcode": "97230",
    "city": "Mühlhausen Kreis Würzburg"
  },
  {
    "postcode": "97230",
    "city": "Mühlhausen"
  },
  {
    "postcode": "97230",
    "city": "Würzburg"
  },
  {
    "postcode": "97232",
    "city": "Allersheim"
  },
  {
    "postcode": "97232",
    "city": "Eßfeld"
  },
  {
    "postcode": "97232",
    "city": "Euerhausen"
  },
  {
    "postcode": "97232",
    "city": "Giebelstadt"
  },
  {
    "postcode": "97232",
    "city": "Herchsheim"
  },
  {
    "postcode": "97232",
    "city": "Ingolstadt"
  },
  {
    "postcode": "97232",
    "city": "Sulzdorf"
  },
  {
    "postcode": "97232",
    "city": "Würzburg"
  },
  {
    "postcode": "97234",
    "city": "Albertshausen bei Würzburg"
  },
  {
    "postcode": "97234",
    "city": "Fuchsstadt Kreis Würzburg"
  },
  {
    "postcode": "97234",
    "city": "Fuchsstadt"
  },
  {
    "postcode": "97234",
    "city": "Lindflur Unterfranken"
  },
  {
    "postcode": "97234",
    "city": "Lindflur"
  },
  {
    "postcode": "97234",
    "city": "Reichenberg Unterfranken"
  },
  {
    "postcode": "97234",
    "city": "Reichenberg"
  },
  {
    "postcode": "97234",
    "city": "Uengershausen"
  },
  {
    "postcode": "97234",
    "city": "Würzburg"
  },
  {
    "postcode": "97234",
    "city": "Grafengehaig"
  },
  {
    "postcode": "97234",
    "city": "Guttenberger Wald"
  },
  {
    "postcode": "97234",
    "city": "Albertshausen"
  },
  {
    "postcode": "97234",
    "city": "Chaussee-Wirthshaus"
  },
  {
    "postcode": "97234",
    "city": "Guttenberg"
  },
  {
    "postcode": "97236",
    "city": "Lindelbach"
  },
  {
    "postcode": "97236",
    "city": "Randersacker"
  },
  {
    "postcode": "97236",
    "city": "Würzburg"
  },
  {
    "postcode": "97237",
    "city": "Altertheim"
  },
  {
    "postcode": "97237",
    "city": "Oberaltertheim"
  },
  {
    "postcode": "97237",
    "city": "Steinbach bei Würzburg"
  },
  {
    "postcode": "97237",
    "city": "Unteraltertheim"
  },
  {
    "postcode": "97237",
    "city": "Würzburg"
  },
  {
    "postcode": "97237",
    "city": "Steinbach"
  },
  {
    "postcode": "97239",
    "city": "Aub"
  },
  {
    "postcode": "97239",
    "city": "Aub Unterfranken"
  },
  {
    "postcode": "97239",
    "city": "Baldersheim Unterfranken"
  },
  {
    "postcode": "97239",
    "city": "Baldersheim"
  },
  {
    "postcode": "97239",
    "city": "Burgerroth Kreis Würzburg"
  },
  {
    "postcode": "97239",
    "city": "Burgerroth"
  },
  {
    "postcode": "97239",
    "city": "Würzburg"
  },
  {
    "postcode": "97241",
    "city": "Bergtheim"
  },
  {
    "postcode": "97241",
    "city": "Bergtheim Unterfranken"
  },
  {
    "postcode": "97241",
    "city": "Dipbach"
  },
  {
    "postcode": "97241",
    "city": "Oberpleichfeld"
  },
  {
    "postcode": "97241",
    "city": "Opferbaum"
  },
  {
    "postcode": "97241",
    "city": "Würzburg"
  },
  {
    "postcode": "97243",
    "city": "Bieberehren"
  },
  {
    "postcode": "97243",
    "city": "Buch"
  },
  {
    "postcode": "97243",
    "city": "Klingen"
  },
  {
    "postcode": "97243",
    "city": "Würzburg"
  },
  {
    "postcode": "97244",
    "city": "Bütthard"
  },
  {
    "postcode": "97244",
    "city": "Gaurettersheim"
  },
  {
    "postcode": "97244",
    "city": "Gützingen"
  },
  {
    "postcode": "97244",
    "city": "Höttingen"
  },
  {
    "postcode": "97244",
    "city": "Oesfeld"
  },
  {
    "postcode": "97244",
    "city": "Tiefenthal"
  },
  {
    "postcode": "97244",
    "city": "Würzburg"
  },
  {
    "postcode": "97246",
    "city": "Eibelstadt"
  },
  {
    "postcode": "97246",
    "city": "Würzburg"
  },
  {
    "postcode": "97247",
    "city": "Eisenheim Unterfranken"
  },
  {
    "postcode": "97247",
    "city": "Eisenheim"
  },
  {
    "postcode": "97247",
    "city": "Obereisenheim Unterfranken"
  },
  {
    "postcode": "97247",
    "city": "Obereisenheim"
  },
  {
    "postcode": "97247",
    "city": "Untereisenheim"
  },
  {
    "postcode": "97247",
    "city": "Würzburg"
  },
  {
    "postcode": "97249",
    "city": "Eisingen Kreis Würzburg"
  },
  {
    "postcode": "97249",
    "city": "Eisingen"
  },
  {
    "postcode": "97249",
    "city": "Würzburg"
  },
  {
    "postcode": "97250",
    "city": "Erlabrunn Unterfranken"
  },
  {
    "postcode": "97250",
    "city": "Erlabrunn"
  },
  {
    "postcode": "97250",
    "city": "Würzburg"
  },
  {
    "postcode": "97252",
    "city": "Frickenhausen am Main"
  },
  {
    "postcode": "97252",
    "city": "Würzburg"
  },
  {
    "postcode": "97252",
    "city": "Frickenhausen a. Main"
  },
  {
    "postcode": "97253",
    "city": "Acholshausen"
  },
  {
    "postcode": "97253",
    "city": "Eichelsee Unterfranken"
  },
  {
    "postcode": "97253",
    "city": "Eichelsee"
  },
  {
    "postcode": "97253",
    "city": "Gaukönigshofen"
  },
  {
    "postcode": "97253",
    "city": "Rittershausen"
  },
  {
    "postcode": "97253",
    "city": "Wolkshausen"
  },
  {
    "postcode": "97253",
    "city": "Würzburg"
  },
  {
    "postcode": "97255",
    "city": "Bolzhausen"
  },
  {
    "postcode": "97255",
    "city": "Gelchsheim"
  },
  {
    "postcode": "97255",
    "city": "Oellingen"
  },
  {
    "postcode": "97255",
    "city": "Osthausen"
  },
  {
    "postcode": "97255",
    "city": "Sächsenheim"
  },
  {
    "postcode": "97255",
    "city": "Sonderhofen"
  },
  {
    "postcode": "97255",
    "city": "Würzburg"
  },
  {
    "postcode": "97256",
    "city": "Geroldshausen"
  },
  {
    "postcode": "97256",
    "city": "Geroldshausen Unterfranken"
  },
  {
    "postcode": "97256",
    "city": "Moos Unterfranken"
  },
  {
    "postcode": "97256",
    "city": "Moos"
  },
  {
    "postcode": "97256",
    "city": "Würzburg"
  },
  {
    "postcode": "97258",
    "city": "Bullenheim"
  },
  {
    "postcode": "97258",
    "city": "Geißlingen Mittelfranken"
  },
  {
    "postcode": "97258",
    "city": "Geißlingen"
  },
  {
    "postcode": "97258",
    "city": "Gollachostheim"
  },
  {
    "postcode": "97258",
    "city": "Gollhofen"
  },
  {
    "postcode": "97258",
    "city": "Gülchsheim"
  },
  {
    "postcode": "97258",
    "city": "Hemmersheim"
  },
  {
    "postcode": "97258",
    "city": "Herrnberchtheim"
  },
  {
    "postcode": "97258",
    "city": "Ippesheim Mittelfranken"
  },
  {
    "postcode": "97258",
    "city": "Ippesheim"
  },
  {
    "postcode": "97258",
    "city": "Ippesheim Unterfranken"
  },
  {
    "postcode": "97258",
    "city": "Lipprichhausen"
  },
  {
    "postcode": "97258",
    "city": "Oberickelsheim"
  },
  {
    "postcode": "97258",
    "city": "Pfahlenheim"
  },
  {
    "postcode": "97258",
    "city": "Rodheim Mittelfranken"
  },
  {
    "postcode": "97258",
    "city": "Rodheim"
  },
  {
    "postcode": "97258",
    "city": "Neustadt an der Aisch-Bad Windsheim"
  },
  {
    "postcode": "97259",
    "city": "Greußenheim"
  },
  {
    "postcode": "97259",
    "city": "Würzburg"
  },
  {
    "postcode": "97261",
    "city": "Güntersleben Kreis Würzburg"
  },
  {
    "postcode": "97261",
    "city": "Güntersleben"
  },
  {
    "postcode": "97261",
    "city": "Würzburg"
  },
  {
    "postcode": "97262",
    "city": "Erbshausen"
  },
  {
    "postcode": "97262",
    "city": "Fährbrück bei Würzburg"
  },
  {
    "postcode": "97262",
    "city": "Hausen bei Würzburg"
  },
  {
    "postcode": "97262",
    "city": "Jobsthalerhof bei Würzburg"
  },
  {
    "postcode": "97262",
    "city": "Rieden Unterfranken"
  },
  {
    "postcode": "97262",
    "city": "Rieden"
  },
  {
    "postcode": "97262",
    "city": "Würzburg"
  },
  {
    "postcode": "97262",
    "city": "Hausen b. Würzburg"
  },
  {
    "postcode": "97262",
    "city": "Hausen"
  },
  {
    "postcode": "97262",
    "city": "Fährbrück"
  },
  {
    "postcode": "97264",
    "city": "Helmstadt"
  },
  {
    "postcode": "97264",
    "city": "Helmstadt Unterfranken"
  },
  {
    "postcode": "97264",
    "city": "Holzkirchhausen"
  },
  {
    "postcode": "97264",
    "city": "Würzburg"
  },
  {
    "postcode": "97265",
    "city": "Hettstadt"
  },
  {
    "postcode": "97265",
    "city": "Würzburg"
  },
  {
    "postcode": "97267",
    "city": "Himmelstadt"
  },
  {
    "postcode": "97267",
    "city": "Main-Spessart"
  },
  {
    "postcode": "97268",
    "city": "Gaubüttelbrunn Unterfranken"
  },
  {
    "postcode": "97268",
    "city": "Gaubüttelbrunn"
  },
  {
    "postcode": "97268",
    "city": "Kirchheim"
  },
  {
    "postcode": "97268",
    "city": "Kirchheim Unterfranken"
  },
  {
    "postcode": "97268",
    "city": "Sellenbergerhof Unterfranken"
  },
  {
    "postcode": "97268",
    "city": "Sellenbergerhof"
  },
  {
    "postcode": "97268",
    "city": "Würzburg"
  },
  {
    "postcode": "97270",
    "city": "Kist"
  },
  {
    "postcode": "97270",
    "city": "Würzburg"
  },
  {
    "postcode": "97271",
    "city": "Kleinrinderfeld"
  },
  {
    "postcode": "97271",
    "city": "Maisenbachhof"
  },
  {
    "postcode": "97271",
    "city": "Würzburg"
  },
  {
    "postcode": "97273",
    "city": "Kürnach"
  },
  {
    "postcode": "97273",
    "city": "Würzburg"
  },
  {
    "postcode": "97274",
    "city": "Leinach Unterfranken"
  },
  {
    "postcode": "97274",
    "city": "Leinach"
  },
  {
    "postcode": "97274",
    "city": "Würzburg"
  },
  {
    "postcode": "97276",
    "city": "Margetshöchheim"
  },
  {
    "postcode": "97276",
    "city": "Würzburg"
  },
  {
    "postcode": "97277",
    "city": "Böttigheim"
  },
  {
    "postcode": "97277",
    "city": "Neubrunn"
  },
  {
    "postcode": "97277",
    "city": "Neubrunn bei Würzburg"
  },
  {
    "postcode": "97277",
    "city": "Würzburg"
  },
  {
    "postcode": "97279",
    "city": "Prosselsheim"
  },
  {
    "postcode": "97279",
    "city": "Püssensheim"
  },
  {
    "postcode": "97279",
    "city": "Seligenstadt"
  },
  {
    "postcode": "97279",
    "city": "Würzburg"
  },
  {
    "postcode": "97280",
    "city": "Remlingen Unterfranken"
  },
  {
    "postcode": "97280",
    "city": "Remlingen"
  },
  {
    "postcode": "97280",
    "city": "Würzburg"
  },
  {
    "postcode": "97282",
    "city": "Retzstadt"
  },
  {
    "postcode": "97282",
    "city": "Main-Spessart"
  },
  {
    "postcode": "97283",
    "city": "Lenzenbrunn"
  },
  {
    "postcode": "97283",
    "city": "Oberhausen"
  },
  {
    "postcode": "97283",
    "city": "Riedenheim"
  },
  {
    "postcode": "97283",
    "city": "Stalldorf"
  },
  {
    "postcode": "97283",
    "city": "Würzburg"
  },
  {
    "postcode": "97285",
    "city": "Aufstetten Unterfranken"
  },
  {
    "postcode": "97285",
    "city": "Aufstetten"
  },
  {
    "postcode": "97285",
    "city": "Röttingen"
  },
  {
    "postcode": "97285",
    "city": "Röttingen Unterfranken"
  },
  {
    "postcode": "97285",
    "city": "Strüth Unterfranken"
  },
  {
    "postcode": "97285",
    "city": "Strüth"
  },
  {
    "postcode": "97285",
    "city": "Tauberrettersheim"
  },
  {
    "postcode": "97285",
    "city": "Würzburg"
  },
  {
    "postcode": "97286",
    "city": "Sommerhausen Main"
  },
  {
    "postcode": "97286",
    "city": "Sommerhausen"
  },
  {
    "postcode": "97286",
    "city": "Winterhausen"
  },
  {
    "postcode": "97286",
    "city": "Würzburg"
  },
  {
    "postcode": "97288",
    "city": "Theilheim Kreis Würzburg"
  },
  {
    "postcode": "97288",
    "city": "Theilheim"
  },
  {
    "postcode": "97288",
    "city": "Würzburg"
  },
  {
    "postcode": "97289",
    "city": "Thüngen"
  },
  {
    "postcode": "97289",
    "city": "Main-Spessart"
  },
  {
    "postcode": "97291",
    "city": "Erlabrunn Staustufe"
  },
  {
    "postcode": "97291",
    "city": "Erlabrunn"
  },
  {
    "postcode": "97291",
    "city": "Thüngersheim"
  },
  {
    "postcode": "97291",
    "city": "Würzburg"
  },
  {
    "postcode": "97291",
    "city": "Staustufe"
  },
  {
    "postcode": "97292",
    "city": "Holzkirchen"
  },
  {
    "postcode": "97292",
    "city": "Holzkirchen Unterfranken"
  },
  {
    "postcode": "97292",
    "city": "Uettingen"
  },
  {
    "postcode": "97292",
    "city": "Wüstenzell"
  },
  {
    "postcode": "97292",
    "city": "Würzburg"
  },
  {
    "postcode": "97294",
    "city": "Burggrumbach"
  },
  {
    "postcode": "97294",
    "city": "Hilpertshausen"
  },
  {
    "postcode": "97294",
    "city": "Rupprechtshausen"
  },
  {
    "postcode": "97294",
    "city": "Unterpleichfeld"
  },
  {
    "postcode": "97294",
    "city": "Würzburg"
  },
  {
    "postcode": "97295",
    "city": "Waldbrunn (Kreis Würzburg)"
  },
  {
    "postcode": "97295",
    "city": "Waldbrunn"
  },
  {
    "postcode": "97295",
    "city": "Würzburg"
  },
  {
    "postcode": "97297",
    "city": "Gemeinde Waldbrunn"
  },
  {
    "postcode": "97297",
    "city": "Mädelhofen"
  },
  {
    "postcode": "97297",
    "city": "Roßbrunn"
  },
  {
    "postcode": "97297",
    "city": "Waldbüttelbrunn"
  },
  {
    "postcode": "97297",
    "city": "Würzburg"
  },
  {
    "postcode": "97299",
    "city": "Zell am Main"
  },
  {
    "postcode": "97299",
    "city": "Würzburg"
  },
  {
    "postcode": "97299",
    "city": "Zell a. Main"
  },
  {
    "postcode": "97318",
    "city": "Biebelried"
  },
  {
    "postcode": "97318",
    "city": "Hoheim"
  },
  {
    "postcode": "97318",
    "city": "Hohenfeld Kreis Kitzingen"
  },
  {
    "postcode": "97318",
    "city": "Hohenfeld"
  },
  {
    "postcode": "97318",
    "city": "Kaltensondheim"
  },
  {
    "postcode": "97318",
    "city": "Kitzingen"
  },
  {
    "postcode": "97318",
    "city": "Repperndorf"
  },
  {
    "postcode": "97318",
    "city": "Sickershausen"
  },
  {
    "postcode": "97318",
    "city": "Westheim"
  },
  {
    "postcode": "97320",
    "city": "Albertshofen Kreis Kitzingen"
  },
  {
    "postcode": "97320",
    "city": "Albertshofen"
  },
  {
    "postcode": "97320",
    "city": "Buchbrunn"
  },
  {
    "postcode": "97320",
    "city": "Großlangheim"
  },
  {
    "postcode": "97320",
    "city": "Mainstockheim"
  },
  {
    "postcode": "97320",
    "city": "Sulzfeld am Main"
  },
  {
    "postcode": "97320",
    "city": "Kitzingen"
  },
  {
    "postcode": "97320",
    "city": "Sulzfeld a. Main"
  },
  {
    "postcode": "97332",
    "city": "Astheim"
  },
  {
    "postcode": "97332",
    "city": "Dimbach"
  },
  {
    "postcode": "97332",
    "city": "Eichfeld Unterfranken"
  },
  {
    "postcode": "97332",
    "city": "Eichfeld"
  },
  {
    "postcode": "97332",
    "city": "Escherndorf"
  },
  {
    "postcode": "97332",
    "city": "Fahr Unterfranken"
  },
  {
    "postcode": "97332",
    "city": "Fahr"
  },
  {
    "postcode": "97332",
    "city": "Gaibach"
  },
  {
    "postcode": "97332",
    "city": "Köhler"
  },
  {
    "postcode": "97332",
    "city": "Krautheim Unterfranken"
  },
  {
    "postcode": "97332",
    "city": "Krautheim"
  },
  {
    "postcode": "97332",
    "city": "Obervolkach"
  },
  {
    "postcode": "97332",
    "city": "Rimbach Unterfranken"
  },
  {
    "postcode": "97332",
    "city": "Rimbach"
  },
  {
    "postcode": "97332",
    "city": "Volkach"
  },
  {
    "postcode": "97332",
    "city": "Kitzingen"
  },
  {
    "postcode": "97334",
    "city": "Nordheim am Main"
  },
  {
    "postcode": "97334",
    "city": "Sommerach"
  },
  {
    "postcode": "97334",
    "city": "Kitzingen"
  },
  {
    "postcode": "97334",
    "city": "Nordheim a. Main"
  },
  {
    "postcode": "97337",
    "city": "Bibergau Kreis Kitzingen"
  },
  {
    "postcode": "97337",
    "city": "Bibergau"
  },
  {
    "postcode": "97337",
    "city": "Brück Unterfranken"
  },
  {
    "postcode": "97337",
    "city": "Brück"
  },
  {
    "postcode": "97337",
    "city": "Dettelbach"
  },
  {
    "postcode": "97337",
    "city": "Dettelbach Bahnhof"
  },
  {
    "postcode": "97337",
    "city": "Effeldorf"
  },
  {
    "postcode": "97337",
    "city": "Euerfeld"
  },
  {
    "postcode": "97337",
    "city": "Mainsondheim"
  },
  {
    "postcode": "97337",
    "city": "Neuses am Berg"
  },
  {
    "postcode": "97337",
    "city": "Neusetz"
  },
  {
    "postcode": "97337",
    "city": "Schernau"
  },
  {
    "postcode": "97337",
    "city": "Schnepfenbach"
  },
  {
    "postcode": "97337",
    "city": "Kitzingen"
  },
  {
    "postcode": "97340",
    "city": "Enheim"
  },
  {
    "postcode": "97340",
    "city": "Gnodstadt"
  },
  {
    "postcode": "97340",
    "city": "Gnötzheim"
  },
  {
    "postcode": "97340",
    "city": "Marktbreit"
  },
  {
    "postcode": "97340",
    "city": "Martinsheim"
  },
  {
    "postcode": "97340",
    "city": "Segnitz"
  },
  {
    "postcode": "97340",
    "city": "Unterickelsheim"
  },
  {
    "postcode": "97340",
    "city": "Kitzingen"
  },
  {
    "postcode": "97342",
    "city": "Iffigheim"
  },
  {
    "postcode": "97342",
    "city": "Marktsteft"
  },
  {
    "postcode": "97342",
    "city": "Michelfeld Unterfranken"
  },
  {
    "postcode": "97342",
    "city": "Michelfeld"
  },
  {
    "postcode": "97342",
    "city": "Obernbreit"
  },
  {
    "postcode": "97342",
    "city": "Seinsheim"
  },
  {
    "postcode": "97342",
    "city": "Tiefenstockheim"
  },
  {
    "postcode": "97342",
    "city": "Wässerndorf"
  },
  {
    "postcode": "97342",
    "city": "Kitzingen"
  },
  {
    "postcode": "97342",
    "city": "Winkelhof"
  },
  {
    "postcode": "97346",
    "city": "Birklingen"
  },
  {
    "postcode": "97346",
    "city": "Bruckhof"
  },
  {
    "postcode": "97346",
    "city": "Dornheim"
  },
  {
    "postcode": "97346",
    "city": "Fischhof"
  },
  {
    "postcode": "97346",
    "city": "Hellmitzheim"
  },
  {
    "postcode": "97346",
    "city": "Iphofen"
  },
  {
    "postcode": "97346",
    "city": "Mönchsondheim"
  },
  {
    "postcode": "97346",
    "city": "Nenzenheim"
  },
  {
    "postcode": "97346",
    "city": "Possenheim"
  },
  {
    "postcode": "97346",
    "city": "Seehof"
  },
  {
    "postcode": "97346",
    "city": "Waldhof"
  },
  {
    "postcode": "97346",
    "city": "Kitzingen"
  },
  {
    "postcode": "97348",
    "city": "Fröhstockheim"
  },
  {
    "postcode": "97348",
    "city": "Hüttenheim in Bayern"
  },
  {
    "postcode": "97348",
    "city": "Markt Einersheim"
  },
  {
    "postcode": "97348",
    "city": "Markt Herrnsheim"
  },
  {
    "postcode": "97348",
    "city": "Rödelsee"
  },
  {
    "postcode": "97348",
    "city": "Willanzheim"
  },
  {
    "postcode": "97348",
    "city": "Kitzingen"
  },
  {
    "postcode": "97348",
    "city": "Hüttenheim"
  },
  {
    "postcode": "97348",
    "city": "Markt Herrnsheim"
  },
  {
    "postcode": "97350",
    "city": "Mainbernheim"
  },
  {
    "postcode": "97350",
    "city": "Kitzingen"
  },
  {
    "postcode": "97353",
    "city": "Geesdorf"
  },
  {
    "postcode": "97353",
    "city": "Reupelsdorf"
  },
  {
    "postcode": "97353",
    "city": "Untersambach"
  },
  {
    "postcode": "97353",
    "city": "Wiesentheid"
  },
  {
    "postcode": "97353",
    "city": "Kitzingen"
  },
  {
    "postcode": "97353",
    "city": "Feuerbach"
  },
  {
    "postcode": "97355",
    "city": "Abtswind"
  },
  {
    "postcode": "97355",
    "city": "Atzhausen"
  },
  {
    "postcode": "97355",
    "city": "Castell"
  },
  {
    "postcode": "97355",
    "city": "Castell Unterfranken"
  },
  {
    "postcode": "97355",
    "city": "Greuth Unterfranken"
  },
  {
    "postcode": "97355",
    "city": "Greuth"
  },
  {
    "postcode": "97355",
    "city": "Haidt"
  },
  {
    "postcode": "97355",
    "city": "Kleinlangheim"
  },
  {
    "postcode": "97355",
    "city": "Rüdenhausen"
  },
  {
    "postcode": "97355",
    "city": "Stephansberg"
  },
  {
    "postcode": "97355",
    "city": "Trautberg Unterfranken"
  },
  {
    "postcode": "97355",
    "city": "Trautberg"
  },
  {
    "postcode": "97355",
    "city": "Wiesenbronn"
  },
  {
    "postcode": "97355",
    "city": "Wüstenfelden Unterfranken"
  },
  {
    "postcode": "97355",
    "city": "Wüstenfelden"
  },
  {
    "postcode": "97355",
    "city": "Kitzingen"
  },
  {
    "postcode": "97357",
    "city": "Altenschönbach"
  },
  {
    "postcode": "97357",
    "city": "Bimbach"
  },
  {
    "postcode": "97357",
    "city": "Brünnau"
  },
  {
    "postcode": "97357",
    "city": "Järkendorf"
  },
  {
    "postcode": "97357",
    "city": "Kirchschönbach"
  },
  {
    "postcode": "97357",
    "city": "Laub Unterfranken"
  },
  {
    "postcode": "97357",
    "city": "Laub"
  },
  {
    "postcode": "97357",
    "city": "Neudorf"
  },
  {
    "postcode": "97357",
    "city": "Neuses am Sand"
  },
  {
    "postcode": "97357",
    "city": "Prichsenstadt"
  },
  {
    "postcode": "97357",
    "city": "Stadelschwarzach"
  },
  {
    "postcode": "97357",
    "city": "Kitzingen"
  },
  {
    "postcode": "97359",
    "city": "Düllstadt"
  },
  {
    "postcode": "97359",
    "city": "Gerlachshausen am Main"
  },
  {
    "postcode": "97359",
    "city": "Hörblach"
  },
  {
    "postcode": "97359",
    "city": "Münsterschwarzach am Main"
  },
  {
    "postcode": "97359",
    "city": "Schwarzach am Main"
  },
  {
    "postcode": "97359",
    "city": "Schwarzenau Unterfranken"
  },
  {
    "postcode": "97359",
    "city": "Schwarzenau"
  },
  {
    "postcode": "97359",
    "city": "Stadtschwarzach"
  },
  {
    "postcode": "97359",
    "city": "Kitzingen"
  },
  {
    "postcode": "97359",
    "city": "Schwarzach a. Main"
  },
  {
    "postcode": "97359",
    "city": "Gerlachshausen"
  },
  {
    "postcode": "97359",
    "city": "Münsterschwarzach"
  },
  {
    "postcode": "97412",
    "city": "Schweinfurt"
  },
  {
    "postcode": "97421",
    "city": "Schweinfurt"
  },
  {
    "postcode": "97421",
    "city": "Altstadt"
  },
  {
    "postcode": "97421",
    "city": "Gartenstadt"
  },
  {
    "postcode": "97421",
    "city": "Nordwestlicher Stadtteil"
  },
  {
    "postcode": "97421",
    "city": "Nördlicher Stadtteil"
  },
  {
    "postcode": "97421",
    "city": "Musikerviertel und amerik. Siedlung"
  },
  {
    "postcode": "97421",
    "city": "Bergl"
  },
  {
    "postcode": "97421",
    "city": "Nordöstlicher Stadtteil"
  },
  {
    "postcode": "97421",
    "city": "Innenstadt"
  },
  {
    "postcode": "97422",
    "city": "Schweinfurt"
  },
  {
    "postcode": "97422",
    "city": "Nordöstlicher Stadtteil"
  },
  {
    "postcode": "97422",
    "city": "Hochfeld-Steinberg"
  },
  {
    "postcode": "97422",
    "city": "Deutschhof"
  },
  {
    "postcode": "97422",
    "city": "Nördlicher Stadtteil"
  },
  {
    "postcode": "97422",
    "city": "Eselshöhe"
  },
  {
    "postcode": "97422",
    "city": "Haardt"
  },
  {
    "postcode": "97424",
    "city": "Oberndorf"
  },
  {
    "postcode": "97424",
    "city": "Schweinfurt"
  },
  {
    "postcode": "97424",
    "city": "Gartenstadt"
  },
  {
    "postcode": "97424",
    "city": "Nordwestlicher Stadtteil"
  },
  {
    "postcode": "97424",
    "city": "Bergl"
  },
  {
    "postcode": "97424",
    "city": "Schweinfurt-Süd"
  },
  {
    "postcode": "97424",
    "city": "Musikerviertel und amerik. Siedlung"
  },
  {
    "postcode": "97424",
    "city": "Bellevue"
  },
  {
    "postcode": "97424",
    "city": "Schweinfurt-Süd Hafen"
  },
  {
    "postcode": "97437",
    "city": "Augsfeld"
  },
  {
    "postcode": "97437",
    "city": "Haßfurt"
  },
  {
    "postcode": "97437",
    "city": "Mariaburghausen"
  },
  {
    "postcode": "97437",
    "city": "Oberhohenried"
  },
  {
    "postcode": "97437",
    "city": "Prappach"
  },
  {
    "postcode": "97437",
    "city": "Sailershausen"
  },
  {
    "postcode": "97437",
    "city": "Sylbach Unterfranken"
  },
  {
    "postcode": "97437",
    "city": "Sylbach"
  },
  {
    "postcode": "97437",
    "city": "Uchenhofen"
  },
  {
    "postcode": "97437",
    "city": "Unterhohenried"
  },
  {
    "postcode": "97437",
    "city": "Wülflingen"
  },
  {
    "postcode": "97437",
    "city": "Haßberge"
  },
  {
    "postcode": "97440",
    "city": "Eckartshausen"
  },
  {
    "postcode": "97440",
    "city": "Egenhausen Unterfranken"
  },
  {
    "postcode": "97440",
    "city": "Egenhausen"
  },
  {
    "postcode": "97440",
    "city": "Eßleben Unterfranken"
  },
  {
    "postcode": "97440",
    "city": "Eßleben"
  },
  {
    "postcode": "97440",
    "city": "Ettleben"
  },
  {
    "postcode": "97440",
    "city": "Mühlhausen bei Schweinfurt"
  },
  {
    "postcode": "97440",
    "city": "Rundelshausen"
  },
  {
    "postcode": "97440",
    "city": "Schleerieth"
  },
  {
    "postcode": "97440",
    "city": "Schnackenwerth"
  },
  {
    "postcode": "97440",
    "city": "Schraudenbach"
  },
  {
    "postcode": "97440",
    "city": "Stettbach Unterfranken"
  },
  {
    "postcode": "97440",
    "city": "Stettbach"
  },
  {
    "postcode": "97440",
    "city": "Vasbühl"
  },
  {
    "postcode": "97440",
    "city": "Werneck"
  },
  {
    "postcode": "97440",
    "city": "Zeuzleben"
  },
  {
    "postcode": "97440",
    "city": "Schweinfurt"
  },
  {
    "postcode": "97440",
    "city": "Mühlhausen"
  },
  {
    "postcode": "97447",
    "city": "Brünnstadt"
  },
  {
    "postcode": "97447",
    "city": "Frankenwinheim"
  },
  {
    "postcode": "97447",
    "city": "Gerolzhofen"
  },
  {
    "postcode": "97447",
    "city": "Rügshofen"
  },
  {
    "postcode": "97447",
    "city": "Schweinfurt"
  },
  {
    "postcode": "97450",
    "city": "Altbessingen"
  },
  {
    "postcode": "97450",
    "city": "Arnstein Unterfranken"
  },
  {
    "postcode": "97450",
    "city": "Arnstein"
  },
  {
    "postcode": "97450",
    "city": "Binsbach"
  },
  {
    "postcode": "97450",
    "city": "Binsfeld Unterfranken"
  },
  {
    "postcode": "97450",
    "city": "Binsfeld"
  },
  {
    "postcode": "97450",
    "city": "Büchold"
  },
  {
    "postcode": "97450",
    "city": "Gänheim"
  },
  {
    "postcode": "97450",
    "city": "Halsheim Unterfranken"
  },
  {
    "postcode": "97450",
    "city": "Halsheim"
  },
  {
    "postcode": "97450",
    "city": "Müdesheim Unterfranken"
  },
  {
    "postcode": "97450",
    "city": "Müdesheim"
  },
  {
    "postcode": "97450",
    "city": "Neubessingen Unterfranken"
  },
  {
    "postcode": "97450",
    "city": "Neubessingen"
  },
  {
    "postcode": "97450",
    "city": "Reuchelheim Unterfranken"
  },
  {
    "postcode": "97450",
    "city": "Reuchelheim"
  },
  {
    "postcode": "97450",
    "city": "Ruppertzaint Unterfranken"
  },
  {
    "postcode": "97450",
    "city": "Ruppertzaint"
  },
  {
    "postcode": "97450",
    "city": "Schwebenried"
  },
  {
    "postcode": "97450",
    "city": "Main-Spessart"
  },
  {
    "postcode": "97450",
    "city": "Heugrumbach"
  },
  {
    "postcode": "97450",
    "city": "Marbach"
  },
  {
    "postcode": "97450",
    "city": "Sachserhof"
  },
  {
    "postcode": "97453",
    "city": "Abersfeld"
  },
  {
    "postcode": "97453",
    "city": "Forst"
  },
  {
    "postcode": "97453",
    "city": "Hausen"
  },
  {
    "postcode": "97453",
    "city": "Kaltenhof"
  },
  {
    "postcode": "97453",
    "city": "Löffelsterz"
  },
  {
    "postcode": "97453",
    "city": "Mainberg"
  },
  {
    "postcode": "97453",
    "city": "Marktsteinach"
  },
  {
    "postcode": "97453",
    "city": "Reichmannshausen"
  },
  {
    "postcode": "97453",
    "city": "Schonungen"
  },
  {
    "postcode": "97453",
    "city": "Waldsachsen"
  },
  {
    "postcode": "97453",
    "city": "Schweinfurt"
  },
  {
    "postcode": "97453",
    "city": "Rednershof"
  },
  {
    "postcode": "97456",
    "city": "Dittelbrunn"
  },
  {
    "postcode": "97456",
    "city": "Hambach Unterfranken"
  },
  {
    "postcode": "97456",
    "city": "Hambach"
  },
  {
    "postcode": "97456",
    "city": "Holzhausen bei Schweinfurt"
  },
  {
    "postcode": "97456",
    "city": "Pfändhausen"
  },
  {
    "postcode": "97456",
    "city": "Schweinfurt"
  },
  {
    "postcode": "97456",
    "city": "Holzhausen"
  },
  {
    "postcode": "97461",
    "city": "Eichelsdorf Unterfranken"
  },
  {
    "postcode": "97461",
    "city": "Eichelsdorf"
  },
  {
    "postcode": "97461",
    "city": "Erlsdorf"
  },
  {
    "postcode": "97461",
    "city": "Goßmannsdorf Haßberge"
  },
  {
    "postcode": "97461",
    "city": "Goßmannsdorf"
  },
  {
    "postcode": "97461",
    "city": "Hofheim in Unterfranken"
  },
  {
    "postcode": "97461",
    "city": "Lendershausen"
  },
  {
    "postcode": "97461",
    "city": "Manau"
  },
  {
    "postcode": "97461",
    "city": "Ostheim Kreis Hofheim Unterfranken"
  },
  {
    "postcode": "97461",
    "city": "Ostheim"
  },
  {
    "postcode": "97461",
    "city": "Reckertshausen"
  },
  {
    "postcode": "97461",
    "city": "Rügheim"
  },
  {
    "postcode": "97461",
    "city": "Sulzbach"
  },
  {
    "postcode": "97461",
    "city": "Haßberge"
  },
  {
    "postcode": "97461",
    "city": "Hofheim i.UFr."
  },
  {
    "postcode": "97461",
    "city": "Hofheim"
  },
  {
    "postcode": "97464",
    "city": "Niederwerrn"
  },
  {
    "postcode": "97464",
    "city": "Oberwerrn"
  },
  {
    "postcode": "97464",
    "city": "Schweinfurt"
  },
  {
    "postcode": "97469",
    "city": "Gochsheim"
  },
  {
    "postcode": "97469",
    "city": "Gochsheim Unterfranken"
  },
  {
    "postcode": "97469",
    "city": "Weyer bei Schweinfurt"
  },
  {
    "postcode": "97469",
    "city": "Schweinfurt"
  },
  {
    "postcode": "97469",
    "city": "Weyer"
  },
  {
    "postcode": "97475",
    "city": "Bischofsheim am Main"
  },
  {
    "postcode": "97475",
    "city": "Krum Unterfranken"
  },
  {
    "postcode": "97475",
    "city": "Krum"
  },
  {
    "postcode": "97475",
    "city": "Schmachtenberg am Main"
  },
  {
    "postcode": "97475",
    "city": "Sechsthal am Main"
  },
  {
    "postcode": "97475",
    "city": "Zeil"
  },
  {
    "postcode": "97475",
    "city": "Zeil am Main"
  },
  {
    "postcode": "97475",
    "city": "Ziegelanger"
  },
  {
    "postcode": "97475",
    "city": "Haßberge"
  },
  {
    "postcode": "97475",
    "city": "Zeil a. Main"
  },
  {
    "postcode": "97475",
    "city": "Schmachtenberg"
  },
  {
    "postcode": "97475",
    "city": "Bischofsheim"
  },
  {
    "postcode": "97475",
    "city": "Sechsthal"
  },
  {
    "postcode": "97478",
    "city": "Eschenau bei Haßfurt"
  },
  {
    "postcode": "97478",
    "city": "Hainert"
  },
  {
    "postcode": "97478",
    "city": "Knetzgau"
  },
  {
    "postcode": "97478",
    "city": "Oberschwappach"
  },
  {
    "postcode": "97478",
    "city": "Unterschwappach"
  },
  {
    "postcode": "97478",
    "city": "Westheim bei Haßfurt"
  },
  {
    "postcode": "97478",
    "city": "Wohnau"
  },
  {
    "postcode": "97478",
    "city": "Zell am Ebersberg"
  },
  {
    "postcode": "97478",
    "city": "Haßberge"
  },
  {
    "postcode": "97478",
    "city": "Zell"
  },
  {
    "postcode": "97478",
    "city": "Westheim"
  },
  {
    "postcode": "97478",
    "city": "Eschenau"
  },
  {
    "postcode": "97483",
    "city": "Dippach am Main"
  },
  {
    "postcode": "97483",
    "city": "Eltmann"
  },
  {
    "postcode": "97483",
    "city": "Eschenbach"
  },
  {
    "postcode": "97483",
    "city": "Lembach"
  },
  {
    "postcode": "97483",
    "city": "Limbach Kreis Haßfurt"
  },
  {
    "postcode": "97483",
    "city": "Limbach"
  },
  {
    "postcode": "97483",
    "city": "Roßstadt"
  },
  {
    "postcode": "97483",
    "city": "Weisbrunn"
  },
  {
    "postcode": "97483",
    "city": "Haßberge"
  },
  {
    "postcode": "97483",
    "city": "Dippach"
  },
  {
    "postcode": "97486",
    "city": "Altershausen"
  },
  {
    "postcode": "97486",
    "city": "Bühl"
  },
  {
    "postcode": "97486",
    "city": "Dörflis in Bayern"
  },
  {
    "postcode": "97486",
    "city": "Hellingen Unterfranken"
  },
  {
    "postcode": "97486",
    "city": "Hellingen"
  },
  {
    "postcode": "97486",
    "city": "Hofstetten"
  },
  {
    "postcode": "97486",
    "city": "Holzhausen in Bayern"
  },
  {
    "postcode": "97486",
    "city": "Junkersdorf bei Haßfurt"
  },
  {
    "postcode": "97486",
    "city": "Königsberg in Bayern"
  },
  {
    "postcode": "97486",
    "city": "Köslau Unterfranken"
  },
  {
    "postcode": "97486",
    "city": "Köslau"
  },
  {
    "postcode": "97486",
    "city": "Kottenbrunn Unterfranken"
  },
  {
    "postcode": "97486",
    "city": "Kottenbrunn"
  },
  {
    "postcode": "97486",
    "city": "Römershofen"
  },
  {
    "postcode": "97486",
    "city": "Unfinden"
  },
  {
    "postcode": "97486",
    "city": "Haßberge"
  },
  {
    "postcode": "97486",
    "city": "Königsberg i.Bay."
  },
  {
    "postcode": "97486",
    "city": "Klaubmühle"
  },
  {
    "postcode": "97486",
    "city": "Königsberg"
  },
  {
    "postcode": "97486",
    "city": "Dörflis"
  },
  {
    "postcode": "97486",
    "city": "Holzhausen"
  },
  {
    "postcode": "97486",
    "city": "Junkersdorf"
  },
  {
    "postcode": "97488",
    "city": "Altenmünster Unterfranken"
  },
  {
    "postcode": "97488",
    "city": "Altenmünster"
  },
  {
    "postcode": "97488",
    "city": "Ballingshausen"
  },
  {
    "postcode": "97488",
    "city": "Birnfeld"
  },
  {
    "postcode": "97488",
    "city": "Fuchsstadt"
  },
  {
    "postcode": "97488",
    "city": "Mailes"
  },
  {
    "postcode": "97488",
    "city": "Oberlauringen"
  },
  {
    "postcode": "97488",
    "city": "Stadtlauringen"
  },
  {
    "postcode": "97488",
    "city": "Sulzdorf bei Stadtlauringen"
  },
  {
    "postcode": "97488",
    "city": "Wettringen"
  },
  {
    "postcode": "97488",
    "city": "Wetzhausen"
  },
  {
    "postcode": "97488",
    "city": "Schweinfurt"
  },
  {
    "postcode": "97488",
    "city": "Sulzdorf"
  },
  {
    "postcode": "97488",
    "city": "Reinhardshausen"
  },
  {
    "postcode": "97490",
    "city": "Hain Unterfranken"
  },
  {
    "postcode": "97490",
    "city": "Hain"
  },
  {
    "postcode": "97490",
    "city": "Kronungen"
  },
  {
    "postcode": "97490",
    "city": "Kützberg"
  },
  {
    "postcode": "97490",
    "city": "Maibach Unterfranken"
  },
  {
    "postcode": "97490",
    "city": "Maibach"
  },
  {
    "postcode": "97490",
    "city": "Pfersdorf Unterfranken"
  },
  {
    "postcode": "97490",
    "city": "Pfersdorf"
  },
  {
    "postcode": "97490",
    "city": "Poppenhausen"
  },
  {
    "postcode": "97490",
    "city": "Poppenhausen Unterfranken"
  },
  {
    "postcode": "97490",
    "city": "Schweinfurt"
  },
  {
    "postcode": "97491",
    "city": "Aidhausen"
  },
  {
    "postcode": "97491",
    "city": "Friesenhausen"
  },
  {
    "postcode": "97491",
    "city": "Happertshausen"
  },
  {
    "postcode": "97491",
    "city": "Kerbfeld"
  },
  {
    "postcode": "97491",
    "city": "Nassach"
  },
  {
    "postcode": "97491",
    "city": "Rottenstein"
  },
  {
    "postcode": "97491",
    "city": "Haßberge"
  },
  {
    "postcode": "97493",
    "city": "Bergrheinfeld"
  },
  {
    "postcode": "97493",
    "city": "Garstadt"
  },
  {
    "postcode": "97493",
    "city": "Schweinfurt"
  },
  {
    "postcode": "97494",
    "city": "Bundorf"
  },
  {
    "postcode": "97494",
    "city": "Kimmelsbach"
  },
  {
    "postcode": "97494",
    "city": "Neuses Unterfranken"
  },
  {
    "postcode": "97494",
    "city": "Neuses"
  },
  {
    "postcode": "97494",
    "city": "Schweinshaupten"
  },
  {
    "postcode": "97494",
    "city": "Stöckach Unterfranken"
  },
  {
    "postcode": "97494",
    "city": "Stöckach"
  },
  {
    "postcode": "97494",
    "city": "Walchenfeld"
  },
  {
    "postcode": "97494",
    "city": "Haßberge"
  },
  {
    "postcode": "97496",
    "city": "Birkach Unterfranken"
  },
  {
    "postcode": "97496",
    "city": "Birkach"
  },
  {
    "postcode": "97496",
    "city": "Burgpreppach"
  },
  {
    "postcode": "97496",
    "city": "Fitzendorf"
  },
  {
    "postcode": "97496",
    "city": "Gemeinfeld"
  },
  {
    "postcode": "97496",
    "city": "Hohnhausen"
  },
  {
    "postcode": "97496",
    "city": "Ibind"
  },
  {
    "postcode": "97496",
    "city": "Leuzendorf Unterfranken"
  },
  {
    "postcode": "97496",
    "city": "Leuzendorf"
  },
  {
    "postcode": "97496",
    "city": "Ueschersdorf"
  },
  {
    "postcode": "97496",
    "city": "Haßberge"
  },
  {
    "postcode": "97497",
    "city": "Bischwind"
  },
  {
    "postcode": "97497",
    "city": "Dingolshausen"
  },
  {
    "postcode": "97497",
    "city": "Schweinfurt"
  },
  {
    "postcode": "97499",
    "city": "Donnersdorf"
  },
  {
    "postcode": "97499",
    "city": "Falkenstein"
  },
  {
    "postcode": "97499",
    "city": "Kleinrheinfeld"
  },
  {
    "postcode": "97499",
    "city": "Pusselsheim"
  },
  {
    "postcode": "97499",
    "city": "Traustadt"
  },
  {
    "postcode": "97499",
    "city": "Tugendorf"
  },
  {
    "postcode": "97499",
    "city": "Schweinfurt"
  },
  {
    "postcode": "97500",
    "city": "Ebelsbach"
  },
  {
    "postcode": "97500",
    "city": "Gleisenau Kreis Haßfurt"
  },
  {
    "postcode": "97500",
    "city": "Gleisenau"
  },
  {
    "postcode": "97500",
    "city": "Rudendorf Oberfranken"
  },
  {
    "postcode": "97500",
    "city": "Rudendorf"
  },
  {
    "postcode": "97500",
    "city": "Schönbach Kreis Haßfurt"
  },
  {
    "postcode": "97500",
    "city": "Schönbach"
  },
  {
    "postcode": "97500",
    "city": "Schönbrunn Kreis Haßfurt"
  },
  {
    "postcode": "97500",
    "city": "Schönbrunn"
  },
  {
    "postcode": "97500",
    "city": "Steinbach bei Eltmann"
  },
  {
    "postcode": "97500",
    "city": "Haßberge"
  },
  {
    "postcode": "97500",
    "city": "Steinbach"
  },
  {
    "postcode": "97502",
    "city": "Euerbach"
  },
  {
    "postcode": "97502",
    "city": "Obbach"
  },
  {
    "postcode": "97502",
    "city": "Sömmersdorf"
  },
  {
    "postcode": "97502",
    "city": "Schweinfurt"
  },
  {
    "postcode": "97503",
    "city": "Gädheim"
  },
  {
    "postcode": "97503",
    "city": "Greßhausen"
  },
  {
    "postcode": "97503",
    "city": "Ottendorf"
  },
  {
    "postcode": "97503",
    "city": "Haßberge"
  },
  {
    "postcode": "97505",
    "city": "Geldersheim"
  },
  {
    "postcode": "97505",
    "city": "Schweinfurt"
  },
  {
    "postcode": "97506",
    "city": "Grafenrheinfeld"
  },
  {
    "postcode": "97506",
    "city": "Schweinfurt"
  },
  {
    "postcode": "97506",
    "city": "Bergrheinfeld"
  },
  {
    "postcode": "97508",
    "city": "Dürrfeld"
  },
  {
    "postcode": "97508",
    "city": "Grettstadt"
  },
  {
    "postcode": "97508",
    "city": "Obereuerheim"
  },
  {
    "postcode": "97508",
    "city": "Untereuerheim"
  },
  {
    "postcode": "97508",
    "city": "Schweinfurt"
  },
  {
    "postcode": "97509",
    "city": "Gernach"
  },
  {
    "postcode": "97509",
    "city": "Herleshof"
  },
  {
    "postcode": "97509",
    "city": "Herlheim"
  },
  {
    "postcode": "97509",
    "city": "Kolitzheim"
  },
  {
    "postcode": "97509",
    "city": "Lindach Unterfranken"
  },
  {
    "postcode": "97509",
    "city": "Lindach"
  },
  {
    "postcode": "97509",
    "city": "Oberspiesheim"
  },
  {
    "postcode": "97509",
    "city": "Stammheim Unterfranken"
  },
  {
    "postcode": "97509",
    "city": "Stammheim"
  },
  {
    "postcode": "97509",
    "city": "Unterspiesheim"
  },
  {
    "postcode": "97509",
    "city": "Wadenbrunn"
  },
  {
    "postcode": "97509",
    "city": "Zeilitzheim"
  },
  {
    "postcode": "97509",
    "city": "Schweinfurt"
  },
  {
    "postcode": "97509",
    "city": "Wipfeld"
  },
  {
    "postcode": "97509",
    "city": "Kloster Sankt Ludwig"
  },
  {
    "postcode": "97511",
    "city": "Lülsfeld"
  },
  {
    "postcode": "97511",
    "city": "Schallfeld"
  },
  {
    "postcode": "97511",
    "city": "Schweinfurt"
  },
  {
    "postcode": "97513",
    "city": "Altmannsdorf Unterfranken"
  },
  {
    "postcode": "97513",
    "city": "Altmannsdorf"
  },
  {
    "postcode": "97513",
    "city": "Hundelshausen Unterfranken"
  },
  {
    "postcode": "97513",
    "city": "Hundelshausen"
  },
  {
    "postcode": "97513",
    "city": "Michelau"
  },
  {
    "postcode": "97513",
    "city": "Michelau im Steigerwald"
  },
  {
    "postcode": "97513",
    "city": "Neuhausen im Steigerwald"
  },
  {
    "postcode": "97513",
    "city": "Neuhof Unterfranken"
  },
  {
    "postcode": "97513",
    "city": "Neuhof"
  },
  {
    "postcode": "97513",
    "city": "Prüßberg im Steigerwald"
  },
  {
    "postcode": "97513",
    "city": "Schweinfurt"
  },
  {
    "postcode": "97513",
    "city": "Michelau i. Steigerwald"
  },
  {
    "postcode": "97513",
    "city": "Neuhausen"
  },
  {
    "postcode": "97513",
    "city": "Prüßberg"
  },
  {
    "postcode": "97513",
    "city": "Sudrach"
  },
  {
    "postcode": "97514",
    "city": "Dankenfeld"
  },
  {
    "postcode": "97514",
    "city": "Fatschenbrunn"
  },
  {
    "postcode": "97514",
    "city": "Kirchaich"
  },
  {
    "postcode": "97514",
    "city": "Neuschleichach"
  },
  {
    "postcode": "97514",
    "city": "Oberaurach"
  },
  {
    "postcode": "97514",
    "city": "Oberschleichach"
  },
  {
    "postcode": "97514",
    "city": "Tretzendorf"
  },
  {
    "postcode": "97514",
    "city": "Trossenfurt"
  },
  {
    "postcode": "97514",
    "city": "Unterschleichach"
  },
  {
    "postcode": "97514",
    "city": "Haßberge"
  },
  {
    "postcode": "97514",
    "city": "Markertsgrün"
  },
  {
    "postcode": "97516",
    "city": "Breitbach Kreis Schweinfurt"
  },
  {
    "postcode": "97516",
    "city": "Breitbach"
  },
  {
    "postcode": "97516",
    "city": "Düttingsfeld"
  },
  {
    "postcode": "97516",
    "city": "Handthal Kreis Schweinfurt"
  },
  {
    "postcode": "97516",
    "city": "Handthal"
  },
  {
    "postcode": "97516",
    "city": "Kammerforst Kreis Schweinfurt"
  },
  {
    "postcode": "97516",
    "city": "Kammerforst"
  },
  {
    "postcode": "97516",
    "city": "Mutzenroth"
  },
  {
    "postcode": "97516",
    "city": "Oberschwarzach"
  },
  {
    "postcode": "97516",
    "city": "Oberschwarzach Unterfranken"
  },
  {
    "postcode": "97516",
    "city": "Schönaich"
  },
  {
    "postcode": "97516",
    "city": "Siegendorf"
  },
  {
    "postcode": "97516",
    "city": "Wiebelsberg"
  },
  {
    "postcode": "97516",
    "city": "Schweinfurt"
  },
  {
    "postcode": "97517",
    "city": "Rannungen"
  },
  {
    "postcode": "97517",
    "city": "Bad Kissingen"
  },
  {
    "postcode": "97519",
    "city": "Humprechtshausen"
  },
  {
    "postcode": "97519",
    "city": "Kleinmünster"
  },
  {
    "postcode": "97519",
    "city": "Kleinsteinach Unterfranken"
  },
  {
    "postcode": "97519",
    "city": "Kleinsteinach"
  },
  {
    "postcode": "97519",
    "city": "Kreuzthal Unterfranken"
  },
  {
    "postcode": "97519",
    "city": "Kreuzthal"
  },
  {
    "postcode": "97519",
    "city": "Mechenried"
  },
  {
    "postcode": "97519",
    "city": "Riedbach Unterfranken"
  },
  {
    "postcode": "97519",
    "city": "Riedbach"
  },
  {
    "postcode": "97519",
    "city": "Haßberge"
  },
  {
    "postcode": "97520",
    "city": "Heidenfeld"
  },
  {
    "postcode": "97520",
    "city": "Hirschfeld Kreis Schweinfurt"
  },
  {
    "postcode": "97520",
    "city": "Hirschfeld"
  },
  {
    "postcode": "97520",
    "city": "Röthlein"
  },
  {
    "postcode": "97520",
    "city": "Schweinfurt"
  },
  {
    "postcode": "97522",
    "city": "Sand am Main"
  },
  {
    "postcode": "97522",
    "city": "Haßberge"
  },
  {
    "postcode": "97522",
    "city": "Sand a. Main"
  },
  {
    "postcode": "97523",
    "city": "Heiligenthal"
  },
  {
    "postcode": "97523",
    "city": "Schwanfeld"
  },
  {
    "postcode": "97523",
    "city": "Schweinfurt"
  },
  {
    "postcode": "97525",
    "city": "Schwebheim Unterfranken"
  },
  {
    "postcode": "97525",
    "city": "Schwebheim"
  },
  {
    "postcode": "97525",
    "city": "Schweinfurt"
  },
  {
    "postcode": "97526",
    "city": "Reichelshof"
  },
  {
    "postcode": "97526",
    "city": "Sennfeld Unterfranken"
  },
  {
    "postcode": "97526",
    "city": "Sennfeld"
  },
  {
    "postcode": "97526",
    "city": "Schweinfurt"
  },
  {
    "postcode": "97528",
    "city": "Brennhausen an der Lederhecke"
  },
  {
    "postcode": "97528",
    "city": "Obereßfeld"
  },
  {
    "postcode": "97528",
    "city": "Schwanhausen"
  },
  {
    "postcode": "97528",
    "city": "Serrfeld"
  },
  {
    "postcode": "97528",
    "city": "Sternberg im Grabfeld"
  },
  {
    "postcode": "97528",
    "city": "Sulzdorf"
  },
  {
    "postcode": "97528",
    "city": "Sulzdorf an der Lederhecke"
  },
  {
    "postcode": "97528",
    "city": "Zimmerau"
  },
  {
    "postcode": "97528",
    "city": "Rhön-Grabfeld"
  },
  {
    "postcode": "97528",
    "city": "Sulzdorf a.d.Lederhecke"
  },
  {
    "postcode": "97528",
    "city": "Sternberg"
  },
  {
    "postcode": "97529",
    "city": "Alitzheim"
  },
  {
    "postcode": "97529",
    "city": "Mönchstockheim Unterfranken"
  },
  {
    "postcode": "97529",
    "city": "Mönchstockheim"
  },
  {
    "postcode": "97529",
    "city": "Sulzheim"
  },
  {
    "postcode": "97529",
    "city": "Sulzheim Unterfranken"
  },
  {
    "postcode": "97529",
    "city": "Vögnitz Unterfranken"
  },
  {
    "postcode": "97529",
    "city": "Vögnitz"
  },
  {
    "postcode": "97529",
    "city": "Schweinfurt"
  },
  {
    "postcode": "97531",
    "city": "Buch"
  },
  {
    "postcode": "97531",
    "city": "Horhausen"
  },
  {
    "postcode": "97531",
    "city": "Obertheres"
  },
  {
    "postcode": "97531",
    "city": "Theres"
  },
  {
    "postcode": "97531",
    "city": "Untertheres"
  },
  {
    "postcode": "97531",
    "city": "Haßberge"
  },
  {
    "postcode": "97532",
    "city": "Ebertshausen Unterfranken"
  },
  {
    "postcode": "97532",
    "city": "Ebertshausen"
  },
  {
    "postcode": "97532",
    "city": "Hesselbach Unterfranken"
  },
  {
    "postcode": "97532",
    "city": "Hesselbach"
  },
  {
    "postcode": "97532",
    "city": "Hoppachshof Unterfranken"
  },
  {
    "postcode": "97532",
    "city": "Hoppachshof"
  },
  {
    "postcode": "97532",
    "city": "Madenhausen"
  },
  {
    "postcode": "97532",
    "city": "Ottenhausen Unterfranken"
  },
  {
    "postcode": "97532",
    "city": "Ottenhausen"
  },
  {
    "postcode": "97532",
    "city": "Thomashof Unterfranken"
  },
  {
    "postcode": "97532",
    "city": "Thomashof"
  },
  {
    "postcode": "97532",
    "city": "Üchtelhausen"
  },
  {
    "postcode": "97532",
    "city": "Weipoltshausen Unterfranken"
  },
  {
    "postcode": "97532",
    "city": "Weipoltshausen"
  },
  {
    "postcode": "97532",
    "city": "Zell bei Schweinfurt"
  },
  {
    "postcode": "97532",
    "city": "Schweinfurt"
  },
  {
    "postcode": "97532",
    "city": "Zell"
  },
  {
    "postcode": "97534",
    "city": "Hergolshausen"
  },
  {
    "postcode": "97534",
    "city": "Waigolshausen"
  },
  {
    "postcode": "97534",
    "city": "Schweinfurt"
  },
  {
    "postcode": "97534",
    "city": "Theilheim"
  },
  {
    "postcode": "97535",
    "city": "Brebersdorf"
  },
  {
    "postcode": "97535",
    "city": "Burghausen bei Schweinfurt"
  },
  {
    "postcode": "97535",
    "city": "Greßthal"
  },
  {
    "postcode": "97535",
    "city": "Kaisten"
  },
  {
    "postcode": "97535",
    "city": "Rütschenhausen"
  },
  {
    "postcode": "97535",
    "city": "Schwemmelsbach Unterfranken"
  },
  {
    "postcode": "97535",
    "city": "Schwemmelsbach"
  },
  {
    "postcode": "97535",
    "city": "Wasserlosen"
  },
  {
    "postcode": "97535",
    "city": "Wülfershausen Unterfranken"
  },
  {
    "postcode": "97535",
    "city": "Wülfershausen"
  },
  {
    "postcode": "97535",
    "city": "Schweinfurt"
  },
  {
    "postcode": "97535",
    "city": "Burghausen"
  },
  {
    "postcode": "97537",
    "city": "Wipfeld"
  },
  {
    "postcode": "97537",
    "city": "Schweinfurt"
  },
  {
    "postcode": "97539",
    "city": "Dampfach"
  },
  {
    "postcode": "97539",
    "city": "Steinsfeld"
  },
  {
    "postcode": "97539",
    "city": "Wonfurt"
  },
  {
    "postcode": "97539",
    "city": "Haßberge"
  },
  {
    "postcode": "97616",
    "city": "Bad Neustadt"
  },
  {
    "postcode": "97616",
    "city": "Bad Neustadt an der Saale"
  },
  {
    "postcode": "97616",
    "city": "Brendlorenzen an der Saale"
  },
  {
    "postcode": "97616",
    "city": "Dürrnhof"
  },
  {
    "postcode": "97616",
    "city": "Herschfeld Kreis Bad Neustadt an der Saale"
  },
  {
    "postcode": "97616",
    "city": "Herschfeld"
  },
  {
    "postcode": "97616",
    "city": "Lebenhan"
  },
  {
    "postcode": "97616",
    "city": "Löhrieth"
  },
  {
    "postcode": "97616",
    "city": "Mühlbach Kreis Bad Neustadt an der Saale"
  },
  {
    "postcode": "97616",
    "city": "Mühlbach"
  },
  {
    "postcode": "97616",
    "city": "Salz bei Bad Neustadt an der Saale"
  },
  {
    "postcode": "97616",
    "city": "Rhön-Grabfeld"
  },
  {
    "postcode": "97616",
    "city": "Bad Neustadt a.d.Saale"
  },
  {
    "postcode": "97616",
    "city": "Salz"
  },
  {
    "postcode": "97616",
    "city": "Brendlorenzen"
  },
  {
    "postcode": "97616",
    "city": "Gartenstadt"
  },
  {
    "postcode": "97618",
    "city": "Eichenhausen an der Saale"
  },
  {
    "postcode": "97618",
    "city": "Heustreu"
  },
  {
    "postcode": "97618",
    "city": "Hohenroth"
  },
  {
    "postcode": "97618",
    "city": "Hohenroth bei Bad Neustadt an der Saale"
  },
  {
    "postcode": "97618",
    "city": "Hollstadt"
  },
  {
    "postcode": "97618",
    "city": "Junkershausen"
  },
  {
    "postcode": "97618",
    "city": "Leutershausen Unterfranken"
  },
  {
    "postcode": "97618",
    "city": "Leutershausen"
  },
  {
    "postcode": "97618",
    "city": "Niederlauer"
  },
  {
    "postcode": "97618",
    "city": "Oberebersbach"
  },
  {
    "postcode": "97618",
    "city": "Rödelmaier"
  },
  {
    "postcode": "97618",
    "city": "Strahlungen"
  },
  {
    "postcode": "97618",
    "city": "Unsleben"
  },
  {
    "postcode": "97618",
    "city": "Unterebersbach"
  },
  {
    "postcode": "97618",
    "city": "Wargolshausen"
  },
  {
    "postcode": "97618",
    "city": "Windshausen"
  },
  {
    "postcode": "97618",
    "city": "Wollbach bei Bad Neustadt an der Saale"
  },
  {
    "postcode": "97618",
    "city": "Wülfershausen"
  },
  {
    "postcode": "97618",
    "city": "Wülfershausen an der Saale"
  },
  {
    "postcode": "97618",
    "city": "Rhön-Grabfeld"
  },
  {
    "postcode": "97618",
    "city": "Wollbach"
  },
  {
    "postcode": "97618",
    "city": "Wülfershausen a.d.Saale"
  },
  {
    "postcode": "97618",
    "city": "Querbachshof"
  },
  {
    "postcode": "97618",
    "city": "Eichenhausen"
  },
  {
    "postcode": "97631",
    "city": "Althausen Grabfeld"
  },
  {
    "postcode": "97631",
    "city": "Althausen"
  },
  {
    "postcode": "97631",
    "city": "Aub Grabfeld"
  },
  {
    "postcode": "97631",
    "city": "Aub"
  },
  {
    "postcode": "97631",
    "city": "Bad Königshofen"
  },
  {
    "postcode": "97631",
    "city": "Bad Königshofen im Grabfeld"
  },
  {
    "postcode": "97631",
    "city": "Eyershausen Unterfranken"
  },
  {
    "postcode": "97631",
    "city": "Eyershausen"
  },
  {
    "postcode": "97631",
    "city": "Gabolshausen"
  },
  {
    "postcode": "97631",
    "city": "Ipthausen im Grabfeld"
  },
  {
    "postcode": "97631",
    "city": "Merkershausen"
  },
  {
    "postcode": "97631",
    "city": "Untereßfeld"
  },
  {
    "postcode": "97631",
    "city": "Rhön-Grabfeld"
  },
  {
    "postcode": "97631",
    "city": "Bad Königshofen i. Grabfeld"
  },
  {
    "postcode": "97631",
    "city": "Ipthausen"
  },
  {
    "postcode": "97633",
    "city": "Alsleben Unterfranken"
  },
  {
    "postcode": "97633",
    "city": "Alsleben"
  },
  {
    "postcode": "97633",
    "city": "Aubstadt"
  },
  {
    "postcode": "97633",
    "city": "Breitensee"
  },
  {
    "postcode": "97633",
    "city": "Gollmuthhausen"
  },
  {
    "postcode": "97633",
    "city": "Großbardorf"
  },
  {
    "postcode": "97633",
    "city": "Großeibstadt"
  },
  {
    "postcode": "97633",
    "city": "Herbstadt"
  },
  {
    "postcode": "97633",
    "city": "Höchheim"
  },
  {
    "postcode": "97633",
    "city": "Irmelshausen"
  },
  {
    "postcode": "97633",
    "city": "Kleinbardorf"
  },
  {
    "postcode": "97633",
    "city": "Kleineibstadt"
  },
  {
    "postcode": "97633",
    "city": "Leinach"
  },
  {
    "postcode": "97633",
    "city": "Ottelmannshausen im Grabfeld"
  },
  {
    "postcode": "97633",
    "city": "Rothausen"
  },
  {
    "postcode": "97633",
    "city": "Saal an der Saale"
  },
  {
    "postcode": "97633",
    "city": "Sulzfeld"
  },
  {
    "postcode": "97633",
    "city": "Sulzfeld Grabfeld"
  },
  {
    "postcode": "97633",
    "city": "Trappstadt"
  },
  {
    "postcode": "97633",
    "city": "Waltershausen Unterfranken"
  },
  {
    "postcode": "97633",
    "city": "Waltershausen"
  },
  {
    "postcode": "97633",
    "city": "Rhön-Grabfeld"
  },
  {
    "postcode": "97633",
    "city": "Saal a.d.Saale"
  },
  {
    "postcode": "97633",
    "city": "Ottelmannshausen"
  },
  {
    "postcode": "97633",
    "city": "Saal"
  },
  {
    "postcode": "97638",
    "city": "Bahra Unterfranken"
  },
  {
    "postcode": "97638",
    "city": "Bahra"
  },
  {
    "postcode": "97638",
    "city": "Eußenhausen"
  },
  {
    "postcode": "97638",
    "city": "Frickenhausen bei Bad Neustadt an der Saale"
  },
  {
    "postcode": "97638",
    "city": "Hainhof"
  },
  {
    "postcode": "97638",
    "city": "Mellrichstadt"
  },
  {
    "postcode": "97638",
    "city": "Mühlfeld bei Bad Neustadt an der Saale"
  },
  {
    "postcode": "97638",
    "city": "Roßrieth"
  },
  {
    "postcode": "97638",
    "city": "Sondheim im Grabfeld"
  },
  {
    "postcode": "97638",
    "city": "Rhön-Grabfeld"
  },
  {
    "postcode": "97638",
    "city": "Frickenhausen"
  },
  {
    "postcode": "97638",
    "city": "Sondheim i. Grabfeld"
  },
  {
    "postcode": "97638",
    "city": "Mühlfeld"
  },
  {
    "postcode": "97640",
    "city": "Hendungen"
  },
  {
    "postcode": "97640",
    "city": "Mittelstreu"
  },
  {
    "postcode": "97640",
    "city": "Oberstreu"
  },
  {
    "postcode": "97640",
    "city": "Rappershausen"
  },
  {
    "postcode": "97640",
    "city": "Stockheim Unterfranken"
  },
  {
    "postcode": "97640",
    "city": "Stockheim"
  },
  {
    "postcode": "97640",
    "city": "Rhön-Grabfeld"
  },
  {
    "postcode": "97645",
    "city": "Oberwaldbehrungen"
  },
  {
    "postcode": "97645",
    "city": "Ostheim"
  },
  {
    "postcode": "97645",
    "city": "Ostheim vor der Rhön"
  },
  {
    "postcode": "97645",
    "city": "Urspringen Rhön"
  },
  {
    "postcode": "97645",
    "city": "Urspringen"
  },
  {
    "postcode": "97645",
    "city": "Rhön-Grabfeld"
  },
  {
    "postcode": "97645",
    "city": "Ostheim v.d.Rhön"
  },
  {
    "postcode": "97647",
    "city": "Hausen Rhön"
  },
  {
    "postcode": "97647",
    "city": "Hausen"
  },
  {
    "postcode": "97647",
    "city": "Hillenberg bei Bad Neustadt an der Saale"
  },
  {
    "postcode": "97647",
    "city": "Neustädtles"
  },
  {
    "postcode": "97647",
    "city": "Nordheim"
  },
  {
    "postcode": "97647",
    "city": "Nordheim vor der Rhön"
  },
  {
    "postcode": "97647",
    "city": "Oberfilke"
  },
  {
    "postcode": "97647",
    "city": "Roth bei Nordheim vor der Rhön"
  },
  {
    "postcode": "97647",
    "city": "Sondheim"
  },
  {
    "postcode": "97647",
    "city": "Sondheim vor der Rhön"
  },
  {
    "postcode": "97647",
    "city": "Völkershausen"
  },
  {
    "postcode": "97647",
    "city": "Willmars"
  },
  {
    "postcode": "97647",
    "city": "Rhön-Grabfeld"
  },
  {
    "postcode": "97647",
    "city": "Nordheim v.d.Rhön"
  },
  {
    "postcode": "97647",
    "city": "Sondheim v.d.Rhön"
  },
  {
    "postcode": "97647",
    "city": "Thüringer Hütte"
  },
  {
    "postcode": "97647",
    "city": "Roth"
  },
  {
    "postcode": "97647",
    "city": "Stetten"
  },
  {
    "postcode": "97647",
    "city": "Filke"
  },
  {
    "postcode": "97650",
    "city": "Brüchs"
  },
  {
    "postcode": "97650",
    "city": "Fladungen"
  },
  {
    "postcode": "97650",
    "city": "Heufurt vor der Rhön"
  },
  {
    "postcode": "97650",
    "city": "Leubach"
  },
  {
    "postcode": "97650",
    "city": "Oberfladungen"
  },
  {
    "postcode": "97650",
    "city": "Rüdenschwinden"
  },
  {
    "postcode": "97650",
    "city": "Sands"
  },
  {
    "postcode": "97650",
    "city": "Weimarschmieden"
  },
  {
    "postcode": "97650",
    "city": "Rhön-Grabfeld"
  },
  {
    "postcode": "97650",
    "city": "Heufurt"
  },
  {
    "postcode": "97653",
    "city": "Bischofsheim"
  },
  {
    "postcode": "97653",
    "city": "Bischofsheim an der Rhön"
  },
  {
    "postcode": "97653",
    "city": "Frankenheim Unterfranken"
  },
  {
    "postcode": "97653",
    "city": "Frankenheim"
  },
  {
    "postcode": "97653",
    "city": "Haselbach in der Rhön"
  },
  {
    "postcode": "97653",
    "city": "Oberweißenbrunn an der Rhön"
  },
  {
    "postcode": "97653",
    "city": "Unterweißenbrunn an der Rhön"
  },
  {
    "postcode": "97653",
    "city": "Wegfurt"
  },
  {
    "postcode": "97653",
    "city": "Rhön-Grabfeld"
  },
  {
    "postcode": "97653",
    "city": "Bischofsheim i.d.Rhön"
  },
  {
    "postcode": "97653",
    "city": "Unterweißenbrunn"
  },
  {
    "postcode": "97653",
    "city": "Oberweißenbrunn"
  },
  {
    "postcode": "97653",
    "city": "Haselbach"
  },
  {
    "postcode": "97653",
    "city": "Klosterkreuzberg"
  },
  {
    "postcode": "97654",
    "city": "Bastheim"
  },
  {
    "postcode": "97654",
    "city": "Braidbach"
  },
  {
    "postcode": "97654",
    "city": "Geckenau"
  },
  {
    "postcode": "97654",
    "city": "Reyersbach"
  },
  {
    "postcode": "97654",
    "city": "Rödles"
  },
  {
    "postcode": "97654",
    "city": "Simonshof"
  },
  {
    "postcode": "97654",
    "city": "Unterwaldbehrungen"
  },
  {
    "postcode": "97654",
    "city": "Wechterswinkel"
  },
  {
    "postcode": "97654",
    "city": "Rhön-Grabfeld"
  },
  {
    "postcode": "97656",
    "city": "Ginolfs Unterfranken"
  },
  {
    "postcode": "97656",
    "city": "Ginolfs"
  },
  {
    "postcode": "97656",
    "city": "Oberelsbach"
  },
  {
    "postcode": "97656",
    "city": "Sondernau"
  },
  {
    "postcode": "97656",
    "city": "Unterelsbach"
  },
  {
    "postcode": "97656",
    "city": "Weisbach Unterfranken"
  },
  {
    "postcode": "97656",
    "city": "Weisbach"
  },
  {
    "postcode": "97656",
    "city": "Rhön-Grabfeld"
  },
  {
    "postcode": "97657",
    "city": "Kilianshof"
  },
  {
    "postcode": "97657",
    "city": "Langenleiten"
  },
  {
    "postcode": "97657",
    "city": "Sandberg Unterfranken"
  },
  {
    "postcode": "97657",
    "city": "Sandberg"
  },
  {
    "postcode": "97657",
    "city": "Schmalwasser"
  },
  {
    "postcode": "97657",
    "city": "Waldberg Unterfranken"
  },
  {
    "postcode": "97657",
    "city": "Waldberg"
  },
  {
    "postcode": "97657",
    "city": "Rhön-Grabfeld"
  },
  {
    "postcode": "97657",
    "city": "Forst Schmalwasser-Süd"
  },
  {
    "postcode": "97659",
    "city": "Burgwallbach"
  },
  {
    "postcode": "97659",
    "city": "Schönau an der Brend"
  },
  {
    "postcode": "97659",
    "city": "Rhön-Grabfeld"
  },
  {
    "postcode": "97659",
    "city": "Schönau a.d.Brend"
  },
  {
    "postcode": "97659",
    "city": "Schönau"
  },
  {
    "postcode": "97688",
    "city": "Albertshausen bei Bad Kissingen"
  },
  {
    "postcode": "97688",
    "city": "Arnshausen"
  },
  {
    "postcode": "97688",
    "city": "Bad Kissingen"
  },
  {
    "postcode": "97688",
    "city": "Hausen bei Bad Kissingen"
  },
  {
    "postcode": "97688",
    "city": "Kleinbrach bei Bad Kissingen"
  },
  {
    "postcode": "97688",
    "city": "Poppenroth"
  },
  {
    "postcode": "97688",
    "city": "Reiterswiesen"
  },
  {
    "postcode": "97688",
    "city": "Winkels Unterfranken"
  },
  {
    "postcode": "97688",
    "city": "Winkels"
  },
  {
    "postcode": "97688",
    "city": "Garitz"
  },
  {
    "postcode": "97688",
    "city": "Albertshausen"
  },
  {
    "postcode": "97688",
    "city": "Hausen"
  },
  {
    "postcode": "97688",
    "city": "Kleinbrach"
  },
  {
    "postcode": "97702",
    "city": "Althausen Kreis Bad Kissingen"
  },
  {
    "postcode": "97702",
    "city": "Althausen"
  },
  {
    "postcode": "97702",
    "city": "Brünn bei Münnerstadt"
  },
  {
    "postcode": "97702",
    "city": "Burghausen bei Münnerstadt"
  },
  {
    "postcode": "97702",
    "city": "Fridritt"
  },
  {
    "postcode": "97702",
    "city": "Großwenkheim"
  },
  {
    "postcode": "97702",
    "city": "Kleinwenkheim"
  },
  {
    "postcode": "97702",
    "city": "Maria Bildhausen"
  },
  {
    "postcode": "97702",
    "city": "Münnerstadt"
  },
  {
    "postcode": "97702",
    "city": "Reichenbach bei Münnerstadt"
  },
  {
    "postcode": "97702",
    "city": "Seubrigshausen"
  },
  {
    "postcode": "97702",
    "city": "Wermerichshausen"
  },
  {
    "postcode": "97702",
    "city": "Windheim"
  },
  {
    "postcode": "97702",
    "city": "Bad Kissingen"
  },
  {
    "postcode": "97702",
    "city": "Reichenbach"
  },
  {
    "postcode": "97702",
    "city": "Burghausen"
  },
  {
    "postcode": "97702",
    "city": "Brünn"
  },
  {
    "postcode": "97705",
    "city": "Burkardroth"
  },
  {
    "postcode": "97705",
    "city": "Frauenroth"
  },
  {
    "postcode": "97705",
    "city": "Gefäll Kreis Bad Kissingen"
  },
  {
    "postcode": "97705",
    "city": "Gefäll"
  },
  {
    "postcode": "97705",
    "city": "Katzenbach Kreis Bad Kissingen"
  },
  {
    "postcode": "97705",
    "city": "Katzenbach"
  },
  {
    "postcode": "97705",
    "city": "Lauter bei Bad Kissingen"
  },
  {
    "postcode": "97705",
    "city": "Oehrberg"
  },
  {
    "postcode": "97705",
    "city": "Premich"
  },
  {
    "postcode": "97705",
    "city": "Stangenroth Kreis Bad Kissingen"
  },
  {
    "postcode": "97705",
    "city": "Stangenroth"
  },
  {
    "postcode": "97705",
    "city": "Stralsbach"
  },
  {
    "postcode": "97705",
    "city": "Waldfenster"
  },
  {
    "postcode": "97705",
    "city": "Wollbach bei Bad Kissingen"
  },
  {
    "postcode": "97705",
    "city": "Zahlbach"
  },
  {
    "postcode": "97705",
    "city": "Bad Kissingen"
  },
  {
    "postcode": "97705",
    "city": "Lauter"
  },
  {
    "postcode": "97705",
    "city": "Wollbach"
  },
  {
    "postcode": "97708",
    "city": "Aschach bei Bad Kissingen"
  },
  {
    "postcode": "97708",
    "city": "Bad Bocklet"
  },
  {
    "postcode": "97708",
    "city": "Großenbrach"
  },
  {
    "postcode": "97708",
    "city": "Hohn Unterfranken"
  },
  {
    "postcode": "97708",
    "city": "Hohn"
  },
  {
    "postcode": "97708",
    "city": "Nickersfelden"
  },
  {
    "postcode": "97708",
    "city": "Roth an der Saale"
  },
  {
    "postcode": "97708",
    "city": "Steinach an der Saale"
  },
  {
    "postcode": "97708",
    "city": "Bad Kissingen"
  },
  {
    "postcode": "97708",
    "city": "Steinach"
  },
  {
    "postcode": "97708",
    "city": "Aschach"
  },
  {
    "postcode": "97708",
    "city": "Roth"
  },
  {
    "postcode": "97711",
    "city": "Maßbach"
  },
  {
    "postcode": "97711",
    "city": "Poppenlauer"
  },
  {
    "postcode": "97711",
    "city": "Rothhausen"
  },
  {
    "postcode": "97711",
    "city": "Theinfeld"
  },
  {
    "postcode": "97711",
    "city": "Thundorf"
  },
  {
    "postcode": "97711",
    "city": "Thundorf in Unterfranken"
  },
  {
    "postcode": "97711",
    "city": "Volkershausen"
  },
  {
    "postcode": "97711",
    "city": "Weichtungen"
  },
  {
    "postcode": "97711",
    "city": "Bad Kissingen"
  },
  {
    "postcode": "97711",
    "city": "Thundorf i.UFr."
  },
  {
    "postcode": "97714",
    "city": "Ebenhausen Unterfranken"
  },
  {
    "postcode": "97714",
    "city": "Ebenhausen"
  },
  {
    "postcode": "97714",
    "city": "Eltingshausen"
  },
  {
    "postcode": "97714",
    "city": "Oerlenbach"
  },
  {
    "postcode": "97714",
    "city": "Rottershausen"
  },
  {
    "postcode": "97714",
    "city": "Bad Kissingen"
  },
  {
    "postcode": "97717",
    "city": "Aura an der Saale"
  },
  {
    "postcode": "97717",
    "city": "Euerdorf"
  },
  {
    "postcode": "97717",
    "city": "Sulzthal"
  },
  {
    "postcode": "97717",
    "city": "Wirmsthal"
  },
  {
    "postcode": "97717",
    "city": "Bad Kissingen"
  },
  {
    "postcode": "97717",
    "city": "Aura a.d.Saale"
  },
  {
    "postcode": "97720",
    "city": "Haard"
  },
  {
    "postcode": "97720",
    "city": "Nüdlingen"
  },
  {
    "postcode": "97720",
    "city": "Bad Kissingen"
  },
  {
    "postcode": "97723",
    "city": "Frankenbrunn"
  },
  {
    "postcode": "97723",
    "city": "Hassenbach"
  },
  {
    "postcode": "97723",
    "city": "Hetzlos"
  },
  {
    "postcode": "97723",
    "city": "Oberthulba"
  },
  {
    "postcode": "97723",
    "city": "Reith Unterfranken"
  },
  {
    "postcode": "97723",
    "city": "Reith"
  },
  {
    "postcode": "97723",
    "city": "Schlimpfhof"
  },
  {
    "postcode": "97723",
    "city": "Thulba"
  },
  {
    "postcode": "97723",
    "city": "Wittershausen Unterfranken"
  },
  {
    "postcode": "97723",
    "city": "Wittershausen"
  },
  {
    "postcode": "97723",
    "city": "Bad Kissingen"
  },
  {
    "postcode": "97724",
    "city": "Burglauer"
  },
  {
    "postcode": "97724",
    "city": "Rhön-Grabfeld"
  },
  {
    "postcode": "97725",
    "city": "Elfershausen"
  },
  {
    "postcode": "97725",
    "city": "Elfershausen Unterfranken"
  },
  {
    "postcode": "97725",
    "city": "Engenthal"
  },
  {
    "postcode": "97725",
    "city": "Langendorf Unterfranken"
  },
  {
    "postcode": "97725",
    "city": "Langendorf"
  },
  {
    "postcode": "97725",
    "city": "Machtilshausen"
  },
  {
    "postcode": "97725",
    "city": "Trimberg"
  },
  {
    "postcode": "97725",
    "city": "Bad Kissingen"
  },
  {
    "postcode": "97727",
    "city": "Fuchsstadt Unterfranken"
  },
  {
    "postcode": "97727",
    "city": "Fuchsstadt"
  },
  {
    "postcode": "97727",
    "city": "Bad Kissingen"
  },
  {
    "postcode": "97729",
    "city": "Ramsthal"
  },
  {
    "postcode": "97729",
    "city": "Bad Kissingen"
  },
  {
    "postcode": "97737",
    "city": "Adelsberg Unterfranken"
  },
  {
    "postcode": "97737",
    "city": "Adelsberg"
  },
  {
    "postcode": "97737",
    "city": "Aschenroth"
  },
  {
    "postcode": "97737",
    "city": "Gemünden"
  },
  {
    "postcode": "97737",
    "city": "Gemünden am Main"
  },
  {
    "postcode": "97737",
    "city": "Harrbach am Main"
  },
  {
    "postcode": "97737",
    "city": "Hofstetten am Main"
  },
  {
    "postcode": "97737",
    "city": "Kleinwernfeld am Main"
  },
  {
    "postcode": "97737",
    "city": "Langenprozelten"
  },
  {
    "postcode": "97737",
    "city": "Massenbuch am Main"
  },
  {
    "postcode": "97737",
    "city": "Neutzenbrunn"
  },
  {
    "postcode": "97737",
    "city": "Reichenbuch"
  },
  {
    "postcode": "97737",
    "city": "Schaippach"
  },
  {
    "postcode": "97737",
    "city": "Schönau bei Gemünden am Main"
  },
  {
    "postcode": "97737",
    "city": "Seifriedsburg"
  },
  {
    "postcode": "97737",
    "city": "Wernfeld"
  },
  {
    "postcode": "97737",
    "city": "Main-Spessart"
  },
  {
    "postcode": "97737",
    "city": "Gemünden a. Main"
  },
  {
    "postcode": "97737",
    "city": "Harrbach"
  },
  {
    "postcode": "97737",
    "city": "Hofstetten"
  },
  {
    "postcode": "97737",
    "city": "Massenbuch"
  },
  {
    "postcode": "97737",
    "city": "Schönau"
  },
  {
    "postcode": "97753",
    "city": "Erlenbach"
  },
  {
    "postcode": "97753",
    "city": "Gambach Unterfranken"
  },
  {
    "postcode": "97753",
    "city": "Gambach"
  },
  {
    "postcode": "97753",
    "city": "Heßlar Unterfranken"
  },
  {
    "postcode": "97753",
    "city": "Heßlar"
  },
  {
    "postcode": "97753",
    "city": "Karlburg"
  },
  {
    "postcode": "97753",
    "city": "Karlstadt"
  },
  {
    "postcode": "97753",
    "city": "Karlstadt Main"
  },
  {
    "postcode": "97753",
    "city": "Laudenbach bei Gemünden am Main"
  },
  {
    "postcode": "97753",
    "city": "Mühlbach Main"
  },
  {
    "postcode": "97753",
    "city": "Mühlbach"
  },
  {
    "postcode": "97753",
    "city": "Rettersbach"
  },
  {
    "postcode": "97753",
    "city": "Rohrbach Unterfranken"
  },
  {
    "postcode": "97753",
    "city": "Rohrbach"
  },
  {
    "postcode": "97753",
    "city": "Stadelhofen Unterfranken"
  },
  {
    "postcode": "97753",
    "city": "Stadelhofen"
  },
  {
    "postcode": "97753",
    "city": "Stetten Wern"
  },
  {
    "postcode": "97753",
    "city": "Stetten"
  },
  {
    "postcode": "97753",
    "city": "Wiesenfeld Unterfranken"
  },
  {
    "postcode": "97753",
    "city": "Wiesenfeld"
  },
  {
    "postcode": "97753",
    "city": "Main-Spessart"
  },
  {
    "postcode": "97753",
    "city": "Laudenbach"
  },
  {
    "postcode": "97762",
    "city": "Diebach Unterfranken"
  },
  {
    "postcode": "97762",
    "city": "Diebach"
  },
  {
    "postcode": "97762",
    "city": "Feuerthal bei Bad Kissingen"
  },
  {
    "postcode": "97762",
    "city": "Gauaschach"
  },
  {
    "postcode": "97762",
    "city": "Hammelburg"
  },
  {
    "postcode": "97762",
    "city": "Lager Hammelburg"
  },
  {
    "postcode": "97762",
    "city": "Morlesau Unterfranken"
  },
  {
    "postcode": "97762",
    "city": "Morlesau"
  },
  {
    "postcode": "97762",
    "city": "Obererthal"
  },
  {
    "postcode": "97762",
    "city": "Obereschenbach"
  },
  {
    "postcode": "97762",
    "city": "Ochsenthal Unterfranken"
  },
  {
    "postcode": "97762",
    "city": "Ochsenthal"
  },
  {
    "postcode": "97762",
    "city": "Pfaffenhausen"
  },
  {
    "postcode": "97762",
    "city": "Untererthal"
  },
  {
    "postcode": "97762",
    "city": "Untereschenbach Unterfranken"
  },
  {
    "postcode": "97762",
    "city": "Untereschenbach"
  },
  {
    "postcode": "97762",
    "city": "Westheim bei Bad Kissingen"
  },
  {
    "postcode": "97762",
    "city": "Bad Kissingen"
  },
  {
    "postcode": "97762",
    "city": "Westheim"
  },
  {
    "postcode": "97762",
    "city": "Feuerthal"
  },
  {
    "postcode": "97769",
    "city": "Bad Brückenau"
  },
  {
    "postcode": "97769",
    "city": "Römershag"
  },
  {
    "postcode": "97769",
    "city": "Volkers"
  },
  {
    "postcode": "97769",
    "city": "Wernarz"
  },
  {
    "postcode": "97769",
    "city": "Bad Kissingen"
  },
  {
    "postcode": "97772",
    "city": "Oberbach Unterfranken"
  },
  {
    "postcode": "97772",
    "city": "Oberbach"
  },
  {
    "postcode": "97772",
    "city": "Oberwildflecken"
  },
  {
    "postcode": "97772",
    "city": "Wildflecken"
  },
  {
    "postcode": "97772",
    "city": "Bad Kissingen"
  },
  {
    "postcode": "97772",
    "city": "Eckartsroth"
  },
  {
    "postcode": "97773",
    "city": "Aura"
  },
  {
    "postcode": "97773",
    "city": "Aura im Sinngrund"
  },
  {
    "postcode": "97773",
    "city": "Deutelbach im Sinngrund"
  },
  {
    "postcode": "97773",
    "city": "Main-Spessart"
  },
  {
    "postcode": "97773",
    "city": "Aura i. Sinngrund"
  },
  {
    "postcode": "97773",
    "city": "Jossgrund"
  },
  {
    "postcode": "97773",
    "city": "Deutelbach"
  },
  {
    "postcode": "97773",
    "city": "Burgjoß"
  },
  {
    "postcode": "97775",
    "city": "Burgsinn"
  },
  {
    "postcode": "97775",
    "city": "Main-Spessart"
  },
  {
    "postcode": "97776",
    "city": "Aschfeld"
  },
  {
    "postcode": "97776",
    "city": "Bühler Unterfranken"
  },
  {
    "postcode": "97776",
    "city": "Bühler"
  },
  {
    "postcode": "97776",
    "city": "Eußenheim"
  },
  {
    "postcode": "97776",
    "city": "Hundsbach Unterfranken"
  },
  {
    "postcode": "97776",
    "city": "Hundsbach"
  },
  {
    "postcode": "97776",
    "city": "Münster Unterfranken"
  },
  {
    "postcode": "97776",
    "city": "Münster"
  },
  {
    "postcode": "97776",
    "city": "Obersfeld"
  },
  {
    "postcode": "97776",
    "city": "Schönarts"
  },
  {
    "postcode": "97776",
    "city": "Main-Spessart"
  },
  {
    "postcode": "97778",
    "city": "Fellen"
  },
  {
    "postcode": "97778",
    "city": "Neuhof"
  },
  {
    "postcode": "97778",
    "city": "Rengersbrunn"
  },
  {
    "postcode": "97778",
    "city": "Wohnrod"
  },
  {
    "postcode": "97778",
    "city": "Main-Spessart"
  },
  {
    "postcode": "97779",
    "city": "Geroda"
  },
  {
    "postcode": "97779",
    "city": "Geroda Unterfranken"
  },
  {
    "postcode": "97779",
    "city": "Platz Unterfranken"
  },
  {
    "postcode": "97779",
    "city": "Platz"
  },
  {
    "postcode": "97779",
    "city": "Bad Kissingen"
  },
  {
    "postcode": "97780",
    "city": "Gössenheim"
  },
  {
    "postcode": "97780",
    "city": "Sachsenheim Unterfranken"
  },
  {
    "postcode": "97780",
    "city": "Sachsenheim"
  },
  {
    "postcode": "97780",
    "city": "Main-Spessart"
  },
  {
    "postcode": "97782",
    "city": "Eidenbacherhof Unterfranken"
  },
  {
    "postcode": "97782",
    "city": "Eidenbacherhof"
  },
  {
    "postcode": "97782",
    "city": "Gräfendorf Unterfranken"
  },
  {
    "postcode": "97782",
    "city": "Gräfendorf"
  },
  {
    "postcode": "97782",
    "city": "Michelau an der Saale"
  },
  {
    "postcode": "97782",
    "city": "Schonderfeld"
  },
  {
    "postcode": "97782",
    "city": "Weickersgrüben am Main"
  },
  {
    "postcode": "97782",
    "city": "Wolfsmünster"
  },
  {
    "postcode": "97782",
    "city": "Main-Spessart"
  },
  {
    "postcode": "97782",
    "city": "Weickersgrüben"
  },
  {
    "postcode": "97782",
    "city": "Michelau"
  },
  {
    "postcode": "97783",
    "city": "Heßdorf Unterfranken"
  },
  {
    "postcode": "97783",
    "city": "Heßdorf"
  },
  {
    "postcode": "97783",
    "city": "Höllrich"
  },
  {
    "postcode": "97783",
    "city": "Karsbach"
  },
  {
    "postcode": "97783",
    "city": "Weyersfeld am Main"
  },
  {
    "postcode": "97783",
    "city": "Main-Spessart"
  },
  {
    "postcode": "97783",
    "city": "Weyersfeld"
  },
  {
    "postcode": "97785",
    "city": "Mittelsinn"
  },
  {
    "postcode": "97785",
    "city": "Main-Spessart"
  },
  {
    "postcode": "97786",
    "city": "Kothen"
  },
  {
    "postcode": "97786",
    "city": "Motten"
  },
  {
    "postcode": "97786",
    "city": "Speicherz"
  },
  {
    "postcode": "97786",
    "city": "Bad Kissingen"
  },
  {
    "postcode": "97788",
    "city": "Nantenbach Main"
  },
  {
    "postcode": "97788",
    "city": "Nantenbach"
  },
  {
    "postcode": "97788",
    "city": "Neuendorf Main"
  },
  {
    "postcode": "97788",
    "city": "Neuendorf"
  },
  {
    "postcode": "97788",
    "city": "Main-Spessart"
  },
  {
    "postcode": "97789",
    "city": "Breitenbach Unterfranken"
  },
  {
    "postcode": "97789",
    "city": "Breitenbach"
  },
  {
    "postcode": "97789",
    "city": "Buchrasen"
  },
  {
    "postcode": "97789",
    "city": "Mitgenfeld Unterfranken"
  },
  {
    "postcode": "97789",
    "city": "Mitgenfeld"
  },
  {
    "postcode": "97789",
    "city": "Modlos"
  },
  {
    "postcode": "97789",
    "city": "Oberleichtersbach"
  },
  {
    "postcode": "97789",
    "city": "Unterleichtersbach"
  },
  {
    "postcode": "97789",
    "city": "Bad Kissingen"
  },
  {
    "postcode": "97791",
    "city": "Emmerichsthal"
  },
  {
    "postcode": "97791",
    "city": "Obersinn"
  },
  {
    "postcode": "97791",
    "city": "Main-Spessart"
  },
  {
    "postcode": "97792",
    "city": "Riedenberg"
  },
  {
    "postcode": "97792",
    "city": "Riedenberg Rhön"
  },
  {
    "postcode": "97792",
    "city": "Bad Kissingen"
  },
  {
    "postcode": "97792",
    "city": "Neufriedrichstal"
  },
  {
    "postcode": "97794",
    "city": "Rieneck"
  },
  {
    "postcode": "97794",
    "city": "Main-Spessart"
  },
  {
    "postcode": "97795",
    "city": "Einraffshof"
  },
  {
    "postcode": "97795",
    "city": "Obergeiersnest"
  },
  {
    "postcode": "97795",
    "city": "Schildeck Unterfranken"
  },
  {
    "postcode": "97795",
    "city": "Schildeck"
  },
  {
    "postcode": "97795",
    "city": "Schönderling"
  },
  {
    "postcode": "97795",
    "city": "Schondra"
  },
  {
    "postcode": "97795",
    "city": "Singenrain"
  },
  {
    "postcode": "97795",
    "city": "Untergeiersnest"
  },
  {
    "postcode": "97795",
    "city": "Bad Kissingen"
  },
  {
    "postcode": "97795",
    "city": "Münchau"
  },
  {
    "postcode": "97795",
    "city": "Schmittrain"
  },
  {
    "postcode": "97797",
    "city": "Dittlofsroda"
  },
  {
    "postcode": "97797",
    "city": "Heckmühle"
  },
  {
    "postcode": "97797",
    "city": "Heiligkreuz"
  },
  {
    "postcode": "97797",
    "city": "Schwärzelbach Unterfranken"
  },
  {
    "postcode": "97797",
    "city": "Schwärzelbach"
  },
  {
    "postcode": "97797",
    "city": "Völkersleier"
  },
  {
    "postcode": "97797",
    "city": "Waizenbach Unterfranken"
  },
  {
    "postcode": "97797",
    "city": "Waizenbach"
  },
  {
    "postcode": "97797",
    "city": "Wartmannsroth"
  },
  {
    "postcode": "97797",
    "city": "Windheim"
  },
  {
    "postcode": "97797",
    "city": "Bad Kissingen"
  },
  {
    "postcode": "97797",
    "city": "Neuwirtshaus"
  },
  {
    "postcode": "97799",
    "city": "Detter"
  },
  {
    "postcode": "97799",
    "city": "Eckarts"
  },
  {
    "postcode": "97799",
    "city": "Roßbach"
  },
  {
    "postcode": "97799",
    "city": "Rupboden"
  },
  {
    "postcode": "97799",
    "city": "Schmidthof"
  },
  {
    "postcode": "97799",
    "city": "Trübenbrunn"
  },
  {
    "postcode": "97799",
    "city": "Weißenbach"
  },
  {
    "postcode": "97799",
    "city": "Zeitlofs"
  },
  {
    "postcode": "97799",
    "city": "Bad Kissingen"
  },
  {
    "postcode": "97816",
    "city": "Halsbach Unterfranken"
  },
  {
    "postcode": "97816",
    "city": "Halsbach"
  },
  {
    "postcode": "97816",
    "city": "Lohr"
  },
  {
    "postcode": "97816",
    "city": "Lohr am Main"
  },
  {
    "postcode": "97816",
    "city": "Pflochsbach"
  },
  {
    "postcode": "97816",
    "city": "Rodenbach Unterfranken"
  },
  {
    "postcode": "97816",
    "city": "Rodenbach"
  },
  {
    "postcode": "97816",
    "city": "Ruppertshütten"
  },
  {
    "postcode": "97816",
    "city": "Sackenbach"
  },
  {
    "postcode": "97816",
    "city": "Sendelbach"
  },
  {
    "postcode": "97816",
    "city": "Steinbach bei Lohr am Main"
  },
  {
    "postcode": "97816",
    "city": "Wombach"
  },
  {
    "postcode": "97816",
    "city": "Main-Spessart"
  },
  {
    "postcode": "97816",
    "city": "Lohr a. Main"
  },
  {
    "postcode": "97816",
    "city": "Steinbach"
  },
  {
    "postcode": "97828",
    "city": "Altfeld Unterfranken"
  },
  {
    "postcode": "97828",
    "city": "Altfeld"
  },
  {
    "postcode": "97828",
    "city": "Glasofen"
  },
  {
    "postcode": "97828",
    "city": "Marienbrunn"
  },
  {
    "postcode": "97828",
    "city": "Marktheidenfeld"
  },
  {
    "postcode": "97828",
    "city": "Michelrieth"
  },
  {
    "postcode": "97828",
    "city": "Oberwittbach Unterfranken"
  },
  {
    "postcode": "97828",
    "city": "Oberwittbach"
  },
  {
    "postcode": "97828",
    "city": "Zimmern Unterfranken"
  },
  {
    "postcode": "97828",
    "city": "Zimmern"
  },
  {
    "postcode": "97828",
    "city": "Main-Spessart"
  },
  {
    "postcode": "97833",
    "city": "Frammersbach"
  },
  {
    "postcode": "97833",
    "city": "Habichsthal"
  },
  {
    "postcode": "97833",
    "city": "Main-Spessart"
  },
  {
    "postcode": "97834",
    "city": "Billingshausen"
  },
  {
    "postcode": "97834",
    "city": "Birkenfeld"
  },
  {
    "postcode": "97834",
    "city": "Birkenfeld bei Marktheidenfeld"
  },
  {
    "postcode": "97834",
    "city": "Main-Spessart"
  },
  {
    "postcode": "97836",
    "city": "Bischbrunn"
  },
  {
    "postcode": "97836",
    "city": "Oberndorf bei Marktheidenfeld"
  },
  {
    "postcode": "97836",
    "city": "Main-Spessart"
  },
  {
    "postcode": "97836",
    "city": "Karlshöhe"
  },
  {
    "postcode": "97836",
    "city": "Schleifthor"
  },
  {
    "postcode": "97836",
    "city": "Oberndorf"
  },
  {
    "postcode": "97837",
    "city": "Erlenbach"
  },
  {
    "postcode": "97837",
    "city": "Erlenbach bei Marktheidenfeld"
  },
  {
    "postcode": "97837",
    "city": "Tiefenthal bei Lohr am Main"
  },
  {
    "postcode": "97837",
    "city": "Main-Spessart"
  },
  {
    "postcode": "97837",
    "city": "Erlenbach b. Marktheidenfeld"
  },
  {
    "postcode": "97837",
    "city": "Tiefenthal"
  },
  {
    "postcode": "97839",
    "city": "Esselbach"
  },
  {
    "postcode": "97839",
    "city": "Kredenbach Unterfranken"
  },
  {
    "postcode": "97839",
    "city": "Kredenbach"
  },
  {
    "postcode": "97839",
    "city": "Steinmark"
  },
  {
    "postcode": "97839",
    "city": "Main-Spessart"
  },
  {
    "postcode": "97839",
    "city": "Luckau"
  },
  {
    "postcode": "97839",
    "city": "Fürstlich Löwensteinscher Park"
  },
  {
    "postcode": "97840",
    "city": "Diana"
  },
  {
    "postcode": "97840",
    "city": "Einsiedel"
  },
  {
    "postcode": "97840",
    "city": "Hafenlohr"
  },
  {
    "postcode": "97840",
    "city": "Lichtenau Unterfranken"
  },
  {
    "postcode": "97840",
    "city": "Lichtenau"
  },
  {
    "postcode": "97840",
    "city": "Lindenfurterhof"
  },
  {
    "postcode": "97840",
    "city": "Windheim bei Hafenlohr"
  },
  {
    "postcode": "97840",
    "city": "Main-Spessart"
  },
  {
    "postcode": "97840",
    "city": "Erlenfurt"
  },
  {
    "postcode": "97840",
    "city": "Windheim"
  },
  {
    "postcode": "97842",
    "city": "Karbach Unterfranken"
  },
  {
    "postcode": "97842",
    "city": "Karbach"
  },
  {
    "postcode": "97842",
    "city": "Main-Spessart"
  },
  {
    "postcode": "97843",
    "city": "Neuhütten Unterfranken"
  },
  {
    "postcode": "97843",
    "city": "Neuhütten"
  },
  {
    "postcode": "97843",
    "city": "Main-Spessart"
  },
  {
    "postcode": "97845",
    "city": "Erlach am Main"
  },
  {
    "postcode": "97845",
    "city": "Neustadt am Main"
  },
  {
    "postcode": "97845",
    "city": "Main-Spessart"
  },
  {
    "postcode": "97845",
    "city": "Neustadt a. Main"
  },
  {
    "postcode": "97845",
    "city": "Erlach"
  },
  {
    "postcode": "97845",
    "city": "Neustadt"
  },
  {
    "postcode": "97846",
    "city": "Partenstein im Spessart"
  },
  {
    "postcode": "97846",
    "city": "Main-Spessart"
  },
  {
    "postcode": "97846",
    "city": "Partenstein"
  },
  {
    "postcode": "97848",
    "city": "Rechtenbach Spessart"
  },
  {
    "postcode": "97848",
    "city": "Rechtenbach"
  },
  {
    "postcode": "97848",
    "city": "Main-Spessart"
  },
  {
    "postcode": "97848",
    "city": "Forst (Lausitz)"
  },
  {
    "postcode": "97848",
    "city": "Forst Lohrerstraße"
  },
  {
    "postcode": "97848",
    "city": "Forst"
  },
  {
    "postcode": "97849",
    "city": "Ansbach Unterfranken"
  },
  {
    "postcode": "97849",
    "city": "Ansbach"
  },
  {
    "postcode": "97849",
    "city": "Roden"
  },
  {
    "postcode": "97849",
    "city": "Roden Unterfranken"
  },
  {
    "postcode": "97849",
    "city": "Main-Spessart"
  },
  {
    "postcode": "97851",
    "city": "Bergrothenfels"
  },
  {
    "postcode": "97851",
    "city": "Rothenfels"
  },
  {
    "postcode": "97851",
    "city": "Rothenfels Unterfranken"
  },
  {
    "postcode": "97851",
    "city": "Main-Spessart"
  },
  {
    "postcode": "97852",
    "city": "Schollbrunn Spessart"
  },
  {
    "postcode": "97852",
    "city": "Schollbrunn"
  },
  {
    "postcode": "97852",
    "city": "Main-Spessart"
  },
  {
    "postcode": "97852",
    "city": "Schleifmühle"
  },
  {
    "postcode": "97854",
    "city": "Hausen bei Lohr am Main"
  },
  {
    "postcode": "97854",
    "city": "Steinfeld bei Lohr am Main"
  },
  {
    "postcode": "97854",
    "city": "Waldzell Unterfranken"
  },
  {
    "postcode": "97854",
    "city": "Waldzell"
  },
  {
    "postcode": "97854",
    "city": "Main-Spessart"
  },
  {
    "postcode": "97854",
    "city": "Steinfeld"
  },
  {
    "postcode": "97854",
    "city": "Hausen"
  },
  {
    "postcode": "97855",
    "city": "Homburg am Main"
  },
  {
    "postcode": "97855",
    "city": "Lengfurt"
  },
  {
    "postcode": "97855",
    "city": "Rettersheim"
  },
  {
    "postcode": "97855",
    "city": "Trennfeld"
  },
  {
    "postcode": "97855",
    "city": "Triefenstein"
  },
  {
    "postcode": "97855",
    "city": "Main-Spessart"
  },
  {
    "postcode": "97855",
    "city": "Homburg"
  },
  {
    "postcode": "97855",
    "city": "Kloster Triefenstein"
  },
  {
    "postcode": "97857",
    "city": "Urspringen bei Marktheidenfeld"
  },
  {
    "postcode": "97857",
    "city": "Main-Spessart"
  },
  {
    "postcode": "97857",
    "city": "Urspringen"
  },
  {
    "postcode": "97859",
    "city": "Krommenthal"
  },
  {
    "postcode": "97859",
    "city": "Wiesthal"
  },
  {
    "postcode": "97859",
    "city": "Wiesthal Unterfranken"
  },
  {
    "postcode": "97859",
    "city": "Main-Spessart"
  },
  {
    "postcode": "97877",
    "city": "Bestenheid"
  },
  {
    "postcode": "97877",
    "city": "Bettingen"
  },
  {
    "postcode": "97877",
    "city": "Bronnbach Tauber"
  },
  {
    "postcode": "97877",
    "city": "Bronnbach"
  },
  {
    "postcode": "97877",
    "city": "Dertingen"
  },
  {
    "postcode": "97877",
    "city": "Dietenhan"
  },
  {
    "postcode": "97877",
    "city": "Dörlesberg"
  },
  {
    "postcode": "97877",
    "city": "Eichel"
  },
  {
    "postcode": "97877",
    "city": "Grünenwört"
  },
  {
    "postcode": "97877",
    "city": "Hofgarten"
  },
  {
    "postcode": "97877",
    "city": "Höhefeld"
  },
  {
    "postcode": "97877",
    "city": "Kembach"
  },
  {
    "postcode": "97877",
    "city": "Lindelbach"
  },
  {
    "postcode": "97877",
    "city": "Mittelhof Tauber"
  },
  {
    "postcode": "97877",
    "city": "Mittelhof"
  },
  {
    "postcode": "97877",
    "city": "Mondfeld"
  },
  {
    "postcode": "97877",
    "city": "Nassig"
  },
  {
    "postcode": "97877",
    "city": "Reicholzheim"
  },
  {
    "postcode": "97877",
    "city": "Sachsenhausen"
  },
  {
    "postcode": "97877",
    "city": "Schafhof Tauber"
  },
  {
    "postcode": "97877",
    "city": "Schafhof"
  },
  {
    "postcode": "97877",
    "city": "Sonderriet"
  },
  {
    "postcode": "97877",
    "city": "Urphar"
  },
  {
    "postcode": "97877",
    "city": "Wagenbuch Tauber"
  },
  {
    "postcode": "97877",
    "city": "Wagenbuch"
  },
  {
    "postcode": "97877",
    "city": "Waldenhausen"
  },
  {
    "postcode": "97877",
    "city": "Wertheim"
  },
  {
    "postcode": "97877",
    "city": "Wertheim am Main"
  },
  {
    "postcode": "97877",
    "city": "Main-Tauber-Kreis"
  },
  {
    "postcode": "97877",
    "city": "Vockenrot"
  },
  {
    "postcode": "97877",
    "city": "Wartberg"
  },
  {
    "postcode": "97877",
    "city": "Reinhardshof"
  },
  {
    "postcode": "97877",
    "city": "Auf der Bestenheider Höhe"
  },
  {
    "postcode": "97877",
    "city": "Nassig-Steingasse"
  },
  {
    "postcode": "97892",
    "city": "Kreuzwertheim"
  },
  {
    "postcode": "97892",
    "city": "Röttbach"
  },
  {
    "postcode": "97892",
    "city": "Unterwittbach"
  },
  {
    "postcode": "97892",
    "city": "Wiebelbach"
  },
  {
    "postcode": "97892",
    "city": "Main-Spessart"
  },
  {
    "postcode": "97896",
    "city": "Boxtal"
  },
  {
    "postcode": "97896",
    "city": "Dürrhof Odenwald"
  },
  {
    "postcode": "97896",
    "city": "Dürrhof"
  },
  {
    "postcode": "97896",
    "city": "Ebenheid"
  },
  {
    "postcode": "97896",
    "city": "Freudenberg (Baden)"
  },
  {
    "postcode": "97896",
    "city": "Freudenberg"
  },
  {
    "postcode": "97896",
    "city": "Rauenberg"
  },
  {
    "postcode": "97896",
    "city": "Wessental"
  },
  {
    "postcode": "97896",
    "city": "Main-Tauber-Kreis"
  },
  {
    "postcode": "97896",
    "city": "Kirschfurt"
  },
  {
    "postcode": "97900",
    "city": "Eiersheim"
  },
  {
    "postcode": "97900",
    "city": "Hundheim"
  },
  {
    "postcode": "97900",
    "city": "Külsheim"
  },
  {
    "postcode": "97900",
    "city": "Külsheim (Baden)"
  },
  {
    "postcode": "97900",
    "city": "Steinbach"
  },
  {
    "postcode": "97900",
    "city": "Steinfurt"
  },
  {
    "postcode": "97900",
    "city": "Uissigheim"
  },
  {
    "postcode": "97900",
    "city": "Main-Tauber-Kreis"
  },
  {
    "postcode": "97900",
    "city": "Tiefental"
  },
  {
    "postcode": "97901",
    "city": "Altenbuch Unterfranken"
  },
  {
    "postcode": "97901",
    "city": "Altenbuch"
  },
  {
    "postcode": "97901",
    "city": "Miltenberg"
  },
  {
    "postcode": "97903",
    "city": "Collenberg"
  },
  {
    "postcode": "97903",
    "city": "Fechenbach"
  },
  {
    "postcode": "97903",
    "city": "Reistenhausen"
  },
  {
    "postcode": "97903",
    "city": "Miltenberg"
  },
  {
    "postcode": "97904",
    "city": "Dorfprozelten"
  },
  {
    "postcode": "97904",
    "city": "Miltenberg"
  },
  {
    "postcode": "97906",
    "city": "Breitenbrunn Unterfranken"
  },
  {
    "postcode": "97906",
    "city": "Breitenbrunn"
  },
  {
    "postcode": "97906",
    "city": "Faulbach Unterfranken"
  },
  {
    "postcode": "97906",
    "city": "Faulbach"
  },
  {
    "postcode": "97906",
    "city": "Miltenberg"
  },
  {
    "postcode": "97907",
    "city": "Eisenhammer Main"
  },
  {
    "postcode": "97907",
    "city": "Eisenhammer"
  },
  {
    "postcode": "97907",
    "city": "Hasloch"
  },
  {
    "postcode": "97907",
    "city": "Hasloch Main"
  },
  {
    "postcode": "97907",
    "city": "Hasselberg Main"
  },
  {
    "postcode": "97907",
    "city": "Hasselberg"
  },
  {
    "postcode": "97907",
    "city": "Main-Spessart"
  },
  {
    "postcode": "97909",
    "city": "Neuenbuch"
  },
  {
    "postcode": "97909",
    "city": "Stadtprozelten"
  },
  {
    "postcode": "97909",
    "city": "Miltenberg"
  },
  {
    "postcode": "97922",
    "city": "Beckstein"
  },
  {
    "postcode": "97922",
    "city": "Deubach Württemberg"
  },
  {
    "postcode": "97922",
    "city": "Deubach"
  },
  {
    "postcode": "97922",
    "city": "Gerlachsheim Baden"
  },
  {
    "postcode": "97922",
    "city": "Gerlachsheim"
  },
  {
    "postcode": "97922",
    "city": "Heckfeld"
  },
  {
    "postcode": "97922",
    "city": "Hofstetten bei Lauda"
  },
  {
    "postcode": "97922",
    "city": "Königshofen Baden"
  },
  {
    "postcode": "97922",
    "city": "Königshofen"
  },
  {
    "postcode": "97922",
    "city": "Lauda"
  },
  {
    "postcode": "97922",
    "city": "Lauda-Königshofen"
  },
  {
    "postcode": "97922",
    "city": "Marbach Tauber"
  },
  {
    "postcode": "97922",
    "city": "Marbach"
  },
  {
    "postcode": "97922",
    "city": "Messelhausen"
  },
  {
    "postcode": "97922",
    "city": "Oberbalbach"
  },
  {
    "postcode": "97922",
    "city": "Oberlauda"
  },
  {
    "postcode": "97922",
    "city": "Sachsenflur"
  },
  {
    "postcode": "97922",
    "city": "Unterbalbach"
  },
  {
    "postcode": "97922",
    "city": "Main-Tauber-Kreis"
  },
  {
    "postcode": "97941",
    "city": "Dienstadt"
  },
  {
    "postcode": "97941",
    "city": "Distelhausen"
  },
  {
    "postcode": "97941",
    "city": "Dittigheim"
  },
  {
    "postcode": "97941",
    "city": "Dittwar"
  },
  {
    "postcode": "97941",
    "city": "Hochhausen Tauber"
  },
  {
    "postcode": "97941",
    "city": "Hochhausen"
  },
  {
    "postcode": "97941",
    "city": "Impfingen Tauber"
  },
  {
    "postcode": "97941",
    "city": "Impfingen"
  },
  {
    "postcode": "97941",
    "city": "Tauberbischofsheim"
  },
  {
    "postcode": "97941",
    "city": "Main-Tauber-Kreis"
  },
  {
    "postcode": "97944",
    "city": "Angeltürn"
  },
  {
    "postcode": "97944",
    "city": "Bobstadt"
  },
  {
    "postcode": "97944",
    "city": "Boxberg"
  },
  {
    "postcode": "97944",
    "city": "Boxberg (Baden)"
  },
  {
    "postcode": "97944",
    "city": "Epplingen"
  },
  {
    "postcode": "97944",
    "city": "Kupprichhausen"
  },
  {
    "postcode": "97944",
    "city": "Lengenrieden"
  },
  {
    "postcode": "97944",
    "city": "Oberschüpf"
  },
  {
    "postcode": "97944",
    "city": "Schwabhausen"
  },
  {
    "postcode": "97944",
    "city": "Schweigern"
  },
  {
    "postcode": "97944",
    "city": "Uiffingen"
  },
  {
    "postcode": "97944",
    "city": "Unterschüpf"
  },
  {
    "postcode": "97944",
    "city": "Windischbuch"
  },
  {
    "postcode": "97944",
    "city": "Wölchingen"
  },
  {
    "postcode": "97944",
    "city": "Main-Tauber-Kreis"
  },
  {
    "postcode": "97947",
    "city": "Grünsfeld"
  },
  {
    "postcode": "97947",
    "city": "Krensheim"
  },
  {
    "postcode": "97947",
    "city": "Kützbrunn"
  },
  {
    "postcode": "97947",
    "city": "Paimar"
  },
  {
    "postcode": "97947",
    "city": "Zimmern"
  },
  {
    "postcode": "97947",
    "city": "Main-Tauber-Kreis"
  },
  {
    "postcode": "97947",
    "city": "Grünsfeld-Hausen"
  },
  {
    "postcode": "97950",
    "city": "Gerchsheim"
  },
  {
    "postcode": "97950",
    "city": "Großrinderfeld"
  },
  {
    "postcode": "97950",
    "city": "Ilmspan"
  },
  {
    "postcode": "97950",
    "city": "Schönfeld"
  },
  {
    "postcode": "97950",
    "city": "Main-Tauber-Kreis"
  },
  {
    "postcode": "97953",
    "city": "Brehmen Baden"
  },
  {
    "postcode": "97953",
    "city": "Brehmen"
  },
  {
    "postcode": "97953",
    "city": "Gissigheim"
  },
  {
    "postcode": "97953",
    "city": "Königheim"
  },
  {
    "postcode": "97953",
    "city": "Pülfringen"
  },
  {
    "postcode": "97953",
    "city": "Weikerstetten Hof"
  },
  {
    "postcode": "97953",
    "city": "Weikerstetten"
  },
  {
    "postcode": "97953",
    "city": "Main-Tauber-Kreis"
  },
  {
    "postcode": "97956",
    "city": "Brunntal"
  },
  {
    "postcode": "97956",
    "city": "Gamburg Tauber"
  },
  {
    "postcode": "97956",
    "city": "Gamburg"
  },
  {
    "postcode": "97956",
    "city": "Niklashausen"
  },
  {
    "postcode": "97956",
    "city": "Wenkheim"
  },
  {
    "postcode": "97956",
    "city": "Werbach"
  },
  {
    "postcode": "97956",
    "city": "Werbachhausen"
  },
  {
    "postcode": "97956",
    "city": "Main-Tauber-Kreis"
  },
  {
    "postcode": "97957",
    "city": "Lilach Hof"
  },
  {
    "postcode": "97957",
    "city": "Lilach"
  },
  {
    "postcode": "97957",
    "city": "Oberwittighausen"
  },
  {
    "postcode": "97957",
    "city": "Poppenhausen Baden"
  },
  {
    "postcode": "97957",
    "city": "Poppenhausen"
  },
  {
    "postcode": "97957",
    "city": "Unterwittighausen"
  },
  {
    "postcode": "97957",
    "city": "Vilchband"
  },
  {
    "postcode": "97957",
    "city": "Wittighausen (Baden)"
  },
  {
    "postcode": "97957",
    "city": "Wittighausen"
  },
  {
    "postcode": "97957",
    "city": "Main-Tauber-Kreis"
  },
  {
    "postcode": "97959",
    "city": "Assamstadt"
  },
  {
    "postcode": "97959",
    "city": "Main-Tauber-Kreis"
  },
  {
    "postcode": "97980",
    "city": "Althausen"
  },
  {
    "postcode": "97980",
    "city": "Apfelbach Württemberg"
  },
  {
    "postcode": "97980",
    "city": "Apfelbach"
  },
  {
    "postcode": "97980",
    "city": "Bad Mergentheim"
  },
  {
    "postcode": "97980",
    "city": "Dainbach"
  },
  {
    "postcode": "97980",
    "city": "Dörtel"
  },
  {
    "postcode": "97980",
    "city": "Edelfingen"
  },
  {
    "postcode": "97980",
    "city": "Hachtel"
  },
  {
    "postcode": "97980",
    "city": "Herbsthausen Tauber"
  },
  {
    "postcode": "97980",
    "city": "Herbsthausen"
  },
  {
    "postcode": "97980",
    "city": "Lillstadt"
  },
  {
    "postcode": "97980",
    "city": "Löffelstelzen"
  },
  {
    "postcode": "97980",
    "city": "Lustbronn"
  },
  {
    "postcode": "97980",
    "city": "Markelsheim"
  },
  {
    "postcode": "97980",
    "city": "Neunkirchen"
  },
  {
    "postcode": "97980",
    "city": "Niederstetten (Württemberg)"
  },
  {
    "postcode": "97980",
    "city": "Niederstetten"
  },
  {
    "postcode": "97980",
    "city": "Rengershausen Kreis Bad Mergentheim"
  },
  {
    "postcode": "97980",
    "city": "Rengershausen"
  },
  {
    "postcode": "97980",
    "city": "Rot Tauber"
  },
  {
    "postcode": "97980",
    "city": "Rot"
  },
  {
    "postcode": "97980",
    "city": "Schönbühl"
  },
  {
    "postcode": "97980",
    "city": "Stuppach"
  },
  {
    "postcode": "97980",
    "city": "Wachbach"
  },
  {
    "postcode": "97980",
    "city": "Main-Tauber-Kreis"
  },
  {
    "postcode": "97990",
    "city": "Bronn Württemberg"
  },
  {
    "postcode": "97990",
    "city": "Bronn"
  },
  {
    "postcode": "97990",
    "city": "Elpersheim"
  },
  {
    "postcode": "97990",
    "city": "Haagen Württemberg"
  },
  {
    "postcode": "97990",
    "city": "Haagen"
  },
  {
    "postcode": "97990",
    "city": "Honsbronn Württemberg"
  },
  {
    "postcode": "97990",
    "city": "Honsbronn"
  },
  {
    "postcode": "97990",
    "city": "Laudenbach Württemberg"
  },
  {
    "postcode": "97990",
    "city": "Laudenbach"
  },
  {
    "postcode": "97990",
    "city": "Nassau Kreis Bad Mergentheim"
  },
  {
    "postcode": "97990",
    "city": "Nassau"
  },
  {
    "postcode": "97990",
    "city": "Neubronn bei Laudenbach Württemberg"
  },
  {
    "postcode": "97990",
    "city": "Neubronn bei Laudenbach"
  },
  {
    "postcode": "97990",
    "city": "Oberndorf bei Laudenbach Württemberg"
  },
  {
    "postcode": "97990",
    "city": "Oberndorf bei Laudenbach"
  },
  {
    "postcode": "97990",
    "city": "Queckbronn"
  },
  {
    "postcode": "97990",
    "city": "Schäftersheim Kreis Bad Mergentheim"
  },
  {
    "postcode": "97990",
    "city": "Schäftersheim"
  },
  {
    "postcode": "97990",
    "city": "Standorf bei Weikersheim"
  },
  {
    "postcode": "97990",
    "city": "Weikersheim"
  },
  {
    "postcode": "97990",
    "city": "Main-Tauber-Kreis"
  },
  {
    "postcode": "97990",
    "city": "Neubronn"
  },
  {
    "postcode": "97990",
    "city": "Gemeinde Creglingen"
  },
  {
    "postcode": "97993",
    "city": "Archshofen"
  },
  {
    "postcode": "97993",
    "city": "Blumweiler"
  },
  {
    "postcode": "97993",
    "city": "Craintal"
  },
  {
    "postcode": "97993",
    "city": "Creglingen"
  },
  {
    "postcode": "97993",
    "city": "Erdbach Württemberg"
  },
  {
    "postcode": "97993",
    "city": "Erdbach"
  },
  {
    "postcode": "97993",
    "city": "Finsterlohr"
  },
  {
    "postcode": "97993",
    "city": "Frauental"
  },
  {
    "postcode": "97993",
    "city": "Freudenbach Kreis Bad Mergentheim"
  },
  {
    "postcode": "97993",
    "city": "Freudenbach"
  },
  {
    "postcode": "97993",
    "city": "Lichtel Württemberg"
  },
  {
    "postcode": "97993",
    "city": "Lichtel"
  },
  {
    "postcode": "97993",
    "city": "Lohrhof"
  },
  {
    "postcode": "97993",
    "city": "Münster Kreis Bad Mergentheim"
  },
  {
    "postcode": "97993",
    "city": "Münster"
  },
  {
    "postcode": "97993",
    "city": "Niederrimbach"
  },
  {
    "postcode": "97993",
    "city": "Niedersteinach"
  },
  {
    "postcode": "97993",
    "city": "Oberrimbach Württemberg"
  },
  {
    "postcode": "97993",
    "city": "Oberrimbach"
  },
  {
    "postcode": "97993",
    "city": "Reinsbronn"
  },
  {
    "postcode": "97993",
    "city": "Reutsachsen"
  },
  {
    "postcode": "97993",
    "city": "Schirmbach"
  },
  {
    "postcode": "97993",
    "city": "Schmerbach Württemberg"
  },
  {
    "postcode": "97993",
    "city": "Schmerbach"
  },
  {
    "postcode": "97993",
    "city": "Schön"
  },
  {
    "postcode": "97993",
    "city": "Schonach Württemberg"
  },
  {
    "postcode": "97993",
    "city": "Schonach"
  },
  {
    "postcode": "97993",
    "city": "Schwarzenbronn"
  },
  {
    "postcode": "97993",
    "city": "Sechselbach"
  },
  {
    "postcode": "97993",
    "city": "Seldeneck Württemberg"
  },
  {
    "postcode": "97993",
    "city": "Seldeneck"
  },
  {
    "postcode": "97993",
    "city": "Waldmannshofen"
  },
  {
    "postcode": "97993",
    "city": "Weidenhof"
  },
  {
    "postcode": "97993",
    "city": "Weiler Württemberg"
  },
  {
    "postcode": "97993",
    "city": "Weiler"
  },
  {
    "postcode": "97993",
    "city": "Wolfsbuch Württemberg"
  },
  {
    "postcode": "97993",
    "city": "Wolfsbuch"
  },
  {
    "postcode": "97993",
    "city": "Main-Tauber-Kreis"
  },
  {
    "postcode": "97993",
    "city": "Burgstall"
  },
  {
    "postcode": "97996",
    "city": "Adolzhausen"
  },
  {
    "postcode": "97996",
    "city": "Dunzendorf"
  },
  {
    "postcode": "97996",
    "city": "Ebertsbronn"
  },
  {
    "postcode": "97996",
    "city": "Eichhof"
  },
  {
    "postcode": "97996",
    "city": "Ermershausen"
  },
  {
    "postcode": "97996",
    "city": "Hachtel"
  },
  {
    "postcode": "97996",
    "city": "Heimberg"
  },
  {
    "postcode": "97996",
    "city": "Herrenzimmern"
  },
  {
    "postcode": "97996",
    "city": "Niederstetten"
  },
  {
    "postcode": "97996",
    "city": "Niederstetten (Württemberg)"
  },
  {
    "postcode": "97996",
    "city": "Oberstetten"
  },
  {
    "postcode": "97996",
    "city": "Pfitzingen"
  },
  {
    "postcode": "97996",
    "city": "Rinderfeld"
  },
  {
    "postcode": "97996",
    "city": "Rüsselhausen"
  },
  {
    "postcode": "97996",
    "city": "Sichertshausen"
  },
  {
    "postcode": "97996",
    "city": "Streichental"
  },
  {
    "postcode": "97996",
    "city": "Vorbachzimmern"
  },
  {
    "postcode": "97996",
    "city": "Wermutshausen"
  },
  {
    "postcode": "97996",
    "city": "Wildentierbach"
  },
  {
    "postcode": "97996",
    "city": "Wolkersfelden"
  },
  {
    "postcode": "97996",
    "city": "Main-Tauber-Kreis"
  },
  {
    "postcode": "97999",
    "city": "Bernsfelden"
  },
  {
    "postcode": "97999",
    "city": "Harthausen Kreis Bad Mergentheim"
  },
  {
    "postcode": "97999",
    "city": "Harthausen"
  },
  {
    "postcode": "97999",
    "city": "Holzbronn"
  },
  {
    "postcode": "97999",
    "city": "Igersheim"
  },
  {
    "postcode": "97999",
    "city": "Neubronn Kreis Bad Mergentheim"
  },
  {
    "postcode": "97999",
    "city": "Neubronn"
  },
  {
    "postcode": "97999",
    "city": "Neuses Kreis Bad Mergentheim"
  },
  {
    "postcode": "97999",
    "city": "Neuses"
  },
  {
    "postcode": "97999",
    "city": "Reisfeld"
  },
  {
    "postcode": "97999",
    "city": "Simmringen"
  },
  {
    "postcode": "97999",
    "city": "Main-Tauber-Kreis"
  }
]