[
  {
    "postcode": "39104",
    "city": "Magdeburg"
  },
  {
    "postcode": "39104",
    "city": "Altstadt"
  },
  {
    "postcode": "39104",
    "city": "Buckau"
  },
  {
    "postcode": "39104",
    "city": "Leipziger Str."
  },
  {
    "postcode": "39106",
    "city": "Magdeburg"
  },
  {
    "postcode": "39106",
    "city": "Alte Neustadt"
  },
  {
    "postcode": "39108",
    "city": "Magdeburg"
  },
  {
    "postcode": "39108",
    "city": "Stadtfeld Ost"
  },
  {
    "postcode": "39108",
    "city": "Stadtfeld"
  },
  {
    "postcode": "39108",
    "city": "Altstadt"
  },
  {
    "postcode": "39110",
    "city": "Magdeburg"
  },
  {
    "postcode": "39110",
    "city": "Diesdorf"
  },
  {
    "postcode": "39110",
    "city": "Stadtfeld West"
  },
  {
    "postcode": "39110",
    "city": "Stadtfeld"
  },
  {
    "postcode": "39112",
    "city": "Magdeburg"
  },
  {
    "postcode": "39112",
    "city": "Leipziger Str."
  },
  {
    "postcode": "39112",
    "city": "Sudenburg"
  },
  {
    "postcode": "39114",
    "city": "Magdeburg"
  },
  {
    "postcode": "39114",
    "city": "Prester"
  },
  {
    "postcode": "39114",
    "city": "Cracau"
  },
  {
    "postcode": "39114",
    "city": "Berliner Chaussee"
  },
  {
    "postcode": "39114",
    "city": "Pechau"
  },
  {
    "postcode": "39114",
    "city": "Brückfeld"
  },
  {
    "postcode": "39114",
    "city": "Werder"
  },
  {
    "postcode": "39114",
    "city": "Herrenkrug"
  },
  {
    "postcode": "39114",
    "city": "Randau-Calenberge"
  },
  {
    "postcode": "39114",
    "city": "Zipkeleben"
  },
  {
    "postcode": "39116",
    "city": "Magdeburg"
  },
  {
    "postcode": "39116",
    "city": "Ottersleben"
  },
  {
    "postcode": "39116",
    "city": "Beyendorfer Grund"
  },
  {
    "postcode": "39116",
    "city": "Sudenburg"
  },
  {
    "postcode": "39116",
    "city": "Lemsdorf"
  },
  {
    "postcode": "39118",
    "city": "Magdeburg"
  },
  {
    "postcode": "39118",
    "city": "Lemsdorf"
  },
  {
    "postcode": "39118",
    "city": "Reform"
  },
  {
    "postcode": "39118",
    "city": "Leipziger Straße"
  },
  {
    "postcode": "39118",
    "city": "Sudenburg"
  },
  {
    "postcode": "39120",
    "city": "Magdeburg"
  },
  {
    "postcode": "39120",
    "city": "Hopfengarten"
  },
  {
    "postcode": "39120",
    "city": "Leipziger Str."
  },
  {
    "postcode": "39120",
    "city": "Beyendorf-Sohlen"
  },
  {
    "postcode": "39120",
    "city": "Beyendorfer Grund"
  },
  {
    "postcode": "39122",
    "city": "Magdeburg"
  },
  {
    "postcode": "39122",
    "city": "Fermersleben"
  },
  {
    "postcode": "39122",
    "city": "Beyendorf-Sohlen"
  },
  {
    "postcode": "39122",
    "city": "Salbke"
  },
  {
    "postcode": "39122",
    "city": "Westerhüsen"
  },
  {
    "postcode": "39122",
    "city": "Beyendorfer Grund"
  },
  {
    "postcode": "39124",
    "city": "Magdeburg"
  },
  {
    "postcode": "39124",
    "city": "Neue Neustadt"
  },
  {
    "postcode": "39126",
    "city": "Magdeburg"
  },
  {
    "postcode": "39126",
    "city": "Rothensee"
  },
  {
    "postcode": "39126",
    "city": "Industriehafen"
  },
  {
    "postcode": "39126",
    "city": "Neustädter See"
  },
  {
    "postcode": "39126",
    "city": "Gewerbegebiet Nord"
  },
  {
    "postcode": "39126",
    "city": "Barleber See"
  },
  {
    "postcode": "39126",
    "city": "Siedlung Schiffshebewerk"
  },
  {
    "postcode": "39128",
    "city": "Magdeburg"
  },
  {
    "postcode": "39128",
    "city": "Neustädter Feld"
  },
  {
    "postcode": "39128",
    "city": "Nordwest"
  },
  {
    "postcode": "39128",
    "city": "Sülzegrund"
  },
  {
    "postcode": "39128",
    "city": "Kannenstieg"
  },
  {
    "postcode": "39128",
    "city": "Stadtfeld Ost"
  },
  {
    "postcode": "39128",
    "city": "Großer Silberberg"
  },
  {
    "postcode": "39130",
    "city": "Magdeburg"
  },
  {
    "postcode": "39130",
    "city": "Alt Olvenstedt"
  },
  {
    "postcode": "39130",
    "city": "Großer Silberberg"
  },
  {
    "postcode": "39130",
    "city": "Neu Olvenstedt"
  },
  {
    "postcode": "39130",
    "city": "Olvenstedt"
  },
  {
    "postcode": "39130",
    "city": "Stadtfeld"
  },
  {
    "postcode": "39164",
    "city": "Bottmersdorf"
  },
  {
    "postcode": "39164",
    "city": "Domersleben"
  },
  {
    "postcode": "39164",
    "city": "Klein Wanzleben"
  },
  {
    "postcode": "39164",
    "city": "Remkersleben"
  },
  {
    "postcode": "39164",
    "city": "Wanzleben"
  },
  {
    "postcode": "39164",
    "city": "Börde"
  },
  {
    "postcode": "39164",
    "city": "Wanzleben-Börde"
  },
  {
    "postcode": "39164",
    "city": "Hohendodeleben"
  },
  {
    "postcode": "39164",
    "city": "Seehausen"
  },
  {
    "postcode": "39164",
    "city": "Blumenberg"
  },
  {
    "postcode": "39164",
    "city": "Dreileben"
  },
  {
    "postcode": "39164",
    "city": "Groß Rodensleben"
  },
  {
    "postcode": "39164",
    "city": "Eggenstedt"
  },
  {
    "postcode": "39164",
    "city": "Klein Rodensleben"
  },
  {
    "postcode": "39164",
    "city": "Schleibnitz"
  },
  {
    "postcode": "39164",
    "city": "Buch"
  },
  {
    "postcode": "39164",
    "city": "Bergen"
  },
  {
    "postcode": "39164",
    "city": "Hemsdorf"
  },
  {
    "postcode": "39164",
    "city": "Klein Germersleben"
  },
  {
    "postcode": "39164",
    "city": "Dreileben Bahnhof"
  },
  {
    "postcode": "39164",
    "city": "Meyendorf"
  },
  {
    "postcode": "39164",
    "city": "Stadt Frankfurt"
  },
  {
    "postcode": "39167",
    "city": "Eichenbarleben"
  },
  {
    "postcode": "39167",
    "city": "Groß Rodensleben"
  },
  {
    "postcode": "39167",
    "city": "Hohendodeleben"
  },
  {
    "postcode": "39167",
    "city": "Irxleben"
  },
  {
    "postcode": "39167",
    "city": "Klein Rodensleben"
  },
  {
    "postcode": "39167",
    "city": "Niederndodeleben"
  },
  {
    "postcode": "39167",
    "city": "Ochtmersleben"
  },
  {
    "postcode": "39167",
    "city": "Wellen bei Magdeburg"
  },
  {
    "postcode": "39167",
    "city": "Börde"
  },
  {
    "postcode": "39167",
    "city": "Hohe Börde"
  },
  {
    "postcode": "39167",
    "city": "Wellen"
  },
  {
    "postcode": "39167",
    "city": "Mammendorf"
  },
  {
    "postcode": "39171",
    "city": "Altenweddingen"
  },
  {
    "postcode": "39171",
    "city": "Dodendorf"
  },
  {
    "postcode": "39171",
    "city": "Langenweddingen"
  },
  {
    "postcode": "39171",
    "city": "Osterweddingen"
  },
  {
    "postcode": "39171",
    "city": "Sülzetal"
  },
  {
    "postcode": "39171",
    "city": "Börde"
  },
  {
    "postcode": "39171",
    "city": "Bahrendorf"
  },
  {
    "postcode": "39171",
    "city": "Stemmern"
  },
  {
    "postcode": "39171",
    "city": "Schwaneberg"
  },
  {
    "postcode": "39171",
    "city": "Sülldorf"
  },
  {
    "postcode": "39175",
    "city": "Biederitz"
  },
  {
    "postcode": "39175",
    "city": "Gerwisch"
  },
  {
    "postcode": "39175",
    "city": "Gübs"
  },
  {
    "postcode": "39175",
    "city": "Königsborn bei Magdeburg"
  },
  {
    "postcode": "39175",
    "city": "Körbelitz"
  },
  {
    "postcode": "39175",
    "city": "Menz bei Magdeburg"
  },
  {
    "postcode": "39175",
    "city": "Wahlitz"
  },
  {
    "postcode": "39175",
    "city": "Woltersdorf bei Magdeburg"
  },
  {
    "postcode": "39175",
    "city": "Jerichower Land"
  },
  {
    "postcode": "39175",
    "city": "Gommern"
  },
  {
    "postcode": "39175",
    "city": "Königsborn"
  },
  {
    "postcode": "39175",
    "city": "Menz"
  },
  {
    "postcode": "39175",
    "city": "Woltersdorf"
  },
  {
    "postcode": "39175",
    "city": "Heyrothsberge"
  },
  {
    "postcode": "39175",
    "city": "Klein Gübs"
  },
  {
    "postcode": "39175",
    "city": "Alt Königsborn"
  },
  {
    "postcode": "39175",
    "city": "Neu Königsborn"
  },
  {
    "postcode": "39175",
    "city": "Vorwerk"
  },
  {
    "postcode": "39179",
    "city": "Barleben"
  },
  {
    "postcode": "39179",
    "city": "Ebendorf"
  },
  {
    "postcode": "39179",
    "city": "Börde"
  },
  {
    "postcode": "39179",
    "city": "Meitzendorf"
  },
  {
    "postcode": "39218",
    "city": "Schönebeck (Elbe)"
  },
  {
    "postcode": "39218",
    "city": "Schönebeck"
  },
  {
    "postcode": "39218",
    "city": "Salzlandkreis"
  },
  {
    "postcode": "39218",
    "city": "Elbenau"
  },
  {
    "postcode": "39218",
    "city": "Grünewalde"
  },
  {
    "postcode": "39218",
    "city": "Felgeleben"
  },
  {
    "postcode": "39221",
    "city": "Bördeland"
  },
  {
    "postcode": "39221",
    "city": "Eggersdorf bei Schönebeck"
  },
  {
    "postcode": "39221",
    "city": "Eickendorf bei Schönebeck"
  },
  {
    "postcode": "39221",
    "city": "Großmühlingen"
  },
  {
    "postcode": "39221",
    "city": "Kleinmühlingen"
  },
  {
    "postcode": "39221",
    "city": "Ranies"
  },
  {
    "postcode": "39221",
    "city": "Welsleben"
  },
  {
    "postcode": "39221",
    "city": "Zens"
  },
  {
    "postcode": "39221",
    "city": "Salzlandkreis"
  },
  {
    "postcode": "39221",
    "city": "Biere"
  },
  {
    "postcode": "39221",
    "city": "Eggersdorf"
  },
  {
    "postcode": "39221",
    "city": "Eickendorf"
  },
  {
    "postcode": "39240",
    "city": "Breitenhagen"
  },
  {
    "postcode": "39240",
    "city": "Brumby bei Schönebeck"
  },
  {
    "postcode": "39240",
    "city": "Calbe (Saale)"
  },
  {
    "postcode": "39240",
    "city": "Calbe"
  },
  {
    "postcode": "39240",
    "city": "Glöthe"
  },
  {
    "postcode": "39240",
    "city": "Groß Rosenburg"
  },
  {
    "postcode": "39240",
    "city": "Lödderitz"
  },
  {
    "postcode": "39240",
    "city": "Sachsendorf bei Schönebeck"
  },
  {
    "postcode": "39240",
    "city": "Zuchau"
  },
  {
    "postcode": "39240",
    "city": "Salzlandkreis"
  },
  {
    "postcode": "39240",
    "city": "Barby"
  },
  {
    "postcode": "39240",
    "city": "Sachsendorf"
  },
  {
    "postcode": "39240",
    "city": "Trabitz"
  },
  {
    "postcode": "39240",
    "city": "Schwarz"
  },
  {
    "postcode": "39240",
    "city": "Buschbreite"
  },
  {
    "postcode": "39240",
    "city": "Gottesgnaden"
  },
  {
    "postcode": "39240",
    "city": "Tippelskirchen"
  },
  {
    "postcode": "39240",
    "city": "Klein Rosenburg"
  },
  {
    "postcode": "39240",
    "city": "Rajoch"
  },
  {
    "postcode": "39240",
    "city": "Patzetz"
  },
  {
    "postcode": "39240",
    "city": "Colno"
  },
  {
    "postcode": "39245",
    "city": "Dannigkow"
  },
  {
    "postcode": "39245",
    "city": "Gommern"
  },
  {
    "postcode": "39245",
    "city": "Plötzky"
  },
  {
    "postcode": "39245",
    "city": "Pretzien"
  },
  {
    "postcode": "39245",
    "city": "Jerichower Land"
  },
  {
    "postcode": "39245",
    "city": "Kressow"
  },
  {
    "postcode": "39245",
    "city": "Vogelsang"
  },
  {
    "postcode": "39249",
    "city": "Barby (Elbe)"
  },
  {
    "postcode": "39249",
    "city": "Barby"
  },
  {
    "postcode": "39249",
    "city": "Glinde bei Schönebeck"
  },
  {
    "postcode": "39249",
    "city": "Gnadau"
  },
  {
    "postcode": "39249",
    "city": "Pömmelte"
  },
  {
    "postcode": "39249",
    "city": "Tornitz bei Schönebeck"
  },
  {
    "postcode": "39249",
    "city": "Wespen"
  },
  {
    "postcode": "39249",
    "city": "Salzlandkreis"
  },
  {
    "postcode": "39249",
    "city": "Glinde"
  },
  {
    "postcode": "39249",
    "city": "Tornitz"
  },
  {
    "postcode": "39249",
    "city": "Zeitz"
  },
  {
    "postcode": "39249",
    "city": "Döben"
  },
  {
    "postcode": "39249",
    "city": "Zackmünde"
  },
  {
    "postcode": "39249",
    "city": "Werkleitz"
  },
  {
    "postcode": "39249",
    "city": "Grube Alfred"
  },
  {
    "postcode": "39261",
    "city": "Zerbst/Anhalt"
  },
  {
    "postcode": "39261",
    "city": "Zerbst"
  },
  {
    "postcode": "39261",
    "city": "Anhalt-Bitterfeld"
  },
  {
    "postcode": "39261",
    "city": "Reuden/Anhalt"
  },
  {
    "postcode": "39261",
    "city": "Reuden"
  },
  {
    "postcode": "39264",
    "city": "Bias"
  },
  {
    "postcode": "39264",
    "city": "Bornum bei Zerbst"
  },
  {
    "postcode": "39264",
    "city": "Buhlendorf"
  },
  {
    "postcode": "39264",
    "city": "Deetz bei Zerbst"
  },
  {
    "postcode": "39264",
    "city": "Dobritz"
  },
  {
    "postcode": "39264",
    "city": "Dornburg Elbe"
  },
  {
    "postcode": "39264",
    "city": "Dornburg"
  },
  {
    "postcode": "39264",
    "city": "Lübs bei Zerbst"
  },
  {
    "postcode": "39264",
    "city": "Luso"
  },
  {
    "postcode": "39264",
    "city": "Prödel"
  },
  {
    "postcode": "39264",
    "city": "Pulspforde"
  },
  {
    "postcode": "39264",
    "city": "Zernitz bei Zerbst"
  },
  {
    "postcode": "39264",
    "city": "Anhalt-Bitterfeld"
  },
  {
    "postcode": "39264",
    "city": "Bornum"
  },
  {
    "postcode": "39264",
    "city": "Deetz"
  },
  {
    "postcode": "39264",
    "city": "Gödnitz"
  },
  {
    "postcode": "39264",
    "city": "Gehrden"
  },
  {
    "postcode": "39264",
    "city": "Gommern"
  },
  {
    "postcode": "39264",
    "city": "Grimme"
  },
  {
    "postcode": "39264",
    "city": "Güterglück"
  },
  {
    "postcode": "39264",
    "city": "Hohenlepte"
  },
  {
    "postcode": "39264",
    "city": "Jütrichau"
  },
  {
    "postcode": "39264",
    "city": "Leps"
  },
  {
    "postcode": "39264",
    "city": "Lindau"
  },
  {
    "postcode": "39264",
    "city": "Lübs"
  },
  {
    "postcode": "39264",
    "city": "Moritz"
  },
  {
    "postcode": "39264",
    "city": "Nedlitz"
  },
  {
    "postcode": "39264",
    "city": "Nutha"
  },
  {
    "postcode": "39264",
    "city": "Polenzko"
  },
  {
    "postcode": "39264",
    "city": "Reuden"
  },
  {
    "postcode": "39264",
    "city": "Steutz"
  },
  {
    "postcode": "39264",
    "city": "Straguth"
  },
  {
    "postcode": "39264",
    "city": "Walternienburg"
  },
  {
    "postcode": "39264",
    "city": "Zernitz"
  },
  {
    "postcode": "39264",
    "city": "Kleinleitzkau"
  },
  {
    "postcode": "39264",
    "city": "Garitz"
  },
  {
    "postcode": "39264",
    "city": "Trüben"
  },
  {
    "postcode": "39264",
    "city": "Flötz"
  },
  {
    "postcode": "39264",
    "city": "Golmenglin"
  },
  {
    "postcode": "39264",
    "city": "Trebnitz"
  },
  {
    "postcode": "39264",
    "city": "Kämeritz"
  },
  {
    "postcode": "39264",
    "city": "Tochheim"
  },
  {
    "postcode": "39264",
    "city": "Badetz"
  },
  {
    "postcode": "39264",
    "city": "Pakendorf"
  },
  {
    "postcode": "39264",
    "city": "Wertlau"
  },
  {
    "postcode": "39264",
    "city": "Eichholz"
  },
  {
    "postcode": "39264",
    "city": "Kermen"
  },
  {
    "postcode": "39264",
    "city": "Kerchau"
  },
  {
    "postcode": "39264",
    "city": "Quast"
  },
  {
    "postcode": "39264",
    "city": "Lietzo"
  },
  {
    "postcode": "39264",
    "city": "Bone"
  },
  {
    "postcode": "39264",
    "city": "Mühlsdorf"
  },
  {
    "postcode": "39264",
    "city": "Schora"
  },
  {
    "postcode": "39264",
    "city": "Töppel"
  },
  {
    "postcode": "39264",
    "city": "Hagendorf"
  },
  {
    "postcode": "39264",
    "city": "Siedlung Nutha"
  },
  {
    "postcode": "39264",
    "city": "Niederlepte"
  },
  {
    "postcode": "39264",
    "city": "Mühro"
  },
  {
    "postcode": "39264",
    "city": "Bärenthoren"
  },
  {
    "postcode": "39264",
    "city": "Bonitz"
  },
  {
    "postcode": "39264",
    "city": "Reuden Süd"
  },
  {
    "postcode": "39264",
    "city": "Steckby"
  },
  {
    "postcode": "39264",
    "city": "Badewitz"
  },
  {
    "postcode": "39264",
    "city": "Gollbogen"
  },
  {
    "postcode": "39264",
    "city": "Zollmühle"
  },
  {
    "postcode": "39264",
    "city": "Ronney"
  },
  {
    "postcode": "39264",
    "city": "Strinum"
  },
  {
    "postcode": "39264",
    "city": "Kuhberge"
  },
  {
    "postcode": "39264",
    "city": "Neue Mühle"
  },
  {
    "postcode": "39279",
    "city": "Hobeck"
  },
  {
    "postcode": "39279",
    "city": "Ladeburg bei Zerbst"
  },
  {
    "postcode": "39279",
    "city": "Leitzkau"
  },
  {
    "postcode": "39279",
    "city": "Loburg bei Magdeburg"
  },
  {
    "postcode": "39279",
    "city": "Rosian"
  },
  {
    "postcode": "39279",
    "city": "Schweinitz bei Zerbst"
  },
  {
    "postcode": "39279",
    "city": "Jerichower Land"
  },
  {
    "postcode": "39279",
    "city": "Gommern"
  },
  {
    "postcode": "39279",
    "city": "Ladeburg"
  },
  {
    "postcode": "39279",
    "city": "Loburg"
  },
  {
    "postcode": "39279",
    "city": "Möckern"
  },
  {
    "postcode": "39279",
    "city": "Schweinitz"
  },
  {
    "postcode": "39279",
    "city": "Zeppernick"
  },
  {
    "postcode": "39279",
    "city": "Göbel"
  },
  {
    "postcode": "39279",
    "city": "Klepps"
  },
  {
    "postcode": "39279",
    "city": "Hohenlochau"
  },
  {
    "postcode": "39279",
    "city": "Bomsdorf"
  },
  {
    "postcode": "39279",
    "city": "Wahl"
  },
  {
    "postcode": "39279",
    "city": "Padegrim"
  },
  {
    "postcode": "39279",
    "city": "Rottenau"
  },
  {
    "postcode": "39279",
    "city": "Isterbies"
  },
  {
    "postcode": "39279",
    "city": "Brietzke"
  },
  {
    "postcode": "39279",
    "city": "Dalchau"
  },
  {
    "postcode": "39279",
    "city": "Kalitz"
  },
  {
    "postcode": "39279",
    "city": "Wendgräben"
  },
  {
    "postcode": "39288",
    "city": "Burg bei Magdeburg"
  },
  {
    "postcode": "39288",
    "city": "Jerichower Land"
  },
  {
    "postcode": "39288",
    "city": "Burg"
  },
  {
    "postcode": "39288",
    "city": "Schartau"
  },
  {
    "postcode": "39288",
    "city": "Niegripp"
  },
  {
    "postcode": "39288",
    "city": "Ihleburg"
  },
  {
    "postcode": "39288",
    "city": "Parchau"
  },
  {
    "postcode": "39288",
    "city": "Reesen"
  },
  {
    "postcode": "39288",
    "city": "Blumenthal"
  },
  {
    "postcode": "39288",
    "city": "Detershagen"
  },
  {
    "postcode": "39288",
    "city": "Gütter"
  },
  {
    "postcode": "39288",
    "city": "Madel"
  },
  {
    "postcode": "39291",
    "city": "Büden"
  },
  {
    "postcode": "39291",
    "city": "Detershagen bei Burg bei Magdeburg"
  },
  {
    "postcode": "39291",
    "city": "Dörnitz"
  },
  {
    "postcode": "39291",
    "city": "Drewitz bei Burg"
  },
  {
    "postcode": "39291",
    "city": "Friedensau"
  },
  {
    "postcode": "39291",
    "city": "Grabow bei Burg"
  },
  {
    "postcode": "39291",
    "city": "Hohenwarthe"
  },
  {
    "postcode": "39291",
    "city": "Hohenziatz"
  },
  {
    "postcode": "39291",
    "city": "Ihleburg"
  },
  {
    "postcode": "39291",
    "city": "Karith"
  },
  {
    "postcode": "39291",
    "city": "Krüssau"
  },
  {
    "postcode": "39291",
    "city": "Küsel"
  },
  {
    "postcode": "39291",
    "city": "Lostau"
  },
  {
    "postcode": "39291",
    "city": "Lübars bei Burg bei Magdeburg"
  },
  {
    "postcode": "39291",
    "city": "Magdeburgerforth"
  },
  {
    "postcode": "39291",
    "city": "Möckern bei Burg"
  },
  {
    "postcode": "39291",
    "city": "Möser"
  },
  {
    "postcode": "39291",
    "city": "Nedlitz bei Burg"
  },
  {
    "postcode": "39291",
    "city": "Niegripp"
  },
  {
    "postcode": "39291",
    "city": "Parchau"
  },
  {
    "postcode": "39291",
    "city": "Pietzpuhl"
  },
  {
    "postcode": "39291",
    "city": "Reesdorf bei Burg"
  },
  {
    "postcode": "39291",
    "city": "Reesen"
  },
  {
    "postcode": "39291",
    "city": "Rietzel"
  },
  {
    "postcode": "39291",
    "city": "Schartau bei Burg bei Magdeburg"
  },
  {
    "postcode": "39291",
    "city": "Schermen"
  },
  {
    "postcode": "39291",
    "city": "Schopsdorf"
  },
  {
    "postcode": "39291",
    "city": "Stegelitz bei Burg bei Magdeburg"
  },
  {
    "postcode": "39291",
    "city": "Stresow bei Burg"
  },
  {
    "postcode": "39291",
    "city": "Theeßen"
  },
  {
    "postcode": "39291",
    "city": "Tryppehna"
  },
  {
    "postcode": "39291",
    "city": "Vehlitz"
  },
  {
    "postcode": "39291",
    "city": "Wallwitz bei Burg"
  },
  {
    "postcode": "39291",
    "city": "Wörmlitz Jerichower Land"
  },
  {
    "postcode": "39291",
    "city": "Wörmlitz"
  },
  {
    "postcode": "39291",
    "city": "Wüstenjerichow"
  },
  {
    "postcode": "39291",
    "city": "Zeddenick"
  },
  {
    "postcode": "39291",
    "city": "Ziepel bei Burg"
  },
  {
    "postcode": "39291",
    "city": "Jerichower Land"
  },
  {
    "postcode": "39291",
    "city": "Drewitz"
  },
  {
    "postcode": "39291",
    "city": "Gommern"
  },
  {
    "postcode": "39291",
    "city": "Grabow"
  },
  {
    "postcode": "39291",
    "city": "Lübars"
  },
  {
    "postcode": "39291",
    "city": "Möckern"
  },
  {
    "postcode": "39291",
    "city": "Nedlitz"
  },
  {
    "postcode": "39291",
    "city": "Reesdorf"
  },
  {
    "postcode": "39291",
    "city": "Ringelsdorf"
  },
  {
    "postcode": "39291",
    "city": "Stegelitz"
  },
  {
    "postcode": "39291",
    "city": "Stresow"
  },
  {
    "postcode": "39291",
    "city": "Wallwitz"
  },
  {
    "postcode": "39291",
    "city": "Ziepel"
  },
  {
    "postcode": "39291",
    "city": "Altengrabow"
  },
  {
    "postcode": "39291",
    "city": "Ziegelsdorf"
  },
  {
    "postcode": "39291",
    "city": "Kähnert"
  },
  {
    "postcode": "39291",
    "city": "Waldschänke"
  },
  {
    "postcode": "39291",
    "city": "Hohenwarthe Siedlung"
  },
  {
    "postcode": "39291",
    "city": "Lüttgenziatz"
  },
  {
    "postcode": "39291",
    "city": "Pöthen"
  },
  {
    "postcode": "39291",
    "city": "Brandenstein"
  },
  {
    "postcode": "39291",
    "city": "Glienicke"
  },
  {
    "postcode": "39291",
    "city": "Klein Lübars"
  },
  {
    "postcode": "39291",
    "city": "Riesdorf"
  },
  {
    "postcode": "39291",
    "city": "Bahnhof Büden"
  },
  {
    "postcode": "39291",
    "city": "Lühe"
  },
  {
    "postcode": "39291",
    "city": "Pabsdorf"
  },
  {
    "postcode": "39291",
    "city": "Lütnitz"
  },
  {
    "postcode": "39291",
    "city": "Waldhof"
  },
  {
    "postcode": "39291",
    "city": "Neu Külzau"
  },
  {
    "postcode": "39291",
    "city": "Dreibachen"
  },
  {
    "postcode": "39291",
    "city": "Gottesforth"
  },
  {
    "postcode": "39291",
    "city": "Landforsthaus"
  },
  {
    "postcode": "39291",
    "city": "Sandforth"
  },
  {
    "postcode": "39291",
    "city": "Räckendorf"
  },
  {
    "postcode": "39291",
    "city": "Waldrogäsen"
  },
  {
    "postcode": "39291",
    "city": "Landhaus"
  },
  {
    "postcode": "39291",
    "city": "Kampf"
  },
  {
    "postcode": "39291",
    "city": "Vorwerk"
  },
  {
    "postcode": "39307",
    "city": "Brettin"
  },
  {
    "postcode": "39307",
    "city": "Demsin"
  },
  {
    "postcode": "39307",
    "city": "Elbe-Parey"
  },
  {
    "postcode": "39307",
    "city": "Genthin"
  },
  {
    "postcode": "39307",
    "city": "Gladau"
  },
  {
    "postcode": "39307",
    "city": "Kade"
  },
  {
    "postcode": "39307",
    "city": "Karow bei Genthin"
  },
  {
    "postcode": "39307",
    "city": "Klitsche"
  },
  {
    "postcode": "39307",
    "city": "Mützel"
  },
  {
    "postcode": "39307",
    "city": "Paplitz bei Genthin"
  },
  {
    "postcode": "39307",
    "city": "Parchen"
  },
  {
    "postcode": "39307",
    "city": "Roßdorf bei Genthin"
  },
  {
    "postcode": "39307",
    "city": "Schlagenthin"
  },
  {
    "postcode": "39307",
    "city": "Tucheim"
  },
  {
    "postcode": "39307",
    "city": "Wulkow bei Genthin"
  },
  {
    "postcode": "39307",
    "city": "Zabakuck"
  },
  {
    "postcode": "39307",
    "city": "Jerichower Land"
  },
  {
    "postcode": "39307",
    "city": "Bergzow"
  },
  {
    "postcode": "39307",
    "city": "Hohenseeden"
  },
  {
    "postcode": "39307",
    "city": "Jerichow"
  },
  {
    "postcode": "39307",
    "city": "Karow"
  },
  {
    "postcode": "39307",
    "city": "Paplitz"
  },
  {
    "postcode": "39307",
    "city": "Roßdorf"
  },
  {
    "postcode": "39307",
    "city": "Bahnhof Bergzow-Parchen"
  },
  {
    "postcode": "39307",
    "city": "Annenhof"
  },
  {
    "postcode": "39307",
    "city": "Großdemsin"
  },
  {
    "postcode": "39307",
    "city": "Kleinwusterwitz"
  },
  {
    "postcode": "39307",
    "city": "Binnenheide"
  },
  {
    "postcode": "39307",
    "city": "Kleindemsin"
  },
  {
    "postcode": "39307",
    "city": "Dreihäuser"
  },
  {
    "postcode": "39307",
    "city": "Werdershof"
  },
  {
    "postcode": "39307",
    "city": "Fienerode"
  },
  {
    "postcode": "39307",
    "city": "Hagen"
  },
  {
    "postcode": "39307",
    "city": "Ringelsdorf"
  },
  {
    "postcode": "39307",
    "city": "Genthin-Wald"
  },
  {
    "postcode": "39307",
    "city": "Dretzel"
  },
  {
    "postcode": "39307",
    "city": "Schattberge"
  },
  {
    "postcode": "39307",
    "city": "Belicke"
  },
  {
    "postcode": "39307",
    "city": "Schleuse Kade"
  },
  {
    "postcode": "39307",
    "city": "Neubuchholz"
  },
  {
    "postcode": "39307",
    "city": "Altenklitsche"
  },
  {
    "postcode": "39307",
    "city": "Neuenklitsche"
  },
  {
    "postcode": "39307",
    "city": "Hüttermühle"
  },
  {
    "postcode": "39307",
    "city": "Gehlsdorf"
  },
  {
    "postcode": "39307",
    "city": "Gottesforth"
  },
  {
    "postcode": "39307",
    "city": "Wiechenberg"
  },
  {
    "postcode": "39307",
    "city": "Dunkelforth"
  },
  {
    "postcode": "39307",
    "city": "Hahnenhütte"
  },
  {
    "postcode": "39307",
    "city": "Kuxwinkel"
  },
  {
    "postcode": "39307",
    "city": "Holzhaus"
  },
  {
    "postcode": "39307",
    "city": "Wülpen"
  },
  {
    "postcode": "39307",
    "city": "Güssow"
  },
  {
    "postcode": "39317",
    "city": "Elbe-Parey"
  },
  {
    "postcode": "39317",
    "city": "Parey"
  },
  {
    "postcode": "39317",
    "city": "Jerichower Land"
  },
  {
    "postcode": "39317",
    "city": "Derben"
  },
  {
    "postcode": "39317",
    "city": "Ferchland"
  },
  {
    "postcode": "39317",
    "city": "Güsen"
  },
  {
    "postcode": "39317",
    "city": "Zerben"
  },
  {
    "postcode": "39317",
    "city": "Neuderben"
  },
  {
    "postcode": "39319",
    "city": "Jerichow"
  },
  {
    "postcode": "39319",
    "city": "Mangelsdorf Jerichower Land"
  },
  {
    "postcode": "39319",
    "city": "Mangelsdorf"
  },
  {
    "postcode": "39319",
    "city": "Nielebock"
  },
  {
    "postcode": "39319",
    "city": "Redekin"
  },
  {
    "postcode": "39319",
    "city": "Wulkow bei Genthin"
  },
  {
    "postcode": "39319",
    "city": "Jerichower Land"
  },
  {
    "postcode": "39319",
    "city": "Wulkow"
  },
  {
    "postcode": "39319",
    "city": "Kleinmangelsdorf"
  },
  {
    "postcode": "39319",
    "city": "Klietznick"
  },
  {
    "postcode": "39319",
    "city": "Steinitz"
  },
  {
    "postcode": "39319",
    "city": "Seedorf"
  },
  {
    "postcode": "39319",
    "city": "Scharteucke"
  },
  {
    "postcode": "39319",
    "city": "Neuredekin"
  },
  {
    "postcode": "39319",
    "city": "Hohenbellin"
  },
  {
    "postcode": "39319",
    "city": "Havemark"
  },
  {
    "postcode": "39319",
    "city": "Kleinwulkow"
  },
  {
    "postcode": "39319",
    "city": "Großwulkow"
  },
  {
    "postcode": "39319",
    "city": "Blockdamm"
  },
  {
    "postcode": "39319",
    "city": "Altbellin"
  },
  {
    "postcode": "39326",
    "city": "Angern bei Wolmirstedt"
  },
  {
    "postcode": "39326",
    "city": "Barleben"
  },
  {
    "postcode": "39326",
    "city": "Colbitz"
  },
  {
    "postcode": "39326",
    "city": "Dahlenwarsleben"
  },
  {
    "postcode": "39326",
    "city": "Farsleben"
  },
  {
    "postcode": "39326",
    "city": "Glindenberg"
  },
  {
    "postcode": "39326",
    "city": "Groß Ammensleben"
  },
  {
    "postcode": "39326",
    "city": "Gutenswegen"
  },
  {
    "postcode": "39326",
    "city": "Heinrichsberg bei Wolmirstedt"
  },
  {
    "postcode": "39326",
    "city": "Hermsdorf bei Wolmirstedt"
  },
  {
    "postcode": "39326",
    "city": "Hohenwarsleben"
  },
  {
    "postcode": "39326",
    "city": "Jersleben"
  },
  {
    "postcode": "39326",
    "city": "Klein Ammensleben"
  },
  {
    "postcode": "39326",
    "city": "Loitsche"
  },
  {
    "postcode": "39326",
    "city": "Meitzendorf"
  },
  {
    "postcode": "39326",
    "city": "Meseberg bei Wolmirstedt"
  },
  {
    "postcode": "39326",
    "city": "Niedere Börde"
  },
  {
    "postcode": "39326",
    "city": "Rogätz"
  },
  {
    "postcode": "39326",
    "city": "Samswegen"
  },
  {
    "postcode": "39326",
    "city": "Wolmirstedt"
  },
  {
    "postcode": "39326",
    "city": "Zielitz"
  },
  {
    "postcode": "39326",
    "city": "Börde"
  },
  {
    "postcode": "39326",
    "city": "Angern"
  },
  {
    "postcode": "39326",
    "city": "Hermsdorf"
  },
  {
    "postcode": "39326",
    "city": "Loitsche-Heinrichsberg"
  },
  {
    "postcode": "39326",
    "city": "Meseberg"
  },
  {
    "postcode": "39326",
    "city": "Mose"
  },
  {
    "postcode": "39326",
    "city": "Angern-Rogätz Bahnhof"
  },
  {
    "postcode": "39326",
    "city": "Lindhorst"
  },
  {
    "postcode": "39326",
    "city": "Haidberg"
  },
  {
    "postcode": "39326",
    "city": "Gersdorf"
  },
  {
    "postcode": "39326",
    "city": "Heinrichsberg"
  },
  {
    "postcode": "39326",
    "city": "Bahnhof Loitsche"
  },
  {
    "postcode": "39326",
    "city": "Ramstedt"
  },
  {
    "postcode": "39326",
    "city": "Friedrichshöhe"
  },
  {
    "postcode": "39326",
    "city": "Heinrichshorst"
  },
  {
    "postcode": "39326",
    "city": "Bleiche"
  },
  {
    "postcode": "39326",
    "city": "Elbeu"
  },
  {
    "postcode": "39326",
    "city": "Schricke"
  },
  {
    "postcode": "39340",
    "city": "Haldensleben"
  },
  {
    "postcode": "39340",
    "city": "Börde"
  },
  {
    "postcode": "39343",
    "city": "Ackendorf bei Haldensleben"
  },
  {
    "postcode": "39343",
    "city": "Alleringersleben"
  },
  {
    "postcode": "39343",
    "city": "Altenhausen bei Haldensleben"
  },
  {
    "postcode": "39343",
    "city": "Bartensleben"
  },
  {
    "postcode": "39343",
    "city": "Bebertal"
  },
  {
    "postcode": "39343",
    "city": "Beendorf bei Haldensleben"
  },
  {
    "postcode": "39343",
    "city": "Bornstedt bei Haldensleben"
  },
  {
    "postcode": "39343",
    "city": "Bregenstedt"
  },
  {
    "postcode": "39343",
    "city": "Eimersleben"
  },
  {
    "postcode": "39343",
    "city": "Emden bei Haldensleben"
  },
  {
    "postcode": "39343",
    "city": "Erxleben bei Haldensleben"
  },
  {
    "postcode": "39343",
    "city": "Groß Santersleben"
  },
  {
    "postcode": "39343",
    "city": "Hakenstedt"
  },
  {
    "postcode": "39343",
    "city": "Hillersleben"
  },
  {
    "postcode": "39343",
    "city": "Ivenrode"
  },
  {
    "postcode": "39343",
    "city": "Morsleben"
  },
  {
    "postcode": "39343",
    "city": "Nordgermersleben"
  },
  {
    "postcode": "39343",
    "city": "Ostingersleben"
  },
  {
    "postcode": "39343",
    "city": "Rottmersleben"
  },
  {
    "postcode": "39343",
    "city": "Schackensleben"
  },
  {
    "postcode": "39343",
    "city": "Schwanefeld"
  },
  {
    "postcode": "39343",
    "city": "Süplingen"
  },
  {
    "postcode": "39343",
    "city": "Uhrsleben"
  },
  {
    "postcode": "39343",
    "city": "Börde"
  },
  {
    "postcode": "39343",
    "city": "Ackendorf"
  },
  {
    "postcode": "39343",
    "city": "Altenhausen"
  },
  {
    "postcode": "39343",
    "city": "Beendorf"
  },
  {
    "postcode": "39343",
    "city": "Bornstedt"
  },
  {
    "postcode": "39343",
    "city": "Emden"
  },
  {
    "postcode": "39343",
    "city": "Erxleben"
  },
  {
    "postcode": "39343",
    "city": "Haldensleben"
  },
  {
    "postcode": "39343",
    "city": "Hohe Börde"
  },
  {
    "postcode": "39343",
    "city": "Hundisburg"
  },
  {
    "postcode": "39343",
    "city": "Ingersleben"
  },
  {
    "postcode": "39343",
    "city": "Westheide"
  },
  {
    "postcode": "39343",
    "city": "Glüsig"
  },
  {
    "postcode": "39343",
    "city": "Groß Bartensleben"
  },
  {
    "postcode": "39343",
    "city": "Klein Bartensleben"
  },
  {
    "postcode": "39343",
    "city": "Groppendorf"
  },
  {
    "postcode": "39343",
    "city": "Bischofswald"
  },
  {
    "postcode": "39343",
    "city": "Brumby"
  },
  {
    "postcode": "39343",
    "city": "Tundersleben"
  },
  {
    "postcode": "39343",
    "city": "Klein Rottmersleben"
  },
  {
    "postcode": "39343",
    "city": "Bodendorf"
  },
  {
    "postcode": "39345",
    "city": "Born bei Haldensleben"
  },
  {
    "postcode": "39345",
    "city": "Bülstringen"
  },
  {
    "postcode": "39345",
    "city": "Flechtingen"
  },
  {
    "postcode": "39345",
    "city": "Neuenhofe"
  },
  {
    "postcode": "39345",
    "city": "Niedere Börde"
  },
  {
    "postcode": "39345",
    "city": "Vahldorf"
  },
  {
    "postcode": "39345",
    "city": "Wieglitz"
  },
  {
    "postcode": "39345",
    "city": "Börde"
  },
  {
    "postcode": "39345",
    "city": "Born"
  },
  {
    "postcode": "39345",
    "city": "Gut Detzel"
  },
  {
    "postcode": "39345",
    "city": "Haldensleben"
  },
  {
    "postcode": "39345",
    "city": "Hütten"
  },
  {
    "postcode": "39345",
    "city": "Satuelle"
  },
  {
    "postcode": "39345",
    "city": "Schloss Detzel"
  },
  {
    "postcode": "39345",
    "city": "Uthmöden"
  },
  {
    "postcode": "39345",
    "city": "Wedringen"
  },
  {
    "postcode": "39345",
    "city": "Planken"
  },
  {
    "postcode": "39345",
    "city": "Lemsell"
  },
  {
    "postcode": "39345",
    "city": "Flechtingen Bahnhof"
  },
  {
    "postcode": "39345",
    "city": "Hasselburg"
  },
  {
    "postcode": "39345",
    "city": "Hilgesdorf"
  },
  {
    "postcode": "39356",
    "city": "Behnsdorf"
  },
  {
    "postcode": "39356",
    "city": "Belsdorf bei Haldensleben"
  },
  {
    "postcode": "39356",
    "city": "Döhren bei Haldensleben"
  },
  {
    "postcode": "39356",
    "city": "Eschenrode"
  },
  {
    "postcode": "39356",
    "city": "Hödingen bei Haldensleben"
  },
  {
    "postcode": "39356",
    "city": "Hörsingen"
  },
  {
    "postcode": "39356",
    "city": "Seggerde"
  },
  {
    "postcode": "39356",
    "city": "Siestedt"
  },
  {
    "postcode": "39356",
    "city": "Walbeck bei Haldensleben"
  },
  {
    "postcode": "39356",
    "city": "Weferlingen Aller"
  },
  {
    "postcode": "39356",
    "city": "Weferlingen"
  },
  {
    "postcode": "39356",
    "city": "Börde"
  },
  {
    "postcode": "39356",
    "city": "Belsdorf"
  },
  {
    "postcode": "39356",
    "city": "Döhren"
  },
  {
    "postcode": "39356",
    "city": "Hödingen"
  },
  {
    "postcode": "39356",
    "city": "Oebisfelde-Weferlingen"
  },
  {
    "postcode": "39356",
    "city": "Walbeck"
  },
  {
    "postcode": "39356",
    "city": "Damsendorf"
  },
  {
    "postcode": "39356",
    "city": "Ribbenstedt"
  },
  {
    "postcode": "39356",
    "city": "Ribbensdorf"
  },
  {
    "postcode": "39356",
    "city": "Klinze"
  },
  {
    "postcode": "39359",
    "city": "Böddensell"
  },
  {
    "postcode": "39359",
    "city": "Bösdorf bei Haldensleben"
  },
  {
    "postcode": "39359",
    "city": "Eickendorf bei Haldensleben"
  },
  {
    "postcode": "39359",
    "city": "Etingen"
  },
  {
    "postcode": "39359",
    "city": "Everingen"
  },
  {
    "postcode": "39359",
    "city": "Flecken Calvörde"
  },
  {
    "postcode": "39359",
    "city": "Grauingen"
  },
  {
    "postcode": "39359",
    "city": "Kathendorf"
  },
  {
    "postcode": "39359",
    "city": "Mannhausen bei Haldensleben"
  },
  {
    "postcode": "39359",
    "city": "Rätzlingen bei Haldensleben"
  },
  {
    "postcode": "39359",
    "city": "Velsdorf"
  },
  {
    "postcode": "39359",
    "city": "Wegenstedt"
  },
  {
    "postcode": "39359",
    "city": "Börde"
  },
  {
    "postcode": "39359",
    "city": "Bösdorf"
  },
  {
    "postcode": "39359",
    "city": "Calvörde"
  },
  {
    "postcode": "39359",
    "city": "Eickendorf"
  },
  {
    "postcode": "39359",
    "city": "Flechtingen"
  },
  {
    "postcode": "39359",
    "city": "Mannhausen"
  },
  {
    "postcode": "39359",
    "city": "Oebisfelde-Weferlingen"
  },
  {
    "postcode": "39359",
    "city": "Rätzlingen"
  },
  {
    "postcode": "39359",
    "city": "Keindorf"
  },
  {
    "postcode": "39359",
    "city": "Maschenhorst"
  },
  {
    "postcode": "39359",
    "city": "Zillbeck"
  },
  {
    "postcode": "39365",
    "city": "Drackenstedt"
  },
  {
    "postcode": "39365",
    "city": "Dreileben"
  },
  {
    "postcode": "39365",
    "city": "Druxberge"
  },
  {
    "postcode": "39365",
    "city": "Eggenstedt"
  },
  {
    "postcode": "39365",
    "city": "Eilsleben"
  },
  {
    "postcode": "39365",
    "city": "Harbke"
  },
  {
    "postcode": "39365",
    "city": "Marienborn Börde"
  },
  {
    "postcode": "39365",
    "city": "Marienborn"
  },
  {
    "postcode": "39365",
    "city": "Ovelgünne"
  },
  {
    "postcode": "39365",
    "city": "Seehausen Börde"
  },
  {
    "postcode": "39365",
    "city": "Seehausen"
  },
  {
    "postcode": "39365",
    "city": "Sommersdorf Börde"
  },
  {
    "postcode": "39365",
    "city": "Sommersdorf"
  },
  {
    "postcode": "39365",
    "city": "Ummendorf Börde"
  },
  {
    "postcode": "39365",
    "city": "Ummendorf"
  },
  {
    "postcode": "39365",
    "city": "Wefensleben"
  },
  {
    "postcode": "39365",
    "city": "Wormsdorf"
  },
  {
    "postcode": "39365",
    "city": "Börde"
  },
  {
    "postcode": "39365",
    "city": "Gehringsdorf"
  },
  {
    "postcode": "39365",
    "city": "Siegersleben"
  },
  {
    "postcode": "39365",
    "city": "Bahnhof"
  },
  {
    "postcode": "39365",
    "city": "Sommerschenburg"
  },
  {
    "postcode": "39365",
    "city": "Neu Ummendorf"
  },
  {
    "postcode": "39365",
    "city": "Belsdorf"
  },
  {
    "postcode": "39387",
    "city": "Alikendorf"
  },
  {
    "postcode": "39387",
    "city": "Altbrandsleben"
  },
  {
    "postcode": "39387",
    "city": "Am Großen Bruch"
  },
  {
    "postcode": "39387",
    "city": "Ampfurth"
  },
  {
    "postcode": "39387",
    "city": "Groß Germersleben"
  },
  {
    "postcode": "39387",
    "city": "Hornhausen"
  },
  {
    "postcode": "39387",
    "city": "Klein Oschersleben"
  },
  {
    "postcode": "39387",
    "city": "Neuwegersleben"
  },
  {
    "postcode": "39387",
    "city": "Oschersleben (Bode)"
  },
  {
    "postcode": "39387",
    "city": "Oschersleben"
  },
  {
    "postcode": "39387",
    "city": "Schermcke"
  },
  {
    "postcode": "39387",
    "city": "Wulferstedt"
  },
  {
    "postcode": "39387",
    "city": "Börde"
  },
  {
    "postcode": "39387",
    "city": "Beckendorf"
  },
  {
    "postcode": "39387",
    "city": "Kleinalsleben"
  },
  {
    "postcode": "39387",
    "city": "Hordorf"
  },
  {
    "postcode": "39387",
    "city": "Emmeringen"
  },
  {
    "postcode": "39387",
    "city": "Günthersdorf"
  },
  {
    "postcode": "39387",
    "city": "Hadmersleben"
  },
  {
    "postcode": "39387",
    "city": "Jakobsberg"
  },
  {
    "postcode": "39387",
    "city": "Neindorf"
  },
  {
    "postcode": "39387",
    "city": "Neubrandsleben"
  },
  {
    "postcode": "39387",
    "city": "Neubau"
  },
  {
    "postcode": "39387",
    "city": "Andersleben"
  },
  {
    "postcode": "39387",
    "city": "Peseckendorf"
  },
  {
    "postcode": "39393",
    "city": "Am Großen Bruch"
  },
  {
    "postcode": "39393",
    "city": "Ausleben"
  },
  {
    "postcode": "39393",
    "city": "Barneberg"
  },
  {
    "postcode": "39393",
    "city": "Gunsleben"
  },
  {
    "postcode": "39393",
    "city": "Hamersleben"
  },
  {
    "postcode": "39393",
    "city": "Hötensleben"
  },
  {
    "postcode": "39393",
    "city": "Ohrsleben"
  },
  {
    "postcode": "39393",
    "city": "Völpke"
  },
  {
    "postcode": "39393",
    "city": "Wackersleben"
  },
  {
    "postcode": "39393",
    "city": "Börde"
  },
  {
    "postcode": "39393",
    "city": "Neuwegersleben"
  },
  {
    "postcode": "39393",
    "city": "Wulferstedt"
  },
  {
    "postcode": "39393",
    "city": "Neudamm"
  },
  {
    "postcode": "39393",
    "city": "Warsleben"
  },
  {
    "postcode": "39393",
    "city": "Ottleben"
  },
  {
    "postcode": "39393",
    "city": "Üplingen"
  },
  {
    "postcode": "39393",
    "city": "Caroline"
  },
  {
    "postcode": "39393",
    "city": "Kauzleben"
  },
  {
    "postcode": "39393",
    "city": "Neubau"
  },
  {
    "postcode": "39393",
    "city": "Badeleben"
  },
  {
    "postcode": "39397",
    "city": "Gröningen bei Oschersleben"
  },
  {
    "postcode": "39397",
    "city": "Kroppenstedt"
  },
  {
    "postcode": "39397",
    "city": "Nienhagen bei Oschersleben"
  },
  {
    "postcode": "39397",
    "city": "Schwanebeck bei Oschersleben"
  },
  {
    "postcode": "39397",
    "city": "Börde"
  },
  {
    "postcode": "39397",
    "city": "Gröningen"
  },
  {
    "postcode": "39397",
    "city": "Nienhagen"
  },
  {
    "postcode": "39397",
    "city": "Schwanebeck"
  },
  {
    "postcode": "39397",
    "city": "Heynburg"
  },
  {
    "postcode": "39397",
    "city": "Großalsleben"
  },
  {
    "postcode": "39397",
    "city": "Krottorf"
  },
  {
    "postcode": "39397",
    "city": "Dalldorf"
  },
  {
    "postcode": "39397",
    "city": "Kloster Gröningen"
  },
  {
    "postcode": "39398",
    "city": "Alikendorf"
  },
  {
    "postcode": "39398",
    "city": "Groß Germersleben"
  },
  {
    "postcode": "39398",
    "city": "Hadmersleben"
  },
  {
    "postcode": "39398",
    "city": "Klein Oschersleben"
  },
  {
    "postcode": "39398",
    "city": "Peseckendorf"
  },
  {
    "postcode": "39418",
    "city": "Neundorf (Anhalt)"
  },
  {
    "postcode": "39418",
    "city": "Neundorf"
  },
  {
    "postcode": "39418",
    "city": "Staßfurt"
  },
  {
    "postcode": "39418",
    "city": "Salzlandkreis"
  },
  {
    "postcode": "39418",
    "city": "Rathmannsdorf"
  },
  {
    "postcode": "39418",
    "city": "Neu Staßfurt"
  },
  {
    "postcode": "39434",
    "city": "Hecklingen"
  },
  {
    "postcode": "39434",
    "city": "Hecklingen bei Staßfurt"
  },
  {
    "postcode": "39435",
    "city": "Borne bei Staßfurt"
  },
  {
    "postcode": "39435",
    "city": "Cochstedt"
  },
  {
    "postcode": "39435",
    "city": "Egeln"
  },
  {
    "postcode": "39435",
    "city": "Groß Börnecke"
  },
  {
    "postcode": "39435",
    "city": "Hecklingen"
  },
  {
    "postcode": "39435",
    "city": "Hecklingen bei Staßfurt"
  },
  {
    "postcode": "39435",
    "city": "Schneidlingen"
  },
  {
    "postcode": "39435",
    "city": "Tarthun"
  },
  {
    "postcode": "39435",
    "city": "Unseburg"
  },
  {
    "postcode": "39435",
    "city": "Wolmirsleben"
  },
  {
    "postcode": "39435",
    "city": "Salzlandkreis"
  },
  {
    "postcode": "39435",
    "city": "Bördeaue"
  },
  {
    "postcode": "39435",
    "city": "Borne"
  },
  {
    "postcode": "39435",
    "city": "Egeln-Nord"
  },
  {
    "postcode": "39439",
    "city": "Amesdorf"
  },
  {
    "postcode": "39439",
    "city": "Güsten Anhalt"
  },
  {
    "postcode": "39439",
    "city": "Güsten"
  },
  {
    "postcode": "39439",
    "city": "Rathmannsdorf bei Staßfurt"
  },
  {
    "postcode": "39439",
    "city": "Salzlandkreis"
  },
  {
    "postcode": "39439",
    "city": "Warmsdorf"
  },
  {
    "postcode": "39439",
    "city": "Osmarsleben"
  },
  {
    "postcode": "39443",
    "city": "Atzendorf bei Staßfurt"
  },
  {
    "postcode": "39443",
    "city": "Förderstedt"
  },
  {
    "postcode": "39443",
    "city": "Hohenerxleben"
  },
  {
    "postcode": "39443",
    "city": "Löbnitz an der Elbe"
  },
  {
    "postcode": "39443",
    "city": "Salzlandkreis"
  },
  {
    "postcode": "39443",
    "city": "Staßfurt"
  },
  {
    "postcode": "39443",
    "city": "Brumby"
  },
  {
    "postcode": "39443",
    "city": "Üllnitz"
  },
  {
    "postcode": "39443",
    "city": "Atzendorf"
  },
  {
    "postcode": "39443",
    "city": "Glöthe"
  },
  {
    "postcode": "39443",
    "city": "Löbnitz"
  },
  {
    "postcode": "39444",
    "city": "Hecklingen"
  },
  {
    "postcode": "39444",
    "city": "Hecklingen bei Staßfurt"
  },
  {
    "postcode": "39444",
    "city": "Salzlandkreis"
  },
  {
    "postcode": "39444",
    "city": "Cochstedt"
  },
  {
    "postcode": "39444",
    "city": "Schneidlingen"
  },
  {
    "postcode": "39444",
    "city": "Groß Börnecke"
  },
  {
    "postcode": "39444",
    "city": "Gänsefurth"
  },
  {
    "postcode": "39444",
    "city": "Jakobsgrube"
  },
  {
    "postcode": "39446",
    "city": "Löderburg"
  },
  {
    "postcode": "39446",
    "city": "Salzlandkreis"
  },
  {
    "postcode": "39446",
    "city": "Staßfurt"
  },
  {
    "postcode": "39446",
    "city": "Athensleben"
  },
  {
    "postcode": "39446",
    "city": "Lust"
  },
  {
    "postcode": "39446",
    "city": "Rothenförde"
  },
  {
    "postcode": "39448",
    "city": "Etgersleben"
  },
  {
    "postcode": "39448",
    "city": "Hakeborn"
  },
  {
    "postcode": "39448",
    "city": "Westeregeln"
  },
  {
    "postcode": "39448",
    "city": "Salzlandkreis"
  },
  {
    "postcode": "39448",
    "city": "Börde-Hakel"
  },
  {
    "postcode": "39517",
    "city": "Bertingen"
  },
  {
    "postcode": "39517",
    "city": "Birkholz bei Tangerhütte"
  },
  {
    "postcode": "39517",
    "city": "Bittkau"
  },
  {
    "postcode": "39517",
    "city": "Bölsdorf"
  },
  {
    "postcode": "39517",
    "city": "Buch bei Tangerhütte"
  },
  {
    "postcode": "39517",
    "city": "Burgstall bei Tangerhütte"
  },
  {
    "postcode": "39517",
    "city": "Cobbel"
  },
  {
    "postcode": "39517",
    "city": "Cröchern"
  },
  {
    "postcode": "39517",
    "city": "Dolle"
  },
  {
    "postcode": "39517",
    "city": "Grieben bei Tangerhütte"
  },
  {
    "postcode": "39517",
    "city": "Jerchel bei Tangerhütte"
  },
  {
    "postcode": "39517",
    "city": "Kehnert"
  },
  {
    "postcode": "39517",
    "city": "Lüderitz"
  },
  {
    "postcode": "39517",
    "city": "Mahlwinkel"
  },
  {
    "postcode": "39517",
    "city": "Ringfurth"
  },
  {
    "postcode": "39517",
    "city": "Sandbeiendorf"
  },
  {
    "postcode": "39517",
    "city": "Schelldorf bei Tangerhütte"
  },
  {
    "postcode": "39517",
    "city": "Schernebeck"
  },
  {
    "postcode": "39517",
    "city": "Schönwalde (Altmark)"
  },
  {
    "postcode": "39517",
    "city": "Schönwalde"
  },
  {
    "postcode": "39517",
    "city": "Tangerhütte"
  },
  {
    "postcode": "39517",
    "city": "Uchtdorf bei Tangerhütte"
  },
  {
    "postcode": "39517",
    "city": "Uetz (Altmark)"
  },
  {
    "postcode": "39517",
    "city": "Uetz"
  },
  {
    "postcode": "39517",
    "city": "Weißewarte"
  },
  {
    "postcode": "39517",
    "city": "Wenddorf"
  },
  {
    "postcode": "39517",
    "city": "Börde"
  },
  {
    "postcode": "39517",
    "city": "Burgstall"
  },
  {
    "postcode": "39517",
    "city": "Sandkrug"
  },
  {
    "postcode": "39517",
    "city": "Blätz"
  },
  {
    "postcode": "39517",
    "city": "Zibberick"
  },
  {
    "postcode": "39517",
    "city": "Groß Schwarzlosen"
  },
  {
    "postcode": "39517",
    "city": "Demker Bahnhof"
  },
  {
    "postcode": "39517",
    "city": "Schelldorf"
  },
  {
    "postcode": "39517",
    "city": "Polte"
  },
  {
    "postcode": "39517",
    "city": "Windberge"
  },
  {
    "postcode": "39517",
    "city": "Grieben"
  },
  {
    "postcode": "39517",
    "city": "Mahlpfuhl"
  },
  {
    "postcode": "39517",
    "city": "Brunkau"
  },
  {
    "postcode": "39517",
    "city": "Bellingen"
  },
  {
    "postcode": "39517",
    "city": "Birkholz"
  },
  {
    "postcode": "39517",
    "city": "Briest"
  },
  {
    "postcode": "39517",
    "city": "Ottersburg"
  },
  {
    "postcode": "39517",
    "city": "Uchtdorf"
  },
  {
    "postcode": "39517",
    "city": "Demker"
  },
  {
    "postcode": "39517",
    "city": "Elversdorf"
  },
  {
    "postcode": "39517",
    "city": "Jerchel"
  },
  {
    "postcode": "39517",
    "city": "Hüselitz"
  },
  {
    "postcode": "39517",
    "city": "Klein Schwarzlosen"
  },
  {
    "postcode": "39517",
    "city": "Sandfurth"
  },
  {
    "postcode": "39517",
    "city": "Scheeren"
  },
  {
    "postcode": "39517",
    "city": "Schleuß"
  },
  {
    "postcode": "39517",
    "city": "Sophienhof"
  },
  {
    "postcode": "39517",
    "city": "Stegelitz"
  },
  {
    "postcode": "39524",
    "city": "Fischbeck (Elbe)"
  },
  {
    "postcode": "39524",
    "city": "Fischbeck"
  },
  {
    "postcode": "39524",
    "city": "Garz bei Schönhausen"
  },
  {
    "postcode": "39524",
    "city": "Hohengöhren"
  },
  {
    "postcode": "39524",
    "city": "Kamern bei Schönhausen"
  },
  {
    "postcode": "39524",
    "city": "Klietz"
  },
  {
    "postcode": "39524",
    "city": "Kuhlhausen"
  },
  {
    "postcode": "39524",
    "city": "Mangelsdorf Jerichower Land"
  },
  {
    "postcode": "39524",
    "city": "Mangelsdorf"
  },
  {
    "postcode": "39524",
    "city": "Neuermark-Lübars"
  },
  {
    "postcode": "39524",
    "city": "Sandau (Elbe)"
  },
  {
    "postcode": "39524",
    "city": "Sandau"
  },
  {
    "postcode": "39524",
    "city": "Schönfeld bei Schönhausen"
  },
  {
    "postcode": "39524",
    "city": "Schönhausen (Elbe)"
  },
  {
    "postcode": "39524",
    "city": "Schönhausen"
  },
  {
    "postcode": "39524",
    "city": "Warnau bei Schönhausen"
  },
  {
    "postcode": "39524",
    "city": "Wulkau"
  },
  {
    "postcode": "39524",
    "city": "Wust bei Schönhausen"
  },
  {
    "postcode": "39524",
    "city": "Jerichower Land"
  },
  {
    "postcode": "39524",
    "city": "Kamern"
  },
  {
    "postcode": "39524",
    "city": "Wust-Fischbeck"
  },
  {
    "postcode": "39524",
    "city": "Rehberg"
  },
  {
    "postcode": "39524",
    "city": "Schönfeld"
  },
  {
    "postcode": "39524",
    "city": "Hohenkamern"
  },
  {
    "postcode": "39524",
    "city": "Neukamern"
  },
  {
    "postcode": "39524",
    "city": "Scharlibbe"
  },
  {
    "postcode": "39524",
    "city": "Neuermark"
  },
  {
    "postcode": "39524",
    "city": "Lübars"
  },
  {
    "postcode": "39524",
    "city": "Schönhausen-Damm"
  },
  {
    "postcode": "39524",
    "city": "Hohengöhren-Damm"
  },
  {
    "postcode": "39524",
    "city": "Wust"
  },
  {
    "postcode": "39524",
    "city": "Briest"
  },
  {
    "postcode": "39524",
    "city": "Kabelitz"
  },
  {
    "postcode": "39524",
    "city": "Melkow"
  },
  {
    "postcode": "39524",
    "city": "Sydow"
  },
  {
    "postcode": "39524",
    "city": "Wuster Siedlung"
  },
  {
    "postcode": "39539",
    "city": "Havelberg"
  },
  {
    "postcode": "39539",
    "city": "Stendal"
  },
  {
    "postcode": "39539",
    "city": "Neuwerben"
  },
  {
    "postcode": "39539",
    "city": "Warnau"
  },
  {
    "postcode": "39539",
    "city": "Nitzow"
  },
  {
    "postcode": "39539",
    "city": "Jederitz"
  },
  {
    "postcode": "39539",
    "city": "Garz"
  },
  {
    "postcode": "39539",
    "city": "Kuhlhausen"
  },
  {
    "postcode": "39539",
    "city": "Kümmernitz"
  },
  {
    "postcode": "39539",
    "city": "Dahlen"
  },
  {
    "postcode": "39539",
    "city": "Damerow"
  },
  {
    "postcode": "39539",
    "city": "Klein Damerow"
  },
  {
    "postcode": "39539",
    "city": "Vehlgast"
  },
  {
    "postcode": "39539",
    "city": "Waldfrieden"
  },
  {
    "postcode": "39576",
    "city": "Stendal"
  },
  {
    "postcode": "39576",
    "city": "Welle"
  },
  {
    "postcode": "39576",
    "city": "Nahrstedt"
  },
  {
    "postcode": "39576",
    "city": "Uchtspringe"
  },
  {
    "postcode": "39576",
    "city": "Staats"
  },
  {
    "postcode": "39576",
    "city": "Jarchau"
  },
  {
    "postcode": "39576",
    "city": "Groß Schwechten"
  },
  {
    "postcode": "39576",
    "city": "Wahrburg"
  },
  {
    "postcode": "39576",
    "city": "Möringen"
  },
  {
    "postcode": "39576",
    "city": "Vinzelberg"
  },
  {
    "postcode": "39576",
    "city": "Borstel"
  },
  {
    "postcode": "39576",
    "city": "Buchholz"
  },
  {
    "postcode": "39576",
    "city": "Peulingen"
  },
  {
    "postcode": "39576",
    "city": "Heeren"
  },
  {
    "postcode": "39576",
    "city": "Insel"
  },
  {
    "postcode": "39576",
    "city": "Wittenmoor"
  },
  {
    "postcode": "39576",
    "city": "Döbbelin"
  },
  {
    "postcode": "39576",
    "city": "Dahlen"
  },
  {
    "postcode": "39576",
    "city": "Uenglingen"
  },
  {
    "postcode": "39576",
    "city": "Arnim"
  },
  {
    "postcode": "39576",
    "city": "Staffelde"
  },
  {
    "postcode": "39576",
    "city": "Vollenschier"
  },
  {
    "postcode": "39576",
    "city": "Bindfelde"
  },
  {
    "postcode": "39576",
    "city": "Börgitz"
  },
  {
    "postcode": "39576",
    "city": "Volgfelde"
  },
  {
    "postcode": "39576",
    "city": "Charlottenhof"
  },
  {
    "postcode": "39576",
    "city": "Röxe"
  },
  {
    "postcode": "39576",
    "city": "Dahrenstedt"
  },
  {
    "postcode": "39576",
    "city": "Gohre"
  },
  {
    "postcode": "39576",
    "city": "Klein Möringen"
  },
  {
    "postcode": "39576",
    "city": "Tornau"
  },
  {
    "postcode": "39576",
    "city": "Neuendorf"
  },
  {
    "postcode": "39576",
    "city": "Wilhelmshof"
  },
  {
    "postcode": "39579",
    "city": "Badingen bei Stendal"
  },
  {
    "postcode": "39579",
    "city": "Bellingen bei Stendal"
  },
  {
    "postcode": "39579",
    "city": "Buchholz bei Stendal"
  },
  {
    "postcode": "39579",
    "city": "Dahlen bei Stendal"
  },
  {
    "postcode": "39579",
    "city": "Demker"
  },
  {
    "postcode": "39579",
    "city": "Garlipp"
  },
  {
    "postcode": "39579",
    "city": "Goldbeck Altmark"
  },
  {
    "postcode": "39579",
    "city": "Goldbeck"
  },
  {
    "postcode": "39579",
    "city": "Grassau bei Stendal"
  },
  {
    "postcode": "39579",
    "city": "Grobleben"
  },
  {
    "postcode": "39579",
    "city": "Groß Schwechten"
  },
  {
    "postcode": "39579",
    "city": "Hüselitz"
  },
  {
    "postcode": "39579",
    "city": "Kläden bei Stendal"
  },
  {
    "postcode": "39579",
    "city": "Klein Schwechten"
  },
  {
    "postcode": "39579",
    "city": "Querstedt"
  },
  {
    "postcode": "39579",
    "city": "Rochau"
  },
  {
    "postcode": "39579",
    "city": "Schäplitz"
  },
  {
    "postcode": "39579",
    "city": "Schernikau bei Stendal"
  },
  {
    "postcode": "39579",
    "city": "Schinne"
  },
  {
    "postcode": "39579",
    "city": "Uenglingen"
  },
  {
    "postcode": "39579",
    "city": "Windberge"
  },
  {
    "postcode": "39579",
    "city": "Wittenmoor bei Stendal"
  },
  {
    "postcode": "39579",
    "city": "Stendal"
  },
  {
    "postcode": "39579",
    "city": "Bismark (Altmark)"
  },
  {
    "postcode": "39579",
    "city": "Ziegenhagen"
  },
  {
    "postcode": "39579",
    "city": "Schartau"
  },
  {
    "postcode": "39579",
    "city": "Häsewig"
  },
  {
    "postcode": "39579",
    "city": "Bismark"
  },
  {
    "postcode": "39590",
    "city": "Hämerten"
  },
  {
    "postcode": "39590",
    "city": "Heeren"
  },
  {
    "postcode": "39590",
    "city": "Langensalzwedel"
  },
  {
    "postcode": "39590",
    "city": "Miltern"
  },
  {
    "postcode": "39590",
    "city": "Storkau (Elbe)"
  },
  {
    "postcode": "39590",
    "city": "Storkau"
  },
  {
    "postcode": "39590",
    "city": "Tangermünde"
  },
  {
    "postcode": "39590",
    "city": "Stendal"
  },
  {
    "postcode": "39590",
    "city": "Bölsdorf"
  },
  {
    "postcode": "39590",
    "city": "Buch"
  },
  {
    "postcode": "39590",
    "city": "Billberge"
  },
  {
    "postcode": "39590",
    "city": "Grobleben"
  },
  {
    "postcode": "39590",
    "city": "Köckte"
  },
  {
    "postcode": "39596",
    "city": "Altenzaun"
  },
  {
    "postcode": "39596",
    "city": "Arneburg"
  },
  {
    "postcode": "39596",
    "city": "Baben"
  },
  {
    "postcode": "39596",
    "city": "Beelitz bei Stendal"
  },
  {
    "postcode": "39596",
    "city": "Bertkow"
  },
  {
    "postcode": "39596",
    "city": "Eichstedt (Altmark)"
  },
  {
    "postcode": "39596",
    "city": "Eichstedt"
  },
  {
    "postcode": "39596",
    "city": "Goldbeck Altmark"
  },
  {
    "postcode": "39596",
    "city": "Goldbeck"
  },
  {
    "postcode": "39596",
    "city": "Hassel bei Stendal"
  },
  {
    "postcode": "39596",
    "city": "Hindenburg bei Stendal"
  },
  {
    "postcode": "39596",
    "city": "Hohenberg-Krusemark"
  },
  {
    "postcode": "39596",
    "city": "Jarchau"
  },
  {
    "postcode": "39596",
    "city": "Lindtorf"
  },
  {
    "postcode": "39596",
    "city": "Sanne bei Stendal"
  },
  {
    "postcode": "39596",
    "city": "Schwarzholz bei Stendal"
  },
  {
    "postcode": "39596",
    "city": "Stendal"
  },
  {
    "postcode": "39596",
    "city": "Hassel"
  },
  {
    "postcode": "39596",
    "city": "Dalchau"
  },
  {
    "postcode": "39596",
    "city": "Beelitz"
  },
  {
    "postcode": "39596",
    "city": "Baumgarten"
  },
  {
    "postcode": "39596",
    "city": "Petersmark"
  },
  {
    "postcode": "39596",
    "city": "Plätz"
  },
  {
    "postcode": "39596",
    "city": "Möllendorf"
  },
  {
    "postcode": "39596",
    "city": "Wischer"
  },
  {
    "postcode": "39596",
    "city": "Sanne"
  },
  {
    "postcode": "39596",
    "city": "Chausseehaus Hassel"
  },
  {
    "postcode": "39596",
    "city": "Rudolphital"
  },
  {
    "postcode": "39596",
    "city": "Groß Ellingen"
  },
  {
    "postcode": "39596",
    "city": "Osterholz"
  },
  {
    "postcode": "39596",
    "city": "Hindenburg"
  },
  {
    "postcode": "39596",
    "city": "Schwarzholz"
  },
  {
    "postcode": "39596",
    "city": "Rosenhof"
  },
  {
    "postcode": "39596",
    "city": "Gethlingen"
  },
  {
    "postcode": "39596",
    "city": "Kirchpolkritz"
  },
  {
    "postcode": "39596",
    "city": "Klein Ellingen"
  },
  {
    "postcode": "39596",
    "city": "Rindtorf"
  },
  {
    "postcode": "39599",
    "city": "Insel bei Stendal"
  },
  {
    "postcode": "39599",
    "city": "Käthen"
  },
  {
    "postcode": "39599",
    "city": "Möringen"
  },
  {
    "postcode": "39599",
    "city": "Nahrstedt"
  },
  {
    "postcode": "39599",
    "city": "Staats"
  },
  {
    "postcode": "39599",
    "city": "Steinfeld (Altmark)"
  },
  {
    "postcode": "39599",
    "city": "Steinfeld"
  },
  {
    "postcode": "39599",
    "city": "Uchtspringe"
  },
  {
    "postcode": "39599",
    "city": "Vinzelberg"
  },
  {
    "postcode": "39599",
    "city": "Volgfelde"
  },
  {
    "postcode": "39599",
    "city": "Stendal"
  },
  {
    "postcode": "39606",
    "city": "Ballerstedt"
  },
  {
    "postcode": "39606",
    "city": "Behrendorf (Altmark)"
  },
  {
    "postcode": "39606",
    "city": "Behrendorf"
  },
  {
    "postcode": "39606",
    "city": "Boock (Altmark)"
  },
  {
    "postcode": "39606",
    "city": "Boock"
  },
  {
    "postcode": "39606",
    "city": "Bretsch"
  },
  {
    "postcode": "39606",
    "city": "Dobberkau"
  },
  {
    "postcode": "39606",
    "city": "Düsedau"
  },
  {
    "postcode": "39606",
    "city": "Erxleben bei Osterburg"
  },
  {
    "postcode": "39606",
    "city": "Flessau"
  },
  {
    "postcode": "39606",
    "city": "Gagel"
  },
  {
    "postcode": "39606",
    "city": "Gladigau"
  },
  {
    "postcode": "39606",
    "city": "Heiligenfelde (Altmark)"
  },
  {
    "postcode": "39606",
    "city": "Heiligenfelde"
  },
  {
    "postcode": "39606",
    "city": "Hohenwulsch"
  },
  {
    "postcode": "39606",
    "city": "Iden"
  },
  {
    "postcode": "39606",
    "city": "Kleinau"
  },
  {
    "postcode": "39606",
    "city": "Königsmark (Altmark)"
  },
  {
    "postcode": "39606",
    "city": "Königsmark"
  },
  {
    "postcode": "39606",
    "city": "Kossebau"
  },
  {
    "postcode": "39606",
    "city": "Krevese"
  },
  {
    "postcode": "39606",
    "city": "Lückstedt"
  },
  {
    "postcode": "39606",
    "city": "Meseberg (Altmark)"
  },
  {
    "postcode": "39606",
    "city": "Meseberg"
  },
  {
    "postcode": "39606",
    "city": "Osterburg (Altmark)"
  },
  {
    "postcode": "39606",
    "city": "Osterburg"
  },
  {
    "postcode": "39606",
    "city": "Rossau (Altmark)"
  },
  {
    "postcode": "39606",
    "city": "Rossau"
  },
  {
    "postcode": "39606",
    "city": "Sandauerholz"
  },
  {
    "postcode": "39606",
    "city": "Sanne-Kerkuhn bei Osterburg"
  },
  {
    "postcode": "39606",
    "city": "Schorstedt"
  },
  {
    "postcode": "39606",
    "city": "Walsleben (Altmark)"
  },
  {
    "postcode": "39606",
    "city": "Walsleben"
  },
  {
    "postcode": "39606",
    "city": "Altmarkkreis Salzwedel"
  },
  {
    "postcode": "39606",
    "city": "Altmärkische Höhe"
  },
  {
    "postcode": "39606",
    "city": "Bismark (Altmark)"
  },
  {
    "postcode": "39606",
    "city": "Erxleben"
  },
  {
    "postcode": "39606",
    "city": "Dewitz"
  },
  {
    "postcode": "39606",
    "city": "Drüsedau"
  },
  {
    "postcode": "39606",
    "city": "Einwinkel"
  },
  {
    "postcode": "39606",
    "city": "Losse"
  },
  {
    "postcode": "39606",
    "city": "Priemern"
  },
  {
    "postcode": "39606",
    "city": "Rathsleben"
  },
  {
    "postcode": "39606",
    "city": "Stapel"
  },
  {
    "postcode": "39606",
    "city": "Wohlenberg"
  },
  {
    "postcode": "39606",
    "city": "Klein Ballerstedt"
  },
  {
    "postcode": "39606",
    "city": "Calberwisch"
  },
  {
    "postcode": "39606",
    "city": "Polkau"
  },
  {
    "postcode": "39606",
    "city": "Storbeck"
  },
  {
    "postcode": "39606",
    "city": "Natterheide"
  },
  {
    "postcode": "39606",
    "city": "Rönnebeck"
  },
  {
    "postcode": "39606",
    "city": "Wollenrade"
  },
  {
    "postcode": "39606",
    "city": "Orpensdorf"
  },
  {
    "postcode": "39606",
    "city": "Schmersau"
  },
  {
    "postcode": "39606",
    "city": "Rohrbeck"
  },
  {
    "postcode": "39606",
    "city": "Büttnershof"
  },
  {
    "postcode": "39606",
    "city": "Germerslage"
  },
  {
    "postcode": "39606",
    "city": "Kannenberg"
  },
  {
    "postcode": "39606",
    "city": "Busch"
  },
  {
    "postcode": "39606",
    "city": "Wolterslage"
  },
  {
    "postcode": "39606",
    "city": "Rengerslage"
  },
  {
    "postcode": "39606",
    "city": "Wasmerslage"
  },
  {
    "postcode": "39606",
    "city": "Polkern"
  },
  {
    "postcode": "39606",
    "city": "Dequede"
  },
  {
    "postcode": "39606",
    "city": "Röthenberg"
  },
  {
    "postcode": "39606",
    "city": "Krumke"
  },
  {
    "postcode": "39606",
    "city": "Zedau"
  },
  {
    "postcode": "39606",
    "city": "Dobbrun"
  },
  {
    "postcode": "39606",
    "city": "Klein Rossau"
  },
  {
    "postcode": "39606",
    "city": "Schliecksdorf"
  },
  {
    "postcode": "39606",
    "city": "Uchtenhagen"
  },
  {
    "postcode": "39606",
    "city": "Bismark"
  },
  {
    "postcode": "39615",
    "city": "Aulosen"
  },
  {
    "postcode": "39615",
    "city": "Beuster"
  },
  {
    "postcode": "39615",
    "city": "Drüsedau"
  },
  {
    "postcode": "39615",
    "city": "Falkenberg (Altmark)"
  },
  {
    "postcode": "39615",
    "city": "Falkenberg"
  },
  {
    "postcode": "39615",
    "city": "Geestgottberg"
  },
  {
    "postcode": "39615",
    "city": "Gollensdorf"
  },
  {
    "postcode": "39615",
    "city": "Groß Garz"
  },
  {
    "postcode": "39615",
    "city": "Höwisch"
  },
  {
    "postcode": "39615",
    "city": "Krüden"
  },
  {
    "postcode": "39615",
    "city": "Leppin Altmark"
  },
  {
    "postcode": "39615",
    "city": "Leppin"
  },
  {
    "postcode": "39615",
    "city": "Lichterfelde (Altmark)"
  },
  {
    "postcode": "39615",
    "city": "Lichterfelde"
  },
  {
    "postcode": "39615",
    "city": "Losenrade"
  },
  {
    "postcode": "39615",
    "city": "Losse"
  },
  {
    "postcode": "39615",
    "city": "Neukirchen (Altmark)"
  },
  {
    "postcode": "39615",
    "city": "Neukirchen"
  },
  {
    "postcode": "39615",
    "city": "Neulingen Altmark"
  },
  {
    "postcode": "39615",
    "city": "Neulingen"
  },
  {
    "postcode": "39615",
    "city": "Pollitz"
  },
  {
    "postcode": "39615",
    "city": "Schönberg (Altmark)"
  },
  {
    "postcode": "39615",
    "city": "Schönberg"
  },
  {
    "postcode": "39615",
    "city": "Seehausen (Altmark)"
  },
  {
    "postcode": "39615",
    "city": "Seehausen"
  },
  {
    "postcode": "39615",
    "city": "Wahrenberg (Altmark)"
  },
  {
    "postcode": "39615",
    "city": "Wahrenberg"
  },
  {
    "postcode": "39615",
    "city": "Wanzer"
  },
  {
    "postcode": "39615",
    "city": "Wendemark (Altmark)"
  },
  {
    "postcode": "39615",
    "city": "Wendemark"
  },
  {
    "postcode": "39615",
    "city": "Werben (Elbe)"
  },
  {
    "postcode": "39615",
    "city": "Werben"
  },
  {
    "postcode": "39615",
    "city": "Altmarkkreis Salzwedel"
  },
  {
    "postcode": "39615",
    "city": "Aland"
  },
  {
    "postcode": "39615",
    "city": "Altmärkische Wische"
  },
  {
    "postcode": "39615",
    "city": "Iden"
  },
  {
    "postcode": "39615",
    "city": "Zehrental"
  },
  {
    "postcode": "39615",
    "city": "Groß Holzhausen"
  },
  {
    "postcode": "39615",
    "city": "Stresow"
  },
  {
    "postcode": "39615",
    "city": "Kannenberg"
  },
  {
    "postcode": "39615",
    "city": "Vielbaum"
  },
  {
    "postcode": "39615",
    "city": "Scharpenhufe"
  },
  {
    "postcode": "39615",
    "city": "Werder"
  },
  {
    "postcode": "39615",
    "city": "Scharpenlohe"
  },
  {
    "postcode": "39615",
    "city": "Oberkamps"
  },
  {
    "postcode": "39615",
    "city": "Unterkamps"
  },
  {
    "postcode": "39615",
    "city": "Eickerhöfe"
  },
  {
    "postcode": "39615",
    "city": "Ostorf"
  },
  {
    "postcode": "39615",
    "city": "Behrend"
  },
  {
    "postcode": "39615",
    "city": "Esack"
  },
  {
    "postcode": "39615",
    "city": "Wegenitz"
  },
  {
    "postcode": "39615",
    "city": "Steinfelde"
  },
  {
    "postcode": "39615",
    "city": "Berge"
  },
  {
    "postcode": "39615",
    "city": "Behrendorf"
  },
  {
    "postcode": "39615",
    "city": "Giesenslage"
  },
  {
    "postcode": "39615",
    "city": "Räbel"
  },
  {
    "postcode": "39615",
    "city": "Lindenberg"
  },
  {
    "postcode": "39615",
    "city": "Bömenzien"
  },
  {
    "postcode": "39615",
    "city": "Deutsch"
  },
  {
    "postcode": "39615",
    "city": "Jeggel"
  },
  {
    "postcode": "39615",
    "city": "Drösede"
  },
  {
    "postcode": "39619",
    "city": "Arendsee (Altmark)"
  },
  {
    "postcode": "39619",
    "city": "Arendsee"
  },
  {
    "postcode": "39619",
    "city": "Kläden bei Arendsee Altmark"
  },
  {
    "postcode": "39619",
    "city": "Kläden bei Arendsee"
  },
  {
    "postcode": "39619",
    "city": "Schrampe"
  },
  {
    "postcode": "39619",
    "city": "Thielbeer"
  },
  {
    "postcode": "39619",
    "city": "Ziemendorf"
  },
  {
    "postcode": "39619",
    "city": "Altmarkkreis Salzwedel"
  },
  {
    "postcode": "39619",
    "city": "Lohne"
  },
  {
    "postcode": "39619",
    "city": "Kleinau"
  },
  {
    "postcode": "39619",
    "city": "Mechau"
  },
  {
    "postcode": "39619",
    "city": "Fleetmark"
  },
  {
    "postcode": "39619",
    "city": "Binde"
  },
  {
    "postcode": "39619",
    "city": "Dessau"
  },
  {
    "postcode": "39619",
    "city": "Genzien"
  },
  {
    "postcode": "39619",
    "city": "Gestien"
  },
  {
    "postcode": "39619",
    "city": "Höwisch"
  },
  {
    "postcode": "39619",
    "city": "Harpe"
  },
  {
    "postcode": "39619",
    "city": "Kassuhn"
  },
  {
    "postcode": "39619",
    "city": "Kaulitz"
  },
  {
    "postcode": "39619",
    "city": "Kerkau"
  },
  {
    "postcode": "39619",
    "city": "Kerkuhn"
  },
  {
    "postcode": "39619",
    "city": "Zießau"
  },
  {
    "postcode": "39619",
    "city": "Kläden"
  },
  {
    "postcode": "39619",
    "city": "Kraatz"
  },
  {
    "postcode": "39619",
    "city": "Ladekath"
  },
  {
    "postcode": "39619",
    "city": "Leppin"
  },
  {
    "postcode": "39619",
    "city": "Lübbars"
  },
  {
    "postcode": "39619",
    "city": "Lüge"
  },
  {
    "postcode": "39619",
    "city": "Molitz"
  },
  {
    "postcode": "39619",
    "city": "Neulingen"
  },
  {
    "postcode": "39619",
    "city": "Rademin"
  },
  {
    "postcode": "39619",
    "city": "Ritzleben"
  },
  {
    "postcode": "39619",
    "city": "Sanne"
  },
  {
    "postcode": "39619",
    "city": "Schernikau"
  },
  {
    "postcode": "39619",
    "city": "Vissum"
  },
  {
    "postcode": "39619",
    "city": "Störpke"
  },
  {
    "postcode": "39619",
    "city": "Zehren"
  },
  {
    "postcode": "39619",
    "city": "Zühlen"
  },
  {
    "postcode": "39624",
    "city": "Altmersleben"
  },
  {
    "postcode": "39624",
    "city": "Badel"
  },
  {
    "postcode": "39624",
    "city": "Berkau (Altmark)"
  },
  {
    "postcode": "39624",
    "city": "Berkau"
  },
  {
    "postcode": "39624",
    "city": "Brunau Altmark"
  },
  {
    "postcode": "39624",
    "city": "Brunau"
  },
  {
    "postcode": "39624",
    "city": "Büste"
  },
  {
    "postcode": "39624",
    "city": "Güssefeld"
  },
  {
    "postcode": "39624",
    "city": "Jeetze"
  },
  {
    "postcode": "39624",
    "city": "Kahrstedt"
  },
  {
    "postcode": "39624",
    "city": "Kakerbeck Altmark"
  },
  {
    "postcode": "39624",
    "city": "Kakerbeck"
  },
  {
    "postcode": "39624",
    "city": "Kalbe (Milde)"
  },
  {
    "postcode": "39624",
    "city": "Kalbe"
  },
  {
    "postcode": "39624",
    "city": "Kremkau"
  },
  {
    "postcode": "39624",
    "city": "Meßdorf"
  },
  {
    "postcode": "39624",
    "city": "Neuendorf am Damm"
  },
  {
    "postcode": "39624",
    "city": "Packebusch"
  },
  {
    "postcode": "39624",
    "city": "Vienau"
  },
  {
    "postcode": "39624",
    "city": "Wernstedt"
  },
  {
    "postcode": "39624",
    "city": "Winkelstedt bei Kalbe Milde"
  },
  {
    "postcode": "39624",
    "city": "Winkelstedt bei Kalbe"
  },
  {
    "postcode": "39624",
    "city": "Zethlingen"
  },
  {
    "postcode": "39624",
    "city": "Altmarkkreis Salzwedel"
  },
  {
    "postcode": "39624",
    "city": "Bismark (Altmark)"
  },
  {
    "postcode": "39624",
    "city": "Jemmeritz"
  },
  {
    "postcode": "39624",
    "city": "Siepe"
  },
  {
    "postcode": "39624",
    "city": "Bühne"
  },
  {
    "postcode": "39624",
    "city": "Engersen"
  },
  {
    "postcode": "39624",
    "city": "Jeggeleben"
  },
  {
    "postcode": "39624",
    "city": "Vahrholz"
  },
  {
    "postcode": "39624",
    "city": "Vietzen"
  },
  {
    "postcode": "39624",
    "city": "Beese"
  },
  {
    "postcode": "39624",
    "city": "Brüchau"
  },
  {
    "postcode": "39624",
    "city": "Cheinitz"
  },
  {
    "postcode": "39624",
    "city": "Dolchau"
  },
  {
    "postcode": "39624",
    "city": "Klein Engersen"
  },
  {
    "postcode": "39624",
    "city": "Plathe"
  },
  {
    "postcode": "39624",
    "city": "Winkelstedt"
  },
  {
    "postcode": "39624",
    "city": "Wustrewe"
  },
  {
    "postcode": "39624",
    "city": "Faulenhorst"
  },
  {
    "postcode": "39624",
    "city": "Mösenthin"
  },
  {
    "postcode": "39624",
    "city": "Neuendorf a Damm"
  },
  {
    "postcode": "39624",
    "city": "Hagenau"
  },
  {
    "postcode": "39624",
    "city": "Karritz"
  },
  {
    "postcode": "39624",
    "city": "Butterhorst"
  },
  {
    "postcode": "39624",
    "city": "Mehrin"
  },
  {
    "postcode": "39624",
    "city": "Sallenthin"
  },
  {
    "postcode": "39624",
    "city": "Thüritz"
  },
  {
    "postcode": "39624",
    "city": "Zierau"
  },
  {
    "postcode": "39624",
    "city": "Bismark"
  },
  {
    "postcode": "39629",
    "city": "Bismark (Altmark)"
  },
  {
    "postcode": "39629",
    "city": "Bismark"
  },
  {
    "postcode": "39629",
    "city": "Holzhausen bei Kalbe Milde"
  },
  {
    "postcode": "39629",
    "city": "Holzhausen bei Kalbe"
  },
  {
    "postcode": "39629",
    "city": "Könnigde"
  },
  {
    "postcode": "39629",
    "city": "Stendal"
  },
  {
    "postcode": "39629",
    "city": "Berkau"
  },
  {
    "postcode": "39629",
    "city": "Meßdorf"
  },
  {
    "postcode": "39629",
    "city": "Beesewege"
  },
  {
    "postcode": "39629",
    "city": "Hohenwulsch"
  },
  {
    "postcode": "39629",
    "city": "Büste"
  },
  {
    "postcode": "39629",
    "city": "Dobberkau"
  },
  {
    "postcode": "39629",
    "city": "Biesenthal"
  },
  {
    "postcode": "39629",
    "city": "Schönebeck"
  },
  {
    "postcode": "39629",
    "city": "Arensberg"
  },
  {
    "postcode": "39629",
    "city": "Späningen"
  },
  {
    "postcode": "39629",
    "city": "Döllnitz"
  },
  {
    "postcode": "39629",
    "city": "Schorstedt"
  },
  {
    "postcode": "39629",
    "city": "Kremkau"
  },
  {
    "postcode": "39629",
    "city": "Friedrichsfleiß"
  },
  {
    "postcode": "39629",
    "city": "Friedrichshof"
  },
  {
    "postcode": "39629",
    "city": "Grävenitz"
  },
  {
    "postcode": "39629",
    "city": "Holzhausen"
  },
  {
    "postcode": "39629",
    "city": "Wartenberg"
  },
  {
    "postcode": "39629",
    "city": "Möllenbeck"
  },
  {
    "postcode": "39629",
    "city": "Poritz"
  },
  {
    "postcode": "39638",
    "city": "Algenstedt"
  },
  {
    "postcode": "39638",
    "city": "Berenbrock bei Haldensleben"
  },
  {
    "postcode": "39638",
    "city": "Berge bei Gardelegen"
  },
  {
    "postcode": "39638",
    "city": "Breitenfeld Altmark"
  },
  {
    "postcode": "39638",
    "city": "Breitenfeld"
  },
  {
    "postcode": "39638",
    "city": "Dorst"
  },
  {
    "postcode": "39638",
    "city": "Engersen"
  },
  {
    "postcode": "39638",
    "city": "Estedt"
  },
  {
    "postcode": "39638",
    "city": "Gardelegen"
  },
  {
    "postcode": "39638",
    "city": "Hemstedt"
  },
  {
    "postcode": "39638",
    "city": "Hottendorf"
  },
  {
    "postcode": "39638",
    "city": "Jävenitz"
  },
  {
    "postcode": "39638",
    "city": "Jerchel Altmark"
  },
  {
    "postcode": "39638",
    "city": "Jerchel"
  },
  {
    "postcode": "39638",
    "city": "Jeseritz"
  },
  {
    "postcode": "39638",
    "city": "Kassieck"
  },
  {
    "postcode": "39638",
    "city": "Kloster Neuendorf"
  },
  {
    "postcode": "39638",
    "city": "Klüden"
  },
  {
    "postcode": "39638",
    "city": "Letzlingen"
  },
  {
    "postcode": "39638",
    "city": "Lindstedt"
  },
  {
    "postcode": "39638",
    "city": "Potzehne"
  },
  {
    "postcode": "39638",
    "city": "Roxförde"
  },
  {
    "postcode": "39638",
    "city": "Schenkenhorst Altmark"
  },
  {
    "postcode": "39638",
    "city": "Schenkenhorst"
  },
  {
    "postcode": "39638",
    "city": "Schwiesau"
  },
  {
    "postcode": "39638",
    "city": "Seethen"
  },
  {
    "postcode": "39638",
    "city": "Solpke"
  },
  {
    "postcode": "39638",
    "city": "Wannefeld"
  },
  {
    "postcode": "39638",
    "city": "Wiepke"
  },
  {
    "postcode": "39638",
    "city": "Zichtau"
  },
  {
    "postcode": "39638",
    "city": "Ziepel bei Burg"
  },
  {
    "postcode": "39638",
    "city": "Zobbenitz"
  },
  {
    "postcode": "39638",
    "city": "Altmarkkreis Salzwedel"
  },
  {
    "postcode": "39638",
    "city": "Berenbrock"
  },
  {
    "postcode": "39638",
    "city": "Calvörde"
  },
  {
    "postcode": "39638",
    "city": "Lössewitz"
  },
  {
    "postcode": "39638",
    "city": "Elsebeck"
  },
  {
    "postcode": "39638",
    "city": "Ackendorf"
  },
  {
    "postcode": "39638",
    "city": "Berge"
  },
  {
    "postcode": "39638",
    "city": "Zienau"
  },
  {
    "postcode": "39638",
    "city": "Weteritz"
  },
  {
    "postcode": "39638",
    "city": "Lindenthal"
  },
  {
    "postcode": "39638",
    "city": "Ipse"
  },
  {
    "postcode": "39638",
    "city": "Ziepel"
  },
  {
    "postcode": "39638",
    "city": "Laatzke"
  },
  {
    "postcode": "39638",
    "city": "Lindstedterhorst"
  },
  {
    "postcode": "39638",
    "city": "Lotsche"
  },
  {
    "postcode": "39638",
    "city": "Lüffingen"
  },
  {
    "postcode": "39638",
    "city": "Parleib"
  },
  {
    "postcode": "39638",
    "city": "Polvitz"
  },
  {
    "postcode": "39638",
    "city": "Rothe Krug"
  },
  {
    "postcode": "39638",
    "city": "Theerhütte"
  },
  {
    "postcode": "39638",
    "city": "Trüstedt"
  },
  {
    "postcode": "39638",
    "city": "Wollenhagen"
  },
  {
    "postcode": "39646",
    "city": "Kahnstieg"
  },
  {
    "postcode": "39646",
    "city": "Oebisfelde"
  },
  {
    "postcode": "39646",
    "city": "Börde"
  },
  {
    "postcode": "39646",
    "city": "Lockstedt"
  },
  {
    "postcode": "39646",
    "city": "Niendorf"
  },
  {
    "postcode": "39646",
    "city": "Breitenrode"
  },
  {
    "postcode": "39646",
    "city": "Wassensdorf"
  },
  {
    "postcode": "39646",
    "city": "Bergfriede"
  },
  {
    "postcode": "39646",
    "city": "Gehrendorf"
  },
  {
    "postcode": "39646",
    "city": "Weddendorf"
  },
  {
    "postcode": "39646",
    "city": "Buchhorst"
  },
  {
    "postcode": "39646",
    "city": "Oebisfelde-Weferlingen"
  },
  {
    "postcode": "39649",
    "city": "Dannefeld"
  },
  {
    "postcode": "39649",
    "city": "Jeggau"
  },
  {
    "postcode": "39649",
    "city": "Köckte bei Gardelegen"
  },
  {
    "postcode": "39649",
    "city": "Mieste"
  },
  {
    "postcode": "39649",
    "city": "Miesterhorst"
  },
  {
    "postcode": "39649",
    "city": "Peckfitz"
  },
  {
    "postcode": "39649",
    "city": "Sachau bei Gardelegen"
  },
  {
    "postcode": "39649",
    "city": "Sichau"
  },
  {
    "postcode": "39649",
    "city": "Altmarkkreis Salzwedel"
  },
  {
    "postcode": "39649",
    "city": "Gardelegen"
  },
  {
    "postcode": "39649",
    "city": "Sachau"
  },
  {
    "postcode": "39649",
    "city": "Wernitz"
  },
  {
    "postcode": "39649",
    "city": "Köckte"
  },
  {
    "postcode": "39649",
    "city": "Eigenthum"
  },
  {
    "postcode": "39649",
    "city": "Kahnstieg"
  },
  {
    "postcode": "39649",
    "city": "Kämeritz"
  },
  {
    "postcode": "39649",
    "city": "Taterberg"
  },
  {
    "postcode": "39649",
    "city": "Siems"
  },
  {
    "postcode": "39649",
    "city": "Tarnefitz"
  },
  {
    "postcode": "39217",
    "city": "Salzlandkreis"
  },
  {
    "postcode": "39217",
    "city": "Gommern"
  },
  {
    "postcode": "39217",
    "city": "Schönebeck (Elbe)"
  },
  {
    "postcode": "39217",
    "city": "Plötzky"
  },
  {
    "postcode": "39217",
    "city": "Pretzien"
  },
  {
    "postcode": "39217",
    "city": "Ranies"
  },
  {
    "postcode": "39217",
    "city": "Schönebeck"
  }
]