[
  {
    "postcode": "23539",
    "city": "Lübeck"
  },
  {
    "postcode": "23552",
    "city": "Lübeck"
  },
  {
    "postcode": "23552",
    "city": "Innenstadt"
  },
  {
    "postcode": "23552",
    "city": "Burgtor/Stadtpark"
  },
  {
    "postcode": "23552",
    "city": "Hüxtertor/Mühlentor/Gärtnergasse"
  },
  {
    "postcode": "23552",
    "city": "Burgtor"
  },
  {
    "postcode": "23552",
    "city": "Hüxtertor"
  },
  {
    "postcode": "23554",
    "city": "Lübeck"
  },
  {
    "postcode": "23554",
    "city": "Sankt Jürgen"
  },
  {
    "postcode": "23554",
    "city": "Sankt Lorenz Nord"
  },
  {
    "postcode": "23554",
    "city": "Sankt Lorenz Süd"
  },
  {
    "postcode": "23554",
    "city": "St. Lorenz Nord"
  },
  {
    "postcode": "23554",
    "city": "Innenstadt"
  },
  {
    "postcode": "23554",
    "city": "St. Lorenz Süd"
  },
  {
    "postcode": "23554",
    "city": "Falkenfeld/Vorwerk"
  },
  {
    "postcode": "23554",
    "city": "Holstentor Nord"
  },
  {
    "postcode": "23554",
    "city": "Falkenfeld"
  },
  {
    "postcode": "23556",
    "city": "Lübeck"
  },
  {
    "postcode": "23556",
    "city": "Padelügge"
  },
  {
    "postcode": "23556",
    "city": "Sankt Lorenz Nord"
  },
  {
    "postcode": "23556",
    "city": "Sankt Lorenz Süd"
  },
  {
    "postcode": "23556",
    "city": "St. Lorenz Nord"
  },
  {
    "postcode": "23556",
    "city": "Buntekuh"
  },
  {
    "postcode": "23556",
    "city": "Dornbreite"
  },
  {
    "postcode": "23556",
    "city": "Schönböcken"
  },
  {
    "postcode": "23556",
    "city": "St. Lorenz Süd"
  },
  {
    "postcode": "23556",
    "city": "Holstentor Nord"
  },
  {
    "postcode": "23558",
    "city": "Lübeck"
  },
  {
    "postcode": "23558",
    "city": "Sankt Lorenz Nord"
  },
  {
    "postcode": "23558",
    "city": "Sankt Lorenz Süd"
  },
  {
    "postcode": "23558",
    "city": "St. Lorenz Süd"
  },
  {
    "postcode": "23558",
    "city": "Buntekuh"
  },
  {
    "postcode": "23558",
    "city": "St. Lorenz Nord"
  },
  {
    "postcode": "23558",
    "city": "Innenstadt"
  },
  {
    "postcode": "23560",
    "city": "Lübeck"
  },
  {
    "postcode": "23560",
    "city": "Moisling"
  },
  {
    "postcode": "23560",
    "city": "Sankt Jürgen"
  },
  {
    "postcode": "23560",
    "city": "St. Jürgen"
  },
  {
    "postcode": "23560",
    "city": "Blankensee"
  },
  {
    "postcode": "23560",
    "city": "Hüxtertor/Mühlentor/Gärtnergasse"
  },
  {
    "postcode": "23560",
    "city": "Krummesse"
  },
  {
    "postcode": "23560",
    "city": "Schiereichenkoppel"
  },
  {
    "postcode": "23560",
    "city": "Strecknitz"
  },
  {
    "postcode": "23560",
    "city": "Innenstadt"
  },
  {
    "postcode": "23560",
    "city": "Moorgarten"
  },
  {
    "postcode": "23560",
    "city": "Hüxtertor"
  },
  {
    "postcode": "23562",
    "city": "Lübeck"
  },
  {
    "postcode": "23562",
    "city": "Müggenbusch"
  },
  {
    "postcode": "23562",
    "city": "Sankt Jürgen"
  },
  {
    "postcode": "23562",
    "city": "St. Jürgen"
  },
  {
    "postcode": "23562",
    "city": "Strecknitz"
  },
  {
    "postcode": "23562",
    "city": "Hüxtertor/Mühlentor/Gärtnergasse"
  },
  {
    "postcode": "23562",
    "city": "Hüxtertor"
  },
  {
    "postcode": "23564",
    "city": "Lübeck"
  },
  {
    "postcode": "23564",
    "city": "Sankt Gertrud"
  },
  {
    "postcode": "23564",
    "city": "Sankt Jürgen"
  },
  {
    "postcode": "23564",
    "city": "Sankt Lorenz Nord"
  },
  {
    "postcode": "23564",
    "city": "St. Gertrud"
  },
  {
    "postcode": "23564",
    "city": "St. Jürgen"
  },
  {
    "postcode": "23564",
    "city": "Burgtor/Stadtpark"
  },
  {
    "postcode": "23564",
    "city": "Marli/Brandenbaum"
  },
  {
    "postcode": "23564",
    "city": "Hüxtertor/Mühlentor/Gärtnergasse"
  },
  {
    "postcode": "23564",
    "city": "Burgtor"
  },
  {
    "postcode": "23564",
    "city": "Marli"
  },
  {
    "postcode": "23564",
    "city": "Hüxtertor"
  },
  {
    "postcode": "23566",
    "city": "Lübeck"
  },
  {
    "postcode": "23566",
    "city": "Sankt Gertrud"
  },
  {
    "postcode": "23566",
    "city": "Sankt Jürgen"
  },
  {
    "postcode": "23566",
    "city": "St. Gertrud"
  },
  {
    "postcode": "23566",
    "city": "Marli/Brandenbaum"
  },
  {
    "postcode": "23566",
    "city": "St. Jürgen"
  },
  {
    "postcode": "23566",
    "city": "Marli"
  },
  {
    "postcode": "23568",
    "city": "Lübeck"
  },
  {
    "postcode": "23568",
    "city": "Sankt Gertrud"
  },
  {
    "postcode": "23568",
    "city": "Sankt Jürgen"
  },
  {
    "postcode": "23568",
    "city": "Schlutup"
  },
  {
    "postcode": "23568",
    "city": "St. Gertrud"
  },
  {
    "postcode": "23568",
    "city": "Burgtor/Stadtpark"
  },
  {
    "postcode": "23568",
    "city": "Karlshof"
  },
  {
    "postcode": "23568",
    "city": "Burgtor"
  },
  {
    "postcode": "23569",
    "city": "Kücknitz"
  },
  {
    "postcode": "23569",
    "city": "Lübeck"
  },
  {
    "postcode": "23569",
    "city": "Travemünde"
  },
  {
    "postcode": "23569",
    "city": "Rangenberg"
  },
  {
    "postcode": "23569",
    "city": "Wallberg"
  },
  {
    "postcode": "23569",
    "city": "Herrenwyk"
  },
  {
    "postcode": "23569",
    "city": "Siems"
  },
  {
    "postcode": "23570",
    "city": "Lübeck"
  },
  {
    "postcode": "23570",
    "city": "Travemünde"
  },
  {
    "postcode": "23570",
    "city": "Priwall"
  },
  {
    "postcode": "23611",
    "city": "Bad Schwartau"
  },
  {
    "postcode": "23611",
    "city": "Ostholstein"
  },
  {
    "postcode": "23611",
    "city": "Sereetz"
  },
  {
    "postcode": "23611",
    "city": "Rensefeld"
  },
  {
    "postcode": "23611",
    "city": "Cleverbrück"
  },
  {
    "postcode": "23617",
    "city": "Arfrade"
  },
  {
    "postcode": "23617",
    "city": "Bareneck"
  },
  {
    "postcode": "23617",
    "city": "Bohnrade"
  },
  {
    "postcode": "23617",
    "city": "Curau"
  },
  {
    "postcode": "23617",
    "city": "Dissau"
  },
  {
    "postcode": "23617",
    "city": "Eckhorst"
  },
  {
    "postcode": "23617",
    "city": "Horsdorf Holstein"
  },
  {
    "postcode": "23617",
    "city": "Horsdorf"
  },
  {
    "postcode": "23617",
    "city": "Klein Parin"
  },
  {
    "postcode": "23617",
    "city": "Malkendorf Holstein"
  },
  {
    "postcode": "23617",
    "city": "Malkendorf"
  },
  {
    "postcode": "23617",
    "city": "Obernwohlde"
  },
  {
    "postcode": "23617",
    "city": "Pohnsdorf bei Bad Schwartau"
  },
  {
    "postcode": "23617",
    "city": "Ravensbusch"
  },
  {
    "postcode": "23617",
    "city": "Stockelsdorf"
  },
  {
    "postcode": "23617",
    "city": "Ostholstein"
  },
  {
    "postcode": "23617",
    "city": "Krumbeck"
  },
  {
    "postcode": "23617",
    "city": "Pohnsdorf"
  },
  {
    "postcode": "23619",
    "city": "Badendorf Holstein"
  },
  {
    "postcode": "23619",
    "city": "Badendorf"
  },
  {
    "postcode": "23619",
    "city": "Dahmsdorf"
  },
  {
    "postcode": "23619",
    "city": "Hamberge Holstein"
  },
  {
    "postcode": "23619",
    "city": "Hamberge"
  },
  {
    "postcode": "23619",
    "city": "Hansfelde Holstein"
  },
  {
    "postcode": "23619",
    "city": "Hansfelde"
  },
  {
    "postcode": "23619",
    "city": "Hauberg"
  },
  {
    "postcode": "23619",
    "city": "Heilshoop"
  },
  {
    "postcode": "23619",
    "city": "Hohenleuchte Holstein"
  },
  {
    "postcode": "23619",
    "city": "Hohenleuchte"
  },
  {
    "postcode": "23619",
    "city": "Mönkhagen"
  },
  {
    "postcode": "23619",
    "city": "Poggenpohl"
  },
  {
    "postcode": "23619",
    "city": "Pöhls"
  },
  {
    "postcode": "23619",
    "city": "Rehhorst"
  },
  {
    "postcode": "23619",
    "city": "Rehhorst Holstein"
  },
  {
    "postcode": "23619",
    "city": "Willendorf"
  },
  {
    "postcode": "23619",
    "city": "Zarpen"
  },
  {
    "postcode": "23619",
    "city": "Stormarn"
  },
  {
    "postcode": "23619",
    "city": "Goldenerhahn"
  },
  {
    "postcode": "23619",
    "city": "Herrenbranden"
  },
  {
    "postcode": "23619",
    "city": "Langniendorf"
  },
  {
    "postcode": "23623",
    "city": "Ahrensbök"
  },
  {
    "postcode": "23623",
    "city": "Barghorst"
  },
  {
    "postcode": "23623",
    "city": "Böbs"
  },
  {
    "postcode": "23623",
    "city": "Cashagen"
  },
  {
    "postcode": "23623",
    "city": "Dakendorf"
  },
  {
    "postcode": "23623",
    "city": "Dunkelsdorf"
  },
  {
    "postcode": "23623",
    "city": "Gießelrade"
  },
  {
    "postcode": "23623",
    "city": "Gnissau"
  },
  {
    "postcode": "23623",
    "city": "Grebenhagen"
  },
  {
    "postcode": "23623",
    "city": "Havekost"
  },
  {
    "postcode": "23623",
    "city": "Hohenhorst"
  },
  {
    "postcode": "23623",
    "city": "Holstendorf"
  },
  {
    "postcode": "23623",
    "city": "Hörsten"
  },
  {
    "postcode": "23623",
    "city": "Lebatz"
  },
  {
    "postcode": "23623",
    "city": "Schwienkuhlen"
  },
  {
    "postcode": "23623",
    "city": "Schwochel"
  },
  {
    "postcode": "23623",
    "city": "Siblin"
  },
  {
    "postcode": "23623",
    "city": "Spechserholz"
  },
  {
    "postcode": "23623",
    "city": "Steindamm"
  },
  {
    "postcode": "23623",
    "city": "Tankenrade"
  },
  {
    "postcode": "23623",
    "city": "Ostholstein"
  },
  {
    "postcode": "23623",
    "city": "Jeshop"
  },
  {
    "postcode": "23623",
    "city": "Vorwerk Ahrensbök"
  },
  {
    "postcode": "23623",
    "city": "Vorwerk Neuhof"
  },
  {
    "postcode": "23626",
    "city": "Grammersdorf"
  },
  {
    "postcode": "23626",
    "city": "Häven Holstein"
  },
  {
    "postcode": "23626",
    "city": "Häven"
  },
  {
    "postcode": "23626",
    "city": "Kreuzkamp"
  },
  {
    "postcode": "23626",
    "city": "Offendorf"
  },
  {
    "postcode": "23626",
    "city": "Ovendorf"
  },
  {
    "postcode": "23626",
    "city": "Ratekau"
  },
  {
    "postcode": "23626",
    "city": "Warnsdorf Holstein"
  },
  {
    "postcode": "23626",
    "city": "Warnsdorf"
  },
  {
    "postcode": "23626",
    "city": "Wilmsdorf"
  },
  {
    "postcode": "23626",
    "city": "Ostholstein"
  },
  {
    "postcode": "23626",
    "city": "Ruppersdorf"
  },
  {
    "postcode": "23626",
    "city": "Ovendorfer Hof"
  },
  {
    "postcode": "23626",
    "city": "Altruppersdorf"
  },
  {
    "postcode": "23627",
    "city": "Groß Grönau"
  },
  {
    "postcode": "23627",
    "city": "Groß Sarau"
  },
  {
    "postcode": "23627",
    "city": "Sankt Hubertus"
  },
  {
    "postcode": "23627",
    "city": "Herzogtum Lauenburg"
  },
  {
    "postcode": "23627",
    "city": "Lübeck"
  },
  {
    "postcode": "23628",
    "city": "Klempau"
  },
  {
    "postcode": "23628",
    "city": "Krummesse"
  },
  {
    "postcode": "23628",
    "city": "Herzogtum Lauenburg"
  },
  {
    "postcode": "23628",
    "city": "Lübeck"
  },
  {
    "postcode": "23629",
    "city": "Sarkwitz"
  },
  {
    "postcode": "23629",
    "city": "Ostholstein"
  },
  {
    "postcode": "23669",
    "city": "Groß Timmendorf"
  },
  {
    "postcode": "23669",
    "city": "Hemmelsdorf"
  },
  {
    "postcode": "23669",
    "city": "Niendorf"
  },
  {
    "postcode": "23669",
    "city": "Timmendorfer Strand"
  },
  {
    "postcode": "23669",
    "city": "Ostholstein"
  },
  {
    "postcode": "23669",
    "city": "Neuhof"
  },
  {
    "postcode": "23669",
    "city": "Niendorf/Ostsee"
  },
  {
    "postcode": "23683",
    "city": "Haffkrug"
  },
  {
    "postcode": "23683",
    "city": "Scharbeutz"
  },
  {
    "postcode": "23683",
    "city": "Ostholstein"
  },
  {
    "postcode": "23684",
    "city": "Gleschendorf"
  },
  {
    "postcode": "23684",
    "city": "Gronenberg Ostholst"
  },
  {
    "postcode": "23684",
    "city": "Gronenberg"
  },
  {
    "postcode": "23684",
    "city": "Klingberg"
  },
  {
    "postcode": "23684",
    "city": "Pönitz am See"
  },
  {
    "postcode": "23684",
    "city": "Scharbeutz"
  },
  {
    "postcode": "23684",
    "city": "Schulendorf"
  },
  {
    "postcode": "23684",
    "city": "Schürsdorf"
  },
  {
    "postcode": "23684",
    "city": "Wulfsdorf"
  },
  {
    "postcode": "23684",
    "city": "Ostholstein"
  },
  {
    "postcode": "23684",
    "city": "Pönitz"
  },
  {
    "postcode": "23684",
    "city": "Bolanden"
  },
  {
    "postcode": "23684",
    "city": "Margarethenhöhe"
  },
  {
    "postcode": "23684",
    "city": "Vierlinden"
  },
  {
    "postcode": "23689",
    "city": "Hobbersdorf"
  },
  {
    "postcode": "23689",
    "city": "Luschendorf"
  },
  {
    "postcode": "23689",
    "city": "Pansdorf Holstein"
  },
  {
    "postcode": "23689",
    "city": "Pansdorf"
  },
  {
    "postcode": "23689",
    "city": "Rohlsdorf Holstein"
  },
  {
    "postcode": "23689",
    "city": "Rohlsdorf"
  },
  {
    "postcode": "23689",
    "city": "Ostholstein"
  },
  {
    "postcode": "23689",
    "city": "Luschendorferhof"
  },
  {
    "postcode": "23689",
    "city": "Ratekau"
  },
  {
    "postcode": "23689",
    "city": "Rohlsdorfer Beek"
  },
  {
    "postcode": "23689",
    "city": "Techau"
  },
  {
    "postcode": "23701",
    "city": "Barkau"
  },
  {
    "postcode": "23701",
    "city": "Bockholt"
  },
  {
    "postcode": "23701",
    "city": "Bujendorf"
  },
  {
    "postcode": "23701",
    "city": "Ekelsdorf"
  },
  {
    "postcode": "23701",
    "city": "Eutin"
  },
  {
    "postcode": "23701",
    "city": "Gömnitz"
  },
  {
    "postcode": "23701",
    "city": "Gothendorf"
  },
  {
    "postcode": "23701",
    "city": "Kesdorf"
  },
  {
    "postcode": "23701",
    "city": "Kuhlbusch"
  },
  {
    "postcode": "23701",
    "city": "Middelburg"
  },
  {
    "postcode": "23701",
    "city": "Ottendorf"
  },
  {
    "postcode": "23701",
    "city": "Röbel bei Eutin"
  },
  {
    "postcode": "23701",
    "city": "Süsel"
  },
  {
    "postcode": "23701",
    "city": "Süselerbaum"
  },
  {
    "postcode": "23701",
    "city": "Woltersmühlen"
  },
  {
    "postcode": "23701",
    "city": "Zarnekau"
  },
  {
    "postcode": "23701",
    "city": "Ostholstein"
  },
  {
    "postcode": "23701",
    "city": "Wilhelmshöhe"
  },
  {
    "postcode": "23701",
    "city": "Fassensdorf"
  },
  {
    "postcode": "23701",
    "city": "Röbel"
  },
  {
    "postcode": "23701",
    "city": "Groß Meinsdorf"
  },
  {
    "postcode": "23714",
    "city": "Altharmhorst"
  },
  {
    "postcode": "23714",
    "city": "Benz Bahnhof"
  },
  {
    "postcode": "23714",
    "city": "Benz"
  },
  {
    "postcode": "23714",
    "city": "Grünhaus"
  },
  {
    "postcode": "23714",
    "city": "Kirchnüchel"
  },
  {
    "postcode": "23714",
    "city": "Kreuzfeld"
  },
  {
    "postcode": "23714",
    "city": "Krummsee Holstein"
  },
  {
    "postcode": "23714",
    "city": "Krummsee"
  },
  {
    "postcode": "23714",
    "city": "Malente"
  },
  {
    "postcode": "23714",
    "city": "Malkwitz Holstein"
  },
  {
    "postcode": "23714",
    "city": "Malkwitz"
  },
  {
    "postcode": "23714",
    "city": "Neuharmhorst"
  },
  {
    "postcode": "23714",
    "city": "Neukirchen bei Eutin"
  },
  {
    "postcode": "23714",
    "city": "Neversfelde"
  },
  {
    "postcode": "23714",
    "city": "Nüchel"
  },
  {
    "postcode": "23714",
    "city": "Sieversdorf bei Eutin"
  },
  {
    "postcode": "23714",
    "city": "Söhren"
  },
  {
    "postcode": "23714",
    "city": "Timmdorf"
  },
  {
    "postcode": "23714",
    "city": "Ostholstein"
  },
  {
    "postcode": "23714",
    "city": "Kirchmühl"
  },
  {
    "postcode": "23714",
    "city": "Bad Malente-Gremsmühlen"
  },
  {
    "postcode": "23714",
    "city": "Sieversdorf"
  },
  {
    "postcode": "23714",
    "city": "Rachut"
  },
  {
    "postcode": "23714",
    "city": "Neukirchen"
  },
  {
    "postcode": "23714",
    "city": "Schwonauer Kate"
  },
  {
    "postcode": "23715",
    "city": "Bichel"
  },
  {
    "postcode": "23715",
    "city": "Bosau"
  },
  {
    "postcode": "23715",
    "city": "Braak"
  },
  {
    "postcode": "23715",
    "city": "Brackrade"
  },
  {
    "postcode": "23715",
    "city": "Hassendorf bei Eutin"
  },
  {
    "postcode": "23715",
    "city": "Hutzfeld"
  },
  {
    "postcode": "23715",
    "city": "Kiekbusch"
  },
  {
    "postcode": "23715",
    "city": "Klenzau"
  },
  {
    "postcode": "23715",
    "city": "Liensfeld"
  },
  {
    "postcode": "23715",
    "city": "Löja"
  },
  {
    "postcode": "23715",
    "city": "Majenfelde"
  },
  {
    "postcode": "23715",
    "city": "Quisdorf"
  },
  {
    "postcode": "23715",
    "city": "Thürk"
  },
  {
    "postcode": "23715",
    "city": "Wöbs"
  },
  {
    "postcode": "23715",
    "city": "Ostholstein"
  },
  {
    "postcode": "23715",
    "city": "Hassendorf"
  },
  {
    "postcode": "23715",
    "city": "Kleinneudorf"
  },
  {
    "postcode": "23715",
    "city": "Sallrögen"
  },
  {
    "postcode": "23717",
    "city": "Bergfeld am Bungsberg"
  },
  {
    "postcode": "23717",
    "city": "Freudenholm"
  },
  {
    "postcode": "23717",
    "city": "Griebel"
  },
  {
    "postcode": "23717",
    "city": "Kasseedorf"
  },
  {
    "postcode": "23717",
    "city": "Sagau"
  },
  {
    "postcode": "23717",
    "city": "Stendorf"
  },
  {
    "postcode": "23717",
    "city": "Ostholstein"
  },
  {
    "postcode": "23717",
    "city": "Bökensberg"
  },
  {
    "postcode": "23717",
    "city": "Bergfeld"
  },
  {
    "postcode": "23717",
    "city": "Näthkamp"
  },
  {
    "postcode": "23717",
    "city": "Vinzier"
  },
  {
    "postcode": "23719",
    "city": "Glasau"
  },
  {
    "postcode": "23719",
    "city": "Neuglasau Holstein"
  },
  {
    "postcode": "23719",
    "city": "Neuglasau"
  },
  {
    "postcode": "23719",
    "city": "Sarau Holstein"
  },
  {
    "postcode": "23719",
    "city": "Sarau"
  },
  {
    "postcode": "23719",
    "city": "Segeberg"
  },
  {
    "postcode": "23719",
    "city": "Bökenberg"
  },
  {
    "postcode": "23730",
    "city": "Albersdorf"
  },
  {
    "postcode": "23730",
    "city": "Altenkrempe"
  },
  {
    "postcode": "23730",
    "city": "Bentfeld"
  },
  {
    "postcode": "23730",
    "city": "Beusloe in Holstein"
  },
  {
    "postcode": "23730",
    "city": "Bliesdorf Ostholst"
  },
  {
    "postcode": "23730",
    "city": "Bliesdorf"
  },
  {
    "postcode": "23730",
    "city": "Brodau Ostholst"
  },
  {
    "postcode": "23730",
    "city": "Brodau"
  },
  {
    "postcode": "23730",
    "city": "Groß Schlamin"
  },
  {
    "postcode": "23730",
    "city": "Hasselburg"
  },
  {
    "postcode": "23730",
    "city": "Hermannshof Ostholst"
  },
  {
    "postcode": "23730",
    "city": "Hermannshof"
  },
  {
    "postcode": "23730",
    "city": "Kassau in Holstein"
  },
  {
    "postcode": "23730",
    "city": "Klein Schlamin"
  },
  {
    "postcode": "23730",
    "city": "Krummbek"
  },
  {
    "postcode": "23730",
    "city": "Logeberg in Holstein"
  },
  {
    "postcode": "23730",
    "city": "Marxdorf"
  },
  {
    "postcode": "23730",
    "city": "Merkendorf in Holstein"
  },
  {
    "postcode": "23730",
    "city": "Neustadt in Holstein"
  },
  {
    "postcode": "23730",
    "city": "Oevelgönne in Holstein"
  },
  {
    "postcode": "23730",
    "city": "Pelzerhaken"
  },
  {
    "postcode": "23730",
    "city": "Plunkau in Holstein"
  },
  {
    "postcode": "23730",
    "city": "Rettin"
  },
  {
    "postcode": "23730",
    "city": "Roge in Holstein"
  },
  {
    "postcode": "23730",
    "city": "Schashagen"
  },
  {
    "postcode": "23730",
    "city": "Sibstin"
  },
  {
    "postcode": "23730",
    "city": "Sierhagen in Holstein"
  },
  {
    "postcode": "23730",
    "city": "Sierksdorf"
  },
  {
    "postcode": "23730",
    "city": "Stolpe"
  },
  {
    "postcode": "23730",
    "city": "Wintershagen in Holstein"
  },
  {
    "postcode": "23730",
    "city": "Ostholstein"
  },
  {
    "postcode": "23730",
    "city": "Plunkau"
  },
  {
    "postcode": "23730",
    "city": "Sierhagen"
  },
  {
    "postcode": "23730",
    "city": "Kassau"
  },
  {
    "postcode": "23730",
    "city": "Jarkau"
  },
  {
    "postcode": "23730",
    "city": "Klaushorst"
  },
  {
    "postcode": "23730",
    "city": "Mühlenkamp"
  },
  {
    "postcode": "23730",
    "city": "Rogerfelde"
  },
  {
    "postcode": "23730",
    "city": "Neustadt"
  },
  {
    "postcode": "23730",
    "city": "Merkendorf"
  },
  {
    "postcode": "23730",
    "city": "Beusloe"
  },
  {
    "postcode": "23730",
    "city": "Logeberg"
  },
  {
    "postcode": "23730",
    "city": "Oevelgönne"
  },
  {
    "postcode": "23730",
    "city": "Wintershagen"
  },
  {
    "postcode": "23730",
    "city": "Roge"
  },
  {
    "postcode": "23738",
    "city": "Altratjensdorf"
  },
  {
    "postcode": "23738",
    "city": "Beschendorf"
  },
  {
    "postcode": "23738",
    "city": "Damlos"
  },
  {
    "postcode": "23738",
    "city": "Gosdorf Holstein"
  },
  {
    "postcode": "23738",
    "city": "Gosdorf"
  },
  {
    "postcode": "23738",
    "city": "Grüner Hirsch"
  },
  {
    "postcode": "23738",
    "city": "Harmsdorf Holstein"
  },
  {
    "postcode": "23738",
    "city": "Harmsdorf"
  },
  {
    "postcode": "23738",
    "city": "Kabelhorst"
  },
  {
    "postcode": "23738",
    "city": "Koselau"
  },
  {
    "postcode": "23738",
    "city": "Lensahn"
  },
  {
    "postcode": "23738",
    "city": "Lensahnerhof"
  },
  {
    "postcode": "23738",
    "city": "Manhagen bei Lensahn"
  },
  {
    "postcode": "23738",
    "city": "Nienrade"
  },
  {
    "postcode": "23738",
    "city": "Petersdorf"
  },
  {
    "postcode": "23738",
    "city": "Quaal"
  },
  {
    "postcode": "23738",
    "city": "Riepsdorf"
  },
  {
    "postcode": "23738",
    "city": "Rosenhof"
  },
  {
    "postcode": "23738",
    "city": "Schwienkuhl"
  },
  {
    "postcode": "23738",
    "city": "Sipsdorf"
  },
  {
    "postcode": "23738",
    "city": "Thomsdorf"
  },
  {
    "postcode": "23738",
    "city": "Wahrendorf"
  },
  {
    "postcode": "23738",
    "city": "Ostholstein"
  },
  {
    "postcode": "23738",
    "city": "Manhagen"
  },
  {
    "postcode": "23738",
    "city": "Aedeberg"
  },
  {
    "postcode": "23738",
    "city": "Einhaus"
  },
  {
    "postcode": "23738",
    "city": "Finkenbusch"
  },
  {
    "postcode": "23738",
    "city": "Koselauer Mühle"
  },
  {
    "postcode": "23738",
    "city": "Steinkamp"
  },
  {
    "postcode": "23743",
    "city": "Brenkenhagen"
  },
  {
    "postcode": "23743",
    "city": "Cismar Holstein"
  },
  {
    "postcode": "23743",
    "city": "Cismar"
  },
  {
    "postcode": "23743",
    "city": "Cismarfelde Holstein"
  },
  {
    "postcode": "23743",
    "city": "Cismarfelde"
  },
  {
    "postcode": "23743",
    "city": "Grömitz"
  },
  {
    "postcode": "23743",
    "city": "Grönwohldshorst Holstein"
  },
  {
    "postcode": "23743",
    "city": "Grönwohldshorst"
  },
  {
    "postcode": "23743",
    "city": "Guttau"
  },
  {
    "postcode": "23743",
    "city": "Klostersee Holstein"
  },
  {
    "postcode": "23743",
    "city": "Klostersee"
  },
  {
    "postcode": "23743",
    "city": "Körnick"
  },
  {
    "postcode": "23743",
    "city": "Lenste Holstein"
  },
  {
    "postcode": "23743",
    "city": "Lenste"
  },
  {
    "postcode": "23743",
    "city": "Lensterstrand"
  },
  {
    "postcode": "23743",
    "city": "Moorhof Holstein"
  },
  {
    "postcode": "23743",
    "city": "Moorhof"
  },
  {
    "postcode": "23743",
    "city": "Nienhagen"
  },
  {
    "postcode": "23743",
    "city": "Rothenhuse"
  },
  {
    "postcode": "23743",
    "city": "Rüting"
  },
  {
    "postcode": "23743",
    "city": "Suxdorf"
  },
  {
    "postcode": "23743",
    "city": "Ostholstein"
  },
  {
    "postcode": "23743",
    "city": "Morest"
  },
  {
    "postcode": "23743",
    "city": "Gruberhagen"
  },
  {
    "postcode": "23743",
    "city": "Brunsteen"
  },
  {
    "postcode": "23743",
    "city": "Goldberg"
  },
  {
    "postcode": "23743",
    "city": "Henriettenhof"
  },
  {
    "postcode": "23743",
    "city": "Hohenhorst"
  },
  {
    "postcode": "23743",
    "city": "Jasen"
  },
  {
    "postcode": "23743",
    "city": "Karkbrook"
  },
  {
    "postcode": "23743",
    "city": "Karlsruh"
  },
  {
    "postcode": "23743",
    "city": "Kattenberg"
  },
  {
    "postcode": "23743",
    "city": "Klockenhagen"
  },
  {
    "postcode": "23743",
    "city": "Lensterbek"
  },
  {
    "postcode": "23743",
    "city": "Niehof"
  },
  {
    "postcode": "23743",
    "city": "Poggenpohl"
  },
  {
    "postcode": "23743",
    "city": "Stadtfurth"
  },
  {
    "postcode": "23743",
    "city": "Voßberg"
  },
  {
    "postcode": "23743",
    "city": "Ziegelhof"
  },
  {
    "postcode": "23744",
    "city": "Bungsberghof am Bungsberg"
  },
  {
    "postcode": "23744",
    "city": "Halendorf am Bungsberg"
  },
  {
    "postcode": "23744",
    "city": "Hobstin am Bungsberg"
  },
  {
    "postcode": "23744",
    "city": "Kniphagen am Bungsberg"
  },
  {
    "postcode": "23744",
    "city": "Langenhagen Holstein"
  },
  {
    "postcode": "23744",
    "city": "Langenhagen"
  },
  {
    "postcode": "23744",
    "city": "Mönchneversdorf"
  },
  {
    "postcode": "23744",
    "city": "Schönwalde am Bungsberg"
  },
  {
    "postcode": "23744",
    "city": "Vogelsang am Bungsberg"
  },
  {
    "postcode": "23744",
    "city": "Ostholstein"
  },
  {
    "postcode": "23744",
    "city": "Schönwalde"
  },
  {
    "postcode": "23744",
    "city": "Halendorf"
  },
  {
    "postcode": "23744",
    "city": "Hobstin"
  },
  {
    "postcode": "23744",
    "city": "Vogelsang"
  },
  {
    "postcode": "23744",
    "city": "Stolperhufen"
  },
  {
    "postcode": "23744",
    "city": "Kniphagen"
  },
  {
    "postcode": "23744",
    "city": "Neu-Petersdorf"
  },
  {
    "postcode": "23744",
    "city": "Scheelholz"
  },
  {
    "postcode": "23746",
    "city": "Kellenhusen (Ostsee)"
  },
  {
    "postcode": "23746",
    "city": "Kellenhusen"
  },
  {
    "postcode": "23746",
    "city": "Ostholstein"
  },
  {
    "postcode": "23746",
    "city": "Rittbruch"
  },
  {
    "postcode": "23747",
    "city": "Dahme Holstein"
  },
  {
    "postcode": "23747",
    "city": "Dahme"
  },
  {
    "postcode": "23747",
    "city": "Dahmeshöved Holstein"
  },
  {
    "postcode": "23747",
    "city": "Dahmeshöved"
  },
  {
    "postcode": "23747",
    "city": "Ostholstein"
  },
  {
    "postcode": "23747",
    "city": "Gruberhagen"
  },
  {
    "postcode": "23749",
    "city": "Grube Holstein"
  },
  {
    "postcode": "23749",
    "city": "Grube"
  },
  {
    "postcode": "23749",
    "city": "Gruberdieken Holstein"
  },
  {
    "postcode": "23749",
    "city": "Gruberdieken"
  },
  {
    "postcode": "23749",
    "city": "Ostholstein"
  },
  {
    "postcode": "23758",
    "city": "Altgalendorf in Holstein"
  },
  {
    "postcode": "23758",
    "city": "Barensdorf in Holstein"
  },
  {
    "postcode": "23758",
    "city": "Bollbrügge Holstein"
  },
  {
    "postcode": "23758",
    "city": "Bollbrügge"
  },
  {
    "postcode": "23758",
    "city": "Brök in Holstein"
  },
  {
    "postcode": "23758",
    "city": "Christianstal"
  },
  {
    "postcode": "23758",
    "city": "Dannau in Holstein"
  },
  {
    "postcode": "23758",
    "city": "Dazendorf"
  },
  {
    "postcode": "23758",
    "city": "Döhnsdorf"
  },
  {
    "postcode": "23758",
    "city": "Farve in Holstein"
  },
  {
    "postcode": "23758",
    "city": "Friederikenhof in Holstein"
  },
  {
    "postcode": "23758",
    "city": "Giddendorf in Holstein"
  },
  {
    "postcode": "23758",
    "city": "Göhl"
  },
  {
    "postcode": "23758",
    "city": "Grammdorf in Holstein"
  },
  {
    "postcode": "23758",
    "city": "Gremersdorf Holstein"
  },
  {
    "postcode": "23758",
    "city": "Gremersdorf"
  },
  {
    "postcode": "23758",
    "city": "Hansühn"
  },
  {
    "postcode": "23758",
    "city": "Hohenstein in Holstein"
  },
  {
    "postcode": "23758",
    "city": "Jahnshof in Holstein"
  },
  {
    "postcode": "23758",
    "city": "Johannisdorf"
  },
  {
    "postcode": "23758",
    "city": "Johannistal"
  },
  {
    "postcode": "23758",
    "city": "Kembs"
  },
  {
    "postcode": "23758",
    "city": "Kremsdorf"
  },
  {
    "postcode": "23758",
    "city": "Kröß"
  },
  {
    "postcode": "23758",
    "city": "Kükelühn"
  },
  {
    "postcode": "23758",
    "city": "Lübbersdorf in Holstein"
  },
  {
    "postcode": "23758",
    "city": "Lütjendorf"
  },
  {
    "postcode": "23758",
    "city": "Nanndorf Holstein"
  },
  {
    "postcode": "23758",
    "city": "Nanndorf"
  },
  {
    "postcode": "23758",
    "city": "Neuratjensdorf Holstein"
  },
  {
    "postcode": "23758",
    "city": "Neuratjensdorf"
  },
  {
    "postcode": "23758",
    "city": "Oldenburg in Holstein"
  },
  {
    "postcode": "23758",
    "city": "Plügge"
  },
  {
    "postcode": "23758",
    "city": "Putlos"
  },
  {
    "postcode": "23758",
    "city": "Quals"
  },
  {
    "postcode": "23758",
    "city": "Rossee Holstein"
  },
  {
    "postcode": "23758",
    "city": "Rossee"
  },
  {
    "postcode": "23758",
    "city": "Sulsdorf Holstein"
  },
  {
    "postcode": "23758",
    "city": "Sulsdorf"
  },
  {
    "postcode": "23758",
    "city": "Techelwitz in Holstein"
  },
  {
    "postcode": "23758",
    "city": "Teschendorf"
  },
  {
    "postcode": "23758",
    "city": "Testorf"
  },
  {
    "postcode": "23758",
    "city": "Wandelwitz in Holstein"
  },
  {
    "postcode": "23758",
    "city": "Wangels"
  },
  {
    "postcode": "23758",
    "city": "Wasbuck in Holstein"
  },
  {
    "postcode": "23758",
    "city": "Weißenhaus über Oldenburg in Holstein"
  },
  {
    "postcode": "23758",
    "city": "Ostholstein"
  },
  {
    "postcode": "23758",
    "city": "Antoinettenhof"
  },
  {
    "postcode": "23758",
    "city": "Gaarz"
  },
  {
    "postcode": "23758",
    "city": "Gaarzerfelde"
  },
  {
    "postcode": "23758",
    "city": "Gaarzermühle"
  },
  {
    "postcode": "23758",
    "city": "Giebelberg"
  },
  {
    "postcode": "23758",
    "city": "Neuschwelbek"
  },
  {
    "postcode": "23758",
    "city": "Schwelbek"
  },
  {
    "postcode": "23758",
    "city": "Altgalendorf"
  },
  {
    "postcode": "23758",
    "city": "Seegalendorf"
  },
  {
    "postcode": "23758",
    "city": "Bankendorf"
  },
  {
    "postcode": "23758",
    "city": "Friedrichstal"
  },
  {
    "postcode": "23758",
    "city": "Friedrichstalermühle"
  },
  {
    "postcode": "23758",
    "city": "Giddendorf"
  },
  {
    "postcode": "23758",
    "city": "Goldkamp"
  },
  {
    "postcode": "23758",
    "city": "Jahnshof"
  },
  {
    "postcode": "23758",
    "city": "Neuteschendorf"
  },
  {
    "postcode": "23758",
    "city": "Techelwitz"
  },
  {
    "postcode": "23758",
    "city": "Wandelwitz"
  },
  {
    "postcode": "23758",
    "city": "Oldenburg"
  },
  {
    "postcode": "23758",
    "city": "Dannau"
  },
  {
    "postcode": "23758",
    "city": "Klein Wessek"
  },
  {
    "postcode": "23758",
    "city": "Ernsthausen"
  },
  {
    "postcode": "23758",
    "city": "Lübbersdorf Siedlung"
  },
  {
    "postcode": "23758",
    "city": "Lübbersdorf"
  },
  {
    "postcode": "23758",
    "city": "Bruch"
  },
  {
    "postcode": "23758",
    "city": "Rehkamp"
  },
  {
    "postcode": "23758",
    "city": "Weißenhäuser Strand"
  },
  {
    "postcode": "23758",
    "city": "Barensdorf"
  },
  {
    "postcode": "23758",
    "city": "Brök"
  },
  {
    "postcode": "23758",
    "city": "Charlottenhof"
  },
  {
    "postcode": "23758",
    "city": "Ehlerstorf"
  },
  {
    "postcode": "23758",
    "city": "Farve"
  },
  {
    "postcode": "23758",
    "city": "Grammdorf"
  },
  {
    "postcode": "23758",
    "city": "Friederikenhof"
  },
  {
    "postcode": "23758",
    "city": "Meischenstorf"
  },
  {
    "postcode": "23758",
    "city": "Hohenstein"
  },
  {
    "postcode": "23758",
    "city": "Karlshof"
  },
  {
    "postcode": "23758",
    "city": "Katharinental"
  },
  {
    "postcode": "23758",
    "city": "Klein Rolübbe"
  },
  {
    "postcode": "23758",
    "city": "Neutestorf"
  },
  {
    "postcode": "23758",
    "city": "Weißenhaus"
  },
  {
    "postcode": "23758",
    "city": "Wasbuck"
  },
  {
    "postcode": "23758",
    "city": "Testorferfelde"
  },
  {
    "postcode": "23769",
    "city": "Albertsdorf Fehmarn"
  },
  {
    "postcode": "23769",
    "city": "Albertsdorf"
  },
  {
    "postcode": "23769",
    "city": "Altjellingsdorf auf Fehmarn"
  },
  {
    "postcode": "23769",
    "city": "Avendorf auf Fehmarn"
  },
  {
    "postcode": "23769",
    "city": "Bannesdorf auf Fehmarn"
  },
  {
    "postcode": "23769",
    "city": "Bisdorf auf Fehmarn"
  },
  {
    "postcode": "23769",
    "city": "Blieschendorf Fehmarn"
  },
  {
    "postcode": "23769",
    "city": "Blieschendorf"
  },
  {
    "postcode": "23769",
    "city": "Bojendorf Fehmarn"
  },
  {
    "postcode": "23769",
    "city": "Bojendorf"
  },
  {
    "postcode": "23769",
    "city": "Burg auf Fehmarn"
  },
  {
    "postcode": "23769",
    "city": "Dänschendorf auf Fehmarn"
  },
  {
    "postcode": "23769",
    "city": "Fehmarn"
  },
  {
    "postcode": "23769",
    "city": "Fehmarnsund auf Fehmarn"
  },
  {
    "postcode": "23769",
    "city": "Flügge Fehmarn"
  },
  {
    "postcode": "23769",
    "city": "Flügge"
  },
  {
    "postcode": "23769",
    "city": "Gahlendorf auf Fehmarn"
  },
  {
    "postcode": "23769",
    "city": "Gammendorf"
  },
  {
    "postcode": "23769",
    "city": "Gollendorf Fehrmarn"
  },
  {
    "postcode": "23769",
    "city": "Gollendorf"
  },
  {
    "postcode": "23769",
    "city": "Hinrichsdorf auf Fehmarn"
  },
  {
    "postcode": "23769",
    "city": "Katharinenhof auf Fehmarn"
  },
  {
    "postcode": "23769",
    "city": "Klausdorf auf Fehmarn"
  },
  {
    "postcode": "23769",
    "city": "Kopendorf Fehmarn"
  },
  {
    "postcode": "23769",
    "city": "Kopendorf"
  },
  {
    "postcode": "23769",
    "city": "Landkirchen auf Fehmarn"
  },
  {
    "postcode": "23769",
    "city": "Lemkendorf Fehmarn"
  },
  {
    "postcode": "23769",
    "city": "Lemkendorf"
  },
  {
    "postcode": "23769",
    "city": "Lemkenhafen"
  },
  {
    "postcode": "23769",
    "city": "Marienleuchte"
  },
  {
    "postcode": "23769",
    "city": "Meeschendorf auf Fehmarn"
  },
  {
    "postcode": "23769",
    "city": "Neujellingsdorf auf Fehmarn"
  },
  {
    "postcode": "23769",
    "city": "Niendorf auf Fehmarn"
  },
  {
    "postcode": "23769",
    "city": "Orth Fehmarn"
  },
  {
    "postcode": "23769",
    "city": "Orth"
  },
  {
    "postcode": "23769",
    "city": "Ostermarkelsdorf auf Fehmarn"
  },
  {
    "postcode": "23769",
    "city": "Petersdorf auf Fehmarn"
  },
  {
    "postcode": "23769",
    "city": "Presen auf Fehmarn"
  },
  {
    "postcode": "23769",
    "city": "Püttsee Fehmarn"
  },
  {
    "postcode": "23769",
    "city": "Püttsee"
  },
  {
    "postcode": "23769",
    "city": "Sahrensdorf auf Fehmarn"
  },
  {
    "postcode": "23769",
    "city": "Sartjendorf auf Fehmarn"
  },
  {
    "postcode": "23769",
    "city": "Schlagsdorf auf Fehmarn"
  },
  {
    "postcode": "23769",
    "city": "Staberdorf auf Fehmarn"
  },
  {
    "postcode": "23769",
    "city": "Strukkamp Fehmarn"
  },
  {
    "postcode": "23769",
    "city": "Strukkamp"
  },
  {
    "postcode": "23769",
    "city": "Sulsdorf Fehmarn"
  },
  {
    "postcode": "23769",
    "city": "Sulsdorf"
  },
  {
    "postcode": "23769",
    "city": "Teschendorf auf Fehmarn"
  },
  {
    "postcode": "23769",
    "city": "Todendorf auf Fehmarn"
  },
  {
    "postcode": "23769",
    "city": "Vadersdorf"
  },
  {
    "postcode": "23769",
    "city": "Vitzdorf auf Fehmarn"
  },
  {
    "postcode": "23769",
    "city": "Wenkendorf"
  },
  {
    "postcode": "23769",
    "city": "Westerbergen auf Fehmarn"
  },
  {
    "postcode": "23769",
    "city": "Westermarkelsdorf auf Fehmarn"
  },
  {
    "postcode": "23769",
    "city": "Westfehmarn"
  },
  {
    "postcode": "23769",
    "city": "Wulfen Fehmarn"
  },
  {
    "postcode": "23769",
    "city": "Wulfen"
  },
  {
    "postcode": "23769",
    "city": "Ostholstein"
  },
  {
    "postcode": "23769",
    "city": "Staberdorf"
  },
  {
    "postcode": "23769",
    "city": "Petersdorf"
  },
  {
    "postcode": "23769",
    "city": "Niendorf"
  },
  {
    "postcode": "23769",
    "city": "Ostermarkelsdorf"
  },
  {
    "postcode": "23769",
    "city": "Altenteil"
  },
  {
    "postcode": "23769",
    "city": "Neue Tiefe"
  },
  {
    "postcode": "23769",
    "city": "Dänschendorf"
  },
  {
    "postcode": "23769",
    "city": "Altjellingsdorf"
  },
  {
    "postcode": "23769",
    "city": "Landkirchen"
  },
  {
    "postcode": "23769",
    "city": "Puttgarden"
  },
  {
    "postcode": "23769",
    "city": "Burgtiefe"
  },
  {
    "postcode": "23769",
    "city": "Bannesdorf"
  },
  {
    "postcode": "23769",
    "city": "Avendorf"
  },
  {
    "postcode": "23769",
    "city": "Bellevue"
  },
  {
    "postcode": "23769",
    "city": "Bisdorf"
  },
  {
    "postcode": "23769",
    "city": "Carolinenhof"
  },
  {
    "postcode": "23769",
    "city": "Klausdorf"
  },
  {
    "postcode": "23769",
    "city": "Dorotheenhof"
  },
  {
    "postcode": "23769",
    "city": "Fehmarnsund"
  },
  {
    "postcode": "23769",
    "city": "Gahlendorf"
  },
  {
    "postcode": "23769",
    "city": "Gold"
  },
  {
    "postcode": "23769",
    "city": "Hinrichsdorf"
  },
  {
    "postcode": "23769",
    "city": "Mummendorf"
  },
  {
    "postcode": "23769",
    "city": "Johannisberg"
  },
  {
    "postcode": "23769",
    "city": "Katharinenhof"
  },
  {
    "postcode": "23769",
    "city": "Krummensiek"
  },
  {
    "postcode": "23769",
    "city": "Matthiasfelde"
  },
  {
    "postcode": "23769",
    "city": "Meeschendorf"
  },
  {
    "postcode": "23769",
    "city": "Mittelhof"
  },
  {
    "postcode": "23769",
    "city": "Neuhoben"
  },
  {
    "postcode": "23769",
    "city": "Neuhof"
  },
  {
    "postcode": "23769",
    "city": "Neujellingsdorf"
  },
  {
    "postcode": "23769",
    "city": "Presen"
  },
  {
    "postcode": "23769",
    "city": "Sahrensdorf"
  },
  {
    "postcode": "23769",
    "city": "Sartjendorf"
  },
  {
    "postcode": "23769",
    "city": "Schlagsdorf"
  },
  {
    "postcode": "23769",
    "city": "Staberdorf-Ferienresidenz"
  },
  {
    "postcode": "23769",
    "city": "Staberhof"
  },
  {
    "postcode": "23769",
    "city": "Staberhuk"
  },
  {
    "postcode": "23769",
    "city": "Teichhof"
  },
  {
    "postcode": "23769",
    "city": "Teschendorf"
  },
  {
    "postcode": "23769",
    "city": "Todendorf"
  },
  {
    "postcode": "23769",
    "city": "Vitzdorf"
  },
  {
    "postcode": "23769",
    "city": "Wallnau"
  },
  {
    "postcode": "23769",
    "city": "Westerbergen"
  },
  {
    "postcode": "23769",
    "city": "Westerbergen-Feriensiedlung"
  },
  {
    "postcode": "23769",
    "city": "Westermarkelsdorf"
  },
  {
    "postcode": "23774",
    "city": "Heiligenhafen Holstein"
  },
  {
    "postcode": "23774",
    "city": "Heiligenhafen"
  },
  {
    "postcode": "23774",
    "city": "Ostholstein"
  },
  {
    "postcode": "23774",
    "city": "Graswarder"
  },
  {
    "postcode": "23775",
    "city": "Großenbrode"
  },
  {
    "postcode": "23775",
    "city": "Großenbroderfähre"
  },
  {
    "postcode": "23775",
    "city": "Klaustorf Holstein"
  },
  {
    "postcode": "23775",
    "city": "Klaustorf"
  },
  {
    "postcode": "23775",
    "city": "Lütjenbrode"
  },
  {
    "postcode": "23775",
    "city": "Ostholstein"
  },
  {
    "postcode": "23775",
    "city": "Eichthal"
  },
  {
    "postcode": "23775",
    "city": "Feldscheide"
  },
  {
    "postcode": "23775",
    "city": "Großenbroderfelde"
  },
  {
    "postcode": "23775",
    "city": "Heinrichsruh"
  },
  {
    "postcode": "23775",
    "city": "Koppelhaus"
  },
  {
    "postcode": "23775",
    "city": "Lütjenhof"
  },
  {
    "postcode": "23775",
    "city": "Mittelhof"
  },
  {
    "postcode": "23775",
    "city": "Neu-Klaustorf"
  },
  {
    "postcode": "23775",
    "city": "Rethsollskamp"
  },
  {
    "postcode": "23777",
    "city": "Augustenhof Holstein"
  },
  {
    "postcode": "23777",
    "city": "Augustenhof"
  },
  {
    "postcode": "23777",
    "city": "Fargemiel Holstein"
  },
  {
    "postcode": "23777",
    "city": "Fargemiel"
  },
  {
    "postcode": "23777",
    "city": "Heringsdorf"
  },
  {
    "postcode": "23777",
    "city": "Heringsdorf Holstein"
  },
  {
    "postcode": "23777",
    "city": "Kalkberg Holstein"
  },
  {
    "postcode": "23777",
    "city": "Kalkberg"
  },
  {
    "postcode": "23777",
    "city": "Klötzin Holstein"
  },
  {
    "postcode": "23777",
    "city": "Klötzin"
  },
  {
    "postcode": "23777",
    "city": "Rellin Holstein"
  },
  {
    "postcode": "23777",
    "city": "Rellin"
  },
  {
    "postcode": "23777",
    "city": "Siggen Holstein"
  },
  {
    "postcode": "23777",
    "city": "Siggen"
  },
  {
    "postcode": "23777",
    "city": "Süssau Holstein"
  },
  {
    "postcode": "23777",
    "city": "Süssau"
  },
  {
    "postcode": "23777",
    "city": "Wulfshof"
  },
  {
    "postcode": "23777",
    "city": "Ostholstein"
  },
  {
    "postcode": "23777",
    "city": "Görtz"
  },
  {
    "postcode": "23777",
    "city": "Siggenermühle"
  },
  {
    "postcode": "23777",
    "city": "Steenshof"
  },
  {
    "postcode": "23777",
    "city": "Weilandtshof"
  },
  {
    "postcode": "23779",
    "city": "Bürau bei Oldenburg in Holstein"
  },
  {
    "postcode": "23779",
    "city": "Kraksdorf bei Oldenburg in Holstein"
  },
  {
    "postcode": "23779",
    "city": "Löhrstorf bei Oldenburg in Holstein"
  },
  {
    "postcode": "23779",
    "city": "Meeschendorf bei Oldenburg in Holstein"
  },
  {
    "postcode": "23779",
    "city": "Neukirchen bei Oldenburg in Holstein"
  },
  {
    "postcode": "23779",
    "city": "Ölendorf bei Oldenburg in Holstein"
  },
  {
    "postcode": "23779",
    "city": "Satjewitz bei Oldenburg in Holstein"
  },
  {
    "postcode": "23779",
    "city": "Sütel bei Oldenburg in Holstein"
  },
  {
    "postcode": "23779",
    "city": "Ostholstein"
  },
  {
    "postcode": "23779",
    "city": "Neukirchen"
  },
  {
    "postcode": "23779",
    "city": "Neuseegalendorf"
  },
  {
    "postcode": "23779",
    "city": "Sütel-Strand"
  },
  {
    "postcode": "23779",
    "city": "Kraksdorf"
  },
  {
    "postcode": "23779",
    "city": "Godderstorf"
  },
  {
    "postcode": "23779",
    "city": "Seekamp"
  },
  {
    "postcode": "23779",
    "city": "Meeschendorf"
  },
  {
    "postcode": "23779",
    "city": "Sütel"
  },
  {
    "postcode": "23779",
    "city": "Ostermade"
  },
  {
    "postcode": "23779",
    "city": "Bürau"
  },
  {
    "postcode": "23779",
    "city": "Sahna"
  },
  {
    "postcode": "23779",
    "city": "Georgshof"
  },
  {
    "postcode": "23779",
    "city": "Michaelsdorf"
  },
  {
    "postcode": "23779",
    "city": "Löhrstorf"
  },
  {
    "postcode": "23779",
    "city": "Klingstein"
  },
  {
    "postcode": "23779",
    "city": "Kraksdorf-Strand"
  },
  {
    "postcode": "23779",
    "city": "Meeschendorfer Weide"
  },
  {
    "postcode": "23779",
    "city": "Seekamp-Strand"
  },
  {
    "postcode": "23779",
    "city": "Ölendorf"
  },
  {
    "postcode": "23779",
    "city": "Satjewitz"
  },
  {
    "postcode": "23795",
    "city": "Bad Segeberg"
  },
  {
    "postcode": "23795",
    "city": "Fahrenkrug"
  },
  {
    "postcode": "23795",
    "city": "Groß Rönnau"
  },
  {
    "postcode": "23795",
    "city": "Hamdorf"
  },
  {
    "postcode": "23795",
    "city": "Högersdorf"
  },
  {
    "postcode": "23795",
    "city": "Klein Gladebrügge"
  },
  {
    "postcode": "23795",
    "city": "Klein Rönnau"
  },
  {
    "postcode": "23795",
    "city": "Mielsdorf"
  },
  {
    "postcode": "23795",
    "city": "Mözen"
  },
  {
    "postcode": "23795",
    "city": "Negernbötel"
  },
  {
    "postcode": "23795",
    "city": "Schackendorf bei Bad Segeberg"
  },
  {
    "postcode": "23795",
    "city": "Schieren bei Bad Segeberg"
  },
  {
    "postcode": "23795",
    "city": "Schwissel"
  },
  {
    "postcode": "23795",
    "city": "Söhren"
  },
  {
    "postcode": "23795",
    "city": "Steinbek"
  },
  {
    "postcode": "23795",
    "city": "Stipsdorf"
  },
  {
    "postcode": "23795",
    "city": "Traventhal"
  },
  {
    "postcode": "23795",
    "city": "Weede"
  },
  {
    "postcode": "23795",
    "city": "Segeberg"
  },
  {
    "postcode": "23795",
    "city": "Schackendorf"
  },
  {
    "postcode": "23795",
    "city": "Schieren"
  },
  {
    "postcode": "23795",
    "city": "Stüff"
  },
  {
    "postcode": "23812",
    "city": "Wahlstedt"
  },
  {
    "postcode": "23812",
    "city": "Segeberg"
  },
  {
    "postcode": "23812",
    "city": "Heidmühlen"
  },
  {
    "postcode": "23812",
    "city": "Kolonie Glashütte"
  },
  {
    "postcode": "23812",
    "city": "Buchholz (Forstgutsbez.)"
  },
  {
    "postcode": "23812",
    "city": "Buchholz"
  },
  {
    "postcode": "23813",
    "city": "Blunk"
  },
  {
    "postcode": "23813",
    "city": "Freudenberg"
  },
  {
    "postcode": "23813",
    "city": "Ihlkamp"
  },
  {
    "postcode": "23813",
    "city": "Muggesfelde"
  },
  {
    "postcode": "23813",
    "city": "Nehms"
  },
  {
    "postcode": "23813",
    "city": "Segeberg"
  },
  {
    "postcode": "23813",
    "city": "Seedorf"
  },
  {
    "postcode": "23813",
    "city": "Muggesfelderheide"
  },
  {
    "postcode": "23813",
    "city": "Vorholz"
  },
  {
    "postcode": "23813",
    "city": "Grönwohld"
  },
  {
    "postcode": "23813",
    "city": "Brauner Hirsch"
  },
  {
    "postcode": "23813",
    "city": "Hohlegruft"
  },
  {
    "postcode": "23813",
    "city": "Neuhof"
  },
  {
    "postcode": "23813",
    "city": "Waldhof"
  },
  {
    "postcode": "23813",
    "city": "Hornbrook"
  },
  {
    "postcode": "23813",
    "city": "Kühlkamp"
  },
  {
    "postcode": "23813",
    "city": "Lehmberg"
  },
  {
    "postcode": "23813",
    "city": "Runder Berg"
  },
  {
    "postcode": "23813",
    "city": "Ziegelkoppel"
  },
  {
    "postcode": "23815",
    "city": "Geschendorf"
  },
  {
    "postcode": "23815",
    "city": "Strukdorf"
  },
  {
    "postcode": "23815",
    "city": "Westerrade"
  },
  {
    "postcode": "23815",
    "city": "Segeberg"
  },
  {
    "postcode": "23816",
    "city": "Bebensee"
  },
  {
    "postcode": "23816",
    "city": "Groß Niendorf Holstein"
  },
  {
    "postcode": "23816",
    "city": "Groß Niendorf"
  },
  {
    "postcode": "23816",
    "city": "Heiderfeld Holstein"
  },
  {
    "postcode": "23816",
    "city": "Heiderfeld"
  },
  {
    "postcode": "23816",
    "city": "Krems I"
  },
  {
    "postcode": "23816",
    "city": "Krems I"
  },
  {
    "postcode": "23816",
    "city": "Langenhorst Holstein"
  },
  {
    "postcode": "23816",
    "city": "Langenhorst"
  },
  {
    "postcode": "23816",
    "city": "Leezen Holstein"
  },
  {
    "postcode": "23816",
    "city": "Leezen"
  },
  {
    "postcode": "23816",
    "city": "Neversdorf"
  },
  {
    "postcode": "23816",
    "city": "Segeberg"
  },
  {
    "postcode": "23816",
    "city": "Seekoppel"
  },
  {
    "postcode": "23818",
    "city": "Altengörs"
  },
  {
    "postcode": "23818",
    "city": "Neuengörs"
  },
  {
    "postcode": "23818",
    "city": "Stubben Kreis Segeberg"
  },
  {
    "postcode": "23818",
    "city": "Stubben"
  },
  {
    "postcode": "23818",
    "city": "Segeberg"
  },
  {
    "postcode": "23820",
    "city": "Diekhof"
  },
  {
    "postcode": "23820",
    "city": "Eilsdorf"
  },
  {
    "postcode": "23820",
    "city": "Goldenbek"
  },
  {
    "postcode": "23820",
    "city": "Pronstorf"
  },
  {
    "postcode": "23820",
    "city": "Reinsbek"
  },
  {
    "postcode": "23820",
    "city": "Schlichtrott"
  },
  {
    "postcode": "23820",
    "city": "Steinrade"
  },
  {
    "postcode": "23820",
    "city": "Strenglin"
  },
  {
    "postcode": "23820",
    "city": "Wulfsfelde"
  },
  {
    "postcode": "23820",
    "city": "Segeberg"
  },
  {
    "postcode": "23820",
    "city": "Neukoppel"
  },
  {
    "postcode": "23821",
    "city": "Quaal Kreis Segeberg"
  },
  {
    "postcode": "23821",
    "city": "Quaal"
  },
  {
    "postcode": "23821",
    "city": "Rohlstorf Holstein"
  },
  {
    "postcode": "23821",
    "city": "Rohlstorf"
  },
  {
    "postcode": "23821",
    "city": "Warder Kreis Segeberg"
  },
  {
    "postcode": "23821",
    "city": "Warder"
  },
  {
    "postcode": "23821",
    "city": "Segeberg"
  },
  {
    "postcode": "23821",
    "city": "Düsternbrook"
  },
  {
    "postcode": "23821",
    "city": "Wardersee"
  },
  {
    "postcode": "23823",
    "city": "Berlin bei Bad Segeberg"
  },
  {
    "postcode": "23823",
    "city": "Blomnath bei Bad Segeberg"
  },
  {
    "postcode": "23823",
    "city": "Fresenfelde bei Bad Segeberg"
  },
  {
    "postcode": "23823",
    "city": "Hornsdorf bei Bad Segeberg"
  },
  {
    "postcode": "23823",
    "city": "Hornsmühlen bei Plön"
  },
  {
    "postcode": "23823",
    "city": "Kembs bei Bad Segeberg"
  },
  {
    "postcode": "23823",
    "city": "Kuhlenbrook bei Bad Segeberg"
  },
  {
    "postcode": "23823",
    "city": "Schlamersdorf bei Bad Segeberg"
  },
  {
    "postcode": "23823",
    "city": "Schulbusch bei Bad Segeberg"
  },
  {
    "postcode": "23823",
    "city": "Seedorf bei Bad Segeberg"
  },
  {
    "postcode": "23823",
    "city": "Seekamp bei Bad Segeberg"
  },
  {
    "postcode": "23823",
    "city": "Tensfelderau Gemeinde Seedorf"
  },
  {
    "postcode": "23823",
    "city": "Tensfelderau"
  },
  {
    "postcode": "23823",
    "city": "Weitewelt bei Bad Segeberg"
  },
  {
    "postcode": "23823",
    "city": "Segeberg"
  },
  {
    "postcode": "23823",
    "city": "Seedorf"
  },
  {
    "postcode": "23823",
    "city": "Blomnath"
  },
  {
    "postcode": "23823",
    "city": "Berlin"
  },
  {
    "postcode": "23823",
    "city": "Weitewelt"
  },
  {
    "postcode": "23823",
    "city": "Schlamersdorf"
  },
  {
    "postcode": "23823",
    "city": "Hornsmühlen"
  },
  {
    "postcode": "23823",
    "city": "Seekamp"
  },
  {
    "postcode": "23823",
    "city": "Kembs"
  },
  {
    "postcode": "23823",
    "city": "Hornsdorf"
  },
  {
    "postcode": "23823",
    "city": "Aukamp"
  },
  {
    "postcode": "23823",
    "city": "Bahrenkrug"
  },
  {
    "postcode": "23823",
    "city": "Blocksberg"
  },
  {
    "postcode": "23823",
    "city": "Fresenfelde"
  },
  {
    "postcode": "23823",
    "city": "Haferhagen"
  },
  {
    "postcode": "23823",
    "city": "Muggesbrook"
  },
  {
    "postcode": "23823",
    "city": "Kuhlenbrook"
  },
  {
    "postcode": "23823",
    "city": "Stadtbek"
  },
  {
    "postcode": "23823",
    "city": "Liethkaten"
  },
  {
    "postcode": "23823",
    "city": "Neuenrade"
  },
  {
    "postcode": "23823",
    "city": "Heidmoor"
  },
  {
    "postcode": "23823",
    "city": "Steinhorst"
  },
  {
    "postcode": "23823",
    "city": "Schulbusch"
  },
  {
    "postcode": "23823",
    "city": "Seebrook"
  },
  {
    "postcode": "23823",
    "city": "Reuterteich"
  },
  {
    "postcode": "23824",
    "city": "Damsdorf Kreis Segeberg"
  },
  {
    "postcode": "23824",
    "city": "Damsdorf"
  },
  {
    "postcode": "23824",
    "city": "Tensfeld"
  },
  {
    "postcode": "23824",
    "city": "Segeberg"
  },
  {
    "postcode": "23826",
    "city": "Bark bei Bad Segeberg"
  },
  {
    "postcode": "23826",
    "city": "Fredesdorf"
  },
  {
    "postcode": "23826",
    "city": "Todesfelde"
  },
  {
    "postcode": "23826",
    "city": "Voßhöhlen Gemeinde Todesfelde"
  },
  {
    "postcode": "23826",
    "city": "Voßhöhlen"
  },
  {
    "postcode": "23826",
    "city": "Segeberg"
  },
  {
    "postcode": "23826",
    "city": "Bark"
  },
  {
    "postcode": "23827",
    "city": "Fehrenwohld Kreis Segeberg"
  },
  {
    "postcode": "23827",
    "city": "Fehrenwohld"
  },
  {
    "postcode": "23827",
    "city": "Feldscheide"
  },
  {
    "postcode": "23827",
    "city": "Garbek"
  },
  {
    "postcode": "23827",
    "city": "Göls"
  },
  {
    "postcode": "23827",
    "city": "Gut Wensin"
  },
  {
    "postcode": "23827",
    "city": "Krems II"
  },
  {
    "postcode": "23827",
    "city": "Schönböken Kreis Segeberg"
  },
  {
    "postcode": "23827",
    "city": "Schönböken"
  },
  {
    "postcode": "23827",
    "city": "Steenkrütz Gemeinde Travenhorst"
  },
  {
    "postcode": "23827",
    "city": "Steenkrütz"
  },
  {
    "postcode": "23827",
    "city": "Travenhorst"
  },
  {
    "postcode": "23827",
    "city": "Warderbrück Kreis Segeberg"
  },
  {
    "postcode": "23827",
    "city": "Warderbrück"
  },
  {
    "postcode": "23827",
    "city": "Wensin"
  },
  {
    "postcode": "23827",
    "city": "Segeberg"
  },
  {
    "postcode": "23827",
    "city": "Albrechtshof"
  },
  {
    "postcode": "23827",
    "city": "Scheidekate"
  },
  {
    "postcode": "23827",
    "city": "Schlagberg"
  },
  {
    "postcode": "23827",
    "city": "Mittelsfelde"
  },
  {
    "postcode": "23827",
    "city": "Schnepel"
  },
  {
    "postcode": "23827",
    "city": "Gut Müssen"
  },
  {
    "postcode": "23827",
    "city": "Obersöhren"
  },
  {
    "postcode": "23827",
    "city": "Untersöhren"
  },
  {
    "postcode": "23827",
    "city": "Wegekaten"
  },
  {
    "postcode": "23827",
    "city": "Kamp"
  },
  {
    "postcode": "23827",
    "city": "Petersruh"
  },
  {
    "postcode": "23827",
    "city": "Tewskoppel"
  },
  {
    "postcode": "23827",
    "city": "Gut Travenort"
  },
  {
    "postcode": "23827",
    "city": "Viehkate"
  },
  {
    "postcode": "23827",
    "city": "Hüls"
  },
  {
    "postcode": "23827",
    "city": "Passopp"
  },
  {
    "postcode": "23827",
    "city": "Rote Kate"
  },
  {
    "postcode": "23827",
    "city": "Sophienberg"
  },
  {
    "postcode": "23827",
    "city": "Taterborn"
  },
  {
    "postcode": "23829",
    "city": "Kükels"
  },
  {
    "postcode": "23829",
    "city": "Wittenborn Kreis Segeberg"
  },
  {
    "postcode": "23829",
    "city": "Wittenborn"
  },
  {
    "postcode": "23829",
    "city": "Segeberg"
  },
  {
    "postcode": "23843",
    "city": "Bad Oldesloe"
  },
  {
    "postcode": "23843",
    "city": "Blumendorf"
  },
  {
    "postcode": "23843",
    "city": "Neritz bei Bad Oldesloe"
  },
  {
    "postcode": "23843",
    "city": "Rümpel"
  },
  {
    "postcode": "23843",
    "city": "Travenbrück"
  },
  {
    "postcode": "23843",
    "city": "Stormarn"
  },
  {
    "postcode": "23843",
    "city": "Neritz"
  },
  {
    "postcode": "23843",
    "city": "Rohlfshagen"
  },
  {
    "postcode": "23843",
    "city": "Ziegelei"
  },
  {
    "postcode": "23843",
    "city": "Vinzier"
  },
  {
    "postcode": "23843",
    "city": "Schlamersdorf"
  },
  {
    "postcode": "23843",
    "city": "Nütschau"
  },
  {
    "postcode": "23843",
    "city": "Tralau"
  },
  {
    "postcode": "23843",
    "city": "Sühlen"
  },
  {
    "postcode": "23845",
    "city": "Bahrenhof Holstein"
  },
  {
    "postcode": "23845",
    "city": "Bahrenhof"
  },
  {
    "postcode": "23845",
    "city": "Bühnsdorf"
  },
  {
    "postcode": "23845",
    "city": "Dreggers"
  },
  {
    "postcode": "23845",
    "city": "Grabau Kreis Stormarn"
  },
  {
    "postcode": "23845",
    "city": "Grabau"
  },
  {
    "postcode": "23845",
    "city": "Itzstedt"
  },
  {
    "postcode": "23845",
    "city": "Oering Holstein"
  },
  {
    "postcode": "23845",
    "city": "Oering"
  },
  {
    "postcode": "23845",
    "city": "Seth Holstein"
  },
  {
    "postcode": "23845",
    "city": "Seth"
  },
  {
    "postcode": "23845",
    "city": "Wakendorf I"
  },
  {
    "postcode": "23845",
    "city": "Segeberg"
  },
  {
    "postcode": "23845",
    "city": "Borstel"
  },
  {
    "postcode": "23845",
    "city": "Hoherdamm"
  },
  {
    "postcode": "23847",
    "city": "Bliestorf"
  },
  {
    "postcode": "23847",
    "city": "Düchelsdorf"
  },
  {
    "postcode": "23847",
    "city": "Grinau"
  },
  {
    "postcode": "23847",
    "city": "Groß Boden"
  },
  {
    "postcode": "23847",
    "city": "Kastorf Holstein"
  },
  {
    "postcode": "23847",
    "city": "Kastorf"
  },
  {
    "postcode": "23847",
    "city": "Lasbek Gut"
  },
  {
    "postcode": "23847",
    "city": "Lasbek"
  },
  {
    "postcode": "23847",
    "city": "Lasbek Kreis Stormarn"
  },
  {
    "postcode": "23847",
    "city": "Meddewade"
  },
  {
    "postcode": "23847",
    "city": "Pölitz Kreis Stormarn"
  },
  {
    "postcode": "23847",
    "city": "Pölitz"
  },
  {
    "postcode": "23847",
    "city": "Rethwisch Kreis Stormarn"
  },
  {
    "postcode": "23847",
    "city": "Rethwisch"
  },
  {
    "postcode": "23847",
    "city": "Schiphorst"
  },
  {
    "postcode": "23847",
    "city": "Schürensöhlen"
  },
  {
    "postcode": "23847",
    "city": "Siebenbäumen"
  },
  {
    "postcode": "23847",
    "city": "Sierksrade"
  },
  {
    "postcode": "23847",
    "city": "Steinhorst Kreis Herzogtum Lauenburg"
  },
  {
    "postcode": "23847",
    "city": "Steinhorst"
  },
  {
    "postcode": "23847",
    "city": "Stubben bei Bad Oldesloe"
  },
  {
    "postcode": "23847",
    "city": "Westerau Holstein"
  },
  {
    "postcode": "23847",
    "city": "Westerau"
  },
  {
    "postcode": "23847",
    "city": "Herzogtum Lauenburg"
  },
  {
    "postcode": "23847",
    "city": "Stubben"
  },
  {
    "postcode": "23847",
    "city": "Schmachthagen"
  },
  {
    "postcode": "23847",
    "city": "Ohldörp"
  },
  {
    "postcode": "23847",
    "city": "Krummbek"
  },
  {
    "postcode": "23858",
    "city": "Barnitz Trave"
  },
  {
    "postcode": "23858",
    "city": "Barnitz"
  },
  {
    "postcode": "23858",
    "city": "Feldhorst"
  },
  {
    "postcode": "23858",
    "city": "Heidekamp"
  },
  {
    "postcode": "23858",
    "city": "Pasewerk Holstein"
  },
  {
    "postcode": "23858",
    "city": "Pasewerk"
  },
  {
    "postcode": "23858",
    "city": "Reinfeld (Holstein)"
  },
  {
    "postcode": "23858",
    "city": "Reinfeld"
  },
  {
    "postcode": "23858",
    "city": "Wesenberg Holstein"
  },
  {
    "postcode": "23858",
    "city": "Wesenberg"
  },
  {
    "postcode": "23858",
    "city": "Stormarn"
  },
  {
    "postcode": "23858",
    "city": "Schuhwiese"
  },
  {
    "postcode": "23858",
    "city": "Bruhnkaten"
  },
  {
    "postcode": "23860",
    "city": "Groß Schenkenberg"
  },
  {
    "postcode": "23860",
    "city": "Klein Schenkenberg"
  },
  {
    "postcode": "23860",
    "city": "Klein Wesenberg"
  },
  {
    "postcode": "23860",
    "city": "Rothenhausen"
  },
  {
    "postcode": "23860",
    "city": "Herzogtum Lauenburg"
  },
  {
    "postcode": "23863",
    "city": "Bargfeld"
  },
  {
    "postcode": "23863",
    "city": "Bargfeld-Stegen"
  },
  {
    "postcode": "23863",
    "city": "Kayhude"
  },
  {
    "postcode": "23863",
    "city": "Nienwohld"
  },
  {
    "postcode": "23863",
    "city": "Segeberg"
  },
  {
    "postcode": "23863",
    "city": "Naherfurth"
  },
  {
    "postcode": "23866",
    "city": "Nahe"
  },
  {
    "postcode": "23866",
    "city": "Segeberg"
  },
  {
    "postcode": "23867",
    "city": "Petersfelde Holstein"
  },
  {
    "postcode": "23867",
    "city": "Petersfelde"
  },
  {
    "postcode": "23867",
    "city": "Schlutup Holstein"
  },
  {
    "postcode": "23867",
    "city": "Schlutup"
  },
  {
    "postcode": "23867",
    "city": "Sülfeld"
  },
  {
    "postcode": "23867",
    "city": "Sülfeld Holstein"
  },
  {
    "postcode": "23867",
    "city": "Tönningstedt"
  },
  {
    "postcode": "23867",
    "city": "Segeberg"
  },
  {
    "postcode": "23869",
    "city": "Elmenhorst Kreis Stormarn"
  },
  {
    "postcode": "23869",
    "city": "Elmenhorst"
  },
  {
    "postcode": "23869",
    "city": "Hüls Kreis Stormarn"
  },
  {
    "postcode": "23869",
    "city": "Hüls"
  },
  {
    "postcode": "23869",
    "city": "Mönkenbrook Kreis Stormarn"
  },
  {
    "postcode": "23869",
    "city": "Mönkenbrook"
  },
  {
    "postcode": "23869",
    "city": "Siebenbergen Kreis Stormarn"
  },
  {
    "postcode": "23869",
    "city": "Siebenbergen"
  },
  {
    "postcode": "23869",
    "city": "Stormarn"
  },
  {
    "postcode": "23879",
    "city": "Gemeinde Grambek"
  },
  {
    "postcode": "23879",
    "city": "Mölln Kreis Herzogtum Lauenburg"
  },
  {
    "postcode": "23879",
    "city": "Mölln"
  },
  {
    "postcode": "23879",
    "city": "Waldhalle Kreis Herzogtum Lauenburg"
  },
  {
    "postcode": "23879",
    "city": "Waldhalle"
  },
  {
    "postcode": "23879",
    "city": "Herzogtum Lauenburg"
  },
  {
    "postcode": "23879",
    "city": "Drüsen"
  },
  {
    "postcode": "23881",
    "city": "Alt Mölln"
  },
  {
    "postcode": "23881",
    "city": "Anker"
  },
  {
    "postcode": "23881",
    "city": "Bälau"
  },
  {
    "postcode": "23881",
    "city": "Borstorf"
  },
  {
    "postcode": "23881",
    "city": "Breitenfelde Kreis Herzogtum Lauenburg"
  },
  {
    "postcode": "23881",
    "city": "Breitenfelde"
  },
  {
    "postcode": "23881",
    "city": "Gretenberge"
  },
  {
    "postcode": "23881",
    "city": "Koberg Kreis Herzogtum Lauenburg"
  },
  {
    "postcode": "23881",
    "city": "Koberg"
  },
  {
    "postcode": "23881",
    "city": "Lankau"
  },
  {
    "postcode": "23881",
    "city": "Marienwohlde"
  },
  {
    "postcode": "23881",
    "city": "Neu-Lankau"
  },
  {
    "postcode": "23881",
    "city": "Niendorf / Stecknitz"
  },
  {
    "postcode": "23881",
    "city": "Niendorf"
  },
  {
    "postcode": "23881",
    "city": "Herzogtum Lauenburg"
  },
  {
    "postcode": "23881",
    "city": "Alt-Mölln"
  },
  {
    "postcode": "23881",
    "city": "Billbaum"
  },
  {
    "postcode": "23883",
    "city": "Brunsmark"
  },
  {
    "postcode": "23883",
    "city": "Grambek"
  },
  {
    "postcode": "23883",
    "city": "Großzecher"
  },
  {
    "postcode": "23883",
    "city": "Hakendorf"
  },
  {
    "postcode": "23883",
    "city": "Hollenbek Kreis Herzogtum Lauenburg"
  },
  {
    "postcode": "23883",
    "city": "Hollenbek"
  },
  {
    "postcode": "23883",
    "city": "Horst Kreis Herzogtum Lauenburg"
  },
  {
    "postcode": "23883",
    "city": "Horst"
  },
  {
    "postcode": "23883",
    "city": "Klein Zecher"
  },
  {
    "postcode": "23883",
    "city": "Kogel Kreis Herzogtum Lauenburg"
  },
  {
    "postcode": "23883",
    "city": "Kogel"
  },
  {
    "postcode": "23883",
    "city": "Lehmrade Holstein"
  },
  {
    "postcode": "23883",
    "city": "Lehmrade"
  },
  {
    "postcode": "23883",
    "city": "Marienstedt Waldhaus bei Klein Zecher"
  },
  {
    "postcode": "23883",
    "city": "Marienstedt"
  },
  {
    "postcode": "23883",
    "city": "Seedorf Kreis Herzogtum Lauenburg"
  },
  {
    "postcode": "23883",
    "city": "Seedorf"
  },
  {
    "postcode": "23883",
    "city": "Sterley"
  },
  {
    "postcode": "23883",
    "city": "Sterley Holstein"
  },
  {
    "postcode": "23883",
    "city": "Herzogtum Lauenburg"
  },
  {
    "postcode": "23883",
    "city": "Bresahn"
  },
  {
    "postcode": "23883",
    "city": "Dargow"
  },
  {
    "postcode": "23883",
    "city": "Salem"
  },
  {
    "postcode": "23883",
    "city": "Torfkaten"
  },
  {
    "postcode": "23883",
    "city": "Neu-Horst"
  },
  {
    "postcode": "23883",
    "city": "Alt-Horst"
  },
  {
    "postcode": "23883",
    "city": "Althorst"
  },
  {
    "postcode": "23883",
    "city": "Collinghof"
  },
  {
    "postcode": "23883",
    "city": "Groß Zecher"
  },
  {
    "postcode": "23883",
    "city": "Sterleyerheide"
  },
  {
    "postcode": "23883",
    "city": "Neu-Sterley"
  },
  {
    "postcode": "23883",
    "city": "Siedlung Kogel"
  },
  {
    "postcode": "23896",
    "city": "Hammer"
  },
  {
    "postcode": "23896",
    "city": "Mannhagen"
  },
  {
    "postcode": "23896",
    "city": "Nusse"
  },
  {
    "postcode": "23896",
    "city": "Panten"
  },
  {
    "postcode": "23896",
    "city": "Poggensee bei Nusse"
  },
  {
    "postcode": "23896",
    "city": "Ritzerau"
  },
  {
    "postcode": "23896",
    "city": "Walksfelde"
  },
  {
    "postcode": "23896",
    "city": "Herzogtum Lauenburg"
  },
  {
    "postcode": "23896",
    "city": "Poggensee"
  },
  {
    "postcode": "23898",
    "city": "Bergrade"
  },
  {
    "postcode": "23898",
    "city": "Bullenhorst"
  },
  {
    "postcode": "23898",
    "city": "Duvensee"
  },
  {
    "postcode": "23898",
    "city": "Klinkrade Kreis Herzogtum Lauenburg"
  },
  {
    "postcode": "23898",
    "city": "Klinkrade"
  },
  {
    "postcode": "23898",
    "city": "Kühsen"
  },
  {
    "postcode": "23898",
    "city": "Labenz"
  },
  {
    "postcode": "23898",
    "city": "Lüchow bei Sandesneben"
  },
  {
    "postcode": "23898",
    "city": "Sandesneben"
  },
  {
    "postcode": "23898",
    "city": "Sirksfelde"
  },
  {
    "postcode": "23898",
    "city": "Wentorf"
  },
  {
    "postcode": "23898",
    "city": "Wentorf (Amt Sandesneben)"
  },
  {
    "postcode": "23898",
    "city": "Herzogtum Lauenburg"
  },
  {
    "postcode": "23898",
    "city": "Lüchow"
  },
  {
    "postcode": "23898",
    "city": "Donnerschleuse"
  },
  {
    "postcode": "23898",
    "city": "Hege"
  },
  {
    "postcode": "23898",
    "city": "Kalkkuhle"
  },
  {
    "postcode": "23899",
    "city": "Besenthal"
  },
  {
    "postcode": "23899",
    "city": "Gudow Kreis Herzogtum Lauenburg"
  },
  {
    "postcode": "23899",
    "city": "Gudow"
  },
  {
    "postcode": "23899",
    "city": "Kehrsen Kreis Herzogtum Lauenburg"
  },
  {
    "postcode": "23899",
    "city": "Kehrsen"
  },
  {
    "postcode": "23899",
    "city": "Sophiental Kreis Herzogtum Lauenburg"
  },
  {
    "postcode": "23899",
    "city": "Sophiental"
  },
  {
    "postcode": "23899",
    "city": "Herzogtum Lauenburg"
  },
  {
    "postcode": "23899",
    "city": "Gudower Mühle"
  },
  {
    "postcode": "23899",
    "city": "Sarnekow"
  },
  {
    "postcode": "23899",
    "city": "Wasserkrug"
  },
  {
    "postcode": "23899",
    "city": "Segrahn"
  },
  {
    "postcode": "23899",
    "city": "Sophienthal"
  },
  {
    "postcode": "23909",
    "city": "Albsfelde"
  },
  {
    "postcode": "23909",
    "city": "Bäk bei Ratzeburg"
  },
  {
    "postcode": "23909",
    "city": "Fredeburg bei Ratzeburg"
  },
  {
    "postcode": "23909",
    "city": "Giesensdorf bei Ratzeburg"
  },
  {
    "postcode": "23909",
    "city": "Mechow bei Ratzeburg"
  },
  {
    "postcode": "23909",
    "city": "Ratzeburg"
  },
  {
    "postcode": "23909",
    "city": "Römnitz"
  },
  {
    "postcode": "23909",
    "city": "Schmilau"
  },
  {
    "postcode": "23909",
    "city": "Herzogtum Lauenburg"
  },
  {
    "postcode": "23909",
    "city": "Bäk"
  },
  {
    "postcode": "23909",
    "city": "Farchau"
  },
  {
    "postcode": "23909",
    "city": "Farchauermühle"
  },
  {
    "postcode": "23909",
    "city": "Fredeburg"
  },
  {
    "postcode": "23909",
    "city": "Giesensdorf"
  },
  {
    "postcode": "23909",
    "city": "Hundebusch"
  },
  {
    "postcode": "23909",
    "city": "Mechow"
  },
  {
    "postcode": "23909",
    "city": "Söhren"
  },
  {
    "postcode": "23909",
    "city": "Sande"
  },
  {
    "postcode": "23909",
    "city": "Weißer Hirsch"
  },
  {
    "postcode": "23909",
    "city": "Fredeburg-Siedlung"
  },
  {
    "postcode": "23911",
    "city": "Buchholz bei Ratzeburg"
  },
  {
    "postcode": "23911",
    "city": "Einhaus bei Ratzeburg"
  },
  {
    "postcode": "23911",
    "city": "Groß Disnack"
  },
  {
    "postcode": "23911",
    "city": "Harmsdorf bei Ratzeburg"
  },
  {
    "postcode": "23911",
    "city": "Kittlitz bei Ratzeburg"
  },
  {
    "postcode": "23911",
    "city": "Klein Disnack"
  },
  {
    "postcode": "23911",
    "city": "Kulpin bei Ratzeburg"
  },
  {
    "postcode": "23911",
    "city": "Mustin bei Ratzeburg"
  },
  {
    "postcode": "23911",
    "city": "Niendorf am Schaalsee"
  },
  {
    "postcode": "23911",
    "city": "Pogeez"
  },
  {
    "postcode": "23911",
    "city": "Salem bei Ratzeburg"
  },
  {
    "postcode": "23911",
    "city": "Schmilau"
  },
  {
    "postcode": "23911",
    "city": "Ziethen bei Ratzeburg"
  },
  {
    "postcode": "23911",
    "city": "Herzogtum Lauenburg"
  },
  {
    "postcode": "23911",
    "city": "Buchholz"
  },
  {
    "postcode": "23911",
    "city": "Einhaus"
  },
  {
    "postcode": "23911",
    "city": "Harmsdorf"
  },
  {
    "postcode": "23911",
    "city": "Kittlitz"
  },
  {
    "postcode": "23911",
    "city": "Kulpin"
  },
  {
    "postcode": "23911",
    "city": "Mustin"
  },
  {
    "postcode": "23911",
    "city": "Salem"
  },
  {
    "postcode": "23911",
    "city": "Ziethen"
  },
  {
    "postcode": "23911",
    "city": "Vogtstemmen"
  },
  {
    "postcode": "23919",
    "city": "Behlendorf"
  },
  {
    "postcode": "23919",
    "city": "Berkenthin"
  },
  {
    "postcode": "23919",
    "city": "Drögemühle"
  },
  {
    "postcode": "23919",
    "city": "Fliegenberg bei Berkenthin"
  },
  {
    "postcode": "23919",
    "city": "Göldenitz bei Berkenthin"
  },
  {
    "postcode": "23919",
    "city": "Kählstorf"
  },
  {
    "postcode": "23919",
    "city": "Niendorf bei Berkenthin"
  },
  {
    "postcode": "23919",
    "city": "Rondeshagen"
  },
  {
    "postcode": "23919",
    "city": "Herzogtum Lauenburg"
  },
  {
    "postcode": "23919",
    "city": "Göldenitz"
  },
  {
    "postcode": "23923",
    "city": "Groß Siemz"
  },
  {
    "postcode": "23923",
    "city": "Lockwisch"
  },
  {
    "postcode": "23923",
    "city": "Lübseerhagen"
  },
  {
    "postcode": "23923",
    "city": "Lüdersdorf Mecklenburg"
  },
  {
    "postcode": "23923",
    "city": "Lüdersdorf"
  },
  {
    "postcode": "23923",
    "city": "Menzendorf bei Schönberg"
  },
  {
    "postcode": "23923",
    "city": "Niendorf bei Schönberg"
  },
  {
    "postcode": "23923",
    "city": "Papenhusen"
  },
  {
    "postcode": "23923",
    "city": "Roduchelstorf"
  },
  {
    "postcode": "23923",
    "city": "Schönberg (Mecklenburg)"
  },
  {
    "postcode": "23923",
    "city": "Schönberg"
  },
  {
    "postcode": "23923",
    "city": "Selmsdorf"
  },
  {
    "postcode": "23923",
    "city": "Nordwestmecklenburg"
  },
  {
    "postcode": "23923",
    "city": "Boitin-Resdorf"
  },
  {
    "postcode": "23923",
    "city": "Duvennest"
  },
  {
    "postcode": "23923",
    "city": "Groß Bünsdorf"
  },
  {
    "postcode": "23923",
    "city": "Groß Neuleben"
  },
  {
    "postcode": "23923",
    "city": "Herrnburg"
  },
  {
    "postcode": "23923",
    "city": "Hof Selmsdorf"
  },
  {
    "postcode": "23923",
    "city": "Klein Bünsdorf"
  },
  {
    "postcode": "23923",
    "city": "Klein Neuleben"
  },
  {
    "postcode": "23923",
    "city": "Kleinfeld"
  },
  {
    "postcode": "23923",
    "city": "Lauen"
  },
  {
    "postcode": "23923",
    "city": "Malzow"
  },
  {
    "postcode": "23923",
    "city": "Menzendorf"
  },
  {
    "postcode": "23923",
    "city": "Palingen"
  },
  {
    "postcode": "23923",
    "city": "Retelsdorf"
  },
  {
    "postcode": "23923",
    "city": "Rupensdorf"
  },
  {
    "postcode": "23923",
    "city": "Sabow"
  },
  {
    "postcode": "23923",
    "city": "Schattin"
  },
  {
    "postcode": "23923",
    "city": "Siemz-Niendorf"
  },
  {
    "postcode": "23923",
    "city": "Sülsdorf"
  },
  {
    "postcode": "23923",
    "city": "Teschow"
  },
  {
    "postcode": "23923",
    "city": "Wahrsow"
  },
  {
    "postcode": "23923",
    "city": "Zarnewenz"
  },
  {
    "postcode": "23923",
    "city": "Hof Lockwisch"
  },
  {
    "postcode": "23923",
    "city": "Petersberg"
  },
  {
    "postcode": "23923",
    "city": "Rottensdorf"
  },
  {
    "postcode": "23923",
    "city": "Lübsee"
  },
  {
    "postcode": "23923",
    "city": "Cordshagen"
  },
  {
    "postcode": "23923",
    "city": "Niendorf"
  },
  {
    "postcode": "23923",
    "city": "Torisdorf"
  },
  {
    "postcode": "23923",
    "city": "Bechelsdorf"
  },
  {
    "postcode": "23923",
    "city": "Ollndorf"
  },
  {
    "postcode": "23923",
    "city": "Klein Siemz"
  },
  {
    "postcode": "23923",
    "city": "Lindow"
  },
  {
    "postcode": "23923",
    "city": "Törpt"
  },
  {
    "postcode": "23936",
    "city": "Bernstorf bei Grevesmühlen"
  },
  {
    "postcode": "23936",
    "city": "Börzow"
  },
  {
    "postcode": "23936",
    "city": "Degtow"
  },
  {
    "postcode": "23936",
    "city": "Grevesmühlen"
  },
  {
    "postcode": "23936",
    "city": "Grieben bei Grevesmühlen"
  },
  {
    "postcode": "23936",
    "city": "Hanshagen bei Grevesmühlen"
  },
  {
    "postcode": "23936",
    "city": "Mallentin"
  },
  {
    "postcode": "23936",
    "city": "Papenhusen"
  },
  {
    "postcode": "23936",
    "city": "Plüschow"
  },
  {
    "postcode": "23936",
    "city": "Roggenstorf"
  },
  {
    "postcode": "23936",
    "city": "Rüting bei Grevesmühlen"
  },
  {
    "postcode": "23936",
    "city": "Testorf-Steinfort"
  },
  {
    "postcode": "23936",
    "city": "Upahl"
  },
  {
    "postcode": "23936",
    "city": "Warnow bei Grevesmühlen"
  },
  {
    "postcode": "23936",
    "city": "Nordwestmecklenburg"
  },
  {
    "postcode": "23936",
    "city": "Bössow"
  },
  {
    "postcode": "23936",
    "city": "Barendorf"
  },
  {
    "postcode": "23936",
    "city": "Bernstorf"
  },
  {
    "postcode": "23936",
    "city": "Büttlingen"
  },
  {
    "postcode": "23936",
    "city": "Diedrichshagen"
  },
  {
    "postcode": "23936",
    "city": "Everstorf"
  },
  {
    "postcode": "23936",
    "city": "Grenzhausen"
  },
  {
    "postcode": "23936",
    "city": "Grieben"
  },
  {
    "postcode": "23936",
    "city": "Hamberge"
  },
  {
    "postcode": "23936",
    "city": "Hoikendorf"
  },
  {
    "postcode": "23936",
    "city": "Neu Degtow"
  },
  {
    "postcode": "23936",
    "city": "Pohnstorf"
  },
  {
    "postcode": "23936",
    "city": "Questin"
  },
  {
    "postcode": "23936",
    "city": "Rüting"
  },
  {
    "postcode": "23936",
    "city": "Santow"
  },
  {
    "postcode": "23936",
    "city": "Schildberg"
  },
  {
    "postcode": "23936",
    "city": "Stepenitztal"
  },
  {
    "postcode": "23936",
    "city": "Thorstorf"
  },
  {
    "postcode": "23936",
    "city": "Warnow"
  },
  {
    "postcode": "23936",
    "city": "Wotenitz"
  },
  {
    "postcode": "23936",
    "city": "Bernstorf-Ausbau"
  },
  {
    "postcode": "23936",
    "city": "Wölschendorf"
  },
  {
    "postcode": "23936",
    "city": "Jeese"
  },
  {
    "postcode": "23936",
    "city": "Strohkirchen"
  },
  {
    "postcode": "23936",
    "city": "Wilkenhagen"
  },
  {
    "postcode": "23936",
    "city": "Pieverstorf"
  },
  {
    "postcode": "23936",
    "city": "Poischow"
  },
  {
    "postcode": "23936",
    "city": "Zehmen"
  },
  {
    "postcode": "23936",
    "city": "Alt-Greschendorf"
  },
  {
    "postcode": "23936",
    "city": "Rankendorf"
  },
  {
    "postcode": "23936",
    "city": "Tramm"
  },
  {
    "postcode": "23936",
    "city": "Grevenstein"
  },
  {
    "postcode": "23936",
    "city": "Vierhausen"
  },
  {
    "postcode": "23936",
    "city": "Hof Mummendorf"
  },
  {
    "postcode": "23936",
    "city": "Kirch Mummendorf"
  },
  {
    "postcode": "23936",
    "city": "Gostorf"
  },
  {
    "postcode": "23936",
    "city": "Schmachthagen"
  },
  {
    "postcode": "23936",
    "city": "Blüssen"
  },
  {
    "postcode": "23936",
    "city": "Bonnhagen"
  },
  {
    "postcode": "23936",
    "city": "Hanstorf"
  },
  {
    "postcode": "23936",
    "city": "Neu Greschendorf"
  },
  {
    "postcode": "23936",
    "city": "Rodenberg"
  },
  {
    "postcode": "23936",
    "city": "Roxin"
  },
  {
    "postcode": "23936",
    "city": "Teschow"
  },
  {
    "postcode": "23936",
    "city": "Volkenshagen"
  },
  {
    "postcode": "23936",
    "city": "Harmshagen"
  },
  {
    "postcode": "23936",
    "city": "Testorf"
  },
  {
    "postcode": "23936",
    "city": "Schönhof"
  },
  {
    "postcode": "23936",
    "city": "Fräulein-Steinfort"
  },
  {
    "postcode": "23936",
    "city": "Wüstenmark"
  },
  {
    "postcode": "23936",
    "city": "Seefeld"
  },
  {
    "postcode": "23936",
    "city": "Hanshagen"
  },
  {
    "postcode": "23936",
    "city": "Kastahn"
  },
  {
    "postcode": "23936",
    "city": "Meierstorf"
  },
  {
    "postcode": "23936",
    "city": "Waldeck"
  },
  {
    "postcode": "23936",
    "city": "Groß Pravtshagen"
  },
  {
    "postcode": "23936",
    "city": "Sievershagen"
  },
  {
    "postcode": "23936",
    "city": "Blieschendorf"
  },
  {
    "postcode": "23936",
    "city": "Boienhagen"
  },
  {
    "postcode": "23936",
    "city": "Hilgendorf"
  },
  {
    "postcode": "23936",
    "city": "Naschendorf"
  },
  {
    "postcode": "23936",
    "city": "Friedrichshagen"
  },
  {
    "postcode": "23942",
    "city": "Dassow"
  },
  {
    "postcode": "23942",
    "city": "Groß Voigtshagen"
  },
  {
    "postcode": "23942",
    "city": "Harkensee"
  },
  {
    "postcode": "23942",
    "city": "Kalkhorst"
  },
  {
    "postcode": "23942",
    "city": "Klein Voigtshagen"
  },
  {
    "postcode": "23942",
    "city": "Lütgenhof"
  },
  {
    "postcode": "23942",
    "city": "Pötenitz"
  },
  {
    "postcode": "23942",
    "city": "Prieschendorf"
  },
  {
    "postcode": "23942",
    "city": "Tankenhagen"
  },
  {
    "postcode": "23942",
    "city": "Wieschendorf"
  },
  {
    "postcode": "23942",
    "city": "Wilmstorf"
  },
  {
    "postcode": "23942",
    "city": "Nordwestmecklenburg"
  },
  {
    "postcode": "23942",
    "city": "Benckendorf"
  },
  {
    "postcode": "23942",
    "city": "Dönkendorf"
  },
  {
    "postcode": "23942",
    "city": "Feldhusen"
  },
  {
    "postcode": "23942",
    "city": "Groß Schwansee"
  },
  {
    "postcode": "23942",
    "city": "Johannstorf"
  },
  {
    "postcode": "23942",
    "city": "Klein Schwansee"
  },
  {
    "postcode": "23942",
    "city": "Neuenhagen"
  },
  {
    "postcode": "23942",
    "city": "Rosenhagen"
  },
  {
    "postcode": "23942",
    "city": "Volkstorf"
  },
  {
    "postcode": "23942",
    "city": "Holm"
  },
  {
    "postcode": "23942",
    "city": "Schwanbeck"
  },
  {
    "postcode": "23942",
    "city": "Kaltenhof"
  },
  {
    "postcode": "23942",
    "city": "Flechtkrug"
  },
  {
    "postcode": "23942",
    "city": "Barendorf"
  },
  {
    "postcode": "23944",
    "city": "Ostseebad Boltenhagen"
  },
  {
    "postcode": "23946",
    "city": "Ostseebad Boltenhagen"
  },
  {
    "postcode": "23946",
    "city": "Nordwestmecklenburg"
  },
  {
    "postcode": "23946",
    "city": "Tarnewitzerhagen"
  },
  {
    "postcode": "23946",
    "city": "Tarnewitz"
  },
  {
    "postcode": "23946",
    "city": "Redewisch"
  },
  {
    "postcode": "23946",
    "city": "Wichmannsdorf"
  },
  {
    "postcode": "23948",
    "city": "Damshagen"
  },
  {
    "postcode": "23948",
    "city": "Elmenhorst bei Grevesmühlen"
  },
  {
    "postcode": "23948",
    "city": "Groß Walmstorf"
  },
  {
    "postcode": "23948",
    "city": "Hohenkirchen"
  },
  {
    "postcode": "23948",
    "city": "Kalkhorst"
  },
  {
    "postcode": "23948",
    "city": "Klütz"
  },
  {
    "postcode": "23948",
    "city": "Moor-Rolofshagen"
  },
  {
    "postcode": "23948",
    "city": "Nordwestmecklenburg"
  },
  {
    "postcode": "23948",
    "city": "Arpshagen"
  },
  {
    "postcode": "23948",
    "city": "Brook"
  },
  {
    "postcode": "23948",
    "city": "Christinenfeld"
  },
  {
    "postcode": "23948",
    "city": "Dorf Gutow"
  },
  {
    "postcode": "23948",
    "city": "Dorf Reppenhagen"
  },
  {
    "postcode": "23948",
    "city": "Elmenhorst"
  },
  {
    "postcode": "23948",
    "city": "Eulenkrug"
  },
  {
    "postcode": "23948",
    "city": "Gantenbeck"
  },
  {
    "postcode": "23948",
    "city": "Goldbeck"
  },
  {
    "postcode": "23948",
    "city": "Großenhof"
  },
  {
    "postcode": "23948",
    "city": "Grundshagen"
  },
  {
    "postcode": "23948",
    "city": "Hof Gutow"
  },
  {
    "postcode": "23948",
    "city": "Hof Reppenhagen"
  },
  {
    "postcode": "23948",
    "city": "Hofzumfelde"
  },
  {
    "postcode": "23948",
    "city": "Hohen Schönberg"
  },
  {
    "postcode": "23948",
    "city": "Klein Pravtshagen"
  },
  {
    "postcode": "23948",
    "city": "Kussow"
  },
  {
    "postcode": "23948",
    "city": "Kühlenstein"
  },
  {
    "postcode": "23948",
    "city": "Moor"
  },
  {
    "postcode": "23948",
    "city": "Niederklütz"
  },
  {
    "postcode": "23948",
    "city": "Oberhof"
  },
  {
    "postcode": "23948",
    "city": "Parin"
  },
  {
    "postcode": "23948",
    "city": "Rolofshagen"
  },
  {
    "postcode": "23948",
    "city": "Steinbeck"
  },
  {
    "postcode": "23948",
    "city": "Stellshagen"
  },
  {
    "postcode": "23948",
    "city": "Warnkenhagen"
  },
  {
    "postcode": "23948",
    "city": "Warnow"
  },
  {
    "postcode": "23948",
    "city": "Welzin"
  },
  {
    "postcode": "23948",
    "city": "Wohlenberg"
  },
  {
    "postcode": "23948",
    "city": "Gatenbeck"
  },
  {
    "postcode": "23952",
    "city": "Wismar Mecklenburg"
  },
  {
    "postcode": "23952",
    "city": "Wismar"
  },
  {
    "postcode": "23966",
    "city": "Bobitz"
  },
  {
    "postcode": "23966",
    "city": "Groß Krankow"
  },
  {
    "postcode": "23966",
    "city": "Moidentin"
  },
  {
    "postcode": "23966",
    "city": "Wismar Mecklenburg"
  },
  {
    "postcode": "23966",
    "city": "Wismar"
  },
  {
    "postcode": "23966",
    "city": "Nordwestmecklenburg"
  },
  {
    "postcode": "23966",
    "city": "Petersdorf"
  },
  {
    "postcode": "23966",
    "city": "Klein Krankow"
  },
  {
    "postcode": "23966",
    "city": "Tressow"
  },
  {
    "postcode": "23966",
    "city": "Käselow"
  },
  {
    "postcode": "23966",
    "city": "Köchelsdorf"
  },
  {
    "postcode": "23966",
    "city": "Quaal"
  },
  {
    "postcode": "23966",
    "city": "Friedenshof"
  },
  {
    "postcode": "23966",
    "city": "Wismar-West"
  },
  {
    "postcode": "23966",
    "city": "Altstadt"
  },
  {
    "postcode": "23966",
    "city": "Wismar-Nord"
  },
  {
    "postcode": "23966",
    "city": "Wismar-Süd"
  },
  {
    "postcode": "23966",
    "city": "Wendorf"
  },
  {
    "postcode": "23968",
    "city": "Barnekow"
  },
  {
    "postcode": "23968",
    "city": "Eggerstorf"
  },
  {
    "postcode": "23968",
    "city": "Gägelow bei Wismar"
  },
  {
    "postcode": "23968",
    "city": "Gramkow"
  },
  {
    "postcode": "23968",
    "city": "Voßkuhl bei Wismar Mecklenburg"
  },
  {
    "postcode": "23968",
    "city": "Voßkuhl bei Wismar"
  },
  {
    "postcode": "23968",
    "city": "Wismar Mecklenburg"
  },
  {
    "postcode": "23968",
    "city": "Wismar"
  },
  {
    "postcode": "23968",
    "city": "Zierow"
  },
  {
    "postcode": "23968",
    "city": "Nordwestmecklenburg"
  },
  {
    "postcode": "23968",
    "city": "Gressow"
  },
  {
    "postcode": "23968",
    "city": "Gägelow"
  },
  {
    "postcode": "23968",
    "city": "Hohenkirchen"
  },
  {
    "postcode": "23968",
    "city": "Jamel"
  },
  {
    "postcode": "23968",
    "city": "Neu Weitendorf"
  },
  {
    "postcode": "23968",
    "city": "Proseken"
  },
  {
    "postcode": "23968",
    "city": "Stofferstorf"
  },
  {
    "postcode": "23968",
    "city": "Voßkuhl"
  },
  {
    "postcode": "23968",
    "city": "Weitendorf"
  },
  {
    "postcode": "23968",
    "city": "Wolde"
  },
  {
    "postcode": "23968",
    "city": "Groß Woltersdorf"
  },
  {
    "postcode": "23968",
    "city": "Klein Woltersdorf"
  },
  {
    "postcode": "23968",
    "city": "Krönkenhagen"
  },
  {
    "postcode": "23968",
    "city": "Manderow"
  },
  {
    "postcode": "23968",
    "city": "Beckerwitz"
  },
  {
    "postcode": "23968",
    "city": "Hohen Wieschendorf"
  },
  {
    "postcode": "23968",
    "city": "Neu Jassewitz"
  },
  {
    "postcode": "23968",
    "city": "Groß Walmstorf"
  },
  {
    "postcode": "23968",
    "city": "Niendorf"
  },
  {
    "postcode": "23968",
    "city": "Wohlenhagen"
  },
  {
    "postcode": "23968",
    "city": "Wahrstorf"
  },
  {
    "postcode": "23968",
    "city": "Alt Jassewitz"
  },
  {
    "postcode": "23968",
    "city": "Wendorf"
  },
  {
    "postcode": "23968",
    "city": "Fliemstorf"
  },
  {
    "postcode": "23968",
    "city": "Landstorf"
  },
  {
    "postcode": "23968",
    "city": "Wisch"
  },
  {
    "postcode": "23970",
    "city": "Benz bei Wismar"
  },
  {
    "postcode": "23970",
    "city": "Goldebee"
  },
  {
    "postcode": "23970",
    "city": "Kalsow"
  },
  {
    "postcode": "23970",
    "city": "Warkstorf"
  },
  {
    "postcode": "23970",
    "city": "Wismar Mecklenburg"
  },
  {
    "postcode": "23970",
    "city": "Wismar"
  },
  {
    "postcode": "23970",
    "city": "Nordwestmecklenburg"
  },
  {
    "postcode": "23970",
    "city": "Benz"
  },
  {
    "postcode": "23970",
    "city": "Kritzow"
  },
  {
    "postcode": "23970",
    "city": "Rüggow"
  },
  {
    "postcode": "23970",
    "city": "Gamehl"
  },
  {
    "postcode": "23970",
    "city": "Wismar-Süd"
  },
  {
    "postcode": "23970",
    "city": "Dargetzow"
  },
  {
    "postcode": "23970",
    "city": "Wismar-Nord"
  },
  {
    "postcode": "23970",
    "city": "Wismar-Ost"
  },
  {
    "postcode": "23970",
    "city": "Altstadt"
  },
  {
    "postcode": "23970",
    "city": "Friedenshof"
  },
  {
    "postcode": "23970",
    "city": "Wendorf"
  },
  {
    "postcode": "23972",
    "city": "Dorf Mecklenburg"
  },
  {
    "postcode": "23972",
    "city": "Groß Stieten"
  },
  {
    "postcode": "23972",
    "city": "Lübow"
  },
  {
    "postcode": "23972",
    "city": "Metelsdorf"
  },
  {
    "postcode": "23972",
    "city": "Schimm"
  },
  {
    "postcode": "23972",
    "city": "Nordwestmecklenburg"
  },
  {
    "postcode": "23972",
    "city": "Petersdorf b Wismar Meckl"
  },
  {
    "postcode": "23972",
    "city": "Karow"
  },
  {
    "postcode": "23972",
    "city": "Steffin"
  },
  {
    "postcode": "23972",
    "city": "Moidentin"
  },
  {
    "postcode": "23972",
    "city": "Kletzin"
  },
  {
    "postcode": "23972",
    "city": "Rambow"
  },
  {
    "postcode": "23972",
    "city": "Olgashof"
  },
  {
    "postcode": "23972",
    "city": "Rosenthal"
  },
  {
    "postcode": "23972",
    "city": "Neu Stieten"
  },
  {
    "postcode": "23972",
    "city": "Levetzow"
  },
  {
    "postcode": "23972",
    "city": "Triwalk"
  },
  {
    "postcode": "23972",
    "city": "Greese"
  },
  {
    "postcode": "23972",
    "city": "Maßlow"
  },
  {
    "postcode": "23972",
    "city": "Tarzow"
  },
  {
    "postcode": "23972",
    "city": "Wietow"
  },
  {
    "postcode": "23972",
    "city": "Klüssendorf"
  },
  {
    "postcode": "23972",
    "city": "Martensdorf"
  },
  {
    "postcode": "23972",
    "city": "Schulenbrook"
  },
  {
    "postcode": "23974",
    "city": "Blowatz"
  },
  {
    "postcode": "23974",
    "city": "Boiensdorf"
  },
  {
    "postcode": "23974",
    "city": "Damekow"
  },
  {
    "postcode": "23974",
    "city": "Dreveskirchen"
  },
  {
    "postcode": "23974",
    "city": "Groß Strömkendorf"
  },
  {
    "postcode": "23974",
    "city": "Hornstorf bei Wismar"
  },
  {
    "postcode": "23974",
    "city": "Ilow"
  },
  {
    "postcode": "23974",
    "city": "Krusenhagen"
  },
  {
    "postcode": "23974",
    "city": "Lischow"
  },
  {
    "postcode": "23974",
    "city": "Madsow"
  },
  {
    "postcode": "23974",
    "city": "Nantrow"
  },
  {
    "postcode": "23974",
    "city": "Neuburg bei Wismar"
  },
  {
    "postcode": "23974",
    "city": "Robertsdorf"
  },
  {
    "postcode": "23974",
    "city": "Wodorf"
  },
  {
    "postcode": "23974",
    "city": "Nordwestmecklenburg"
  },
  {
    "postcode": "23974",
    "city": "Hagebök"
  },
  {
    "postcode": "23974",
    "city": "Hornstorf"
  },
  {
    "postcode": "23974",
    "city": "Neuburg"
  },
  {
    "postcode": "23974",
    "city": "Rohlstorf"
  },
  {
    "postcode": "23974",
    "city": "Friedrichsdorf"
  },
  {
    "postcode": "23974",
    "city": "Heidekaten"
  },
  {
    "postcode": "23974",
    "city": "Alt Farpen"
  },
  {
    "postcode": "23974",
    "city": "Niendorf"
  },
  {
    "postcode": "23974",
    "city": "Stove"
  },
  {
    "postcode": "23974",
    "city": "Neu Nantrow"
  },
  {
    "postcode": "23974",
    "city": "Vogelsang"
  },
  {
    "postcode": "23974",
    "city": "Gagzow"
  },
  {
    "postcode": "23974",
    "city": "Hof Redentin"
  },
  {
    "postcode": "23974",
    "city": "Steinhausen"
  },
  {
    "postcode": "23974",
    "city": "Neu Farpen"
  },
  {
    "postcode": "23974",
    "city": "Neuendorf"
  },
  {
    "postcode": "23974",
    "city": "Kartlow"
  },
  {
    "postcode": "23974",
    "city": "Tatow"
  },
  {
    "postcode": "23974",
    "city": "Zarnekow"
  },
  {
    "postcode": "23992",
    "city": "Alt Poorstorf"
  },
  {
    "postcode": "23992",
    "city": "Glasin"
  },
  {
    "postcode": "23992",
    "city": "Lübberstorf"
  },
  {
    "postcode": "23992",
    "city": "Neukloster Mecklenburg"
  },
  {
    "postcode": "23992",
    "city": "Neukloster"
  },
  {
    "postcode": "23992",
    "city": "Nevern"
  },
  {
    "postcode": "23992",
    "city": "Passee"
  },
  {
    "postcode": "23992",
    "city": "Ravensruh"
  },
  {
    "postcode": "23992",
    "city": "Rügkamp"
  },
  {
    "postcode": "23992",
    "city": "Zurow"
  },
  {
    "postcode": "23992",
    "city": "Züsow"
  },
  {
    "postcode": "23992",
    "city": "Nordwestmecklenburg"
  },
  {
    "postcode": "23992",
    "city": "Babst"
  },
  {
    "postcode": "23992",
    "city": "Bäbelin"
  },
  {
    "postcode": "23992",
    "city": "Fahren"
  },
  {
    "postcode": "23992",
    "city": "Goldberg"
  },
  {
    "postcode": "23992",
    "city": "Groß Tessin"
  },
  {
    "postcode": "23992",
    "city": "Höltingsdorf"
  },
  {
    "postcode": "23992",
    "city": "Kahlenberg"
  },
  {
    "postcode": "23992",
    "city": "Klein Warin"
  },
  {
    "postcode": "23992",
    "city": "Krassow"
  },
  {
    "postcode": "23992",
    "city": "Langenstück"
  },
  {
    "postcode": "23992",
    "city": "Lüdersdorf"
  },
  {
    "postcode": "23992",
    "city": "Nakenstorf"
  },
  {
    "postcode": "23992",
    "city": "Neu Babst"
  },
  {
    "postcode": "23992",
    "city": "Neumühle"
  },
  {
    "postcode": "23992",
    "city": "Perniek"
  },
  {
    "postcode": "23992",
    "city": "Pinnowhof"
  },
  {
    "postcode": "23992",
    "city": "Poischendorf"
  },
  {
    "postcode": "23992",
    "city": "Reinstorf"
  },
  {
    "postcode": "23992",
    "city": "Schmakentin"
  },
  {
    "postcode": "23992",
    "city": "Strameuß"
  },
  {
    "postcode": "23992",
    "city": "Teplitz"
  },
  {
    "postcode": "23992",
    "city": "Tollow"
  },
  {
    "postcode": "23992",
    "city": "Tüzen"
  },
  {
    "postcode": "23992",
    "city": "Wakendorf"
  },
  {
    "postcode": "23992",
    "city": "Warnkenhagen"
  },
  {
    "postcode": "23992",
    "city": "Zweihausen"
  },
  {
    "postcode": "23992",
    "city": "Neuhof"
  },
  {
    "postcode": "23992",
    "city": "Sellin"
  },
  {
    "postcode": "23996",
    "city": "Bad Kleinen"
  },
  {
    "postcode": "23996",
    "city": "Beidendorf bei Bad Kleinen"
  },
  {
    "postcode": "23996",
    "city": "Bobitz"
  },
  {
    "postcode": "23996",
    "city": "Gallentin"
  },
  {
    "postcode": "23996",
    "city": "Groß Krankow"
  },
  {
    "postcode": "23996",
    "city": "Hohen Viecheln"
  },
  {
    "postcode": "23996",
    "city": "Nordwestmecklenburg"
  },
  {
    "postcode": "23996",
    "city": "Beidendorf"
  },
  {
    "postcode": "23996",
    "city": "Dalliendorf"
  },
  {
    "postcode": "23996",
    "city": "Dambeck"
  },
  {
    "postcode": "23996",
    "city": "Grapen-Stieten"
  },
  {
    "postcode": "23996",
    "city": "Hädchenshof"
  },
  {
    "postcode": "23996",
    "city": "Lutterstorf"
  },
  {
    "postcode": "23996",
    "city": "Moltow"
  },
  {
    "postcode": "23996",
    "city": "Naudin"
  },
  {
    "postcode": "23996",
    "city": "Neu Saunstorf"
  },
  {
    "postcode": "23996",
    "city": "Neu Viecheln"
  },
  {
    "postcode": "23996",
    "city": "Neuhof"
  },
  {
    "postcode": "23996",
    "city": "Rastorf"
  },
  {
    "postcode": "23996",
    "city": "Saunstorf"
  },
  {
    "postcode": "23996",
    "city": "Scharfstorf"
  },
  {
    "postcode": "23996",
    "city": "Hoppenrade"
  },
  {
    "postcode": "23996",
    "city": "Niendorf"
  },
  {
    "postcode": "23996",
    "city": "Wendisch Rambow"
  },
  {
    "postcode": "23996",
    "city": "Losten"
  },
  {
    "postcode": "23996",
    "city": "Glashagen"
  },
  {
    "postcode": "23996",
    "city": "Fichtenhusen"
  },
  {
    "postcode": "23999",
    "city": "Insel Poel"
  },
  {
    "postcode": "23999",
    "city": "Timmendorf"
  },
  {
    "postcode": "23999",
    "city": "Nordwestmecklenburg"
  },
  {
    "postcode": "23999",
    "city": "Malchow"
  },
  {
    "postcode": "23999",
    "city": "Fährdorf"
  },
  {
    "postcode": "23999",
    "city": "Kaltenhof"
  },
  {
    "postcode": "23999",
    "city": "Kirchdorf"
  },
  {
    "postcode": "23999",
    "city": "Vorwerk"
  },
  {
    "postcode": "23999",
    "city": "Brandenhusen"
  },
  {
    "postcode": "23999",
    "city": "Am Schwarzen Busch"
  },
  {
    "postcode": "23999",
    "city": "Wangern"
  },
  {
    "postcode": "23999",
    "city": "Weitendorf"
  },
  {
    "postcode": "23999",
    "city": "Gollwitz"
  },
  {
    "postcode": "23999",
    "city": "Oertzenhof"
  },
  {
    "postcode": "23999",
    "city": "Neuhof"
  },
  {
    "postcode": "23999",
    "city": "Niendorf"
  },
  {
    "postcode": "23999",
    "city": "Seedorf"
  }
]