[
  {
    "postcode": "57072",
    "city": "Seelbach Westfalen"
  },
  {
    "postcode": "57072",
    "city": "Seelbach"
  },
  {
    "postcode": "57072",
    "city": "Siegen"
  },
  {
    "postcode": "57072",
    "city": "Trupbach"
  },
  {
    "postcode": "57072",
    "city": "Weidenau Sieg"
  },
  {
    "postcode": "57072",
    "city": "Weidenau"
  },
  {
    "postcode": "57072",
    "city": "Siegen-Wittgenstein"
  },
  {
    "postcode": "57074",
    "city": "Breitenbach"
  },
  {
    "postcode": "57074",
    "city": "Bürbach"
  },
  {
    "postcode": "57074",
    "city": "Eiserfeld"
  },
  {
    "postcode": "57074",
    "city": "Feuersbach Westfalen"
  },
  {
    "postcode": "57074",
    "city": "Feuersbach"
  },
  {
    "postcode": "57074",
    "city": "Kaan-Marienborn"
  },
  {
    "postcode": "57074",
    "city": "Siegen"
  },
  {
    "postcode": "57074",
    "city": "Volnsberg"
  },
  {
    "postcode": "57074",
    "city": "Siegen-Wittgenstein"
  },
  {
    "postcode": "57076",
    "city": "Bürbach"
  },
  {
    "postcode": "57076",
    "city": "Geisweid"
  },
  {
    "postcode": "57076",
    "city": "Siegen"
  },
  {
    "postcode": "57076",
    "city": "Weidenau Sieg"
  },
  {
    "postcode": "57076",
    "city": "Weidenau"
  },
  {
    "postcode": "57076",
    "city": "Siegen-Wittgenstein"
  },
  {
    "postcode": "57078",
    "city": "Birlenbach"
  },
  {
    "postcode": "57078",
    "city": "Buchen Kreis Siegen"
  },
  {
    "postcode": "57078",
    "city": "Buchen"
  },
  {
    "postcode": "57078",
    "city": "Dillnhütten"
  },
  {
    "postcode": "57078",
    "city": "Geisweid"
  },
  {
    "postcode": "57078",
    "city": "Langenholdinghausen"
  },
  {
    "postcode": "57078",
    "city": "Meiswinkel"
  },
  {
    "postcode": "57078",
    "city": "Niedersetzen"
  },
  {
    "postcode": "57078",
    "city": "Obersetzen"
  },
  {
    "postcode": "57078",
    "city": "Siegen"
  },
  {
    "postcode": "57078",
    "city": "Sohlbach"
  },
  {
    "postcode": "57078",
    "city": "Weidenau Sieg"
  },
  {
    "postcode": "57078",
    "city": "Weidenau"
  },
  {
    "postcode": "57078",
    "city": "Siegen-Wittgenstein"
  },
  {
    "postcode": "57080",
    "city": "Eiserfeld"
  },
  {
    "postcode": "57080",
    "city": "Eisern"
  },
  {
    "postcode": "57080",
    "city": "Gosenbach"
  },
  {
    "postcode": "57080",
    "city": "Niederschelden"
  },
  {
    "postcode": "57080",
    "city": "Oberschelden"
  },
  {
    "postcode": "57080",
    "city": "Siegen"
  },
  {
    "postcode": "57080",
    "city": "Siegen-Wittgenstein"
  },
  {
    "postcode": "57223",
    "city": "Bockenbach Kreis Siegen"
  },
  {
    "postcode": "57223",
    "city": "Bockenbach"
  },
  {
    "postcode": "57223",
    "city": "Burgholdinghausen Westfalen"
  },
  {
    "postcode": "57223",
    "city": "Burgholdinghausen"
  },
  {
    "postcode": "57223",
    "city": "Buschhütten"
  },
  {
    "postcode": "57223",
    "city": "Fellinghausen Siegerland"
  },
  {
    "postcode": "57223",
    "city": "Fellinghausen"
  },
  {
    "postcode": "57223",
    "city": "Ferndorf Westfalen"
  },
  {
    "postcode": "57223",
    "city": "Ferndorf"
  },
  {
    "postcode": "57223",
    "city": "Junkernhees"
  },
  {
    "postcode": "57223",
    "city": "Kredenbach über Kreuztal Westfalen"
  },
  {
    "postcode": "57223",
    "city": "Kredenbach über Kreuztal"
  },
  {
    "postcode": "57223",
    "city": "Kreuztal"
  },
  {
    "postcode": "57223",
    "city": "Kreuztal Westfalen"
  },
  {
    "postcode": "57223",
    "city": "Krombach Westfalen"
  },
  {
    "postcode": "57223",
    "city": "Krombach"
  },
  {
    "postcode": "57223",
    "city": "Littfeld Westfalen"
  },
  {
    "postcode": "57223",
    "city": "Littfeld"
  },
  {
    "postcode": "57223",
    "city": "Mittelhees Westfalen"
  },
  {
    "postcode": "57223",
    "city": "Mittelhees"
  },
  {
    "postcode": "57223",
    "city": "Oberhees Westfalen"
  },
  {
    "postcode": "57223",
    "city": "Oberhees"
  },
  {
    "postcode": "57223",
    "city": "Osthelden"
  },
  {
    "postcode": "57223",
    "city": "Stendenbach Westfalen"
  },
  {
    "postcode": "57223",
    "city": "Stendenbach"
  },
  {
    "postcode": "57223",
    "city": "Siegen-Wittgenstein"
  },
  {
    "postcode": "57223",
    "city": "Kredenbach"
  },
  {
    "postcode": "57223",
    "city": "Eichen"
  },
  {
    "postcode": "57234",
    "city": "Anzhausen"
  },
  {
    "postcode": "57234",
    "city": "Flammersbach Westfalen"
  },
  {
    "postcode": "57234",
    "city": "Flammersbach"
  },
  {
    "postcode": "57234",
    "city": "Gernsdorf"
  },
  {
    "postcode": "57234",
    "city": "Niederdielfen"
  },
  {
    "postcode": "57234",
    "city": "Oberdielfen"
  },
  {
    "postcode": "57234",
    "city": "Obersdorf Westfalen"
  },
  {
    "postcode": "57234",
    "city": "Obersdorf"
  },
  {
    "postcode": "57234",
    "city": "Rinsdorf"
  },
  {
    "postcode": "57234",
    "city": "Rudersdorf Westfalen"
  },
  {
    "postcode": "57234",
    "city": "Rudersdorf"
  },
  {
    "postcode": "57234",
    "city": "Wilgersdorf"
  },
  {
    "postcode": "57234",
    "city": "Wilnsdorf"
  },
  {
    "postcode": "57234",
    "city": "Siegen-Wittgenstein"
  },
  {
    "postcode": "57234",
    "city": "Wilden"
  },
  {
    "postcode": "57250",
    "city": "Afholderbach"
  },
  {
    "postcode": "57250",
    "city": "Beienbach"
  },
  {
    "postcode": "57250",
    "city": "Brauersdorf"
  },
  {
    "postcode": "57250",
    "city": "Deuz Kreis Siegen Westfalen"
  },
  {
    "postcode": "57250",
    "city": "Deuz"
  },
  {
    "postcode": "57250",
    "city": "Dreis-Tiefenbach"
  },
  {
    "postcode": "57250",
    "city": "Eckmannshausen"
  },
  {
    "postcode": "57250",
    "city": "Eschenbach bei Netphen"
  },
  {
    "postcode": "57250",
    "city": "Frohnhausen"
  },
  {
    "postcode": "57250",
    "city": "Grissenbach Kreis Siegen Westfalen"
  },
  {
    "postcode": "57250",
    "city": "Grissenbach"
  },
  {
    "postcode": "57250",
    "city": "Hainchen"
  },
  {
    "postcode": "57250",
    "city": "Helgersdorf bei Netphen"
  },
  {
    "postcode": "57250",
    "city": "Herzhausen bei Netphen"
  },
  {
    "postcode": "57250",
    "city": "Irmgarteichen"
  },
  {
    "postcode": "57250",
    "city": "Nenkersdorf Kreis Siegen Westfalen"
  },
  {
    "postcode": "57250",
    "city": "Nenkersdorf"
  },
  {
    "postcode": "57250",
    "city": "Netphen"
  },
  {
    "postcode": "57250",
    "city": "Ölgershausen"
  },
  {
    "postcode": "57250",
    "city": "Salchendorf bei Netphen"
  },
  {
    "postcode": "57250",
    "city": "Sohlbach"
  },
  {
    "postcode": "57250",
    "city": "Unglinghausen"
  },
  {
    "postcode": "57250",
    "city": "Walpersdorf Kreis Siegen Westfalen"
  },
  {
    "postcode": "57250",
    "city": "Walpersdorf"
  },
  {
    "postcode": "57250",
    "city": "Werthenbach"
  },
  {
    "postcode": "57250",
    "city": "Siegen-Wittgenstein"
  },
  {
    "postcode": "57250",
    "city": "Herzhausen"
  },
  {
    "postcode": "57250",
    "city": "Salchendorf"
  },
  {
    "postcode": "57250",
    "city": "Eschenbach"
  },
  {
    "postcode": "57250",
    "city": "Oelgershausen"
  },
  {
    "postcode": "57250",
    "city": "Helgersdorf"
  },
  {
    "postcode": "57258",
    "city": "Alchen"
  },
  {
    "postcode": "57258",
    "city": "Bottenberg"
  },
  {
    "postcode": "57258",
    "city": "Bühl Westfalen"
  },
  {
    "postcode": "57258",
    "city": "Bühl"
  },
  {
    "postcode": "57258",
    "city": "Büschergrund"
  },
  {
    "postcode": "57258",
    "city": "Dirlenbach"
  },
  {
    "postcode": "57258",
    "city": "Freudenberg Westfalen"
  },
  {
    "postcode": "57258",
    "city": "Freudenberg"
  },
  {
    "postcode": "57258",
    "city": "Heisberg"
  },
  {
    "postcode": "57258",
    "city": "Hohenhain über Siegen Westfalen"
  },
  {
    "postcode": "57258",
    "city": "Hohenhain über Siegen"
  },
  {
    "postcode": "57258",
    "city": "Lindenberg Westfalen"
  },
  {
    "postcode": "57258",
    "city": "Lindenberg"
  },
  {
    "postcode": "57258",
    "city": "Mausbach Westfalen"
  },
  {
    "postcode": "57258",
    "city": "Mausbach"
  },
  {
    "postcode": "57258",
    "city": "Niederholzklau"
  },
  {
    "postcode": "57258",
    "city": "Niederndorf Westfalen"
  },
  {
    "postcode": "57258",
    "city": "Niederndorf"
  },
  {
    "postcode": "57258",
    "city": "Oberfischbach Westfalen"
  },
  {
    "postcode": "57258",
    "city": "Oberfischbach"
  },
  {
    "postcode": "57258",
    "city": "Oberheuslingen"
  },
  {
    "postcode": "57258",
    "city": "Oberholzklau"
  },
  {
    "postcode": "57258",
    "city": "Plittershagen"
  },
  {
    "postcode": "57258",
    "city": "Siegen-Wittgenstein"
  },
  {
    "postcode": "57258",
    "city": "Hohenhain"
  },
  {
    "postcode": "57258",
    "city": "Niederheuslingen"
  },
  {
    "postcode": "57271",
    "city": "Allenbach"
  },
  {
    "postcode": "57271",
    "city": "Dahlbruch"
  },
  {
    "postcode": "57271",
    "city": "Hadem"
  },
  {
    "postcode": "57271",
    "city": "Helberhausen"
  },
  {
    "postcode": "57271",
    "city": "Hilchenbach"
  },
  {
    "postcode": "57271",
    "city": "Hilchenbach Siegerland"
  },
  {
    "postcode": "57271",
    "city": "Lützel über Kreuztal Westfalen"
  },
  {
    "postcode": "57271",
    "city": "Lützel über Kreuztal"
  },
  {
    "postcode": "57271",
    "city": "Müsen"
  },
  {
    "postcode": "57271",
    "city": "Oechelhausen"
  },
  {
    "postcode": "57271",
    "city": "Ruckersfeld"
  },
  {
    "postcode": "57271",
    "city": "Vormwald über Kreuztal Westfalen"
  },
  {
    "postcode": "57271",
    "city": "Vormwald über Kreuztal"
  },
  {
    "postcode": "57271",
    "city": "Siegen-Wittgenstein"
  },
  {
    "postcode": "57271",
    "city": "Lützel"
  },
  {
    "postcode": "57271",
    "city": "Vormwald"
  },
  {
    "postcode": "57271",
    "city": "Grund"
  },
  {
    "postcode": "57271",
    "city": "Oberndorf"
  },
  {
    "postcode": "57290",
    "city": "Altenseelbach"
  },
  {
    "postcode": "57290",
    "city": "Neunkirchen Siegerland"
  },
  {
    "postcode": "57290",
    "city": "Neunkirchen"
  },
  {
    "postcode": "57290",
    "city": "Salchendorf bei Neunkirchen Siegerl"
  },
  {
    "postcode": "57290",
    "city": "Salchendorf bei Neunkirchen"
  },
  {
    "postcode": "57290",
    "city": "Struthütten Siegerland"
  },
  {
    "postcode": "57290",
    "city": "Struthütten"
  },
  {
    "postcode": "57290",
    "city": "Wiederstein"
  },
  {
    "postcode": "57290",
    "city": "Zeppenfeld"
  },
  {
    "postcode": "57290",
    "city": "Siegen-Wittgenstein"
  },
  {
    "postcode": "57290",
    "city": "Salchendorf"
  },
  {
    "postcode": "57299",
    "city": "Burbach Siegerland"
  },
  {
    "postcode": "57299",
    "city": "Burbach"
  },
  {
    "postcode": "57299",
    "city": "Gilsbach"
  },
  {
    "postcode": "57299",
    "city": "Holzhausen Siegerland"
  },
  {
    "postcode": "57299",
    "city": "Holzhausen"
  },
  {
    "postcode": "57299",
    "city": "Lippe Siegerland"
  },
  {
    "postcode": "57299",
    "city": "Lippe"
  },
  {
    "postcode": "57299",
    "city": "Lützeln"
  },
  {
    "postcode": "57299",
    "city": "Niederdresselndorf"
  },
  {
    "postcode": "57299",
    "city": "Oberdresselndorf"
  },
  {
    "postcode": "57299",
    "city": "Wahlbach Kreis Siegen Westfalen"
  },
  {
    "postcode": "57299",
    "city": "Wahlbach"
  },
  {
    "postcode": "57299",
    "city": "Würgendorf"
  },
  {
    "postcode": "57299",
    "city": "Siegen-Wittgenstein"
  },
  {
    "postcode": "57319",
    "city": "Alertshausen Westfalen"
  },
  {
    "postcode": "57319",
    "city": "Alertshausen"
  },
  {
    "postcode": "57319",
    "city": "Arfeld"
  },
  {
    "postcode": "57319",
    "city": "Aue Westfalen"
  },
  {
    "postcode": "57319",
    "city": "Aue"
  },
  {
    "postcode": "57319",
    "city": "Bad Berleburg"
  },
  {
    "postcode": "57319",
    "city": "Beddelhausen"
  },
  {
    "postcode": "57319",
    "city": "Berghausen Kreis Wittgenstein"
  },
  {
    "postcode": "57319",
    "city": "Berghausen"
  },
  {
    "postcode": "57319",
    "city": "Diedenshausen Kreis Wittgenstein"
  },
  {
    "postcode": "57319",
    "city": "Diedenshausen"
  },
  {
    "postcode": "57319",
    "city": "Dotzlar"
  },
  {
    "postcode": "57319",
    "city": "Elsoff Kreis Wittgenstein"
  },
  {
    "postcode": "57319",
    "city": "Elsoff"
  },
  {
    "postcode": "57319",
    "city": "Girkhausen"
  },
  {
    "postcode": "57319",
    "city": "Hemschlar"
  },
  {
    "postcode": "57319",
    "city": "Raumland"
  },
  {
    "postcode": "57319",
    "city": "Richstein"
  },
  {
    "postcode": "57319",
    "city": "Rinthe"
  },
  {
    "postcode": "57319",
    "city": "Sassenhausen"
  },
  {
    "postcode": "57319",
    "city": "Schüllar Kreis Wittgenstein"
  },
  {
    "postcode": "57319",
    "city": "Schüllar"
  },
  {
    "postcode": "57319",
    "city": "Schwarzenau Eder"
  },
  {
    "postcode": "57319",
    "city": "Schwarzenau"
  },
  {
    "postcode": "57319",
    "city": "Stünzel"
  },
  {
    "postcode": "57319",
    "city": "Weidenhausen Kreis Wittgenstein"
  },
  {
    "postcode": "57319",
    "city": "Weidenhausen"
  },
  {
    "postcode": "57319",
    "city": "Wemlighausen Kreis Wittgenstein"
  },
  {
    "postcode": "57319",
    "city": "Wemlighausen"
  },
  {
    "postcode": "57319",
    "city": "Wingeshausen"
  },
  {
    "postcode": "57319",
    "city": "Wunderthausen"
  },
  {
    "postcode": "57319",
    "city": "Siegen-Wittgenstein"
  },
  {
    "postcode": "57319",
    "city": "Christianseck"
  },
  {
    "postcode": "57319",
    "city": "Gemeinde Bromskirchen"
  },
  {
    "postcode": "57319",
    "city": "Battenberg"
  },
  {
    "postcode": "57319",
    "city": "Trufte"
  },
  {
    "postcode": "57334",
    "city": "Amtshausen"
  },
  {
    "postcode": "57334",
    "city": "Bad Laasphe"
  },
  {
    "postcode": "57334",
    "city": "Banfe"
  },
  {
    "postcode": "57334",
    "city": "Bermershausen"
  },
  {
    "postcode": "57334",
    "city": "Bernshausen"
  },
  {
    "postcode": "57334",
    "city": "Feudingen Kreis Wittgenstein"
  },
  {
    "postcode": "57334",
    "city": "Feudingen"
  },
  {
    "postcode": "57334",
    "city": "Fischelbach"
  },
  {
    "postcode": "57334",
    "city": "Großenbach Kreis Wittgenstein"
  },
  {
    "postcode": "57334",
    "city": "Großenbach"
  },
  {
    "postcode": "57334",
    "city": "Heiligenborn Kreis Wittgenstein"
  },
  {
    "postcode": "57334",
    "city": "Heiligenborn"
  },
  {
    "postcode": "57334",
    "city": "Herbertshausen"
  },
  {
    "postcode": "57334",
    "city": "Hesselbach Kreis Wittgenstein"
  },
  {
    "postcode": "57334",
    "city": "Hesselbach"
  },
  {
    "postcode": "57334",
    "city": "Holzhausen"
  },
  {
    "postcode": "57334",
    "city": "Kunst-Wittgenstein"
  },
  {
    "postcode": "57334",
    "city": "Laaspherhütte"
  },
  {
    "postcode": "57334",
    "city": "Niederlaasphe"
  },
  {
    "postcode": "57334",
    "city": "Oberndorf Kreis Wittgenstein"
  },
  {
    "postcode": "57334",
    "city": "Oberndorf"
  },
  {
    "postcode": "57334",
    "city": "Puderbach Kreis Wittgenstein"
  },
  {
    "postcode": "57334",
    "city": "Puderbach"
  },
  {
    "postcode": "57334",
    "city": "Rückershausen Kreis Wittgenstein"
  },
  {
    "postcode": "57334",
    "city": "Rückershausen"
  },
  {
    "postcode": "57334",
    "city": "Rüppershausen"
  },
  {
    "postcode": "57334",
    "city": "Saßmannshausen"
  },
  {
    "postcode": "57334",
    "city": "Steinbach"
  },
  {
    "postcode": "57334",
    "city": "Volkholz"
  },
  {
    "postcode": "57334",
    "city": "Siegen-Wittgenstein"
  },
  {
    "postcode": "57334",
    "city": "Glashütte"
  },
  {
    "postcode": "57334",
    "city": "Weide"
  },
  {
    "postcode": "57339",
    "city": "Balde"
  },
  {
    "postcode": "57339",
    "city": "Benfe"
  },
  {
    "postcode": "57339",
    "city": "Birkefehl"
  },
  {
    "postcode": "57339",
    "city": "Birkelbach Kreis Wittgenstein"
  },
  {
    "postcode": "57339",
    "city": "Birkelbach"
  },
  {
    "postcode": "57339",
    "city": "Erndtebrück"
  },
  {
    "postcode": "57339",
    "city": "Leimstruth"
  },
  {
    "postcode": "57339",
    "city": "Röspe Kreis Wittgenstein"
  },
  {
    "postcode": "57339",
    "city": "Röspe"
  },
  {
    "postcode": "57339",
    "city": "Schameder"
  },
  {
    "postcode": "57339",
    "city": "Womelsdorf Kreis Wittgenstein"
  },
  {
    "postcode": "57339",
    "city": "Womelsdorf"
  },
  {
    "postcode": "57339",
    "city": "Zinse"
  },
  {
    "postcode": "57339",
    "city": "Siegen-Wittgenstein"
  },
  {
    "postcode": "57368",
    "city": "Altenhundem"
  },
  {
    "postcode": "57368",
    "city": "Altenvalbert"
  },
  {
    "postcode": "57368",
    "city": "Bilstein Westfalen"
  },
  {
    "postcode": "57368",
    "city": "Bilstein"
  },
  {
    "postcode": "57368",
    "city": "Bonzel"
  },
  {
    "postcode": "57368",
    "city": "Brenschede"
  },
  {
    "postcode": "57368",
    "city": "Burbecke Sauerland"
  },
  {
    "postcode": "57368",
    "city": "Burbecke"
  },
  {
    "postcode": "57368",
    "city": "Elspe Sauerland"
  },
  {
    "postcode": "57368",
    "city": "Elspe"
  },
  {
    "postcode": "57368",
    "city": "Ernestus"
  },
  {
    "postcode": "57368",
    "city": "Germaniahütte"
  },
  {
    "postcode": "57368",
    "city": "Gleierbrück Sauerland"
  },
  {
    "postcode": "57368",
    "city": "Gleierbrück"
  },
  {
    "postcode": "57368",
    "city": "Grevenbrück"
  },
  {
    "postcode": "57368",
    "city": "Halberbracht"
  },
  {
    "postcode": "57368",
    "city": "Hespecke"
  },
  {
    "postcode": "57368",
    "city": "Kickenbach über Altenhundem"
  },
  {
    "postcode": "57368",
    "city": "Kirchveischede"
  },
  {
    "postcode": "57368",
    "city": "Langenei"
  },
  {
    "postcode": "57368",
    "city": "Lennestadt"
  },
  {
    "postcode": "57368",
    "city": "Maumke"
  },
  {
    "postcode": "57368",
    "city": "Meggen Lenne"
  },
  {
    "postcode": "57368",
    "city": "Meggen"
  },
  {
    "postcode": "57368",
    "city": "Milchenbach"
  },
  {
    "postcode": "57368",
    "city": "Oberelspe Sauerland"
  },
  {
    "postcode": "57368",
    "city": "Oberelspe"
  },
  {
    "postcode": "57368",
    "city": "Oedingen Sauerland"
  },
  {
    "postcode": "57368",
    "city": "Oedingen"
  },
  {
    "postcode": "57368",
    "city": "Oedingerberg"
  },
  {
    "postcode": "57368",
    "city": "Saalhausen Sauerland"
  },
  {
    "postcode": "57368",
    "city": "Saalhausen"
  },
  {
    "postcode": "57368",
    "city": "Sporke"
  },
  {
    "postcode": "57368",
    "city": "Theten"
  },
  {
    "postcode": "57368",
    "city": "Trockenbrück"
  },
  {
    "postcode": "57368",
    "city": "Olpe"
  },
  {
    "postcode": "57368",
    "city": "Kickenbach"
  },
  {
    "postcode": "57368",
    "city": "Bonzelerhammer"
  },
  {
    "postcode": "57368",
    "city": "Bruchhausen"
  },
  {
    "postcode": "57368",
    "city": "Einsiedelei"
  },
  {
    "postcode": "57368",
    "city": "Elsmecke"
  },
  {
    "postcode": "57368",
    "city": "Elsperhusen"
  },
  {
    "postcode": "57368",
    "city": "Hachen"
  },
  {
    "postcode": "57368",
    "city": "Melbecke"
  },
  {
    "postcode": "57368",
    "city": "Neukamp"
  },
  {
    "postcode": "57368",
    "city": "Obermelbecke"
  },
  {
    "postcode": "57368",
    "city": "Obervalbert"
  },
  {
    "postcode": "57368",
    "city": "Oedingermühle"
  },
  {
    "postcode": "57368",
    "city": "Schmellenberg"
  },
  {
    "postcode": "57368",
    "city": "Stöppel"
  },
  {
    "postcode": "57368",
    "city": "Störmecke"
  },
  {
    "postcode": "57392",
    "city": "Almert Sauerland"
  },
  {
    "postcode": "57392",
    "city": "Almert"
  },
  {
    "postcode": "57392",
    "city": "Altenilpe"
  },
  {
    "postcode": "57392",
    "city": "Arpe"
  },
  {
    "postcode": "57392",
    "city": "Berghausen bei Schmallenberg Sauerland"
  },
  {
    "postcode": "57392",
    "city": "Berghausen bei Schmallenberg"
  },
  {
    "postcode": "57392",
    "city": "Bödefeld"
  },
  {
    "postcode": "57392",
    "city": "Brabecke"
  },
  {
    "postcode": "57392",
    "city": "Bracht Sauerland"
  },
  {
    "postcode": "57392",
    "city": "Bracht"
  },
  {
    "postcode": "57392",
    "city": "Dorlar Sauerland"
  },
  {
    "postcode": "57392",
    "city": "Dorlar"
  },
  {
    "postcode": "57392",
    "city": "Dornheim"
  },
  {
    "postcode": "57392",
    "city": "Felbecke"
  },
  {
    "postcode": "57392",
    "city": "Fleckenberg Sauerland"
  },
  {
    "postcode": "57392",
    "city": "Fleckenberg"
  },
  {
    "postcode": "57392",
    "city": "Gellinghausen"
  },
  {
    "postcode": "57392",
    "city": "Gleidorf Sauerland"
  },
  {
    "postcode": "57392",
    "city": "Gleidorf"
  },
  {
    "postcode": "57392",
    "city": "Grafschaft Sauerland"
  },
  {
    "postcode": "57392",
    "city": "Grafschaft"
  },
  {
    "postcode": "57392",
    "city": "Grimminghausen"
  },
  {
    "postcode": "57392",
    "city": "Harbecke Sauerland"
  },
  {
    "postcode": "57392",
    "city": "Harbecke"
  },
  {
    "postcode": "57392",
    "city": "Heiminghausen"
  },
  {
    "postcode": "57392",
    "city": "Holthausen Sauerland"
  },
  {
    "postcode": "57392",
    "city": "Holthausen"
  },
  {
    "postcode": "57392",
    "city": "Hundesossen Sauerland"
  },
  {
    "postcode": "57392",
    "city": "Hundesossen"
  },
  {
    "postcode": "57392",
    "city": "Huxel Sauerland"
  },
  {
    "postcode": "57392",
    "city": "Huxel"
  },
  {
    "postcode": "57392",
    "city": "Inderlenne Sauerland"
  },
  {
    "postcode": "57392",
    "city": "Inderlenne"
  },
  {
    "postcode": "57392",
    "city": "Jagdhaus Sauerland"
  },
  {
    "postcode": "57392",
    "city": "Jagdhaus"
  },
  {
    "postcode": "57392",
    "city": "Kirchilpe"
  },
  {
    "postcode": "57392",
    "city": "Kirchrarbach"
  },
  {
    "postcode": "57392",
    "city": "Latrop Sauerland"
  },
  {
    "postcode": "57392",
    "city": "Latrop"
  },
  {
    "postcode": "57392",
    "city": "Lengenbeck Sauerland"
  },
  {
    "postcode": "57392",
    "city": "Lengenbeck"
  },
  {
    "postcode": "57392",
    "city": "Lenne Sauerland"
  },
  {
    "postcode": "57392",
    "city": "Lenne"
  },
  {
    "postcode": "57392",
    "city": "Mailar"
  },
  {
    "postcode": "57392",
    "city": "Menkhausen"
  },
  {
    "postcode": "57392",
    "city": "Mittelsorpe"
  },
  {
    "postcode": "57392",
    "city": "Mönekind"
  },
  {
    "postcode": "57392",
    "city": "Nesselbach"
  },
  {
    "postcode": "57392",
    "city": "Niederberndorf"
  },
  {
    "postcode": "57392",
    "city": "Niederhenneborn"
  },
  {
    "postcode": "57392",
    "city": "Niedersorpe"
  },
  {
    "postcode": "57392",
    "city": "Nordenau"
  },
  {
    "postcode": "57392",
    "city": "Oberberndorf"
  },
  {
    "postcode": "57392",
    "city": "Oberhenneborn"
  },
  {
    "postcode": "57392",
    "city": "Oberkirchen Sauerland"
  },
  {
    "postcode": "57392",
    "city": "Oberkirchen"
  },
  {
    "postcode": "57392",
    "city": "Oberrarbach"
  },
  {
    "postcode": "57392",
    "city": "Obersorpe"
  },
  {
    "postcode": "57392",
    "city": "Obringhausen"
  },
  {
    "postcode": "57392",
    "city": "Ohlenbach Sauerland"
  },
  {
    "postcode": "57392",
    "city": "Ohlenbach"
  },
  {
    "postcode": "57392",
    "city": "Osterwald Sauerland"
  },
  {
    "postcode": "57392",
    "city": "Osterwald"
  },
  {
    "postcode": "57392",
    "city": "Rehsiepen"
  },
  {
    "postcode": "57392",
    "city": "Schanze Sauerland"
  },
  {
    "postcode": "57392",
    "city": "Schanze"
  },
  {
    "postcode": "57392",
    "city": "Schmallenberg"
  },
  {
    "postcode": "57392",
    "city": "Selkentrop"
  },
  {
    "postcode": "57392",
    "city": "Sellinghausen"
  },
  {
    "postcode": "57392",
    "city": "Sögtrop"
  },
  {
    "postcode": "57392",
    "city": "Werntrop"
  },
  {
    "postcode": "57392",
    "city": "Werpe"
  },
  {
    "postcode": "57392",
    "city": "Westernbödefeld"
  },
  {
    "postcode": "57392",
    "city": "Westfeld Sauerland"
  },
  {
    "postcode": "57392",
    "city": "Westfeld"
  },
  {
    "postcode": "57392",
    "city": "Winkhausen"
  },
  {
    "postcode": "57392",
    "city": "Wormbach"
  },
  {
    "postcode": "57392",
    "city": "Hochsauerlandkreis"
  },
  {
    "postcode": "57392",
    "city": "Bad Fredeburg"
  },
  {
    "postcode": "57392",
    "city": "Altenhof"
  },
  {
    "postcode": "57392",
    "city": "Berghausen"
  },
  {
    "postcode": "57392",
    "city": "Berghof"
  },
  {
    "postcode": "57392",
    "city": "Bettenkamp"
  },
  {
    "postcode": "57392",
    "city": "Ebbinghof"
  },
  {
    "postcode": "57392",
    "city": "Föckinghausen"
  },
  {
    "postcode": "57392",
    "city": "Herschede"
  },
  {
    "postcode": "57392",
    "city": "Kückelheim"
  },
  {
    "postcode": "57392",
    "city": "Landenbeckerbruch"
  },
  {
    "postcode": "57392",
    "city": "Silberg"
  },
  {
    "postcode": "57392",
    "city": "Hebbecke"
  },
  {
    "postcode": "57392",
    "city": "Wulwesort"
  },
  {
    "postcode": "57392",
    "city": "Vorwald"
  },
  {
    "postcode": "57392",
    "city": "Hengsiepen"
  },
  {
    "postcode": "57392",
    "city": "Rimberg"
  },
  {
    "postcode": "57392",
    "city": "Waidmannsruh"
  },
  {
    "postcode": "57392",
    "city": "Hanxleden"
  },
  {
    "postcode": "57392",
    "city": "Hiege"
  },
  {
    "postcode": "57392",
    "city": "Hoher Knochen"
  },
  {
    "postcode": "57392",
    "city": "Keppel"
  },
  {
    "postcode": "57392",
    "city": "Lanfert"
  },
  {
    "postcode": "57392",
    "city": "Nierentrop"
  },
  {
    "postcode": "57392",
    "city": "Rellmecke"
  },
  {
    "postcode": "57392",
    "city": "Rotbusch"
  },
  {
    "postcode": "57392",
    "city": "Sellmecke"
  },
  {
    "postcode": "57392",
    "city": "Sonderhof"
  },
  {
    "postcode": "57392",
    "city": "Störmecke"
  },
  {
    "postcode": "57392",
    "city": "Twismecke"
  },
  {
    "postcode": "57392",
    "city": "Walbecke"
  },
  {
    "postcode": "57399",
    "city": "Albaum"
  },
  {
    "postcode": "57399",
    "city": "Benolpe"
  },
  {
    "postcode": "57399",
    "city": "Brachthausen"
  },
  {
    "postcode": "57399",
    "city": "Flape"
  },
  {
    "postcode": "57399",
    "city": "Heinsberg Westfalen"
  },
  {
    "postcode": "57399",
    "city": "Heinsberg"
  },
  {
    "postcode": "57399",
    "city": "Herrntrop"
  },
  {
    "postcode": "57399",
    "city": "Hofolpe"
  },
  {
    "postcode": "57399",
    "city": "Kirchhundem"
  },
  {
    "postcode": "57399",
    "city": "Kruberg"
  },
  {
    "postcode": "57399",
    "city": "Marmecke"
  },
  {
    "postcode": "57399",
    "city": "Oberhundem"
  },
  {
    "postcode": "57399",
    "city": "Rahrbach"
  },
  {
    "postcode": "57399",
    "city": "Rinsecke"
  },
  {
    "postcode": "57399",
    "city": "Schwartmecke"
  },
  {
    "postcode": "57399",
    "city": "Selbecke"
  },
  {
    "postcode": "57399",
    "city": "Silberg"
  },
  {
    "postcode": "57399",
    "city": "Varste"
  },
  {
    "postcode": "57399",
    "city": "Welschen Ennest"
  },
  {
    "postcode": "57399",
    "city": "Wirme"
  },
  {
    "postcode": "57399",
    "city": "Würdinghausen"
  },
  {
    "postcode": "57399",
    "city": "Olpe"
  },
  {
    "postcode": "57399",
    "city": "Ahe"
  },
  {
    "postcode": "57399",
    "city": "Alpenhaus"
  },
  {
    "postcode": "57399",
    "city": "Arnoldihof"
  },
  {
    "postcode": "57399",
    "city": "Böminghausen"
  },
  {
    "postcode": "57399",
    "city": "Böminghauser Werk"
  },
  {
    "postcode": "57399",
    "city": "Berghof"
  },
  {
    "postcode": "57399",
    "city": "Bettinghof"
  },
  {
    "postcode": "57399",
    "city": "Breitenbruch"
  },
  {
    "postcode": "57399",
    "city": "Emlinghausen"
  },
  {
    "postcode": "57399",
    "city": "Erlhof"
  },
  {
    "postcode": "57399",
    "city": "Haus Bruch"
  },
  {
    "postcode": "57399",
    "city": "Heidschott"
  },
  {
    "postcode": "57399",
    "city": "Kohlhagen"
  },
  {
    "postcode": "57399",
    "city": "Mark"
  },
  {
    "postcode": "57399",
    "city": "Rahrbacher Höhe"
  },
  {
    "postcode": "57399",
    "city": "Rhein-Weser-Turm"
  },
  {
    "postcode": "57399",
    "city": "Rüspe"
  },
  {
    "postcode": "57399",
    "city": "Stelborn"
  },
  {
    "postcode": "57399",
    "city": "Vasbach"
  },
  {
    "postcode": "57413",
    "city": "Altfinnentrop"
  },
  {
    "postcode": "57413",
    "city": "Bamenohl"
  },
  {
    "postcode": "57413",
    "city": "Deutmecke"
  },
  {
    "postcode": "57413",
    "city": "Finnentrop"
  },
  {
    "postcode": "57413",
    "city": "Fretter"
  },
  {
    "postcode": "57413",
    "city": "Frettermühle"
  },
  {
    "postcode": "57413",
    "city": "Gierschlade"
  },
  {
    "postcode": "57413",
    "city": "Heggen Biggetal"
  },
  {
    "postcode": "57413",
    "city": "Heggen"
  },
  {
    "postcode": "57413",
    "city": "Hülschotten über Finnentrop"
  },
  {
    "postcode": "57413",
    "city": "Lenhausen Sauerland"
  },
  {
    "postcode": "57413",
    "city": "Lenhausen"
  },
  {
    "postcode": "57413",
    "city": "Müllen Sauerland"
  },
  {
    "postcode": "57413",
    "city": "Müllen"
  },
  {
    "postcode": "57413",
    "city": "Ostentrop"
  },
  {
    "postcode": "57413",
    "city": "Rönkhausen"
  },
  {
    "postcode": "57413",
    "city": "Sange über Finnentrop Sauerland"
  },
  {
    "postcode": "57413",
    "city": "Sange über Finnentrop"
  },
  {
    "postcode": "57413",
    "city": "Schliprüthen"
  },
  {
    "postcode": "57413",
    "city": "Schöndelt Sauerland"
  },
  {
    "postcode": "57413",
    "city": "Schöndelt"
  },
  {
    "postcode": "57413",
    "city": "Schönholthausen"
  },
  {
    "postcode": "57413",
    "city": "Serkenrode"
  },
  {
    "postcode": "57413",
    "city": "Weringhausen"
  },
  {
    "postcode": "57413",
    "city": "Weuspert"
  },
  {
    "postcode": "57413",
    "city": "Wörden"
  },
  {
    "postcode": "57413",
    "city": "Olpe"
  },
  {
    "postcode": "57413",
    "city": "Ahausen"
  },
  {
    "postcode": "57413",
    "city": "Ahauser Mühle"
  },
  {
    "postcode": "57413",
    "city": "Hülschotten"
  },
  {
    "postcode": "57413",
    "city": "Illeschlade"
  },
  {
    "postcode": "57413",
    "city": "Bausenrode"
  },
  {
    "postcode": "57413",
    "city": "Becksiepen"
  },
  {
    "postcode": "57413",
    "city": "Dahm"
  },
  {
    "postcode": "57413",
    "city": "Elsmecke"
  },
  {
    "postcode": "57413",
    "city": "Faulebutter"
  },
  {
    "postcode": "57413",
    "city": "Fehrenbracht"
  },
  {
    "postcode": "57413",
    "city": "Mißmecke"
  },
  {
    "postcode": "57413",
    "city": "Frielentrop"
  },
  {
    "postcode": "57413",
    "city": "Hausstätte"
  },
  {
    "postcode": "57413",
    "city": "Hollenbock"
  },
  {
    "postcode": "57413",
    "city": "Sange"
  },
  {
    "postcode": "57413",
    "city": "Klingelborn"
  },
  {
    "postcode": "57413",
    "city": "Kuckuck"
  },
  {
    "postcode": "57413",
    "city": "Permecke"
  },
  {
    "postcode": "57413",
    "city": "Ramscheid"
  },
  {
    "postcode": "57413",
    "city": "Schliprüthen-Mühle"
  },
  {
    "postcode": "57413",
    "city": "Schwartmecke"
  },
  {
    "postcode": "57413",
    "city": "Steinsiepen"
  },
  {
    "postcode": "57413",
    "city": "Tiefenau"
  },
  {
    "postcode": "57413",
    "city": "Wiebelhausen"
  },
  {
    "postcode": "57439",
    "city": "Albringhausen Sauerland"
  },
  {
    "postcode": "57439",
    "city": "Albringhausen"
  },
  {
    "postcode": "57439",
    "city": "Attendorn"
  },
  {
    "postcode": "57439",
    "city": "Beukenbeul Sauerland"
  },
  {
    "postcode": "57439",
    "city": "Beukenbeul"
  },
  {
    "postcode": "57439",
    "city": "Biekhofen Westfalen"
  },
  {
    "postcode": "57439",
    "city": "Biekhofen"
  },
  {
    "postcode": "57439",
    "city": "Borghausen"
  },
  {
    "postcode": "57439",
    "city": "Bürberg"
  },
  {
    "postcode": "57439",
    "city": "Dünschede"
  },
  {
    "postcode": "57439",
    "city": "Eichen"
  },
  {
    "postcode": "57439",
    "city": "Ennest"
  },
  {
    "postcode": "57439",
    "city": "Hebberg"
  },
  {
    "postcode": "57439",
    "city": "Helden"
  },
  {
    "postcode": "57439",
    "city": "Kraghammer Biggesee"
  },
  {
    "postcode": "57439",
    "city": "Kraghammer"
  },
  {
    "postcode": "57439",
    "city": "Lichtringhausen"
  },
  {
    "postcode": "57439",
    "city": "Listerscheid Sauerland"
  },
  {
    "postcode": "57439",
    "city": "Listerscheid"
  },
  {
    "postcode": "57439",
    "city": "Mecklinghausen"
  },
  {
    "postcode": "57439",
    "city": "Merklinghausen Sauerland"
  },
  {
    "postcode": "57439",
    "city": "Merklinghausen"
  },
  {
    "postcode": "57439",
    "city": "Neuenhof"
  },
  {
    "postcode": "57439",
    "city": "Niederhelden"
  },
  {
    "postcode": "57439",
    "city": "Petersburg Sauerland"
  },
  {
    "postcode": "57439",
    "city": "Petersburg"
  },
  {
    "postcode": "57439",
    "city": "Repe"
  },
  {
    "postcode": "57439",
    "city": "Rieflinghausen"
  },
  {
    "postcode": "57439",
    "city": "Röllecken"
  },
  {
    "postcode": "57439",
    "city": "Silbecke"
  },
  {
    "postcode": "57439",
    "city": "Weuste"
  },
  {
    "postcode": "57439",
    "city": "Windhausen bei Attendorn Westfalen"
  },
  {
    "postcode": "57439",
    "city": "Windhausen bei Attendorn"
  },
  {
    "postcode": "57439",
    "city": "Olpe"
  },
  {
    "postcode": "57439",
    "city": "Neu-Listernohl"
  },
  {
    "postcode": "57439",
    "city": "Windhausen"
  },
  {
    "postcode": "57439",
    "city": "Holzweg"
  },
  {
    "postcode": "57439",
    "city": "St. Claas"
  },
  {
    "postcode": "57439",
    "city": "Rauterkusen"
  },
  {
    "postcode": "57439",
    "city": "Berlinghausen"
  },
  {
    "postcode": "57439",
    "city": "Biggen"
  },
  {
    "postcode": "57439",
    "city": "Ewig"
  },
  {
    "postcode": "57439",
    "city": "Bremge b. Ennest"
  },
  {
    "postcode": "57439",
    "city": "Dahlhausen"
  },
  {
    "postcode": "57439",
    "city": "Ebbelinghagen"
  },
  {
    "postcode": "57439",
    "city": "Erbscheid"
  },
  {
    "postcode": "57439",
    "city": "Erlen"
  },
  {
    "postcode": "57439",
    "city": "Wamge"
  },
  {
    "postcode": "57439",
    "city": "Weschede"
  },
  {
    "postcode": "57439",
    "city": "Fernholte"
  },
  {
    "postcode": "57439",
    "city": "Forsthaus Ebbe"
  },
  {
    "postcode": "57439",
    "city": "Aufderhöhe"
  },
  {
    "postcode": "57439",
    "city": "Weltringhausen"
  },
  {
    "postcode": "57439",
    "city": "Papiermühle"
  },
  {
    "postcode": "57439",
    "city": "Hofkühl"
  },
  {
    "postcode": "57439",
    "city": "Hohen Hagen"
  },
  {
    "postcode": "57439",
    "city": "Milstenau"
  },
  {
    "postcode": "57439",
    "city": "Nuttmecke"
  },
  {
    "postcode": "57439",
    "city": "Jäckelchen"
  },
  {
    "postcode": "57439",
    "city": "Wörmge"
  },
  {
    "postcode": "57439",
    "city": "Keseberg"
  },
  {
    "postcode": "57439",
    "city": "Rautersbeul"
  },
  {
    "postcode": "57439",
    "city": "Roscheid"
  },
  {
    "postcode": "57439",
    "city": "Schnellenberg"
  },
  {
    "postcode": "57439",
    "city": "Uelhof"
  },
  {
    "postcode": "57439",
    "city": "Voßsiepen"
  },
  {
    "postcode": "57462",
    "city": "Altenkleusheim"
  },
  {
    "postcode": "57462",
    "city": "Bruch"
  },
  {
    "postcode": "57462",
    "city": "Dahl Biggetal"
  },
  {
    "postcode": "57462",
    "city": "Dahl"
  },
  {
    "postcode": "57462",
    "city": "Eichhagen Biggesee"
  },
  {
    "postcode": "57462",
    "city": "Eichhagen"
  },
  {
    "postcode": "57462",
    "city": "Griesemert"
  },
  {
    "postcode": "57462",
    "city": "Günsen"
  },
  {
    "postcode": "57462",
    "city": "Hohl"
  },
  {
    "postcode": "57462",
    "city": "Howald"
  },
  {
    "postcode": "57462",
    "city": "Lütringhausen"
  },
  {
    "postcode": "57462",
    "city": "Mittelneger"
  },
  {
    "postcode": "57462",
    "city": "Neuenkleusheim"
  },
  {
    "postcode": "57462",
    "city": "Oberveischede"
  },
  {
    "postcode": "57462",
    "city": "Olpe"
  },
  {
    "postcode": "57462",
    "city": "Olpe Biggesee"
  },
  {
    "postcode": "57462",
    "city": "Rehringhausen"
  },
  {
    "postcode": "57462",
    "city": "Rhode Kreis Olpe Biggesee"
  },
  {
    "postcode": "57462",
    "city": "Rhode"
  },
  {
    "postcode": "57462",
    "city": "Rhonard über Olpe Biggesee"
  },
  {
    "postcode": "57462",
    "city": "Rhonard über Olpe"
  },
  {
    "postcode": "57462",
    "city": "Rüblinghausen"
  },
  {
    "postcode": "57462",
    "city": "Saßmicke"
  },
  {
    "postcode": "57462",
    "city": "Sondern Biggesee"
  },
  {
    "postcode": "57462",
    "city": "Sondern"
  },
  {
    "postcode": "57462",
    "city": "Stachelau"
  },
  {
    "postcode": "57462",
    "city": "Stade Biggesee"
  },
  {
    "postcode": "57462",
    "city": "Stade"
  },
  {
    "postcode": "57462",
    "city": "Thieringhausen"
  },
  {
    "postcode": "57462",
    "city": "Unterneger"
  },
  {
    "postcode": "57462",
    "city": "Waukemicke"
  },
  {
    "postcode": "57462",
    "city": "Oberneger"
  },
  {
    "postcode": "57462",
    "city": "Apollmicke"
  },
  {
    "postcode": "57462",
    "city": "Friedrichsthal"
  },
  {
    "postcode": "57462",
    "city": "Fahlenscheid"
  },
  {
    "postcode": "57462",
    "city": "Grube Rhonard"
  },
  {
    "postcode": "57462",
    "city": "Rhonard"
  },
  {
    "postcode": "57462",
    "city": "Haardt"
  },
  {
    "postcode": "57462",
    "city": "Hanemicke"
  },
  {
    "postcode": "57462",
    "city": "Hitzendumicke"
  },
  {
    "postcode": "57462",
    "city": "Hof Siele"
  },
  {
    "postcode": "57462",
    "city": "Hüppcherhammer"
  },
  {
    "postcode": "57462",
    "city": "Kessenhammer"
  },
  {
    "postcode": "57462",
    "city": "Kirchesohl"
  },
  {
    "postcode": "57462",
    "city": "Möllendick"
  },
  {
    "postcode": "57462",
    "city": "Neuenwald"
  },
  {
    "postcode": "57462",
    "city": "Ronnewinkel"
  },
  {
    "postcode": "57462",
    "city": "Rosenthal"
  },
  {
    "postcode": "57462",
    "city": "Siedenstein"
  },
  {
    "postcode": "57462",
    "city": "Tecklinghausen"
  },
  {
    "postcode": "57482",
    "city": "Altenhof Kreis Olpe Biggesee"
  },
  {
    "postcode": "57482",
    "city": "Altenhof"
  },
  {
    "postcode": "57482",
    "city": "Bebbingen Biggetal"
  },
  {
    "postcode": "57482",
    "city": "Bebbingen"
  },
  {
    "postcode": "57482",
    "city": "Brün Kreis Olpe Biggesee"
  },
  {
    "postcode": "57482",
    "city": "Brün"
  },
  {
    "postcode": "57482",
    "city": "Büchen Biggetal"
  },
  {
    "postcode": "57482",
    "city": "Büchen"
  },
  {
    "postcode": "57482",
    "city": "Döingen Biggetal"
  },
  {
    "postcode": "57482",
    "city": "Döingen"
  },
  {
    "postcode": "57482",
    "city": "Dörnscheid"
  },
  {
    "postcode": "57482",
    "city": "Elben Kreis Olpe Biggesee"
  },
  {
    "postcode": "57482",
    "city": "Elben"
  },
  {
    "postcode": "57482",
    "city": "Gerlingen Biggetal"
  },
  {
    "postcode": "57482",
    "city": "Gerlingen"
  },
  {
    "postcode": "57482",
    "city": "Heid über Olpe Biggesee"
  },
  {
    "postcode": "57482",
    "city": "Heid über Olpe"
  },
  {
    "postcode": "57482",
    "city": "Hillmicke"
  },
  {
    "postcode": "57482",
    "city": "Hünsborn"
  },
  {
    "postcode": "57482",
    "city": "Möllmicke Kreis Olpe Biggesee"
  },
  {
    "postcode": "57482",
    "city": "Möllmicke"
  },
  {
    "postcode": "57482",
    "city": "Ottfingen Westfalen"
  },
  {
    "postcode": "57482",
    "city": "Ottfingen"
  },
  {
    "postcode": "57482",
    "city": "Römershagen"
  },
  {
    "postcode": "57482",
    "city": "Rothemühle Biggetal"
  },
  {
    "postcode": "57482",
    "city": "Rothemühle"
  },
  {
    "postcode": "57482",
    "city": "Schönau Kreis Olpe Biggesee"
  },
  {
    "postcode": "57482",
    "city": "Schönau"
  },
  {
    "postcode": "57482",
    "city": "Wenden Biggetal"
  },
  {
    "postcode": "57482",
    "city": "Wenden"
  },
  {
    "postcode": "57482",
    "city": "Wenden Südsauerland"
  },
  {
    "postcode": "57482",
    "city": "Wendenerhütte"
  },
  {
    "postcode": "57482",
    "city": "Olpe"
  },
  {
    "postcode": "57482",
    "city": "Heid"
  },
  {
    "postcode": "57482",
    "city": "Rothenborn"
  },
  {
    "postcode": "57482",
    "city": "Eichertshof"
  },
  {
    "postcode": "57482",
    "city": "Girkhausen"
  },
  {
    "postcode": "57482",
    "city": "Vahlberg"
  },
  {
    "postcode": "57482",
    "city": "Huppen"
  },
  {
    "postcode": "57482",
    "city": "Löffelberg"
  },
  {
    "postcode": "57482",
    "city": "Scheiderwald"
  },
  {
    "postcode": "57482",
    "city": "Schwarzbruch"
  },
  {
    "postcode": "57482",
    "city": "Trömbach"
  },
  {
    "postcode": "57482",
    "city": "Wilhelmstal"
  },
  {
    "postcode": "57489",
    "city": "Benolpe"
  },
  {
    "postcode": "57489",
    "city": "Bleche"
  },
  {
    "postcode": "57489",
    "city": "Brachtpe"
  },
  {
    "postcode": "57489",
    "city": "Bühren"
  },
  {
    "postcode": "57489",
    "city": "Drolshagen"
  },
  {
    "postcode": "57489",
    "city": "Dumicke Biggesee"
  },
  {
    "postcode": "57489",
    "city": "Dumicke"
  },
  {
    "postcode": "57489",
    "city": "Essinghausen"
  },
  {
    "postcode": "57489",
    "city": "Frenkhausen über Olpe Biggesee"
  },
  {
    "postcode": "57489",
    "city": "Frenkhausen über Olpe"
  },
  {
    "postcode": "57489",
    "city": "Gelslingen"
  },
  {
    "postcode": "57489",
    "city": "Germinghausen"
  },
  {
    "postcode": "57489",
    "city": "Grünenthal"
  },
  {
    "postcode": "57489",
    "city": "Halbhusten"
  },
  {
    "postcode": "57489",
    "city": "Herpel"
  },
  {
    "postcode": "57489",
    "city": "Husten"
  },
  {
    "postcode": "57489",
    "city": "Hützemert"
  },
  {
    "postcode": "57489",
    "city": "Iseringhausen"
  },
  {
    "postcode": "57489",
    "city": "Köbbinghausen"
  },
  {
    "postcode": "57489",
    "city": "Neuenhaus"
  },
  {
    "postcode": "57489",
    "city": "Scheda"
  },
  {
    "postcode": "57489",
    "city": "Schlade"
  },
  {
    "postcode": "57489",
    "city": "Schreibershof"
  },
  {
    "postcode": "57489",
    "city": "Schürholz"
  },
  {
    "postcode": "57489",
    "city": "Sendschotten"
  },
  {
    "postcode": "57489",
    "city": "Wegeringhausen"
  },
  {
    "postcode": "57489",
    "city": "Olpe"
  },
  {
    "postcode": "57489",
    "city": "Frenkhausen"
  },
  {
    "postcode": "57489",
    "city": "Alperscheid"
  },
  {
    "postcode": "57489",
    "city": "Feldmannshof"
  },
  {
    "postcode": "57489",
    "city": "Eichen"
  },
  {
    "postcode": "57489",
    "city": "Berlinghausen"
  },
  {
    "postcode": "57489",
    "city": "Junkernhöh"
  },
  {
    "postcode": "57489",
    "city": "Lüdespert"
  },
  {
    "postcode": "57489",
    "city": "Heimicke"
  },
  {
    "postcode": "57489",
    "city": "Öhringhausen"
  },
  {
    "postcode": "57489",
    "city": "Wenkhausen"
  },
  {
    "postcode": "57489",
    "city": "Breitehardt"
  },
  {
    "postcode": "57489",
    "city": "Brink"
  },
  {
    "postcode": "57489",
    "city": "Bruch"
  },
  {
    "postcode": "57489",
    "city": "Buchhagen"
  },
  {
    "postcode": "57489",
    "city": "Fohrt"
  },
  {
    "postcode": "57489",
    "city": "Dirkingen"
  },
  {
    "postcode": "57489",
    "city": "Eichenermühle"
  },
  {
    "postcode": "57489",
    "city": "Eltge"
  },
  {
    "postcode": "57489",
    "city": "Fahrenschotten"
  },
  {
    "postcode": "57489",
    "city": "Frenkhauserhöh"
  },
  {
    "postcode": "57489",
    "city": "Gipperich"
  },
  {
    "postcode": "57489",
    "city": "Hammerteich"
  },
  {
    "postcode": "57489",
    "city": "Beul"
  },
  {
    "postcode": "57489",
    "city": "Heiderhof"
  },
  {
    "postcode": "57489",
    "city": "Hespecke"
  },
  {
    "postcode": "57489",
    "city": "Hustert"
  },
  {
    "postcode": "57489",
    "city": "Kalberschnacke"
  },
  {
    "postcode": "57489",
    "city": "Kram"
  },
  {
    "postcode": "57489",
    "city": "Potzenhof"
  },
  {
    "postcode": "57489",
    "city": "Schlenke"
  },
  {
    "postcode": "57489",
    "city": "Schützenbruch"
  },
  {
    "postcode": "57489",
    "city": "Siebringhausen"
  },
  {
    "postcode": "57489",
    "city": "Stupperhof"
  },
  {
    "postcode": "57489",
    "city": "Wintersohl"
  },
  {
    "postcode": "57489",
    "city": "Wormberg"
  },
  {
    "postcode": "57518",
    "city": "Alsdorf Sieg"
  },
  {
    "postcode": "57518",
    "city": "Alsdorf"
  },
  {
    "postcode": "57518",
    "city": "Betzdorf"
  },
  {
    "postcode": "57518",
    "city": "Betzdorf Sieg"
  },
  {
    "postcode": "57518",
    "city": "Dauersberg"
  },
  {
    "postcode": "57518",
    "city": "Steineroth"
  },
  {
    "postcode": "57518",
    "city": "Altenkirchen"
  },
  {
    "postcode": "57520",
    "city": "Derschen"
  },
  {
    "postcode": "57520",
    "city": "Dickendorf"
  },
  {
    "postcode": "57520",
    "city": "Emmerzhausen"
  },
  {
    "postcode": "57520",
    "city": "Friedewald Westerwald"
  },
  {
    "postcode": "57520",
    "city": "Friedewald"
  },
  {
    "postcode": "57520",
    "city": "Grünebach"
  },
  {
    "postcode": "57520",
    "city": "Kausen bei Betzdorf"
  },
  {
    "postcode": "57520",
    "city": "Langenbach bei Kirburg"
  },
  {
    "postcode": "57520",
    "city": "Mauden"
  },
  {
    "postcode": "57520",
    "city": "Molzhain"
  },
  {
    "postcode": "57520",
    "city": "Neunkhausen"
  },
  {
    "postcode": "57520",
    "city": "Niederdreisbach Westerwald"
  },
  {
    "postcode": "57520",
    "city": "Niederdreisbach"
  },
  {
    "postcode": "57520",
    "city": "Rosenheim (Landkreis Altenkirchen)"
  },
  {
    "postcode": "57520",
    "city": "Rosenheim"
  },
  {
    "postcode": "57520",
    "city": "Schutzbach"
  },
  {
    "postcode": "57520",
    "city": "Seifen"
  },
  {
    "postcode": "57520",
    "city": "Steinebach / Sieg"
  },
  {
    "postcode": "57520",
    "city": "Steinebach"
  },
  {
    "postcode": "57520",
    "city": "Altenkirchen"
  },
  {
    "postcode": "57520",
    "city": "Kausen"
  },
  {
    "postcode": "57520",
    "city": "Rosenheim (Landkreis Altenkirc"
  },
  {
    "postcode": "57520",
    "city": "Rosenheimerlay"
  },
  {
    "postcode": "57520",
    "city": "Biesenstück"
  },
  {
    "postcode": "57537",
    "city": "Forst"
  },
  {
    "postcode": "57537",
    "city": "Forst bei Wissen"
  },
  {
    "postcode": "57537",
    "city": "Hof Holpe"
  },
  {
    "postcode": "57537",
    "city": "Hövels"
  },
  {
    "postcode": "57537",
    "city": "Mittelhof Sieg"
  },
  {
    "postcode": "57537",
    "city": "Mittelhof"
  },
  {
    "postcode": "57537",
    "city": "Nisterberg Sieg"
  },
  {
    "postcode": "57537",
    "city": "Nisterberg"
  },
  {
    "postcode": "57537",
    "city": "Seifen bei Wissen Sieg"
  },
  {
    "postcode": "57537",
    "city": "Seifen bei Wissen"
  },
  {
    "postcode": "57537",
    "city": "Selbach (Sieg)"
  },
  {
    "postcode": "57537",
    "city": "Selbach"
  },
  {
    "postcode": "57537",
    "city": "Wissen Sieg"
  },
  {
    "postcode": "57537",
    "city": "Wissen"
  },
  {
    "postcode": "57537",
    "city": "Altenkirchen"
  },
  {
    "postcode": "57537",
    "city": "Dellingen"
  },
  {
    "postcode": "57537",
    "city": "Kaltau"
  },
  {
    "postcode": "57537",
    "city": "Langenbach"
  },
  {
    "postcode": "57537",
    "city": "Thal"
  },
  {
    "postcode": "57537",
    "city": "Seifen"
  },
  {
    "postcode": "57537",
    "city": "Neuhöfchen"
  },
  {
    "postcode": "57537",
    "city": "Seifermühle"
  },
  {
    "postcode": "57537",
    "city": "Wäldchen"
  },
  {
    "postcode": "57537",
    "city": "Siegenthal"
  },
  {
    "postcode": "57539",
    "city": "Bitzen bei Wissen"
  },
  {
    "postcode": "57539",
    "city": "Breitscheidt Sieg"
  },
  {
    "postcode": "57539",
    "city": "Breitscheidt"
  },
  {
    "postcode": "57539",
    "city": "Bruchertseifen"
  },
  {
    "postcode": "57539",
    "city": "Dünebusch"
  },
  {
    "postcode": "57539",
    "city": "Etzbach"
  },
  {
    "postcode": "57539",
    "city": "Fürthen"
  },
  {
    "postcode": "57539",
    "city": "Haderschen"
  },
  {
    "postcode": "57539",
    "city": "Heckenhof bei Hamm Sieg"
  },
  {
    "postcode": "57539",
    "city": "Heckenhof bei Hamm"
  },
  {
    "postcode": "57539",
    "city": "Hohensayn bei Wissen Sieg"
  },
  {
    "postcode": "57539",
    "city": "Hohensayn bei Wissen"
  },
  {
    "postcode": "57539",
    "city": "Hövels"
  },
  {
    "postcode": "57539",
    "city": "Opsen"
  },
  {
    "postcode": "57539",
    "city": "Roth bei Hamm"
  },
  {
    "postcode": "57539",
    "city": "Selbach (Sieg)"
  },
  {
    "postcode": "57539",
    "city": "Selbach"
  },
  {
    "postcode": "57539",
    "city": "Unterschützen Sieg"
  },
  {
    "postcode": "57539",
    "city": "Unterschützen"
  },
  {
    "postcode": "57539",
    "city": "Altenkirchen"
  },
  {
    "postcode": "57539",
    "city": "Bitzen"
  },
  {
    "postcode": "57539",
    "city": "Heckenhof"
  },
  {
    "postcode": "57539",
    "city": "Herrgottsau"
  },
  {
    "postcode": "57539",
    "city": "Neuschlade"
  },
  {
    "postcode": "57539",
    "city": "Roth"
  },
  {
    "postcode": "57539",
    "city": "Hämmerholz"
  },
  {
    "postcode": "57548",
    "city": "Freusburg"
  },
  {
    "postcode": "57548",
    "city": "Herkersdorf"
  },
  {
    "postcode": "57548",
    "city": "Katzenbach Sieg"
  },
  {
    "postcode": "57548",
    "city": "Katzenbach"
  },
  {
    "postcode": "57548",
    "city": "Kirchen (Sieg)"
  },
  {
    "postcode": "57548",
    "city": "Kirchen"
  },
  {
    "postcode": "57548",
    "city": "Offhausen"
  },
  {
    "postcode": "57548",
    "city": "Wehbach"
  },
  {
    "postcode": "57548",
    "city": "Wingendorf über Betzdorf Sieg"
  },
  {
    "postcode": "57548",
    "city": "Wingendorf über Betzdorf"
  },
  {
    "postcode": "57548",
    "city": "Altenkirchen"
  },
  {
    "postcode": "57548",
    "city": "Diedenberg"
  },
  {
    "postcode": "57548",
    "city": "Wingendorf"
  },
  {
    "postcode": "57555",
    "city": "Brachbach Sieg"
  },
  {
    "postcode": "57555",
    "city": "Brachbach"
  },
  {
    "postcode": "57555",
    "city": "Mudersbach Sieg"
  },
  {
    "postcode": "57555",
    "city": "Mudersbach"
  },
  {
    "postcode": "57555",
    "city": "Altenkirchen"
  },
  {
    "postcode": "57555",
    "city": "Euteneuen"
  },
  {
    "postcode": "57562",
    "city": "Dermbach Sieg"
  },
  {
    "postcode": "57562",
    "city": "Dermbach"
  },
  {
    "postcode": "57562",
    "city": "Herdorf"
  },
  {
    "postcode": "57562",
    "city": "Herdorf Sieg"
  },
  {
    "postcode": "57562",
    "city": "Sassenroth"
  },
  {
    "postcode": "57562",
    "city": "Altenkirchen"
  },
  {
    "postcode": "57567",
    "city": "Daaden"
  },
  {
    "postcode": "57567",
    "city": "Altenkirchen"
  },
  {
    "postcode": "57572",
    "city": "Harbach bei Betzdorf"
  },
  {
    "postcode": "57572",
    "city": "Hüttseifen"
  },
  {
    "postcode": "57572",
    "city": "Niederfischbach"
  },
  {
    "postcode": "57572",
    "city": "Altenkirchen"
  },
  {
    "postcode": "57572",
    "city": "Harbach"
  },
  {
    "postcode": "57577",
    "city": "Hamm (Sieg)"
  },
  {
    "postcode": "57577",
    "city": "Hamm"
  },
  {
    "postcode": "57577",
    "city": "Seelbach bei Hamm (Sieg)"
  },
  {
    "postcode": "57577",
    "city": "Seelbach bei Hamm"
  },
  {
    "postcode": "57577",
    "city": "Thalhausen bei Hamm Sieg"
  },
  {
    "postcode": "57577",
    "city": "Thalhausen bei Hamm"
  },
  {
    "postcode": "57577",
    "city": "Altenkirchen"
  },
  {
    "postcode": "57577",
    "city": "Marienthal"
  },
  {
    "postcode": "57577",
    "city": "Pfannenschoppen"
  },
  {
    "postcode": "57577",
    "city": "Seelbach"
  },
  {
    "postcode": "57577",
    "city": "Thalhausen"
  },
  {
    "postcode": "57577",
    "city": "Thalhausermühle"
  },
  {
    "postcode": "57578",
    "city": "Elkenroth"
  },
  {
    "postcode": "57578",
    "city": "Altenkirchen"
  },
  {
    "postcode": "57580",
    "city": "Elben Westerwald"
  },
  {
    "postcode": "57580",
    "city": "Elben"
  },
  {
    "postcode": "57580",
    "city": "Fensdorf"
  },
  {
    "postcode": "57580",
    "city": "Gebhardshain"
  },
  {
    "postcode": "57580",
    "city": "Altenkirchen"
  },
  {
    "postcode": "57581",
    "city": "Katzwinkel (Sieg)"
  },
  {
    "postcode": "57581",
    "city": "Katzwinkel"
  },
  {
    "postcode": "57581",
    "city": "Altenkirchen"
  },
  {
    "postcode": "57581",
    "city": "Hönningen"
  },
  {
    "postcode": "57583",
    "city": "Mörlen"
  },
  {
    "postcode": "57583",
    "city": "Nauroth Westerwald"
  },
  {
    "postcode": "57583",
    "city": "Nauroth"
  },
  {
    "postcode": "57583",
    "city": "Altenkirchen"
  },
  {
    "postcode": "57584",
    "city": "Scheuerfeld Sieg"
  },
  {
    "postcode": "57584",
    "city": "Scheuerfeld"
  },
  {
    "postcode": "57584",
    "city": "Wallmenroth bei Betzdorf"
  },
  {
    "postcode": "57584",
    "city": "Altenkirchen"
  },
  {
    "postcode": "57584",
    "city": "Wallmenroth"
  },
  {
    "postcode": "57586",
    "city": "Weitefeld"
  },
  {
    "postcode": "57586",
    "city": "Altenkirchen"
  },
  {
    "postcode": "57587",
    "city": "Birken-Honigsessen"
  },
  {
    "postcode": "57587",
    "city": "Altenkirchen"
  },
  {
    "postcode": "57587",
    "city": "Mühlenthal"
  },
  {
    "postcode": "57589",
    "city": "Birkenbeul"
  },
  {
    "postcode": "57589",
    "city": "Niederirsen bei Windeck"
  },
  {
    "postcode": "57589",
    "city": "Pracht bei Hamm"
  },
  {
    "postcode": "57589",
    "city": "Altenkirchen"
  },
  {
    "postcode": "57589",
    "city": "Friedenthal"
  },
  {
    "postcode": "57589",
    "city": "Niederirsen"
  },
  {
    "postcode": "57589",
    "city": "Pracht"
  },
  {
    "postcode": "57589",
    "city": "Kratzhahn"
  },
  {
    "postcode": "57589",
    "city": "Weißenbrüchen"
  },
  {
    "postcode": "57610",
    "city": "Almersbach"
  },
  {
    "postcode": "57610",
    "city": "Altenkirchen (Westerwald)"
  },
  {
    "postcode": "57610",
    "city": "Altenkirchen"
  },
  {
    "postcode": "57610",
    "city": "Amteroth"
  },
  {
    "postcode": "57610",
    "city": "Bachenberg"
  },
  {
    "postcode": "57610",
    "city": "Dieperzen Westerwald"
  },
  {
    "postcode": "57610",
    "city": "Dieperzen"
  },
  {
    "postcode": "57610",
    "city": "Gieleroth"
  },
  {
    "postcode": "57610",
    "city": "Herpteroth"
  },
  {
    "postcode": "57610",
    "city": "Ingelbach"
  },
  {
    "postcode": "57610",
    "city": "Leuzbach Westerwald"
  },
  {
    "postcode": "57610",
    "city": "Leuzbach"
  },
  {
    "postcode": "57610",
    "city": "Michelbach (Westerwald)"
  },
  {
    "postcode": "57610",
    "city": "Michelbach"
  },
  {
    "postcode": "57610",
    "city": "Honneroth"
  },
  {
    "postcode": "57610",
    "city": "Bergenhausen"
  },
  {
    "postcode": "57610",
    "city": "Oberingelbach"
  },
  {
    "postcode": "57610",
    "city": "Niederingelbach"
  },
  {
    "postcode": "57610",
    "city": "Widderstein"
  },
  {
    "postcode": "57612",
    "city": "Birnbach Westerwald"
  },
  {
    "postcode": "57612",
    "city": "Birnbach"
  },
  {
    "postcode": "57612",
    "city": "Busenhausen"
  },
  {
    "postcode": "57612",
    "city": "Eichelhardt"
  },
  {
    "postcode": "57612",
    "city": "Flögert"
  },
  {
    "postcode": "57612",
    "city": "Giesenhausen"
  },
  {
    "postcode": "57612",
    "city": "Helmenzen"
  },
  {
    "postcode": "57612",
    "city": "Helmeroth"
  },
  {
    "postcode": "57612",
    "city": "Hemmelzen"
  },
  {
    "postcode": "57612",
    "city": "Heupelzen"
  },
  {
    "postcode": "57612",
    "city": "Hilgenroth Westerwald"
  },
  {
    "postcode": "57612",
    "city": "Hilgenroth"
  },
  {
    "postcode": "57612",
    "city": "Idelberg"
  },
  {
    "postcode": "57612",
    "city": "Ingelbach"
  },
  {
    "postcode": "57612",
    "city": "Isert"
  },
  {
    "postcode": "57612",
    "city": "Kettenhausen"
  },
  {
    "postcode": "57612",
    "city": "Kroppach Westerwald"
  },
  {
    "postcode": "57612",
    "city": "Kroppach"
  },
  {
    "postcode": "57612",
    "city": "Marienthal Westerwald"
  },
  {
    "postcode": "57612",
    "city": "Marienthal"
  },
  {
    "postcode": "57612",
    "city": "Obererbach (Westerwald)"
  },
  {
    "postcode": "57612",
    "city": "Obererbach"
  },
  {
    "postcode": "57612",
    "city": "Oberölfen"
  },
  {
    "postcode": "57612",
    "city": "Ölsen Westerwald"
  },
  {
    "postcode": "57612",
    "city": "Ölsen"
  },
  {
    "postcode": "57612",
    "city": "Racksen"
  },
  {
    "postcode": "57612",
    "city": "Volkerzen"
  },
  {
    "postcode": "57612",
    "city": "Altenkirchen"
  },
  {
    "postcode": "57612",
    "city": "Ingelbach-Bahnhof"
  },
  {
    "postcode": "57612",
    "city": "Beul"
  },
  {
    "postcode": "57612",
    "city": "Eng"
  },
  {
    "postcode": "57612",
    "city": "Helmerotherhöhe"
  },
  {
    "postcode": "57612",
    "city": "Helmerother Mühle"
  },
  {
    "postcode": "57612",
    "city": "Koberstein"
  },
  {
    "postcode": "57612",
    "city": "Niedererbach"
  },
  {
    "postcode": "57612",
    "city": "Hacksen"
  },
  {
    "postcode": "57612",
    "city": "Nassen"
  },
  {
    "postcode": "57614",
    "city": "Ascheid Westerwald"
  },
  {
    "postcode": "57614",
    "city": "Ascheid"
  },
  {
    "postcode": "57614",
    "city": "Berod bei Hachenburg"
  },
  {
    "postcode": "57614",
    "city": "Borod Westerwald"
  },
  {
    "postcode": "57614",
    "city": "Borod"
  },
  {
    "postcode": "57614",
    "city": "Fluterschen"
  },
  {
    "postcode": "57614",
    "city": "Hanwerth"
  },
  {
    "postcode": "57614",
    "city": "Mudenbach"
  },
  {
    "postcode": "57614",
    "city": "Niederwambach"
  },
  {
    "postcode": "57614",
    "city": "Oberwambach Westerwald"
  },
  {
    "postcode": "57614",
    "city": "Oberwambach"
  },
  {
    "postcode": "57614",
    "city": "Ratzert"
  },
  {
    "postcode": "57614",
    "city": "Steimel"
  },
  {
    "postcode": "57614",
    "city": "Stürzelbach"
  },
  {
    "postcode": "57614",
    "city": "Wahlrod"
  },
  {
    "postcode": "57614",
    "city": "Woldert"
  },
  {
    "postcode": "57614",
    "city": "Altenkirchen"
  },
  {
    "postcode": "57614",
    "city": "Breibach"
  },
  {
    "postcode": "57614",
    "city": "Seyen"
  },
  {
    "postcode": "57614",
    "city": "Lahrbach"
  },
  {
    "postcode": "57614",
    "city": "Brubbach"
  },
  {
    "postcode": "57614",
    "city": "Weroth"
  },
  {
    "postcode": "57614",
    "city": "Sensenbach"
  },
  {
    "postcode": "57614",
    "city": "Alberthofen"
  },
  {
    "postcode": "57614",
    "city": "Mahlert"
  },
  {
    "postcode": "57614",
    "city": "Hilgert"
  },
  {
    "postcode": "57627",
    "city": "Astert"
  },
  {
    "postcode": "57627",
    "city": "Gehlert"
  },
  {
    "postcode": "57627",
    "city": "Hachenburg"
  },
  {
    "postcode": "57627",
    "city": "Heuzert"
  },
  {
    "postcode": "57627",
    "city": "Marzhausen Westerwald"
  },
  {
    "postcode": "57627",
    "city": "Marzhausen"
  },
  {
    "postcode": "57627",
    "city": "Westerwaldkreis"
  },
  {
    "postcode": "57629",
    "city": "Alhausen"
  },
  {
    "postcode": "57629",
    "city": "Atzelgift"
  },
  {
    "postcode": "57629",
    "city": "Dreifelden"
  },
  {
    "postcode": "57629",
    "city": "Hattert Bahnhof"
  },
  {
    "postcode": "57629",
    "city": "Hattert"
  },
  {
    "postcode": "57629",
    "city": "Heimborn"
  },
  {
    "postcode": "57629",
    "city": "Höchstenbach"
  },
  {
    "postcode": "57629",
    "city": "Kirburg"
  },
  {
    "postcode": "57629",
    "city": "Kundert"
  },
  {
    "postcode": "57629",
    "city": "Limbach Westerwald"
  },
  {
    "postcode": "57629",
    "city": "Limbach"
  },
  {
    "postcode": "57629",
    "city": "Linden Westerwald"
  },
  {
    "postcode": "57629",
    "city": "Linden"
  },
  {
    "postcode": "57629",
    "city": "Lochum"
  },
  {
    "postcode": "57629",
    "city": "Luckenbach"
  },
  {
    "postcode": "57629",
    "city": "Malberg Westerwald"
  },
  {
    "postcode": "57629",
    "city": "Malberg"
  },
  {
    "postcode": "57629",
    "city": "Merkelbach Westerwald"
  },
  {
    "postcode": "57629",
    "city": "Merkelbach"
  },
  {
    "postcode": "57629",
    "city": "Mörsbach Westerwald"
  },
  {
    "postcode": "57629",
    "city": "Mörsbach"
  },
  {
    "postcode": "57629",
    "city": "Müschenbach"
  },
  {
    "postcode": "57629",
    "city": "Norken"
  },
  {
    "postcode": "57629",
    "city": "Stein-Wingert"
  },
  {
    "postcode": "57629",
    "city": "Steinebach an der Wied"
  },
  {
    "postcode": "57629",
    "city": "Streithausen"
  },
  {
    "postcode": "57629",
    "city": "Wied bei Hachenburg"
  },
  {
    "postcode": "57629",
    "city": "Altenkirchen"
  },
  {
    "postcode": "57629",
    "city": "Marienstatt"
  },
  {
    "postcode": "57629",
    "city": "Wied"
  },
  {
    "postcode": "57629",
    "city": "Steinebach"
  },
  {
    "postcode": "57632",
    "city": "Berzhausen"
  },
  {
    "postcode": "57632",
    "city": "Burglahr"
  },
  {
    "postcode": "57632",
    "city": "Eichen Kreis Altenkirchen Westerwald"
  },
  {
    "postcode": "57632",
    "city": "Eichen"
  },
  {
    "postcode": "57632",
    "city": "Eulenberg Westerwald"
  },
  {
    "postcode": "57632",
    "city": "Eulenberg"
  },
  {
    "postcode": "57632",
    "city": "Flammersfeld"
  },
  {
    "postcode": "57632",
    "city": "Giershausen bei Flammersfeld"
  },
  {
    "postcode": "57632",
    "city": "Gollershoben Kreis Altenkirchen Westerwald"
  },
  {
    "postcode": "57632",
    "city": "Gollershoben"
  },
  {
    "postcode": "57632",
    "city": "Kescheid"
  },
  {
    "postcode": "57632",
    "city": "Orfgen"
  },
  {
    "postcode": "57632",
    "city": "Peterslahr"
  },
  {
    "postcode": "57632",
    "city": "Reiferscheid bei Flammersfeld"
  },
  {
    "postcode": "57632",
    "city": "Rott Westerwald"
  },
  {
    "postcode": "57632",
    "city": "Rott"
  },
  {
    "postcode": "57632",
    "city": "Schürdt"
  },
  {
    "postcode": "57632",
    "city": "Seelbach (Westerwald)"
  },
  {
    "postcode": "57632",
    "city": "Seelbach"
  },
  {
    "postcode": "57632",
    "city": "Seifen bei Flammersfeld"
  },
  {
    "postcode": "57632",
    "city": "Walterschen"
  },
  {
    "postcode": "57632",
    "city": "Ziegenhahn Westerwald"
  },
  {
    "postcode": "57632",
    "city": "Ziegenhahn"
  },
  {
    "postcode": "57632",
    "city": "Ziegenhain Westerwald"
  },
  {
    "postcode": "57632",
    "city": "Ziegenhain"
  },
  {
    "postcode": "57632",
    "city": "Altenkirchen"
  },
  {
    "postcode": "57632",
    "city": "Giershausen"
  },
  {
    "postcode": "57632",
    "city": "Reiferscheid"
  },
  {
    "postcode": "57632",
    "city": "Seifen"
  },
  {
    "postcode": "57632",
    "city": "Strickhausen"
  },
  {
    "postcode": "57632",
    "city": "Ahlbach"
  },
  {
    "postcode": "57632",
    "city": "Bettgenhausen"
  },
  {
    "postcode": "57635",
    "city": "Ersfeld"
  },
  {
    "postcode": "57635",
    "city": "Fiersbach"
  },
  {
    "postcode": "57635",
    "city": "Forstmehren"
  },
  {
    "postcode": "57635",
    "city": "Hasselbach Westerwald"
  },
  {
    "postcode": "57635",
    "city": "Hasselbach"
  },
  {
    "postcode": "57635",
    "city": "Hirz-Maulsbach"
  },
  {
    "postcode": "57635",
    "city": "Kircheib"
  },
  {
    "postcode": "57635",
    "city": "Kraam"
  },
  {
    "postcode": "57635",
    "city": "Mehren Westerwald"
  },
  {
    "postcode": "57635",
    "city": "Mehren"
  },
  {
    "postcode": "57635",
    "city": "Oberirsen"
  },
  {
    "postcode": "57635",
    "city": "Rettersen"
  },
  {
    "postcode": "57635",
    "city": "Roßberg"
  },
  {
    "postcode": "57635",
    "city": "Werkhausen"
  },
  {
    "postcode": "57635",
    "city": "Weyerbusch"
  },
  {
    "postcode": "57635",
    "city": "Wölmersen"
  },
  {
    "postcode": "57635",
    "city": "Altenkirchen"
  },
  {
    "postcode": "57635",
    "city": "Hirzbach"
  },
  {
    "postcode": "57635",
    "city": "Maulsbach"
  },
  {
    "postcode": "57635",
    "city": "Reisbitzen"
  },
  {
    "postcode": "57635",
    "city": "Heuberg"
  },
  {
    "postcode": "57635",
    "city": "Rimbach"
  },
  {
    "postcode": "57636",
    "city": "Hüttenhofen"
  },
  {
    "postcode": "57636",
    "city": "Mammelzen"
  },
  {
    "postcode": "57636",
    "city": "Reuffelbach"
  },
  {
    "postcode": "57636",
    "city": "Sörth"
  },
  {
    "postcode": "57636",
    "city": "Altenkirchen"
  },
  {
    "postcode": "57638",
    "city": "Neiterschen Westerwald"
  },
  {
    "postcode": "57638",
    "city": "Neiterschen"
  },
  {
    "postcode": "57638",
    "city": "Neitersen Westerwald"
  },
  {
    "postcode": "57638",
    "city": "Neitersen"
  },
  {
    "postcode": "57638",
    "city": "Niederölfen Westerwald"
  },
  {
    "postcode": "57638",
    "city": "Niederölfen"
  },
  {
    "postcode": "57638",
    "city": "Obernau Westerwald"
  },
  {
    "postcode": "57638",
    "city": "Obernau"
  },
  {
    "postcode": "57638",
    "city": "Schöneberg Westerwald"
  },
  {
    "postcode": "57638",
    "city": "Schöneberg"
  },
  {
    "postcode": "57638",
    "city": "Altenkirchen"
  },
  {
    "postcode": "57639",
    "city": "Dendert"
  },
  {
    "postcode": "57639",
    "city": "Lautzert"
  },
  {
    "postcode": "57639",
    "city": "Neitzert bei Altenkirchen Westerwald"
  },
  {
    "postcode": "57639",
    "city": "Neitzert bei Altenkirchen"
  },
  {
    "postcode": "57639",
    "city": "Oberdreis"
  },
  {
    "postcode": "57639",
    "city": "Oberdreis Westerwald"
  },
  {
    "postcode": "57639",
    "city": "Rodenbach bei Puderbach"
  },
  {
    "postcode": "57639",
    "city": "Udert bei Altenkirchen Westerwald"
  },
  {
    "postcode": "57639",
    "city": "Udert bei Altenkirchen"
  },
  {
    "postcode": "57639",
    "city": "Neuwied"
  },
  {
    "postcode": "57639",
    "city": "Rodenbach"
  },
  {
    "postcode": "57639",
    "city": "Neitzert"
  },
  {
    "postcode": "57639",
    "city": "Udert"
  },
  {
    "postcode": "57641",
    "city": "Oberlahr Westerwald"
  },
  {
    "postcode": "57641",
    "city": "Oberlahr"
  },
  {
    "postcode": "57641",
    "city": "Altenkirchen"
  },
  {
    "postcode": "57642",
    "city": "Alpenrod"
  },
  {
    "postcode": "57642",
    "city": "Dehlingen"
  },
  {
    "postcode": "57642",
    "city": "Westerwaldkreis"
  },
  {
    "postcode": "57644",
    "city": "Hattert"
  },
  {
    "postcode": "57644",
    "city": "Welkenbach Westerwald"
  },
  {
    "postcode": "57644",
    "city": "Welkenbach"
  },
  {
    "postcode": "57644",
    "city": "Winkelbach"
  },
  {
    "postcode": "57644",
    "city": "Westerwaldkreis"
  },
  {
    "postcode": "57644",
    "city": "Krambergsmühle"
  },
  {
    "postcode": "57644",
    "city": "Marzauermühle"
  },
  {
    "postcode": "57644",
    "city": "Laad"
  },
  {
    "postcode": "57644",
    "city": "Mittelhattert"
  },
  {
    "postcode": "57644",
    "city": "Niederhattert"
  },
  {
    "postcode": "57645",
    "city": "Drahtzug"
  },
  {
    "postcode": "57645",
    "city": "Nister"
  },
  {
    "postcode": "57645",
    "city": "Westerwaldkreis"
  },
  {
    "postcode": "57647",
    "city": "Büdingen Westerwald"
  },
  {
    "postcode": "57647",
    "city": "Büdingen"
  },
  {
    "postcode": "57647",
    "city": "Enspel"
  },
  {
    "postcode": "57647",
    "city": "Nistertal Westerwald"
  },
  {
    "postcode": "57647",
    "city": "Nistertal"
  },
  {
    "postcode": "57647",
    "city": "Talmühle Westerwald"
  },
  {
    "postcode": "57647",
    "city": "Talmühle"
  },
  {
    "postcode": "57647",
    "city": "Westerwaldkreis"
  },
  {
    "postcode": "57647",
    "city": "Hirtscheid"
  },
  {
    "postcode": "57647",
    "city": "Erbach"
  },
  {
    "postcode": "57648",
    "city": "Bölsberg"
  },
  {
    "postcode": "57648",
    "city": "Unnau"
  },
  {
    "postcode": "57648",
    "city": "Westerwaldkreis"
  }
]