[
  {
    "postcode": "2708",
    "city": "Dürrhennersdorf"
  },
  {
    "postcode": "2708",
    "city": "Großschweidnitz"
  },
  {
    "postcode": "2708",
    "city": "Kittlitz bei Löbau"
  },
  {
    "postcode": "2708",
    "city": "Lawalde"
  },
  {
    "postcode": "2708",
    "city": "Löbau"
  },
  {
    "postcode": "2708",
    "city": "Niedercunnersdorf"
  },
  {
    "postcode": "2708",
    "city": "Obercunnersdorf bei Löbau"
  },
  {
    "postcode": "2708",
    "city": "Rosenbach bei Löbau"
  },
  {
    "postcode": "2708",
    "city": "Schönbach bei Löbau"
  },
  {
    "postcode": "2708",
    "city": "Görlitz"
  },
  {
    "postcode": "2708",
    "city": "Kottmar"
  },
  {
    "postcode": "2708",
    "city": "Lawalde-Kleindehsa"
  },
  {
    "postcode": "2708",
    "city": "Lawalde-Lauba"
  },
  {
    "postcode": "2708",
    "city": "Obercunnersdorf"
  },
  {
    "postcode": "2708",
    "city": "Rosenbach"
  },
  {
    "postcode": "2708",
    "city": "Schönbach"
  },
  {
    "postcode": "2708",
    "city": "Altcunnewitz"
  },
  {
    "postcode": "2708",
    "city": "Kittlitz"
  },
  {
    "postcode": "2708",
    "city": "Rosenhain"
  },
  {
    "postcode": "2708",
    "city": "Bellwitz"
  },
  {
    "postcode": "2708",
    "city": "Oppeln"
  },
  {
    "postcode": "2708",
    "city": "Großdehsa"
  },
  {
    "postcode": "2708",
    "city": "Ebersdorf"
  },
  {
    "postcode": "2708",
    "city": "Carlsbrunn"
  },
  {
    "postcode": "2708",
    "city": "Kleinradmeritz"
  },
  {
    "postcode": "2708",
    "city": "Georgewitz"
  },
  {
    "postcode": "2708",
    "city": "Wohla"
  },
  {
    "postcode": "2708",
    "city": "Laucha"
  },
  {
    "postcode": "2708",
    "city": "Glossen"
  },
  {
    "postcode": "2708",
    "city": "Eiserode"
  },
  {
    "postcode": "2708",
    "city": "Nechen"
  },
  {
    "postcode": "2708",
    "city": "Lautitz"
  },
  {
    "postcode": "2708",
    "city": "Dolgowitz"
  },
  {
    "postcode": "2708",
    "city": "Krappe"
  },
  {
    "postcode": "2708",
    "city": "Mauschwitz"
  },
  {
    "postcode": "2708",
    "city": "Neucunnewitz"
  },
  {
    "postcode": "2708",
    "city": "Neukittlitz"
  },
  {
    "postcode": "2708",
    "city": "Ottenhain"
  },
  {
    "postcode": "2708",
    "city": "Kottmarsdorf"
  },
  {
    "postcode": "2708",
    "city": "Bischdorf"
  },
  {
    "postcode": "2708",
    "city": "Herwigsdorf"
  },
  {
    "postcode": "2708",
    "city": "Galgenberg"
  },
  {
    "postcode": "2727",
    "city": "Neugersdorf Sachsen"
  },
  {
    "postcode": "2727",
    "city": "Neugersdorf"
  },
  {
    "postcode": "2727",
    "city": "Görlitz"
  },
  {
    "postcode": "2727",
    "city": "Ebersbach-Neugersdorf"
  },
  {
    "postcode": "2730",
    "city": "Ebersbach / Sachsen"
  },
  {
    "postcode": "2730",
    "city": "Ebersbach"
  },
  {
    "postcode": "2730",
    "city": "Görlitz"
  },
  {
    "postcode": "2730",
    "city": "Ebersbach-Neugersdorf"
  },
  {
    "postcode": "2733",
    "city": "Cunewalde"
  },
  {
    "postcode": "2733",
    "city": "Bautzen"
  },
  {
    "postcode": "2733",
    "city": "Weigsdorf-Köblitz"
  },
  {
    "postcode": "2733",
    "city": "Halbau"
  },
  {
    "postcode": "2733",
    "city": "Schönberg"
  },
  {
    "postcode": "2736",
    "city": "Beiersdorf bei Löbau"
  },
  {
    "postcode": "2736",
    "city": "Eichen"
  },
  {
    "postcode": "2736",
    "city": "Oppach"
  },
  {
    "postcode": "2736",
    "city": "Görlitz"
  },
  {
    "postcode": "2736",
    "city": "Beiersdorf"
  },
  {
    "postcode": "2736",
    "city": "Zwenke"
  },
  {
    "postcode": "2736",
    "city": "Neulauba"
  },
  {
    "postcode": "2736",
    "city": "Gebirge"
  },
  {
    "postcode": "2736",
    "city": "Picka"
  },
  {
    "postcode": "2739",
    "city": "Eibau"
  },
  {
    "postcode": "2739",
    "city": "Görlitz"
  },
  {
    "postcode": "2739",
    "city": "Eibau-Neueibau"
  },
  {
    "postcode": "2739",
    "city": "Eibau-Walddorf"
  },
  {
    "postcode": "2739",
    "city": "Kottmar"
  },
  {
    "postcode": "2739",
    "city": "Walddorf"
  },
  {
    "postcode": "2739",
    "city": "Kottmarhäuser"
  },
  {
    "postcode": "2739",
    "city": "Neueibau"
  },
  {
    "postcode": "2742",
    "city": "Friedersdorf bei Löbau"
  },
  {
    "postcode": "2742",
    "city": "Neusalza-Spremberg"
  },
  {
    "postcode": "2742",
    "city": "Görlitz"
  },
  {
    "postcode": "2742",
    "city": "Friedersdorf"
  },
  {
    "postcode": "2742",
    "city": "Hempel"
  },
  {
    "postcode": "2742",
    "city": "Neufriedersdorf"
  },
  {
    "postcode": "2742",
    "city": "Neuspremberg"
  },
  {
    "postcode": "2742",
    "city": "Sonneberg"
  },
  {
    "postcode": "2747",
    "city": "Berthelsdorf bei Herrnhut"
  },
  {
    "postcode": "2747",
    "city": "Großhennersdorf"
  },
  {
    "postcode": "2747",
    "city": "Herrnhut"
  },
  {
    "postcode": "2747",
    "city": "Strahwalde"
  },
  {
    "postcode": "2747",
    "city": "Görlitz"
  },
  {
    "postcode": "2747",
    "city": "Berthelsdorf"
  },
  {
    "postcode": "2747",
    "city": "Rennersdorf"
  },
  {
    "postcode": "2747",
    "city": "Schönbrunn"
  },
  {
    "postcode": "2747",
    "city": "Euldorf"
  },
  {
    "postcode": "2747",
    "city": "Neundorf"
  },
  {
    "postcode": "2747",
    "city": "Heuscheune"
  },
  {
    "postcode": "2747",
    "city": "Ruppersdorf"
  },
  {
    "postcode": "2747",
    "city": "Friedensthal"
  },
  {
    "postcode": "2748",
    "city": "Bernstadt auf dem Eigen"
  },
  {
    "postcode": "2748",
    "city": "Görlitz"
  },
  {
    "postcode": "2748",
    "city": "Bernstadt a. d. Eigen"
  },
  {
    "postcode": "2748",
    "city": "Kemnitz"
  },
  {
    "postcode": "2748",
    "city": "Dittersbach a. d. Eigen"
  },
  {
    "postcode": "2748",
    "city": "Kunnersdorf a. d. Eigen"
  },
  {
    "postcode": "2748",
    "city": "Altbernsdorf a. d. Eigen"
  },
  {
    "postcode": "2763",
    "city": "Bertsdorf-Hörnitz"
  },
  {
    "postcode": "2763",
    "city": "Mittelherwigsdorf"
  },
  {
    "postcode": "2763",
    "city": "Zittau"
  },
  {
    "postcode": "2763",
    "city": "Görlitz"
  },
  {
    "postcode": "2763",
    "city": "Eckartsberg"
  },
  {
    "postcode": "2763",
    "city": "Oberseifersdorf"
  },
  {
    "postcode": "2763",
    "city": "Radgendorf"
  },
  {
    "postcode": "2763",
    "city": "Bertsdorf"
  },
  {
    "postcode": "2763",
    "city": "Hörnitz"
  },
  {
    "postcode": "2763",
    "city": "Pethau"
  },
  {
    "postcode": "2763",
    "city": "Eichgraben"
  },
  {
    "postcode": "2763",
    "city": "Hartau"
  },
  {
    "postcode": "2779",
    "city": "Großschönau Sachsen"
  },
  {
    "postcode": "2779",
    "city": "Großschönau"
  },
  {
    "postcode": "2779",
    "city": "Hainewalde"
  },
  {
    "postcode": "2779",
    "city": "Görlitz"
  },
  {
    "postcode": "2782",
    "city": "Seifhennersdorf"
  },
  {
    "postcode": "2782",
    "city": "Görlitz"
  },
  {
    "postcode": "2785",
    "city": "Olbersdorf"
  },
  {
    "postcode": "2785",
    "city": "Görlitz"
  },
  {
    "postcode": "2788",
    "city": "Dittelsdorf"
  },
  {
    "postcode": "2788",
    "city": "Hirschfelde bei Zittau"
  },
  {
    "postcode": "2788",
    "city": "Schlegel bei Zittau"
  },
  {
    "postcode": "2788",
    "city": "Görlitz"
  },
  {
    "postcode": "2788",
    "city": "Hirschfelde"
  },
  {
    "postcode": "2788",
    "city": "Schlegel"
  },
  {
    "postcode": "2788",
    "city": "Zittau"
  },
  {
    "postcode": "2788",
    "city": "Rosenthal"
  },
  {
    "postcode": "2788",
    "city": "Wittgendorf"
  },
  {
    "postcode": "2788",
    "city": "Drausendorf"
  },
  {
    "postcode": "2791",
    "city": "Oderwitz"
  },
  {
    "postcode": "2791",
    "city": "Görlitz"
  },
  {
    "postcode": "2791",
    "city": "Oberoderwitz"
  },
  {
    "postcode": "2791",
    "city": "Niederoderwitz"
  },
  {
    "postcode": "2794",
    "city": "Leutersdorf Oberlausitz"
  },
  {
    "postcode": "2794",
    "city": "Leutersdorf"
  },
  {
    "postcode": "2794",
    "city": "Görlitz"
  },
  {
    "postcode": "2794",
    "city": "Kottmar"
  },
  {
    "postcode": "2794",
    "city": "Neueibau"
  },
  {
    "postcode": "2794",
    "city": "Folge"
  },
  {
    "postcode": "2794",
    "city": "Hetzwalde"
  },
  {
    "postcode": "2794",
    "city": "Neuwalde"
  },
  {
    "postcode": "2794",
    "city": "Sorge"
  },
  {
    "postcode": "2796",
    "city": "Kurort Jonsdorf"
  },
  {
    "postcode": "2796",
    "city": "Görlitz"
  },
  {
    "postcode": "2797",
    "city": "Kurort Oybin"
  },
  {
    "postcode": "2797",
    "city": "Görlitz"
  },
  {
    "postcode": "2797",
    "city": "Luftkurort Lückendorf"
  },
  {
    "postcode": "2799",
    "city": "Großschönau Sachsen"
  },
  {
    "postcode": "2799",
    "city": "Großschönau"
  },
  {
    "postcode": "2799",
    "city": "Waltersdorf bei Zittau"
  },
  {
    "postcode": "2799",
    "city": "Görlitz"
  },
  {
    "postcode": "2799",
    "city": "Waltersdorf"
  },
  {
    "postcode": "2799",
    "city": "Herrenwalde"
  },
  {
    "postcode": "2799",
    "city": "Saalendorf"
  },
  {
    "postcode": "27211",
    "city": "Albringhausen"
  },
  {
    "postcode": "27211",
    "city": "Apelstedt"
  },
  {
    "postcode": "27211",
    "city": "Bassum"
  },
  {
    "postcode": "27211",
    "city": "Diek"
  },
  {
    "postcode": "27211",
    "city": "Dimhausen"
  },
  {
    "postcode": "27211",
    "city": "Döhren"
  },
  {
    "postcode": "27211",
    "city": "Eschenhausen"
  },
  {
    "postcode": "27211",
    "city": "Groß Henstedt"
  },
  {
    "postcode": "27211",
    "city": "Groß Hollwedel"
  },
  {
    "postcode": "27211",
    "city": "Groß Ringmar"
  },
  {
    "postcode": "27211",
    "city": "Haft"
  },
  {
    "postcode": "27211",
    "city": "Hallstedt"
  },
  {
    "postcode": "27211",
    "city": "Hassel"
  },
  {
    "postcode": "27211",
    "city": "Helldiek"
  },
  {
    "postcode": "27211",
    "city": "Hilken bei Bassum"
  },
  {
    "postcode": "27211",
    "city": "Katenkamp"
  },
  {
    "postcode": "27211",
    "city": "Klein Hollwedel"
  },
  {
    "postcode": "27211",
    "city": "Klein Ringmar"
  },
  {
    "postcode": "27211",
    "city": "Klenkenborstel"
  },
  {
    "postcode": "27211",
    "city": "Klövenhausen"
  },
  {
    "postcode": "27211",
    "city": "Neubruchhausen"
  },
  {
    "postcode": "27211",
    "city": "Nienhaus"
  },
  {
    "postcode": "27211",
    "city": "Nienstedt bei Bassum"
  },
  {
    "postcode": "27211",
    "city": "Nordwohlde"
  },
  {
    "postcode": "27211",
    "city": "Nüstedt"
  },
  {
    "postcode": "27211",
    "city": "Osterbinde"
  },
  {
    "postcode": "27211",
    "city": "Schorlingborstel"
  },
  {
    "postcode": "27211",
    "city": "Wedehorn"
  },
  {
    "postcode": "27211",
    "city": "Wichenhausen"
  },
  {
    "postcode": "27211",
    "city": "Wiebusch"
  },
  {
    "postcode": "27211",
    "city": "Diepholz"
  },
  {
    "postcode": "27211",
    "city": "Bramstedt"
  },
  {
    "postcode": "27211",
    "city": "Bischof"
  },
  {
    "postcode": "27211",
    "city": "Hilken"
  },
  {
    "postcode": "27211",
    "city": "Möhlenhof"
  },
  {
    "postcode": "27211",
    "city": "Nienstedt"
  },
  {
    "postcode": "27211",
    "city": "Pannstedt"
  },
  {
    "postcode": "27211",
    "city": "Ströhen"
  },
  {
    "postcode": "27232",
    "city": "Barrien"
  },
  {
    "postcode": "27232",
    "city": "Brünhausen"
  },
  {
    "postcode": "27232",
    "city": "Dahlskamp"
  },
  {
    "postcode": "27232",
    "city": "Döhrel"
  },
  {
    "postcode": "27232",
    "city": "Feldhausen"
  },
  {
    "postcode": "27232",
    "city": "Gaue"
  },
  {
    "postcode": "27232",
    "city": "Groß Lessen"
  },
  {
    "postcode": "27232",
    "city": "Hassel"
  },
  {
    "postcode": "27232",
    "city": "Herelse"
  },
  {
    "postcode": "27232",
    "city": "Klein Lessen"
  },
  {
    "postcode": "27232",
    "city": "Kolonie Rathlosen"
  },
  {
    "postcode": "27232",
    "city": "Labbus"
  },
  {
    "postcode": "27232",
    "city": "Landwehr"
  },
  {
    "postcode": "27232",
    "city": "Lindern"
  },
  {
    "postcode": "27232",
    "city": "Nechtelsen"
  },
  {
    "postcode": "27232",
    "city": "Nordsulingen"
  },
  {
    "postcode": "27232",
    "city": "Stadt bei Sulingen"
  },
  {
    "postcode": "27232",
    "city": "Stehlen"
  },
  {
    "postcode": "27232",
    "city": "Sulingen"
  },
  {
    "postcode": "27232",
    "city": "Thiermann"
  },
  {
    "postcode": "27232",
    "city": "Vorwohlde"
  },
  {
    "postcode": "27232",
    "city": "Wardinghausen"
  },
  {
    "postcode": "27232",
    "city": "Diepholz"
  },
  {
    "postcode": "27232",
    "city": "Stadt"
  },
  {
    "postcode": "27232",
    "city": "Bockhorn"
  },
  {
    "postcode": "27232",
    "city": "Bocksgründen"
  },
  {
    "postcode": "27232",
    "city": "Coldewey"
  },
  {
    "postcode": "27232",
    "city": "Flüte"
  },
  {
    "postcode": "27232",
    "city": "Kolonie Groß Lessen"
  },
  {
    "postcode": "27232",
    "city": "Löhe"
  },
  {
    "postcode": "27232",
    "city": "Langenäse"
  },
  {
    "postcode": "27232",
    "city": "Rathlosen"
  },
  {
    "postcode": "27232",
    "city": "Sulinger Bruch"
  },
  {
    "postcode": "27232",
    "city": "Vorwerk"
  },
  {
    "postcode": "27239",
    "city": "Abbenhausen"
  },
  {
    "postcode": "27239",
    "city": "Altenmarhorst"
  },
  {
    "postcode": "27239",
    "city": "Binghausen"
  },
  {
    "postcode": "27239",
    "city": "Borwede"
  },
  {
    "postcode": "27239",
    "city": "Heiligenloh"
  },
  {
    "postcode": "27239",
    "city": "Köbbinghausen"
  },
  {
    "postcode": "27239",
    "city": "Mörsen"
  },
  {
    "postcode": "27239",
    "city": "Natenstedt"
  },
  {
    "postcode": "27239",
    "city": "Neuenmarhorst"
  },
  {
    "postcode": "27239",
    "city": "Rüssen bei Twistringen"
  },
  {
    "postcode": "27239",
    "city": "Scharrendorf"
  },
  {
    "postcode": "27239",
    "city": "Stelle"
  },
  {
    "postcode": "27239",
    "city": "Twistringen"
  },
  {
    "postcode": "27239",
    "city": "Üssinghausen"
  },
  {
    "postcode": "27239",
    "city": "Diepholz"
  },
  {
    "postcode": "27239",
    "city": "Rüssen"
  },
  {
    "postcode": "27243",
    "city": "Annen"
  },
  {
    "postcode": "27243",
    "city": "Austen"
  },
  {
    "postcode": "27243",
    "city": "Barjenbruch"
  },
  {
    "postcode": "27243",
    "city": "Beckeln"
  },
  {
    "postcode": "27243",
    "city": "Beckstedt"
  },
  {
    "postcode": "27243",
    "city": "Colnrade"
  },
  {
    "postcode": "27243",
    "city": "Dünsen bei Bassum"
  },
  {
    "postcode": "27243",
    "city": "Groß Ippener"
  },
  {
    "postcode": "27243",
    "city": "Groß Köhren"
  },
  {
    "postcode": "27243",
    "city": "Hackfeld"
  },
  {
    "postcode": "27243",
    "city": "Harpstedt"
  },
  {
    "postcode": "27243",
    "city": "Hölingen"
  },
  {
    "postcode": "27243",
    "city": "Holtorf"
  },
  {
    "postcode": "27243",
    "city": "Holzhausen"
  },
  {
    "postcode": "27243",
    "city": "Horstedt"
  },
  {
    "postcode": "27243",
    "city": "Kellinghausen"
  },
  {
    "postcode": "27243",
    "city": "Kieselhorst"
  },
  {
    "postcode": "27243",
    "city": "Kirchseelte"
  },
  {
    "postcode": "27243",
    "city": "Klein Henstedt"
  },
  {
    "postcode": "27243",
    "city": "Klein Ippener"
  },
  {
    "postcode": "27243",
    "city": "Klein Köhren"
  },
  {
    "postcode": "27243",
    "city": "Klosterseelte"
  },
  {
    "postcode": "27243",
    "city": "Mahlstedt"
  },
  {
    "postcode": "27243",
    "city": "Ortholz"
  },
  {
    "postcode": "27243",
    "city": "Prinzhöfte"
  },
  {
    "postcode": "27243",
    "city": "Reckum"
  },
  {
    "postcode": "27243",
    "city": "Schulenberg"
  },
  {
    "postcode": "27243",
    "city": "Simmerhausen"
  },
  {
    "postcode": "27243",
    "city": "Stiftenhöfte"
  },
  {
    "postcode": "27243",
    "city": "Winkelsett"
  },
  {
    "postcode": "27243",
    "city": "Wohlde"
  },
  {
    "postcode": "27243",
    "city": "Wunderburg"
  },
  {
    "postcode": "27243",
    "city": "Oldenburg"
  },
  {
    "postcode": "27243",
    "city": "Dünsen"
  },
  {
    "postcode": "27243",
    "city": "Brammer"
  },
  {
    "postcode": "27243",
    "city": "Altenmoor"
  },
  {
    "postcode": "27243",
    "city": "Kleine Strohe"
  },
  {
    "postcode": "27243",
    "city": "Krumdiek"
  },
  {
    "postcode": "27243",
    "city": "Ostersehlt"
  },
  {
    "postcode": "27243",
    "city": "Peterey"
  },
  {
    "postcode": "27243",
    "city": "Strohe"
  },
  {
    "postcode": "27243",
    "city": "Amerika"
  },
  {
    "postcode": "27243",
    "city": "Gemeinde Bassum"
  },
  {
    "postcode": "27243",
    "city": "Ördekenbrück"
  },
  {
    "postcode": "27243",
    "city": "Harjehausen"
  },
  {
    "postcode": "27243",
    "city": "Rüdebusch"
  },
  {
    "postcode": "27243",
    "city": "Spradau"
  },
  {
    "postcode": "27243",
    "city": "Zum Heitzhausen"
  },
  {
    "postcode": "27243",
    "city": "Zum Sonnenberg"
  },
  {
    "postcode": "27245",
    "city": "Bahrenborstel"
  },
  {
    "postcode": "27245",
    "city": "Barenburg"
  },
  {
    "postcode": "27245",
    "city": "Barenburg bei Sulingen"
  },
  {
    "postcode": "27245",
    "city": "Göthen"
  },
  {
    "postcode": "27245",
    "city": "Heerde"
  },
  {
    "postcode": "27245",
    "city": "Holzhausen"
  },
  {
    "postcode": "27245",
    "city": "Kirchdorf bei Sulingen"
  },
  {
    "postcode": "27245",
    "city": "Kuppendorf"
  },
  {
    "postcode": "27245",
    "city": "Paschenburg bei Sulingen"
  },
  {
    "postcode": "27245",
    "city": "Scharringhausen"
  },
  {
    "postcode": "27245",
    "city": "Diepholz"
  },
  {
    "postcode": "27245",
    "city": "Kirchdorf"
  },
  {
    "postcode": "27245",
    "city": "Munterburg"
  },
  {
    "postcode": "27245",
    "city": "Dillenmoor"
  },
  {
    "postcode": "27245",
    "city": "Mauseburg"
  },
  {
    "postcode": "27245",
    "city": "Paschenburg"
  },
  {
    "postcode": "27245",
    "city": "Gut Borgstedt"
  },
  {
    "postcode": "27245",
    "city": "Moorhausen"
  },
  {
    "postcode": "27246",
    "city": "Bockhop bei Sulingen"
  },
  {
    "postcode": "27246",
    "city": "Borstel bei Sulingen"
  },
  {
    "postcode": "27246",
    "city": "Campen bei Sulingen"
  },
  {
    "postcode": "27246",
    "city": "Schamwege"
  },
  {
    "postcode": "27246",
    "city": "Sieden"
  },
  {
    "postcode": "27246",
    "city": "Diepholz"
  },
  {
    "postcode": "27246",
    "city": "Borstel"
  },
  {
    "postcode": "27246",
    "city": "Bockhop"
  },
  {
    "postcode": "27246",
    "city": "Campen"
  },
  {
    "postcode": "27248",
    "city": "Brelloh"
  },
  {
    "postcode": "27248",
    "city": "Ehrenburg"
  },
  {
    "postcode": "27248",
    "city": "Ehrenburg bei Sulingen"
  },
  {
    "postcode": "27248",
    "city": "Harmhausen"
  },
  {
    "postcode": "27248",
    "city": "Heideloh"
  },
  {
    "postcode": "27248",
    "city": "Hohenfelde"
  },
  {
    "postcode": "27248",
    "city": "Öftinghausen"
  },
  {
    "postcode": "27248",
    "city": "Schmalförden"
  },
  {
    "postcode": "27248",
    "city": "Schweringhausen"
  },
  {
    "postcode": "27248",
    "city": "Stocksdorf"
  },
  {
    "postcode": "27248",
    "city": "Sudbruch"
  },
  {
    "postcode": "27248",
    "city": "Wesenstedt"
  },
  {
    "postcode": "27248",
    "city": "Wietinghausen"
  },
  {
    "postcode": "27248",
    "city": "Wulferding"
  },
  {
    "postcode": "27248",
    "city": "Diepholz"
  },
  {
    "postcode": "27248",
    "city": "Wesenstedter Riede"
  },
  {
    "postcode": "27248",
    "city": "Auf dem Barrel"
  },
  {
    "postcode": "27248",
    "city": "Dieke"
  },
  {
    "postcode": "27248",
    "city": "Hotzfelde"
  },
  {
    "postcode": "27248",
    "city": "Kalte Zeit"
  },
  {
    "postcode": "27248",
    "city": "Kiebitzheide"
  },
  {
    "postcode": "27248",
    "city": "Lucht"
  },
  {
    "postcode": "27248",
    "city": "Neuland"
  },
  {
    "postcode": "27248",
    "city": "Heidmännerei"
  },
  {
    "postcode": "27249",
    "city": "Berkel"
  },
  {
    "postcode": "27249",
    "city": "Brake bei Sulingen"
  },
  {
    "postcode": "27249",
    "city": "Horst"
  },
  {
    "postcode": "27249",
    "city": "Huckstedt"
  },
  {
    "postcode": "27249",
    "city": "Maasen"
  },
  {
    "postcode": "27249",
    "city": "Mellinghausen"
  },
  {
    "postcode": "27249",
    "city": "Mesloh"
  },
  {
    "postcode": "27249",
    "city": "Mirrenburg"
  },
  {
    "postcode": "27249",
    "city": "Ohlendorf"
  },
  {
    "postcode": "27249",
    "city": "Schweghaus"
  },
  {
    "postcode": "27249",
    "city": "Diepholz"
  },
  {
    "postcode": "27249",
    "city": "Knoopsburg"
  },
  {
    "postcode": "27249",
    "city": "Küfe"
  },
  {
    "postcode": "27249",
    "city": "Brake"
  },
  {
    "postcode": "27249",
    "city": "Auf der Ahe"
  },
  {
    "postcode": "27251",
    "city": "Anstedt bei Bassum"
  },
  {
    "postcode": "27251",
    "city": "Blockwinkel"
  },
  {
    "postcode": "27251",
    "city": "Cantrup bei Bassum"
  },
  {
    "postcode": "27251",
    "city": "Egenhausen"
  },
  {
    "postcode": "27251",
    "city": "Göddern bei Bassum"
  },
  {
    "postcode": "27251",
    "city": "Neuenkirchen bei Bassum"
  },
  {
    "postcode": "27251",
    "city": "Scholen"
  },
  {
    "postcode": "27251",
    "city": "Scholen bei Sulingen"
  },
  {
    "postcode": "27251",
    "city": "Diepholz"
  },
  {
    "postcode": "27251",
    "city": "Neuenkirchen"
  },
  {
    "postcode": "27251",
    "city": "Cantrup"
  },
  {
    "postcode": "27251",
    "city": "Göddern"
  },
  {
    "postcode": "27251",
    "city": "Hoope"
  },
  {
    "postcode": "27251",
    "city": "Wehrenberg"
  },
  {
    "postcode": "27251",
    "city": "Anstedt"
  },
  {
    "postcode": "27251",
    "city": "Haaßel"
  },
  {
    "postcode": "27252",
    "city": "Mallinghausen"
  },
  {
    "postcode": "27252",
    "city": "Schwaförden"
  },
  {
    "postcode": "27252",
    "city": "Diepholz"
  },
  {
    "postcode": "27252",
    "city": "Hülse"
  },
  {
    "postcode": "27254",
    "city": "Dienstborstel"
  },
  {
    "postcode": "27254",
    "city": "Harbergen"
  },
  {
    "postcode": "27254",
    "city": "Päpsen"
  },
  {
    "postcode": "27254",
    "city": "Siedenburg"
  },
  {
    "postcode": "27254",
    "city": "Staffhorst"
  },
  {
    "postcode": "27254",
    "city": "Üpsen"
  },
  {
    "postcode": "27254",
    "city": "Diepholz"
  },
  {
    "postcode": "27254",
    "city": "Päpser Heide"
  },
  {
    "postcode": "27257",
    "city": "Affinghausen"
  },
  {
    "postcode": "27257",
    "city": "Bensen"
  },
  {
    "postcode": "27257",
    "city": "Eitzen"
  },
  {
    "postcode": "27257",
    "city": "Klageholz"
  },
  {
    "postcode": "27257",
    "city": "Menninghausen"
  },
  {
    "postcode": "27257",
    "city": "Staatshausen"
  },
  {
    "postcode": "27257",
    "city": "Sudwalde"
  },
  {
    "postcode": "27257",
    "city": "Wiefhausen"
  },
  {
    "postcode": "27257",
    "city": "Diepholz"
  },
  {
    "postcode": "27257",
    "city": "Zum Kiel"
  },
  {
    "postcode": "27257",
    "city": "An der Habichthorst"
  },
  {
    "postcode": "27259",
    "city": "Brümmerloh bei Sulingen"
  },
  {
    "postcode": "27259",
    "city": "Buchhorst"
  },
  {
    "postcode": "27259",
    "city": "Dörrieloh"
  },
  {
    "postcode": "27259",
    "city": "Freistatt"
  },
  {
    "postcode": "27259",
    "city": "Freistatt bei Sulingen"
  },
  {
    "postcode": "27259",
    "city": "Heimstatt bei Sulingen"
  },
  {
    "postcode": "27259",
    "city": "Nordholz"
  },
  {
    "postcode": "27259",
    "city": "Nutteln bei Sulingen"
  },
  {
    "postcode": "27259",
    "city": "Schäkeln bei Sulingen"
  },
  {
    "postcode": "27259",
    "city": "Strange"
  },
  {
    "postcode": "27259",
    "city": "Varrel"
  },
  {
    "postcode": "27259",
    "city": "Varrel bei Sulingen"
  },
  {
    "postcode": "27259",
    "city": "Wehrbleck"
  },
  {
    "postcode": "27259",
    "city": "Diepholz"
  },
  {
    "postcode": "27259",
    "city": "Heimstatt"
  },
  {
    "postcode": "27259",
    "city": "Bensebülten"
  },
  {
    "postcode": "27259",
    "city": "Renzel"
  },
  {
    "postcode": "27259",
    "city": "Schäkeln"
  },
  {
    "postcode": "27259",
    "city": "Nutteln"
  },
  {
    "postcode": "27259",
    "city": "Torfwerk"
  },
  {
    "postcode": "27283",
    "city": "Borstel Kreis Verden Aller"
  },
  {
    "postcode": "27283",
    "city": "Borstel"
  },
  {
    "postcode": "27283",
    "city": "Dauelsen"
  },
  {
    "postcode": "27283",
    "city": "Döhlbergen"
  },
  {
    "postcode": "27283",
    "city": "Eitze"
  },
  {
    "postcode": "27283",
    "city": "Groß Hutbergen"
  },
  {
    "postcode": "27283",
    "city": "Hönisch"
  },
  {
    "postcode": "27283",
    "city": "Klein Hutbergen"
  },
  {
    "postcode": "27283",
    "city": "Scharnhorst Kreis Verden Aller"
  },
  {
    "postcode": "27283",
    "city": "Scharnhorst"
  },
  {
    "postcode": "27283",
    "city": "Verden"
  },
  {
    "postcode": "27283",
    "city": "Verden (Aller)"
  },
  {
    "postcode": "27283",
    "city": "Walle Kreis Verden Aller"
  },
  {
    "postcode": "27283",
    "city": "Walle"
  },
  {
    "postcode": "27283",
    "city": "Rieda"
  },
  {
    "postcode": "27283",
    "city": "Groß Eissel"
  },
  {
    "postcode": "27283",
    "city": "Klein Eissel"
  },
  {
    "postcode": "27299",
    "city": "Daverden"
  },
  {
    "postcode": "27299",
    "city": "Etelsen"
  },
  {
    "postcode": "27299",
    "city": "Haberloh"
  },
  {
    "postcode": "27299",
    "city": "Holtebüttel Kreis Verden Aller"
  },
  {
    "postcode": "27299",
    "city": "Holtebüttel"
  },
  {
    "postcode": "27299",
    "city": "Langwedel"
  },
  {
    "postcode": "27299",
    "city": "Langwedel Kreis Verden"
  },
  {
    "postcode": "27299",
    "city": "Völkersen"
  },
  {
    "postcode": "27299",
    "city": "Verden"
  },
  {
    "postcode": "27299",
    "city": "Cluvenhagen"
  },
  {
    "postcode": "27299",
    "city": "Dahlbrügge"
  },
  {
    "postcode": "27299",
    "city": "Langwedelermoor"
  },
  {
    "postcode": "27305",
    "city": "Berxen"
  },
  {
    "postcode": "27305",
    "city": "Bruchhausen-Vilsen"
  },
  {
    "postcode": "27305",
    "city": "Bruchhöfen"
  },
  {
    "postcode": "27305",
    "city": "Bruchmühlen Kreis Grafschaft Hoya"
  },
  {
    "postcode": "27305",
    "city": "Bruchmühlen"
  },
  {
    "postcode": "27305",
    "city": "Dille Kreis Grafschaft Hoya"
  },
  {
    "postcode": "27305",
    "city": "Dille"
  },
  {
    "postcode": "27305",
    "city": "Engeln"
  },
  {
    "postcode": "27305",
    "city": "Engeln bei Bruchhausen-Vilsen"
  },
  {
    "postcode": "27305",
    "city": "Gehlbergen"
  },
  {
    "postcode": "27305",
    "city": "Heiligenberg Kreis Grafschaft Hoya"
  },
  {
    "postcode": "27305",
    "city": "Heiligenberg"
  },
  {
    "postcode": "27305",
    "city": "Homfeld Kreis Grafschaft Hoya"
  },
  {
    "postcode": "27305",
    "city": "Homfeld"
  },
  {
    "postcode": "27305",
    "city": "Nenndorf"
  },
  {
    "postcode": "27305",
    "city": "Ochtmannien"
  },
  {
    "postcode": "27305",
    "city": "Oerdinghausen"
  },
  {
    "postcode": "27305",
    "city": "Riethausen"
  },
  {
    "postcode": "27305",
    "city": "Scholen"
  },
  {
    "postcode": "27305",
    "city": "Stapelshorn"
  },
  {
    "postcode": "27305",
    "city": "Süstedt"
  },
  {
    "postcode": "27305",
    "city": "Uenzen Kreis Grafschaft Hoya"
  },
  {
    "postcode": "27305",
    "city": "Uenzen"
  },
  {
    "postcode": "27305",
    "city": "Weseloh"
  },
  {
    "postcode": "27305",
    "city": "Wöpse"
  },
  {
    "postcode": "27305",
    "city": "Diepholz"
  },
  {
    "postcode": "27305",
    "city": "Bruchhausen"
  },
  {
    "postcode": "27305",
    "city": "Dahrelsen"
  },
  {
    "postcode": "27305",
    "city": "Voßberg"
  },
  {
    "postcode": "27305",
    "city": "Vilsen"
  },
  {
    "postcode": "27305",
    "city": "Asendorf"
  },
  {
    "postcode": "27308",
    "city": "Armsen"
  },
  {
    "postcode": "27308",
    "city": "Bendingbostel"
  },
  {
    "postcode": "27308",
    "city": "Brunsbrock"
  },
  {
    "postcode": "27308",
    "city": "Hohenaverbergen"
  },
  {
    "postcode": "27308",
    "city": "Holtum (Geest)"
  },
  {
    "postcode": "27308",
    "city": "Holtum"
  },
  {
    "postcode": "27308",
    "city": "Kirchlinteln"
  },
  {
    "postcode": "27308",
    "city": "Kreepen"
  },
  {
    "postcode": "27308",
    "city": "Kükenmoor"
  },
  {
    "postcode": "27308",
    "city": "Luttum"
  },
  {
    "postcode": "27308",
    "city": "Neddenaverbergen"
  },
  {
    "postcode": "27308",
    "city": "Neuenförde"
  },
  {
    "postcode": "27308",
    "city": "Otersen"
  },
  {
    "postcode": "27308",
    "city": "Schafwinkel"
  },
  {
    "postcode": "27308",
    "city": "Specken"
  },
  {
    "postcode": "27308",
    "city": "Stemmen"
  },
  {
    "postcode": "27308",
    "city": "Weitzmühlen"
  },
  {
    "postcode": "27308",
    "city": "Wittlohe"
  },
  {
    "postcode": "27308",
    "city": "Verden"
  },
  {
    "postcode": "27308",
    "city": "Holtum(Geest)"
  },
  {
    "postcode": "27308",
    "city": "Heins"
  },
  {
    "postcode": "27308",
    "city": "Sehlingen"
  },
  {
    "postcode": "27308",
    "city": "Ihlden"
  },
  {
    "postcode": "27313",
    "city": "Ahnebergen"
  },
  {
    "postcode": "27313",
    "city": "Barme Kreis Verden Aller"
  },
  {
    "postcode": "27313",
    "city": "Barme"
  },
  {
    "postcode": "27313",
    "city": "Barnstedt"
  },
  {
    "postcode": "27313",
    "city": "Diensthop"
  },
  {
    "postcode": "27313",
    "city": "Dörverden"
  },
  {
    "postcode": "27313",
    "city": "Drübber"
  },
  {
    "postcode": "27313",
    "city": "Geestefeld"
  },
  {
    "postcode": "27313",
    "city": "Hülsen Aller"
  },
  {
    "postcode": "27313",
    "city": "Hülsen"
  },
  {
    "postcode": "27313",
    "city": "Lohof"
  },
  {
    "postcode": "27313",
    "city": "Stedebergen"
  },
  {
    "postcode": "27313",
    "city": "Wahnebergen"
  },
  {
    "postcode": "27313",
    "city": "Verden"
  },
  {
    "postcode": "27313",
    "city": "Westen"
  },
  {
    "postcode": "27313",
    "city": "Borstel"
  },
  {
    "postcode": "27313",
    "city": "Hühnerrehr"
  },
  {
    "postcode": "27318",
    "city": "Eitzendorf"
  },
  {
    "postcode": "27318",
    "city": "Heesen Kreis Grafschaft Hoya"
  },
  {
    "postcode": "27318",
    "city": "Heesen"
  },
  {
    "postcode": "27318",
    "city": "Hilgermissen"
  },
  {
    "postcode": "27318",
    "city": "Hingste"
  },
  {
    "postcode": "27318",
    "city": "Hoya Weser"
  },
  {
    "postcode": "27318",
    "city": "Hoya"
  },
  {
    "postcode": "27318",
    "city": "Hoyerhagen"
  },
  {
    "postcode": "27318",
    "city": "Magelsen"
  },
  {
    "postcode": "27318",
    "city": "Mehringen Kreis Grafschaft Hoya"
  },
  {
    "postcode": "27318",
    "city": "Mehringen"
  },
  {
    "postcode": "27318",
    "city": "Memsen"
  },
  {
    "postcode": "27318",
    "city": "Ubbendorf Kreis Grafschaft Hoya"
  },
  {
    "postcode": "27318",
    "city": "Ubbendorf"
  },
  {
    "postcode": "27318",
    "city": "Wechold"
  },
  {
    "postcode": "27318",
    "city": "Wienbergen"
  },
  {
    "postcode": "27318",
    "city": "Nienburg_Weser"
  },
  {
    "postcode": "27318",
    "city": "Alvesen"
  },
  {
    "postcode": "27318",
    "city": "Schmetsort"
  },
  {
    "postcode": "27318",
    "city": "Holsten"
  },
  {
    "postcode": "27318",
    "city": "Moorhof"
  },
  {
    "postcode": "27318",
    "city": "Obernhude"
  },
  {
    "postcode": "27318",
    "city": "Auf dem Floth"
  },
  {
    "postcode": "27318",
    "city": "Vorm Mallen"
  },
  {
    "postcode": "27318",
    "city": "Westen"
  },
  {
    "postcode": "27321",
    "city": "Ahsen-Oetzen Kreis Verden Aller"
  },
  {
    "postcode": "27321",
    "city": "Ahsen-Oetzen"
  },
  {
    "postcode": "27321",
    "city": "Bahlum"
  },
  {
    "postcode": "27321",
    "city": "Beppen Kreis Verden Aller"
  },
  {
    "postcode": "27321",
    "city": "Beppen"
  },
  {
    "postcode": "27321",
    "city": "Dibbersen"
  },
  {
    "postcode": "27321",
    "city": "Donnerstedt"
  },
  {
    "postcode": "27321",
    "city": "Eißel"
  },
  {
    "postcode": "27321",
    "city": "Emtinghausen"
  },
  {
    "postcode": "27321",
    "city": "Holtorf"
  },
  {
    "postcode": "27321",
    "city": "Horstedt"
  },
  {
    "postcode": "27321",
    "city": "Knickende Kreis Verden Aller"
  },
  {
    "postcode": "27321",
    "city": "Knickende"
  },
  {
    "postcode": "27321",
    "city": "Lunsen"
  },
  {
    "postcode": "27321",
    "city": "Morsum"
  },
  {
    "postcode": "27321",
    "city": "Nottorf Kreis Verden Aller"
  },
  {
    "postcode": "27321",
    "city": "Nottorf"
  },
  {
    "postcode": "27321",
    "city": "Thedinghausen"
  },
  {
    "postcode": "27321",
    "city": "Werder"
  },
  {
    "postcode": "27321",
    "city": "Wulmstorf Kreis Verden Aller"
  },
  {
    "postcode": "27321",
    "city": "Wulmstorf"
  },
  {
    "postcode": "27321",
    "city": "Verden"
  },
  {
    "postcode": "27321",
    "city": "Ahsen"
  },
  {
    "postcode": "27321",
    "city": "Oetzen"
  },
  {
    "postcode": "27324",
    "city": "Eystrup"
  },
  {
    "postcode": "27324",
    "city": "Gandesbergen"
  },
  {
    "postcode": "27324",
    "city": "Hämelhausen"
  },
  {
    "postcode": "27324",
    "city": "Hassel (Weser)"
  },
  {
    "postcode": "27324",
    "city": "Hassel"
  },
  {
    "postcode": "27324",
    "city": "Hohenholz"
  },
  {
    "postcode": "27324",
    "city": "Mahlen"
  },
  {
    "postcode": "27324",
    "city": "Schweringen"
  },
  {
    "postcode": "27324",
    "city": "Schweringen Ziegelei"
  },
  {
    "postcode": "27324",
    "city": "Nienburg_Weser"
  },
  {
    "postcode": "27324",
    "city": "Doenhausen"
  },
  {
    "postcode": "27324",
    "city": "Hämelheide"
  },
  {
    "postcode": "27327",
    "city": "Brandheide"
  },
  {
    "postcode": "27327",
    "city": "Büngelshausen"
  },
  {
    "postcode": "27327",
    "city": "Groß Borstel"
  },
  {
    "postcode": "27327",
    "city": "Hollen"
  },
  {
    "postcode": "27327",
    "city": "Hustedt"
  },
  {
    "postcode": "27327",
    "city": "Kleinenborstel"
  },
  {
    "postcode": "27327",
    "city": "Martfeld"
  },
  {
    "postcode": "27327",
    "city": "Normannshausen"
  },
  {
    "postcode": "27327",
    "city": "Schwarme"
  },
  {
    "postcode": "27327",
    "city": "Spraken"
  },
  {
    "postcode": "27327",
    "city": "Tuschendorf"
  },
  {
    "postcode": "27327",
    "city": "Diepholz"
  },
  {
    "postcode": "27327",
    "city": "Loge"
  },
  {
    "postcode": "27327",
    "city": "Heide"
  },
  {
    "postcode": "27327",
    "city": "Hörsten"
  },
  {
    "postcode": "27327",
    "city": "Klein Schwarme"
  },
  {
    "postcode": "27330",
    "city": "Affendorf"
  },
  {
    "postcode": "27330",
    "city": "Altenfelde"
  },
  {
    "postcode": "27330",
    "city": "Arbste Kreis Grafschaft Hoya"
  },
  {
    "postcode": "27330",
    "city": "Arbste"
  },
  {
    "postcode": "27330",
    "city": "Asendorf"
  },
  {
    "postcode": "27330",
    "city": "Asendorf bei Bruchhausen-Vilsen"
  },
  {
    "postcode": "27330",
    "city": "Barbrake"
  },
  {
    "postcode": "27330",
    "city": "Brebber"
  },
  {
    "postcode": "27330",
    "city": "Brüne Kreis Grafschaft Hoya"
  },
  {
    "postcode": "27330",
    "city": "Brüne"
  },
  {
    "postcode": "27330",
    "city": "Essen Kreis Grafschaft Hoya"
  },
  {
    "postcode": "27330",
    "city": "Essen"
  },
  {
    "postcode": "27330",
    "city": "Graue"
  },
  {
    "postcode": "27330",
    "city": "Haendorf"
  },
  {
    "postcode": "27330",
    "city": "Hardenbostel"
  },
  {
    "postcode": "27330",
    "city": "Hohenmoor"
  },
  {
    "postcode": "27330",
    "city": "Kampsheide Kreis Grafschaft Hoya"
  },
  {
    "postcode": "27330",
    "city": "Kampsheide"
  },
  {
    "postcode": "27330",
    "city": "Lichtenberg Kreis Grafschaft Hoya"
  },
  {
    "postcode": "27330",
    "city": "Lichtenberg"
  },
  {
    "postcode": "27330",
    "city": "Niemannsbruch Kreis Grafschaft Hoya"
  },
  {
    "postcode": "27330",
    "city": "Niemannsbruch"
  },
  {
    "postcode": "27330",
    "city": "Renzelfelde Kreis Grafschaft Hoya"
  },
  {
    "postcode": "27330",
    "city": "Renzelfelde"
  },
  {
    "postcode": "27330",
    "city": "Schierenhop"
  },
  {
    "postcode": "27330",
    "city": "Steimke"
  },
  {
    "postcode": "27330",
    "city": "Steinborn Kreis Grafschaft Hoya"
  },
  {
    "postcode": "27330",
    "city": "Steinborn"
  },
  {
    "postcode": "27330",
    "city": "Diepholz"
  },
  {
    "postcode": "27330",
    "city": "Kuhlenkamp"
  },
  {
    "postcode": "27330",
    "city": "Uepsen"
  },
  {
    "postcode": "27330",
    "city": "Essener Heide"
  },
  {
    "postcode": "27333",
    "city": "Bücken"
  },
  {
    "postcode": "27333",
    "city": "Bücken bei Hoya"
  },
  {
    "postcode": "27333",
    "city": "Calle Kreis Grafschaft Hoya"
  },
  {
    "postcode": "27333",
    "city": "Calle"
  },
  {
    "postcode": "27333",
    "city": "Dedendorf Kreis Grafschaft Hoya"
  },
  {
    "postcode": "27333",
    "city": "Dedendorf"
  },
  {
    "postcode": "27333",
    "city": "Duddenhausen Kreis Grafschaft Hoya"
  },
  {
    "postcode": "27333",
    "city": "Duddenhausen"
  },
  {
    "postcode": "27333",
    "city": "Eiße"
  },
  {
    "postcode": "27333",
    "city": "Helzendorf"
  },
  {
    "postcode": "27333",
    "city": "Holtrup Kreis Grafschaft Hoya"
  },
  {
    "postcode": "27333",
    "city": "Holtrup"
  },
  {
    "postcode": "27333",
    "city": "Schweringen"
  },
  {
    "postcode": "27333",
    "city": "Stendern Kreis Grafschaft Hoya"
  },
  {
    "postcode": "27333",
    "city": "Stendern"
  },
  {
    "postcode": "27333",
    "city": "Warpe"
  },
  {
    "postcode": "27333",
    "city": "Nienburg_Weser"
  },
  {
    "postcode": "27333",
    "city": "Auf dem Heidböhl"
  },
  {
    "postcode": "27333",
    "city": "Barke"
  },
  {
    "postcode": "27333",
    "city": "Altenbücken"
  },
  {
    "postcode": "27333",
    "city": "Hinterm Bruch"
  },
  {
    "postcode": "27333",
    "city": "Nordholz"
  },
  {
    "postcode": "27333",
    "city": "Burdorf"
  },
  {
    "postcode": "27333",
    "city": "Hohnhorst"
  },
  {
    "postcode": "27333",
    "city": "Mahlenstorf"
  },
  {
    "postcode": "27333",
    "city": "Windhorst"
  },
  {
    "postcode": "27336",
    "city": "Bosse Aller"
  },
  {
    "postcode": "27336",
    "city": "Bosse"
  },
  {
    "postcode": "27336",
    "city": "Frankenfeld"
  },
  {
    "postcode": "27336",
    "city": "Frankenfeld Aller"
  },
  {
    "postcode": "27336",
    "city": "Groß Häuslingen"
  },
  {
    "postcode": "27336",
    "city": "Häuslingen Aller"
  },
  {
    "postcode": "27336",
    "city": "Häuslingen"
  },
  {
    "postcode": "27336",
    "city": "Hedern Aller"
  },
  {
    "postcode": "27336",
    "city": "Hedern"
  },
  {
    "postcode": "27336",
    "city": "Klein Häuslingen"
  },
  {
    "postcode": "27336",
    "city": "Rethem"
  },
  {
    "postcode": "27336",
    "city": "Rethem (Aller)"
  },
  {
    "postcode": "27336",
    "city": "Stöcken Aller"
  },
  {
    "postcode": "27336",
    "city": "Stöcken"
  },
  {
    "postcode": "27336",
    "city": "Wohlendorf Aller"
  },
  {
    "postcode": "27336",
    "city": "Wohlendorf"
  },
  {
    "postcode": "27336",
    "city": "Heidekreis"
  },
  {
    "postcode": "27336",
    "city": "Frankenfelder Mühle"
  },
  {
    "postcode": "27336",
    "city": "Neu Bosse"
  },
  {
    "postcode": "27336",
    "city": "Mühlenhof"
  },
  {
    "postcode": "27336",
    "city": "Risch"
  },
  {
    "postcode": "27336",
    "city": "Rethem Moor"
  },
  {
    "postcode": "27336",
    "city": "Finkenhütte"
  },
  {
    "postcode": "27336",
    "city": "Landwehr"
  },
  {
    "postcode": "27336",
    "city": "Wöhlkenhütte"
  },
  {
    "postcode": "27337",
    "city": "Adolfshausen"
  },
  {
    "postcode": "27337",
    "city": "Amedorf"
  },
  {
    "postcode": "27337",
    "city": "Blender"
  },
  {
    "postcode": "27337",
    "city": "Einste"
  },
  {
    "postcode": "27337",
    "city": "Gahlstorf"
  },
  {
    "postcode": "27337",
    "city": "Hiddestorf Kreis Verden Aller"
  },
  {
    "postcode": "27337",
    "city": "Hiddestorf"
  },
  {
    "postcode": "27337",
    "city": "Intschede Kreis Verden Aller"
  },
  {
    "postcode": "27337",
    "city": "Intschede"
  },
  {
    "postcode": "27337",
    "city": "Oiste Kreis Verden Aller"
  },
  {
    "postcode": "27337",
    "city": "Oiste"
  },
  {
    "postcode": "27337",
    "city": "Reer"
  },
  {
    "postcode": "27337",
    "city": "Ritzenbergen Kreis Verden Aller"
  },
  {
    "postcode": "27337",
    "city": "Ritzenbergen"
  },
  {
    "postcode": "27337",
    "city": "Seestedt"
  },
  {
    "postcode": "27337",
    "city": "Winkel"
  },
  {
    "postcode": "27337",
    "city": "Verden"
  },
  {
    "postcode": "27337",
    "city": "Holtum Marsch"
  },
  {
    "postcode": "27337",
    "city": "Varste"
  },
  {
    "postcode": "27337",
    "city": "Neu Holtum"
  },
  {
    "postcode": "27339",
    "city": "Felde bei Syke"
  },
  {
    "postcode": "27339",
    "city": "Heiligenbruch bei Syke"
  },
  {
    "postcode": "27339",
    "city": "Ketsche bei Syke"
  },
  {
    "postcode": "27339",
    "city": "Riede"
  },
  {
    "postcode": "27339",
    "city": "Riede Kreis Verden"
  },
  {
    "postcode": "27339",
    "city": "Verden"
  },
  {
    "postcode": "27339",
    "city": "Felde"
  },
  {
    "postcode": "27339",
    "city": "Heiligenbruch"
  },
  {
    "postcode": "27356",
    "city": "Borchel"
  },
  {
    "postcode": "27356",
    "city": "Hohenesch Wümme"
  },
  {
    "postcode": "27356",
    "city": "Hohenesch"
  },
  {
    "postcode": "27356",
    "city": "Mulmshorn"
  },
  {
    "postcode": "27356",
    "city": "Rotenburg"
  },
  {
    "postcode": "27356",
    "city": "Rotenburg an der Wümme"
  },
  {
    "postcode": "27356",
    "city": "Unterstedt Wümme"
  },
  {
    "postcode": "27356",
    "city": "Unterstedt"
  },
  {
    "postcode": "27356",
    "city": "Waffensen"
  },
  {
    "postcode": "27356",
    "city": "Rotenburg Wümme"
  },
  {
    "postcode": "27356",
    "city": "Rotenburg (Wümme)"
  },
  {
    "postcode": "27356",
    "city": "Siedlung Luhne"
  },
  {
    "postcode": "27367",
    "city": "Ahausen"
  },
  {
    "postcode": "27367",
    "city": "Ahausen Kreis Rotenburg Wümme"
  },
  {
    "postcode": "27367",
    "city": "Bittstedt Kreis Rotenburg Wümme"
  },
  {
    "postcode": "27367",
    "city": "Bittstedt"
  },
  {
    "postcode": "27367",
    "city": "Bockel Kreis Rotenburg Wümme"
  },
  {
    "postcode": "27367",
    "city": "Bockel"
  },
  {
    "postcode": "27367",
    "city": "Bötersen"
  },
  {
    "postcode": "27367",
    "city": "Bünte Kreis Rotenburg Wümme"
  },
  {
    "postcode": "27367",
    "city": "Bünte"
  },
  {
    "postcode": "27367",
    "city": "Clüversborstel Kreis Rotenburg Wümme"
  },
  {
    "postcode": "27367",
    "city": "Clüversborstel"
  },
  {
    "postcode": "27367",
    "city": "Everinghausen Kreis Rotenburg Wümme"
  },
  {
    "postcode": "27367",
    "city": "Everinghausen"
  },
  {
    "postcode": "27367",
    "city": "Eversen Kreis Rotenburg Wümme"
  },
  {
    "postcode": "27367",
    "city": "Eversen"
  },
  {
    "postcode": "27367",
    "city": "Fährhof Kreis Rotenburg Wümme"
  },
  {
    "postcode": "27367",
    "city": "Fährhof"
  },
  {
    "postcode": "27367",
    "city": "Hassendorf bei Rotenburg an der Wümme"
  },
  {
    "postcode": "27367",
    "city": "Hellwege"
  },
  {
    "postcode": "27367",
    "city": "Hellwege bei Rotenburg an der Wümme"
  },
  {
    "postcode": "27367",
    "city": "Horstedt"
  },
  {
    "postcode": "27367",
    "city": "Horstedt Kreis Rotenburg an der Wümme"
  },
  {
    "postcode": "27367",
    "city": "Jeerhof Kreis Rotenburg Wümme"
  },
  {
    "postcode": "27367",
    "city": "Jeerhof"
  },
  {
    "postcode": "27367",
    "city": "Reeßum"
  },
  {
    "postcode": "27367",
    "city": "Schleeßel Kreis Rotenburg Wümme"
  },
  {
    "postcode": "27367",
    "city": "Schleeßel"
  },
  {
    "postcode": "27367",
    "city": "Sottrum"
  },
  {
    "postcode": "27367",
    "city": "Sottrum Kreis Rotenburg an der Wümme"
  },
  {
    "postcode": "27367",
    "city": "Stapel Kreis Rotenburg Wümme"
  },
  {
    "postcode": "27367",
    "city": "Stapel"
  },
  {
    "postcode": "27367",
    "city": "Stuckenborstel"
  },
  {
    "postcode": "27367",
    "city": "Taaken"
  },
  {
    "postcode": "27367",
    "city": "Winkeldorf"
  },
  {
    "postcode": "27367",
    "city": "Rotenburg Wümme"
  },
  {
    "postcode": "27367",
    "city": "Hassendorf"
  },
  {
    "postcode": "27367",
    "city": "Höperhöfen"
  },
  {
    "postcode": "27367",
    "city": "Stelle"
  },
  {
    "postcode": "27367",
    "city": "Wümmebogen"
  },
  {
    "postcode": "27367",
    "city": "Clünder"
  },
  {
    "postcode": "27367",
    "city": "Platenhof"
  },
  {
    "postcode": "27374",
    "city": "Battenbrock"
  },
  {
    "postcode": "27374",
    "city": "Bleckwedel"
  },
  {
    "postcode": "27374",
    "city": "Bretel"
  },
  {
    "postcode": "27374",
    "city": "Buchholz"
  },
  {
    "postcode": "27374",
    "city": "Delventhal"
  },
  {
    "postcode": "27374",
    "city": "Dreeßel"
  },
  {
    "postcode": "27374",
    "city": "Drögenbostel"
  },
  {
    "postcode": "27374",
    "city": "Egenbostel"
  },
  {
    "postcode": "27374",
    "city": "Gemeinde Bothel"
  },
  {
    "postcode": "27374",
    "city": "Heelsen"
  },
  {
    "postcode": "27374",
    "city": "Hiddingen"
  },
  {
    "postcode": "27374",
    "city": "Jeddingen"
  },
  {
    "postcode": "27374",
    "city": "Jürshof"
  },
  {
    "postcode": "27374",
    "city": "Kettenburg"
  },
  {
    "postcode": "27374",
    "city": "Lüdingen"
  },
  {
    "postcode": "27374",
    "city": "Moordorf"
  },
  {
    "postcode": "27374",
    "city": "Nindorf Kreis Rotenburg Wümme"
  },
  {
    "postcode": "27374",
    "city": "Nindorf"
  },
  {
    "postcode": "27374",
    "city": "Ottingen"
  },
  {
    "postcode": "27374",
    "city": "Rosebruch"
  },
  {
    "postcode": "27374",
    "city": "Schwitschen"
  },
  {
    "postcode": "27374",
    "city": "Visselhövede"
  },
  {
    "postcode": "27374",
    "city": "Wehnsen"
  },
  {
    "postcode": "27374",
    "city": "Wittorf Kreis Rotenburg Wümme"
  },
  {
    "postcode": "27374",
    "city": "Wittorf"
  },
  {
    "postcode": "27374",
    "city": "Rotenburg Wümme"
  },
  {
    "postcode": "27374",
    "city": "Affwinkel"
  },
  {
    "postcode": "27374",
    "city": "Gem. Bothel"
  },
  {
    "postcode": "27374",
    "city": "Neu Bretel"
  },
  {
    "postcode": "27374",
    "city": "Siedlung Bretel"
  },
  {
    "postcode": "27374",
    "city": "Fahlbeck"
  },
  {
    "postcode": "27374",
    "city": "Grapenmühlen"
  },
  {
    "postcode": "27374",
    "city": "Griemen"
  },
  {
    "postcode": "27374",
    "city": "Hainhorst"
  },
  {
    "postcode": "27374",
    "city": "Hilligensehl"
  },
  {
    "postcode": "27374",
    "city": "Tadel"
  },
  {
    "postcode": "27383",
    "city": "Abbendorf Kreis Rotenburg Wümme"
  },
  {
    "postcode": "27383",
    "city": "Abbendorf"
  },
  {
    "postcode": "27383",
    "city": "Bartelsdorf"
  },
  {
    "postcode": "27383",
    "city": "Deepen"
  },
  {
    "postcode": "27383",
    "city": "Einloh"
  },
  {
    "postcode": "27383",
    "city": "Hetzwege"
  },
  {
    "postcode": "27383",
    "city": "Jeersdorf"
  },
  {
    "postcode": "27383",
    "city": "Oldenhöfen"
  },
  {
    "postcode": "27383",
    "city": "Ostervesede"
  },
  {
    "postcode": "27383",
    "city": "Scheeßel"
  },
  {
    "postcode": "27383",
    "city": "Sothel"
  },
  {
    "postcode": "27383",
    "city": "Varel"
  },
  {
    "postcode": "27383",
    "city": "Veerse"
  },
  {
    "postcode": "27383",
    "city": "Wenkeloh"
  },
  {
    "postcode": "27383",
    "city": "Westeresch"
  },
  {
    "postcode": "27383",
    "city": "Westerholz Kreis Rotenburg Wümme"
  },
  {
    "postcode": "27383",
    "city": "Westerholz"
  },
  {
    "postcode": "27383",
    "city": "Westervesede"
  },
  {
    "postcode": "27383",
    "city": "Wittkopsbostel"
  },
  {
    "postcode": "27383",
    "city": "Wohlsdorf"
  },
  {
    "postcode": "27383",
    "city": "Rotenburg Wümme"
  },
  {
    "postcode": "27383",
    "city": "Büschelskamp"
  },
  {
    "postcode": "27383",
    "city": "Emmen"
  },
  {
    "postcode": "27383",
    "city": "Höllenkamp"
  },
  {
    "postcode": "27383",
    "city": "Ostlandsiedlung"
  },
  {
    "postcode": "27383",
    "city": "Veersebrück"
  },
  {
    "postcode": "27386",
    "city": "Bellen Kreis Rotenburg Wümme"
  },
  {
    "postcode": "27386",
    "city": "Bellen"
  },
  {
    "postcode": "27386",
    "city": "Bothel Kreis Rotenburg an der Wümme"
  },
  {
    "postcode": "27386",
    "city": "Bothel"
  },
  {
    "postcode": "27386",
    "city": "Brockel"
  },
  {
    "postcode": "27386",
    "city": "Brockel Kreis Rotenburg an der Wümme"
  },
  {
    "postcode": "27386",
    "city": "Hassel Wümme"
  },
  {
    "postcode": "27386",
    "city": "Hassel"
  },
  {
    "postcode": "27386",
    "city": "Hastedt Wümme"
  },
  {
    "postcode": "27386",
    "city": "Hastedt"
  },
  {
    "postcode": "27386",
    "city": "Hemsbünde"
  },
  {
    "postcode": "27386",
    "city": "Hemslingen"
  },
  {
    "postcode": "27386",
    "city": "Kirchwalsede"
  },
  {
    "postcode": "27386",
    "city": "Rahnhorst"
  },
  {
    "postcode": "27386",
    "city": "Riekenbostel"
  },
  {
    "postcode": "27386",
    "city": "Söhlingen"
  },
  {
    "postcode": "27386",
    "city": "Süderwalsede"
  },
  {
    "postcode": "27386",
    "city": "Weißenmoor"
  },
  {
    "postcode": "27386",
    "city": "Wensebrock Kreis Rotenburg Wümme"
  },
  {
    "postcode": "27386",
    "city": "Wensebrock"
  },
  {
    "postcode": "27386",
    "city": "Westerwalsede"
  },
  {
    "postcode": "27386",
    "city": "Worth Wümme"
  },
  {
    "postcode": "27386",
    "city": "Worth"
  },
  {
    "postcode": "27386",
    "city": "Rotenburg Wümme"
  },
  {
    "postcode": "27386",
    "city": "Bahnhof Brockel"
  },
  {
    "postcode": "27386",
    "city": "Trochel"
  },
  {
    "postcode": "27386",
    "city": "Eckhoff in der Heide"
  },
  {
    "postcode": "27386",
    "city": "Bahnhof Westerwalsede"
  },
  {
    "postcode": "27389",
    "city": "Benkeloh"
  },
  {
    "postcode": "27389",
    "city": "Fintel"
  },
  {
    "postcode": "27389",
    "city": "Haxloh"
  },
  {
    "postcode": "27389",
    "city": "Helvesiek"
  },
  {
    "postcode": "27389",
    "city": "Lauenbrück"
  },
  {
    "postcode": "27389",
    "city": "Rehr"
  },
  {
    "postcode": "27389",
    "city": "Riepe"
  },
  {
    "postcode": "27389",
    "city": "Stemmen"
  },
  {
    "postcode": "27389",
    "city": "Stemmen bei Rotenburg an der Wümme"
  },
  {
    "postcode": "27389",
    "city": "Vahlde"
  },
  {
    "postcode": "27389",
    "city": "Rotenburg Wümme"
  },
  {
    "postcode": "27389",
    "city": "Appel"
  },
  {
    "postcode": "27389",
    "city": "Drögenholz"
  },
  {
    "postcode": "27389",
    "city": "Griemshoop"
  },
  {
    "postcode": "27389",
    "city": "Hunhorn"
  },
  {
    "postcode": "27389",
    "city": "Neuenfelde"
  },
  {
    "postcode": "27389",
    "city": "Stell"
  },
  {
    "postcode": "27389",
    "city": "Stemmerfeld"
  },
  {
    "postcode": "27389",
    "city": "Dreihausen"
  },
  {
    "postcode": "27389",
    "city": "Roter Moor"
  },
  {
    "postcode": "27404",
    "city": "Bademühlen"
  },
  {
    "postcode": "27404",
    "city": "Badenstedt"
  },
  {
    "postcode": "27404",
    "city": "Bockel"
  },
  {
    "postcode": "27404",
    "city": "Boitzen"
  },
  {
    "postcode": "27404",
    "city": "Brauel"
  },
  {
    "postcode": "27404",
    "city": "Brümmerhof Kreis Bremervörde"
  },
  {
    "postcode": "27404",
    "city": "Brümmerhof"
  },
  {
    "postcode": "27404",
    "city": "Brüttendorf"
  },
  {
    "postcode": "27404",
    "city": "Ehestorf Niedersachsen"
  },
  {
    "postcode": "27404",
    "city": "Ehestorf"
  },
  {
    "postcode": "27404",
    "city": "Elsdorf Niedersachsen"
  },
  {
    "postcode": "27404",
    "city": "Elsdorf"
  },
  {
    "postcode": "27404",
    "city": "Frankenbostel Niedersachsen"
  },
  {
    "postcode": "27404",
    "city": "Frankenbostel"
  },
  {
    "postcode": "27404",
    "city": "Freyersen"
  },
  {
    "postcode": "27404",
    "city": "Godenstedt"
  },
  {
    "postcode": "27404",
    "city": "Gyhum"
  },
  {
    "postcode": "27404",
    "city": "Hatzte Niedersachsen"
  },
  {
    "postcode": "27404",
    "city": "Hatzte"
  },
  {
    "postcode": "27404",
    "city": "Heeslingen"
  },
  {
    "postcode": "27404",
    "city": "Hesedorf bei Gyhum"
  },
  {
    "postcode": "27404",
    "city": "Meinstedt"
  },
  {
    "postcode": "27404",
    "city": "Nartum"
  },
  {
    "postcode": "27404",
    "city": "Offensen"
  },
  {
    "postcode": "27404",
    "city": "Oldendorf Kreis Bremervörde"
  },
  {
    "postcode": "27404",
    "city": "Oldendorf"
  },
  {
    "postcode": "27404",
    "city": "Ostereistedt"
  },
  {
    "postcode": "27404",
    "city": "Poitzendorf Niedersachsen"
  },
  {
    "postcode": "27404",
    "city": "Poitzendorf"
  },
  {
    "postcode": "27404",
    "city": "Rhade"
  },
  {
    "postcode": "27404",
    "city": "Rhade bei Zeven"
  },
  {
    "postcode": "27404",
    "city": "Rhadereistedt"
  },
  {
    "postcode": "27404",
    "city": "Rockstedt bei Zeven"
  },
  {
    "postcode": "27404",
    "city": "Rüspel"
  },
  {
    "postcode": "27404",
    "city": "Sassenholz"
  },
  {
    "postcode": "27404",
    "city": "Seedorf bei Zeven"
  },
  {
    "postcode": "27404",
    "city": "Sellhorn"
  },
  {
    "postcode": "27404",
    "city": "Steddorf"
  },
  {
    "postcode": "27404",
    "city": "Viehbrock"
  },
  {
    "postcode": "27404",
    "city": "Volkensen"
  },
  {
    "postcode": "27404",
    "city": "Weertzen"
  },
  {
    "postcode": "27404",
    "city": "Wehldorf"
  },
  {
    "postcode": "27404",
    "city": "Wense Kreis Bremervörde"
  },
  {
    "postcode": "27404",
    "city": "Wense"
  },
  {
    "postcode": "27404",
    "city": "Wiersdorf Kreis Bremervörde"
  },
  {
    "postcode": "27404",
    "city": "Wiersdorf"
  },
  {
    "postcode": "27404",
    "city": "Wistedt bei Elsdorf Niedersachsen"
  },
  {
    "postcode": "27404",
    "city": "Wistedt bei Elsdorf"
  },
  {
    "postcode": "27404",
    "city": "Zeven"
  },
  {
    "postcode": "27404",
    "city": "Rotenburg Wümme"
  },
  {
    "postcode": "27404",
    "city": "Seedorf"
  },
  {
    "postcode": "27404",
    "city": "Nindorf"
  },
  {
    "postcode": "27404",
    "city": "Hesedorf"
  },
  {
    "postcode": "27404",
    "city": "Osterboitzen"
  },
  {
    "postcode": "27404",
    "city": "Rockstedt"
  },
  {
    "postcode": "27404",
    "city": "Wennebostel"
  },
  {
    "postcode": "27404",
    "city": "Hoheluft"
  },
  {
    "postcode": "27404",
    "city": "Am Bogel"
  },
  {
    "postcode": "27404",
    "city": "Bahnhof Godenstedt"
  },
  {
    "postcode": "27404",
    "city": "Wistedt"
  },
  {
    "postcode": "27412",
    "city": "Altenbülstedt"
  },
  {
    "postcode": "27412",
    "city": "Breddorf"
  },
  {
    "postcode": "27412",
    "city": "Buchholz bei Bremen"
  },
  {
    "postcode": "27412",
    "city": "Bülstedt"
  },
  {
    "postcode": "27412",
    "city": "Dipshorn bei Bremen"
  },
  {
    "postcode": "27412",
    "city": "Hanstedt Kreis Bremervörde"
  },
  {
    "postcode": "27412",
    "city": "Hanstedt"
  },
  {
    "postcode": "27412",
    "city": "Hepstedt"
  },
  {
    "postcode": "27412",
    "city": "Kirchtimke"
  },
  {
    "postcode": "27412",
    "city": "Neuenbülstedt"
  },
  {
    "postcode": "27412",
    "city": "Ostertimke"
  },
  {
    "postcode": "27412",
    "city": "Steinfeld"
  },
  {
    "postcode": "27412",
    "city": "Tarmstedt"
  },
  {
    "postcode": "27412",
    "city": "Vorwerk bei Tarmstedt"
  },
  {
    "postcode": "27412",
    "city": "Wentel"
  },
  {
    "postcode": "27412",
    "city": "Westertimke"
  },
  {
    "postcode": "27412",
    "city": "Wilstedt Niedersachsen"
  },
  {
    "postcode": "27412",
    "city": "Wilstedt"
  },
  {
    "postcode": "27412",
    "city": "Rotenburg Wümme"
  },
  {
    "postcode": "27412",
    "city": "Vorwerk"
  },
  {
    "postcode": "27412",
    "city": "Osterbruch"
  },
  {
    "postcode": "27412",
    "city": "Buchholz"
  },
  {
    "postcode": "27412",
    "city": "Dipshorn"
  },
  {
    "postcode": "27412",
    "city": "Hof Hollinghausen"
  },
  {
    "postcode": "27419",
    "city": "Freetz"
  },
  {
    "postcode": "27419",
    "city": "Groß Meckelsen"
  },
  {
    "postcode": "27419",
    "city": "Hamersen"
  },
  {
    "postcode": "27419",
    "city": "Ippensen"
  },
  {
    "postcode": "27419",
    "city": "Kalbe bei Sittensen"
  },
  {
    "postcode": "27419",
    "city": "Klein Ippensen"
  },
  {
    "postcode": "27419",
    "city": "Klein Meckelsen"
  },
  {
    "postcode": "27419",
    "city": "Langenfelde"
  },
  {
    "postcode": "27419",
    "city": "Lengenbostel"
  },
  {
    "postcode": "27419",
    "city": "Marschhorst"
  },
  {
    "postcode": "27419",
    "city": "Nüttel"
  },
  {
    "postcode": "27419",
    "city": "Ramshausen"
  },
  {
    "postcode": "27419",
    "city": "Sittensen"
  },
  {
    "postcode": "27419",
    "city": "Tiste"
  },
  {
    "postcode": "27419",
    "city": "Vierden"
  },
  {
    "postcode": "27419",
    "city": "Wohnste"
  },
  {
    "postcode": "27419",
    "city": "Rotenburg Wümme"
  },
  {
    "postcode": "27419",
    "city": "Kalbe"
  },
  {
    "postcode": "27419",
    "city": "Alpershausen"
  },
  {
    "postcode": "27419",
    "city": "Hanschhorst"
  },
  {
    "postcode": "27419",
    "city": "Heidorn"
  },
  {
    "postcode": "27419",
    "city": "Burgsittensen"
  },
  {
    "postcode": "27419",
    "city": "Herwigshof"
  },
  {
    "postcode": "27419",
    "city": "Groß Ippensen"
  },
  {
    "postcode": "27419",
    "city": "Ippensen Süd"
  },
  {
    "postcode": "27432",
    "city": "Alfstedt bei Bremervörde"
  },
  {
    "postcode": "27432",
    "city": "Barchel"
  },
  {
    "postcode": "27432",
    "city": "Basdahl"
  },
  {
    "postcode": "27432",
    "city": "Bevern Kreis Bremervörde"
  },
  {
    "postcode": "27432",
    "city": "Bevern"
  },
  {
    "postcode": "27432",
    "city": "Bremervörde"
  },
  {
    "postcode": "27432",
    "city": "Ebersdorf"
  },
  {
    "postcode": "27432",
    "city": "Ebersdorf bei Bremervörde"
  },
  {
    "postcode": "27432",
    "city": "Elm Kreis Bremervörde"
  },
  {
    "postcode": "27432",
    "city": "Elm"
  },
  {
    "postcode": "27432",
    "city": "Glinde"
  },
  {
    "postcode": "27432",
    "city": "Heinschenwalde"
  },
  {
    "postcode": "27432",
    "city": "Hesedorf bei Bremervörde"
  },
  {
    "postcode": "27432",
    "city": "Hipstedt"
  },
  {
    "postcode": "27432",
    "city": "Hönau-Lindorf"
  },
  {
    "postcode": "27432",
    "city": "Iselersheim"
  },
  {
    "postcode": "27432",
    "city": "Malse Forsthaus"
  },
  {
    "postcode": "27432",
    "city": "Malse"
  },
  {
    "postcode": "27432",
    "city": "Mehedorf"
  },
  {
    "postcode": "27432",
    "city": "Minstedt Kreis Bremervörde"
  },
  {
    "postcode": "27432",
    "city": "Minstedt"
  },
  {
    "postcode": "27432",
    "city": "Neu Ebersdorf Kreis Bremervörde"
  },
  {
    "postcode": "27432",
    "city": "Neu Ebersdorf"
  },
  {
    "postcode": "27432",
    "city": "Nieder Ochtenhausen"
  },
  {
    "postcode": "27432",
    "city": "Oerel"
  },
  {
    "postcode": "27432",
    "city": "Oese"
  },
  {
    "postcode": "27432",
    "city": "Ostendorf"
  },
  {
    "postcode": "27432",
    "city": "Plönjeshausen Kreis Bremervörde"
  },
  {
    "postcode": "27432",
    "city": "Plönjeshausen"
  },
  {
    "postcode": "27432",
    "city": "Poggemühlen"
  },
  {
    "postcode": "27432",
    "city": "Spreckens"
  },
  {
    "postcode": "27432",
    "city": "Volkmarst"
  },
  {
    "postcode": "27432",
    "city": "Rotenburg Wümme"
  },
  {
    "postcode": "27432",
    "city": "Alfstedt"
  },
  {
    "postcode": "27432",
    "city": "Neu Oese"
  },
  {
    "postcode": "27432",
    "city": "Hesedorf"
  },
  {
    "postcode": "27432",
    "city": "Kiel bei der Höhne"
  },
  {
    "postcode": "27432",
    "city": "Untere Schiffsstelle"
  },
  {
    "postcode": "27432",
    "city": "Ovelgönne"
  },
  {
    "postcode": "27432",
    "city": "Grevenshöfen"
  },
  {
    "postcode": "27432",
    "city": "Klein Bostel"
  },
  {
    "postcode": "27432",
    "city": "Neu-Ebersdorf"
  },
  {
    "postcode": "27432",
    "city": "Siedlung Hipstedt"
  },
  {
    "postcode": "27432",
    "city": "Hinter Dillen"
  },
  {
    "postcode": "27442",
    "city": "Augustendorf"
  },
  {
    "postcode": "27442",
    "city": "Barkhausen"
  },
  {
    "postcode": "27442",
    "city": "Brillit"
  },
  {
    "postcode": "27442",
    "city": "Fahrendorf"
  },
  {
    "postcode": "27442",
    "city": "Findorf"
  },
  {
    "postcode": "27442",
    "city": "Friedrichsdorf"
  },
  {
    "postcode": "27442",
    "city": "Glinstedt"
  },
  {
    "postcode": "27442",
    "city": "Gnarrenburg"
  },
  {
    "postcode": "27442",
    "city": "Karlshöfen Kreis Bremervörde"
  },
  {
    "postcode": "27442",
    "city": "Karlshöfen"
  },
  {
    "postcode": "27442",
    "city": "Klenkendorf"
  },
  {
    "postcode": "27442",
    "city": "Kuhstedt"
  },
  {
    "postcode": "27442",
    "city": "Kuhstedtermoor"
  },
  {
    "postcode": "27442",
    "city": "Langenhausen"
  },
  {
    "postcode": "27442",
    "city": "Rotenburg Wümme"
  },
  {
    "postcode": "27442",
    "city": "Dahldorf"
  },
  {
    "postcode": "27442",
    "city": "Kolheim"
  },
  {
    "postcode": "27446",
    "city": "Anderlingen"
  },
  {
    "postcode": "27446",
    "city": "Baaste"
  },
  {
    "postcode": "27446",
    "city": "Byhusen"
  },
  {
    "postcode": "27446",
    "city": "Deinstedt"
  },
  {
    "postcode": "27446",
    "city": "Farven"
  },
  {
    "postcode": "27446",
    "city": "Fehrenbruch"
  },
  {
    "postcode": "27446",
    "city": "Grafel"
  },
  {
    "postcode": "27446",
    "city": "Granstedt"
  },
  {
    "postcode": "27446",
    "city": "Haaßel"
  },
  {
    "postcode": "27446",
    "city": "Heinrichsdorf"
  },
  {
    "postcode": "27446",
    "city": "Lavenstedt"
  },
  {
    "postcode": "27446",
    "city": "Malstedt"
  },
  {
    "postcode": "27446",
    "city": "Mintenburg"
  },
  {
    "postcode": "27446",
    "city": "Ober Ochtenhausen"
  },
  {
    "postcode": "27446",
    "city": "Ohrel"
  },
  {
    "postcode": "27446",
    "city": "Parnewinkel"
  },
  {
    "postcode": "27446",
    "city": "Sandbostel"
  },
  {
    "postcode": "27446",
    "city": "Selsingen"
  },
  {
    "postcode": "27446",
    "city": "Rotenburg Wümme"
  },
  {
    "postcode": "27446",
    "city": "Am Holze"
  },
  {
    "postcode": "27446",
    "city": "Am Osterhain"
  },
  {
    "postcode": "27446",
    "city": "Sprakel"
  },
  {
    "postcode": "27446",
    "city": "Scharmbusch"
  },
  {
    "postcode": "27446",
    "city": "Hastenbeck"
  },
  {
    "postcode": "27446",
    "city": "Perleberg"
  },
  {
    "postcode": "27446",
    "city": "Dubenmoor"
  },
  {
    "postcode": "27446",
    "city": "Eitzmühlen"
  },
  {
    "postcode": "27449",
    "city": "Aspe"
  },
  {
    "postcode": "27449",
    "city": "Essel"
  },
  {
    "postcode": "27449",
    "city": "Kutenholz"
  },
  {
    "postcode": "27449",
    "city": "Mulsum bei Bremervörde"
  },
  {
    "postcode": "27449",
    "city": "Stade"
  },
  {
    "postcode": "27449",
    "city": "Mulsum"
  },
  {
    "postcode": "27449",
    "city": "Sadersdorf"
  },
  {
    "postcode": "27472",
    "city": "Cuxhaven"
  },
  {
    "postcode": "27472",
    "city": "Döse"
  },
  {
    "postcode": "27472",
    "city": "Groden"
  },
  {
    "postcode": "27472",
    "city": "Westerwisch"
  },
  {
    "postcode": "27474",
    "city": "Cuxhaven"
  },
  {
    "postcode": "27474",
    "city": "Döse"
  },
  {
    "postcode": "27474",
    "city": "Süder-Westerwisch"
  },
  {
    "postcode": "27474",
    "city": "Groden"
  },
  {
    "postcode": "27476",
    "city": "Cuxhaven"
  },
  {
    "postcode": "27476",
    "city": "Döse"
  },
  {
    "postcode": "27476",
    "city": "Duhnen"
  },
  {
    "postcode": "27476",
    "city": "Holte-Spangen"
  },
  {
    "postcode": "27476",
    "city": "Sahlenburg"
  },
  {
    "postcode": "27476",
    "city": "Stickenbüttel"
  },
  {
    "postcode": "27476",
    "city": "Berensch-Arensch"
  },
  {
    "postcode": "27478",
    "city": "Altenbruch"
  },
  {
    "postcode": "27478",
    "city": "Altenwalde"
  },
  {
    "postcode": "27478",
    "city": "Cuxhaven"
  },
  {
    "postcode": "27478",
    "city": "Lüdingworth"
  },
  {
    "postcode": "27478",
    "city": "Groden"
  },
  {
    "postcode": "27498",
    "city": "Helgoland"
  },
  {
    "postcode": "27498",
    "city": "Pinneberg"
  },
  {
    "postcode": "27499",
    "city": "Hamburg-Insel Neuwerk"
  },
  {
    "postcode": "27499",
    "city": "Hamburg-Mitte"
  },
  {
    "postcode": "27499",
    "city": "Hamburg"
  },
  {
    "postcode": "27568",
    "city": "Bremerhaven"
  },
  {
    "postcode": "27568",
    "city": "Lehe"
  },
  {
    "postcode": "27568",
    "city": "Bremen"
  },
  {
    "postcode": "27568",
    "city": "Überseehafengebiet"
  },
  {
    "postcode": "27568",
    "city": "Überseehafen"
  },
  {
    "postcode": "27568",
    "city": "Mitte"
  },
  {
    "postcode": "27570",
    "city": "Bremerhaven"
  },
  {
    "postcode": "27570",
    "city": "Geestemünde"
  },
  {
    "postcode": "27572",
    "city": "Bremerhaven"
  },
  {
    "postcode": "27572",
    "city": "Geestemünde"
  },
  {
    "postcode": "27572",
    "city": "Wulsdorf"
  },
  {
    "postcode": "27572",
    "city": "Fischereihafen"
  },
  {
    "postcode": "27574",
    "city": "Bremerhaven"
  },
  {
    "postcode": "27574",
    "city": "Geestemünde"
  },
  {
    "postcode": "27574",
    "city": "Surheide"
  },
  {
    "postcode": "27574",
    "city": "Schiffdorferdamm"
  },
  {
    "postcode": "27576",
    "city": "Bremerhaven"
  },
  {
    "postcode": "27576",
    "city": "Lehe"
  },
  {
    "postcode": "27576",
    "city": "Mitte"
  },
  {
    "postcode": "27578",
    "city": "Bremerhaven"
  },
  {
    "postcode": "27578",
    "city": "Lehe"
  },
  {
    "postcode": "27578",
    "city": "Leherheide"
  },
  {
    "postcode": "27580",
    "city": "Bremerhaven"
  },
  {
    "postcode": "27580",
    "city": "Lehe"
  },
  {
    "postcode": "27580",
    "city": "Weddewarden"
  },
  {
    "postcode": "27580",
    "city": "Bremen"
  },
  {
    "postcode": "27580",
    "city": "Überseehafengebiet"
  },
  {
    "postcode": "27580",
    "city": "Überseehafen"
  },
  {
    "postcode": "27580",
    "city": "Speckenbüttel"
  },
  {
    "postcode": "27607",
    "city": "Debstedt"
  },
  {
    "postcode": "27607",
    "city": "Holßel"
  },
  {
    "postcode": "27607",
    "city": "Hymendorf"
  },
  {
    "postcode": "27607",
    "city": "Imsum"
  },
  {
    "postcode": "27607",
    "city": "Krempel"
  },
  {
    "postcode": "27607",
    "city": "Langen bei Bremerhaven"
  },
  {
    "postcode": "27607",
    "city": "Neuenwalde Kreis Wesermünde"
  },
  {
    "postcode": "27607",
    "city": "Neuenwalde"
  },
  {
    "postcode": "27607",
    "city": "Sievern"
  },
  {
    "postcode": "27607",
    "city": "Cuxhaven"
  },
  {
    "postcode": "27607",
    "city": "Geestland"
  },
  {
    "postcode": "27607",
    "city": "Langen"
  },
  {
    "postcode": "27607",
    "city": "Drangstedt"
  },
  {
    "postcode": "27612",
    "city": "Bexhövede"
  },
  {
    "postcode": "27612",
    "city": "Büttel Kreis Wesermünde"
  },
  {
    "postcode": "27612",
    "city": "Büttel"
  },
  {
    "postcode": "27612",
    "city": "Dedesdorf"
  },
  {
    "postcode": "27612",
    "city": "Donnern"
  },
  {
    "postcode": "27612",
    "city": "Düring"
  },
  {
    "postcode": "27612",
    "city": "Eidewarden"
  },
  {
    "postcode": "27612",
    "city": "Fleeste"
  },
  {
    "postcode": "27612",
    "city": "Hahnenknoop"
  },
  {
    "postcode": "27612",
    "city": "Hetthorn"
  },
  {
    "postcode": "27612",
    "city": "Holte"
  },
  {
    "postcode": "27612",
    "city": "Lanhausen"
  },
  {
    "postcode": "27612",
    "city": "Loxstedt"
  },
  {
    "postcode": "27612",
    "city": "Maihausen"
  },
  {
    "postcode": "27612",
    "city": "Nesse Kreis Wesermünde"
  },
  {
    "postcode": "27612",
    "city": "Nesse"
  },
  {
    "postcode": "27612",
    "city": "Neuenlande"
  },
  {
    "postcode": "27612",
    "city": "Overwarfe"
  },
  {
    "postcode": "27612",
    "city": "Schwegen"
  },
  {
    "postcode": "27612",
    "city": "Stinstedt Kreis Wesermünde"
  },
  {
    "postcode": "27612",
    "city": "Stinstedt"
  },
  {
    "postcode": "27612",
    "city": "Stotel"
  },
  {
    "postcode": "27612",
    "city": "Ueterlande"
  },
  {
    "postcode": "27612",
    "city": "Wiemsdorf"
  },
  {
    "postcode": "27612",
    "city": "Cuxhaven"
  },
  {
    "postcode": "27612",
    "city": "Indiek"
  },
  {
    "postcode": "27612",
    "city": "Kreuzhellmer"
  },
  {
    "postcode": "27612",
    "city": "Neuenlandersiel"
  },
  {
    "postcode": "27612",
    "city": "Nückel"
  },
  {
    "postcode": "27612",
    "city": "Oldendorf"
  },
  {
    "postcode": "27616",
    "city": "Adelstedt Kreis Wesermünde"
  },
  {
    "postcode": "27616",
    "city": "Adelstedt"
  },
  {
    "postcode": "27616",
    "city": "Ahe"
  },
  {
    "postcode": "27616",
    "city": "Altwistedt"
  },
  {
    "postcode": "27616",
    "city": "Appeln"
  },
  {
    "postcode": "27616",
    "city": "Beverstedt"
  },
  {
    "postcode": "27616",
    "city": "Bokel bei Bremerhaven"
  },
  {
    "postcode": "27616",
    "city": "Brunshausen Kreis Wesermünde"
  },
  {
    "postcode": "27616",
    "city": "Brunshausen"
  },
  {
    "postcode": "27616",
    "city": "Dohren"
  },
  {
    "postcode": "27616",
    "city": "Elfershude Kreis Wesermünde"
  },
  {
    "postcode": "27616",
    "city": "Elfershude"
  },
  {
    "postcode": "27616",
    "city": "Frelsdorf"
  },
  {
    "postcode": "27616",
    "city": "Heerstedt"
  },
  {
    "postcode": "27616",
    "city": "Heise Kreis Wesermünde"
  },
  {
    "postcode": "27616",
    "city": "Heise"
  },
  {
    "postcode": "27616",
    "city": "Hollen bei Bremerhaven"
  },
  {
    "postcode": "27616",
    "city": "Kirchwistedt"
  },
  {
    "postcode": "27616",
    "city": "Lohe"
  },
  {
    "postcode": "27616",
    "city": "Lunestedt"
  },
  {
    "postcode": "27616",
    "city": "Oberheise Kreis Wesermünde"
  },
  {
    "postcode": "27616",
    "city": "Oberheise"
  },
  {
    "postcode": "27616",
    "city": "Osterndorf"
  },
  {
    "postcode": "27616",
    "city": "Stubben bei Bremerhaven"
  },
  {
    "postcode": "27616",
    "city": "Wellen Kreis Wesermünde"
  },
  {
    "postcode": "27616",
    "city": "Wellen"
  },
  {
    "postcode": "27616",
    "city": "Wollingst"
  },
  {
    "postcode": "27616",
    "city": "Cuxhaven"
  },
  {
    "postcode": "27616",
    "city": "Stubben"
  },
  {
    "postcode": "27616",
    "city": "Bokel"
  },
  {
    "postcode": "27616",
    "city": "Hollen"
  },
  {
    "postcode": "27616",
    "city": "Am Bahnhof Siedlung"
  },
  {
    "postcode": "27616",
    "city": "Wehldorf"
  },
  {
    "postcode": "27619",
    "city": "Altluneberg Kreis Wesermünde"
  },
  {
    "postcode": "27619",
    "city": "Altluneberg"
  },
  {
    "postcode": "27619",
    "city": "Bramel"
  },
  {
    "postcode": "27619",
    "city": "Geestenseth"
  },
  {
    "postcode": "27619",
    "city": "Laven"
  },
  {
    "postcode": "27619",
    "city": "Schiffdorf"
  },
  {
    "postcode": "27619",
    "city": "Sellstedt"
  },
  {
    "postcode": "27619",
    "city": "Spaden"
  },
  {
    "postcode": "27619",
    "city": "Wehdel Kreis Wesermünde"
  },
  {
    "postcode": "27619",
    "city": "Wehdel"
  },
  {
    "postcode": "27619",
    "city": "Wehden"
  },
  {
    "postcode": "27619",
    "city": "Cuxhaven"
  },
  {
    "postcode": "27624",
    "city": "Ankelohe"
  },
  {
    "postcode": "27624",
    "city": "Bad Bederkesa"
  },
  {
    "postcode": "27624",
    "city": "Drangstedt"
  },
  {
    "postcode": "27624",
    "city": "Elmlohe"
  },
  {
    "postcode": "27624",
    "city": "Fickmühlen"
  },
  {
    "postcode": "27624",
    "city": "Flögeln"
  },
  {
    "postcode": "27624",
    "city": "Gemeinde Flögeln"
  },
  {
    "postcode": "27624",
    "city": "Großenhain Kreis Wesermünde"
  },
  {
    "postcode": "27624",
    "city": "Großenhain"
  },
  {
    "postcode": "27624",
    "city": "Hainmühlen Kreis Wesermünde"
  },
  {
    "postcode": "27624",
    "city": "Hainmühlen"
  },
  {
    "postcode": "27624",
    "city": "Köhlen bei Bremerhaven"
  },
  {
    "postcode": "27624",
    "city": "Kührstedt"
  },
  {
    "postcode": "27624",
    "city": "Lintig"
  },
  {
    "postcode": "27624",
    "city": "Meckelstedt"
  },
  {
    "postcode": "27624",
    "city": "Neuenkamp"
  },
  {
    "postcode": "27624",
    "city": "Ringstedt"
  },
  {
    "postcode": "27624",
    "city": "Stühbusch Kreis Wesermünde"
  },
  {
    "postcode": "27624",
    "city": "Stühbusch"
  },
  {
    "postcode": "27624",
    "city": "Vorm Moor Kreis Wesermünde"
  },
  {
    "postcode": "27624",
    "city": "Vorm Moor"
  },
  {
    "postcode": "27624",
    "city": "Wüstewohlde Kreis Wesermünde"
  },
  {
    "postcode": "27624",
    "city": "Wüstewohlde"
  },
  {
    "postcode": "27624",
    "city": "Cuxhaven"
  },
  {
    "postcode": "27624",
    "city": "Geestland"
  },
  {
    "postcode": "27624",
    "city": "Alfstedt"
  },
  {
    "postcode": "27624",
    "city": "Altenkamp"
  },
  {
    "postcode": "27624",
    "city": "Altenstühlen"
  },
  {
    "postcode": "27624",
    "city": "Köhlen"
  },
  {
    "postcode": "27624",
    "city": "Brandhagen"
  },
  {
    "postcode": "27624",
    "city": "Desebreck"
  },
  {
    "postcode": "27624",
    "city": "Falkenburg"
  },
  {
    "postcode": "27624",
    "city": "Hof Hellersbruch"
  },
  {
    "postcode": "27624",
    "city": "Krönkenhütte"
  },
  {
    "postcode": "27624",
    "city": "Marschkamp"
  },
  {
    "postcode": "27624",
    "city": "Steinbergshörn"
  },
  {
    "postcode": "27628",
    "city": "Albstedt"
  },
  {
    "postcode": "27628",
    "city": "Bramstedt"
  },
  {
    "postcode": "27628",
    "city": "Bramstedt bei Bremerhaven"
  },
  {
    "postcode": "27628",
    "city": "Dorfhagen"
  },
  {
    "postcode": "27628",
    "city": "Driftsethe"
  },
  {
    "postcode": "27628",
    "city": "Hagen im Bremischen"
  },
  {
    "postcode": "27628",
    "city": "Harmonie Kreis Wesermünde"
  },
  {
    "postcode": "27628",
    "city": "Harmonie"
  },
  {
    "postcode": "27628",
    "city": "Harrendorf"
  },
  {
    "postcode": "27628",
    "city": "Heine"
  },
  {
    "postcode": "27628",
    "city": "Kassebruch Kreis Wesermünde"
  },
  {
    "postcode": "27628",
    "city": "Kassebruch"
  },
  {
    "postcode": "27628",
    "city": "Lehnstedt Kreis Wesermünde"
  },
  {
    "postcode": "27628",
    "city": "Lehnstedt"
  },
  {
    "postcode": "27628",
    "city": "Lohe Kreis Wesermünde"
  },
  {
    "postcode": "27628",
    "city": "Lohe"
  },
  {
    "postcode": "27628",
    "city": "Offenwarden"
  },
  {
    "postcode": "27628",
    "city": "Rechtenfleth"
  },
  {
    "postcode": "27628",
    "city": "Sandstedt"
  },
  {
    "postcode": "27628",
    "city": "Uthlede"
  },
  {
    "postcode": "27628",
    "city": "Vosloge"
  },
  {
    "postcode": "27628",
    "city": "Wersabe"
  },
  {
    "postcode": "27628",
    "city": "Wittstedt"
  },
  {
    "postcode": "27628",
    "city": "Wulsbüttel"
  },
  {
    "postcode": "27628",
    "city": "Wurthfleth"
  },
  {
    "postcode": "27628",
    "city": "Cuxhaven"
  },
  {
    "postcode": "27628",
    "city": "Hagen"
  },
  {
    "postcode": "27628",
    "city": "Hoope"
  },
  {
    "postcode": "27628",
    "city": "Siedlung Rieboldt"
  },
  {
    "postcode": "27632",
    "city": "Cappel"
  },
  {
    "postcode": "27632",
    "city": "Cappel bei Bremerhaven"
  },
  {
    "postcode": "27632",
    "city": "Dorum"
  },
  {
    "postcode": "27632",
    "city": "Dorum bei Bremerhaven"
  },
  {
    "postcode": "27632",
    "city": "Engbüttel bei Bremerhaven"
  },
  {
    "postcode": "27632",
    "city": "Midlum bei Bremerhaven"
  },
  {
    "postcode": "27632",
    "city": "Misselwarden"
  },
  {
    "postcode": "27632",
    "city": "Mulsum bei Bremerhaven"
  },
  {
    "postcode": "27632",
    "city": "Neufeld"
  },
  {
    "postcode": "27632",
    "city": "Oberhausen bei Bremerhaven"
  },
  {
    "postcode": "27632",
    "city": "Padingbüttel"
  },
  {
    "postcode": "27637",
    "city": "Cappel-Neufeld bei Bremerhaven"
  },
  {
    "postcode": "27637",
    "city": "Nordholz"
  },
  {
    "postcode": "27637",
    "city": "Nordholz bei Bremerhaven"
  },
  {
    "postcode": "27637",
    "city": "Spieka"
  },
  {
    "postcode": "27637",
    "city": "Spieka-Altendeich"
  },
  {
    "postcode": "27637",
    "city": "Spieka-Neufeld Kreis Wesermünde"
  },
  {
    "postcode": "27637",
    "city": "Spieka-Neufeld"
  },
  {
    "postcode": "27637",
    "city": "Wanhöden Kreis Wesermünde"
  },
  {
    "postcode": "27637",
    "city": "Wanhöden"
  },
  {
    "postcode": "27638",
    "city": "Hofe"
  },
  {
    "postcode": "27638",
    "city": "Hülsing"
  },
  {
    "postcode": "27638",
    "city": "Schmarren"
  },
  {
    "postcode": "27638",
    "city": "Schottwarden"
  },
  {
    "postcode": "27638",
    "city": "Wremen"
  },
  {
    "postcode": "27711",
    "city": "Bargten"
  },
  {
    "postcode": "27711",
    "city": "Buschhausen"
  },
  {
    "postcode": "27711",
    "city": "Freißenbüttel"
  },
  {
    "postcode": "27711",
    "city": "Garlstedt"
  },
  {
    "postcode": "27711",
    "city": "Heilshorn"
  },
  {
    "postcode": "27711",
    "city": "Hülseberg"
  },
  {
    "postcode": "27711",
    "city": "Lintel"
  },
  {
    "postcode": "27711",
    "city": "Ohlenstedt"
  },
  {
    "postcode": "27711",
    "city": "Osterholz-Scharmbeck"
  },
  {
    "postcode": "27711",
    "city": "Pennigbüttel"
  },
  {
    "postcode": "27711",
    "city": "Sandhausen Kreis Osterholz"
  },
  {
    "postcode": "27711",
    "city": "Sandhausen"
  },
  {
    "postcode": "27711",
    "city": "Scharmbeckstotel"
  },
  {
    "postcode": "27711",
    "city": "Teufelsmoor"
  },
  {
    "postcode": "27711",
    "city": "Osterholz"
  },
  {
    "postcode": "27711",
    "city": "Innenstadt"
  },
  {
    "postcode": "27711",
    "city": "Westerbeck"
  },
  {
    "postcode": "27721",
    "city": "Ihlpohl"
  },
  {
    "postcode": "27721",
    "city": "Lesumstotel"
  },
  {
    "postcode": "27721",
    "city": "Platjenwerbe"
  },
  {
    "postcode": "27721",
    "city": "Ritterhude"
  },
  {
    "postcode": "27721",
    "city": "Stendorf Kreis Osterholz"
  },
  {
    "postcode": "27721",
    "city": "Stendorf"
  },
  {
    "postcode": "27721",
    "city": "Werschenrege"
  },
  {
    "postcode": "27721",
    "city": "Osterholz"
  },
  {
    "postcode": "27726",
    "city": "Hüttenbusch"
  },
  {
    "postcode": "27726",
    "city": "Mevenstedt"
  },
  {
    "postcode": "27726",
    "city": "Neu Sankt Jürgen"
  },
  {
    "postcode": "27726",
    "city": "Ostersode"
  },
  {
    "postcode": "27726",
    "city": "Schlußdorf"
  },
  {
    "postcode": "27726",
    "city": "Überhamm"
  },
  {
    "postcode": "27726",
    "city": "Waakhausen"
  },
  {
    "postcode": "27726",
    "city": "Worpswede"
  },
  {
    "postcode": "27726",
    "city": "Osterholz"
  },
  {
    "postcode": "27726",
    "city": "Breddorfermoor"
  },
  {
    "postcode": "27726",
    "city": "Heudorf"
  },
  {
    "postcode": "27729",
    "city": "Axstedt"
  },
  {
    "postcode": "27729",
    "city": "Hambergen"
  },
  {
    "postcode": "27729",
    "city": "Hambergen bei Bremen"
  },
  {
    "postcode": "27729",
    "city": "Heilsdorf"
  },
  {
    "postcode": "27729",
    "city": "Heißenbüttel"
  },
  {
    "postcode": "27729",
    "city": "Hellingst"
  },
  {
    "postcode": "27729",
    "city": "Holste"
  },
  {
    "postcode": "27729",
    "city": "Lübberstedt Kreis Osterholz"
  },
  {
    "postcode": "27729",
    "city": "Lübberstedt"
  },
  {
    "postcode": "27729",
    "city": "Oldenbüttel"
  },
  {
    "postcode": "27729",
    "city": "Oldendorf Kreis Osterholz"
  },
  {
    "postcode": "27729",
    "city": "Oldendorf"
  },
  {
    "postcode": "27729",
    "city": "Paddewisch"
  },
  {
    "postcode": "27729",
    "city": "Spreddig"
  },
  {
    "postcode": "27729",
    "city": "Steden"
  },
  {
    "postcode": "27729",
    "city": "Ströhe"
  },
  {
    "postcode": "27729",
    "city": "Vollersode"
  },
  {
    "postcode": "27729",
    "city": "Wohlthöfen"
  },
  {
    "postcode": "27729",
    "city": "Osterholz"
  },
  {
    "postcode": "27729",
    "city": "Kiebitzsegen"
  },
  {
    "postcode": "27729",
    "city": "Neuenkrug"
  },
  {
    "postcode": "27729",
    "city": "Dobben"
  },
  {
    "postcode": "27729",
    "city": "Bahnhof Lübberstedt"
  },
  {
    "postcode": "27729",
    "city": "Hoher Ort"
  },
  {
    "postcode": "27729",
    "city": "Viehspecken"
  },
  {
    "postcode": "27749",
    "city": "Delmenhorst"
  },
  {
    "postcode": "27749",
    "city": "Schafkoven / Donneresch"
  },
  {
    "postcode": "27749",
    "city": "Schafkoven"
  },
  {
    "postcode": "27749",
    "city": "Stickgras / Annenriede"
  },
  {
    "postcode": "27749",
    "city": "Stickgras"
  },
  {
    "postcode": "27749",
    "city": "Mitte"
  },
  {
    "postcode": "27749",
    "city": "Düsternort"
  },
  {
    "postcode": "27749",
    "city": "Schafkoven/Donneresch"
  },
  {
    "postcode": "27749",
    "city": "Stickgras/Annenriede"
  },
  {
    "postcode": "27751",
    "city": "Bungerhof"
  },
  {
    "postcode": "27751",
    "city": "Deichhausen / Sandhausen"
  },
  {
    "postcode": "27751",
    "city": "Deichhausen"
  },
  {
    "postcode": "27751",
    "city": "Delmenhorst"
  },
  {
    "postcode": "27751",
    "city": "Hasbergen Oldenburg"
  },
  {
    "postcode": "27751",
    "city": "Hasbergen"
  },
  {
    "postcode": "27751",
    "city": "Neuendeel"
  },
  {
    "postcode": "27751",
    "city": "Schafkoven / Donneresch"
  },
  {
    "postcode": "27751",
    "city": "Schafkoven"
  },
  {
    "postcode": "27751",
    "city": "Schohasbergen Oldenburg"
  },
  {
    "postcode": "27751",
    "city": "Schohasbergen"
  },
  {
    "postcode": "27751",
    "city": "Stickgras / Annenriede"
  },
  {
    "postcode": "27751",
    "city": "Stickgras"
  },
  {
    "postcode": "27751",
    "city": "Iprump/Stickgras"
  },
  {
    "postcode": "27751",
    "city": "Schafkoven/Donneresch"
  },
  {
    "postcode": "27751",
    "city": "Stickgras/Annenriede"
  },
  {
    "postcode": "27751",
    "city": "Iprump/Varrelgraben"
  },
  {
    "postcode": "27751",
    "city": "Deichhausen/Sandhausen"
  },
  {
    "postcode": "27751",
    "city": "Mitte"
  },
  {
    "postcode": "27751",
    "city": "Dwoberg/Ströhen"
  },
  {
    "postcode": "27751",
    "city": "Iprump"
  },
  {
    "postcode": "27751",
    "city": "Dwoberg"
  },
  {
    "postcode": "27753",
    "city": "Bungerhof"
  },
  {
    "postcode": "27753",
    "city": "Deichhorst"
  },
  {
    "postcode": "27753",
    "city": "Delmenhorst"
  },
  {
    "postcode": "27753",
    "city": "Dwoberg/Ströhen"
  },
  {
    "postcode": "27753",
    "city": "Mitte"
  },
  {
    "postcode": "27753",
    "city": "Dwoberg"
  },
  {
    "postcode": "27755",
    "city": "Adelheide"
  },
  {
    "postcode": "27755",
    "city": "Albertushof"
  },
  {
    "postcode": "27755",
    "city": "Brendel / Adelheide"
  },
  {
    "postcode": "27755",
    "city": "Brendel"
  },
  {
    "postcode": "27755",
    "city": "Deichhorst"
  },
  {
    "postcode": "27755",
    "city": "Delmenhorst"
  },
  {
    "postcode": "27755",
    "city": "Schillbrok"
  },
  {
    "postcode": "27755",
    "city": "Stickgras / Annenriede"
  },
  {
    "postcode": "27755",
    "city": "Stickgras"
  },
  {
    "postcode": "27755",
    "city": "Düsternort"
  },
  {
    "postcode": "27755",
    "city": "Stickgras/Annenriede"
  },
  {
    "postcode": "27755",
    "city": "Brendel/Adelheide"
  },
  {
    "postcode": "27755",
    "city": "Hasport/Annenheide"
  },
  {
    "postcode": "27755",
    "city": "Iprump/Stickgras"
  },
  {
    "postcode": "27755",
    "city": "Hasport"
  },
  {
    "postcode": "27755",
    "city": "Iprump"
  },
  {
    "postcode": "27777",
    "city": "Almsloh"
  },
  {
    "postcode": "27777",
    "city": "Bergedorf"
  },
  {
    "postcode": "27777",
    "city": "Bookholzberg"
  },
  {
    "postcode": "27777",
    "city": "Bookhorn"
  },
  {
    "postcode": "27777",
    "city": "Bürstel"
  },
  {
    "postcode": "27777",
    "city": "Elmeloh"
  },
  {
    "postcode": "27777",
    "city": "Falkenburg bei Delmenhorst"
  },
  {
    "postcode": "27777",
    "city": "Ganderkesee"
  },
  {
    "postcode": "27777",
    "city": "Grüppenbühren"
  },
  {
    "postcode": "27777",
    "city": "Habbrügge bei Delmenhorst"
  },
  {
    "postcode": "27777",
    "city": "Havekost"
  },
  {
    "postcode": "27777",
    "city": "Hengsterholz"
  },
  {
    "postcode": "27777",
    "city": "Hohenböken"
  },
  {
    "postcode": "27777",
    "city": "Holzkamp"
  },
  {
    "postcode": "27777",
    "city": "Hoyerswege"
  },
  {
    "postcode": "27777",
    "city": "Hoykenkamp"
  },
  {
    "postcode": "27777",
    "city": "Immer"
  },
  {
    "postcode": "27777",
    "city": "Neuenlande"
  },
  {
    "postcode": "27777",
    "city": "Rethorn"
  },
  {
    "postcode": "27777",
    "city": "Schierbrok"
  },
  {
    "postcode": "27777",
    "city": "Schlutter"
  },
  {
    "postcode": "27777",
    "city": "Schönemoor bei Delmenhorst"
  },
  {
    "postcode": "27777",
    "city": "Steinkimmen"
  },
  {
    "postcode": "27777",
    "city": "Stenum"
  },
  {
    "postcode": "27777",
    "city": "Urneburg"
  },
  {
    "postcode": "27777",
    "city": "Oldenburg"
  },
  {
    "postcode": "27777",
    "city": "Schönemoor"
  },
  {
    "postcode": "27777",
    "city": "Heide"
  },
  {
    "postcode": "27777",
    "city": "Falkenburg"
  },
  {
    "postcode": "27777",
    "city": "Habbrügge"
  },
  {
    "postcode": "27777",
    "city": "Bardewisch"
  },
  {
    "postcode": "27777",
    "city": "Krögerdorf"
  },
  {
    "postcode": "27793",
    "city": "Aldrup"
  },
  {
    "postcode": "27793",
    "city": "Aumühle"
  },
  {
    "postcode": "27793",
    "city": "Bargloy"
  },
  {
    "postcode": "27793",
    "city": "Bühren"
  },
  {
    "postcode": "27793",
    "city": "Denghausen"
  },
  {
    "postcode": "27793",
    "city": "Düngstrup"
  },
  {
    "postcode": "27793",
    "city": "Garmhausen"
  },
  {
    "postcode": "27793",
    "city": "Hanstedt"
  },
  {
    "postcode": "27793",
    "city": "Hesterhöge"
  },
  {
    "postcode": "27793",
    "city": "Holzhausen"
  },
  {
    "postcode": "27793",
    "city": "Lohmühle"
  },
  {
    "postcode": "27793",
    "city": "Lüerte"
  },
  {
    "postcode": "27793",
    "city": "Pestrup"
  },
  {
    "postcode": "27793",
    "city": "Thölstedt"
  },
  {
    "postcode": "27793",
    "city": "Wildeshausen"
  },
  {
    "postcode": "27793",
    "city": "Oldenburg"
  },
  {
    "postcode": "27793",
    "city": "Glane"
  },
  {
    "postcode": "27793",
    "city": "Wollringshof"
  },
  {
    "postcode": "27793",
    "city": "Heinefeld"
  },
  {
    "postcode": "27793",
    "city": "Kleinenkneten"
  },
  {
    "postcode": "27798",
    "city": "Altmoorhausen"
  },
  {
    "postcode": "27798",
    "city": "Hemmelsberg"
  },
  {
    "postcode": "27798",
    "city": "Holle"
  },
  {
    "postcode": "27798",
    "city": "Hude"
  },
  {
    "postcode": "27798",
    "city": "Hude (Oldenburg)"
  },
  {
    "postcode": "27798",
    "city": "Hudermoor"
  },
  {
    "postcode": "27798",
    "city": "Hurrel Oldenburg"
  },
  {
    "postcode": "27798",
    "city": "Hurrel"
  },
  {
    "postcode": "27798",
    "city": "Kirchkimmen"
  },
  {
    "postcode": "27798",
    "city": "Lintel bei Delmenhorst"
  },
  {
    "postcode": "27798",
    "city": "Maibusch Oldenburg"
  },
  {
    "postcode": "27798",
    "city": "Maibusch"
  },
  {
    "postcode": "27798",
    "city": "Nordenholz Oldenburg"
  },
  {
    "postcode": "27798",
    "city": "Nordenholz"
  },
  {
    "postcode": "27798",
    "city": "Nordenholzermoor Oldenburg"
  },
  {
    "postcode": "27798",
    "city": "Nordenholzermoor"
  },
  {
    "postcode": "27798",
    "city": "Oberhausen"
  },
  {
    "postcode": "27798",
    "city": "Vielstedt"
  },
  {
    "postcode": "27798",
    "city": "Wraggenort"
  },
  {
    "postcode": "27798",
    "city": "Oldenburg"
  },
  {
    "postcode": "27798",
    "city": "Wüsting/Wraggenort"
  },
  {
    "postcode": "27798",
    "city": "Tweelbäke-Ost"
  },
  {
    "postcode": "27798",
    "city": "Holler-Neuenwege"
  },
  {
    "postcode": "27798",
    "city": "Lintel"
  },
  {
    "postcode": "27798",
    "city": "Wüsting/Holler-Neuenwege"
  },
  {
    "postcode": "27798",
    "city": "Wüsting/Grummersort"
  },
  {
    "postcode": "27798",
    "city": "Wüsting"
  },
  {
    "postcode": "27801",
    "city": "Aschenstedt Hunte"
  },
  {
    "postcode": "27801",
    "city": "Aschenstedt"
  },
  {
    "postcode": "27801",
    "city": "Barel"
  },
  {
    "postcode": "27801",
    "city": "Brettorf"
  },
  {
    "postcode": "27801",
    "city": "Busch Hunte"
  },
  {
    "postcode": "27801",
    "city": "Busch"
  },
  {
    "postcode": "27801",
    "city": "Dötlingen"
  },
  {
    "postcode": "27801",
    "city": "Geveshausen"
  },
  {
    "postcode": "27801",
    "city": "Grad"
  },
  {
    "postcode": "27801",
    "city": "Hockensberg"
  },
  {
    "postcode": "27801",
    "city": "Iserloy Hunte"
  },
  {
    "postcode": "27801",
    "city": "Iserloy"
  },
  {
    "postcode": "27801",
    "city": "Klattenhof"
  },
  {
    "postcode": "27801",
    "city": "Neerstedt"
  },
  {
    "postcode": "27801",
    "city": "Nuttel"
  },
  {
    "postcode": "27801",
    "city": "Ohe"
  },
  {
    "postcode": "27801",
    "city": "Ostrittrum"
  },
  {
    "postcode": "27801",
    "city": "Rhade"
  },
  {
    "postcode": "27801",
    "city": "Uhlhorn"
  },
  {
    "postcode": "27801",
    "city": "Oldenburg"
  },
  {
    "postcode": "27801",
    "city": "Wehe"
  },
  {
    "postcode": "27801",
    "city": "Altona"
  },
  {
    "postcode": "27801",
    "city": "Voßberg"
  },
  {
    "postcode": "27801",
    "city": "Haidhäuser"
  },
  {
    "postcode": "27804",
    "city": "Bäke Kreis Wesermarsch"
  },
  {
    "postcode": "27804",
    "city": "Bäke"
  },
  {
    "postcode": "27804",
    "city": "Bardenfleth Weser"
  },
  {
    "postcode": "27804",
    "city": "Bardenfleth"
  },
  {
    "postcode": "27804",
    "city": "Berne Kreis Wesermarsch"
  },
  {
    "postcode": "27804",
    "city": "Berne"
  },
  {
    "postcode": "27804",
    "city": "Bettingbühren Kreis Wesermarsch"
  },
  {
    "postcode": "27804",
    "city": "Bettingbühren"
  },
  {
    "postcode": "27804",
    "city": "Buttel Kreis Wesermarsch"
  },
  {
    "postcode": "27804",
    "city": "Buttel"
  },
  {
    "postcode": "27804",
    "city": "Campe Kreis Wesermarsch"
  },
  {
    "postcode": "27804",
    "city": "Campe"
  },
  {
    "postcode": "27804",
    "city": "Coldewei Kreis Wesermarsch"
  },
  {
    "postcode": "27804",
    "city": "Coldewei"
  },
  {
    "postcode": "27804",
    "city": "Dreisielen Kreis Wesermarsch"
  },
  {
    "postcode": "27804",
    "city": "Dreisielen"
  },
  {
    "postcode": "27804",
    "city": "Ganspe"
  },
  {
    "postcode": "27804",
    "city": "Glüsing Kreis Wesermarsch"
  },
  {
    "postcode": "27804",
    "city": "Glüsing"
  },
  {
    "postcode": "27804",
    "city": "Grüneburg Kreis Wesermarsch"
  },
  {
    "postcode": "27804",
    "city": "Grüneburg"
  },
  {
    "postcode": "27804",
    "city": "Hannöver Kreis Wesermarsch"
  },
  {
    "postcode": "27804",
    "city": "Hannöver"
  },
  {
    "postcode": "27804",
    "city": "Harmenhausen"
  },
  {
    "postcode": "27804",
    "city": "Hekelermoor Kreis Wesermarsch"
  },
  {
    "postcode": "27804",
    "city": "Hekelermoor"
  },
  {
    "postcode": "27804",
    "city": "Hekeln"
  },
  {
    "postcode": "27804",
    "city": "Hiddigwardermoor Kreis Wesermarsch"
  },
  {
    "postcode": "27804",
    "city": "Hiddigwardermoor"
  },
  {
    "postcode": "27804",
    "city": "Juliusplate Kreis Wesermarsch"
  },
  {
    "postcode": "27804",
    "city": "Juliusplate"
  },
  {
    "postcode": "27804",
    "city": "Köterende Kreis Wesermarsch"
  },
  {
    "postcode": "27804",
    "city": "Köterende"
  },
  {
    "postcode": "27804",
    "city": "Motzen Weser"
  },
  {
    "postcode": "27804",
    "city": "Motzen"
  },
  {
    "postcode": "27804",
    "city": "Neuenhuntorf Kreis Wesermarsch"
  },
  {
    "postcode": "27804",
    "city": "Neuenhuntorf"
  },
  {
    "postcode": "27804",
    "city": "Neuenhuntorfermoor Kreis Wesermarsch"
  },
  {
    "postcode": "27804",
    "city": "Neuenhuntorfermoor"
  },
  {
    "postcode": "27804",
    "city": "Neuenkoop"
  },
  {
    "postcode": "27804",
    "city": "Neumühlen"
  },
  {
    "postcode": "27804",
    "city": "Ohrt Kreis Wesermarsch"
  },
  {
    "postcode": "27804",
    "city": "Ohrt"
  },
  {
    "postcode": "27804",
    "city": "Ollen Kreis Wesermarsch"
  },
  {
    "postcode": "27804",
    "city": "Ollen"
  },
  {
    "postcode": "27804",
    "city": "Pfahlhausen Oldenburg"
  },
  {
    "postcode": "27804",
    "city": "Pfahlhausen"
  },
  {
    "postcode": "27804",
    "city": "Piependamm"
  },
  {
    "postcode": "27804",
    "city": "Ranzenbüttel Kreis Wesermarsch"
  },
  {
    "postcode": "27804",
    "city": "Ranzenbüttel"
  },
  {
    "postcode": "27804",
    "city": "Schlüte Kreis Wesermarsch"
  },
  {
    "postcode": "27804",
    "city": "Schlüte"
  },
  {
    "postcode": "27804",
    "city": "Schlüterdeich Kreis Wesermarsch"
  },
  {
    "postcode": "27804",
    "city": "Schlüterdeich"
  },
  {
    "postcode": "27804",
    "city": "Warfleth"
  },
  {
    "postcode": "27804",
    "city": "Wehrderhöhle Kreis Wesermarsch"
  },
  {
    "postcode": "27804",
    "city": "Wehrderhöhle"
  },
  {
    "postcode": "27804",
    "city": "Weserdeich Kreis Wesermarsch"
  },
  {
    "postcode": "27804",
    "city": "Weserdeich"
  },
  {
    "postcode": "27804",
    "city": "Wesermarsch"
  },
  {
    "postcode": "27804",
    "city": "Ochholt"
  },
  {
    "postcode": "27804",
    "city": "Huntebrück"
  },
  {
    "postcode": "27804",
    "city": "Bernebüttel"
  },
  {
    "postcode": "27804",
    "city": "Ollenermoor"
  },
  {
    "postcode": "27804",
    "city": "Ritzenbüttel"
  },
  {
    "postcode": "27804",
    "city": "Hiddigwarden"
  },
  {
    "postcode": "27804",
    "city": "Buttelerhörne"
  },
  {
    "postcode": "27804",
    "city": "Katjenbüttel"
  },
  {
    "postcode": "27804",
    "city": "Wehrder"
  },
  {
    "postcode": "27809",
    "city": "Altenesch"
  },
  {
    "postcode": "27809",
    "city": "Bardewisch"
  },
  {
    "postcode": "27809",
    "city": "Barschlüte"
  },
  {
    "postcode": "27809",
    "city": "Braake"
  },
  {
    "postcode": "27809",
    "city": "Butzhausen"
  },
  {
    "postcode": "27809",
    "city": "Deichshausen"
  },
  {
    "postcode": "27809",
    "city": "Dunwarden"
  },
  {
    "postcode": "27809",
    "city": "Hörspe"
  },
  {
    "postcode": "27809",
    "city": "Krögerdorf"
  },
  {
    "postcode": "27809",
    "city": "Lemwerder"
  },
  {
    "postcode": "27809",
    "city": "Ochtum"
  },
  {
    "postcode": "27809",
    "city": "Ritzenbüttel"
  },
  {
    "postcode": "27809",
    "city": "Sannau"
  },
  {
    "postcode": "27809",
    "city": "Süderbrook"
  },
  {
    "postcode": "27809",
    "city": "Wesermarsch"
  },
  {
    "postcode": "27809",
    "city": "Tecklenburg"
  },
  {
    "postcode": "27809",
    "city": "Husum"
  },
  {
    "postcode": "27809",
    "city": "Dunwarderfelde"
  },
  {
    "postcode": "27639",
    "city": "Cuxhaven"
  },
  {
    "postcode": "27639",
    "city": "Wurster Nordseeküste"
  },
  {
    "postcode": "27639",
    "city": "Wremen"
  },
  {
    "postcode": "27639",
    "city": "Dorum"
  },
  {
    "postcode": "27639",
    "city": "Nordholz"
  },
  {
    "postcode": "27639",
    "city": "Mulsum"
  },
  {
    "postcode": "27639",
    "city": "Dorum-Neufeld"
  },
  {
    "postcode": "27639",
    "city": "Midlum"
  },
  {
    "postcode": "27639",
    "city": "Engbüttel"
  },
  {
    "postcode": "27639",
    "city": "Cappel-Neufeld"
  },
  {
    "postcode": "27639",
    "city": "Cappeler Altendeich"
  },
  {
    "postcode": "27639",
    "city": "Spieka-Altendeich"
  },
  {
    "postcode": "27639",
    "city": "Strich"
  },
  {
    "postcode": "27639",
    "city": "Wanhöden"
  },
  {
    "postcode": "27639",
    "city": "Cappel"
  },
  {
    "postcode": "27639",
    "city": "Misselwarden"
  },
  {
    "postcode": "27639",
    "city": "Spieka"
  },
  {
    "postcode": "27639",
    "city": "Spieka-Neufeld"
  },
  {
    "postcode": "27639",
    "city": "Wremerbüttel"
  },
  {
    "postcode": "27639",
    "city": "Hinter der Lieth"
  },
  {
    "postcode": "27639",
    "city": "Northum"
  },
  {
    "postcode": "27639",
    "city": "Sorthum"
  },
  {
    "postcode": "27639",
    "city": "Flohburg"
  },
  {
    "postcode": "27639",
    "city": "Hornke"
  },
  {
    "postcode": "27639",
    "city": "Padingbüttel"
  },
  {
    "postcode": "27639",
    "city": "Altendeich"
  },
  {
    "postcode": "27639",
    "city": "Cappeler-Siel"
  },
  {
    "postcode": "27639",
    "city": "Spiekaer Siel"
  },
  {
    "postcode": "27639",
    "city": "Dorumer Weg"
  },
  {
    "postcode": "27639",
    "city": "Dorumer Marren"
  },
  {
    "postcode": "27639",
    "city": "Südermarren"
  },
  {
    "postcode": "27639",
    "city": "Hungerhörn"
  },
  {
    "postcode": "27639",
    "city": "Midlumer Heide"
  },
  {
    "postcode": "27639",
    "city": "Rosengarten"
  },
  {
    "postcode": "27639",
    "city": "Spiekaer Weg"
  },
  {
    "postcode": "27639",
    "city": "Weitenweg"
  },
  {
    "postcode": "27639",
    "city": "Hülsing"
  },
  {
    "postcode": "27639",
    "city": "Wremertief"
  },
  {
    "postcode": "27639",
    "city": "Barlinghausen"
  }
]