[
  {
    "postcode": "6308",
    "city": "Annarode"
  },
  {
    "postcode": "6308",
    "city": "Augsdorf"
  },
  {
    "postcode": "6308",
    "city": "Benndorf bei Klostermansfeld"
  },
  {
    "postcode": "6308",
    "city": "Hübitz"
  },
  {
    "postcode": "6308",
    "city": "Klostermansfeld"
  },
  {
    "postcode": "6308",
    "city": "Mansfeld"
  },
  {
    "postcode": "6308",
    "city": "Mansfeld Südharz"
  },
  {
    "postcode": "6308",
    "city": "Siebigerode"
  },
  {
    "postcode": "6308",
    "city": "Siersleben"
  },
  {
    "postcode": "6308",
    "city": "Mansfeld-Südharz"
  },
  {
    "postcode": "6308",
    "city": "Benndorf"
  },
  {
    "postcode": "6311",
    "city": "Helbra"
  },
  {
    "postcode": "6311",
    "city": "Mansfeld-Südharz"
  },
  {
    "postcode": "6313",
    "city": "Ahlsdorf bei Lutherstadt Eisleben"
  },
  {
    "postcode": "6313",
    "city": "Hergisdorf"
  },
  {
    "postcode": "6313",
    "city": "Wimmelburg"
  },
  {
    "postcode": "6313",
    "city": "Mansfeld-Südharz"
  },
  {
    "postcode": "6313",
    "city": "Ahlsdorf"
  },
  {
    "postcode": "6313",
    "city": "Ziegelrode"
  },
  {
    "postcode": "6313",
    "city": "Kreisfeld"
  },
  {
    "postcode": "6317",
    "city": "Amsdorf"
  },
  {
    "postcode": "6317",
    "city": "Aseleben"
  },
  {
    "postcode": "6317",
    "city": "Erdeborn"
  },
  {
    "postcode": "6317",
    "city": "Lüttchendorf"
  },
  {
    "postcode": "6317",
    "city": "Röblingen am See"
  },
  {
    "postcode": "6317",
    "city": "Seeburg bei Lutherstadt Eisleben"
  },
  {
    "postcode": "6317",
    "city": "Stedten bei Lutherstadt Eisleben"
  },
  {
    "postcode": "6317",
    "city": "Mansfeld-Südharz"
  },
  {
    "postcode": "6317",
    "city": "Seegebiet Mansfelder Land"
  },
  {
    "postcode": "6317",
    "city": "Wansleben am See"
  },
  {
    "postcode": "6317",
    "city": "Seeburg"
  },
  {
    "postcode": "6317",
    "city": "Dederstedt"
  },
  {
    "postcode": "6317",
    "city": "Hornburg"
  },
  {
    "postcode": "6317",
    "city": "Neehausen"
  },
  {
    "postcode": "6317",
    "city": "Stedten"
  },
  {
    "postcode": "6318",
    "city": "Wansleben am See"
  },
  {
    "postcode": "6333",
    "city": "Arnstedt"
  },
  {
    "postcode": "6333",
    "city": "Bräunrode"
  },
  {
    "postcode": "6333",
    "city": "Endorf am Harz"
  },
  {
    "postcode": "6333",
    "city": "Falkenstein / Harz"
  },
  {
    "postcode": "6333",
    "city": "Falkenstein"
  },
  {
    "postcode": "6333",
    "city": "Falkenstein/Harz"
  },
  {
    "postcode": "6333",
    "city": "Greifenhagen"
  },
  {
    "postcode": "6333",
    "city": "Harkerode"
  },
  {
    "postcode": "6333",
    "city": "Hettstedt Sachsen-Anhalt"
  },
  {
    "postcode": "6333",
    "city": "Hettstedt"
  },
  {
    "postcode": "6333",
    "city": "Neuplatendorf"
  },
  {
    "postcode": "6333",
    "city": "Quenstedt"
  },
  {
    "postcode": "6333",
    "city": "Ritterode"
  },
  {
    "postcode": "6333",
    "city": "Sylda"
  },
  {
    "postcode": "6333",
    "city": "Walbeck bei Hettstedt Sachsen-Anhalt"
  },
  {
    "postcode": "6333",
    "city": "Walbeck bei Hettstedt"
  },
  {
    "postcode": "6333",
    "city": "Welbsleben"
  },
  {
    "postcode": "6333",
    "city": "Welfesholz"
  },
  {
    "postcode": "6333",
    "city": "Wiederstedt"
  },
  {
    "postcode": "6333",
    "city": "Mansfeld-Südharz"
  },
  {
    "postcode": "6333",
    "city": "Endorf"
  },
  {
    "postcode": "6333",
    "city": "Walbeck"
  },
  {
    "postcode": "6333",
    "city": "Meisberg"
  },
  {
    "postcode": "6343",
    "city": "Biesenrode"
  },
  {
    "postcode": "6343",
    "city": "Gorenzen"
  },
  {
    "postcode": "6343",
    "city": "Mansfeld"
  },
  {
    "postcode": "6343",
    "city": "Mansfeld Südharz"
  },
  {
    "postcode": "6343",
    "city": "Möllendorf bei Hettstedt Sachsen-Anhalt"
  },
  {
    "postcode": "6343",
    "city": "Möllendorf bei Hettstedt"
  },
  {
    "postcode": "6343",
    "city": "Piskaborn"
  },
  {
    "postcode": "6343",
    "city": "Vatterode bei Hettstedt Sachsen-Anhalt"
  },
  {
    "postcode": "6343",
    "city": "Vatterode bei Hettstedt"
  },
  {
    "postcode": "6343",
    "city": "Mansfeld-Südharz"
  },
  {
    "postcode": "6343",
    "city": "Großörner"
  },
  {
    "postcode": "6343",
    "city": "Annarode"
  },
  {
    "postcode": "6343",
    "city": "Vatterode"
  },
  {
    "postcode": "6343",
    "city": "Friesdorf"
  },
  {
    "postcode": "6343",
    "city": "Möllendorf"
  },
  {
    "postcode": "6343",
    "city": "Abberode"
  },
  {
    "postcode": "6343",
    "city": "Siebigerode"
  },
  {
    "postcode": "6343",
    "city": "Braunschwende"
  },
  {
    "postcode": "6343",
    "city": "Ritzgerode"
  },
  {
    "postcode": "6343",
    "city": "Tilkerode"
  },
  {
    "postcode": "6343",
    "city": "Molmerswende"
  },
  {
    "postcode": "6343",
    "city": "Hermerode"
  },
  {
    "postcode": "6343",
    "city": "Saurasen"
  },
  {
    "postcode": "6347",
    "city": "Freist"
  },
  {
    "postcode": "6347",
    "city": "Friedeburg (Saale)"
  },
  {
    "postcode": "6347",
    "city": "Friedeburg"
  },
  {
    "postcode": "6347",
    "city": "Friedeburgerhütte"
  },
  {
    "postcode": "6347",
    "city": "Gerbstedt"
  },
  {
    "postcode": "6347",
    "city": "Heiligenthal bei Hettstedt Sachsen-Anhalt"
  },
  {
    "postcode": "6347",
    "city": "Heiligenthal bei Hettstedt"
  },
  {
    "postcode": "6347",
    "city": "Ihlewitz"
  },
  {
    "postcode": "6347",
    "city": "Zabenstedt"
  },
  {
    "postcode": "6347",
    "city": "Mansfeld-Südharz"
  },
  {
    "postcode": "6347",
    "city": "Augsdorf"
  },
  {
    "postcode": "6347",
    "city": "Reidewitz"
  },
  {
    "postcode": "6347",
    "city": "Heiligenthal"
  },
  {
    "postcode": "6347",
    "city": "Siersleben"
  },
  {
    "postcode": "6347",
    "city": "Helmsdorf"
  },
  {
    "postcode": "6347",
    "city": "Rottelsdorf"
  },
  {
    "postcode": "6347",
    "city": "Lochwitz"
  },
  {
    "postcode": "6347",
    "city": "Thaldorf"
  },
  {
    "postcode": "6347",
    "city": "Hübitz"
  },
  {
    "postcode": "6347",
    "city": "Elben"
  },
  {
    "postcode": "6347",
    "city": "Oeste"
  },
  {
    "postcode": "6347",
    "city": "Welfesholz"
  },
  {
    "postcode": "6347",
    "city": "Pfeiffhausen"
  },
  {
    "postcode": "6347",
    "city": "Zabitz"
  },
  {
    "postcode": "6347",
    "city": "Thondorf"
  },
  {
    "postcode": "6347",
    "city": "Adendorf"
  },
  {
    "postcode": "6347",
    "city": "Bösenburg"
  },
  {
    "postcode": "6347",
    "city": "Straußhof"
  },
  {
    "postcode": "6348",
    "city": "Großörner"
  },
  {
    "postcode": "6348",
    "city": "Mansfeld"
  },
  {
    "postcode": "6348",
    "city": "Mansfeld Südharz"
  },
  {
    "postcode": "6366",
    "city": "Köthen (Anhalt)"
  },
  {
    "postcode": "6366",
    "city": "Köthen"
  },
  {
    "postcode": "6366",
    "city": "Anhalt-Bitterfeld"
  },
  {
    "postcode": "6369",
    "city": "Arensdorf bei Köthen Anhalt"
  },
  {
    "postcode": "6369",
    "city": "Arensdorf bei Köthen"
  },
  {
    "postcode": "6369",
    "city": "Cosa bei Köthen Anhalt"
  },
  {
    "postcode": "6369",
    "city": "Cosa bei Köthen"
  },
  {
    "postcode": "6369",
    "city": "Cösitz"
  },
  {
    "postcode": "6369",
    "city": "Dohndorf"
  },
  {
    "postcode": "6369",
    "city": "Glauzig"
  },
  {
    "postcode": "6369",
    "city": "Görzig bei Köthen Anhalt"
  },
  {
    "postcode": "6369",
    "city": "Görzig bei Köthen"
  },
  {
    "postcode": "6369",
    "city": "Großbadegast"
  },
  {
    "postcode": "6369",
    "city": "Libehna"
  },
  {
    "postcode": "6369",
    "city": "Löbnitz an der Linde"
  },
  {
    "postcode": "6369",
    "city": "Prosigk"
  },
  {
    "postcode": "6369",
    "city": "Radegast bei Köthen Anhalt"
  },
  {
    "postcode": "6369",
    "city": "Radegast bei Köthen"
  },
  {
    "postcode": "6369",
    "city": "Reupzig"
  },
  {
    "postcode": "6369",
    "city": "Riesdorf bei Köthen Anhalt"
  },
  {
    "postcode": "6369",
    "city": "Riesdorf bei Köthen"
  },
  {
    "postcode": "6369",
    "city": "Schortewitz"
  },
  {
    "postcode": "6369",
    "city": "Trebbichau an der Fuhne"
  },
  {
    "postcode": "6369",
    "city": "Trinum"
  },
  {
    "postcode": "6369",
    "city": "Weißandt-Gölzau"
  },
  {
    "postcode": "6369",
    "city": "Wörbzig"
  },
  {
    "postcode": "6369",
    "city": "Wulfen bei Köthen Anhalt"
  },
  {
    "postcode": "6369",
    "city": "Wulfen bei Köthen"
  },
  {
    "postcode": "6369",
    "city": "Wülknitz bei Köthen Anhalt"
  },
  {
    "postcode": "6369",
    "city": "Wülknitz bei Köthen"
  },
  {
    "postcode": "6369",
    "city": "Zabitz bei Köthen Anhalt"
  },
  {
    "postcode": "6369",
    "city": "Zabitz bei Köthen"
  },
  {
    "postcode": "6369",
    "city": "Zehbitz"
  },
  {
    "postcode": "6369",
    "city": "Anhalt-Bitterfeld"
  },
  {
    "postcode": "6369",
    "city": "Arensdorf"
  },
  {
    "postcode": "6369",
    "city": "Elsdorf"
  },
  {
    "postcode": "6369",
    "city": "Görzig"
  },
  {
    "postcode": "6369",
    "city": "Merzien"
  },
  {
    "postcode": "6369",
    "city": "Porst"
  },
  {
    "postcode": "6369",
    "city": "Radegast"
  },
  {
    "postcode": "6369",
    "city": "Riesdorf"
  },
  {
    "postcode": "6369",
    "city": "Südliches Anhalt"
  },
  {
    "postcode": "6369",
    "city": "Trebbichau"
  },
  {
    "postcode": "6369",
    "city": "Wülknitz"
  },
  {
    "postcode": "6369",
    "city": "Gahrendorf"
  },
  {
    "postcode": "6369",
    "city": "Reinsdorf"
  },
  {
    "postcode": "6369",
    "city": "Rohndorf"
  },
  {
    "postcode": "6369",
    "city": "Kleinbadegast"
  },
  {
    "postcode": "6369",
    "city": "Pfriemsdorf"
  },
  {
    "postcode": "6369",
    "city": "Locherau"
  },
  {
    "postcode": "6369",
    "city": "Repau"
  },
  {
    "postcode": "6369",
    "city": "Zehringen"
  },
  {
    "postcode": "6369",
    "city": "Hohsdorf"
  },
  {
    "postcode": "6369",
    "city": "Cosa"
  },
  {
    "postcode": "6369",
    "city": "Fernsdorf"
  },
  {
    "postcode": "6369",
    "city": "Pösigk"
  },
  {
    "postcode": "6369",
    "city": "Ziebigk"
  },
  {
    "postcode": "6369",
    "city": "Breesen"
  },
  {
    "postcode": "6369",
    "city": "Hohnsdorf"
  },
  {
    "postcode": "6369",
    "city": "Gnetsch"
  },
  {
    "postcode": "6369",
    "city": "Klein-Weißandt"
  },
  {
    "postcode": "6369",
    "city": "Kleinwülknitz"
  },
  {
    "postcode": "6369",
    "city": "Großwülknitz"
  },
  {
    "postcode": "6369",
    "city": "Lennewitz"
  },
  {
    "postcode": "6369",
    "city": "Wehlau"
  },
  {
    "postcode": "6369",
    "city": "Zehmitz"
  },
  {
    "postcode": "6385",
    "city": "Aken (Elbe)"
  },
  {
    "postcode": "6385",
    "city": "Aken"
  },
  {
    "postcode": "6385",
    "city": "Anhalt-Bitterfeld"
  },
  {
    "postcode": "6385",
    "city": "Mennewitz"
  },
  {
    "postcode": "6385",
    "city": "Kühren"
  },
  {
    "postcode": "6385",
    "city": "Susigke"
  },
  {
    "postcode": "6385",
    "city": "Obselau"
  },
  {
    "postcode": "6386",
    "city": "Fraßdorf"
  },
  {
    "postcode": "6386",
    "city": "Hinsdorf"
  },
  {
    "postcode": "6386",
    "city": "Meilendorf"
  },
  {
    "postcode": "6386",
    "city": "Osternienburg"
  },
  {
    "postcode": "6386",
    "city": "Quellendorf"
  },
  {
    "postcode": "6386",
    "city": "Reppichau"
  },
  {
    "postcode": "6386",
    "city": "Scheuder"
  },
  {
    "postcode": "6386",
    "city": "Anhalt-Bitterfeld"
  },
  {
    "postcode": "6386",
    "city": "Friedrichsdorf"
  },
  {
    "postcode": "6386",
    "city": "Kleinzerbst"
  },
  {
    "postcode": "6386",
    "city": "Osternienburger Land"
  },
  {
    "postcode": "6386",
    "city": "Storkau"
  },
  {
    "postcode": "6386",
    "city": "Südliches Anhalt"
  },
  {
    "postcode": "6386",
    "city": "Zehmigkau"
  },
  {
    "postcode": "6386",
    "city": "Körnitz"
  },
  {
    "postcode": "6386",
    "city": "Micheln"
  },
  {
    "postcode": "6386",
    "city": "Bobbe"
  },
  {
    "postcode": "6386",
    "city": "Trinum"
  },
  {
    "postcode": "6386",
    "city": "Wulfen"
  },
  {
    "postcode": "6386",
    "city": "Trebbichau"
  },
  {
    "postcode": "6386",
    "city": "Dornbock"
  },
  {
    "postcode": "6386",
    "city": "Drosa"
  },
  {
    "postcode": "6386",
    "city": "Chörau"
  },
  {
    "postcode": "6386",
    "city": "Klietzen"
  },
  {
    "postcode": "6386",
    "city": "Großpaschleben"
  },
  {
    "postcode": "6386",
    "city": "Mölz"
  },
  {
    "postcode": "6386",
    "city": "Diebzig"
  },
  {
    "postcode": "6386",
    "city": "Zabitz"
  },
  {
    "postcode": "6386",
    "city": "Maxdorf"
  },
  {
    "postcode": "6386",
    "city": "Elsnigk"
  },
  {
    "postcode": "6386",
    "city": "Kleinpaschleben"
  },
  {
    "postcode": "6386",
    "city": "Frenz"
  },
  {
    "postcode": "6386",
    "city": "Libbesdorf"
  },
  {
    "postcode": "6386",
    "city": "Sibbesdorf"
  },
  {
    "postcode": "6386",
    "city": "Rosefeld"
  },
  {
    "postcode": "6386",
    "city": "Pißdorf"
  },
  {
    "postcode": "6386",
    "city": "Thurau"
  },
  {
    "postcode": "6386",
    "city": "Würflau"
  },
  {
    "postcode": "6386",
    "city": "Diesdorf"
  },
  {
    "postcode": "6386",
    "city": "Lausigk"
  },
  {
    "postcode": "6386",
    "city": "Naundorf"
  },
  {
    "postcode": "6388",
    "city": "Baasdorf"
  },
  {
    "postcode": "6388",
    "city": "Edderitz"
  },
  {
    "postcode": "6388",
    "city": "Gröbzig"
  },
  {
    "postcode": "6388",
    "city": "Maasdorf bei Köthen Anhalt"
  },
  {
    "postcode": "6388",
    "city": "Maasdorf bei Köthen"
  },
  {
    "postcode": "6388",
    "city": "Piethen"
  },
  {
    "postcode": "6388",
    "city": "Wieskau"
  },
  {
    "postcode": "6388",
    "city": "Anhalt-Bitterfeld"
  },
  {
    "postcode": "6388",
    "city": "Maasdorf"
  },
  {
    "postcode": "6388",
    "city": "Pfaffendorf"
  },
  {
    "postcode": "6388",
    "city": "Pilsenhöhe"
  },
  {
    "postcode": "6388",
    "city": "Wörbzig"
  },
  {
    "postcode": "6388",
    "city": "Werdershausen"
  },
  {
    "postcode": "6388",
    "city": "Cattau"
  },
  {
    "postcode": "63065",
    "city": "Offenbach am Main"
  },
  {
    "postcode": "63067",
    "city": "Offenbach am Main"
  },
  {
    "postcode": "63067",
    "city": "Kaiserlei"
  },
  {
    "postcode": "63069",
    "city": "Offenbach am Main"
  },
  {
    "postcode": "63069",
    "city": "Rosenhöhe"
  },
  {
    "postcode": "63069",
    "city": "Lauterborn"
  },
  {
    "postcode": "63071",
    "city": "Offenbach am Main"
  },
  {
    "postcode": "63071",
    "city": "Tempelsee"
  },
  {
    "postcode": "63073",
    "city": "Bieber"
  },
  {
    "postcode": "63073",
    "city": "Offenbach am Main"
  },
  {
    "postcode": "63075",
    "city": "Bürgel"
  },
  {
    "postcode": "63075",
    "city": "Offenbach am Main"
  },
  {
    "postcode": "63075",
    "city": "Rumpenheim"
  },
  {
    "postcode": "63075",
    "city": "Waldheim"
  },
  {
    "postcode": "63110",
    "city": "Dudenhofen Kreis Offenbach am Main"
  },
  {
    "postcode": "63110",
    "city": "Dudenhofen"
  },
  {
    "postcode": "63110",
    "city": "Hainhausen Kreis Offenbach am Main"
  },
  {
    "postcode": "63110",
    "city": "Hainhausen"
  },
  {
    "postcode": "63110",
    "city": "Jügesheim"
  },
  {
    "postcode": "63110",
    "city": "Nieder-Roden Hessen"
  },
  {
    "postcode": "63110",
    "city": "Nieder-Roden"
  },
  {
    "postcode": "63110",
    "city": "Rodgau"
  },
  {
    "postcode": "63110",
    "city": "Rollwald"
  },
  {
    "postcode": "63110",
    "city": "Weiskirchen Kreis Offenbach am Main"
  },
  {
    "postcode": "63110",
    "city": "Weiskirchen"
  },
  {
    "postcode": "63110",
    "city": "Offenbach"
  },
  {
    "postcode": "63128",
    "city": "Dietzenbach"
  },
  {
    "postcode": "63128",
    "city": "Steinberg"
  },
  {
    "postcode": "63128",
    "city": "Offenbach"
  },
  {
    "postcode": "63128",
    "city": "Hexenberg"
  },
  {
    "postcode": "63150",
    "city": "Heusenstamm"
  },
  {
    "postcode": "63150",
    "city": "Rembrücken"
  },
  {
    "postcode": "63150",
    "city": "Offenbach"
  },
  {
    "postcode": "63150",
    "city": "Wildhof"
  },
  {
    "postcode": "63150",
    "city": "Offenbach am Main"
  },
  {
    "postcode": "63165",
    "city": "Lämmerspiel"
  },
  {
    "postcode": "63165",
    "city": "Mühlheim"
  },
  {
    "postcode": "63165",
    "city": "Mühlheim am Main"
  },
  {
    "postcode": "63165",
    "city": "Offenbach"
  },
  {
    "postcode": "63165",
    "city": "Dietesheim"
  },
  {
    "postcode": "63179",
    "city": "Hausen Kreis Offenbach am Main"
  },
  {
    "postcode": "63179",
    "city": "Hausen"
  },
  {
    "postcode": "63179",
    "city": "Obertshausen"
  },
  {
    "postcode": "63179",
    "city": "Offenbach"
  },
  {
    "postcode": "63225",
    "city": "Gemeinde Egelsbach"
  },
  {
    "postcode": "63225",
    "city": "Langen (Hessen)"
  },
  {
    "postcode": "63225",
    "city": "Langen"
  },
  {
    "postcode": "63225",
    "city": "Offenbach"
  },
  {
    "postcode": "63225",
    "city": "Steinberg"
  },
  {
    "postcode": "63225",
    "city": "Industriegebiet"
  },
  {
    "postcode": "63225",
    "city": "Oberlinden"
  },
  {
    "postcode": "63225",
    "city": "Linden"
  },
  {
    "postcode": "63263",
    "city": "Gravenbruch"
  },
  {
    "postcode": "63263",
    "city": "Neu-Isenburg"
  },
  {
    "postcode": "63263",
    "city": "Stadt Frankfurt am Main"
  },
  {
    "postcode": "63263",
    "city": "Zeppelinheim"
  },
  {
    "postcode": "63263",
    "city": "Offenbach"
  },
  {
    "postcode": "63263",
    "city": "Stadt Offenbach am Main"
  },
  {
    "postcode": "63263",
    "city": "Offenbach am Main"
  },
  {
    "postcode": "63303",
    "city": "Buchschlag"
  },
  {
    "postcode": "63303",
    "city": "Dreieich"
  },
  {
    "postcode": "63303",
    "city": "Götzenhain"
  },
  {
    "postcode": "63303",
    "city": "Offenthal"
  },
  {
    "postcode": "63303",
    "city": "Sprendlingen Hessen"
  },
  {
    "postcode": "63303",
    "city": "Sprendlingen"
  },
  {
    "postcode": "63303",
    "city": "Offenbach"
  },
  {
    "postcode": "63303",
    "city": "Dreieichenhain"
  },
  {
    "postcode": "63322",
    "city": "Messenhausen"
  },
  {
    "postcode": "63322",
    "city": "Ober-Roden"
  },
  {
    "postcode": "63322",
    "city": "Rödermark"
  },
  {
    "postcode": "63322",
    "city": "Urberach"
  },
  {
    "postcode": "63322",
    "city": "Waldacker"
  },
  {
    "postcode": "63322",
    "city": "Offenbach"
  },
  {
    "postcode": "63329",
    "city": "Egelsbach Hessen"
  },
  {
    "postcode": "63329",
    "city": "Egelsbach"
  },
  {
    "postcode": "63329",
    "city": "Offenbach"
  },
  {
    "postcode": "63405",
    "city": "Hanau"
  },
  {
    "postcode": "63450",
    "city": "Hanau"
  },
  {
    "postcode": "63450",
    "city": "Main-Kinzig-Kreis"
  },
  {
    "postcode": "63452",
    "city": "Hanau"
  },
  {
    "postcode": "63452",
    "city": "Main-Kinzig-Kreis"
  },
  {
    "postcode": "63454",
    "city": "Hanau"
  },
  {
    "postcode": "63454",
    "city": "Mittelbuchen"
  },
  {
    "postcode": "63454",
    "city": "Main-Kinzig-Kreis"
  },
  {
    "postcode": "63454",
    "city": "Kesselstadt"
  },
  {
    "postcode": "63456",
    "city": "Hanau"
  },
  {
    "postcode": "63456",
    "city": "Klein-Auheim"
  },
  {
    "postcode": "63456",
    "city": "Steinheim am Main"
  },
  {
    "postcode": "63456",
    "city": "Main-Kinzig-Kreis"
  },
  {
    "postcode": "63456",
    "city": "Steinheim"
  },
  {
    "postcode": "63457",
    "city": "Großauheim"
  },
  {
    "postcode": "63457",
    "city": "Hanau"
  },
  {
    "postcode": "63457",
    "city": "Wolfgang Kreis Hanau"
  },
  {
    "postcode": "63457",
    "city": "Wolfgang"
  },
  {
    "postcode": "63457",
    "city": "Main-Kinzig-Kreis"
  },
  {
    "postcode": "63477",
    "city": "Bischofsheim Kreis Hanau"
  },
  {
    "postcode": "63477",
    "city": "Bischofsheim"
  },
  {
    "postcode": "63477",
    "city": "Dörnigheim"
  },
  {
    "postcode": "63477",
    "city": "Hochstadt Hessen"
  },
  {
    "postcode": "63477",
    "city": "Hochstadt"
  },
  {
    "postcode": "63477",
    "city": "Maintal"
  },
  {
    "postcode": "63477",
    "city": "Wachenbuchen"
  },
  {
    "postcode": "63477",
    "city": "Main-Kinzig-Kreis"
  },
  {
    "postcode": "63486",
    "city": "Bruchköbel"
  },
  {
    "postcode": "63486",
    "city": "Butterstadt"
  },
  {
    "postcode": "63486",
    "city": "Niederissigheim"
  },
  {
    "postcode": "63486",
    "city": "Oberissigheim"
  },
  {
    "postcode": "63486",
    "city": "Roßdorf Kreis Hanau"
  },
  {
    "postcode": "63486",
    "city": "Roßdorf"
  },
  {
    "postcode": "63486",
    "city": "Main-Kinzig-Kreis"
  },
  {
    "postcode": "63500",
    "city": "Froschhausen Hessen"
  },
  {
    "postcode": "63500",
    "city": "Froschhausen"
  },
  {
    "postcode": "63500",
    "city": "Seligenstadt"
  },
  {
    "postcode": "63500",
    "city": "Seligenstadt Hessen"
  },
  {
    "postcode": "63500",
    "city": "Offenbach"
  },
  {
    "postcode": "63500",
    "city": "Klein-Welzheim"
  },
  {
    "postcode": "63505",
    "city": "Langenselbold"
  },
  {
    "postcode": "63505",
    "city": "Main-Kinzig-Kreis"
  },
  {
    "postcode": "63512",
    "city": "Hainburg Hessen"
  },
  {
    "postcode": "63512",
    "city": "Hainburg"
  },
  {
    "postcode": "63512",
    "city": "Hainstadt bei Hanau"
  },
  {
    "postcode": "63512",
    "city": "Klein-Krotzenburg"
  },
  {
    "postcode": "63512",
    "city": "Offenbach"
  },
  {
    "postcode": "63512",
    "city": "Hainstadt"
  },
  {
    "postcode": "63517",
    "city": "Rodenbach bei Hanau"
  },
  {
    "postcode": "63517",
    "city": "Main-Kinzig-Kreis"
  },
  {
    "postcode": "63517",
    "city": "Rodenbach"
  },
  {
    "postcode": "63517",
    "city": "Niederrodenbach"
  },
  {
    "postcode": "63517",
    "city": "Oberrodenbach"
  },
  {
    "postcode": "63526",
    "city": "Erlensee"
  },
  {
    "postcode": "63526",
    "city": "Main-Kinzig-Kreis"
  },
  {
    "postcode": "63526",
    "city": "Rückingen"
  },
  {
    "postcode": "63526",
    "city": "Langendiebach"
  },
  {
    "postcode": "63533",
    "city": "Mainflingen"
  },
  {
    "postcode": "63533",
    "city": "Mainhausen"
  },
  {
    "postcode": "63533",
    "city": "Zellhausen"
  },
  {
    "postcode": "63533",
    "city": "Offenbach"
  },
  {
    "postcode": "63538",
    "city": "Großkrotzenburg"
  },
  {
    "postcode": "63538",
    "city": "Main-Kinzig-Kreis"
  },
  {
    "postcode": "63543",
    "city": "Neuberg Hessen"
  },
  {
    "postcode": "63543",
    "city": "Neuberg"
  },
  {
    "postcode": "63543",
    "city": "Ravolzhausen"
  },
  {
    "postcode": "63543",
    "city": "Rüdigheim Kreis Hanau"
  },
  {
    "postcode": "63543",
    "city": "Rüdigheim"
  },
  {
    "postcode": "63543",
    "city": "Main-Kinzig-Kreis"
  },
  {
    "postcode": "63543",
    "city": "Bei den Tongruben"
  },
  {
    "postcode": "63546",
    "city": "Hammersbach Hessen"
  },
  {
    "postcode": "63546",
    "city": "Hammersbach"
  },
  {
    "postcode": "63546",
    "city": "Main-Kinzig-Kreis"
  },
  {
    "postcode": "63546",
    "city": "Langen-Bergheim"
  },
  {
    "postcode": "63546",
    "city": "Marköbel"
  },
  {
    "postcode": "63546",
    "city": "Hirzbacher Höfe"
  },
  {
    "postcode": "63546",
    "city": "Stadt Büdingen"
  },
  {
    "postcode": "63549",
    "city": "Altwiedermus"
  },
  {
    "postcode": "63549",
    "city": "Hüttengesäß"
  },
  {
    "postcode": "63549",
    "city": "Ronneburg Hessen"
  },
  {
    "postcode": "63549",
    "city": "Ronneburg"
  },
  {
    "postcode": "63549",
    "city": "Main-Kinzig-Kreis"
  },
  {
    "postcode": "63549",
    "city": "Neuwiedermus"
  },
  {
    "postcode": "63571",
    "city": "Gelnhausen"
  },
  {
    "postcode": "63571",
    "city": "Hailer Kreis Gelnhausen"
  },
  {
    "postcode": "63571",
    "city": "Hailer"
  },
  {
    "postcode": "63571",
    "city": "Haitz"
  },
  {
    "postcode": "63571",
    "city": "Höchst Kreis Gelnhausen"
  },
  {
    "postcode": "63571",
    "city": "Höchst"
  },
  {
    "postcode": "63571",
    "city": "Meerholz"
  },
  {
    "postcode": "63571",
    "city": "Roth Kreis Gelnhausen"
  },
  {
    "postcode": "63571",
    "city": "Roth"
  },
  {
    "postcode": "63571",
    "city": "Main-Kinzig-Kreis"
  },
  {
    "postcode": "63579",
    "city": "Altenmittlau"
  },
  {
    "postcode": "63579",
    "city": "Bernbach Kreis Gelnhausen"
  },
  {
    "postcode": "63579",
    "city": "Bernbach"
  },
  {
    "postcode": "63579",
    "city": "Freigericht"
  },
  {
    "postcode": "63579",
    "city": "Horbach Kreis Gelnhausen"
  },
  {
    "postcode": "63579",
    "city": "Horbach"
  },
  {
    "postcode": "63579",
    "city": "Neuses Kreis Gelnhausen"
  },
  {
    "postcode": "63579",
    "city": "Neuses"
  },
  {
    "postcode": "63579",
    "city": "Somborn Kreis Gelnhausen"
  },
  {
    "postcode": "63579",
    "city": "Somborn"
  },
  {
    "postcode": "63579",
    "city": "Main-Kinzig-Kreis"
  },
  {
    "postcode": "63584",
    "city": "Breitenborn"
  },
  {
    "postcode": "63584",
    "city": "Gettenbach"
  },
  {
    "postcode": "63584",
    "city": "Gründau"
  },
  {
    "postcode": "63584",
    "city": "Hain-Gründau"
  },
  {
    "postcode": "63584",
    "city": "Lieblos"
  },
  {
    "postcode": "63584",
    "city": "Niedergründau"
  },
  {
    "postcode": "63584",
    "city": "Rothenbergen"
  },
  {
    "postcode": "63584",
    "city": "Main-Kinzig-Kreis"
  },
  {
    "postcode": "63584",
    "city": "Mittel-Gründau"
  },
  {
    "postcode": "63589",
    "city": "Altenhaßlau"
  },
  {
    "postcode": "63589",
    "city": "Eidengesäß"
  },
  {
    "postcode": "63589",
    "city": "Geislitz"
  },
  {
    "postcode": "63589",
    "city": "Großenhausen"
  },
  {
    "postcode": "63589",
    "city": "Linsengericht"
  },
  {
    "postcode": "63589",
    "city": "Lützelhausen"
  },
  {
    "postcode": "63589",
    "city": "Waldrode"
  },
  {
    "postcode": "63589",
    "city": "Main-Kinzig-Kreis"
  },
  {
    "postcode": "63589",
    "city": "Tannengrundhof"
  },
  {
    "postcode": "63594",
    "city": "Gondsroth"
  },
  {
    "postcode": "63594",
    "city": "Hasselroth"
  },
  {
    "postcode": "63594",
    "city": "Neuenhaßlau"
  },
  {
    "postcode": "63594",
    "city": "Niedermittlau"
  },
  {
    "postcode": "63594",
    "city": "Main-Kinzig-Kreis"
  },
  {
    "postcode": "63599",
    "city": "Bieber Spessart"
  },
  {
    "postcode": "63599",
    "city": "Bieber"
  },
  {
    "postcode": "63599",
    "city": "Biebergemünd"
  },
  {
    "postcode": "63599",
    "city": "Breitenborn"
  },
  {
    "postcode": "63599",
    "city": "Kassel Kreis Gelnhausen"
  },
  {
    "postcode": "63599",
    "city": "Kassel"
  },
  {
    "postcode": "63599",
    "city": "Lanzingen"
  },
  {
    "postcode": "63599",
    "city": "Roßbach Kreis Gelnhausen"
  },
  {
    "postcode": "63599",
    "city": "Roßbach"
  },
  {
    "postcode": "63599",
    "city": "Wirtheim"
  },
  {
    "postcode": "63599",
    "city": "Main-Kinzig-Kreis"
  },
  {
    "postcode": "63599",
    "city": "Gemeinde Linsengericht"
  },
  {
    "postcode": "63607",
    "city": "Aufenau"
  },
  {
    "postcode": "63607",
    "city": "Hesseldorf"
  },
  {
    "postcode": "63607",
    "city": "Leisenwald"
  },
  {
    "postcode": "63607",
    "city": "Neudorf bei Wächtersbach"
  },
  {
    "postcode": "63607",
    "city": "Wächtersbach"
  },
  {
    "postcode": "63607",
    "city": "Waldensberg"
  },
  {
    "postcode": "63607",
    "city": "Weilers über Wächtersbach"
  },
  {
    "postcode": "63607",
    "city": "Wittgenborn"
  },
  {
    "postcode": "63607",
    "city": "Main-Kinzig-Kreis"
  },
  {
    "postcode": "63607",
    "city": "Neudorf"
  },
  {
    "postcode": "63607",
    "city": "Weilers"
  },
  {
    "postcode": "63619",
    "city": "Bad Orb"
  },
  {
    "postcode": "63619",
    "city": "Main-Kinzig-Kreis"
  },
  {
    "postcode": "63628",
    "city": "Ahl"
  },
  {
    "postcode": "63628",
    "city": "Alsberg"
  },
  {
    "postcode": "63628",
    "city": "Bad Soden-Salmünster"
  },
  {
    "postcode": "63628",
    "city": "Eckardroth"
  },
  {
    "postcode": "63628",
    "city": "Katholisch-Willenroth"
  },
  {
    "postcode": "63628",
    "city": "Kerbersdorf"
  },
  {
    "postcode": "63628",
    "city": "Mernes"
  },
  {
    "postcode": "63628",
    "city": "Romsthal"
  },
  {
    "postcode": "63628",
    "city": "Wahlert"
  },
  {
    "postcode": "63628",
    "city": "Main-Kinzig-Kreis"
  },
  {
    "postcode": "63628",
    "city": "Spessart"
  },
  {
    "postcode": "63628",
    "city": "Salmünster"
  },
  {
    "postcode": "63628",
    "city": "Bad Soden"
  },
  {
    "postcode": "63628",
    "city": "Hausen"
  },
  {
    "postcode": "63628",
    "city": "Gutsbezirk Spessart"
  },
  {
    "postcode": "63633",
    "city": "Birstein"
  },
  {
    "postcode": "63633",
    "city": "Böß-Gesäß Kreis Büdingen Hessen"
  },
  {
    "postcode": "63633",
    "city": "Böß-Gesäß"
  },
  {
    "postcode": "63633",
    "city": "Fischborn"
  },
  {
    "postcode": "63633",
    "city": "Hettersroth"
  },
  {
    "postcode": "63633",
    "city": "Illnhausen"
  },
  {
    "postcode": "63633",
    "city": "Kirchbracht"
  },
  {
    "postcode": "63633",
    "city": "Lichenroth"
  },
  {
    "postcode": "63633",
    "city": "Mauswinkel"
  },
  {
    "postcode": "63633",
    "city": "Oberreichenbach bei Wächtersbach"
  },
  {
    "postcode": "63633",
    "city": "Obersotzbach"
  },
  {
    "postcode": "63633",
    "city": "Unterreichenbach Hessen"
  },
  {
    "postcode": "63633",
    "city": "Unterreichenbach"
  },
  {
    "postcode": "63633",
    "city": "Untersotzbach"
  },
  {
    "postcode": "63633",
    "city": "Völzberg"
  },
  {
    "postcode": "63633",
    "city": "Wettges"
  },
  {
    "postcode": "63633",
    "city": "Wüstwillenroth"
  },
  {
    "postcode": "63633",
    "city": "Main-Kinzig-Kreis"
  },
  {
    "postcode": "63633",
    "city": "Oberreichenbach"
  },
  {
    "postcode": "63633",
    "city": "Bösgesäß"
  },
  {
    "postcode": "63636",
    "city": "Brachttal"
  },
  {
    "postcode": "63636",
    "city": "Hellstein"
  },
  {
    "postcode": "63636",
    "city": "Neuenschmidten"
  },
  {
    "postcode": "63636",
    "city": "Schächtelburg"
  },
  {
    "postcode": "63636",
    "city": "Schlierbach bei Wächtersbach"
  },
  {
    "postcode": "63636",
    "city": "Spielberg Hessen"
  },
  {
    "postcode": "63636",
    "city": "Spielberg"
  },
  {
    "postcode": "63636",
    "city": "Streitberg bei Wächtersbach"
  },
  {
    "postcode": "63636",
    "city": "Udenhain"
  },
  {
    "postcode": "63636",
    "city": "Main-Kinzig-Kreis"
  },
  {
    "postcode": "63636",
    "city": "Schlierbach"
  },
  {
    "postcode": "63636",
    "city": "Streitberg"
  },
  {
    "postcode": "63637",
    "city": "Burgjoß"
  },
  {
    "postcode": "63637",
    "city": "Jossgrund"
  },
  {
    "postcode": "63637",
    "city": "Lettgenbrunn"
  },
  {
    "postcode": "63637",
    "city": "Oberndorf bei Wächtersbach"
  },
  {
    "postcode": "63637",
    "city": "Pfaffenhausen bei Wächtersbach"
  },
  {
    "postcode": "63637",
    "city": "Villbach"
  },
  {
    "postcode": "63637",
    "city": "Main-Kinzig-Kreis"
  },
  {
    "postcode": "63637",
    "city": "Pfaffenhausen"
  },
  {
    "postcode": "63637",
    "city": "Oberndorf"
  },
  {
    "postcode": "63639",
    "city": "Flörsbach"
  },
  {
    "postcode": "63639",
    "city": "Flörsbachtal"
  },
  {
    "postcode": "63639",
    "city": "Kempfenbrunn"
  },
  {
    "postcode": "63639",
    "city": "Lohrhaupten"
  },
  {
    "postcode": "63639",
    "city": "Mosborn"
  },
  {
    "postcode": "63639",
    "city": "Main-Kinzig-Kreis"
  },
  {
    "postcode": "63654",
    "city": "Aulendiebach"
  },
  {
    "postcode": "63654",
    "city": "Büches"
  },
  {
    "postcode": "63654",
    "city": "Büdingen"
  },
  {
    "postcode": "63654",
    "city": "Büdingen Hessen"
  },
  {
    "postcode": "63654",
    "city": "Calbach"
  },
  {
    "postcode": "63654",
    "city": "Diebach am Haag"
  },
  {
    "postcode": "63654",
    "city": "Düdelsheim"
  },
  {
    "postcode": "63654",
    "city": "Dudenrod"
  },
  {
    "postcode": "63654",
    "city": "Eckartshausen Hessen"
  },
  {
    "postcode": "63654",
    "city": "Eckartshausen"
  },
  {
    "postcode": "63654",
    "city": "Lorbach Kreis Büdingen Hessen"
  },
  {
    "postcode": "63654",
    "city": "Lorbach"
  },
  {
    "postcode": "63654",
    "city": "Michelau Kreis Büdingen Hessen"
  },
  {
    "postcode": "63654",
    "city": "Michelau"
  },
  {
    "postcode": "63654",
    "city": "Orleshausen"
  },
  {
    "postcode": "63654",
    "city": "Rinderbügen"
  },
  {
    "postcode": "63654",
    "city": "Rohrbach Kreis Büdingen Hessen"
  },
  {
    "postcode": "63654",
    "city": "Rohrbach"
  },
  {
    "postcode": "63654",
    "city": "Vonhausen"
  },
  {
    "postcode": "63654",
    "city": "Wolf Kreis Büdingen Hessen"
  },
  {
    "postcode": "63654",
    "city": "Wolf"
  },
  {
    "postcode": "63654",
    "city": "Wolferborn"
  },
  {
    "postcode": "63654",
    "city": "Wetteraukreis"
  },
  {
    "postcode": "63654",
    "city": "Diebach"
  },
  {
    "postcode": "63667",
    "city": "Bad Salzhausen"
  },
  {
    "postcode": "63667",
    "city": "Borsdorf Hessen"
  },
  {
    "postcode": "63667",
    "city": "Borsdorf"
  },
  {
    "postcode": "63667",
    "city": "Eichelsdorf Hessen"
  },
  {
    "postcode": "63667",
    "city": "Eichelsdorf"
  },
  {
    "postcode": "63667",
    "city": "Fauerbach bei Nidda"
  },
  {
    "postcode": "63667",
    "city": "Geiß-Nidda"
  },
  {
    "postcode": "63667",
    "city": "Harb"
  },
  {
    "postcode": "63667",
    "city": "Kohden"
  },
  {
    "postcode": "63667",
    "city": "Michelnau"
  },
  {
    "postcode": "63667",
    "city": "Nidda"
  },
  {
    "postcode": "63667",
    "city": "Schwickartshausen"
  },
  {
    "postcode": "63667",
    "city": "Stornfels"
  },
  {
    "postcode": "63667",
    "city": "Ulfa"
  },
  {
    "postcode": "63667",
    "city": "Wallernhausen"
  },
  {
    "postcode": "63667",
    "city": "Wetteraukreis"
  },
  {
    "postcode": "63667",
    "city": "Unter-Schmitten"
  },
  {
    "postcode": "63667",
    "city": "Ober-Schmitten"
  },
  {
    "postcode": "63667",
    "city": "Fauerbach"
  },
  {
    "postcode": "63667",
    "city": "Ober-Widdersheim"
  },
  {
    "postcode": "63667",
    "city": "Ober-Lais"
  },
  {
    "postcode": "63667",
    "city": "Unter-Widdersheim"
  },
  {
    "postcode": "63667",
    "city": "Unter-Lais"
  },
  {
    "postcode": "63674",
    "city": "Altenstadt"
  },
  {
    "postcode": "63674",
    "city": "Altenstadt Hessen"
  },
  {
    "postcode": "63674",
    "city": "Enzheim über Büdingen Oberhess"
  },
  {
    "postcode": "63674",
    "city": "Enzheim über Büdingen"
  },
  {
    "postcode": "63674",
    "city": "Heegheim"
  },
  {
    "postcode": "63674",
    "city": "Höchst an der Nidder"
  },
  {
    "postcode": "63674",
    "city": "Lindheim Hessen"
  },
  {
    "postcode": "63674",
    "city": "Lindheim"
  },
  {
    "postcode": "63674",
    "city": "Oberau Hessen"
  },
  {
    "postcode": "63674",
    "city": "Oberau"
  },
  {
    "postcode": "63674",
    "city": "Rodenbach Kreis Büdingen Hessen"
  },
  {
    "postcode": "63674",
    "city": "Rodenbach"
  },
  {
    "postcode": "63674",
    "city": "Waldsiedlung Hessen"
  },
  {
    "postcode": "63674",
    "city": "Waldsiedlung"
  },
  {
    "postcode": "63674",
    "city": "Wetteraukreis"
  },
  {
    "postcode": "63674",
    "city": "Höchst"
  },
  {
    "postcode": "63674",
    "city": "Enzheim"
  },
  {
    "postcode": "63679",
    "city": "Betzenrod bei Nidda"
  },
  {
    "postcode": "63679",
    "city": "Breungeshain Hessen"
  },
  {
    "postcode": "63679",
    "city": "Breungeshain"
  },
  {
    "postcode": "63679",
    "city": "Burkhards Hessen"
  },
  {
    "postcode": "63679",
    "city": "Burkhards"
  },
  {
    "postcode": "63679",
    "city": "Busenborn"
  },
  {
    "postcode": "63679",
    "city": "Eichelsachsen"
  },
  {
    "postcode": "63679",
    "city": "Einartshausen"
  },
  {
    "postcode": "63679",
    "city": "Eschenrod Hessen"
  },
  {
    "postcode": "63679",
    "city": "Eschenrod"
  },
  {
    "postcode": "63679",
    "city": "Götzen über Nidda"
  },
  {
    "postcode": "63679",
    "city": "Kaulstoß Hessen"
  },
  {
    "postcode": "63679",
    "city": "Kaulstoß"
  },
  {
    "postcode": "63679",
    "city": "Michelbach Vogelsberg"
  },
  {
    "postcode": "63679",
    "city": "Michelbach"
  },
  {
    "postcode": "63679",
    "city": "Rainrod bei Nidda"
  },
  {
    "postcode": "63679",
    "city": "Rudingshain"
  },
  {
    "postcode": "63679",
    "city": "Schotten"
  },
  {
    "postcode": "63679",
    "city": "Schotten Hessen"
  },
  {
    "postcode": "63679",
    "city": "Sichenhausen"
  },
  {
    "postcode": "63679",
    "city": "Vogelsbergkreis"
  },
  {
    "postcode": "63679",
    "city": "Götzen"
  },
  {
    "postcode": "63679",
    "city": "Betzenrod"
  },
  {
    "postcode": "63679",
    "city": "Rainrod"
  },
  {
    "postcode": "63679",
    "city": "Wingershausen"
  },
  {
    "postcode": "63683",
    "city": "Bergheim Kreis Büdingen Hessen"
  },
  {
    "postcode": "63683",
    "city": "Bergheim"
  },
  {
    "postcode": "63683",
    "city": "Bleichenbach Hessen"
  },
  {
    "postcode": "63683",
    "city": "Bleichenbach"
  },
  {
    "postcode": "63683",
    "city": "Eckartsborn"
  },
  {
    "postcode": "63683",
    "city": "Effolderbach"
  },
  {
    "postcode": "63683",
    "city": "Gelnhaar"
  },
  {
    "postcode": "63683",
    "city": "Lißberg Hessen"
  },
  {
    "postcode": "63683",
    "city": "Lißberg"
  },
  {
    "postcode": "63683",
    "city": "Ortenberg"
  },
  {
    "postcode": "63683",
    "city": "Ortenberg Hessen"
  },
  {
    "postcode": "63683",
    "city": "Selters Kreis Büdingen Hessen"
  },
  {
    "postcode": "63683",
    "city": "Selters"
  },
  {
    "postcode": "63683",
    "city": "Usenborn"
  },
  {
    "postcode": "63683",
    "city": "Wippenbach"
  },
  {
    "postcode": "63683",
    "city": "Wetteraukreis"
  },
  {
    "postcode": "63688",
    "city": "Gedern"
  },
  {
    "postcode": "63688",
    "city": "Steinberg Kreis Büdingen Hessen"
  },
  {
    "postcode": "63688",
    "city": "Steinberg"
  },
  {
    "postcode": "63688",
    "city": "Wenings"
  },
  {
    "postcode": "63688",
    "city": "Wetteraukreis"
  },
  {
    "postcode": "63688",
    "city": "Ober-Seemen"
  },
  {
    "postcode": "63688",
    "city": "Mittel-Seemen"
  },
  {
    "postcode": "63688",
    "city": "Nieder-Seemen"
  },
  {
    "postcode": "63691",
    "city": "Bellmuth"
  },
  {
    "postcode": "63691",
    "city": "Bobenhausen I"
  },
  {
    "postcode": "63691",
    "city": "Dauernheim"
  },
  {
    "postcode": "63691",
    "city": "Ober-Mockstadt"
  },
  {
    "postcode": "63691",
    "city": "Ranstadt"
  },
  {
    "postcode": "63691",
    "city": "Wetteraukreis"
  },
  {
    "postcode": "63691",
    "city": "Bobenhausen I"
  },
  {
    "postcode": "63694",
    "city": "Hainchen Kreis Büdingen Hessen"
  },
  {
    "postcode": "63694",
    "city": "Hainchen"
  },
  {
    "postcode": "63694",
    "city": "Himbach"
  },
  {
    "postcode": "63694",
    "city": "Limeshain"
  },
  {
    "postcode": "63694",
    "city": "Rommelhausen Hessen"
  },
  {
    "postcode": "63694",
    "city": "Rommelhausen"
  },
  {
    "postcode": "63694",
    "city": "Wetteraukreis"
  },
  {
    "postcode": "63695",
    "city": "Glauburg"
  },
  {
    "postcode": "63695",
    "city": "Stockheim Kreis Büdingen Hessen"
  },
  {
    "postcode": "63695",
    "city": "Stockheim"
  },
  {
    "postcode": "63695",
    "city": "Wetteraukreis"
  },
  {
    "postcode": "63695",
    "city": "Glauberg"
  },
  {
    "postcode": "63697",
    "city": "Glashütten Kreis Büdingen Hessen"
  },
  {
    "postcode": "63697",
    "city": "Glashütten"
  },
  {
    "postcode": "63697",
    "city": "Hirzenhain"
  },
  {
    "postcode": "63697",
    "city": "Hirzenhain Wetteraukreis"
  },
  {
    "postcode": "63697",
    "city": "Igelhausen Kreis Büdingen Hessen"
  },
  {
    "postcode": "63697",
    "city": "Igelhausen"
  },
  {
    "postcode": "63697",
    "city": "Merkenfritz"
  },
  {
    "postcode": "63697",
    "city": "Wetteraukreis"
  },
  {
    "postcode": "63699",
    "city": "Bindsachsen Hessen"
  },
  {
    "postcode": "63699",
    "city": "Bindsachsen"
  },
  {
    "postcode": "63699",
    "city": "Burgbracht"
  },
  {
    "postcode": "63699",
    "city": "Helfersdorf"
  },
  {
    "postcode": "63699",
    "city": "Hitzkirchen"
  },
  {
    "postcode": "63699",
    "city": "Kefenrod"
  },
  {
    "postcode": "63699",
    "city": "Wetteraukreis"
  },
  {
    "postcode": "63699",
    "city": "Birkenstöcke"
  },
  {
    "postcode": "63699",
    "city": "Hanchesmühle"
  },
  {
    "postcode": "63699",
    "city": "Loosemühle"
  },
  {
    "postcode": "63739",
    "city": "Aschaffenburg"
  },
  {
    "postcode": "63739",
    "city": "Innenstadt"
  },
  {
    "postcode": "63739",
    "city": "Österreicher Kolonie"
  },
  {
    "postcode": "63739",
    "city": "Gailbach"
  },
  {
    "postcode": "63741",
    "city": "Aschaffenburg"
  },
  {
    "postcode": "63741",
    "city": "Damm"
  },
  {
    "postcode": "63741",
    "city": "Leider"
  },
  {
    "postcode": "63741",
    "city": "Strietwald"
  },
  {
    "postcode": "63741",
    "city": "Nilkheim"
  },
  {
    "postcode": "63741",
    "city": "Innenstadt"
  },
  {
    "postcode": "63743",
    "city": "Aschaffenburg"
  },
  {
    "postcode": "63743",
    "city": "Gailbach"
  },
  {
    "postcode": "63743",
    "city": "Obernau Unterfranken"
  },
  {
    "postcode": "63743",
    "city": "Obernau"
  },
  {
    "postcode": "63743",
    "city": "Schweinheim"
  },
  {
    "postcode": "63743",
    "city": "Obernauer Kolonie"
  },
  {
    "postcode": "63743",
    "city": "Innenstadt"
  },
  {
    "postcode": "63755",
    "city": "Albstadt"
  },
  {
    "postcode": "63755",
    "city": "Alzenau"
  },
  {
    "postcode": "63755",
    "city": "Alzenau in Unterfranken"
  },
  {
    "postcode": "63755",
    "city": "Hörstein"
  },
  {
    "postcode": "63755",
    "city": "Kälberau"
  },
  {
    "postcode": "63755",
    "city": "Maisenhausen Unterfranken"
  },
  {
    "postcode": "63755",
    "city": "Maisenhausen"
  },
  {
    "postcode": "63755",
    "city": "Michelbach Unterfranken"
  },
  {
    "postcode": "63755",
    "city": "Michelbach"
  },
  {
    "postcode": "63755",
    "city": "Wasserlos"
  },
  {
    "postcode": "63755",
    "city": "Aschaffenburg"
  },
  {
    "postcode": "63755",
    "city": "Alzenau-Süd"
  },
  {
    "postcode": "63762",
    "city": "Großostheim"
  },
  {
    "postcode": "63762",
    "city": "Pflaumheim"
  },
  {
    "postcode": "63762",
    "city": "Ringheim"
  },
  {
    "postcode": "63762",
    "city": "Wenigumstadt"
  },
  {
    "postcode": "63762",
    "city": "Aschaffenburg"
  },
  {
    "postcode": "63768",
    "city": "Feldkahl"
  },
  {
    "postcode": "63768",
    "city": "Hösbach"
  },
  {
    "postcode": "63768",
    "city": "Rottenberg"
  },
  {
    "postcode": "63768",
    "city": "Wenighösbach"
  },
  {
    "postcode": "63768",
    "city": "Winzenhohl"
  },
  {
    "postcode": "63768",
    "city": "Aschaffenburg"
  },
  {
    "postcode": "63773",
    "city": "Goldbach"
  },
  {
    "postcode": "63773",
    "city": "Goldbach Unterfranken"
  },
  {
    "postcode": "63773",
    "city": "Unterafferbach"
  },
  {
    "postcode": "63773",
    "city": "Aschaffenburg"
  },
  {
    "postcode": "63776",
    "city": "Angelsberg"
  },
  {
    "postcode": "63776",
    "city": "Brücken"
  },
  {
    "postcode": "63776",
    "city": "Daxberg Unterfranken"
  },
  {
    "postcode": "63776",
    "city": "Daxberg"
  },
  {
    "postcode": "63776",
    "city": "Dörnsteinbach"
  },
  {
    "postcode": "63776",
    "city": "Gunzenbach"
  },
  {
    "postcode": "63776",
    "city": "Heimbach"
  },
  {
    "postcode": "63776",
    "city": "Hemsbach Unterfranken"
  },
  {
    "postcode": "63776",
    "city": "Hemsbach"
  },
  {
    "postcode": "63776",
    "city": "Hohl bei Aschaffenburg"
  },
  {
    "postcode": "63776",
    "city": "Königshofen an der Kahl"
  },
  {
    "postcode": "63776",
    "city": "Mensengesäß"
  },
  {
    "postcode": "63776",
    "city": "Molkenberg"
  },
  {
    "postcode": "63776",
    "city": "Mömbris"
  },
  {
    "postcode": "63776",
    "city": "Niedersteinbach Unterfranken"
  },
  {
    "postcode": "63776",
    "city": "Niedersteinbach"
  },
  {
    "postcode": "63776",
    "city": "Rappach"
  },
  {
    "postcode": "63776",
    "city": "Reichenbach bei Aschaffenburg"
  },
  {
    "postcode": "63776",
    "city": "Rothengrund"
  },
  {
    "postcode": "63776",
    "city": "Schimborn"
  },
  {
    "postcode": "63776",
    "city": "Strötzbach"
  },
  {
    "postcode": "63776",
    "city": "Aschaffenburg"
  },
  {
    "postcode": "63776",
    "city": "Reichenbach"
  },
  {
    "postcode": "63776",
    "city": "Hohl"
  },
  {
    "postcode": "63776",
    "city": "Königshofen"
  },
  {
    "postcode": "63776",
    "city": "Gemeinde Alzenau"
  },
  {
    "postcode": "63785",
    "city": "Eisenbach Unterfranken"
  },
  {
    "postcode": "63785",
    "city": "Eisenbach"
  },
  {
    "postcode": "63785",
    "city": "Obernburg"
  },
  {
    "postcode": "63785",
    "city": "Obernburg am Main"
  },
  {
    "postcode": "63785",
    "city": "Miltenberg"
  },
  {
    "postcode": "63785",
    "city": "Obernburg a. Main"
  },
  {
    "postcode": "63791",
    "city": "Dettingen am Main"
  },
  {
    "postcode": "63791",
    "city": "Großwelzheim"
  },
  {
    "postcode": "63791",
    "city": "Karlstein am Main"
  },
  {
    "postcode": "63791",
    "city": "Aschaffenburg"
  },
  {
    "postcode": "63791",
    "city": "Karlstein a. Main"
  },
  {
    "postcode": "63791",
    "city": "Dettingen"
  },
  {
    "postcode": "63791",
    "city": "Karlstein"
  },
  {
    "postcode": "63791",
    "city": "Gemeinde Alzenau"
  },
  {
    "postcode": "63796",
    "city": "Kahl"
  },
  {
    "postcode": "63796",
    "city": "Kahl am Main"
  },
  {
    "postcode": "63796",
    "city": "Aschaffenburg"
  },
  {
    "postcode": "63796",
    "city": "Kahl a. Main"
  },
  {
    "postcode": "63796",
    "city": "Gemeinde Alzenau"
  },
  {
    "postcode": "63801",
    "city": "Kleinostheim"
  },
  {
    "postcode": "63801",
    "city": "Aschaffenburg"
  },
  {
    "postcode": "63801",
    "city": "Waldstadt"
  },
  {
    "postcode": "63808",
    "city": "Dörrmorsbach"
  },
  {
    "postcode": "63808",
    "city": "Grünmorsbach"
  },
  {
    "postcode": "63808",
    "city": "Haibach"
  },
  {
    "postcode": "63808",
    "city": "Haibach Unterfranken"
  },
  {
    "postcode": "63808",
    "city": "Aschaffenburg"
  },
  {
    "postcode": "63811",
    "city": "Stockstadt am Main"
  },
  {
    "postcode": "63811",
    "city": "Aschaffenburg"
  },
  {
    "postcode": "63811",
    "city": "Stockstadt a. Main"
  },
  {
    "postcode": "63814",
    "city": "Mainaschaff"
  },
  {
    "postcode": "63814",
    "city": "Aschaffenburg"
  },
  {
    "postcode": "63820",
    "city": "Eichelsbach"
  },
  {
    "postcode": "63820",
    "city": "Elsenfeld"
  },
  {
    "postcode": "63820",
    "city": "Rück"
  },
  {
    "postcode": "63820",
    "city": "Schippach"
  },
  {
    "postcode": "63820",
    "city": "Miltenberg"
  },
  {
    "postcode": "63825",
    "city": "Blankenbach"
  },
  {
    "postcode": "63825",
    "city": "Blankenbach Unterfranken"
  },
  {
    "postcode": "63825",
    "city": "Erlenbach"
  },
  {
    "postcode": "63825",
    "city": "Hofstädten"
  },
  {
    "postcode": "63825",
    "city": "Schneppenbach Unterfranken"
  },
  {
    "postcode": "63825",
    "city": "Schneppenbach"
  },
  {
    "postcode": "63825",
    "city": "Schöllkrippen"
  },
  {
    "postcode": "63825",
    "city": "Sommerkahl"
  },
  {
    "postcode": "63825",
    "city": "Vormwald"
  },
  {
    "postcode": "63825",
    "city": "Westerngrund"
  },
  {
    "postcode": "63825",
    "city": "Aschaffenburg"
  },
  {
    "postcode": "63825",
    "city": "Huckelheim"
  },
  {
    "postcode": "63826",
    "city": "Geiselbach"
  },
  {
    "postcode": "63826",
    "city": "Omersbach"
  },
  {
    "postcode": "63826",
    "city": "Aschaffenburg"
  },
  {
    "postcode": "63828",
    "city": "Edelbach"
  },
  {
    "postcode": "63828",
    "city": "Großkahl"
  },
  {
    "postcode": "63828",
    "city": "Großlaudenbach"
  },
  {
    "postcode": "63828",
    "city": "Kleinkahl"
  },
  {
    "postcode": "63828",
    "city": "Kleinlaudenbach"
  },
  {
    "postcode": "63828",
    "city": "Aschaffenburg"
  },
  {
    "postcode": "63829",
    "city": "Krombach"
  },
  {
    "postcode": "63829",
    "city": "Krombach Unterfranken"
  },
  {
    "postcode": "63829",
    "city": "Oberschur"
  },
  {
    "postcode": "63829",
    "city": "Aschaffenburg"
  },
  {
    "postcode": "63831",
    "city": "Wiesen Unterfranken"
  },
  {
    "postcode": "63831",
    "city": "Wiesen"
  },
  {
    "postcode": "63831",
    "city": "Aschaffenburg"
  },
  {
    "postcode": "63834",
    "city": "Dornau"
  },
  {
    "postcode": "63834",
    "city": "Soden bei Aschaffenburg"
  },
  {
    "postcode": "63834",
    "city": "Sulzbach"
  },
  {
    "postcode": "63834",
    "city": "Sulzbach am Main"
  },
  {
    "postcode": "63834",
    "city": "Miltenberg"
  },
  {
    "postcode": "63834",
    "city": "Sulzbach a. Main"
  },
  {
    "postcode": "63834",
    "city": "Soden"
  },
  {
    "postcode": "63839",
    "city": "Hofstetten bei Aschaffenburg"
  },
  {
    "postcode": "63839",
    "city": "Kleinwallstadt"
  },
  {
    "postcode": "63839",
    "city": "Miltenberg"
  },
  {
    "postcode": "63839",
    "city": "Hofstetten"
  },
  {
    "postcode": "63840",
    "city": "Hausen bei Aschaffenburg"
  },
  {
    "postcode": "63840",
    "city": "Miltenberg"
  },
  {
    "postcode": "63840",
    "city": "Hausen"
  },
  {
    "postcode": "63843",
    "city": "Niedernberg Unterfranken"
  },
  {
    "postcode": "63843",
    "city": "Niedernberg"
  },
  {
    "postcode": "63843",
    "city": "Miltenberg"
  },
  {
    "postcode": "63846",
    "city": "Frohnhofen"
  },
  {
    "postcode": "63846",
    "city": "Hain im Spessart"
  },
  {
    "postcode": "63846",
    "city": "Laufach"
  },
  {
    "postcode": "63846",
    "city": "Weiberhof"
  },
  {
    "postcode": "63846",
    "city": "Aschaffenburg"
  },
  {
    "postcode": "63846",
    "city": "Hain"
  },
  {
    "postcode": "63849",
    "city": "Ebersbach bei Aschaffenburg"
  },
  {
    "postcode": "63849",
    "city": "Leidersbach"
  },
  {
    "postcode": "63849",
    "city": "Roßbach Kreis Obernburg am Main"
  },
  {
    "postcode": "63849",
    "city": "Roßbach"
  },
  {
    "postcode": "63849",
    "city": "Volkersbrunn"
  },
  {
    "postcode": "63849",
    "city": "Miltenberg"
  },
  {
    "postcode": "63849",
    "city": "Hohe Wart"
  },
  {
    "postcode": "63849",
    "city": "Ebersbach"
  },
  {
    "postcode": "63853",
    "city": "Mömlingen"
  },
  {
    "postcode": "63853",
    "city": "Miltenberg"
  },
  {
    "postcode": "63856",
    "city": "Bessenbach"
  },
  {
    "postcode": "63856",
    "city": "Keilberg Kreis Aschaffenburg"
  },
  {
    "postcode": "63856",
    "city": "Keilberg"
  },
  {
    "postcode": "63856",
    "city": "Oberbessenbach"
  },
  {
    "postcode": "63856",
    "city": "Straßbessenbach"
  },
  {
    "postcode": "63856",
    "city": "Aschaffenburg"
  },
  {
    "postcode": "63857",
    "city": "Waldaschaff"
  },
  {
    "postcode": "63857",
    "city": "Aschaffenburg"
  },
  {
    "postcode": "63860",
    "city": "Rothenbuch"
  },
  {
    "postcode": "63860",
    "city": "Aschaffenburg"
  },
  {
    "postcode": "63860",
    "city": "Rothenbucher Forst"
  },
  {
    "postcode": "63863",
    "city": "Eschau"
  },
  {
    "postcode": "63863",
    "city": "Eschau Unterfranken"
  },
  {
    "postcode": "63863",
    "city": "Hobbach"
  },
  {
    "postcode": "63863",
    "city": "Sommerau Unterfranken"
  },
  {
    "postcode": "63863",
    "city": "Sommerau"
  },
  {
    "postcode": "63863",
    "city": "Wildensee Unterfranken"
  },
  {
    "postcode": "63863",
    "city": "Wildensee"
  },
  {
    "postcode": "63863",
    "city": "Wildenstein"
  },
  {
    "postcode": "63863",
    "city": "Miltenberg"
  },
  {
    "postcode": "63864",
    "city": "Glattbach Unterfranken"
  },
  {
    "postcode": "63864",
    "city": "Glattbach"
  },
  {
    "postcode": "63864",
    "city": "Aschaffenburg"
  },
  {
    "postcode": "63867",
    "city": "Breunsberg"
  },
  {
    "postcode": "63867",
    "city": "Johannesberg"
  },
  {
    "postcode": "63867",
    "city": "Johannesberg Unterfranken"
  },
  {
    "postcode": "63867",
    "city": "Oberafferbach"
  },
  {
    "postcode": "63867",
    "city": "Rückersbach"
  },
  {
    "postcode": "63867",
    "city": "Steinbach Kreis Aschaffenburg"
  },
  {
    "postcode": "63867",
    "city": "Steinbach"
  },
  {
    "postcode": "63867",
    "city": "Aschaffenburg"
  },
  {
    "postcode": "63868",
    "city": "Großwallstadt"
  },
  {
    "postcode": "63868",
    "city": "Miltenberg"
  },
  {
    "postcode": "63869",
    "city": "Heigenbrücken"
  },
  {
    "postcode": "63869",
    "city": "Jakobsthal Unterfranken"
  },
  {
    "postcode": "63869",
    "city": "Jakobsthal"
  },
  {
    "postcode": "63869",
    "city": "Aschaffenburg"
  },
  {
    "postcode": "63869",
    "city": "Heinrichsthaler Forst"
  },
  {
    "postcode": "63869",
    "city": "Sailaufer Forst"
  },
  {
    "postcode": "63871",
    "city": "Heinrichsthal Unterfranken"
  },
  {
    "postcode": "63871",
    "city": "Heinrichsthal"
  },
  {
    "postcode": "63871",
    "city": "Aschaffenburg"
  },
  {
    "postcode": "63872",
    "city": "Heimbuchenthal"
  },
  {
    "postcode": "63872",
    "city": "Aschaffenburg"
  },
  {
    "postcode": "63874",
    "city": "Dammbach"
  },
  {
    "postcode": "63874",
    "city": "Krausenbach"
  },
  {
    "postcode": "63874",
    "city": "Wintersbach"
  },
  {
    "postcode": "63874",
    "city": "Aschaffenburg"
  },
  {
    "postcode": "63874",
    "city": "Höllhammer"
  },
  {
    "postcode": "63875",
    "city": "Hessenthal"
  },
  {
    "postcode": "63875",
    "city": "Mespelbrunn"
  },
  {
    "postcode": "63875",
    "city": "Aschaffenburg"
  },
  {
    "postcode": "63877",
    "city": "Eichenberg Unterfranken"
  },
  {
    "postcode": "63877",
    "city": "Eichenberg"
  },
  {
    "postcode": "63877",
    "city": "Sailauf"
  },
  {
    "postcode": "63877",
    "city": "Aschaffenburg"
  },
  {
    "postcode": "63877",
    "city": "Weyberhöfe Gewerbepark"
  },
  {
    "postcode": "63879",
    "city": "Rohrbrunn"
  },
  {
    "postcode": "63879",
    "city": "Weibersbrunn"
  },
  {
    "postcode": "63879",
    "city": "Aschaffenburg"
  },
  {
    "postcode": "63879",
    "city": "Echterspfahl"
  },
  {
    "postcode": "63879",
    "city": "Rohrbrunner Forst"
  },
  {
    "postcode": "63897",
    "city": "Berndiel"
  },
  {
    "postcode": "63897",
    "city": "Breitendiel"
  },
  {
    "postcode": "63897",
    "city": "Mainbullau"
  },
  {
    "postcode": "63897",
    "city": "Miltenberg"
  },
  {
    "postcode": "63897",
    "city": "Monbrunn"
  },
  {
    "postcode": "63897",
    "city": "Schippach"
  },
  {
    "postcode": "63897",
    "city": "Wenschdorf"
  },
  {
    "postcode": "63897",
    "city": "Geisenhof"
  },
  {
    "postcode": "63906",
    "city": "Erlenbach"
  },
  {
    "postcode": "63906",
    "city": "Erlenbach am Main"
  },
  {
    "postcode": "63906",
    "city": "Mechenhard"
  },
  {
    "postcode": "63906",
    "city": "Streit am Main"
  },
  {
    "postcode": "63906",
    "city": "Miltenberg"
  },
  {
    "postcode": "63906",
    "city": "Erlenbach a. Main"
  },
  {
    "postcode": "63906",
    "city": "Streit"
  },
  {
    "postcode": "63911",
    "city": "Klingenberg am Main"
  },
  {
    "postcode": "63911",
    "city": "Röllfeld"
  },
  {
    "postcode": "63911",
    "city": "Trennfurt"
  },
  {
    "postcode": "63911",
    "city": "Miltenberg"
  },
  {
    "postcode": "63911",
    "city": "Klingenberg a. Main"
  },
  {
    "postcode": "63911",
    "city": "Klingenberg"
  },
  {
    "postcode": "63916",
    "city": "Amorbach"
  },
  {
    "postcode": "63916",
    "city": "Beuchen"
  },
  {
    "postcode": "63916",
    "city": "Boxbrunn im Odenwald"
  },
  {
    "postcode": "63916",
    "city": "Neudorf Unterfranken"
  },
  {
    "postcode": "63916",
    "city": "Neudorf"
  },
  {
    "postcode": "63916",
    "city": "Reichartshausen Unterfranken"
  },
  {
    "postcode": "63916",
    "city": "Reichartshausen"
  },
  {
    "postcode": "63916",
    "city": "Miltenberg"
  },
  {
    "postcode": "63916",
    "city": "Sansenhof"
  },
  {
    "postcode": "63916",
    "city": "Boxbrunn"
  },
  {
    "postcode": "63920",
    "city": "Großheubach"
  },
  {
    "postcode": "63920",
    "city": "Miltenberg"
  },
  {
    "postcode": "63924",
    "city": "Kleinheubach"
  },
  {
    "postcode": "63924",
    "city": "Rüdenau"
  },
  {
    "postcode": "63924",
    "city": "Miltenberg"
  },
  {
    "postcode": "63925",
    "city": "Brunnthal bei Miltenberg"
  },
  {
    "postcode": "63925",
    "city": "Laudenbach Unterfranken"
  },
  {
    "postcode": "63925",
    "city": "Laudenbach"
  },
  {
    "postcode": "63925",
    "city": "Miltenberg"
  },
  {
    "postcode": "63925",
    "city": "Brunnthal"
  },
  {
    "postcode": "63927",
    "city": "Bürgstadt"
  },
  {
    "postcode": "63927",
    "city": "Miltenberg"
  },
  {
    "postcode": "63928",
    "city": "Eichenbühl"
  },
  {
    "postcode": "63928",
    "city": "Eichenbühl Unterfranken"
  },
  {
    "postcode": "63928",
    "city": "Guggenberg Unterfranken"
  },
  {
    "postcode": "63928",
    "city": "Guggenberg"
  },
  {
    "postcode": "63928",
    "city": "Heppdiel"
  },
  {
    "postcode": "63928",
    "city": "Pfohlbach"
  },
  {
    "postcode": "63928",
    "city": "Riedern Unterfranken"
  },
  {
    "postcode": "63928",
    "city": "Riedern"
  },
  {
    "postcode": "63928",
    "city": "Windischbuchen"
  },
  {
    "postcode": "63928",
    "city": "Miltenberg"
  },
  {
    "postcode": "63928",
    "city": "Spritzenmühle"
  },
  {
    "postcode": "63930",
    "city": "Neunkirchen"
  },
  {
    "postcode": "63930",
    "city": "Neunkirchen Unterfranken"
  },
  {
    "postcode": "63930",
    "city": "Richelbach"
  },
  {
    "postcode": "63930",
    "city": "Umpfenbach"
  },
  {
    "postcode": "63930",
    "city": "Miltenberg"
  },
  {
    "postcode": "63931",
    "city": "Breitenbuch"
  },
  {
    "postcode": "63931",
    "city": "Buch"
  },
  {
    "postcode": "63931",
    "city": "Dörnbach"
  },
  {
    "postcode": "63931",
    "city": "Kirchzell"
  },
  {
    "postcode": "63931",
    "city": "Ottorfszell"
  },
  {
    "postcode": "63931",
    "city": "Preunschen"
  },
  {
    "postcode": "63931",
    "city": "Watterbach"
  },
  {
    "postcode": "63931",
    "city": "Miltenberg"
  },
  {
    "postcode": "63931",
    "city": "Breitenbach"
  },
  {
    "postcode": "63931",
    "city": "Schrahmühle"
  },
  {
    "postcode": "63933",
    "city": "Mönchberg"
  },
  {
    "postcode": "63933",
    "city": "Mönchberg Spessart"
  },
  {
    "postcode": "63933",
    "city": "Schmachtenberg"
  },
  {
    "postcode": "63933",
    "city": "Miltenberg"
  },
  {
    "postcode": "63934",
    "city": "Röllbach"
  },
  {
    "postcode": "63934",
    "city": "Miltenberg"
  },
  {
    "postcode": "63936",
    "city": "Hambrunn"
  },
  {
    "postcode": "63936",
    "city": "Schneeberg Unterfranken"
  },
  {
    "postcode": "63936",
    "city": "Schneeberg"
  },
  {
    "postcode": "63936",
    "city": "Zittenfelden"
  },
  {
    "postcode": "63936",
    "city": "Miltenberg"
  },
  {
    "postcode": "63937",
    "city": "Weckbach Unterfranken"
  },
  {
    "postcode": "63937",
    "city": "Weckbach"
  },
  {
    "postcode": "63937",
    "city": "Weilbach"
  },
  {
    "postcode": "63937",
    "city": "Weilbach Unterfranken"
  },
  {
    "postcode": "63937",
    "city": "Miltenberg"
  },
  {
    "postcode": "63937",
    "city": "Gönz"
  },
  {
    "postcode": "63937",
    "city": "Ohrnbach"
  },
  {
    "postcode": "63937",
    "city": "Wiesenthal"
  },
  {
    "postcode": "63939",
    "city": "Wörth am Main"
  },
  {
    "postcode": "63939",
    "city": "Miltenberg"
  },
  {
    "postcode": "63939",
    "city": "Wörth a. Main"
  }
]