[
  {
    "postcode": "6502",
    "city": "Neinstedt"
  },
  {
    "postcode": "6502",
    "city": "Thale"
  },
  {
    "postcode": "6502",
    "city": "Timmenrode"
  },
  {
    "postcode": "6502",
    "city": "Warnstedt bei Thale"
  },
  {
    "postcode": "6502",
    "city": "Weddersleben"
  },
  {
    "postcode": "6502",
    "city": "Harz"
  },
  {
    "postcode": "6502",
    "city": "Blankenburg (Harz)"
  },
  {
    "postcode": "6502",
    "city": "Blankenburg"
  },
  {
    "postcode": "6502",
    "city": "Westerhausen"
  },
  {
    "postcode": "6502",
    "city": "Allrode"
  },
  {
    "postcode": "6502",
    "city": "Almsfeld"
  },
  {
    "postcode": "6502",
    "city": "Wendefurth"
  },
  {
    "postcode": "6502",
    "city": "Altenbrak"
  },
  {
    "postcode": "6502",
    "city": "Warnstedt"
  },
  {
    "postcode": "6502",
    "city": "Treseburg"
  },
  {
    "postcode": "6502",
    "city": "Friedrichsbrunn"
  },
  {
    "postcode": "6502",
    "city": "Stecklenberg"
  },
  {
    "postcode": "6507",
    "city": "Allrode"
  },
  {
    "postcode": "6507",
    "city": "Bad Suderode"
  },
  {
    "postcode": "6507",
    "city": "Friedrichsbrunn"
  },
  {
    "postcode": "6507",
    "city": "Gernrode Harz"
  },
  {
    "postcode": "6507",
    "city": "Gernrode"
  },
  {
    "postcode": "6507",
    "city": "Güntersberge"
  },
  {
    "postcode": "6507",
    "city": "Rieder bei Quedlinburg"
  },
  {
    "postcode": "6507",
    "city": "Siptenfelde"
  },
  {
    "postcode": "6507",
    "city": "Stecklenberg"
  },
  {
    "postcode": "6507",
    "city": "Timmenrode"
  },
  {
    "postcode": "6526",
    "city": "Sangerhausen"
  },
  {
    "postcode": "6526",
    "city": "Mansfeld-Südharz"
  },
  {
    "postcode": "6526",
    "city": "Gonna"
  },
  {
    "postcode": "6526",
    "city": "Oberröblingen"
  },
  {
    "postcode": "6526",
    "city": "Riestedt"
  },
  {
    "postcode": "6526",
    "city": "Obersdorf"
  },
  {
    "postcode": "6526",
    "city": "Großleinungen"
  },
  {
    "postcode": "6526",
    "city": "Wettelrode"
  },
  {
    "postcode": "6526",
    "city": "Grillenberg"
  },
  {
    "postcode": "6526",
    "city": "Wippra"
  },
  {
    "postcode": "6526",
    "city": "Lengefeld"
  },
  {
    "postcode": "6526",
    "city": "Popperode"
  },
  {
    "postcode": "6526",
    "city": "Breitenbach"
  },
  {
    "postcode": "6526",
    "city": "Horla"
  },
  {
    "postcode": "6526",
    "city": "Rotha"
  },
  {
    "postcode": "6526",
    "city": "Meuserlengefeld"
  },
  {
    "postcode": "6526",
    "city": "Hayda"
  },
  {
    "postcode": "6526",
    "city": "Wolfsberg"
  },
  {
    "postcode": "6526",
    "city": "Morungen"
  },
  {
    "postcode": "6526",
    "city": "Paßbruch"
  },
  {
    "postcode": "6528",
    "city": "Beyernaumburg"
  },
  {
    "postcode": "6528",
    "city": "Blankenheim bei Sangerhausen"
  },
  {
    "postcode": "6528",
    "city": "Breitenbach bei Roßla"
  },
  {
    "postcode": "6528",
    "city": "Brücken (Helme)"
  },
  {
    "postcode": "6528",
    "city": "Brücken"
  },
  {
    "postcode": "6528",
    "city": "Drebsdorf"
  },
  {
    "postcode": "6528",
    "city": "Edersleben"
  },
  {
    "postcode": "6528",
    "city": "Emseloh"
  },
  {
    "postcode": "6528",
    "city": "Gonna"
  },
  {
    "postcode": "6528",
    "city": "Grillenberg bei Sangerhausen"
  },
  {
    "postcode": "6528",
    "city": "Großleinungen"
  },
  {
    "postcode": "6528",
    "city": "Hackpfüffel"
  },
  {
    "postcode": "6528",
    "city": "Hainrode bei Sangerhausen"
  },
  {
    "postcode": "6528",
    "city": "Holdenstedt bei Sangerhausen"
  },
  {
    "postcode": "6528",
    "city": "Horla"
  },
  {
    "postcode": "6528",
    "city": "Kleinleinungen"
  },
  {
    "postcode": "6528",
    "city": "Lengefeld bei Sangerhausen"
  },
  {
    "postcode": "6528",
    "city": "Liedersdorf"
  },
  {
    "postcode": "6528",
    "city": "Martinsrieth"
  },
  {
    "postcode": "6528",
    "city": "Morungen"
  },
  {
    "postcode": "6528",
    "city": "Oberröblingen"
  },
  {
    "postcode": "6528",
    "city": "Obersdorf bei Sangerhausen"
  },
  {
    "postcode": "6528",
    "city": "Pölsfeld"
  },
  {
    "postcode": "6528",
    "city": "Riestedt bei Sangerhausen"
  },
  {
    "postcode": "6528",
    "city": "Riethnordhausen bei Sangerhausen"
  },
  {
    "postcode": "6528",
    "city": "Rotha"
  },
  {
    "postcode": "6528",
    "city": "Sotterhausen"
  },
  {
    "postcode": "6528",
    "city": "Wallhausen bei Sangerhausen"
  },
  {
    "postcode": "6528",
    "city": "Wettelrode"
  },
  {
    "postcode": "6528",
    "city": "Mansfeld-Südharz"
  },
  {
    "postcode": "6528",
    "city": "Blankenheim"
  },
  {
    "postcode": "6528",
    "city": "Brücken-Hackpfüffel"
  },
  {
    "postcode": "6528",
    "city": "Riethnordhausen"
  },
  {
    "postcode": "6528",
    "city": "Wallhausen"
  },
  {
    "postcode": "6528",
    "city": "Klosterrode"
  },
  {
    "postcode": "6528",
    "city": "Hohlstedt"
  },
  {
    "postcode": "6536",
    "city": "Bennungen"
  },
  {
    "postcode": "6536",
    "city": "Berga bei Roßla"
  },
  {
    "postcode": "6536",
    "city": "Breitungen bei Roßla"
  },
  {
    "postcode": "6536",
    "city": "Dietersdorf bei Roßla"
  },
  {
    "postcode": "6536",
    "city": "Hayn (Harz)"
  },
  {
    "postcode": "6536",
    "city": "Hayn"
  },
  {
    "postcode": "6536",
    "city": "Questenberg"
  },
  {
    "postcode": "6536",
    "city": "Roßla"
  },
  {
    "postcode": "6536",
    "city": "Wickerode"
  },
  {
    "postcode": "6536",
    "city": "Wolfsberg bei Sangerhausen"
  },
  {
    "postcode": "6536",
    "city": "Mansfeld-Südharz"
  },
  {
    "postcode": "6536",
    "city": "Berga"
  },
  {
    "postcode": "6536",
    "city": "Südharz"
  },
  {
    "postcode": "6536",
    "city": "Bösenrode"
  },
  {
    "postcode": "6536",
    "city": "Rosperwenda"
  },
  {
    "postcode": "6536",
    "city": "Agnesdorf"
  },
  {
    "postcode": "6536",
    "city": "Rottleberode"
  },
  {
    "postcode": "6536",
    "city": "Schwenda"
  },
  {
    "postcode": "6536",
    "city": "Breitungen"
  },
  {
    "postcode": "6536",
    "city": "Uftrungen"
  },
  {
    "postcode": "6536",
    "city": "Stolberg"
  },
  {
    "postcode": "6536",
    "city": "Dietersdorf"
  },
  {
    "postcode": "6536",
    "city": "Hainrode"
  },
  {
    "postcode": "6536",
    "city": "Kleinleinungen"
  },
  {
    "postcode": "6536",
    "city": "Breitenstein"
  },
  {
    "postcode": "6536",
    "city": "Dittichenrode"
  },
  {
    "postcode": "6536",
    "city": "Drebsdorf"
  },
  {
    "postcode": "6537",
    "city": "Kelbra (Kyffhäuser)"
  },
  {
    "postcode": "6537",
    "city": "Kelbra"
  },
  {
    "postcode": "6537",
    "city": "Tilleda (Kyffhäuser)"
  },
  {
    "postcode": "6537",
    "city": "Tilleda"
  },
  {
    "postcode": "6537",
    "city": "Mansfeld-Südharz"
  },
  {
    "postcode": "6537",
    "city": "Sittendorf"
  },
  {
    "postcode": "6537",
    "city": "Thürungen"
  },
  {
    "postcode": "6542",
    "city": "Allstedt"
  },
  {
    "postcode": "6542",
    "city": "Katharinenrieth"
  },
  {
    "postcode": "6542",
    "city": "Mittelhausen bei Sangerhausen"
  },
  {
    "postcode": "6542",
    "city": "Niederröblingen (Helme)"
  },
  {
    "postcode": "6542",
    "city": "Niederröblingen"
  },
  {
    "postcode": "6542",
    "city": "Nienstedt bei Sangerhausen"
  },
  {
    "postcode": "6542",
    "city": "Winkel bei Sangerhausen"
  },
  {
    "postcode": "6542",
    "city": "Wolferstedt"
  },
  {
    "postcode": "6542",
    "city": "Mansfeld-Südharz"
  },
  {
    "postcode": "6542",
    "city": "Beyernaumburg"
  },
  {
    "postcode": "6542",
    "city": "Emseloh"
  },
  {
    "postcode": "6542",
    "city": "Liedersdorf"
  },
  {
    "postcode": "6542",
    "city": "Holdenstedt"
  },
  {
    "postcode": "6542",
    "city": "Winkel"
  },
  {
    "postcode": "6542",
    "city": "Pölsfeld"
  },
  {
    "postcode": "6542",
    "city": "Mittelhausen"
  },
  {
    "postcode": "6542",
    "city": "Einsdorf"
  },
  {
    "postcode": "6542",
    "city": "Nienstedt"
  },
  {
    "postcode": "6542",
    "city": "Einzingen"
  },
  {
    "postcode": "6542",
    "city": "Othal"
  },
  {
    "postcode": "6542",
    "city": "Klosternaundorf"
  },
  {
    "postcode": "6542",
    "city": "Sotterhausen"
  },
  {
    "postcode": "6543",
    "city": "Abberode"
  },
  {
    "postcode": "6543",
    "city": "Alterode"
  },
  {
    "postcode": "6543",
    "city": "Braunschwende"
  },
  {
    "postcode": "6543",
    "city": "Falkenstein / Harz"
  },
  {
    "postcode": "6543",
    "city": "Falkenstein"
  },
  {
    "postcode": "6543",
    "city": "Falkenstein/Harz"
  },
  {
    "postcode": "6543",
    "city": "Friesdorf bei Wippra"
  },
  {
    "postcode": "6543",
    "city": "Harkerode"
  },
  {
    "postcode": "6543",
    "city": "Hermerode"
  },
  {
    "postcode": "6543",
    "city": "Molmerswende"
  },
  {
    "postcode": "6543",
    "city": "Pansfelde"
  },
  {
    "postcode": "6543",
    "city": "Ritzgerode"
  },
  {
    "postcode": "6543",
    "city": "Stangerode"
  },
  {
    "postcode": "6543",
    "city": "Ulzigerode"
  },
  {
    "postcode": "6543",
    "city": "Wieserode"
  },
  {
    "postcode": "6543",
    "city": "Wippra Kurort"
  },
  {
    "postcode": "6543",
    "city": "Wippra"
  },
  {
    "postcode": "6543",
    "city": "Mansfeld-Südharz"
  },
  {
    "postcode": "6543",
    "city": "Degenershausen"
  },
  {
    "postcode": "6547",
    "city": "Breitenstein bei Roßla"
  },
  {
    "postcode": "6547",
    "city": "Schwenda"
  },
  {
    "postcode": "6547",
    "city": "Stolberg (Harz)"
  },
  {
    "postcode": "6547",
    "city": "Stolberg"
  },
  {
    "postcode": "6548",
    "city": "Rottleberode"
  },
  {
    "postcode": "6548",
    "city": "Uftrungen"
  },
  {
    "postcode": "6556",
    "city": "Artern / Unstrut"
  },
  {
    "postcode": "6556",
    "city": "Artern"
  },
  {
    "postcode": "6556",
    "city": "Borxleben"
  },
  {
    "postcode": "6556",
    "city": "Bretleben"
  },
  {
    "postcode": "6556",
    "city": "Heygendorf"
  },
  {
    "postcode": "6556",
    "city": "Ichstedt"
  },
  {
    "postcode": "6556",
    "city": "Kalbsrieth"
  },
  {
    "postcode": "6556",
    "city": "Mönchpfiffel-Nikolausrieth"
  },
  {
    "postcode": "6556",
    "city": "Reinsdorf bei Artern"
  },
  {
    "postcode": "6556",
    "city": "Ringleben bei Artern"
  },
  {
    "postcode": "6556",
    "city": "Voigtstedt"
  },
  {
    "postcode": "6556",
    "city": "Kyffhäuserkreis"
  },
  {
    "postcode": "6556",
    "city": "An der Schmücke"
  },
  {
    "postcode": "6556",
    "city": "Reinsdorf"
  },
  {
    "postcode": "6556",
    "city": "Schönfeld"
  },
  {
    "postcode": "6556",
    "city": "Kachstedt"
  },
  {
    "postcode": "6556",
    "city": "Ritteburg"
  },
  {
    "postcode": "6556",
    "city": "Mönchpfiffel"
  },
  {
    "postcode": "6556",
    "city": "Nikolausrieth"
  },
  {
    "postcode": "6567",
    "city": "Bad Frankenhausen / Kyffhäuser"
  },
  {
    "postcode": "6567",
    "city": "Bad Frankenhausen"
  },
  {
    "postcode": "6567",
    "city": "Esperstedt bei Artern"
  },
  {
    "postcode": "6567",
    "city": "Göllingen bei Bad Frankenhausen"
  },
  {
    "postcode": "6567",
    "city": "Günserode"
  },
  {
    "postcode": "6567",
    "city": "Rottleben"
  },
  {
    "postcode": "6567",
    "city": "Seega"
  },
  {
    "postcode": "6567",
    "city": "Steinthaleben"
  },
  {
    "postcode": "6567",
    "city": "Kyffhäuserkreis"
  },
  {
    "postcode": "6567",
    "city": "Bad Frankenhausen/Kyffhäuser"
  },
  {
    "postcode": "6567",
    "city": "Esperstedt"
  },
  {
    "postcode": "6567",
    "city": "Udersleben"
  },
  {
    "postcode": "6567",
    "city": "Ringleben"
  },
  {
    "postcode": "6567",
    "city": "Ichstedt"
  },
  {
    "postcode": "6567",
    "city": "Seehausen"
  },
  {
    "postcode": "6571",
    "city": "Donndorf Unstrut"
  },
  {
    "postcode": "6571",
    "city": "Donndorf"
  },
  {
    "postcode": "6571",
    "city": "Gehofen"
  },
  {
    "postcode": "6571",
    "city": "Nausitz"
  },
  {
    "postcode": "6571",
    "city": "Roßleben"
  },
  {
    "postcode": "6571",
    "city": "Wiehe Unstruttal"
  },
  {
    "postcode": "6571",
    "city": "Wiehe"
  },
  {
    "postcode": "6571",
    "city": "Kyffhäuserkreis"
  },
  {
    "postcode": "6571",
    "city": "Roßleben-Wiehe"
  },
  {
    "postcode": "6571",
    "city": "Bottendorf"
  },
  {
    "postcode": "6571",
    "city": "Schönewerda"
  },
  {
    "postcode": "6571",
    "city": "Kleinroda"
  },
  {
    "postcode": "6571",
    "city": "Langenroda"
  },
  {
    "postcode": "6571",
    "city": "Hechendorf"
  },
  {
    "postcode": "6571",
    "city": "Garnbach"
  },
  {
    "postcode": "6571",
    "city": "Kloster"
  },
  {
    "postcode": "6577",
    "city": "Etzleben"
  },
  {
    "postcode": "6577",
    "city": "Gorsleben bei Artern"
  },
  {
    "postcode": "6577",
    "city": "Hauteroda"
  },
  {
    "postcode": "6577",
    "city": "Heldrungen"
  },
  {
    "postcode": "6577",
    "city": "Hemleben"
  },
  {
    "postcode": "6577",
    "city": "Oberheldrungen"
  },
  {
    "postcode": "6577",
    "city": "Kyffhäuserkreis"
  },
  {
    "postcode": "6577",
    "city": "An der Schmücke"
  },
  {
    "postcode": "6577",
    "city": "Gorsleben"
  },
  {
    "postcode": "6577",
    "city": "Braunsroda"
  },
  {
    "postcode": "6577",
    "city": "Harras"
  },
  {
    "postcode": "6578",
    "city": "Bilzingsleben"
  },
  {
    "postcode": "6578",
    "city": "Kannawurf"
  },
  {
    "postcode": "6578",
    "city": "Oldisleben"
  },
  {
    "postcode": "6578",
    "city": "Kyffhäuserkreis"
  },
  {
    "postcode": "6578",
    "city": "An der Schmücke"
  },
  {
    "postcode": "6578",
    "city": "Sachsenburg"
  },
  {
    "postcode": "65183",
    "city": "Wiesbaden"
  },
  {
    "postcode": "65185",
    "city": "Wiesbaden"
  },
  {
    "postcode": "65187",
    "city": "Wiesbaden"
  },
  {
    "postcode": "65187",
    "city": "Biebrich"
  },
  {
    "postcode": "65189",
    "city": "Wiesbaden"
  },
  {
    "postcode": "65189",
    "city": "Biebrich"
  },
  {
    "postcode": "65191",
    "city": "Bierstadt"
  },
  {
    "postcode": "65191",
    "city": "Sonnenberg"
  },
  {
    "postcode": "65191",
    "city": "Wiesbaden"
  },
  {
    "postcode": "65193",
    "city": "Sonnenberg"
  },
  {
    "postcode": "65193",
    "city": "Wiesbaden"
  },
  {
    "postcode": "65195",
    "city": "Wiesbaden"
  },
  {
    "postcode": "65197",
    "city": "Dotzheim"
  },
  {
    "postcode": "65197",
    "city": "Wiesbaden"
  },
  {
    "postcode": "65197",
    "city": "Biebrich"
  },
  {
    "postcode": "65199",
    "city": "Dotzheim"
  },
  {
    "postcode": "65199",
    "city": "Frauenstein"
  },
  {
    "postcode": "65199",
    "city": "Wiesbaden"
  },
  {
    "postcode": "65199",
    "city": "Biebrich"
  },
  {
    "postcode": "65201",
    "city": "Dotzheim"
  },
  {
    "postcode": "65201",
    "city": "Frauenstein"
  },
  {
    "postcode": "65201",
    "city": "Schierstein"
  },
  {
    "postcode": "65201",
    "city": "Wiesbaden"
  },
  {
    "postcode": "65203",
    "city": "Wiesbaden"
  },
  {
    "postcode": "65203",
    "city": "Biebrich"
  },
  {
    "postcode": "65203",
    "city": "Schierstein"
  },
  {
    "postcode": "65203",
    "city": "Mainz-Amöneburg"
  },
  {
    "postcode": "65205",
    "city": "Bierstadt"
  },
  {
    "postcode": "65205",
    "city": "Delkenheim"
  },
  {
    "postcode": "65205",
    "city": "Erbenheim"
  },
  {
    "postcode": "65205",
    "city": "Igstadt"
  },
  {
    "postcode": "65205",
    "city": "Nordenstadt"
  },
  {
    "postcode": "65205",
    "city": "Wiesbaden"
  },
  {
    "postcode": "65205",
    "city": "Biebrich"
  },
  {
    "postcode": "65205",
    "city": "Mainz-Amöneburg"
  },
  {
    "postcode": "65207",
    "city": "Auringen"
  },
  {
    "postcode": "65207",
    "city": "Bierstadt"
  },
  {
    "postcode": "65207",
    "city": "Breckenheim"
  },
  {
    "postcode": "65207",
    "city": "Heßloch"
  },
  {
    "postcode": "65207",
    "city": "Igstadt"
  },
  {
    "postcode": "65207",
    "city": "Kloppenheim"
  },
  {
    "postcode": "65207",
    "city": "Medenbach Taunus"
  },
  {
    "postcode": "65207",
    "city": "Medenbach"
  },
  {
    "postcode": "65207",
    "city": "Naurod Taunus"
  },
  {
    "postcode": "65207",
    "city": "Naurod"
  },
  {
    "postcode": "65207",
    "city": "Nordenstadt"
  },
  {
    "postcode": "65207",
    "city": "Rambach"
  },
  {
    "postcode": "65207",
    "city": "Sonnenberg"
  },
  {
    "postcode": "65207",
    "city": "Wiesbaden"
  },
  {
    "postcode": "65219",
    "city": "Taunusstein"
  },
  {
    "postcode": "65220",
    "city": "Taunusstein"
  },
  {
    "postcode": "65221",
    "city": "Taunusstein"
  },
  {
    "postcode": "65222",
    "city": "Taunusstein"
  },
  {
    "postcode": "65223",
    "city": "Taunusstein"
  },
  {
    "postcode": "65224",
    "city": "Taunusstein"
  },
  {
    "postcode": "65232",
    "city": "Bleidenstadt Taunus"
  },
  {
    "postcode": "65232",
    "city": "Bleidenstadt"
  },
  {
    "postcode": "65232",
    "city": "Hahn Taunus"
  },
  {
    "postcode": "65232",
    "city": "Hahn"
  },
  {
    "postcode": "65232",
    "city": "Hambach Untertaunus"
  },
  {
    "postcode": "65232",
    "city": "Hambach"
  },
  {
    "postcode": "65232",
    "city": "Neuhof Taunus"
  },
  {
    "postcode": "65232",
    "city": "Neuhof"
  },
  {
    "postcode": "65232",
    "city": "Niederlibbach"
  },
  {
    "postcode": "65232",
    "city": "Orlen"
  },
  {
    "postcode": "65232",
    "city": "Seitzenhahn"
  },
  {
    "postcode": "65232",
    "city": "Taunusstein"
  },
  {
    "postcode": "65232",
    "city": "Watzhahn"
  },
  {
    "postcode": "65232",
    "city": "Wehen Taunus"
  },
  {
    "postcode": "65232",
    "city": "Wehen"
  },
  {
    "postcode": "65232",
    "city": "Wingsbach"
  },
  {
    "postcode": "65232",
    "city": "Rheingau-Taunus-Kreis"
  },
  {
    "postcode": "65239",
    "city": "Hochheim am Main"
  },
  {
    "postcode": "65239",
    "city": "Massenheim Main-Taunus- Kreis"
  },
  {
    "postcode": "65239",
    "city": "Massenheim"
  },
  {
    "postcode": "65239",
    "city": "Main-Taunus-Kreis"
  },
  {
    "postcode": "65239",
    "city": "Hochheim"
  },
  {
    "postcode": "65307",
    "city": "Bad Schwalbach"
  },
  {
    "postcode": "65307",
    "city": "Fischbach Untertaunus"
  },
  {
    "postcode": "65307",
    "city": "Fischbach"
  },
  {
    "postcode": "65307",
    "city": "Heimbach Untertaunus"
  },
  {
    "postcode": "65307",
    "city": "Heimbach"
  },
  {
    "postcode": "65307",
    "city": "Hettenhain"
  },
  {
    "postcode": "65307",
    "city": "Langenseifen"
  },
  {
    "postcode": "65307",
    "city": "Lindschied"
  },
  {
    "postcode": "65307",
    "city": "Ramschied"
  },
  {
    "postcode": "65307",
    "city": "Rheingau-Taunus-Kreis"
  },
  {
    "postcode": "65307",
    "city": "Adolfseck"
  },
  {
    "postcode": "65321",
    "city": "Algenroth"
  },
  {
    "postcode": "65321",
    "city": "Dickschied"
  },
  {
    "postcode": "65321",
    "city": "Egenroth"
  },
  {
    "postcode": "65321",
    "city": "Geroldstein"
  },
  {
    "postcode": "65321",
    "city": "Grebenroth"
  },
  {
    "postcode": "65321",
    "city": "Heidenrod"
  },
  {
    "postcode": "65321",
    "city": "Hilgenroth Taunus"
  },
  {
    "postcode": "65321",
    "city": "Hilgenroth"
  },
  {
    "postcode": "65321",
    "city": "Huppert"
  },
  {
    "postcode": "65321",
    "city": "Kemel"
  },
  {
    "postcode": "65321",
    "city": "Langschied"
  },
  {
    "postcode": "65321",
    "city": "Laufenselden"
  },
  {
    "postcode": "65321",
    "city": "Mappershain"
  },
  {
    "postcode": "65321",
    "city": "Martenroth"
  },
  {
    "postcode": "65321",
    "city": "Nauroth Untertaunuskr"
  },
  {
    "postcode": "65321",
    "city": "Nauroth"
  },
  {
    "postcode": "65321",
    "city": "Niedermeilingen"
  },
  {
    "postcode": "65321",
    "city": "Obermeilingen"
  },
  {
    "postcode": "65321",
    "city": "Springen Untertaunus"
  },
  {
    "postcode": "65321",
    "city": "Springen"
  },
  {
    "postcode": "65321",
    "city": "Watzelhain"
  },
  {
    "postcode": "65321",
    "city": "Wisper"
  },
  {
    "postcode": "65321",
    "city": "Zorn"
  },
  {
    "postcode": "65321",
    "city": "Rheingau-Taunus-Kreis"
  },
  {
    "postcode": "65326",
    "city": "Aarbergen"
  },
  {
    "postcode": "65326",
    "city": "Daisbach Untertaunus"
  },
  {
    "postcode": "65326",
    "city": "Daisbach"
  },
  {
    "postcode": "65326",
    "city": "Hausen über Aar"
  },
  {
    "postcode": "65326",
    "city": "Kettenbach Taunus"
  },
  {
    "postcode": "65326",
    "city": "Kettenbach"
  },
  {
    "postcode": "65326",
    "city": "Michelbach Untertaunuskr"
  },
  {
    "postcode": "65326",
    "city": "Michelbach"
  },
  {
    "postcode": "65326",
    "city": "Panrod"
  },
  {
    "postcode": "65326",
    "city": "Rückershausen Untertaunus"
  },
  {
    "postcode": "65326",
    "city": "Rückershausen"
  },
  {
    "postcode": "65326",
    "city": "Rheingau-Taunus-Kreis"
  },
  {
    "postcode": "65326",
    "city": "Sandersmühle"
  },
  {
    "postcode": "65329",
    "city": "Born Untertaunus"
  },
  {
    "postcode": "65329",
    "city": "Born"
  },
  {
    "postcode": "65329",
    "city": "Breithardt Bahnhof"
  },
  {
    "postcode": "65329",
    "city": "Breithardt"
  },
  {
    "postcode": "65329",
    "city": "Burg-Hohenstein"
  },
  {
    "postcode": "65329",
    "city": "Hennethal"
  },
  {
    "postcode": "65329",
    "city": "Hohenstein Untertaunus"
  },
  {
    "postcode": "65329",
    "city": "Hohenstein"
  },
  {
    "postcode": "65329",
    "city": "Holzhausen über Aar"
  },
  {
    "postcode": "65329",
    "city": "Steckenroth"
  },
  {
    "postcode": "65329",
    "city": "Strinz-Margarethä"
  },
  {
    "postcode": "65329",
    "city": "Rheingau-Taunus-Kreis"
  },
  {
    "postcode": "65329",
    "city": "Holzhausen"
  },
  {
    "postcode": "65343",
    "city": "Eltville"
  },
  {
    "postcode": "65343",
    "city": "Eltville am Rhein"
  },
  {
    "postcode": "65343",
    "city": "Rheingau-Taunus-Kreis"
  },
  {
    "postcode": "65344",
    "city": "Eltville am Rhein"
  },
  {
    "postcode": "65344",
    "city": "Martinsthal"
  },
  {
    "postcode": "65344",
    "city": "Rheingau-Taunus-Kreis"
  },
  {
    "postcode": "65344",
    "city": "Eltville"
  },
  {
    "postcode": "65345",
    "city": "Eltville am Rhein"
  },
  {
    "postcode": "65345",
    "city": "Rauenthal Rheingau"
  },
  {
    "postcode": "65345",
    "city": "Rauenthal"
  },
  {
    "postcode": "65345",
    "city": "Rheingau-Taunus-Kreis"
  },
  {
    "postcode": "65346",
    "city": "Eltville am Rhein"
  },
  {
    "postcode": "65346",
    "city": "Erbach Rheingau"
  },
  {
    "postcode": "65346",
    "city": "Erbach"
  },
  {
    "postcode": "65346",
    "city": "Rheingau-Taunus-Kreis"
  },
  {
    "postcode": "65347",
    "city": "Eltville am Rhein"
  },
  {
    "postcode": "65347",
    "city": "Hattenheim Rheingau"
  },
  {
    "postcode": "65347",
    "city": "Hattenheim"
  },
  {
    "postcode": "65347",
    "city": "Rheingau-Taunus-Kreis"
  },
  {
    "postcode": "65366",
    "city": "Geisenheim"
  },
  {
    "postcode": "65366",
    "city": "Geisenheim Rheingau"
  },
  {
    "postcode": "65366",
    "city": "Johannisberg Rheingau"
  },
  {
    "postcode": "65366",
    "city": "Johannisberg"
  },
  {
    "postcode": "65366",
    "city": "Marienthal"
  },
  {
    "postcode": "65366",
    "city": "Stephanshausen"
  },
  {
    "postcode": "65366",
    "city": "Rheingau-Taunus-Kreis"
  },
  {
    "postcode": "65375",
    "city": "Hallgarten Rheingau"
  },
  {
    "postcode": "65375",
    "city": "Hallgarten"
  },
  {
    "postcode": "65375",
    "city": "Mittelheim Rheingau"
  },
  {
    "postcode": "65375",
    "city": "Mittelheim"
  },
  {
    "postcode": "65375",
    "city": "Oestrich"
  },
  {
    "postcode": "65375",
    "city": "Oestrich-Winkel"
  },
  {
    "postcode": "65375",
    "city": "Winkel"
  },
  {
    "postcode": "65375",
    "city": "Rheingau-Taunus-Kreis"
  },
  {
    "postcode": "65385",
    "city": "Assmannshausen"
  },
  {
    "postcode": "65385",
    "city": "Aulhausen"
  },
  {
    "postcode": "65385",
    "city": "Presberg Rheingau"
  },
  {
    "postcode": "65385",
    "city": "Presberg"
  },
  {
    "postcode": "65385",
    "city": "Rüdesheim am Rhein"
  },
  {
    "postcode": "65385",
    "city": "Rheingau-Taunus-Kreis"
  },
  {
    "postcode": "65385",
    "city": "Am Rüdesheimer Hafen"
  },
  {
    "postcode": "65388",
    "city": "Bärstadt"
  },
  {
    "postcode": "65388",
    "city": "Georgenborn"
  },
  {
    "postcode": "65388",
    "city": "Hausen vor der Höhe"
  },
  {
    "postcode": "65388",
    "city": "Niedergladbach"
  },
  {
    "postcode": "65388",
    "city": "Obergladbach"
  },
  {
    "postcode": "65388",
    "city": "Schlangenbad"
  },
  {
    "postcode": "65388",
    "city": "Schlangenbad Taunus"
  },
  {
    "postcode": "65388",
    "city": "Wambach Untertaunus"
  },
  {
    "postcode": "65388",
    "city": "Wambach"
  },
  {
    "postcode": "65388",
    "city": "Rheingau-Taunus-Kreis"
  },
  {
    "postcode": "65391",
    "city": "Lorch Rheingau"
  },
  {
    "postcode": "65391",
    "city": "Lorch"
  },
  {
    "postcode": "65391",
    "city": "Lorchhausen Rheingau"
  },
  {
    "postcode": "65391",
    "city": "Lorchhausen"
  },
  {
    "postcode": "65391",
    "city": "Ransel Rheingau"
  },
  {
    "postcode": "65391",
    "city": "Ransel"
  },
  {
    "postcode": "65391",
    "city": "Sauerthal"
  },
  {
    "postcode": "65391",
    "city": "Wollmerschied"
  },
  {
    "postcode": "65391",
    "city": "Rheingau-Taunus-Kreis"
  },
  {
    "postcode": "65391",
    "city": "Espenschied"
  },
  {
    "postcode": "65396",
    "city": "Walluf"
  },
  {
    "postcode": "65396",
    "city": "Rheingau-Taunus-Kreis"
  },
  {
    "postcode": "65399",
    "city": "Kiedrich Rheingau"
  },
  {
    "postcode": "65399",
    "city": "Kiedrich"
  },
  {
    "postcode": "65399",
    "city": "Rheingau-Taunus-Kreis"
  },
  {
    "postcode": "65428",
    "city": "Bauschheim"
  },
  {
    "postcode": "65428",
    "city": "Königstädten"
  },
  {
    "postcode": "65428",
    "city": "Rüsselsheim"
  },
  {
    "postcode": "65428",
    "city": "Groß-Gerau"
  },
  {
    "postcode": "65428",
    "city": "Rüsselsheim am Main"
  },
  {
    "postcode": "65439",
    "city": "Flörsheim"
  },
  {
    "postcode": "65439",
    "city": "Flörsheim am Main"
  },
  {
    "postcode": "65439",
    "city": "Weilbach Main-Taunus- Kreis"
  },
  {
    "postcode": "65439",
    "city": "Weilbach"
  },
  {
    "postcode": "65439",
    "city": "Wicker Main-Taunus- Kreis"
  },
  {
    "postcode": "65439",
    "city": "Wicker"
  },
  {
    "postcode": "65439",
    "city": "Main-Taunus-Kreis"
  },
  {
    "postcode": "65439",
    "city": "Keramag"
  },
  {
    "postcode": "65451",
    "city": "Kelsterbach"
  },
  {
    "postcode": "65451",
    "city": "Groß-Gerau"
  },
  {
    "postcode": "65462",
    "city": "Ginsheim-Gustavsburg"
  },
  {
    "postcode": "65462",
    "city": "Groß-Gerau"
  },
  {
    "postcode": "65462",
    "city": "Ginsheim"
  },
  {
    "postcode": "65462",
    "city": "Gustavsburg"
  },
  {
    "postcode": "65468",
    "city": "Astheim Hessen"
  },
  {
    "postcode": "65468",
    "city": "Astheim"
  },
  {
    "postcode": "65468",
    "city": "Geinsheim Kreis Groß-Gerau"
  },
  {
    "postcode": "65468",
    "city": "Geinsheim"
  },
  {
    "postcode": "65468",
    "city": "Hessenaue"
  },
  {
    "postcode": "65468",
    "city": "Trebur"
  },
  {
    "postcode": "65468",
    "city": "Groß-Gerau"
  },
  {
    "postcode": "65474",
    "city": "Bischofsheim bei Rüsselsheim"
  },
  {
    "postcode": "65474",
    "city": "Groß-Gerau"
  },
  {
    "postcode": "65474",
    "city": "Bischofsheim"
  },
  {
    "postcode": "65479",
    "city": "Raunheim"
  },
  {
    "postcode": "65479",
    "city": "Groß-Gerau"
  },
  {
    "postcode": "65510",
    "city": "Bechtheim Untertaunus"
  },
  {
    "postcode": "65510",
    "city": "Bechtheim"
  },
  {
    "postcode": "65510",
    "city": "Beuerbach Taunus"
  },
  {
    "postcode": "65510",
    "city": "Beuerbach"
  },
  {
    "postcode": "65510",
    "city": "Dasbach Taunus"
  },
  {
    "postcode": "65510",
    "city": "Dasbach"
  },
  {
    "postcode": "65510",
    "city": "Ehrenbach"
  },
  {
    "postcode": "65510",
    "city": "Eschenhahn"
  },
  {
    "postcode": "65510",
    "city": "Görsroth"
  },
  {
    "postcode": "65510",
    "city": "Heftrich"
  },
  {
    "postcode": "65510",
    "city": "Hünstetten"
  },
  {
    "postcode": "65510",
    "city": "Idstein"
  },
  {
    "postcode": "65510",
    "city": "Kesselbach Untertaunus"
  },
  {
    "postcode": "65510",
    "city": "Kesselbach"
  },
  {
    "postcode": "65510",
    "city": "Ketternschwalbach"
  },
  {
    "postcode": "65510",
    "city": "Kröftel"
  },
  {
    "postcode": "65510",
    "city": "Lenzhahn"
  },
  {
    "postcode": "65510",
    "city": "Limbach Taunus"
  },
  {
    "postcode": "65510",
    "city": "Limbach"
  },
  {
    "postcode": "65510",
    "city": "Niederauroff"
  },
  {
    "postcode": "65510",
    "city": "Oberauroff"
  },
  {
    "postcode": "65510",
    "city": "Oberlibbach"
  },
  {
    "postcode": "65510",
    "city": "Strinz-Trinitatis"
  },
  {
    "postcode": "65510",
    "city": "Wallbach Taunus"
  },
  {
    "postcode": "65510",
    "city": "Wallbach"
  },
  {
    "postcode": "65510",
    "city": "Wallrabenstein"
  },
  {
    "postcode": "65510",
    "city": "Walsdorf Taunus"
  },
  {
    "postcode": "65510",
    "city": "Walsdorf"
  },
  {
    "postcode": "65510",
    "city": "Wörsdorf"
  },
  {
    "postcode": "65510",
    "city": "Rheingau-Taunus-Kreis"
  },
  {
    "postcode": "65510",
    "city": "Hasenmühle"
  },
  {
    "postcode": "65510",
    "city": "Nieder-Oberrod"
  },
  {
    "postcode": "65520",
    "city": "Bad Camberg"
  },
  {
    "postcode": "65520",
    "city": "Dombach Taunus"
  },
  {
    "postcode": "65520",
    "city": "Dombach"
  },
  {
    "postcode": "65520",
    "city": "Erbach Taunus"
  },
  {
    "postcode": "65520",
    "city": "Erbach"
  },
  {
    "postcode": "65520",
    "city": "Oberselters"
  },
  {
    "postcode": "65520",
    "city": "Schwickershausen Kreis Limburg an der Lahn"
  },
  {
    "postcode": "65520",
    "city": "Schwickershausen"
  },
  {
    "postcode": "65520",
    "city": "Würges"
  },
  {
    "postcode": "65520",
    "city": "Limburg-Weilburg"
  },
  {
    "postcode": "65527",
    "city": "Engenhahn"
  },
  {
    "postcode": "65527",
    "city": "Königshofen"
  },
  {
    "postcode": "65527",
    "city": "Niedernhausen"
  },
  {
    "postcode": "65527",
    "city": "Niedernhausen Taunus"
  },
  {
    "postcode": "65527",
    "city": "Niederseelbach"
  },
  {
    "postcode": "65527",
    "city": "Oberjosbach"
  },
  {
    "postcode": "65527",
    "city": "Oberseelbach Untertaunus"
  },
  {
    "postcode": "65527",
    "city": "Oberseelbach"
  },
  {
    "postcode": "65527",
    "city": "Rheingau-Taunus-Kreis"
  },
  {
    "postcode": "65529",
    "city": "Bermbach Untertaunus"
  },
  {
    "postcode": "65529",
    "city": "Bermbach"
  },
  {
    "postcode": "65529",
    "city": "Esch Untertaunus"
  },
  {
    "postcode": "65529",
    "city": "Esch"
  },
  {
    "postcode": "65529",
    "city": "Niederems"
  },
  {
    "postcode": "65529",
    "city": "Reichenbach Taunus"
  },
  {
    "postcode": "65529",
    "city": "Reichenbach"
  },
  {
    "postcode": "65529",
    "city": "Steinfischbach"
  },
  {
    "postcode": "65529",
    "city": "Waldems"
  },
  {
    "postcode": "65529",
    "city": "Wüstems"
  },
  {
    "postcode": "65529",
    "city": "Rheingau-Taunus-Kreis"
  },
  {
    "postcode": "65529",
    "city": "Reinborn"
  },
  {
    "postcode": "65549",
    "city": "Limburg"
  },
  {
    "postcode": "65549",
    "city": "Limburg an der Lahn"
  },
  {
    "postcode": "65549",
    "city": "Limburg-Weilburg"
  },
  {
    "postcode": "65550",
    "city": "Limburg an der Lahn"
  },
  {
    "postcode": "65550",
    "city": "Linter"
  },
  {
    "postcode": "65550",
    "city": "Limburg-Weilburg"
  },
  {
    "postcode": "65550",
    "city": "Limburg"
  },
  {
    "postcode": "65551",
    "city": "Limburg an der Lahn"
  },
  {
    "postcode": "65551",
    "city": "Lindenholzhausen"
  },
  {
    "postcode": "65551",
    "city": "Limburg-Weilburg"
  },
  {
    "postcode": "65551",
    "city": "Limburg"
  },
  {
    "postcode": "65552",
    "city": "Eschhofen"
  },
  {
    "postcode": "65552",
    "city": "Limburg an der Lahn"
  },
  {
    "postcode": "65552",
    "city": "Limburg-Weilburg"
  },
  {
    "postcode": "65552",
    "city": "Limburg"
  },
  {
    "postcode": "65553",
    "city": "Dietkirchen Kreis Limburg an der Lahn"
  },
  {
    "postcode": "65553",
    "city": "Dietkirchen"
  },
  {
    "postcode": "65553",
    "city": "Limburg an der Lahn"
  },
  {
    "postcode": "65553",
    "city": "Limburg-Weilburg"
  },
  {
    "postcode": "65553",
    "city": "Limburg"
  },
  {
    "postcode": "65554",
    "city": "Ahlbach Kreis Limburg an der Lahn"
  },
  {
    "postcode": "65554",
    "city": "Ahlbach"
  },
  {
    "postcode": "65554",
    "city": "Limburg an der Lahn"
  },
  {
    "postcode": "65554",
    "city": "Limburg-Weilburg"
  },
  {
    "postcode": "65554",
    "city": "Limburg"
  },
  {
    "postcode": "65555",
    "city": "Limburg an der Lahn"
  },
  {
    "postcode": "65555",
    "city": "Offheim Kreis Limburg an der Lahn"
  },
  {
    "postcode": "65555",
    "city": "Offheim"
  },
  {
    "postcode": "65555",
    "city": "Limburg-Weilburg"
  },
  {
    "postcode": "65555",
    "city": "Limburg"
  },
  {
    "postcode": "65556",
    "city": "Limburg an der Lahn"
  },
  {
    "postcode": "65556",
    "city": "Staffel Lahn"
  },
  {
    "postcode": "65556",
    "city": "Staffel"
  },
  {
    "postcode": "65556",
    "city": "Limburg-Weilburg"
  },
  {
    "postcode": "65556",
    "city": "Limburg"
  },
  {
    "postcode": "65558",
    "city": "Balduinstein"
  },
  {
    "postcode": "65558",
    "city": "Burgschwalbach"
  },
  {
    "postcode": "65558",
    "city": "Cramberg"
  },
  {
    "postcode": "65558",
    "city": "Eppenrod"
  },
  {
    "postcode": "65558",
    "city": "Flacht Rhein-Lahn-Kreis"
  },
  {
    "postcode": "65558",
    "city": "Flacht"
  },
  {
    "postcode": "65558",
    "city": "Giershausen"
  },
  {
    "postcode": "65558",
    "city": "Gückingen"
  },
  {
    "postcode": "65558",
    "city": "Hausen"
  },
  {
    "postcode": "65558",
    "city": "Heistenbach Rhein-Lahn-Kreis"
  },
  {
    "postcode": "65558",
    "city": "Heistenbach"
  },
  {
    "postcode": "65558",
    "city": "Hirschberg Rhein-Lahn-Kreis"
  },
  {
    "postcode": "65558",
    "city": "Hirschberg"
  },
  {
    "postcode": "65558",
    "city": "Holzheim Rhein-Lahn-Kreis"
  },
  {
    "postcode": "65558",
    "city": "Holzheim"
  },
  {
    "postcode": "65558",
    "city": "Isselbach"
  },
  {
    "postcode": "65558",
    "city": "Kaltenholzhausen"
  },
  {
    "postcode": "65558",
    "city": "Langenscheid Rhein-Lahn-Kreis"
  },
  {
    "postcode": "65558",
    "city": "Langenscheid"
  },
  {
    "postcode": "65558",
    "city": "Lohrheim"
  },
  {
    "postcode": "65558",
    "city": "Oberneisen"
  },
  {
    "postcode": "65558",
    "city": "Ruppenrod"
  },
  {
    "postcode": "65558",
    "city": "Rhein-Lahn-Kreis"
  },
  {
    "postcode": "65558",
    "city": "Zollhaus"
  },
  {
    "postcode": "65582",
    "city": "Aull"
  },
  {
    "postcode": "65582",
    "city": "Diez"
  },
  {
    "postcode": "65582",
    "city": "Hambach bei Diez"
  },
  {
    "postcode": "65582",
    "city": "Rhein-Lahn-Kreis"
  },
  {
    "postcode": "65582",
    "city": "Hambach"
  },
  {
    "postcode": "65582",
    "city": "Heistenbach"
  },
  {
    "postcode": "65589",
    "city": "Faulbach"
  },
  {
    "postcode": "65589",
    "city": "Hadamar"
  },
  {
    "postcode": "65589",
    "city": "Hadamar Westerwald"
  },
  {
    "postcode": "65589",
    "city": "Niederhadamar"
  },
  {
    "postcode": "65589",
    "city": "Niederweyer"
  },
  {
    "postcode": "65589",
    "city": "Niederzeuzheim"
  },
  {
    "postcode": "65589",
    "city": "Oberweyer Kreis Limburg an der Lahn"
  },
  {
    "postcode": "65589",
    "city": "Oberweyer"
  },
  {
    "postcode": "65589",
    "city": "Oberzeuzheim"
  },
  {
    "postcode": "65589",
    "city": "Steinbach Kreis Limburg an der Lahn"
  },
  {
    "postcode": "65589",
    "city": "Steinbach"
  },
  {
    "postcode": "65589",
    "city": "Limburg-Weilburg"
  },
  {
    "postcode": "65594",
    "city": "Arfurt Oberlahnkreis"
  },
  {
    "postcode": "65594",
    "city": "Arfurt"
  },
  {
    "postcode": "65594",
    "city": "Dehrn Kreis Limburg an der Lahn"
  },
  {
    "postcode": "65594",
    "city": "Dehrn"
  },
  {
    "postcode": "65594",
    "city": "Ennerich"
  },
  {
    "postcode": "65594",
    "city": "Eschenau Oberlahnkreis"
  },
  {
    "postcode": "65594",
    "city": "Eschenau"
  },
  {
    "postcode": "65594",
    "city": "Hofen Oberlahnkreis"
  },
  {
    "postcode": "65594",
    "city": "Hofen"
  },
  {
    "postcode": "65594",
    "city": "Runkel"
  },
  {
    "postcode": "65594",
    "city": "Runkel Lahn"
  },
  {
    "postcode": "65594",
    "city": "Schadeck"
  },
  {
    "postcode": "65594",
    "city": "Steeden"
  },
  {
    "postcode": "65594",
    "city": "Wirbelau"
  },
  {
    "postcode": "65594",
    "city": "Limburg-Weilburg"
  },
  {
    "postcode": "65597",
    "city": "Dauborn"
  },
  {
    "postcode": "65597",
    "city": "Heringen Kreis Limburg an der Lahn"
  },
  {
    "postcode": "65597",
    "city": "Heringen"
  },
  {
    "postcode": "65597",
    "city": "Hünfelden"
  },
  {
    "postcode": "65597",
    "city": "Kirberg Kreis Limburg an der Lahn"
  },
  {
    "postcode": "65597",
    "city": "Kirberg"
  },
  {
    "postcode": "65597",
    "city": "Mensfelden"
  },
  {
    "postcode": "65597",
    "city": "Nauheim Kreis Limburg an der Lahn"
  },
  {
    "postcode": "65597",
    "city": "Nauheim"
  },
  {
    "postcode": "65597",
    "city": "Neesbach"
  },
  {
    "postcode": "65597",
    "city": "Ohren"
  },
  {
    "postcode": "65597",
    "city": "Limburg-Weilburg"
  },
  {
    "postcode": "65599",
    "city": "Dornburg Westerwald"
  },
  {
    "postcode": "65599",
    "city": "Dornburg"
  },
  {
    "postcode": "65599",
    "city": "Dorndorf Kreis Limburg an der Lahn"
  },
  {
    "postcode": "65599",
    "city": "Dorndorf"
  },
  {
    "postcode": "65599",
    "city": "Frickhofen Kreis Limburg an der Lahn"
  },
  {
    "postcode": "65599",
    "city": "Frickhofen"
  },
  {
    "postcode": "65599",
    "city": "Langendernbach"
  },
  {
    "postcode": "65599",
    "city": "Thalheim Kreis Limburg an der Lahn"
  },
  {
    "postcode": "65599",
    "city": "Thalheim"
  },
  {
    "postcode": "65599",
    "city": "Wilsenroth"
  },
  {
    "postcode": "65599",
    "city": "Limburg-Weilburg"
  },
  {
    "postcode": "65604",
    "city": "Elz"
  },
  {
    "postcode": "65604",
    "city": "Elz Westerwald"
  },
  {
    "postcode": "65604",
    "city": "Malmeneich"
  },
  {
    "postcode": "65604",
    "city": "Limburg-Weilburg"
  },
  {
    "postcode": "65606",
    "city": "Aumenau"
  },
  {
    "postcode": "65606",
    "city": "Falkenbach Oberlahnkreis"
  },
  {
    "postcode": "65606",
    "city": "Falkenbach"
  },
  {
    "postcode": "65606",
    "city": "Langhecke"
  },
  {
    "postcode": "65606",
    "city": "Seelbach Oberlahnkreis"
  },
  {
    "postcode": "65606",
    "city": "Seelbach"
  },
  {
    "postcode": "65606",
    "city": "Villmar"
  },
  {
    "postcode": "65606",
    "city": "Weyer Oberlahnkreis"
  },
  {
    "postcode": "65606",
    "city": "Weyer"
  },
  {
    "postcode": "65606",
    "city": "Limburg-Weilburg"
  },
  {
    "postcode": "65611",
    "city": "Brechen"
  },
  {
    "postcode": "65611",
    "city": "Niederbrechen"
  },
  {
    "postcode": "65611",
    "city": "Oberbrechen"
  },
  {
    "postcode": "65611",
    "city": "Werschau"
  },
  {
    "postcode": "65611",
    "city": "Limburg-Weilburg"
  },
  {
    "postcode": "65614",
    "city": "Beselich"
  },
  {
    "postcode": "65614",
    "city": "Heckholzhausen"
  },
  {
    "postcode": "65614",
    "city": "Niedertiefenbach Oberlahnkreis"
  },
  {
    "postcode": "65614",
    "city": "Niedertiefenbach"
  },
  {
    "postcode": "65614",
    "city": "Obertiefenbach Oberlahnkreis"
  },
  {
    "postcode": "65614",
    "city": "Obertiefenbach"
  },
  {
    "postcode": "65614",
    "city": "Schupbach Oberlahnkreis"
  },
  {
    "postcode": "65614",
    "city": "Schupbach"
  },
  {
    "postcode": "65614",
    "city": "Limburg-Weilburg"
  },
  {
    "postcode": "65618",
    "city": "Eisenbach Kreis Limburg an der Lahn"
  },
  {
    "postcode": "65618",
    "city": "Eisenbach"
  },
  {
    "postcode": "65618",
    "city": "Haintchen"
  },
  {
    "postcode": "65618",
    "city": "Münster Oberlahnkreis"
  },
  {
    "postcode": "65618",
    "city": "Münster"
  },
  {
    "postcode": "65618",
    "city": "Niederselters"
  },
  {
    "postcode": "65618",
    "city": "Selters (Taunus)"
  },
  {
    "postcode": "65618",
    "city": "Selters"
  },
  {
    "postcode": "65618",
    "city": "Limburg-Weilburg"
  },
  {
    "postcode": "65620",
    "city": "Ellar Kreis Limburg an der Lahn"
  },
  {
    "postcode": "65620",
    "city": "Ellar"
  },
  {
    "postcode": "65620",
    "city": "Fussingen"
  },
  {
    "postcode": "65620",
    "city": "Hausen Westerwald"
  },
  {
    "postcode": "65620",
    "city": "Hausen"
  },
  {
    "postcode": "65620",
    "city": "Hintermeilingen"
  },
  {
    "postcode": "65620",
    "city": "Lahr Kreis Limburg an der Lahn"
  },
  {
    "postcode": "65620",
    "city": "Lahr"
  },
  {
    "postcode": "65620",
    "city": "Waldbrunn (Westerwald)"
  },
  {
    "postcode": "65620",
    "city": "Waldbrunn"
  },
  {
    "postcode": "65620",
    "city": "Limburg-Weilburg"
  },
  {
    "postcode": "65623",
    "city": "Bonscheuer"
  },
  {
    "postcode": "65623",
    "city": "Hahnstätten"
  },
  {
    "postcode": "65623",
    "city": "Mudershausen"
  },
  {
    "postcode": "65623",
    "city": "Netzbach"
  },
  {
    "postcode": "65623",
    "city": "Schiesheim"
  },
  {
    "postcode": "65623",
    "city": "Rhein-Lahn-Kreis"
  },
  {
    "postcode": "65623",
    "city": "Zollhaus"
  },
  {
    "postcode": "65624",
    "city": "Altendiez"
  },
  {
    "postcode": "65624",
    "city": "Rhein-Lahn-Kreis"
  },
  {
    "postcode": "65626",
    "city": "Birlenbach Rhein-Lahn-Kreis"
  },
  {
    "postcode": "65626",
    "city": "Birlenbach"
  },
  {
    "postcode": "65626",
    "city": "Rhein-Lahn-Kreis"
  },
  {
    "postcode": "65626",
    "city": "Fachingen"
  },
  {
    "postcode": "65627",
    "city": "Dorchheim Kreis Limburg an der Lahn"
  },
  {
    "postcode": "65627",
    "city": "Dorchheim"
  },
  {
    "postcode": "65627",
    "city": "Elbgrund"
  },
  {
    "postcode": "65627",
    "city": "Elbtal Westerwald"
  },
  {
    "postcode": "65627",
    "city": "Elbtal"
  },
  {
    "postcode": "65627",
    "city": "Hangenmeilingen"
  },
  {
    "postcode": "65627",
    "city": "Heuchelheim Kreis Limburg an der Lahn"
  },
  {
    "postcode": "65627",
    "city": "Heuchelheim"
  },
  {
    "postcode": "65627",
    "city": "Limburg-Weilburg"
  },
  {
    "postcode": "65629",
    "city": "Niederneisen"
  },
  {
    "postcode": "65629",
    "city": "Rhein-Lahn-Kreis"
  },
  {
    "postcode": "65719",
    "city": "Diedenbergen"
  },
  {
    "postcode": "65719",
    "city": "Hofheim am Taunus"
  },
  {
    "postcode": "65719",
    "city": "Langenhain Taunus"
  },
  {
    "postcode": "65719",
    "city": "Langenhain"
  },
  {
    "postcode": "65719",
    "city": "Lorsbach Taunus"
  },
  {
    "postcode": "65719",
    "city": "Lorsbach"
  },
  {
    "postcode": "65719",
    "city": "Wallau Taunus"
  },
  {
    "postcode": "65719",
    "city": "Wallau"
  },
  {
    "postcode": "65719",
    "city": "Wildsachsen"
  },
  {
    "postcode": "65719",
    "city": "Main-Taunus-Kreis"
  },
  {
    "postcode": "65719",
    "city": "Hofheim"
  },
  {
    "postcode": "65719",
    "city": "Marxheim"
  },
  {
    "postcode": "65760",
    "city": "Eschborn"
  },
  {
    "postcode": "65760",
    "city": "Eschborn Taunus"
  },
  {
    "postcode": "65760",
    "city": "Niederhöchstadt Taunus"
  },
  {
    "postcode": "65760",
    "city": "Niederhöchstadt"
  },
  {
    "postcode": "65760",
    "city": "Main-Taunus-Kreis"
  },
  {
    "postcode": "65779",
    "city": "Eppenhain Taunus"
  },
  {
    "postcode": "65779",
    "city": "Eppenhain"
  },
  {
    "postcode": "65779",
    "city": "Fischbach Maintaunus"
  },
  {
    "postcode": "65779",
    "city": "Fischbach"
  },
  {
    "postcode": "65779",
    "city": "Kelkheim"
  },
  {
    "postcode": "65779",
    "city": "Kelkheim (Taunus)"
  },
  {
    "postcode": "65779",
    "city": "Ruppertshain"
  },
  {
    "postcode": "65779",
    "city": "Main-Taunus-Kreis"
  },
  {
    "postcode": "65779",
    "city": "Münster"
  },
  {
    "postcode": "65795",
    "city": "Eddersheim"
  },
  {
    "postcode": "65795",
    "city": "Hattersheim am Main"
  },
  {
    "postcode": "65795",
    "city": "Okriftel"
  },
  {
    "postcode": "65795",
    "city": "Main-Taunus-Kreis"
  },
  {
    "postcode": "65795",
    "city": "Hattersheim"
  },
  {
    "postcode": "65812",
    "city": "Altenhain Taunus"
  },
  {
    "postcode": "65812",
    "city": "Altenhain"
  },
  {
    "postcode": "65812",
    "city": "Bad Soden"
  },
  {
    "postcode": "65812",
    "city": "Bad Soden am Taunus"
  },
  {
    "postcode": "65812",
    "city": "Neuenhain Taunus"
  },
  {
    "postcode": "65812",
    "city": "Neuenhain"
  },
  {
    "postcode": "65812",
    "city": "Main-Taunus-Kreis"
  },
  {
    "postcode": "65817",
    "city": "Bremthal"
  },
  {
    "postcode": "65817",
    "city": "Ehlhalten"
  },
  {
    "postcode": "65817",
    "city": "Eppstein"
  },
  {
    "postcode": "65817",
    "city": "Eppstein Taunus"
  },
  {
    "postcode": "65817",
    "city": "Niederjosbach"
  },
  {
    "postcode": "65817",
    "city": "Vockenhausen Taunus"
  },
  {
    "postcode": "65817",
    "city": "Vockenhausen"
  },
  {
    "postcode": "65817",
    "city": "Main-Taunus-Kreis"
  },
  {
    "postcode": "65824",
    "city": "Schwalbach am Taunus"
  },
  {
    "postcode": "65824",
    "city": "Main-Taunus-Kreis"
  },
  {
    "postcode": "65830",
    "city": "Kriftel"
  },
  {
    "postcode": "65830",
    "city": "Main-Taunus-Kreis"
  },
  {
    "postcode": "65835",
    "city": "Liederbach"
  },
  {
    "postcode": "65835",
    "city": "Liederbach am Taunus"
  },
  {
    "postcode": "65835",
    "city": "Oberliederbach"
  },
  {
    "postcode": "65835",
    "city": "Main-Taunus-Kreis"
  },
  {
    "postcode": "65843",
    "city": "Sulzbach (Taunus)"
  },
  {
    "postcode": "65843",
    "city": "Sulzbach"
  },
  {
    "postcode": "65843",
    "city": "Main-Taunus-Kreis"
  },
  {
    "postcode": "65929",
    "city": "Frankfurt am Main"
  },
  {
    "postcode": "65929",
    "city": "Höchst"
  },
  {
    "postcode": "65929",
    "city": "Unterliederbach"
  },
  {
    "postcode": "65929",
    "city": "Schwanheim"
  },
  {
    "postcode": "65931",
    "city": "Frankfurt am Main"
  },
  {
    "postcode": "65931",
    "city": "Sindlingen"
  },
  {
    "postcode": "65931",
    "city": "Zeilsheim"
  },
  {
    "postcode": "65931",
    "city": "Höchst"
  },
  {
    "postcode": "65933",
    "city": "Frankfurt am Main"
  },
  {
    "postcode": "65933",
    "city": "Griesheim"
  },
  {
    "postcode": "65933",
    "city": "Gutleutviertel"
  },
  {
    "postcode": "65934",
    "city": "Frankfurt am Main"
  },
  {
    "postcode": "65934",
    "city": "Höchst"
  },
  {
    "postcode": "65934",
    "city": "Nied"
  },
  {
    "postcode": "65936",
    "city": "Frankfurt am Main"
  },
  {
    "postcode": "65936",
    "city": "Nied"
  },
  {
    "postcode": "65936",
    "city": "Sossenheim"
  }
]