[
  {
    "postcode": "9028",
    "city": "Chemnitz Sachsen"
  },
  {
    "postcode": "9028",
    "city": "Chemnitz"
  },
  {
    "postcode": "9030",
    "city": "Chemnitz Sachsen"
  },
  {
    "postcode": "9030",
    "city": "Chemnitz"
  },
  {
    "postcode": "90402",
    "city": "Nürnberg Mittelfranken"
  },
  {
    "postcode": "90402",
    "city": "Nürnberg"
  },
  {
    "postcode": "90402",
    "city": "Lorenz"
  },
  {
    "postcode": "90402",
    "city": "Tullnau"
  },
  {
    "postcode": "90402",
    "city": "Gleißbühl"
  },
  {
    "postcode": "90402",
    "city": "Tafelhof"
  },
  {
    "postcode": "90402",
    "city": "Wöhrd"
  },
  {
    "postcode": "90403",
    "city": "Nürnberg Mittelfranken"
  },
  {
    "postcode": "90403",
    "city": "Nürnberg"
  },
  {
    "postcode": "90403",
    "city": "Sebald"
  },
  {
    "postcode": "90403",
    "city": "Lorenz"
  },
  {
    "postcode": "90408",
    "city": "Großreuth hinter der Veste"
  },
  {
    "postcode": "90408",
    "city": "Nürnberg Mittelfranken"
  },
  {
    "postcode": "90408",
    "city": "Nürnberg"
  },
  {
    "postcode": "90408",
    "city": "Großreuth h d Veste"
  },
  {
    "postcode": "90408",
    "city": "Gärten h d Veste"
  },
  {
    "postcode": "90408",
    "city": "Nordbahnhof"
  },
  {
    "postcode": "90408",
    "city": "St. Johannis"
  },
  {
    "postcode": "90408",
    "city": "Maxfeld"
  },
  {
    "postcode": "90409",
    "city": "Großreuth hinter der Veste"
  },
  {
    "postcode": "90409",
    "city": "Nürnberg Mittelfranken"
  },
  {
    "postcode": "90409",
    "city": "Nürnberg"
  },
  {
    "postcode": "90409",
    "city": "Schoppershof"
  },
  {
    "postcode": "90409",
    "city": "Maxfeld"
  },
  {
    "postcode": "90409",
    "city": "Großreuth h d Veste"
  },
  {
    "postcode": "90409",
    "city": "Gärten h d Veste"
  },
  {
    "postcode": "90411",
    "city": "Buchenbühl"
  },
  {
    "postcode": "90411",
    "city": "Herrnhütte"
  },
  {
    "postcode": "90411",
    "city": "Marienberg"
  },
  {
    "postcode": "90411",
    "city": "Nürnberg Mittelfranken"
  },
  {
    "postcode": "90411",
    "city": "Nürnberg"
  },
  {
    "postcode": "90411",
    "city": "Schafhof"
  },
  {
    "postcode": "90411",
    "city": "Ziegelstein"
  },
  {
    "postcode": "90411",
    "city": "Loher Moos"
  },
  {
    "postcode": "90411",
    "city": "Klingenhof"
  },
  {
    "postcode": "90419",
    "city": "Nürnberg Mittelfranken"
  },
  {
    "postcode": "90419",
    "city": "Nürnberg"
  },
  {
    "postcode": "90419",
    "city": "St. Johannis"
  },
  {
    "postcode": "90419",
    "city": "Kleinweidenmühle"
  },
  {
    "postcode": "90419",
    "city": "Schniegling"
  },
  {
    "postcode": "90425",
    "city": "Großreuth hinter der Veste"
  },
  {
    "postcode": "90425",
    "city": "Kleinreuth hinter der Veste"
  },
  {
    "postcode": "90425",
    "city": "Nürnberg Mittelfranken"
  },
  {
    "postcode": "90425",
    "city": "Nürnberg"
  },
  {
    "postcode": "90425",
    "city": "Schnepfenreuth"
  },
  {
    "postcode": "90425",
    "city": "Schniegling"
  },
  {
    "postcode": "90425",
    "city": "Thon"
  },
  {
    "postcode": "90425",
    "city": "Wetzendorf"
  },
  {
    "postcode": "90425",
    "city": "Großreuth h d Veste"
  },
  {
    "postcode": "90425",
    "city": "Kleinreuth h d Veste"
  },
  {
    "postcode": "90427",
    "city": "Boxdorf Mittelfranken"
  },
  {
    "postcode": "90427",
    "city": "Boxdorf"
  },
  {
    "postcode": "90427",
    "city": "Buch"
  },
  {
    "postcode": "90427",
    "city": "Doos"
  },
  {
    "postcode": "90427",
    "city": "Großgründlach"
  },
  {
    "postcode": "90427",
    "city": "Höfles"
  },
  {
    "postcode": "90427",
    "city": "Kleingründlach"
  },
  {
    "postcode": "90427",
    "city": "Kraftshof"
  },
  {
    "postcode": "90427",
    "city": "Lohe"
  },
  {
    "postcode": "90427",
    "city": "Neunhof"
  },
  {
    "postcode": "90427",
    "city": "Nürnberg Mittelfranken"
  },
  {
    "postcode": "90427",
    "city": "Nürnberg"
  },
  {
    "postcode": "90427",
    "city": "Reutles"
  },
  {
    "postcode": "90427",
    "city": "Schnepfenreuth"
  },
  {
    "postcode": "90427",
    "city": "Schniegling"
  },
  {
    "postcode": "90427",
    "city": "Wetzendorf"
  },
  {
    "postcode": "90427",
    "city": "Almoshof"
  },
  {
    "postcode": "90427",
    "city": "Schmalau"
  },
  {
    "postcode": "90429",
    "city": "Doos"
  },
  {
    "postcode": "90429",
    "city": "Muggenhof"
  },
  {
    "postcode": "90429",
    "city": "Nürnberg Mittelfranken"
  },
  {
    "postcode": "90429",
    "city": "Nürnberg"
  },
  {
    "postcode": "90429",
    "city": "Gostenhof"
  },
  {
    "postcode": "90429",
    "city": "Rosenau"
  },
  {
    "postcode": "90429",
    "city": "Kleinweidenmühle"
  },
  {
    "postcode": "90429",
    "city": "Seeleinsbühl"
  },
  {
    "postcode": "90431",
    "city": "Doos"
  },
  {
    "postcode": "90431",
    "city": "Gaismannshof"
  },
  {
    "postcode": "90431",
    "city": "Großreuth bei Schweinau"
  },
  {
    "postcode": "90431",
    "city": "Höfen"
  },
  {
    "postcode": "90431",
    "city": "Kleinreuth bei Schweinau"
  },
  {
    "postcode": "90431",
    "city": "Leyh"
  },
  {
    "postcode": "90431",
    "city": "Nürnberg Mittelfranken"
  },
  {
    "postcode": "90431",
    "city": "Nürnberg"
  },
  {
    "postcode": "90431",
    "city": "Kleinreuth b Schweinau"
  },
  {
    "postcode": "90431",
    "city": "Seeleinsbühl"
  },
  {
    "postcode": "90431",
    "city": "Großreuth b Schweinau"
  },
  {
    "postcode": "90431",
    "city": "Eberhardshof"
  },
  {
    "postcode": "90431",
    "city": "Sündersbühl"
  },
  {
    "postcode": "90439",
    "city": "Großreuth bei Schweinau"
  },
  {
    "postcode": "90439",
    "city": "Nürnberg Mittelfranken"
  },
  {
    "postcode": "90439",
    "city": "Nürnberg"
  },
  {
    "postcode": "90439",
    "city": "Schweinau"
  },
  {
    "postcode": "90439",
    "city": "St. Leonhard"
  },
  {
    "postcode": "90439",
    "city": "Sündersbühl"
  },
  {
    "postcode": "90439",
    "city": "Großreuth b Schweinau"
  },
  {
    "postcode": "90441",
    "city": "Nürnberg Mittelfranken"
  },
  {
    "postcode": "90441",
    "city": "Nürnberg"
  },
  {
    "postcode": "90441",
    "city": "Schweinau"
  },
  {
    "postcode": "90441",
    "city": "Werderau"
  },
  {
    "postcode": "90441",
    "city": "Sandreuth"
  },
  {
    "postcode": "90441",
    "city": "Gibitzenhof"
  },
  {
    "postcode": "90443",
    "city": "Nürnberg Mittelfranken"
  },
  {
    "postcode": "90443",
    "city": "Nürnberg"
  },
  {
    "postcode": "90443",
    "city": "Steinbühl"
  },
  {
    "postcode": "90443",
    "city": "Gibitzenhof"
  },
  {
    "postcode": "90443",
    "city": "Rosenau"
  },
  {
    "postcode": "90443",
    "city": "St. Leonhard"
  },
  {
    "postcode": "90443",
    "city": "Tafelhof"
  },
  {
    "postcode": "90443",
    "city": "Gostenhof"
  },
  {
    "postcode": "90443",
    "city": "Lichtenhof"
  },
  {
    "postcode": "90449",
    "city": "Gebersdorf"
  },
  {
    "postcode": "90449",
    "city": "Neumühle"
  },
  {
    "postcode": "90449",
    "city": "Nürnberg Mittelfranken"
  },
  {
    "postcode": "90449",
    "city": "Nürnberg"
  },
  {
    "postcode": "90449",
    "city": "Röthenbach bei Schweinau"
  },
  {
    "postcode": "90449",
    "city": "Röthenbach b Schweinau"
  },
  {
    "postcode": "90449",
    "city": "Neuröthenbach"
  },
  {
    "postcode": "90451",
    "city": "Eibach"
  },
  {
    "postcode": "90451",
    "city": "Nürnberg Mittelfranken"
  },
  {
    "postcode": "90451",
    "city": "Nürnberg"
  },
  {
    "postcode": "90451",
    "city": "Reichelsdorf"
  },
  {
    "postcode": "90451",
    "city": "Röthenbach bei Schweinau"
  },
  {
    "postcode": "90451",
    "city": "Röthenbach b Schweinau"
  },
  {
    "postcode": "90451",
    "city": "Hafen"
  },
  {
    "postcode": "90451",
    "city": "Maiach"
  },
  {
    "postcode": "90453",
    "city": "Eibach"
  },
  {
    "postcode": "90453",
    "city": "Gerasmühle"
  },
  {
    "postcode": "90453",
    "city": "Mühlhof"
  },
  {
    "postcode": "90453",
    "city": "Nürnberg Mittelfranken"
  },
  {
    "postcode": "90453",
    "city": "Nürnberg"
  },
  {
    "postcode": "90453",
    "city": "Reichelsdorf"
  },
  {
    "postcode": "90453",
    "city": "Neukatzwang"
  },
  {
    "postcode": "90453",
    "city": "Holzheim"
  },
  {
    "postcode": "90453",
    "city": "Reichelsdorfer Keller"
  },
  {
    "postcode": "90453",
    "city": "Lohhof"
  },
  {
    "postcode": "90453",
    "city": "Krottenbach"
  },
  {
    "postcode": "90453",
    "city": "Katzwang"
  },
  {
    "postcode": "90453",
    "city": "Koppenhof"
  },
  {
    "postcode": "90455",
    "city": "Gaulnhofen"
  },
  {
    "postcode": "90455",
    "city": "Greuth"
  },
  {
    "postcode": "90455",
    "city": "Herpersdorf"
  },
  {
    "postcode": "90455",
    "city": "Königshof"
  },
  {
    "postcode": "90455",
    "city": "Nürnberg Mittelfranken"
  },
  {
    "postcode": "90455",
    "city": "Nürnberg"
  },
  {
    "postcode": "90455",
    "city": "Pillenreuth"
  },
  {
    "postcode": "90455",
    "city": "Weiherhaus"
  },
  {
    "postcode": "90455",
    "city": "Worzeldorf"
  },
  {
    "postcode": "90455",
    "city": "Katzwang"
  },
  {
    "postcode": "90455",
    "city": "Kornburg"
  },
  {
    "postcode": "90455",
    "city": "Neukatzwang"
  },
  {
    "postcode": "90455",
    "city": "Steinbrüchlein"
  },
  {
    "postcode": "90457",
    "city": "Moorenbrunn"
  },
  {
    "postcode": "90459",
    "city": "Galgenhof"
  },
  {
    "postcode": "90459",
    "city": "Nürnberg Mittelfranken"
  },
  {
    "postcode": "90459",
    "city": "Nürnberg"
  },
  {
    "postcode": "90459",
    "city": "Gibitzenhof"
  },
  {
    "postcode": "90459",
    "city": "Steinbühl"
  },
  {
    "postcode": "90459",
    "city": "Lichtenhof"
  },
  {
    "postcode": "90459",
    "city": "Hummelstein"
  },
  {
    "postcode": "90459",
    "city": "Rabus"
  },
  {
    "postcode": "90461",
    "city": "Galgenhof"
  },
  {
    "postcode": "90461",
    "city": "Nürnberg Mittelfranken"
  },
  {
    "postcode": "90461",
    "city": "Nürnberg"
  },
  {
    "postcode": "90461",
    "city": "Bleiweiß"
  },
  {
    "postcode": "90461",
    "city": "Gleißhammer"
  },
  {
    "postcode": "90461",
    "city": "Glockenhof"
  },
  {
    "postcode": "90461",
    "city": "Hasenbuck"
  },
  {
    "postcode": "90461",
    "city": "Hummelstein"
  },
  {
    "postcode": "90461",
    "city": "Rangierbahnhof"
  },
  {
    "postcode": "90461",
    "city": "Gibitzenhof"
  },
  {
    "postcode": "90461",
    "city": "Rabus"
  },
  {
    "postcode": "90469",
    "city": "Langwasser"
  },
  {
    "postcode": "90469",
    "city": "Nürnberg Mittelfranken"
  },
  {
    "postcode": "90469",
    "city": "Nürnberg"
  },
  {
    "postcode": "90469",
    "city": "Gartenstadt"
  },
  {
    "postcode": "90469",
    "city": "Falkenheim"
  },
  {
    "postcode": "90469",
    "city": "Kettelersiedlung"
  },
  {
    "postcode": "90469",
    "city": "Rangierbahnhof"
  },
  {
    "postcode": "90471",
    "city": "Langwasser"
  },
  {
    "postcode": "90471",
    "city": "Nürnberg Mittelfranken"
  },
  {
    "postcode": "90471",
    "city": "Nürnberg"
  },
  {
    "postcode": "90471",
    "city": "Dutzendteich"
  },
  {
    "postcode": "90471",
    "city": "Zollhaus"
  },
  {
    "postcode": "90471",
    "city": "Stadion"
  },
  {
    "postcode": "90471",
    "city": "Neuselsbrunn"
  },
  {
    "postcode": "90473",
    "city": "Langwasser"
  },
  {
    "postcode": "90473",
    "city": "Nürnberg Mittelfranken"
  },
  {
    "postcode": "90473",
    "city": "Nürnberg"
  },
  {
    "postcode": "90475",
    "city": "Altenfurt"
  },
  {
    "postcode": "90475",
    "city": "Birnthon"
  },
  {
    "postcode": "90475",
    "city": "Fischbach bei Nürnberg"
  },
  {
    "postcode": "90475",
    "city": "Moorenbrunn"
  },
  {
    "postcode": "90475",
    "city": "Netzstall"
  },
  {
    "postcode": "90475",
    "city": "Nürnberg Mittelfranken"
  },
  {
    "postcode": "90475",
    "city": "Nürnberg"
  },
  {
    "postcode": "90475",
    "city": "Fischbach"
  },
  {
    "postcode": "90475",
    "city": "Gewerbepark Nürnberg-Feucht"
  },
  {
    "postcode": "90475",
    "city": "Brunn"
  },
  {
    "postcode": "90478",
    "city": "Nürnberg Mittelfranken"
  },
  {
    "postcode": "90478",
    "city": "Nürnberg"
  },
  {
    "postcode": "90478",
    "city": "Zerzabelshof"
  },
  {
    "postcode": "90478",
    "city": "St. Peter"
  },
  {
    "postcode": "90478",
    "city": "Gleißhammer"
  },
  {
    "postcode": "90478",
    "city": "Dutzendteich"
  },
  {
    "postcode": "90478",
    "city": "Glockenhof"
  },
  {
    "postcode": "90480",
    "city": "Mögeldorf"
  },
  {
    "postcode": "90480",
    "city": "Nürnberg Mittelfranken"
  },
  {
    "postcode": "90480",
    "city": "Nürnberg"
  },
  {
    "postcode": "90480",
    "city": "Zerzabelshof"
  },
  {
    "postcode": "90480",
    "city": "Tiergarten"
  },
  {
    "postcode": "90480",
    "city": "Weichselgarten"
  },
  {
    "postcode": "90480",
    "city": "Gleißhammer"
  },
  {
    "postcode": "90482",
    "city": "Laufamholz"
  },
  {
    "postcode": "90482",
    "city": "Mögeldorf"
  },
  {
    "postcode": "90482",
    "city": "Nürnberg Mittelfranken"
  },
  {
    "postcode": "90482",
    "city": "Nürnberg"
  },
  {
    "postcode": "90482",
    "city": "Unterbürg"
  },
  {
    "postcode": "90482",
    "city": "Freiland"
  },
  {
    "postcode": "90482",
    "city": "Rehhof"
  },
  {
    "postcode": "90489",
    "city": "Nürnberg Mittelfranken"
  },
  {
    "postcode": "90489",
    "city": "Nürnberg"
  },
  {
    "postcode": "90489",
    "city": "Gärten b Wöhrd"
  },
  {
    "postcode": "90489",
    "city": "Rennweg"
  },
  {
    "postcode": "90489",
    "city": "Wöhrd"
  },
  {
    "postcode": "90489",
    "city": "Veilhof"
  },
  {
    "postcode": "90491",
    "city": "Erlenstegen"
  },
  {
    "postcode": "90491",
    "city": "Nürnberg Mittelfranken"
  },
  {
    "postcode": "90491",
    "city": "Nürnberg"
  },
  {
    "postcode": "90491",
    "city": "Schafhof"
  },
  {
    "postcode": "90491",
    "city": "Weigelshof"
  },
  {
    "postcode": "90491",
    "city": "Schoppershof"
  },
  {
    "postcode": "90491",
    "city": "Gärten b Wöhrd"
  },
  {
    "postcode": "90491",
    "city": "St. Jobst"
  },
  {
    "postcode": "90491",
    "city": "Steinplatte"
  },
  {
    "postcode": "90491",
    "city": "Nordostbahnhof"
  },
  {
    "postcode": "90491",
    "city": "Platnersberg"
  },
  {
    "postcode": "90491",
    "city": "Spitalhof"
  },
  {
    "postcode": "90491",
    "city": "Rechenberg"
  },
  {
    "postcode": "90513",
    "city": "Anwanden Mittelfranken"
  },
  {
    "postcode": "90513",
    "city": "Anwanden"
  },
  {
    "postcode": "90513",
    "city": "Banderbach"
  },
  {
    "postcode": "90513",
    "city": "Bronnamberg"
  },
  {
    "postcode": "90513",
    "city": "Leichendorf Mittelfranken"
  },
  {
    "postcode": "90513",
    "city": "Leichendorf"
  },
  {
    "postcode": "90513",
    "city": "Lind Mittelfranken"
  },
  {
    "postcode": "90513",
    "city": "Lind"
  },
  {
    "postcode": "90513",
    "city": "Weiherhof"
  },
  {
    "postcode": "90513",
    "city": "Weinzierlein Mittelfranken"
  },
  {
    "postcode": "90513",
    "city": "Weinzierlein"
  },
  {
    "postcode": "90513",
    "city": "Wintersdorf Mittelfranken"
  },
  {
    "postcode": "90513",
    "city": "Wintersdorf"
  },
  {
    "postcode": "90513",
    "city": "Wolfgangshof Mittelfranken"
  },
  {
    "postcode": "90513",
    "city": "Wolfgangshof"
  },
  {
    "postcode": "90513",
    "city": "Zirndorf"
  },
  {
    "postcode": "90513",
    "city": "Zirndorf Mittelfranken"
  },
  {
    "postcode": "90513",
    "city": "Fürth"
  },
  {
    "postcode": "90518",
    "city": "Adelheim bei Nürnberg"
  },
  {
    "postcode": "90518",
    "city": "Altdorf"
  },
  {
    "postcode": "90518",
    "city": "Altdorf bei Nürnberg"
  },
  {
    "postcode": "90518",
    "city": "Eismannsberg Mittelfranken"
  },
  {
    "postcode": "90518",
    "city": "Eismannsberg"
  },
  {
    "postcode": "90518",
    "city": "Grünsberg bei Nürnberg"
  },
  {
    "postcode": "90518",
    "city": "Hagenhausen bei Nürnberg"
  },
  {
    "postcode": "90518",
    "city": "Hegnenberg bei Nürnberg"
  },
  {
    "postcode": "90518",
    "city": "Ludersheim bei Nürnberg"
  },
  {
    "postcode": "90518",
    "city": "Oberrieden bei Nürnberg"
  },
  {
    "postcode": "90518",
    "city": "Oberwellitzleithen bei Nürnberg"
  },
  {
    "postcode": "90518",
    "city": "Prackenfels bei Nürnberg"
  },
  {
    "postcode": "90518",
    "city": "Pühlheim bei Nürnberg"
  },
  {
    "postcode": "90518",
    "city": "Rasch Mittelfranken"
  },
  {
    "postcode": "90518",
    "city": "Rasch"
  },
  {
    "postcode": "90518",
    "city": "Raschbach bei Nürnberg"
  },
  {
    "postcode": "90518",
    "city": "Röthenbach Kreis Nürnberg"
  },
  {
    "postcode": "90518",
    "city": "Röthenbach"
  },
  {
    "postcode": "90518",
    "city": "Unterrieden bei Nürnberg"
  },
  {
    "postcode": "90518",
    "city": "Unterwellitzleithen bei Nürnberg"
  },
  {
    "postcode": "90518",
    "city": "Wappeltshofen Mittelfranken"
  },
  {
    "postcode": "90518",
    "city": "Wappeltshofen"
  },
  {
    "postcode": "90518",
    "city": "Weinhof bei Nürnberg"
  },
  {
    "postcode": "90518",
    "city": "Ziegelhütte"
  },
  {
    "postcode": "90518",
    "city": "Nürnberger Land"
  },
  {
    "postcode": "90518",
    "city": "Altdorf b. Nürnberg"
  },
  {
    "postcode": "90518",
    "city": "Ludersheim"
  },
  {
    "postcode": "90518",
    "city": "Grünsberg"
  },
  {
    "postcode": "90518",
    "city": "Adelheim"
  },
  {
    "postcode": "90518",
    "city": "Oberrieden"
  },
  {
    "postcode": "90518",
    "city": "Hagenhausen"
  },
  {
    "postcode": "90518",
    "city": "Weinhof"
  },
  {
    "postcode": "90518",
    "city": "Lenzenberg"
  },
  {
    "postcode": "90518",
    "city": "Unterrieden"
  },
  {
    "postcode": "90518",
    "city": "Schleifmühle"
  },
  {
    "postcode": "90518",
    "city": "Hegnenberg"
  },
  {
    "postcode": "90518",
    "city": "Ludersheim-Au"
  },
  {
    "postcode": "90518",
    "city": "Unterwellitzleithen"
  },
  {
    "postcode": "90518",
    "city": "Lochmannshof"
  },
  {
    "postcode": "90518",
    "city": "Oberwellitzleithen"
  },
  {
    "postcode": "90518",
    "city": "Prackenfels"
  },
  {
    "postcode": "90518",
    "city": "Prethalmühle"
  },
  {
    "postcode": "90518",
    "city": "Pühlheim"
  },
  {
    "postcode": "90518",
    "city": "Raschbach"
  },
  {
    "postcode": "90522",
    "city": "Altenberg bei Nürnberg"
  },
  {
    "postcode": "90522",
    "city": "Kreutles bei Nürnberg"
  },
  {
    "postcode": "90522",
    "city": "Oberasbach"
  },
  {
    "postcode": "90522",
    "city": "Oberasbach bei Nürnberg"
  },
  {
    "postcode": "90522",
    "city": "Rehdorf bei Nürnberg"
  },
  {
    "postcode": "90522",
    "city": "Unterasbach bei Nürnberg"
  },
  {
    "postcode": "90522",
    "city": "Fürth"
  },
  {
    "postcode": "90522",
    "city": "Kreutles"
  },
  {
    "postcode": "90522",
    "city": "Unterasbach"
  },
  {
    "postcode": "90522",
    "city": "Altenberg"
  },
  {
    "postcode": "90522",
    "city": "Rehdorf"
  },
  {
    "postcode": "90530",
    "city": "Dürrenhembach"
  },
  {
    "postcode": "90530",
    "city": "Großschwarzenlohe Mittelfranken"
  },
  {
    "postcode": "90530",
    "city": "Großschwarzenlohe"
  },
  {
    "postcode": "90530",
    "city": "Kleinschwarzenlohe Mittelfranken"
  },
  {
    "postcode": "90530",
    "city": "Kleinschwarzenlohe"
  },
  {
    "postcode": "90530",
    "city": "Königshammer Mittelfranken"
  },
  {
    "postcode": "90530",
    "city": "Königshammer"
  },
  {
    "postcode": "90530",
    "city": "Nerreth"
  },
  {
    "postcode": "90530",
    "city": "Neuses"
  },
  {
    "postcode": "90530",
    "city": "Raubersried Mittelfranken"
  },
  {
    "postcode": "90530",
    "city": "Raubersried"
  },
  {
    "postcode": "90530",
    "city": "Röthenbach bei Sankt Wolfgang"
  },
  {
    "postcode": "90530",
    "city": "Sperberslohe"
  },
  {
    "postcode": "90530",
    "city": "Wendelstein"
  },
  {
    "postcode": "90530",
    "city": "Wendelstein Mittelfranken"
  },
  {
    "postcode": "90530",
    "city": "Roth"
  },
  {
    "postcode": "90530",
    "city": "Forst Kleinschwarzenlohe"
  },
  {
    "postcode": "90530",
    "city": "Röthenbach bei St Wolfgang"
  },
  {
    "postcode": "90537",
    "city": "Feucht"
  },
  {
    "postcode": "90537",
    "city": "Moosbach Kreis Nürnberg"
  },
  {
    "postcode": "90537",
    "city": "Moosbach"
  },
  {
    "postcode": "90537",
    "city": "Nürnberger Land"
  },
  {
    "postcode": "90537",
    "city": "Gemeinde Schwarzenbruck"
  },
  {
    "postcode": "90537",
    "city": "Feuchter Forst"
  },
  {
    "postcode": "90542",
    "city": "Benzendorf"
  },
  {
    "postcode": "90542",
    "city": "Brand"
  },
  {
    "postcode": "90542",
    "city": "Ebach"
  },
  {
    "postcode": "90542",
    "city": "Eckenhaid Mittelfranken"
  },
  {
    "postcode": "90542",
    "city": "Eckenhaid"
  },
  {
    "postcode": "90542",
    "city": "Eckental"
  },
  {
    "postcode": "90542",
    "city": "Eschenau Mittelfranken"
  },
  {
    "postcode": "90542",
    "city": "Eschenau"
  },
  {
    "postcode": "90542",
    "city": "Forth Mittelfranken"
  },
  {
    "postcode": "90542",
    "city": "Forth"
  },
  {
    "postcode": "90542",
    "city": "Frohnhof"
  },
  {
    "postcode": "90542",
    "city": "Herpersdorf Kreis Lauf an der Pegnitz"
  },
  {
    "postcode": "90542",
    "city": "Herpersdorf"
  },
  {
    "postcode": "90542",
    "city": "Illhof"
  },
  {
    "postcode": "90542",
    "city": "Mausgesees"
  },
  {
    "postcode": "90542",
    "city": "Oberschöllenbach Mittelfranken"
  },
  {
    "postcode": "90542",
    "city": "Oberschöllenbach"
  },
  {
    "postcode": "90542",
    "city": "Oedhof"
  },
  {
    "postcode": "90542",
    "city": "Unterschöllenbach Mittelfranken"
  },
  {
    "postcode": "90542",
    "city": "Unterschöllenbach"
  },
  {
    "postcode": "90542",
    "city": "Erlangen-Höchstadt"
  },
  {
    "postcode": "90547",
    "city": "Bertelsdorf"
  },
  {
    "postcode": "90547",
    "city": "Deutenbach bei Nürnberg"
  },
  {
    "postcode": "90547",
    "city": "Eckershof bei Nürnberg"
  },
  {
    "postcode": "90547",
    "city": "Gutzberg bei Nürnberg"
  },
  {
    "postcode": "90547",
    "city": "Loch"
  },
  {
    "postcode": "90547",
    "city": "Oberbüchlein"
  },
  {
    "postcode": "90547",
    "city": "Oberweihersbuch"
  },
  {
    "postcode": "90547",
    "city": "Sichersdorf"
  },
  {
    "postcode": "90547",
    "city": "Stein bei Nürnberg"
  },
  {
    "postcode": "90547",
    "city": "Unterbüchlein"
  },
  {
    "postcode": "90547",
    "city": "Unterweihersbuch"
  },
  {
    "postcode": "90547",
    "city": "Fürth"
  },
  {
    "postcode": "90547",
    "city": "Stein"
  },
  {
    "postcode": "90547",
    "city": "Deutenbach"
  },
  {
    "postcode": "90547",
    "city": "Gutzberg"
  },
  {
    "postcode": "90547",
    "city": "Eckershof"
  },
  {
    "postcode": "90552",
    "city": "Haimendorf"
  },
  {
    "postcode": "90552",
    "city": "Himmelgarten an der Pegnitz"
  },
  {
    "postcode": "90552",
    "city": "Renzenhof"
  },
  {
    "postcode": "90552",
    "city": "Rockenbrunn Mittelfranken"
  },
  {
    "postcode": "90552",
    "city": "Rockenbrunn"
  },
  {
    "postcode": "90552",
    "city": "Röthenbach an der Pegnitz"
  },
  {
    "postcode": "90552",
    "city": "Nürnberger Land"
  },
  {
    "postcode": "90552",
    "city": "Röthenbach a.d.Pegnitz"
  },
  {
    "postcode": "90552",
    "city": "Röthenbach"
  },
  {
    "postcode": "90552",
    "city": "Grüne Au"
  },
  {
    "postcode": "90552",
    "city": "Himmelgarten"
  },
  {
    "postcode": "90552",
    "city": "Moritzberg"
  },
  {
    "postcode": "90552",
    "city": "Röthenbachtal"
  },
  {
    "postcode": "90552",
    "city": "Zerzabelshofer Forst"
  },
  {
    "postcode": "90552",
    "city": "Laufamholzer Forst"
  },
  {
    "postcode": "90556",
    "city": "Ballersdorf"
  },
  {
    "postcode": "90556",
    "city": "Cadolzburg"
  },
  {
    "postcode": "90556",
    "city": "Deberndorf"
  },
  {
    "postcode": "90556",
    "city": "Egersdorf Mittelfranken"
  },
  {
    "postcode": "90556",
    "city": "Egersdorf"
  },
  {
    "postcode": "90556",
    "city": "Gonnersdorf"
  },
  {
    "postcode": "90556",
    "city": "Greimersdorf"
  },
  {
    "postcode": "90556",
    "city": "Hiltmannsdorf"
  },
  {
    "postcode": "90556",
    "city": "Pleikershof"
  },
  {
    "postcode": "90556",
    "city": "Roßendorf"
  },
  {
    "postcode": "90556",
    "city": "Rütteldorf"
  },
  {
    "postcode": "90556",
    "city": "Seckendorf"
  },
  {
    "postcode": "90556",
    "city": "Seukendorf"
  },
  {
    "postcode": "90556",
    "city": "Steinbach"
  },
  {
    "postcode": "90556",
    "city": "Vogtsreichenbach"
  },
  {
    "postcode": "90556",
    "city": "Wachendorf Mittelfranken"
  },
  {
    "postcode": "90556",
    "city": "Wachendorf"
  },
  {
    "postcode": "90556",
    "city": "Zautendorf"
  },
  {
    "postcode": "90556",
    "city": "Fürth"
  },
  {
    "postcode": "90559",
    "city": "Burgthann"
  },
  {
    "postcode": "90559",
    "city": "Burgthann Bahnhof"
  },
  {
    "postcode": "90559",
    "city": "Dörlbach bei Nürnberg"
  },
  {
    "postcode": "90559",
    "city": "Ezelsdorf"
  },
  {
    "postcode": "90559",
    "city": "Grub Mittelfranken"
  },
  {
    "postcode": "90559",
    "city": "Grub"
  },
  {
    "postcode": "90559",
    "city": "Heinleinshof"
  },
  {
    "postcode": "90559",
    "city": "Mimberg"
  },
  {
    "postcode": "90559",
    "city": "Oberferrieden"
  },
  {
    "postcode": "90559",
    "city": "Pattenhofen"
  },
  {
    "postcode": "90559",
    "city": "Peunting bei Nürnberg"
  },
  {
    "postcode": "90559",
    "city": "Rübleinshof"
  },
  {
    "postcode": "90559",
    "city": "Schwarzenbach bei Nürnberg"
  },
  {
    "postcode": "90559",
    "city": "Unterferrieden"
  },
  {
    "postcode": "90559",
    "city": "Wallersberg"
  },
  {
    "postcode": "90559",
    "city": "Westhaid bei Nürnberg"
  },
  {
    "postcode": "90559",
    "city": "Nürnberger Land"
  },
  {
    "postcode": "90559",
    "city": "Dörlbach"
  },
  {
    "postcode": "90559",
    "city": "Schwarzenbach"
  },
  {
    "postcode": "90559",
    "city": "Großvoggenhof"
  },
  {
    "postcode": "90559",
    "city": "Bachmühle"
  },
  {
    "postcode": "90559",
    "city": "Osterhof"
  },
  {
    "postcode": "90559",
    "city": "Peunting"
  },
  {
    "postcode": "90559",
    "city": "Westhaid"
  },
  {
    "postcode": "90562",
    "city": "Großgeschaidt"
  },
  {
    "postcode": "90562",
    "city": "Heroldsberg"
  },
  {
    "postcode": "90562",
    "city": "Kalchreuth"
  },
  {
    "postcode": "90562",
    "city": "Käswasser"
  },
  {
    "postcode": "90562",
    "city": "Kleingeschaidt"
  },
  {
    "postcode": "90562",
    "city": "Röckenhof"
  },
  {
    "postcode": "90562",
    "city": "Erlangen-Höchstadt"
  },
  {
    "postcode": "90562",
    "city": "Buckenhofer Forst"
  },
  {
    "postcode": "90562",
    "city": "Erlenstegener Forst"
  },
  {
    "postcode": "90562",
    "city": "Forst Tennenlohe"
  },
  {
    "postcode": "90562",
    "city": "Kraftshofer Forst"
  },
  {
    "postcode": "90562",
    "city": "Neunhofer Forst"
  },
  {
    "postcode": "90562",
    "city": "Stettenberg"
  },
  {
    "postcode": "90571",
    "city": "Behringersdorf"
  },
  {
    "postcode": "90571",
    "city": "Schwaig"
  },
  {
    "postcode": "90571",
    "city": "Schwaig bei Nürnberg"
  },
  {
    "postcode": "90571",
    "city": "Nürnberger Land"
  },
  {
    "postcode": "90571",
    "city": "Schwaig b. Nürnberg"
  },
  {
    "postcode": "90574",
    "city": "Buchschwabach"
  },
  {
    "postcode": "90574",
    "city": "Buttendorf"
  },
  {
    "postcode": "90574",
    "city": "Clarsbach"
  },
  {
    "postcode": "90574",
    "city": "Defersdorf"
  },
  {
    "postcode": "90574",
    "city": "Großweismannsdorf"
  },
  {
    "postcode": "90574",
    "city": "Herboldshof"
  },
  {
    "postcode": "90574",
    "city": "Kastenreuth Mittelfranken"
  },
  {
    "postcode": "90574",
    "city": "Kastenreuth"
  },
  {
    "postcode": "90574",
    "city": "Kleinweismannsdorf"
  },
  {
    "postcode": "90574",
    "city": "Neuses"
  },
  {
    "postcode": "90574",
    "city": "Ödenreuth Mittelfranken"
  },
  {
    "postcode": "90574",
    "city": "Ödenreuth"
  },
  {
    "postcode": "90574",
    "city": "Raitersaich"
  },
  {
    "postcode": "90574",
    "city": "Roßtal"
  },
  {
    "postcode": "90574",
    "city": "Stöckach Mittelfranken"
  },
  {
    "postcode": "90574",
    "city": "Stöckach"
  },
  {
    "postcode": "90574",
    "city": "Trettendorf Mittelfranken"
  },
  {
    "postcode": "90574",
    "city": "Trettendorf"
  },
  {
    "postcode": "90574",
    "city": "Weitersdorf Mittelfranken"
  },
  {
    "postcode": "90574",
    "city": "Weitersdorf"
  },
  {
    "postcode": "90574",
    "city": "Fürth"
  },
  {
    "postcode": "90574",
    "city": "Oedenreuth"
  },
  {
    "postcode": "90574",
    "city": "Kernmühle"
  },
  {
    "postcode": "90574",
    "city": "Wimpashof"
  },
  {
    "postcode": "90579",
    "city": "Burggrafenhof"
  },
  {
    "postcode": "90579",
    "city": "Göckershof"
  },
  {
    "postcode": "90579",
    "city": "Hardhof"
  },
  {
    "postcode": "90579",
    "city": "Hausen"
  },
  {
    "postcode": "90579",
    "city": "Heinersdorf"
  },
  {
    "postcode": "90579",
    "city": "Horbach"
  },
  {
    "postcode": "90579",
    "city": "Keidenzell"
  },
  {
    "postcode": "90579",
    "city": "Kirchfembach"
  },
  {
    "postcode": "90579",
    "city": "Klaushof"
  },
  {
    "postcode": "90579",
    "city": "Langenzenn"
  },
  {
    "postcode": "90579",
    "city": "Laubendorf"
  },
  {
    "postcode": "90579",
    "city": "Lohe"
  },
  {
    "postcode": "90579",
    "city": "Stinzendorf"
  },
  {
    "postcode": "90579",
    "city": "Wittinghof"
  },
  {
    "postcode": "90579",
    "city": "Fürth"
  },
  {
    "postcode": "90579",
    "city": "Gauchsmühle"
  },
  {
    "postcode": "90579",
    "city": "Hammerschmiede"
  },
  {
    "postcode": "90579",
    "city": "Ödenhof"
  },
  {
    "postcode": "90584",
    "city": "Allersberg"
  },
  {
    "postcode": "90584",
    "city": "Allersberg Mittelfranken"
  },
  {
    "postcode": "90584",
    "city": "Altenfelden"
  },
  {
    "postcode": "90584",
    "city": "Appelhof"
  },
  {
    "postcode": "90584",
    "city": "Brunnau"
  },
  {
    "postcode": "90584",
    "city": "Ebenried"
  },
  {
    "postcode": "90584",
    "city": "Eismannsdorf"
  },
  {
    "postcode": "90584",
    "city": "Eppersdorf"
  },
  {
    "postcode": "90584",
    "city": "Eulenhof"
  },
  {
    "postcode": "90584",
    "city": "Fischhof"
  },
  {
    "postcode": "90584",
    "city": "Göggelsbuch"
  },
  {
    "postcode": "90584",
    "city": "Guggenmühle"
  },
  {
    "postcode": "90584",
    "city": "Harrhof"
  },
  {
    "postcode": "90584",
    "city": "Heblesricht"
  },
  {
    "postcode": "90584",
    "city": "Lampersdorf"
  },
  {
    "postcode": "90584",
    "city": "Polsdorf"
  },
  {
    "postcode": "90584",
    "city": "Reckenricht"
  },
  {
    "postcode": "90584",
    "city": "Schönbrunn"
  },
  {
    "postcode": "90584",
    "city": "Stockach"
  },
  {
    "postcode": "90584",
    "city": "Uttenhofen"
  },
  {
    "postcode": "90584",
    "city": "Roth"
  },
  {
    "postcode": "90584",
    "city": "Eisbühl"
  },
  {
    "postcode": "90584",
    "city": "Grashof"
  },
  {
    "postcode": "90584",
    "city": "Kronmühle"
  },
  {
    "postcode": "90584",
    "city": "Reckenstetten"
  },
  {
    "postcode": "90584",
    "city": "St. Wolfgang"
  },
  {
    "postcode": "90584",
    "city": "Wagnersmühle"
  },
  {
    "postcode": "90587",
    "city": "Bernbach"
  },
  {
    "postcode": "90587",
    "city": "Kagenhof"
  },
  {
    "postcode": "90587",
    "city": "Kreppendorf"
  },
  {
    "postcode": "90587",
    "city": "Obermichelbach"
  },
  {
    "postcode": "90587",
    "city": "Obermichelbach bei Fürth Bayern"
  },
  {
    "postcode": "90587",
    "city": "Obermichelbach bei Fürth"
  },
  {
    "postcode": "90587",
    "city": "Raindorf"
  },
  {
    "postcode": "90587",
    "city": "Retzelfembach"
  },
  {
    "postcode": "90587",
    "city": "Rothenberg"
  },
  {
    "postcode": "90587",
    "city": "Siegelsdorf"
  },
  {
    "postcode": "90587",
    "city": "Tuchenbach"
  },
  {
    "postcode": "90587",
    "city": "Untermichelbach"
  },
  {
    "postcode": "90587",
    "city": "Veitsbronn"
  },
  {
    "postcode": "90587",
    "city": "Fürth"
  },
  {
    "postcode": "90592",
    "city": "Altenthann Mittelfranken"
  },
  {
    "postcode": "90592",
    "city": "Altenthann"
  },
  {
    "postcode": "90592",
    "city": "Fröschau"
  },
  {
    "postcode": "90592",
    "city": "Oberlindelburg"
  },
  {
    "postcode": "90592",
    "city": "Ochenbruck"
  },
  {
    "postcode": "90592",
    "city": "Pfeifferhütte"
  },
  {
    "postcode": "90592",
    "city": "Rummelsberg"
  },
  {
    "postcode": "90592",
    "city": "Schwarzenbruck"
  },
  {
    "postcode": "90592",
    "city": "Unterlindelburg"
  },
  {
    "postcode": "90592",
    "city": "Nürnberger Land"
  },
  {
    "postcode": "90592",
    "city": "Gsteinach"
  },
  {
    "postcode": "90592",
    "city": "Mauschelhof"
  },
  {
    "postcode": "90592",
    "city": "Wallersberg"
  },
  {
    "postcode": "90596",
    "city": "Furth"
  },
  {
    "postcode": "90596",
    "city": "Harm"
  },
  {
    "postcode": "90596",
    "city": "Leerstetten"
  },
  {
    "postcode": "90596",
    "city": "Mittelhembach Mittelfranken"
  },
  {
    "postcode": "90596",
    "city": "Mittelhembach"
  },
  {
    "postcode": "90596",
    "city": "Schwand bei Nürnberg"
  },
  {
    "postcode": "90596",
    "city": "Schwanstetten"
  },
  {
    "postcode": "90596",
    "city": "Roth"
  },
  {
    "postcode": "90596",
    "city": "Schwand"
  },
  {
    "postcode": "90596",
    "city": "Eichenbühl"
  },
  {
    "postcode": "90596",
    "city": "Hagershof"
  },
  {
    "postcode": "90596",
    "city": "Holzgut"
  },
  {
    "postcode": "90596",
    "city": "Weiherhof"
  },
  {
    "postcode": "90599",
    "city": "Adelmannsdorf Mittelfranken"
  },
  {
    "postcode": "90599",
    "city": "Adelmannsdorf"
  },
  {
    "postcode": "90599",
    "city": "Andorf"
  },
  {
    "postcode": "90599",
    "city": "Dietenhofen"
  },
  {
    "postcode": "90599",
    "city": "Dietenhofen Mittelfranken"
  },
  {
    "postcode": "90599",
    "city": "Dietenholz Mittelfranken"
  },
  {
    "postcode": "90599",
    "city": "Dietenholz"
  },
  {
    "postcode": "90599",
    "city": "Ebersdorf Mittelfranken"
  },
  {
    "postcode": "90599",
    "city": "Ebersdorf"
  },
  {
    "postcode": "90599",
    "city": "Frickendorf"
  },
  {
    "postcode": "90599",
    "city": "Götteldorf"
  },
  {
    "postcode": "90599",
    "city": "Haunoldshofen Mittelfranken"
  },
  {
    "postcode": "90599",
    "city": "Haunoldshofen"
  },
  {
    "postcode": "90599",
    "city": "Herpersdorf"
  },
  {
    "postcode": "90599",
    "city": "Höfen"
  },
  {
    "postcode": "90599",
    "city": "Hörleinsdorf Mittelfranken"
  },
  {
    "postcode": "90599",
    "city": "Hörleinsdorf"
  },
  {
    "postcode": "90599",
    "city": "Kehlmünz Mittelfranken"
  },
  {
    "postcode": "90599",
    "city": "Kehlmünz"
  },
  {
    "postcode": "90599",
    "city": "Kleinhabersdorf Mittelfranken"
  },
  {
    "postcode": "90599",
    "city": "Kleinhabersdorf"
  },
  {
    "postcode": "90599",
    "city": "Kleinhaslach"
  },
  {
    "postcode": "90599",
    "city": "Lentersdorf Mittelfranken"
  },
  {
    "postcode": "90599",
    "city": "Lentersdorf"
  },
  {
    "postcode": "90599",
    "city": "Leonrod Mittelfranken"
  },
  {
    "postcode": "90599",
    "city": "Leonrod"
  },
  {
    "postcode": "90599",
    "city": "Münchzell Mittelfranken"
  },
  {
    "postcode": "90599",
    "city": "Münchzell"
  },
  {
    "postcode": "90599",
    "city": "Neudorf"
  },
  {
    "postcode": "90599",
    "city": "Oberschlauersbach Mittelfranken"
  },
  {
    "postcode": "90599",
    "city": "Oberschlauersbach"
  },
  {
    "postcode": "90599",
    "city": "Rothleiten Mittelfranken"
  },
  {
    "postcode": "90599",
    "city": "Rothleiten"
  },
  {
    "postcode": "90599",
    "city": "Rüdern Mittelfranken"
  },
  {
    "postcode": "90599",
    "city": "Rüdern"
  },
  {
    "postcode": "90599",
    "city": "Seubersdorf"
  },
  {
    "postcode": "90599",
    "city": "Warzfelden Mittelfranken"
  },
  {
    "postcode": "90599",
    "city": "Warzfelden"
  },
  {
    "postcode": "90599",
    "city": "Ansbach"
  },
  {
    "postcode": "90599",
    "city": "Methlach"
  },
  {
    "postcode": "90599",
    "city": "Moosmühle"
  },
  {
    "postcode": "90599",
    "city": "Neudietenholz"
  },
  {
    "postcode": "90599",
    "city": "Stolzmühle"
  },
  {
    "postcode": "90599",
    "city": "Walburgswinden"
  },
  {
    "postcode": "90602",
    "city": "Asbach"
  },
  {
    "postcode": "90602",
    "city": "Birkenlach"
  },
  {
    "postcode": "90602",
    "city": "Oberhembach"
  },
  {
    "postcode": "90602",
    "city": "Pruppach"
  },
  {
    "postcode": "90602",
    "city": "Pyrbaum"
  },
  {
    "postcode": "90602",
    "city": "Rengersricht"
  },
  {
    "postcode": "90602",
    "city": "Schwarzach"
  },
  {
    "postcode": "90602",
    "city": "Seligenporten"
  },
  {
    "postcode": "90602",
    "city": "Neumarkt in der Oberpfalz"
  },
  {
    "postcode": "90602",
    "city": "Dennenlohe"
  },
  {
    "postcode": "90602",
    "city": "Dürnhof"
  },
  {
    "postcode": "90602",
    "city": "Münchsmühle"
  },
  {
    "postcode": "90602",
    "city": "Neuhof"
  },
  {
    "postcode": "90602",
    "city": "Faberhof"
  },
  {
    "postcode": "90602",
    "city": "Straßmühle"
  },
  {
    "postcode": "90607",
    "city": "Ludwigshöhe Mittelfranken"
  },
  {
    "postcode": "90607",
    "city": "Ludwigshöhe"
  },
  {
    "postcode": "90607",
    "city": "Rückersdorf"
  },
  {
    "postcode": "90607",
    "city": "Rückersdorf Mittelfranken"
  },
  {
    "postcode": "90607",
    "city": "Strengenberg Mittelfranken"
  },
  {
    "postcode": "90607",
    "city": "Strengenberg"
  },
  {
    "postcode": "90607",
    "city": "Nürnberger Land"
  },
  {
    "postcode": "90607",
    "city": "Entensee"
  },
  {
    "postcode": "90610",
    "city": "Penzenhofen Kreis Nürnberg"
  },
  {
    "postcode": "90610",
    "city": "Penzenhofen"
  },
  {
    "postcode": "90610",
    "city": "Ungelstetten"
  },
  {
    "postcode": "90610",
    "city": "Winkelhaid"
  },
  {
    "postcode": "90610",
    "city": "Winkelhaid bei Nürnberg Mittelfranken"
  },
  {
    "postcode": "90610",
    "city": "Winkelhaid bei Nürnberg"
  },
  {
    "postcode": "90610",
    "city": "Nürnberger Land"
  },
  {
    "postcode": "90610",
    "city": "Richthausen"
  },
  {
    "postcode": "90613",
    "city": "Bronnenmühle"
  },
  {
    "postcode": "90613",
    "city": "Fernabrünst"
  },
  {
    "postcode": "90613",
    "city": "Großhabersdorf"
  },
  {
    "postcode": "90613",
    "city": "Oberreichenbach"
  },
  {
    "postcode": "90613",
    "city": "Schwaighausen"
  },
  {
    "postcode": "90613",
    "city": "Unterschlauersbach"
  },
  {
    "postcode": "90613",
    "city": "Vincenzenbronn"
  },
  {
    "postcode": "90613",
    "city": "Wendsdorf"
  },
  {
    "postcode": "90613",
    "city": "Fürth"
  },
  {
    "postcode": "90614",
    "city": "Ammerndorf"
  },
  {
    "postcode": "90614",
    "city": "Fürth"
  },
  {
    "postcode": "90616",
    "city": "Adelsdorf"
  },
  {
    "postcode": "90616",
    "city": "Hirschneuses"
  },
  {
    "postcode": "90616",
    "city": "Neuhof an der Zenn"
  },
  {
    "postcode": "90616",
    "city": "Neukatterbach"
  },
  {
    "postcode": "90616",
    "city": "Neuselingsbach an der Zenn"
  },
  {
    "postcode": "90616",
    "city": "Neuziegenrück"
  },
  {
    "postcode": "90616",
    "city": "Oberfeldbrecht an der Zenn"
  },
  {
    "postcode": "90616",
    "city": "Rothenhof"
  },
  {
    "postcode": "90616",
    "city": "Unterfeldbrecht an der Zenn"
  },
  {
    "postcode": "90616",
    "city": "Vockenroth an der Zenn"
  },
  {
    "postcode": "90616",
    "city": "Neustadt an der Aisch-Bad Windsheim"
  },
  {
    "postcode": "90616",
    "city": "Neuhof a.d.Zenn"
  },
  {
    "postcode": "90616",
    "city": "Neuhof"
  },
  {
    "postcode": "90616",
    "city": "Neuselingsbach"
  },
  {
    "postcode": "90616",
    "city": "Dietrichshof"
  },
  {
    "postcode": "90616",
    "city": "Eichenmühle"
  },
  {
    "postcode": "90616",
    "city": "Oberfeldbrecht"
  },
  {
    "postcode": "90616",
    "city": "Straußmühle"
  },
  {
    "postcode": "90616",
    "city": "Unterfeldbrecht"
  },
  {
    "postcode": "90616",
    "city": "Vockenroth"
  },
  {
    "postcode": "90617",
    "city": "Puschendorf"
  },
  {
    "postcode": "90617",
    "city": "Fürth"
  },
  {
    "postcode": "90619",
    "city": "Buch"
  },
  {
    "postcode": "90619",
    "city": "Dagenbach"
  },
  {
    "postcode": "90619",
    "city": "Einersdorf"
  },
  {
    "postcode": "90619",
    "city": "Fröschendorf"
  },
  {
    "postcode": "90619",
    "city": "Hohenroth"
  },
  {
    "postcode": "90619",
    "city": "Merzbach"
  },
  {
    "postcode": "90619",
    "city": "Schußbach"
  },
  {
    "postcode": "90619",
    "city": "Steinbach"
  },
  {
    "postcode": "90619",
    "city": "Stöckach"
  },
  {
    "postcode": "90619",
    "city": "Trautskirchen"
  },
  {
    "postcode": "90619",
    "city": "Neustadt an der Aisch-Bad Windsheim"
  },
  {
    "postcode": "90762",
    "city": "Fürth Bayern"
  },
  {
    "postcode": "90762",
    "city": "Fürth"
  },
  {
    "postcode": "90762",
    "city": "Unterfarrnbach"
  },
  {
    "postcode": "90762",
    "city": "Innenstadt"
  },
  {
    "postcode": "90763",
    "city": "Fürth Bayern"
  },
  {
    "postcode": "90763",
    "city": "Fürth"
  },
  {
    "postcode": "90763",
    "city": "Weikershof"
  },
  {
    "postcode": "90763",
    "city": "Südstadt"
  },
  {
    "postcode": "90765",
    "city": "Bislohe"
  },
  {
    "postcode": "90765",
    "city": "Braunsbach"
  },
  {
    "postcode": "90765",
    "city": "Fürth Bayern"
  },
  {
    "postcode": "90765",
    "city": "Fürth"
  },
  {
    "postcode": "90765",
    "city": "Herboldshof"
  },
  {
    "postcode": "90765",
    "city": "Mannhof"
  },
  {
    "postcode": "90765",
    "city": "Poppenreuth"
  },
  {
    "postcode": "90765",
    "city": "Sack Bayern"
  },
  {
    "postcode": "90765",
    "city": "Sack"
  },
  {
    "postcode": "90765",
    "city": "Stadeln Mittelfranken"
  },
  {
    "postcode": "90765",
    "city": "Stadeln"
  },
  {
    "postcode": "90765",
    "city": "Steinach"
  },
  {
    "postcode": "90765",
    "city": "Nordstadt"
  },
  {
    "postcode": "90765",
    "city": "Ronhof"
  },
  {
    "postcode": "90765",
    "city": "Kronach"
  },
  {
    "postcode": "90765",
    "city": "Espan"
  },
  {
    "postcode": "90766",
    "city": "Burgfarrnbach"
  },
  {
    "postcode": "90766",
    "city": "Fürth Bayern"
  },
  {
    "postcode": "90766",
    "city": "Fürth"
  },
  {
    "postcode": "90766",
    "city": "Unterfarrnbach"
  },
  {
    "postcode": "90766",
    "city": "Hardhöhe"
  },
  {
    "postcode": "90766",
    "city": "Eigenes Heim"
  },
  {
    "postcode": "90766",
    "city": "Weststadt"
  },
  {
    "postcode": "90768",
    "city": "Atzenhof"
  },
  {
    "postcode": "90768",
    "city": "Burgfarrnbach"
  },
  {
    "postcode": "90768",
    "city": "Dambach"
  },
  {
    "postcode": "90768",
    "city": "Flexdorf"
  },
  {
    "postcode": "90768",
    "city": "Fürth Bayern"
  },
  {
    "postcode": "90768",
    "city": "Fürth"
  },
  {
    "postcode": "90768",
    "city": "Oberfürberg Bayern"
  },
  {
    "postcode": "90768",
    "city": "Oberfürberg"
  },
  {
    "postcode": "90768",
    "city": "Ritzmannshof"
  },
  {
    "postcode": "90768",
    "city": "Unterfarrnbach"
  },
  {
    "postcode": "90768",
    "city": "Unterfürberg"
  },
  {
    "postcode": "90768",
    "city": "Vach"
  }
]