[
  {
    "postcode": "38100",
    "city": "Braunschweig"
  },
  {
    "postcode": "38100",
    "city": "Innenstadt"
  },
  {
    "postcode": "38102",
    "city": "Braunschweig"
  },
  {
    "postcode": "38104",
    "city": "Braunschweig"
  },
  {
    "postcode": "38104",
    "city": "Gliesmarode"
  },
  {
    "postcode": "38104",
    "city": "Riddagshausen"
  },
  {
    "postcode": "38104",
    "city": "Schapen Kreis Braunschweig"
  },
  {
    "postcode": "38104",
    "city": "Schapen"
  },
  {
    "postcode": "38104",
    "city": "Volkmarode"
  },
  {
    "postcode": "38106",
    "city": "Braunschweig"
  },
  {
    "postcode": "38108",
    "city": "Braunschweig"
  },
  {
    "postcode": "38108",
    "city": "Dibbesdorf"
  },
  {
    "postcode": "38108",
    "city": "Hondelage"
  },
  {
    "postcode": "38108",
    "city": "Kralenriede"
  },
  {
    "postcode": "38108",
    "city": "Querum"
  },
  {
    "postcode": "38108",
    "city": "Waggum"
  },
  {
    "postcode": "38108",
    "city": "Schuntersiedlung"
  },
  {
    "postcode": "38110",
    "city": "Bevenrode"
  },
  {
    "postcode": "38110",
    "city": "Bienrode"
  },
  {
    "postcode": "38110",
    "city": "Braunschweig"
  },
  {
    "postcode": "38110",
    "city": "Harxbüttel"
  },
  {
    "postcode": "38110",
    "city": "Thune"
  },
  {
    "postcode": "38110",
    "city": "Waggum"
  },
  {
    "postcode": "38110",
    "city": "Wenden Kreis Braunschweig"
  },
  {
    "postcode": "38110",
    "city": "Wenden"
  },
  {
    "postcode": "38112",
    "city": "Braunschweig"
  },
  {
    "postcode": "38112",
    "city": "Rühme"
  },
  {
    "postcode": "38112",
    "city": "Veltenhof"
  },
  {
    "postcode": "38112",
    "city": "Völkenrode"
  },
  {
    "postcode": "38112",
    "city": "Watenbüttel"
  },
  {
    "postcode": "38112",
    "city": "Lincolnsiedlung"
  },
  {
    "postcode": "38112",
    "city": "Vorwerksiedlung"
  },
  {
    "postcode": "38114",
    "city": "Braunschweig"
  },
  {
    "postcode": "38114",
    "city": "Ölper"
  },
  {
    "postcode": "38116",
    "city": "Braunschweig"
  },
  {
    "postcode": "38116",
    "city": "Kanzlerfeld"
  },
  {
    "postcode": "38116",
    "city": "Lamme"
  },
  {
    "postcode": "38116",
    "city": "Lehndorf"
  },
  {
    "postcode": "38118",
    "city": "Braunschweig"
  },
  {
    "postcode": "38120",
    "city": "Braunschweig"
  },
  {
    "postcode": "38120",
    "city": "Timmerlah"
  },
  {
    "postcode": "38120",
    "city": "Weststadt"
  },
  {
    "postcode": "38122",
    "city": "Braunschweig"
  },
  {
    "postcode": "38122",
    "city": "Broitzem"
  },
  {
    "postcode": "38122",
    "city": "Geitelde"
  },
  {
    "postcode": "38122",
    "city": "Rüningen"
  },
  {
    "postcode": "38122",
    "city": "Stiddien"
  },
  {
    "postcode": "38122",
    "city": "Gartenstadt"
  },
  {
    "postcode": "38124",
    "city": "Braunschweig"
  },
  {
    "postcode": "38124",
    "city": "Leiferde bei Braunschweig"
  },
  {
    "postcode": "38124",
    "city": "Melverode"
  },
  {
    "postcode": "38124",
    "city": "Stöckheim bei Braunschweig"
  },
  {
    "postcode": "38124",
    "city": "Stöckheim"
  },
  {
    "postcode": "38124",
    "city": "Leiferde"
  },
  {
    "postcode": "38124",
    "city": "Heidberg"
  },
  {
    "postcode": "38126",
    "city": "Braunschweig"
  },
  {
    "postcode": "38126",
    "city": "Mascherode"
  },
  {
    "postcode": "38126",
    "city": "Rautheim Bahnhof"
  },
  {
    "postcode": "38126",
    "city": "Rautheim"
  },
  {
    "postcode": "38126",
    "city": "Südstadt"
  },
  {
    "postcode": "38126",
    "city": "Lindenbergsiedlung"
  },
  {
    "postcode": "38126",
    "city": "Klein Schöppenstedt"
  },
  {
    "postcode": "38154",
    "city": "Beienrode bei Helmstedt"
  },
  {
    "postcode": "38154",
    "city": "Boimstorf"
  },
  {
    "postcode": "38154",
    "city": "Bornum am Elm"
  },
  {
    "postcode": "38154",
    "city": "Glentorf"
  },
  {
    "postcode": "38154",
    "city": "Groß Steinum"
  },
  {
    "postcode": "38154",
    "city": "Klein Steimke"
  },
  {
    "postcode": "38154",
    "city": "Königslutter"
  },
  {
    "postcode": "38154",
    "city": "Königslutter am Elm"
  },
  {
    "postcode": "38154",
    "city": "Langeleben am Elm"
  },
  {
    "postcode": "38154",
    "city": "Lauingen Kreis Helmstedt"
  },
  {
    "postcode": "38154",
    "city": "Lauingen"
  },
  {
    "postcode": "38154",
    "city": "Lelm"
  },
  {
    "postcode": "38154",
    "city": "Ochsendorf"
  },
  {
    "postcode": "38154",
    "city": "Rhode bei Helmstedt"
  },
  {
    "postcode": "38154",
    "city": "Rieseberg"
  },
  {
    "postcode": "38154",
    "city": "Rotenkamp"
  },
  {
    "postcode": "38154",
    "city": "Rottorf Kreis Helmstedt"
  },
  {
    "postcode": "38154",
    "city": "Rottorf"
  },
  {
    "postcode": "38154",
    "city": "Scheppau"
  },
  {
    "postcode": "38154",
    "city": "Schickelsheim"
  },
  {
    "postcode": "38154",
    "city": "Sunstedt"
  },
  {
    "postcode": "38154",
    "city": "Uhry"
  },
  {
    "postcode": "38154",
    "city": "Helmstedt"
  },
  {
    "postcode": "38154",
    "city": "Brunsleberfeld"
  },
  {
    "postcode": "38154",
    "city": "Groß Rode"
  },
  {
    "postcode": "38154",
    "city": "Tetzelstein"
  },
  {
    "postcode": "38154",
    "city": "Watzumer Häuschen"
  },
  {
    "postcode": "38154",
    "city": "Beienrode"
  },
  {
    "postcode": "38154",
    "city": "Rhode"
  },
  {
    "postcode": "38154",
    "city": "Bornum"
  },
  {
    "postcode": "38154",
    "city": "Klostergut Hagenhof"
  },
  {
    "postcode": "38159",
    "city": "Alvesse Kreis Braunschweig"
  },
  {
    "postcode": "38159",
    "city": "Alvesse"
  },
  {
    "postcode": "38159",
    "city": "Bettmar Kreis Braunschweig"
  },
  {
    "postcode": "38159",
    "city": "Bettmar"
  },
  {
    "postcode": "38159",
    "city": "Bodenstedt"
  },
  {
    "postcode": "38159",
    "city": "Denstorf Kreis Braunschweig"
  },
  {
    "postcode": "38159",
    "city": "Denstorf"
  },
  {
    "postcode": "38159",
    "city": "Fürstenau Kreis Peine"
  },
  {
    "postcode": "38159",
    "city": "Fürstenau"
  },
  {
    "postcode": "38159",
    "city": "Groß Gleidingen"
  },
  {
    "postcode": "38159",
    "city": "Klein Gleidingen Kreis Braunschweig"
  },
  {
    "postcode": "38159",
    "city": "Klein Gleidingen"
  },
  {
    "postcode": "38159",
    "city": "Köchingen"
  },
  {
    "postcode": "38159",
    "city": "Liedingen"
  },
  {
    "postcode": "38159",
    "city": "Sierße"
  },
  {
    "postcode": "38159",
    "city": "Sonnenberg Kreis Braunschweig"
  },
  {
    "postcode": "38159",
    "city": "Sonnenberg"
  },
  {
    "postcode": "38159",
    "city": "Vallstedt"
  },
  {
    "postcode": "38159",
    "city": "Vechelade"
  },
  {
    "postcode": "38159",
    "city": "Vechelde"
  },
  {
    "postcode": "38159",
    "city": "Wahle"
  },
  {
    "postcode": "38159",
    "city": "Wedtlenstedt"
  },
  {
    "postcode": "38159",
    "city": "Wierthe"
  },
  {
    "postcode": "38159",
    "city": "Peine"
  },
  {
    "postcode": "38162",
    "city": "Abbenrode Kreis Braunschweig"
  },
  {
    "postcode": "38162",
    "city": "Abbenrode"
  },
  {
    "postcode": "38162",
    "city": "Cremlingen"
  },
  {
    "postcode": "38162",
    "city": "Destedt"
  },
  {
    "postcode": "38162",
    "city": "Gardessen"
  },
  {
    "postcode": "38162",
    "city": "Hemkenrode"
  },
  {
    "postcode": "38162",
    "city": "Hordorf Kreis Braunschweig"
  },
  {
    "postcode": "38162",
    "city": "Hordorf"
  },
  {
    "postcode": "38162",
    "city": "Klein Schöppenstedt"
  },
  {
    "postcode": "38162",
    "city": "Schandelah"
  },
  {
    "postcode": "38162",
    "city": "Schulenrode"
  },
  {
    "postcode": "38162",
    "city": "Weddel"
  },
  {
    "postcode": "38162",
    "city": "Wolfenbüttel"
  },
  {
    "postcode": "38165",
    "city": "Beienrode Kreis Braunschweig"
  },
  {
    "postcode": "38165",
    "city": "Beienrode"
  },
  {
    "postcode": "38165",
    "city": "Essehof"
  },
  {
    "postcode": "38165",
    "city": "Essenrode"
  },
  {
    "postcode": "38165",
    "city": "Flechtorf Kreis Braunschweig"
  },
  {
    "postcode": "38165",
    "city": "Flechtorf"
  },
  {
    "postcode": "38165",
    "city": "Groß Brunsrode"
  },
  {
    "postcode": "38165",
    "city": "Klein Brunsrode"
  },
  {
    "postcode": "38165",
    "city": "Lehre"
  },
  {
    "postcode": "38165",
    "city": "Wendhausen Kreis Braunschweig"
  },
  {
    "postcode": "38165",
    "city": "Wendhausen"
  },
  {
    "postcode": "38165",
    "city": "Helmstedt"
  },
  {
    "postcode": "38170",
    "city": "Ampleben"
  },
  {
    "postcode": "38170",
    "city": "Bansleben"
  },
  {
    "postcode": "38170",
    "city": "Barnstorf bei Schöningen"
  },
  {
    "postcode": "38170",
    "city": "Berklingen"
  },
  {
    "postcode": "38170",
    "city": "Dahlum"
  },
  {
    "postcode": "38170",
    "city": "Eilum"
  },
  {
    "postcode": "38170",
    "city": "Eitzum bei Schöningen"
  },
  {
    "postcode": "38170",
    "city": "Groß Dahlum"
  },
  {
    "postcode": "38170",
    "city": "Groß Vahlberg"
  },
  {
    "postcode": "38170",
    "city": "Klein Dahlum"
  },
  {
    "postcode": "38170",
    "city": "Klein Vahlberg"
  },
  {
    "postcode": "38170",
    "city": "Kneitlingen"
  },
  {
    "postcode": "38170",
    "city": "Mattierzoll"
  },
  {
    "postcode": "38170",
    "city": "Sambleben"
  },
  {
    "postcode": "38170",
    "city": "Schliestedt"
  },
  {
    "postcode": "38170",
    "city": "Schöppenstedt"
  },
  {
    "postcode": "38170",
    "city": "Uehrde"
  },
  {
    "postcode": "38170",
    "city": "Vahlberg bei Schöppenstedt"
  },
  {
    "postcode": "38170",
    "city": "Warle"
  },
  {
    "postcode": "38170",
    "city": "Watzum"
  },
  {
    "postcode": "38170",
    "city": "Winnigstedt"
  },
  {
    "postcode": "38170",
    "city": "Wolfenbüttel"
  },
  {
    "postcode": "38170",
    "city": "Vahlberg"
  },
  {
    "postcode": "38170",
    "city": "Eitzum"
  },
  {
    "postcode": "38170",
    "city": "Barnstorf"
  },
  {
    "postcode": "38173",
    "city": "Apelnstedt"
  },
  {
    "postcode": "38173",
    "city": "Dettum"
  },
  {
    "postcode": "38173",
    "city": "Erkerode"
  },
  {
    "postcode": "38173",
    "city": "Evessen"
  },
  {
    "postcode": "38173",
    "city": "Gilzum"
  },
  {
    "postcode": "38173",
    "city": "Hachum"
  },
  {
    "postcode": "38173",
    "city": "Hötzum"
  },
  {
    "postcode": "38173",
    "city": "Klein Veltheim Ohe"
  },
  {
    "postcode": "38173",
    "city": "Klein Veltheim"
  },
  {
    "postcode": "38173",
    "city": "Lucklum"
  },
  {
    "postcode": "38173",
    "city": "Mönchevahlberg"
  },
  {
    "postcode": "38173",
    "city": "Niedersickte"
  },
  {
    "postcode": "38173",
    "city": "Obersickte"
  },
  {
    "postcode": "38173",
    "city": "Sickte"
  },
  {
    "postcode": "38173",
    "city": "Veltheim (Ohe)"
  },
  {
    "postcode": "38173",
    "city": "Veltheim"
  },
  {
    "postcode": "38173",
    "city": "Volzum"
  },
  {
    "postcode": "38173",
    "city": "Weferlingen Kreis Wolfenbüttel"
  },
  {
    "postcode": "38173",
    "city": "Weferlingen"
  },
  {
    "postcode": "38173",
    "city": "Wolfenbüttel"
  },
  {
    "postcode": "38173",
    "city": "Reitling"
  },
  {
    "postcode": "38173",
    "city": "Neuerkerode"
  },
  {
    "postcode": "38176",
    "city": "Bortfeld"
  },
  {
    "postcode": "38176",
    "city": "Harvesse"
  },
  {
    "postcode": "38176",
    "city": "Meerdorf bei Peine"
  },
  {
    "postcode": "38176",
    "city": "Neubrück Kreis Braunschweig"
  },
  {
    "postcode": "38176",
    "city": "Neubrück"
  },
  {
    "postcode": "38176",
    "city": "Rüper"
  },
  {
    "postcode": "38176",
    "city": "Sophiental Kreis Braunschweig"
  },
  {
    "postcode": "38176",
    "city": "Sophiental"
  },
  {
    "postcode": "38176",
    "city": "Wendeburg"
  },
  {
    "postcode": "38176",
    "city": "Wense bei Braunschweig"
  },
  {
    "postcode": "38176",
    "city": "Peine"
  },
  {
    "postcode": "38176",
    "city": "Wense"
  },
  {
    "postcode": "38176",
    "city": "Meerdorf"
  },
  {
    "postcode": "38176",
    "city": "Ersehof"
  },
  {
    "postcode": "38179",
    "city": "Groß Schwülper"
  },
  {
    "postcode": "38179",
    "city": "Lagesbüttel"
  },
  {
    "postcode": "38179",
    "city": "Rothemühle"
  },
  {
    "postcode": "38179",
    "city": "Schwülper"
  },
  {
    "postcode": "38179",
    "city": "Walle bei Braunschweig"
  },
  {
    "postcode": "38179",
    "city": "Gifhorn"
  },
  {
    "postcode": "38179",
    "city": "Walle"
  },
  {
    "postcode": "38226",
    "city": "Lebenstedt"
  },
  {
    "postcode": "38226",
    "city": "Salzgitter"
  },
  {
    "postcode": "38228",
    "city": "Bruchmachtersen"
  },
  {
    "postcode": "38228",
    "city": "Lebenstedt"
  },
  {
    "postcode": "38228",
    "city": "Lesse"
  },
  {
    "postcode": "38228",
    "city": "Lichtenberg"
  },
  {
    "postcode": "38228",
    "city": "Osterlinde"
  },
  {
    "postcode": "38228",
    "city": "Reppner"
  },
  {
    "postcode": "38228",
    "city": "Salzgitter"
  },
  {
    "postcode": "38229",
    "city": "Barum"
  },
  {
    "postcode": "38229",
    "city": "Calbecht"
  },
  {
    "postcode": "38229",
    "city": "Engelnstedt"
  },
  {
    "postcode": "38229",
    "city": "Engerode"
  },
  {
    "postcode": "38229",
    "city": "Gebhardshagen"
  },
  {
    "postcode": "38229",
    "city": "Hallendorf"
  },
  {
    "postcode": "38229",
    "city": "Heerte"
  },
  {
    "postcode": "38229",
    "city": "Lebenstedt"
  },
  {
    "postcode": "38229",
    "city": "Salder"
  },
  {
    "postcode": "38229",
    "city": "Salzgitter"
  },
  {
    "postcode": "38239",
    "city": "Barum"
  },
  {
    "postcode": "38239",
    "city": "Beddingen"
  },
  {
    "postcode": "38239",
    "city": "Bleckenstedt"
  },
  {
    "postcode": "38239",
    "city": "Drütte"
  },
  {
    "postcode": "38239",
    "city": "Immendorf"
  },
  {
    "postcode": "38239",
    "city": "Salzgitter"
  },
  {
    "postcode": "38239",
    "city": "Sauingen"
  },
  {
    "postcode": "38239",
    "city": "Thiede"
  },
  {
    "postcode": "38239",
    "city": "Üfingen"
  },
  {
    "postcode": "38239",
    "city": "Watenstedt"
  },
  {
    "postcode": "38259",
    "city": "Bad"
  },
  {
    "postcode": "38259",
    "city": "Beinum"
  },
  {
    "postcode": "38259",
    "city": "Flachstöckheim"
  },
  {
    "postcode": "38259",
    "city": "Gitter"
  },
  {
    "postcode": "38259",
    "city": "Groß Mahner"
  },
  {
    "postcode": "38259",
    "city": "Hohenrode"
  },
  {
    "postcode": "38259",
    "city": "Lobmachtersen"
  },
  {
    "postcode": "38259",
    "city": "Ohlendorf"
  },
  {
    "postcode": "38259",
    "city": "Ringelheim"
  },
  {
    "postcode": "38259",
    "city": "Salzgitter"
  },
  {
    "postcode": "38259",
    "city": "Salzgitter-Bad"
  },
  {
    "postcode": "38268",
    "city": "Barbecke"
  },
  {
    "postcode": "38268",
    "city": "Broistedt"
  },
  {
    "postcode": "38268",
    "city": "Klein Lafferde"
  },
  {
    "postcode": "38268",
    "city": "Lengede"
  },
  {
    "postcode": "38268",
    "city": "Woltwiesche"
  },
  {
    "postcode": "38268",
    "city": "Peine"
  },
  {
    "postcode": "38271",
    "city": "Baddeckenstedt"
  },
  {
    "postcode": "38271",
    "city": "Binder"
  },
  {
    "postcode": "38271",
    "city": "Oelber am weißen Wege"
  },
  {
    "postcode": "38271",
    "city": "Rhene"
  },
  {
    "postcode": "38271",
    "city": "Wartjenstedt"
  },
  {
    "postcode": "38271",
    "city": "Wolfenbüttel"
  },
  {
    "postcode": "38271",
    "city": "Groß Heere"
  },
  {
    "postcode": "38272",
    "city": "Berel"
  },
  {
    "postcode": "38272",
    "city": "Burgdorf"
  },
  {
    "postcode": "38272",
    "city": "Burgdorf bei Salzgitter"
  },
  {
    "postcode": "38272",
    "city": "Hohenassel"
  },
  {
    "postcode": "38272",
    "city": "Nordassel"
  },
  {
    "postcode": "38272",
    "city": "Westerlinde"
  },
  {
    "postcode": "38272",
    "city": "Wolfenbüttel"
  },
  {
    "postcode": "38274",
    "city": "Elbe"
  },
  {
    "postcode": "38274",
    "city": "Groß Elbe"
  },
  {
    "postcode": "38274",
    "city": "Gustedt"
  },
  {
    "postcode": "38274",
    "city": "Klein Elbe"
  },
  {
    "postcode": "38274",
    "city": "Wolfenbüttel"
  },
  {
    "postcode": "38275",
    "city": "Haverlah"
  },
  {
    "postcode": "38275",
    "city": "Steinlah"
  },
  {
    "postcode": "38275",
    "city": "Wolfenbüttel"
  },
  {
    "postcode": "38277",
    "city": "Groß Heere"
  },
  {
    "postcode": "38277",
    "city": "Heere"
  },
  {
    "postcode": "38277",
    "city": "Klein Heere"
  },
  {
    "postcode": "38277",
    "city": "Wolfenbüttel"
  },
  {
    "postcode": "38279",
    "city": "Sehlde bei Salzgitter"
  },
  {
    "postcode": "38279",
    "city": "Wolfenbüttel"
  },
  {
    "postcode": "38279",
    "city": "Sehlde"
  },
  {
    "postcode": "38300",
    "city": "Linden Kreis Wolfenbüttel"
  },
  {
    "postcode": "38300",
    "city": "Linden"
  },
  {
    "postcode": "38300",
    "city": "Wendessen"
  },
  {
    "postcode": "38300",
    "city": "Wolfenbüttel Niedersachsen"
  },
  {
    "postcode": "38300",
    "city": "Wolfenbüttel"
  },
  {
    "postcode": "38300",
    "city": "Stadtgebiet"
  },
  {
    "postcode": "38300",
    "city": "Juliusstadt"
  },
  {
    "postcode": "38302",
    "city": "Ahlum Niedersachsen"
  },
  {
    "postcode": "38302",
    "city": "Ahlum"
  },
  {
    "postcode": "38302",
    "city": "Atzum"
  },
  {
    "postcode": "38302",
    "city": "Salzdahlum"
  },
  {
    "postcode": "38302",
    "city": "Wolfenbüttel Niedersachsen"
  },
  {
    "postcode": "38302",
    "city": "Wolfenbüttel"
  },
  {
    "postcode": "38302",
    "city": "Stadtgebiet"
  },
  {
    "postcode": "38302",
    "city": "Juliusstadt"
  },
  {
    "postcode": "38304",
    "city": "Adersheim"
  },
  {
    "postcode": "38304",
    "city": "Auguststadt"
  },
  {
    "postcode": "38304",
    "city": "Fümmelse"
  },
  {
    "postcode": "38304",
    "city": "Groß Stöckheim"
  },
  {
    "postcode": "38304",
    "city": "Halchter"
  },
  {
    "postcode": "38304",
    "city": "Leinde"
  },
  {
    "postcode": "38304",
    "city": "Wolfenbüttel Niedersachsen"
  },
  {
    "postcode": "38304",
    "city": "Wolfenbüttel"
  },
  {
    "postcode": "38304",
    "city": "Stadtgebiet"
  },
  {
    "postcode": "38312",
    "city": "Achim"
  },
  {
    "postcode": "38312",
    "city": "Achim Kreis Wolfenbüttel"
  },
  {
    "postcode": "38312",
    "city": "Bornum Kreis Wolfenbüttel"
  },
  {
    "postcode": "38312",
    "city": "Bornum"
  },
  {
    "postcode": "38312",
    "city": "Börßum"
  },
  {
    "postcode": "38312",
    "city": "Cramme"
  },
  {
    "postcode": "38312",
    "city": "Dorstadt"
  },
  {
    "postcode": "38312",
    "city": "Flöthe"
  },
  {
    "postcode": "38312",
    "city": "Groß Flöthe"
  },
  {
    "postcode": "38312",
    "city": "Heiningen bei Wolfenbüttel"
  },
  {
    "postcode": "38312",
    "city": "Kalme"
  },
  {
    "postcode": "38312",
    "city": "Klein Flöthe"
  },
  {
    "postcode": "38312",
    "city": "Ohrum"
  },
  {
    "postcode": "38312",
    "city": "Seinstedt"
  },
  {
    "postcode": "38312",
    "city": "Wolfenbüttel"
  },
  {
    "postcode": "38312",
    "city": "Heiningen"
  },
  {
    "postcode": "38315",
    "city": "Beuchte"
  },
  {
    "postcode": "38315",
    "city": "Gielde"
  },
  {
    "postcode": "38315",
    "city": "Hornburg Kreis Wolfenbüttel"
  },
  {
    "postcode": "38315",
    "city": "Hornburg"
  },
  {
    "postcode": "38315",
    "city": "Isingerode"
  },
  {
    "postcode": "38315",
    "city": "Schladen"
  },
  {
    "postcode": "38315",
    "city": "Wehre"
  },
  {
    "postcode": "38315",
    "city": "Werlaburgdorf"
  },
  {
    "postcode": "38315",
    "city": "Wolfenbüttel"
  },
  {
    "postcode": "38315",
    "city": "Schladen-Werla"
  },
  {
    "postcode": "38319",
    "city": "Groß Biewende"
  },
  {
    "postcode": "38319",
    "city": "Klein Biewende"
  },
  {
    "postcode": "38319",
    "city": "Remlingen"
  },
  {
    "postcode": "38319",
    "city": "Remlingen Kreis Wolfenbüttel"
  },
  {
    "postcode": "38319",
    "city": "Wolfenbüttel"
  },
  {
    "postcode": "38319",
    "city": "Remlingen-Semmenstedt"
  },
  {
    "postcode": "38321",
    "city": "Denkte"
  },
  {
    "postcode": "38321",
    "city": "Groß Denkte"
  },
  {
    "postcode": "38321",
    "city": "Klein Denkte"
  },
  {
    "postcode": "38321",
    "city": "Neindorf Kreis Wolfenbüttel"
  },
  {
    "postcode": "38321",
    "city": "Neindorf"
  },
  {
    "postcode": "38321",
    "city": "Sottmar"
  },
  {
    "postcode": "38321",
    "city": "Wolfenbüttel"
  },
  {
    "postcode": "38322",
    "city": "Hedeper"
  },
  {
    "postcode": "38322",
    "city": "Wetzleben"
  },
  {
    "postcode": "38322",
    "city": "Wolfenbüttel"
  },
  {
    "postcode": "38324",
    "city": "Hedwigsburg"
  },
  {
    "postcode": "38324",
    "city": "Kissenbrück"
  },
  {
    "postcode": "38324",
    "city": "Wolfenbüttel"
  },
  {
    "postcode": "38325",
    "city": "Roklum"
  },
  {
    "postcode": "38325",
    "city": "Wolfenbüttel"
  },
  {
    "postcode": "38327",
    "city": "Semmenstedt"
  },
  {
    "postcode": "38327",
    "city": "Timmern"
  },
  {
    "postcode": "38327",
    "city": "Wolfenbüttel"
  },
  {
    "postcode": "38329",
    "city": "Wittmar"
  },
  {
    "postcode": "38329",
    "city": "Wolfenbüttel"
  },
  {
    "postcode": "38350",
    "city": "Barmke"
  },
  {
    "postcode": "38350",
    "city": "Emmerstedt"
  },
  {
    "postcode": "38350",
    "city": "Gemeinde Wolsdorf"
  },
  {
    "postcode": "38350",
    "city": "Helmstedt"
  },
  {
    "postcode": "38350",
    "city": "Kißleberfeld"
  },
  {
    "postcode": "38364",
    "city": "Esbeck Kreis Helmstedt"
  },
  {
    "postcode": "38364",
    "city": "Esbeck"
  },
  {
    "postcode": "38364",
    "city": "Hoiersdorf"
  },
  {
    "postcode": "38364",
    "city": "Schöningen"
  },
  {
    "postcode": "38364",
    "city": "Helmstedt"
  },
  {
    "postcode": "38368",
    "city": "Ahmstorf"
  },
  {
    "postcode": "38368",
    "city": "Grasleben"
  },
  {
    "postcode": "38368",
    "city": "Mariental"
  },
  {
    "postcode": "38368",
    "city": "Mariental bei Helmstedt"
  },
  {
    "postcode": "38368",
    "city": "Querenhorst"
  },
  {
    "postcode": "38368",
    "city": "Rennau"
  },
  {
    "postcode": "38368",
    "city": "Rottorf"
  },
  {
    "postcode": "38368",
    "city": "Helmstedt"
  },
  {
    "postcode": "38368",
    "city": "Heidwinkel"
  },
  {
    "postcode": "38372",
    "city": "Büddenstedt"
  },
  {
    "postcode": "38372",
    "city": "Offleben"
  },
  {
    "postcode": "38372",
    "city": "Reinsdorf Kreis Helmstedt"
  },
  {
    "postcode": "38372",
    "city": "Reinsdorf"
  },
  {
    "postcode": "38372",
    "city": "Helmstedt"
  },
  {
    "postcode": "38373",
    "city": "Frellstedt"
  },
  {
    "postcode": "38373",
    "city": "Süpplingen Kreis Helmstedt"
  },
  {
    "postcode": "38373",
    "city": "Süpplingen"
  },
  {
    "postcode": "38373",
    "city": "Helmstedt"
  },
  {
    "postcode": "38375",
    "city": "Räbke"
  },
  {
    "postcode": "38375",
    "city": "Helmstedt"
  },
  {
    "postcode": "38376",
    "city": "Süpplingenburg"
  },
  {
    "postcode": "38376",
    "city": "Helmstedt"
  },
  {
    "postcode": "38378",
    "city": "Warberg Kreis Helmstedt"
  },
  {
    "postcode": "38378",
    "city": "Warberg"
  },
  {
    "postcode": "38378",
    "city": "Helmstedt"
  },
  {
    "postcode": "38378",
    "city": "Kißleberfeld"
  },
  {
    "postcode": "38379",
    "city": "Wolsdorf Kreis Helmstedt"
  },
  {
    "postcode": "38379",
    "city": "Wolsdorf"
  },
  {
    "postcode": "38379",
    "city": "Helmstedt"
  },
  {
    "postcode": "38381",
    "city": "Jerxheim"
  },
  {
    "postcode": "38381",
    "city": "Helmstedt"
  },
  {
    "postcode": "38382",
    "city": "Beierstedt"
  },
  {
    "postcode": "38382",
    "city": "Helmstedt"
  },
  {
    "postcode": "38384",
    "city": "Gevensleben"
  },
  {
    "postcode": "38384",
    "city": "Watenstedt"
  },
  {
    "postcode": "38384",
    "city": "Helmstedt"
  },
  {
    "postcode": "38385",
    "city": "Ingeleben"
  },
  {
    "postcode": "38385",
    "city": "Helmstedt"
  },
  {
    "postcode": "38387",
    "city": "Söllingen Niedersachsen"
  },
  {
    "postcode": "38387",
    "city": "Söllingen"
  },
  {
    "postcode": "38387",
    "city": "Helmstedt"
  },
  {
    "postcode": "38387",
    "city": "Twieflingen"
  },
  {
    "postcode": "38387",
    "city": "Ingeleben"
  },
  {
    "postcode": "38387",
    "city": "Dobbeln"
  },
  {
    "postcode": "38387",
    "city": "Wobeck"
  },
  {
    "postcode": "38388",
    "city": "Dobbeln"
  },
  {
    "postcode": "38388",
    "city": "Twieflingen"
  },
  {
    "postcode": "38388",
    "city": "Wobeck"
  },
  {
    "postcode": "38388",
    "city": "Helmstedt"
  },
  {
    "postcode": "38440",
    "city": "Wolfsburg"
  },
  {
    "postcode": "38440",
    "city": "Hageberg"
  },
  {
    "postcode": "38440",
    "city": "Klieversberg"
  },
  {
    "postcode": "38440",
    "city": "Rothenfelde"
  },
  {
    "postcode": "38440",
    "city": "Wohltberg"
  },
  {
    "postcode": "38440",
    "city": "Laagberg"
  },
  {
    "postcode": "38440",
    "city": "Köhlerberg"
  },
  {
    "postcode": "38440",
    "city": "Schillerteich"
  },
  {
    "postcode": "38440",
    "city": "Eichelkamp"
  },
  {
    "postcode": "38440",
    "city": "Innenstadt"
  },
  {
    "postcode": "38440",
    "city": "Hohenstein"
  },
  {
    "postcode": "38442",
    "city": "Ehmen Niedersachsen"
  },
  {
    "postcode": "38442",
    "city": "Ehmen"
  },
  {
    "postcode": "38442",
    "city": "Fallersleben"
  },
  {
    "postcode": "38442",
    "city": "Mörse"
  },
  {
    "postcode": "38442",
    "city": "Sandkamp"
  },
  {
    "postcode": "38442",
    "city": "Sülfeld Kreis Gifhorn"
  },
  {
    "postcode": "38442",
    "city": "Sülfeld"
  },
  {
    "postcode": "38442",
    "city": "Wolfsburg"
  },
  {
    "postcode": "38444",
    "city": "Detmerode"
  },
  {
    "postcode": "38444",
    "city": "Hattorf bei Wolfsburg"
  },
  {
    "postcode": "38444",
    "city": "Heiligendorf"
  },
  {
    "postcode": "38444",
    "city": "Rabenberg"
  },
  {
    "postcode": "38444",
    "city": "Wolfsburg"
  },
  {
    "postcode": "38444",
    "city": "Hattorf"
  },
  {
    "postcode": "38444",
    "city": "Westhagen"
  },
  {
    "postcode": "38446",
    "city": "Almke"
  },
  {
    "postcode": "38446",
    "city": "Barnstorf bei Vorsfelde"
  },
  {
    "postcode": "38446",
    "city": "Hehlingen"
  },
  {
    "postcode": "38446",
    "city": "Heßlingen"
  },
  {
    "postcode": "38446",
    "city": "Neindorf bei Helmstedt"
  },
  {
    "postcode": "38446",
    "city": "Neuhaus bei Vorsfelde"
  },
  {
    "postcode": "38446",
    "city": "Nordsteimke"
  },
  {
    "postcode": "38446",
    "city": "Reislingen"
  },
  {
    "postcode": "38446",
    "city": "Waldhof bei Vorsfelde"
  },
  {
    "postcode": "38446",
    "city": "Wolfsburg"
  },
  {
    "postcode": "38446",
    "city": "Neindorf"
  },
  {
    "postcode": "38446",
    "city": "Steimker Berg"
  },
  {
    "postcode": "38446",
    "city": "Neuhaus"
  },
  {
    "postcode": "38446",
    "city": "Barnstorf"
  },
  {
    "postcode": "38446",
    "city": "Hellwinkel"
  },
  {
    "postcode": "38446",
    "city": "Waldhof"
  },
  {
    "postcode": "38448",
    "city": "Alt Wolfsburg"
  },
  {
    "postcode": "38448",
    "city": "Brackstedt"
  },
  {
    "postcode": "38448",
    "city": "Kästorf bei Wolfsburg"
  },
  {
    "postcode": "38448",
    "city": "Velstove"
  },
  {
    "postcode": "38448",
    "city": "Vorsfelde"
  },
  {
    "postcode": "38448",
    "city": "Warmenau"
  },
  {
    "postcode": "38448",
    "city": "Wendschott"
  },
  {
    "postcode": "38448",
    "city": "Wolfsburg"
  },
  {
    "postcode": "38448",
    "city": "Allerpark"
  },
  {
    "postcode": "38448",
    "city": "Teichbreite"
  },
  {
    "postcode": "38448",
    "city": "Kästorf"
  },
  {
    "postcode": "38448",
    "city": "Tiergartenbreite"
  },
  {
    "postcode": "38448",
    "city": "Kreuzheide"
  },
  {
    "postcode": "38448",
    "city": "Fallersleben"
  },
  {
    "postcode": "38458",
    "city": "Meinkot"
  },
  {
    "postcode": "38458",
    "city": "Velpke"
  },
  {
    "postcode": "38458",
    "city": "Velpke Niedersachsen"
  },
  {
    "postcode": "38458",
    "city": "Wahrstedt"
  },
  {
    "postcode": "38458",
    "city": "Helmstedt"
  },
  {
    "postcode": "38459",
    "city": "Bahrdorf"
  },
  {
    "postcode": "38459",
    "city": "Bahrdorf Niedersachsen"
  },
  {
    "postcode": "38459",
    "city": "Mackendorf"
  },
  {
    "postcode": "38459",
    "city": "Rickensdorf"
  },
  {
    "postcode": "38459",
    "city": "Saalsdorf"
  },
  {
    "postcode": "38459",
    "city": "Helmstedt"
  },
  {
    "postcode": "38461",
    "city": "Danndorf Niedersachsen"
  },
  {
    "postcode": "38461",
    "city": "Danndorf"
  },
  {
    "postcode": "38461",
    "city": "Helmstedt"
  },
  {
    "postcode": "38462",
    "city": "Grafhorst"
  },
  {
    "postcode": "38462",
    "city": "Helmstedt"
  },
  {
    "postcode": "38464",
    "city": "Groß Sisbeck"
  },
  {
    "postcode": "38464",
    "city": "Groß Twülpstedt"
  },
  {
    "postcode": "38464",
    "city": "Klein Sisbeck"
  },
  {
    "postcode": "38464",
    "city": "Klein Twülpstedt"
  },
  {
    "postcode": "38464",
    "city": "Papenrode"
  },
  {
    "postcode": "38464",
    "city": "Rümmer"
  },
  {
    "postcode": "38464",
    "city": "Volkmarsdorf"
  },
  {
    "postcode": "38464",
    "city": "Helmstedt"
  },
  {
    "postcode": "38465",
    "city": "Altendorf Niedersachsen"
  },
  {
    "postcode": "38465",
    "city": "Altendorf"
  },
  {
    "postcode": "38465",
    "city": "Benitz bei Wittingen Niedersachsen"
  },
  {
    "postcode": "38465",
    "city": "Benitz bei Wittingen"
  },
  {
    "postcode": "38465",
    "city": "Brome"
  },
  {
    "postcode": "38465",
    "city": "Brome Niedersachsen"
  },
  {
    "postcode": "38465",
    "city": "Wiswedel Niedersachsen"
  },
  {
    "postcode": "38465",
    "city": "Wiswedel"
  },
  {
    "postcode": "38465",
    "city": "Zicherie"
  },
  {
    "postcode": "38465",
    "city": "Gifhorn"
  },
  {
    "postcode": "38465",
    "city": "Benitz"
  },
  {
    "postcode": "38467",
    "city": "Bergfeld Niedersachsen"
  },
  {
    "postcode": "38467",
    "city": "Bergfeld"
  },
  {
    "postcode": "38467",
    "city": "Gifhorn"
  },
  {
    "postcode": "38468",
    "city": "Ehra"
  },
  {
    "postcode": "38468",
    "city": "Ehra-Lessien"
  },
  {
    "postcode": "38468",
    "city": "Lessien"
  },
  {
    "postcode": "38468",
    "city": "Gifhorn"
  },
  {
    "postcode": "38470",
    "city": "Ahnebeck"
  },
  {
    "postcode": "38470",
    "city": "Croya"
  },
  {
    "postcode": "38470",
    "city": "Kaiserwinkel"
  },
  {
    "postcode": "38470",
    "city": "Parsau"
  },
  {
    "postcode": "38470",
    "city": "Gifhorn"
  },
  {
    "postcode": "38471",
    "city": "Brechtorf"
  },
  {
    "postcode": "38471",
    "city": "Eischott"
  },
  {
    "postcode": "38471",
    "city": "Rühen"
  },
  {
    "postcode": "38471",
    "city": "Gifhorn"
  },
  {
    "postcode": "38473",
    "city": "Hoitlingen"
  },
  {
    "postcode": "38473",
    "city": "Tiddische"
  },
  {
    "postcode": "38473",
    "city": "Gifhorn"
  },
  {
    "postcode": "38474",
    "city": "Tülau"
  },
  {
    "postcode": "38474",
    "city": "Tülau-Fahrenhorst"
  },
  {
    "postcode": "38474",
    "city": "Voitze"
  },
  {
    "postcode": "38474",
    "city": "Gifhorn"
  },
  {
    "postcode": "38476",
    "city": "Barwedel"
  },
  {
    "postcode": "38476",
    "city": "Gifhorn"
  },
  {
    "postcode": "38477",
    "city": "Jembke"
  },
  {
    "postcode": "38477",
    "city": "Gifhorn"
  },
  {
    "postcode": "38479",
    "city": "Tappenbeck"
  },
  {
    "postcode": "38479",
    "city": "Gifhorn"
  },
  {
    "postcode": "38486",
    "city": "Bandau"
  },
  {
    "postcode": "38486",
    "city": "Dönitz"
  },
  {
    "postcode": "38486",
    "city": "Flecken Apenburg"
  },
  {
    "postcode": "38486",
    "city": "Immekath"
  },
  {
    "postcode": "38486",
    "city": "Jahrstedt"
  },
  {
    "postcode": "38486",
    "city": "Klötze"
  },
  {
    "postcode": "38486",
    "city": "Kunrau"
  },
  {
    "postcode": "38486",
    "city": "Kusey"
  },
  {
    "postcode": "38486",
    "city": "Neuendorf Altmark"
  },
  {
    "postcode": "38486",
    "city": "Neuendorf"
  },
  {
    "postcode": "38486",
    "city": "Neuferchau"
  },
  {
    "postcode": "38486",
    "city": "Ristedt Altmark"
  },
  {
    "postcode": "38486",
    "city": "Ristedt"
  },
  {
    "postcode": "38486",
    "city": "Steimke Altmark"
  },
  {
    "postcode": "38486",
    "city": "Steimke"
  },
  {
    "postcode": "38486",
    "city": "Wenze"
  },
  {
    "postcode": "38486",
    "city": "Altmarkkreis Salzwedel"
  },
  {
    "postcode": "38486",
    "city": "Apenburg-Winterfeld"
  },
  {
    "postcode": "38486",
    "city": "Winterfeld"
  },
  {
    "postcode": "38486",
    "city": "Apenburg"
  },
  {
    "postcode": "38486",
    "city": "Apenburg-Winterfeld Flecken"
  },
  {
    "postcode": "38486",
    "city": "Recklingen"
  },
  {
    "postcode": "38486",
    "city": "Baars"
  },
  {
    "postcode": "38486",
    "city": "Altensalzwedel"
  },
  {
    "postcode": "38486",
    "city": "Hagen"
  },
  {
    "postcode": "38486",
    "city": "Saalfeld"
  },
  {
    "postcode": "38486",
    "city": "Klein Apenburg"
  },
  {
    "postcode": "38486",
    "city": "Quadendambeck"
  },
  {
    "postcode": "38486",
    "city": "Rittleben"
  },
  {
    "postcode": "38486",
    "city": "Quarnebeck"
  },
  {
    "postcode": "38486",
    "city": "Altferchau"
  },
  {
    "postcode": "38486",
    "city": "Böckwitz"
  },
  {
    "postcode": "38486",
    "city": "Lockstedt"
  },
  {
    "postcode": "38486",
    "city": "Hohenhenningen"
  },
  {
    "postcode": "38486",
    "city": "Trippigleben"
  },
  {
    "postcode": "38486",
    "city": "Röwitz"
  },
  {
    "postcode": "38486",
    "city": "Neu-Ristedt"
  },
  {
    "postcode": "38486",
    "city": "Schwiesau"
  },
  {
    "postcode": "38486",
    "city": "Nesenitz"
  },
  {
    "postcode": "38486",
    "city": "Rappin"
  },
  {
    "postcode": "38486",
    "city": "Schwarzendamm"
  },
  {
    "postcode": "38486",
    "city": "Siedentramm"
  },
  {
    "postcode": "38489",
    "city": "Ahlum Altmark"
  },
  {
    "postcode": "38489",
    "city": "Ahlum"
  },
  {
    "postcode": "38489",
    "city": "Beetzendorf"
  },
  {
    "postcode": "38489",
    "city": "Hanum"
  },
  {
    "postcode": "38489",
    "city": "Hohentramm"
  },
  {
    "postcode": "38489",
    "city": "Jeeben"
  },
  {
    "postcode": "38489",
    "city": "Jübar"
  },
  {
    "postcode": "38489",
    "city": "Lüdelsen"
  },
  {
    "postcode": "38489",
    "city": "Mellin"
  },
  {
    "postcode": "38489",
    "city": "Nettgau"
  },
  {
    "postcode": "38489",
    "city": "Rohrberg Altmark"
  },
  {
    "postcode": "38489",
    "city": "Rohrberg"
  },
  {
    "postcode": "38489",
    "city": "Tangeln"
  },
  {
    "postcode": "38489",
    "city": "Altmarkkreis Salzwedel"
  },
  {
    "postcode": "38489",
    "city": "Bandau"
  },
  {
    "postcode": "38489",
    "city": "Neumühle"
  },
  {
    "postcode": "38489",
    "city": "Audorf"
  },
  {
    "postcode": "38489",
    "city": "Darnebeck"
  },
  {
    "postcode": "38489",
    "city": "Käcklitz"
  },
  {
    "postcode": "38489",
    "city": "Siedengrieben"
  },
  {
    "postcode": "38489",
    "city": "Groß Gischau"
  },
  {
    "postcode": "38489",
    "city": "Klein Gischau"
  },
  {
    "postcode": "38489",
    "city": "Peertz"
  },
  {
    "postcode": "38489",
    "city": "Poppau"
  },
  {
    "postcode": "38489",
    "city": "Stapen"
  },
  {
    "postcode": "38489",
    "city": "Wohlgemuth"
  },
  {
    "postcode": "38489",
    "city": "Bornsen"
  },
  {
    "postcode": "38489",
    "city": "Gladdenstedt"
  },
  {
    "postcode": "38489",
    "city": "Drebenstedt"
  },
  {
    "postcode": "38489",
    "city": "Wendischbrome"
  },
  {
    "postcode": "38489",
    "city": "Bierstedt"
  },
  {
    "postcode": "38489",
    "city": "Groß Bierstedt"
  },
  {
    "postcode": "38489",
    "city": "Nieps"
  },
  {
    "postcode": "38489",
    "city": "Stöckheim"
  },
  {
    "postcode": "38518",
    "city": "Gamsen Kreis Gifhorn"
  },
  {
    "postcode": "38518",
    "city": "Gamsen"
  },
  {
    "postcode": "38518",
    "city": "Gifhorn"
  },
  {
    "postcode": "38518",
    "city": "Kästorf Kreis Gifhorn"
  },
  {
    "postcode": "38518",
    "city": "Kästorf"
  },
  {
    "postcode": "38518",
    "city": "Neubokel"
  },
  {
    "postcode": "38518",
    "city": "Wilsche"
  },
  {
    "postcode": "38518",
    "city": "Winkel Kreis Gifhorn"
  },
  {
    "postcode": "38518",
    "city": "Winkel"
  },
  {
    "postcode": "38518",
    "city": "Stadt Müden Aller"
  },
  {
    "postcode": "38524",
    "city": "Dannenbüttel"
  },
  {
    "postcode": "38524",
    "city": "Grußendorf"
  },
  {
    "postcode": "38524",
    "city": "Neudorf-Platendorf"
  },
  {
    "postcode": "38524",
    "city": "Sassenburg"
  },
  {
    "postcode": "38524",
    "city": "Stüde"
  },
  {
    "postcode": "38524",
    "city": "Triangel"
  },
  {
    "postcode": "38524",
    "city": "Westerbeck Kreis Gifhorn"
  },
  {
    "postcode": "38524",
    "city": "Westerbeck"
  },
  {
    "postcode": "38524",
    "city": "Gifhorn"
  },
  {
    "postcode": "38524",
    "city": "Bernsteinsee"
  },
  {
    "postcode": "38524",
    "city": "Erholungszentrum Bernsteinsee"
  },
  {
    "postcode": "38527",
    "city": "Abbesbüttel"
  },
  {
    "postcode": "38527",
    "city": "Bechtsbüttel"
  },
  {
    "postcode": "38527",
    "city": "Grassel"
  },
  {
    "postcode": "38527",
    "city": "Gravenhorst"
  },
  {
    "postcode": "38527",
    "city": "Martinsbüttel"
  },
  {
    "postcode": "38527",
    "city": "Meine"
  },
  {
    "postcode": "38527",
    "city": "Ohnhorst"
  },
  {
    "postcode": "38527",
    "city": "Wedelheine"
  },
  {
    "postcode": "38527",
    "city": "Wedesbüttel"
  },
  {
    "postcode": "38527",
    "city": "Gifhorn"
  },
  {
    "postcode": "38528",
    "city": "Adenbüttel"
  },
  {
    "postcode": "38528",
    "city": "Rolfsbüttel"
  },
  {
    "postcode": "38528",
    "city": "Warxbüttel"
  },
  {
    "postcode": "38528",
    "city": "Gifhorn"
  },
  {
    "postcode": "38528",
    "city": "Heseberg"
  },
  {
    "postcode": "38530",
    "city": "Didderse"
  },
  {
    "postcode": "38530",
    "city": "Gifhorn"
  },
  {
    "postcode": "38531",
    "city": "Rötgesbüttel"
  },
  {
    "postcode": "38531",
    "city": "Gifhorn"
  },
  {
    "postcode": "38533",
    "city": "Eickhorst Kreis Gifhorn"
  },
  {
    "postcode": "38533",
    "city": "Eickhorst"
  },
  {
    "postcode": "38533",
    "city": "Rethen Kreis Gifhorn"
  },
  {
    "postcode": "38533",
    "city": "Rethen"
  },
  {
    "postcode": "38533",
    "city": "Vordorf"
  },
  {
    "postcode": "38533",
    "city": "Vordorf Kreis Gifhorn"
  },
  {
    "postcode": "38533",
    "city": "Gifhorn"
  },
  {
    "postcode": "38536",
    "city": "Ahnsen Kreis Gifhorn"
  },
  {
    "postcode": "38536",
    "city": "Ahnsen"
  },
  {
    "postcode": "38536",
    "city": "Böckelse"
  },
  {
    "postcode": "38536",
    "city": "Höfen Kreis Gifhorn"
  },
  {
    "postcode": "38536",
    "city": "Höfen"
  },
  {
    "postcode": "38536",
    "city": "Meinersen"
  },
  {
    "postcode": "38536",
    "city": "Ohof"
  },
  {
    "postcode": "38536",
    "city": "Päse Kreis Gifhorn"
  },
  {
    "postcode": "38536",
    "city": "Päse"
  },
  {
    "postcode": "38536",
    "city": "Seershausen"
  },
  {
    "postcode": "38536",
    "city": "Warmse"
  },
  {
    "postcode": "38536",
    "city": "Gifhorn"
  },
  {
    "postcode": "38536",
    "city": "Hardesse"
  },
  {
    "postcode": "38539",
    "city": "Ettenbüttel"
  },
  {
    "postcode": "38539",
    "city": "Flettmar"
  },
  {
    "postcode": "38539",
    "city": "Gerstenbüttel Aller"
  },
  {
    "postcode": "38539",
    "city": "Gerstenbüttel"
  },
  {
    "postcode": "38539",
    "city": "Gilde"
  },
  {
    "postcode": "38539",
    "city": "Hahnenhorn bei Celle"
  },
  {
    "postcode": "38539",
    "city": "Müden"
  },
  {
    "postcode": "38539",
    "city": "Müden (Aller)"
  },
  {
    "postcode": "38539",
    "city": "Gifhorn"
  },
  {
    "postcode": "38539",
    "city": "Hahnenhorn"
  },
  {
    "postcode": "38542",
    "city": "Dalldorf Kreis Gifhorn"
  },
  {
    "postcode": "38542",
    "city": "Dalldorf"
  },
  {
    "postcode": "38542",
    "city": "Leiferde"
  },
  {
    "postcode": "38542",
    "city": "Leiferde Kreis Gifhorn"
  },
  {
    "postcode": "38542",
    "city": "Gifhorn"
  },
  {
    "postcode": "38543",
    "city": "Hillerse"
  },
  {
    "postcode": "38543",
    "city": "Hillerse Kreis Gifhorn"
  },
  {
    "postcode": "38543",
    "city": "Volkse Kreis Gifhorn"
  },
  {
    "postcode": "38543",
    "city": "Volkse"
  },
  {
    "postcode": "38543",
    "city": "Gifhorn"
  },
  {
    "postcode": "38547",
    "city": "Allenbüttel"
  },
  {
    "postcode": "38547",
    "city": "Calberlah"
  },
  {
    "postcode": "38547",
    "city": "Edesbüttel"
  },
  {
    "postcode": "38547",
    "city": "Jelpke"
  },
  {
    "postcode": "38547",
    "city": "Wettmershagen"
  },
  {
    "postcode": "38547",
    "city": "Gifhorn"
  },
  {
    "postcode": "38547",
    "city": "Allerbüttel"
  },
  {
    "postcode": "38550",
    "city": "Isenbüttel"
  },
  {
    "postcode": "38550",
    "city": "Gifhorn"
  },
  {
    "postcode": "38550",
    "city": "Tankumsee"
  },
  {
    "postcode": "38551",
    "city": "Ausbüttel"
  },
  {
    "postcode": "38551",
    "city": "Ribbesbüttel"
  },
  {
    "postcode": "38551",
    "city": "Vollbüttel"
  },
  {
    "postcode": "38551",
    "city": "Gifhorn"
  },
  {
    "postcode": "38551",
    "city": "Gemeinde Adenbüttel"
  },
  {
    "postcode": "38553",
    "city": "Wasbüttel"
  },
  {
    "postcode": "38553",
    "city": "Gifhorn"
  },
  {
    "postcode": "38554",
    "city": "Weyhausen Kreis Gifhorn"
  },
  {
    "postcode": "38554",
    "city": "Weyhausen"
  },
  {
    "postcode": "38554",
    "city": "Gifhorn"
  },
  {
    "postcode": "38556",
    "city": "Bokensdorf"
  },
  {
    "postcode": "38556",
    "city": "Gifhorn"
  },
  {
    "postcode": "38557",
    "city": "Osloß"
  },
  {
    "postcode": "38557",
    "city": "Gifhorn"
  },
  {
    "postcode": "38559",
    "city": "Wagenhoff"
  },
  {
    "postcode": "38559",
    "city": "Gifhorn"
  },
  {
    "postcode": "38640",
    "city": "Altstadt"
  },
  {
    "postcode": "38640",
    "city": "Goslar"
  },
  {
    "postcode": "38640",
    "city": "Oker"
  },
  {
    "postcode": "38640",
    "city": "Harz (LK Goslar) (Gemfr. Gebiet)"
  },
  {
    "postcode": "38640",
    "city": "Sudmerberg"
  },
  {
    "postcode": "38640",
    "city": "Steinberg"
  },
  {
    "postcode": "38640",
    "city": "Georgenberg"
  },
  {
    "postcode": "38640",
    "city": "Rammelsberg"
  },
  {
    "postcode": "38640",
    "city": "Rosenberg"
  },
  {
    "postcode": "38640",
    "city": "Harz"
  },
  {
    "postcode": "38642",
    "city": "Goslar"
  },
  {
    "postcode": "38642",
    "city": "Ohlhof"
  },
  {
    "postcode": "38642",
    "city": "Oker"
  },
  {
    "postcode": "38642",
    "city": "Jürgenohl"
  },
  {
    "postcode": "38642",
    "city": "Sudmerberg"
  },
  {
    "postcode": "38644",
    "city": "Altstadt"
  },
  {
    "postcode": "38644",
    "city": "Goslar"
  },
  {
    "postcode": "38644",
    "city": "Hahndorf"
  },
  {
    "postcode": "38644",
    "city": "Hahnenklee-Bockswiese"
  },
  {
    "postcode": "38644",
    "city": "Jerstedt"
  },
  {
    "postcode": "38644",
    "city": "Ohlhof"
  },
  {
    "postcode": "38644",
    "city": "Oker"
  },
  {
    "postcode": "38644",
    "city": "Baßgeige"
  },
  {
    "postcode": "38644",
    "city": "Hahnenklee"
  },
  {
    "postcode": "38644",
    "city": "Steinberg"
  },
  {
    "postcode": "38644",
    "city": "Rammelsberg"
  },
  {
    "postcode": "38644",
    "city": "Grauhof"
  },
  {
    "postcode": "38644",
    "city": "Jürgenohl"
  },
  {
    "postcode": "38644",
    "city": "Haus Hessenkopf"
  },
  {
    "postcode": "38644",
    "city": "Sudmerberg"
  },
  {
    "postcode": "38644",
    "city": "Georgenberg"
  },
  {
    "postcode": "38644",
    "city": "Kramerswinkel"
  },
  {
    "postcode": "38644",
    "city": "Gem Bad Harzburg"
  },
  {
    "postcode": "38667",
    "city": "Bad Harzburg"
  },
  {
    "postcode": "38667",
    "city": "Bettingerode"
  },
  {
    "postcode": "38667",
    "city": "Bündheim / Schlewecke"
  },
  {
    "postcode": "38667",
    "city": "Bündheim"
  },
  {
    "postcode": "38667",
    "city": "Eckertal"
  },
  {
    "postcode": "38667",
    "city": "Göttingerode"
  },
  {
    "postcode": "38667",
    "city": "Harlingerode"
  },
  {
    "postcode": "38667",
    "city": "Torfhaus Harz"
  },
  {
    "postcode": "38667",
    "city": "Torfhaus"
  },
  {
    "postcode": "38667",
    "city": "Westerode Nordharz"
  },
  {
    "postcode": "38667",
    "city": "Westerode"
  },
  {
    "postcode": "38667",
    "city": "Goslar"
  },
  {
    "postcode": "38667",
    "city": "Schlewecke"
  },
  {
    "postcode": "38678",
    "city": "Buntenbock"
  },
  {
    "postcode": "38678",
    "city": "Clausthal-Zellerfeld"
  },
  {
    "postcode": "38678",
    "city": "Goslar"
  },
  {
    "postcode": "38678",
    "city": "Mittelschulenberg"
  },
  {
    "postcode": "38685",
    "city": "Astfeld"
  },
  {
    "postcode": "38685",
    "city": "Bredelem"
  },
  {
    "postcode": "38685",
    "city": "Langelsheim"
  },
  {
    "postcode": "38685",
    "city": "Lautenthal"
  },
  {
    "postcode": "38685",
    "city": "Wolfshagen im Harz"
  },
  {
    "postcode": "38685",
    "city": "Goslar"
  },
  {
    "postcode": "38685",
    "city": "Wolfshagen"
  },
  {
    "postcode": "38690",
    "city": "Immenrode Kreis Goslar"
  },
  {
    "postcode": "38690",
    "city": "Immenrode"
  },
  {
    "postcode": "38690",
    "city": "Lengde Kreis Goslar"
  },
  {
    "postcode": "38690",
    "city": "Lengde"
  },
  {
    "postcode": "38690",
    "city": "Lochtum"
  },
  {
    "postcode": "38690",
    "city": "Vienenburg"
  },
  {
    "postcode": "38690",
    "city": "Weddingen"
  },
  {
    "postcode": "38690",
    "city": "Wiedelah"
  },
  {
    "postcode": "38690",
    "city": "Goslar"
  },
  {
    "postcode": "38690",
    "city": "Wöltingerode"
  },
  {
    "postcode": "38690",
    "city": "Am Harlyberge"
  },
  {
    "postcode": "38700",
    "city": "Braunlage"
  },
  {
    "postcode": "38700",
    "city": "Hohegeiß"
  },
  {
    "postcode": "38700",
    "city": "Goslar"
  },
  {
    "postcode": "38700",
    "city": "St. Andreasberg"
  },
  {
    "postcode": "38700",
    "city": "Königskrug"
  },
  {
    "postcode": "38704",
    "city": "Dörnten"
  },
  {
    "postcode": "38704",
    "city": "Groß Döhren"
  },
  {
    "postcode": "38704",
    "city": "Heimerode"
  },
  {
    "postcode": "38704",
    "city": "Heißum"
  },
  {
    "postcode": "38704",
    "city": "Klein Döhren"
  },
  {
    "postcode": "38704",
    "city": "Klein Mahner"
  },
  {
    "postcode": "38704",
    "city": "Liebenburg"
  },
  {
    "postcode": "38704",
    "city": "Neuenkirchen Kreis Goslar"
  },
  {
    "postcode": "38704",
    "city": "Neuenkirchen"
  },
  {
    "postcode": "38704",
    "city": "Ostharingen"
  },
  {
    "postcode": "38704",
    "city": "Othfresen"
  },
  {
    "postcode": "38704",
    "city": "Upen"
  },
  {
    "postcode": "38704",
    "city": "Goslar"
  },
  {
    "postcode": "38707",
    "city": "Altenau Harz"
  },
  {
    "postcode": "38707",
    "city": "Altenau"
  },
  {
    "postcode": "38707",
    "city": "Schulenberg im Oberharz"
  },
  {
    "postcode": "38707",
    "city": "Goslar"
  },
  {
    "postcode": "38707",
    "city": "Clausthal-Zellerfeld"
  },
  {
    "postcode": "38707",
    "city": "Schulenberg"
  },
  {
    "postcode": "38707",
    "city": "Gemkenthal"
  },
  {
    "postcode": "38707",
    "city": "Polstertal"
  },
  {
    "postcode": "38707",
    "city": "Torfhaus"
  },
  {
    "postcode": "38707",
    "city": "Romkerhalle"
  },
  {
    "postcode": "38709",
    "city": "Wildemann"
  },
  {
    "postcode": "38709",
    "city": "Goslar"
  },
  {
    "postcode": "38723",
    "city": "Bilderlahe"
  },
  {
    "postcode": "38723",
    "city": "Bornhausen"
  },
  {
    "postcode": "38723",
    "city": "Engelade"
  },
  {
    "postcode": "38723",
    "city": "Försterkamp"
  },
  {
    "postcode": "38723",
    "city": "Herrhausen"
  },
  {
    "postcode": "38723",
    "city": "Ildehausen"
  },
  {
    "postcode": "38723",
    "city": "Kirchberg Harz"
  },
  {
    "postcode": "38723",
    "city": "Kirchberg"
  },
  {
    "postcode": "38723",
    "city": "Mechtshausen"
  },
  {
    "postcode": "38723",
    "city": "Münchehof Harz"
  },
  {
    "postcode": "38723",
    "city": "Münchehof"
  },
  {
    "postcode": "38723",
    "city": "Seesen"
  },
  {
    "postcode": "38723",
    "city": "Seesen Harz"
  },
  {
    "postcode": "38723",
    "city": "Goslar"
  },
  {
    "postcode": "38723",
    "city": "Rhüden"
  },
  {
    "postcode": "38729",
    "city": "Alt Wallmoden"
  },
  {
    "postcode": "38729",
    "city": "Bodenstein bei Seesen"
  },
  {
    "postcode": "38729",
    "city": "Hahausen"
  },
  {
    "postcode": "38729",
    "city": "Lutter"
  },
  {
    "postcode": "38729",
    "city": "Lutter am Barenberge"
  },
  {
    "postcode": "38729",
    "city": "Nauen Niedersachsen"
  },
  {
    "postcode": "38729",
    "city": "Nauen"
  },
  {
    "postcode": "38729",
    "city": "Neuekrug"
  },
  {
    "postcode": "38729",
    "city": "Neuwallmoden"
  },
  {
    "postcode": "38729",
    "city": "Ostlutter"
  },
  {
    "postcode": "38729",
    "city": "Wallmoden"
  },
  {
    "postcode": "38729",
    "city": "Goslar"
  },
  {
    "postcode": "38729",
    "city": "Bodenstein"
  },
  {
    "postcode": "38820",
    "city": "Halberstadt"
  },
  {
    "postcode": "38820",
    "city": "Harz"
  },
  {
    "postcode": "38820",
    "city": "Sargstedter Siedlung"
  },
  {
    "postcode": "38820",
    "city": "Wehrstedt"
  },
  {
    "postcode": "38820",
    "city": "Klussiedlung"
  },
  {
    "postcode": "38820",
    "city": "Veltensmühle"
  },
  {
    "postcode": "38822",
    "city": "Aspenstedt"
  },
  {
    "postcode": "38822",
    "city": "Athenstedt"
  },
  {
    "postcode": "38822",
    "city": "Groß Quenstedt"
  },
  {
    "postcode": "38822",
    "city": "Sargstedt"
  },
  {
    "postcode": "38822",
    "city": "Schachdorf Ströbeck"
  },
  {
    "postcode": "38822",
    "city": "Harz"
  },
  {
    "postcode": "38822",
    "city": "Emersleben"
  },
  {
    "postcode": "38822",
    "city": "Halberstadt"
  },
  {
    "postcode": "38822",
    "city": "Klein Quenstedt"
  },
  {
    "postcode": "38822",
    "city": "Mahndorf"
  },
  {
    "postcode": "38822",
    "city": "Neu Runstedt"
  },
  {
    "postcode": "38822",
    "city": "Veltensmühle"
  },
  {
    "postcode": "38822",
    "city": "Vorwerk Emersleben"
  },
  {
    "postcode": "38828",
    "city": "Wegeleben"
  },
  {
    "postcode": "38828",
    "city": "Harz"
  },
  {
    "postcode": "38828",
    "city": "Rodersdorf"
  },
  {
    "postcode": "38828",
    "city": "Adersleben"
  },
  {
    "postcode": "38828",
    "city": "Deesdorf"
  },
  {
    "postcode": "38829",
    "city": "Harsleben"
  },
  {
    "postcode": "38829",
    "city": "Harz"
  },
  {
    "postcode": "38835",
    "city": "Aue-Fallstein"
  },
  {
    "postcode": "38835",
    "city": "Berßel"
  },
  {
    "postcode": "38835",
    "city": "Bühne bei Halberstadt"
  },
  {
    "postcode": "38835",
    "city": "Deersheim"
  },
  {
    "postcode": "38835",
    "city": "Hessen bei Halberstadt"
  },
  {
    "postcode": "38835",
    "city": "Lüttgenrode"
  },
  {
    "postcode": "38835",
    "city": "Osterode am Fallstein"
  },
  {
    "postcode": "38835",
    "city": "Osterwieck"
  },
  {
    "postcode": "38835",
    "city": "Rhoden bei Osterwieck"
  },
  {
    "postcode": "38835",
    "city": "Schauen"
  },
  {
    "postcode": "38835",
    "city": "Veltheim bei Halberstadt"
  },
  {
    "postcode": "38835",
    "city": "Wülperode"
  },
  {
    "postcode": "38835",
    "city": "Zilly"
  },
  {
    "postcode": "38835",
    "city": "Harz"
  },
  {
    "postcode": "38835",
    "city": "Bühne"
  },
  {
    "postcode": "38835",
    "city": "Hessen"
  },
  {
    "postcode": "38835",
    "city": "Osterode"
  },
  {
    "postcode": "38835",
    "city": "Rhoden"
  },
  {
    "postcode": "38835",
    "city": "Veltheim"
  },
  {
    "postcode": "38835",
    "city": "Rimbeck"
  },
  {
    "postcode": "38835",
    "city": "Hoppenstedt"
  },
  {
    "postcode": "38835",
    "city": "Hessenbau"
  },
  {
    "postcode": "38835",
    "city": "Stötterlingen"
  },
  {
    "postcode": "38835",
    "city": "Aumühle"
  },
  {
    "postcode": "38835",
    "city": "Suderode"
  },
  {
    "postcode": "38835",
    "city": "Hessendamm"
  },
  {
    "postcode": "38835",
    "city": "Steinmühle"
  },
  {
    "postcode": "38835",
    "city": "Göddeckenrode"
  },
  {
    "postcode": "38835",
    "city": "Sonnenburg"
  },
  {
    "postcode": "38836",
    "city": "Anderbeck"
  },
  {
    "postcode": "38836",
    "city": "Aue-Fallstein"
  },
  {
    "postcode": "38836",
    "city": "Badersleben"
  },
  {
    "postcode": "38836",
    "city": "Dardesheim"
  },
  {
    "postcode": "38836",
    "city": "Dedeleben"
  },
  {
    "postcode": "38836",
    "city": "Huy"
  },
  {
    "postcode": "38836",
    "city": "Huy-Neinstedt"
  },
  {
    "postcode": "38836",
    "city": "Pabstorf"
  },
  {
    "postcode": "38836",
    "city": "Rohrsheim"
  },
  {
    "postcode": "38836",
    "city": "Vogelsdorf bei Halberstadt"
  },
  {
    "postcode": "38836",
    "city": "Harz"
  },
  {
    "postcode": "38836",
    "city": "Osterwieck"
  },
  {
    "postcode": "38836",
    "city": "Vogelsdorf"
  },
  {
    "postcode": "38836",
    "city": "Wilhelmshall"
  },
  {
    "postcode": "38838",
    "city": "Aderstedt bei Halberstadt"
  },
  {
    "postcode": "38838",
    "city": "Dingelstedt am Huy"
  },
  {
    "postcode": "38838",
    "city": "Eilenstedt"
  },
  {
    "postcode": "38838",
    "city": "Eilsdorf bei Halberstadt"
  },
  {
    "postcode": "38838",
    "city": "Huy"
  },
  {
    "postcode": "38838",
    "city": "Schlanstedt"
  },
  {
    "postcode": "38838",
    "city": "Harz"
  },
  {
    "postcode": "38838",
    "city": "Aderstedt"
  },
  {
    "postcode": "38838",
    "city": "Dingelstedt"
  },
  {
    "postcode": "38838",
    "city": "Eilsdorf"
  },
  {
    "postcode": "38838",
    "city": "Röderhof"
  },
  {
    "postcode": "38838",
    "city": "Arbketal"
  },
  {
    "postcode": "38838",
    "city": "Gambrinus"
  },
  {
    "postcode": "38838",
    "city": "Huysburg"
  },
  {
    "postcode": "38838",
    "city": "Mönchhai"
  },
  {
    "postcode": "38838",
    "city": "Haus-Nienburg"
  },
  {
    "postcode": "38855",
    "city": "Danstedt"
  },
  {
    "postcode": "38855",
    "city": "Heudeber"
  },
  {
    "postcode": "38855",
    "city": "Reddeber"
  },
  {
    "postcode": "38855",
    "city": "Schmatzfeld"
  },
  {
    "postcode": "38855",
    "city": "Wernigerode"
  },
  {
    "postcode": "38855",
    "city": "Harz"
  },
  {
    "postcode": "38855",
    "city": "Nordharz"
  },
  {
    "postcode": "38855",
    "city": "Silstedt"
  },
  {
    "postcode": "38855",
    "city": "Benzingerode"
  },
  {
    "postcode": "38855",
    "city": "Minsleben"
  },
  {
    "postcode": "38871",
    "city": "Abbenrode bei Wernigerode"
  },
  {
    "postcode": "38871",
    "city": "Darlingerode"
  },
  {
    "postcode": "38871",
    "city": "Drübeck"
  },
  {
    "postcode": "38871",
    "city": "Ilsenburg (Harz)"
  },
  {
    "postcode": "38871",
    "city": "Ilsenburg"
  },
  {
    "postcode": "38871",
    "city": "Langeln Harz"
  },
  {
    "postcode": "38871",
    "city": "Langeln"
  },
  {
    "postcode": "38871",
    "city": "Stapelburg"
  },
  {
    "postcode": "38871",
    "city": "Veckenstedt"
  },
  {
    "postcode": "38871",
    "city": "Wasserleben"
  },
  {
    "postcode": "38871",
    "city": "Harz"
  },
  {
    "postcode": "38871",
    "city": "Abbenrode"
  },
  {
    "postcode": "38871",
    "city": "Nordharz"
  },
  {
    "postcode": "38871",
    "city": "Lerchenfeld"
  },
  {
    "postcode": "38875",
    "city": "Elbingerode (Harz)"
  },
  {
    "postcode": "38875",
    "city": "Elbingerode"
  },
  {
    "postcode": "38875",
    "city": "Elend Harz"
  },
  {
    "postcode": "38875",
    "city": "Elend"
  },
  {
    "postcode": "38875",
    "city": "Königshütte (Harz)"
  },
  {
    "postcode": "38875",
    "city": "Königshütte"
  },
  {
    "postcode": "38875",
    "city": "Sorge Harz"
  },
  {
    "postcode": "38875",
    "city": "Sorge"
  },
  {
    "postcode": "38875",
    "city": "Tanne Harz"
  },
  {
    "postcode": "38875",
    "city": "Tanne"
  },
  {
    "postcode": "38875",
    "city": "Harz"
  },
  {
    "postcode": "38875",
    "city": "Drei Annen Hohne"
  },
  {
    "postcode": "38875",
    "city": "Oberharz am Brocken"
  },
  {
    "postcode": "38875",
    "city": "Wernigerode"
  },
  {
    "postcode": "38877",
    "city": "Benneckenstein (Harz)"
  },
  {
    "postcode": "38877",
    "city": "Benneckenstein"
  },
  {
    "postcode": "38877",
    "city": "Harz"
  },
  {
    "postcode": "38877",
    "city": "Oberharz am Brocken"
  },
  {
    "postcode": "38879",
    "city": "Schierke am Brocken"
  },
  {
    "postcode": "38879",
    "city": "Harz"
  },
  {
    "postcode": "38879",
    "city": "Schierke"
  },
  {
    "postcode": "38879",
    "city": "Wernigerode"
  },
  {
    "postcode": "38889",
    "city": "Altenbrak"
  },
  {
    "postcode": "38889",
    "city": "Blankenburg (Harz)"
  },
  {
    "postcode": "38889",
    "city": "Blankenburg"
  },
  {
    "postcode": "38889",
    "city": "Cattenstedt"
  },
  {
    "postcode": "38889",
    "city": "Elbingerode (Harz)"
  },
  {
    "postcode": "38889",
    "city": "Elbingerode"
  },
  {
    "postcode": "38889",
    "city": "Heimburg"
  },
  {
    "postcode": "38889",
    "city": "Hüttenrode bei Blankenburg Harz"
  },
  {
    "postcode": "38889",
    "city": "Hüttenrode bei Blankenburg"
  },
  {
    "postcode": "38889",
    "city": "Rübeland bei Blankenburg Harz"
  },
  {
    "postcode": "38889",
    "city": "Rübeland bei Blankenburg"
  },
  {
    "postcode": "38889",
    "city": "Treseburg"
  },
  {
    "postcode": "38889",
    "city": "Wienrode"
  },
  {
    "postcode": "38889",
    "city": "Harz"
  },
  {
    "postcode": "38889",
    "city": "Hüttenrode"
  },
  {
    "postcode": "38889",
    "city": "Oberharz am Brocken"
  },
  {
    "postcode": "38889",
    "city": "Rübeland"
  },
  {
    "postcode": "38889",
    "city": "Oesig"
  },
  {
    "postcode": "38889",
    "city": "Börnecke"
  },
  {
    "postcode": "38889",
    "city": "Gehren"
  },
  {
    "postcode": "38889",
    "city": "Michaelstein"
  },
  {
    "postcode": "38889",
    "city": "Helsungen"
  },
  {
    "postcode": "38889",
    "city": "Gemeinde Timmenrode"
  },
  {
    "postcode": "38889",
    "city": "Pfeifenkrug"
  },
  {
    "postcode": "38889",
    "city": "Susenburg"
  },
  {
    "postcode": "38889",
    "city": "Neuwerk"
  },
  {
    "postcode": "38889",
    "city": "Kalte Tal"
  },
  {
    "postcode": "38895",
    "city": "Derenburg"
  },
  {
    "postcode": "38895",
    "city": "Langenstein Harz"
  },
  {
    "postcode": "38895",
    "city": "Langenstein"
  },
  {
    "postcode": "38895",
    "city": "Harz"
  },
  {
    "postcode": "38895",
    "city": "Halberstadt"
  },
  {
    "postcode": "38895",
    "city": "Böhnshausen"
  },
  {
    "postcode": "38895",
    "city": "Blankenburg (Harz)"
  },
  {
    "postcode": "38895",
    "city": "Wilhelmshöhe"
  },
  {
    "postcode": "38895",
    "city": "Blankenburg"
  },
  {
    "postcode": "38899",
    "city": "Hasselfelde"
  },
  {
    "postcode": "38899",
    "city": "Stiege"
  },
  {
    "postcode": "38899",
    "city": "Trautenstein"
  },
  {
    "postcode": "38899",
    "city": "Harz"
  },
  {
    "postcode": "38899",
    "city": "Oberharz am Brocken"
  },
  {
    "postcode": "38899",
    "city": "Albrechtshaus"
  },
  {
    "postcode": "38899",
    "city": "Grüntal"
  }
]