[
  {
    "postcode": "1307",
    "city": "Blasewitz"
  },
  {
    "postcode": "1307",
    "city": "Dresden"
  },
  {
    "postcode": "1307",
    "city": "Gorbitz"
  },
  {
    "postcode": "1307",
    "city": "Johannstadt"
  },
  {
    "postcode": "1307",
    "city": "Johannstadt-Nord"
  },
  {
    "postcode": "1307",
    "city": "Johannstadt-Süd"
  },
  {
    "postcode": "1307",
    "city": "Stetzsch"
  },
  {
    "postcode": "1307",
    "city": "Striesen-Süd"
  },
  {
    "postcode": "1307",
    "city": "Striesen-West"
  },
  {
    "postcode": "1307",
    "city": "Altstadt"
  },
  {
    "postcode": "1307",
    "city": "Pirnaische Vorstadt"
  },
  {
    "postcode": "1307",
    "city": "Seevorstadt-Ost/Großer Garten"
  },
  {
    "postcode": "1307",
    "city": "Seevorstadt-Ost"
  },
  {
    "postcode": "1309",
    "city": "Blasewitz"
  },
  {
    "postcode": "1309",
    "city": "Dresden"
  },
  {
    "postcode": "1309",
    "city": "Gorbitz"
  },
  {
    "postcode": "1309",
    "city": "Gruna"
  },
  {
    "postcode": "1309",
    "city": "Johannstadt"
  },
  {
    "postcode": "1309",
    "city": "Stetzsch"
  },
  {
    "postcode": "1309",
    "city": "Striesen-Ost"
  },
  {
    "postcode": "1309",
    "city": "Striesen-Süd"
  },
  {
    "postcode": "1309",
    "city": "Striesen-West"
  },
  {
    "postcode": "1309",
    "city": "Altstadt"
  },
  {
    "postcode": "1309",
    "city": "Seevorstadt-Ost/Großer Garten"
  },
  {
    "postcode": "1309",
    "city": "Seevorstadt-Ost"
  },
  {
    "postcode": "1324",
    "city": "Dresden"
  },
  {
    "postcode": "1324",
    "city": "Gorbitz"
  },
  {
    "postcode": "1324",
    "city": "Johannstadt"
  },
  {
    "postcode": "1324",
    "city": "Stetzsch"
  },
  {
    "postcode": "1324",
    "city": "Weißer Hirsch"
  },
  {
    "postcode": "1324",
    "city": "Bühlau/Weißer Hirsch"
  },
  {
    "postcode": "1324",
    "city": "Loschwitz/Wachwitz"
  },
  {
    "postcode": "1324",
    "city": "Dresdener Heide"
  },
  {
    "postcode": "1324",
    "city": "Bühlau"
  },
  {
    "postcode": "1324",
    "city": "Loschwitz"
  },
  {
    "postcode": "1326",
    "city": "Dresden"
  },
  {
    "postcode": "1326",
    "city": "Gorbitz"
  },
  {
    "postcode": "1326",
    "city": "Johannstadt"
  },
  {
    "postcode": "1326",
    "city": "Stetzsch"
  },
  {
    "postcode": "1326",
    "city": "Loschwitz/Wachwitz"
  },
  {
    "postcode": "1326",
    "city": "Bühlau/Weißer Hirsch"
  },
  {
    "postcode": "1326",
    "city": "Hosterwitz/Pillnitz"
  },
  {
    "postcode": "1326",
    "city": "Rockau"
  },
  {
    "postcode": "1326",
    "city": "Helfenberg"
  },
  {
    "postcode": "1326",
    "city": "Pappritz"
  },
  {
    "postcode": "1326",
    "city": "Pillnitz"
  },
  {
    "postcode": "1326",
    "city": "Loschwitz"
  },
  {
    "postcode": "1326",
    "city": "Bühlau"
  },
  {
    "postcode": "1326",
    "city": "Hosterwitz"
  },
  {
    "postcode": "1328",
    "city": "Dresden"
  },
  {
    "postcode": "1328",
    "city": "Gorbitz"
  },
  {
    "postcode": "1328",
    "city": "Johannstadt"
  },
  {
    "postcode": "1328",
    "city": "Stetzsch"
  },
  {
    "postcode": "1328",
    "city": "Pappritz"
  },
  {
    "postcode": "1328",
    "city": "Gönnsdorf"
  },
  {
    "postcode": "1328",
    "city": "Schönfeld"
  },
  {
    "postcode": "1328",
    "city": "Cunnersdorf"
  },
  {
    "postcode": "1328",
    "city": "Rossendorf"
  },
  {
    "postcode": "1328",
    "city": "Weißig"
  },
  {
    "postcode": "1328",
    "city": "Rockau"
  },
  {
    "postcode": "1328",
    "city": "Eschdorf"
  },
  {
    "postcode": "1328",
    "city": "Malschendorf"
  },
  {
    "postcode": "1328",
    "city": "Helfenberg"
  },
  {
    "postcode": "1328",
    "city": "Schullwitz"
  },
  {
    "postcode": "1328",
    "city": "Zaschendorf"
  },
  {
    "postcode": "1328",
    "city": "Borsberg"
  },
  {
    "postcode": "1328",
    "city": "Eichbusch"
  },
  {
    "postcode": "1328",
    "city": "Reitzendorf"
  },
  {
    "postcode": "13047",
    "city": "Reinickendorf"
  },
  {
    "postcode": "13051",
    "city": "Berlin"
  },
  {
    "postcode": "13051",
    "city": "Lichtenberg"
  },
  {
    "postcode": "13051",
    "city": "Malchow"
  },
  {
    "postcode": "13051",
    "city": "Neu-Hohenschönhausen"
  },
  {
    "postcode": "13051",
    "city": "Pankow"
  },
  {
    "postcode": "13051",
    "city": "Stadtrandsiedlung Malchow"
  },
  {
    "postcode": "13051",
    "city": "Wartenberg"
  },
  {
    "postcode": "13051",
    "city": "KGA Wiesenhöhe"
  },
  {
    "postcode": "13051",
    "city": "Alt-Hohenschönhausen"
  },
  {
    "postcode": "13051",
    "city": "Blankenburg"
  },
  {
    "postcode": "13051",
    "city": "Hohenschönhausen"
  },
  {
    "postcode": "13051",
    "city": "Margaretenhöhe"
  },
  {
    "postcode": "13053",
    "city": "Alt-Hohenschönhausen"
  },
  {
    "postcode": "13053",
    "city": "Berlin"
  },
  {
    "postcode": "13053",
    "city": "Lichtenberg"
  },
  {
    "postcode": "13053",
    "city": "Neu-Hohenschönhausen"
  },
  {
    "postcode": "13053",
    "city": "KGA Land in Sonne"
  },
  {
    "postcode": "13053",
    "city": "Biesdorf"
  },
  {
    "postcode": "13053",
    "city": "Hohenschönhausen"
  },
  {
    "postcode": "13053",
    "city": "Weißensee"
  },
  {
    "postcode": "13055",
    "city": "Alt-Hohenschönhausen"
  },
  {
    "postcode": "13055",
    "city": "Berlin"
  },
  {
    "postcode": "13055",
    "city": "Lichtenberg"
  },
  {
    "postcode": "13057",
    "city": "Berlin"
  },
  {
    "postcode": "13057",
    "city": "Falkenberg"
  },
  {
    "postcode": "13057",
    "city": "Lichtenberg"
  },
  {
    "postcode": "13057",
    "city": "Neu-Hohenschönhausen"
  },
  {
    "postcode": "13059",
    "city": "Berlin"
  },
  {
    "postcode": "13059",
    "city": "Lichtenberg"
  },
  {
    "postcode": "13059",
    "city": "Neu-Hohenschönhausen"
  },
  {
    "postcode": "13059",
    "city": "Wartenberg"
  },
  {
    "postcode": "13059",
    "city": "KGA Falkenhöhe Nord"
  },
  {
    "postcode": "13086",
    "city": "Berlin"
  },
  {
    "postcode": "13086",
    "city": "Pankow"
  },
  {
    "postcode": "13086",
    "city": "Weißensee"
  },
  {
    "postcode": "13088",
    "city": "Berlin"
  },
  {
    "postcode": "13088",
    "city": "Pankow"
  },
  {
    "postcode": "13088",
    "city": "Weißensee"
  },
  {
    "postcode": "13088",
    "city": "Stadtrandsiedlung Malchow"
  },
  {
    "postcode": "13088",
    "city": "KGA Märchenland"
  },
  {
    "postcode": "13088",
    "city": "Heinersdorf"
  },
  {
    "postcode": "13088",
    "city": "Britz"
  },
  {
    "postcode": "13088",
    "city": "KGA Gesundheitsquell"
  },
  {
    "postcode": "13088",
    "city": "Wannsee"
  },
  {
    "postcode": "13089",
    "city": "Berlin"
  },
  {
    "postcode": "13089",
    "city": "Heinersdorf"
  },
  {
    "postcode": "13089",
    "city": "Pankow"
  },
  {
    "postcode": "13089",
    "city": "KGA Feuchter Winkel"
  },
  {
    "postcode": "13089",
    "city": "KGA Familiengärten"
  },
  {
    "postcode": "13089",
    "city": "KGA Dreieck Nord"
  },
  {
    "postcode": "13089",
    "city": "KGA Nordland"
  },
  {
    "postcode": "13089",
    "city": "KGA Freies Land"
  },
  {
    "postcode": "13089",
    "city": "KGA Eigenheim"
  },
  {
    "postcode": "13125",
    "city": "Berlin"
  },
  {
    "postcode": "13125",
    "city": "Buch"
  },
  {
    "postcode": "13125",
    "city": "Karow"
  },
  {
    "postcode": "13125",
    "city": "Pankow"
  },
  {
    "postcode": "13125",
    "city": "Französisch Buchholz"
  },
  {
    "postcode": "13127",
    "city": "Berlin"
  },
  {
    "postcode": "13127",
    "city": "Französisch Buchholz"
  },
  {
    "postcode": "13127",
    "city": "Pankow"
  },
  {
    "postcode": "13127",
    "city": "KGA Gravenstein"
  },
  {
    "postcode": "13127",
    "city": "Buchholz"
  },
  {
    "postcode": "13127",
    "city": "KGA Neuland"
  },
  {
    "postcode": "13127",
    "city": "KGA Buchholz"
  },
  {
    "postcode": "13127",
    "city": "KGA Möllersfelde"
  },
  {
    "postcode": "13127",
    "city": "Rosenthal"
  },
  {
    "postcode": "13127",
    "city": "KGA Krugpfuhl"
  },
  {
    "postcode": "13127",
    "city": "KGA Gartenvörde"
  },
  {
    "postcode": "13127",
    "city": "Blankenfelde"
  },
  {
    "postcode": "13129",
    "city": "Berlin"
  },
  {
    "postcode": "13129",
    "city": "Blankenburg"
  },
  {
    "postcode": "13129",
    "city": "Pankow"
  },
  {
    "postcode": "13129",
    "city": "KGA Blankenburg Anlage 2"
  },
  {
    "postcode": "13129",
    "city": "Französisch Buchholz"
  },
  {
    "postcode": "13129",
    "city": "Stadtrandsiedlung Malchow"
  },
  {
    "postcode": "13129",
    "city": "KGA Blankenburg Anlage 5"
  },
  {
    "postcode": "13129",
    "city": "KGA Blankenburg Anlage 7"
  },
  {
    "postcode": "13129",
    "city": "KGA Blankenburg Anlage 1"
  },
  {
    "postcode": "13129",
    "city": "Wittenau"
  },
  {
    "postcode": "13129",
    "city": "KGA Blankenburg Anlage 3"
  },
  {
    "postcode": "13129",
    "city": "KGA Blankenburg Anlage 4"
  },
  {
    "postcode": "13129",
    "city": "KGA Blankenburg Anlage 6"
  },
  {
    "postcode": "13156",
    "city": "Berlin"
  },
  {
    "postcode": "13156",
    "city": "Niederschönhausen"
  },
  {
    "postcode": "13156",
    "city": "Pankow"
  },
  {
    "postcode": "13156",
    "city": "Rosenthal"
  },
  {
    "postcode": "13158",
    "city": "Berlin"
  },
  {
    "postcode": "13158",
    "city": "Pankow"
  },
  {
    "postcode": "13158",
    "city": "Rosenthal"
  },
  {
    "postcode": "13158",
    "city": "Wilhelmsruh"
  },
  {
    "postcode": "13158",
    "city": "KGA Schönwald"
  },
  {
    "postcode": "13158",
    "city": "KGA Einigkeit"
  },
  {
    "postcode": "13158",
    "city": "KGA Am Rollberg"
  },
  {
    "postcode": "13158",
    "city": "Niederschönhausen"
  },
  {
    "postcode": "13158",
    "city": "KGA Wohnen im Grünen"
  },
  {
    "postcode": "13158",
    "city": "Baumschulenweg"
  },
  {
    "postcode": "13158",
    "city": "KGA Daheim II"
  },
  {
    "postcode": "13159",
    "city": "Berlin"
  },
  {
    "postcode": "13159",
    "city": "Blankenfelde"
  },
  {
    "postcode": "13159",
    "city": "Pankow"
  },
  {
    "postcode": "13159",
    "city": "KGA Frohsinn"
  },
  {
    "postcode": "13159",
    "city": "KGA Waldeck"
  },
  {
    "postcode": "13159",
    "city": "KGA Idehorst"
  },
  {
    "postcode": "13159",
    "city": "KGA Arkenberge"
  },
  {
    "postcode": "13159",
    "city": "KGA Blankenfelde"
  },
  {
    "postcode": "13159",
    "city": "Rosenthal"
  },
  {
    "postcode": "13187",
    "city": "Berlin"
  },
  {
    "postcode": "13187",
    "city": "Pankow"
  },
  {
    "postcode": "13189",
    "city": "Berlin"
  },
  {
    "postcode": "13189",
    "city": "Pankow"
  },
  {
    "postcode": "13347",
    "city": "Berlin"
  },
  {
    "postcode": "13347",
    "city": "Gesundbrunnen"
  },
  {
    "postcode": "13347",
    "city": "Mitte"
  },
  {
    "postcode": "13347",
    "city": "Wedding"
  },
  {
    "postcode": "13349",
    "city": "Berlin"
  },
  {
    "postcode": "13349",
    "city": "Mitte"
  },
  {
    "postcode": "13349",
    "city": "Wedding"
  },
  {
    "postcode": "13349",
    "city": "Johannisthal"
  },
  {
    "postcode": "13349",
    "city": "Kol. Freudental"
  },
  {
    "postcode": "13351",
    "city": "Berlin"
  },
  {
    "postcode": "13351",
    "city": "Mitte"
  },
  {
    "postcode": "13351",
    "city": "Wedding"
  },
  {
    "postcode": "13351",
    "city": "Kol. Rehberge"
  },
  {
    "postcode": "13351",
    "city": "Kol. Quartier Napoleon"
  },
  {
    "postcode": "13351",
    "city": "Kol. Plötzensee"
  },
  {
    "postcode": "13351",
    "city": "Marienfelde"
  },
  {
    "postcode": "13351",
    "city": "Kol. Togo"
  },
  {
    "postcode": "13353",
    "city": "Berlin"
  },
  {
    "postcode": "13353",
    "city": "Mitte"
  },
  {
    "postcode": "13353",
    "city": "Wedding"
  },
  {
    "postcode": "13353",
    "city": "Tiergarten"
  },
  {
    "postcode": "13353",
    "city": "Gesundbrunnen"
  },
  {
    "postcode": "13353",
    "city": "Moabit"
  },
  {
    "postcode": "13353",
    "city": "Charlottenburg-Nord"
  },
  {
    "postcode": "13353",
    "city": "Lichtenrade"
  },
  {
    "postcode": "13355",
    "city": "Berlin"
  },
  {
    "postcode": "13355",
    "city": "Gesundbrunnen"
  },
  {
    "postcode": "13355",
    "city": "Mitte"
  },
  {
    "postcode": "13355",
    "city": "Wedding"
  },
  {
    "postcode": "13357",
    "city": "Berlin"
  },
  {
    "postcode": "13357",
    "city": "Gesundbrunnen"
  },
  {
    "postcode": "13357",
    "city": "Mitte"
  },
  {
    "postcode": "13357",
    "city": "Wedding"
  },
  {
    "postcode": "13357",
    "city": "Kol. Sandkrug I"
  },
  {
    "postcode": "13357",
    "city": "Niederschöneweide"
  },
  {
    "postcode": "13359",
    "city": "Berlin"
  },
  {
    "postcode": "13359",
    "city": "Gesundbrunnen"
  },
  {
    "postcode": "13359",
    "city": "Mitte"
  },
  {
    "postcode": "13359",
    "city": "Wedding"
  },
  {
    "postcode": "13359",
    "city": "Kol. Panke"
  },
  {
    "postcode": "13359",
    "city": "Kol. Wiesengrund"
  },
  {
    "postcode": "13359",
    "city": "Kol. Sandkrug II"
  },
  {
    "postcode": "13403",
    "city": "Berlin"
  },
  {
    "postcode": "13403",
    "city": "Reinickendorf"
  },
  {
    "postcode": "13403",
    "city": "Kol. Erholung"
  },
  {
    "postcode": "13403",
    "city": "Kol. Gartenfreunde"
  },
  {
    "postcode": "13403",
    "city": "Wittenau"
  },
  {
    "postcode": "13403",
    "city": "Tegel"
  },
  {
    "postcode": "13405",
    "city": "Berlin"
  },
  {
    "postcode": "13405",
    "city": "Reinickendorf"
  },
  {
    "postcode": "13405",
    "city": "Tegel"
  },
  {
    "postcode": "13405",
    "city": "Wedding"
  },
  {
    "postcode": "13407",
    "city": "Berlin"
  },
  {
    "postcode": "13407",
    "city": "Mitte"
  },
  {
    "postcode": "13407",
    "city": "Reinickendorf"
  },
  {
    "postcode": "13407",
    "city": "Wedding"
  },
  {
    "postcode": "13407",
    "city": "Kol. Parkheim"
  },
  {
    "postcode": "13407",
    "city": "Kol. Freizeit"
  },
  {
    "postcode": "13407",
    "city": "Kol. Trockendorf"
  },
  {
    "postcode": "13407",
    "city": "Kol. Lebensfreude"
  },
  {
    "postcode": "13407",
    "city": "Kol. Pflanzerheim"
  },
  {
    "postcode": "13407",
    "city": "Wittenau"
  },
  {
    "postcode": "13409",
    "city": "Berlin"
  },
  {
    "postcode": "13409",
    "city": "Gesundbrunnen"
  },
  {
    "postcode": "13409",
    "city": "Mitte"
  },
  {
    "postcode": "13409",
    "city": "Reinickendorf"
  },
  {
    "postcode": "13435",
    "city": "Berlin"
  },
  {
    "postcode": "13435",
    "city": "Märkisches Viertel"
  },
  {
    "postcode": "13435",
    "city": "Reinickendorf"
  },
  {
    "postcode": "13435",
    "city": "Wittenau"
  },
  {
    "postcode": "13435",
    "city": "Kol. Einigkeit"
  },
  {
    "postcode": "13437",
    "city": "Berlin"
  },
  {
    "postcode": "13437",
    "city": "Reinickendorf"
  },
  {
    "postcode": "13437",
    "city": "Wittenau"
  },
  {
    "postcode": "13437",
    "city": "Kol. Roedernallee"
  },
  {
    "postcode": "13437",
    "city": "Kol. Müller"
  },
  {
    "postcode": "13439",
    "city": "Berlin"
  },
  {
    "postcode": "13439",
    "city": "Märkisches Viertel"
  },
  {
    "postcode": "13439",
    "city": "Reinickendorf"
  },
  {
    "postcode": "13439",
    "city": "Wittenau"
  },
  {
    "postcode": "13465",
    "city": "Berlin"
  },
  {
    "postcode": "13465",
    "city": "Frohnau"
  },
  {
    "postcode": "13465",
    "city": "Reinickendorf"
  },
  {
    "postcode": "13465",
    "city": "Hermsdorf"
  },
  {
    "postcode": "13465",
    "city": "Zehlendorf"
  },
  {
    "postcode": "13465",
    "city": "Marienfelde"
  },
  {
    "postcode": "13465",
    "city": "Gem. Mühlenbecker Land"
  },
  {
    "postcode": "13467",
    "city": "Berlin"
  },
  {
    "postcode": "13467",
    "city": "Hermsdorf"
  },
  {
    "postcode": "13467",
    "city": "Reinickendorf"
  },
  {
    "postcode": "13469",
    "city": "Berlin"
  },
  {
    "postcode": "13469",
    "city": "Lübars"
  },
  {
    "postcode": "13469",
    "city": "Reinickendorf"
  },
  {
    "postcode": "13469",
    "city": "Waidmannslust"
  },
  {
    "postcode": "13469",
    "city": "Wittenau"
  },
  {
    "postcode": "13469",
    "city": "Kol. Frohsinn II"
  },
  {
    "postcode": "13469",
    "city": "Kol. Waldesfrieden"
  },
  {
    "postcode": "13503",
    "city": "Berlin"
  },
  {
    "postcode": "13503",
    "city": "Heiligensee"
  },
  {
    "postcode": "13503",
    "city": "Reinickendorf"
  },
  {
    "postcode": "13503",
    "city": "Tegel"
  },
  {
    "postcode": "13503",
    "city": "Kol. Am See"
  },
  {
    "postcode": "13503",
    "city": "Kol. Seebad"
  },
  {
    "postcode": "13503",
    "city": "Kol. Waldessaum"
  },
  {
    "postcode": "13505",
    "city": "Berlin"
  },
  {
    "postcode": "13505",
    "city": "Heiligensee"
  },
  {
    "postcode": "13505",
    "city": "Konradshöhe"
  },
  {
    "postcode": "13505",
    "city": "Reinickendorf"
  },
  {
    "postcode": "13505",
    "city": "Tegel"
  },
  {
    "postcode": "13507",
    "city": "Berlin"
  },
  {
    "postcode": "13507",
    "city": "Reinickendorf"
  },
  {
    "postcode": "13507",
    "city": "Tegel"
  },
  {
    "postcode": "13507",
    "city": "Kol. Am Fließ"
  },
  {
    "postcode": "13507",
    "city": "Plänterwald"
  },
  {
    "postcode": "13507",
    "city": "Kol. Am Waldessaum"
  },
  {
    "postcode": "13509",
    "city": "Berlin"
  },
  {
    "postcode": "13509",
    "city": "Reinickendorf"
  },
  {
    "postcode": "13509",
    "city": "Tegel"
  },
  {
    "postcode": "13509",
    "city": "Borsigwalde"
  },
  {
    "postcode": "13509",
    "city": "Wittenau"
  },
  {
    "postcode": "13509",
    "city": "Kol. Frühauf"
  },
  {
    "postcode": "13509",
    "city": "Wilhelmstadt"
  },
  {
    "postcode": "13581",
    "city": "Berlin"
  },
  {
    "postcode": "13581",
    "city": "Spandau"
  },
  {
    "postcode": "13581",
    "city": "Wilhelmstadt"
  },
  {
    "postcode": "13581",
    "city": "Staaken"
  },
  {
    "postcode": "13581",
    "city": "Westend"
  },
  {
    "postcode": "13581",
    "city": "Kol. Hasenheide"
  },
  {
    "postcode": "13581",
    "city": "Kol. Egelpfuhl II"
  },
  {
    "postcode": "13581",
    "city": "Kol. Ludwig-Heim"
  },
  {
    "postcode": "13581",
    "city": "Kol. Alpenveilchen"
  },
  {
    "postcode": "13583",
    "city": "Berlin"
  },
  {
    "postcode": "13583",
    "city": "Falkenhagener Feld"
  },
  {
    "postcode": "13583",
    "city": "Spandau"
  },
  {
    "postcode": "13585",
    "city": "Berlin"
  },
  {
    "postcode": "13585",
    "city": "Spandau"
  },
  {
    "postcode": "13585",
    "city": "Hakenfelde"
  },
  {
    "postcode": "13585",
    "city": "Falkenhagener Feld"
  },
  {
    "postcode": "13587",
    "city": "Berlin"
  },
  {
    "postcode": "13587",
    "city": "Spandau"
  },
  {
    "postcode": "13587",
    "city": "Hakenfelde"
  },
  {
    "postcode": "13587",
    "city": "Siedl. Wohnsiedlung Hakenfelde"
  },
  {
    "postcode": "13587",
    "city": "Kol. Wannseeaten"
  },
  {
    "postcode": "13589",
    "city": "Berlin"
  },
  {
    "postcode": "13589",
    "city": "Falkenhagener Feld"
  },
  {
    "postcode": "13589",
    "city": "Kol. Waldessaum"
  },
  {
    "postcode": "13589",
    "city": "Hakenfelde"
  },
  {
    "postcode": "13589",
    "city": "Kol. Sandwiesen"
  },
  {
    "postcode": "13591",
    "city": "Berlin"
  },
  {
    "postcode": "13591",
    "city": "Spandau"
  },
  {
    "postcode": "13591",
    "city": "Staaken"
  },
  {
    "postcode": "13591",
    "city": "Falkenhagener Feld"
  },
  {
    "postcode": "13593",
    "city": "Berlin"
  },
  {
    "postcode": "13593",
    "city": "Wilhelmstadt"
  },
  {
    "postcode": "13593",
    "city": "Staaken"
  },
  {
    "postcode": "13593",
    "city": "Kol. Heerstr."
  },
  {
    "postcode": "13593",
    "city": "Charlottenburg"
  },
  {
    "postcode": "13595",
    "city": "Berlin"
  },
  {
    "postcode": "13595",
    "city": "Wilhelmstadt"
  },
  {
    "postcode": "13595",
    "city": "Kol. Bocksfelde"
  },
  {
    "postcode": "13595",
    "city": "Spandau"
  },
  {
    "postcode": "13597",
    "city": "Berlin"
  },
  {
    "postcode": "13597",
    "city": "Spandau"
  },
  {
    "postcode": "13597",
    "city": "Kol. Schlangengraben"
  },
  {
    "postcode": "13597",
    "city": "Westend"
  },
  {
    "postcode": "13597",
    "city": "Wilhelmstadt"
  },
  {
    "postcode": "13597",
    "city": "Kol. Unterhavel"
  },
  {
    "postcode": "13597",
    "city": "Kol. Burgwallschanze"
  },
  {
    "postcode": "13599",
    "city": "Berlin"
  },
  {
    "postcode": "13599",
    "city": "Haselhorst"
  },
  {
    "postcode": "13599",
    "city": "Spandau"
  },
  {
    "postcode": "13599",
    "city": "Kol. Salzhof"
  },
  {
    "postcode": "13599",
    "city": "Kol. Rohrbruchwiesen I"
  },
  {
    "postcode": "13599",
    "city": "Kol. Rohrbruchwiesen II"
  },
  {
    "postcode": "13599",
    "city": "Kol. Rohrbruchwiesen III"
  },
  {
    "postcode": "13599",
    "city": "Tegel"
  },
  {
    "postcode": "13599",
    "city": "Siemensstadt"
  },
  {
    "postcode": "13599",
    "city": "Kol. Spreewiesen"
  },
  {
    "postcode": "13599",
    "city": "Hakenfelde"
  },
  {
    "postcode": "13627",
    "city": "Berlin"
  },
  {
    "postcode": "13627",
    "city": "Charlottenburg-Nord"
  },
  {
    "postcode": "13627",
    "city": "Charlottenburg-Wilmersdorf"
  },
  {
    "postcode": "13627",
    "city": "Kol. Saatwinkler Damm"
  },
  {
    "postcode": "13627",
    "city": "Kol. Jungfernheide"
  },
  {
    "postcode": "13627",
    "city": "Kol. Hinckeldey"
  },
  {
    "postcode": "13627",
    "city": "Kol. Olympia"
  },
  {
    "postcode": "13627",
    "city": "Kol. Königsdamm"
  },
  {
    "postcode": "13627",
    "city": "Kol. Pferdemarkt"
  },
  {
    "postcode": "13627",
    "city": "Kol. Bleibtreu II"
  },
  {
    "postcode": "13627",
    "city": "Kol. Degenhof"
  },
  {
    "postcode": "13627",
    "city": "Kol. Frischer Wind"
  },
  {
    "postcode": "13627",
    "city": "Kol. Heideschlößchen"
  },
  {
    "postcode": "13627",
    "city": "Kol. Karlshofer Wiese"
  },
  {
    "postcode": "13627",
    "city": "Kol. Löwe"
  },
  {
    "postcode": "13627",
    "city": "Kol. Zukunft"
  },
  {
    "postcode": "13627",
    "city": "Siemensstadt"
  },
  {
    "postcode": "13627",
    "city": "Charlottenburg"
  },
  {
    "postcode": "13627",
    "city": "Westend"
  },
  {
    "postcode": "13627",
    "city": "Kol. Dreilinden"
  },
  {
    "postcode": "13629",
    "city": "Berlin"
  },
  {
    "postcode": "13629",
    "city": "Siemensstadt"
  },
  {
    "postcode": "13629",
    "city": "Spandau"
  },
  {
    "postcode": "13629",
    "city": "Kol. Vor den Toren IV"
  },
  {
    "postcode": "13629",
    "city": "Tegel"
  },
  {
    "postcode": "13629",
    "city": "Kol. Vor den Toren I"
  },
  {
    "postcode": "13629",
    "city": "Kol. Vor den Toren II"
  },
  {
    "postcode": "13629",
    "city": "Marienfelde"
  },
  {
    "postcode": "13629",
    "city": "Charlottenburg-Nord"
  },
  {
    "postcode": "13629",
    "city": "Kol. Neuer Exerzierplatz"
  },
  {
    "postcode": "13629",
    "city": "Westend"
  },
  {
    "postcode": "13629",
    "city": "Kol. Neuland I"
  },
  {
    "postcode": "13629",
    "city": "Kol. Neuland II"
  },
  {
    "postcode": "13629",
    "city": "Kol. Am Rohrdamm"
  },
  {
    "postcode": "13629",
    "city": "Köpenick"
  },
  {
    "postcode": "13629",
    "city": "Schmöckwitz"
  },
  {
    "postcode": "13629",
    "city": "Siedl. Siedlungsverein Siemensstadt"
  },
  {
    "postcode": "13629",
    "city": "Kol. Beussel'sche Erben"
  }
]