[
  {
    "postcode": "6406",
    "city": "Bernburg (Saale)"
  },
  {
    "postcode": "6406",
    "city": "Bernburg"
  },
  {
    "postcode": "6406",
    "city": "Salzlandkreis"
  },
  {
    "postcode": "6406",
    "city": "Baalberge"
  },
  {
    "postcode": "6406",
    "city": "Aderstedt"
  },
  {
    "postcode": "6406",
    "city": "Peißen"
  },
  {
    "postcode": "6406",
    "city": "Biendorf"
  },
  {
    "postcode": "6406",
    "city": "Preußlitz"
  },
  {
    "postcode": "6406",
    "city": "Gröna"
  },
  {
    "postcode": "6406",
    "city": "Leau"
  },
  {
    "postcode": "6406",
    "city": "Plömnitz"
  },
  {
    "postcode": "6406",
    "city": "Poley"
  },
  {
    "postcode": "6406",
    "city": "Crüchern"
  },
  {
    "postcode": "6406",
    "city": "Wohlsdorf"
  },
  {
    "postcode": "6406",
    "city": "Gnetsch"
  },
  {
    "postcode": "6406",
    "city": "Weddegast"
  },
  {
    "postcode": "6406",
    "city": "Strenzfeld"
  },
  {
    "postcode": "6408",
    "city": "Aderstedt bei Bernburg"
  },
  {
    "postcode": "6408",
    "city": "Baalberge"
  },
  {
    "postcode": "6408",
    "city": "Biendorf bei Bernburg"
  },
  {
    "postcode": "6408",
    "city": "Cörmigk"
  },
  {
    "postcode": "6408",
    "city": "Gröna"
  },
  {
    "postcode": "6408",
    "city": "Ilberstedt"
  },
  {
    "postcode": "6408",
    "city": "Latdorf"
  },
  {
    "postcode": "6408",
    "city": "Peißen bei Bernburg"
  },
  {
    "postcode": "6408",
    "city": "Poley bei Bernburg"
  },
  {
    "postcode": "6408",
    "city": "Preußlitz"
  },
  {
    "postcode": "6408",
    "city": "Wohlsdorf bei Bernburg"
  },
  {
    "postcode": "6408",
    "city": "Salzlandkreis"
  },
  {
    "postcode": "6408",
    "city": "Bullenstedt"
  },
  {
    "postcode": "6408",
    "city": "Cölbigk"
  },
  {
    "postcode": "6420",
    "city": "Domnitz"
  },
  {
    "postcode": "6420",
    "city": "Edlau bei Könnern"
  },
  {
    "postcode": "6420",
    "city": "Gerlebogk"
  },
  {
    "postcode": "6420",
    "city": "Golbitz"
  },
  {
    "postcode": "6420",
    "city": "Könnern"
  },
  {
    "postcode": "6420",
    "city": "Lebendorf"
  },
  {
    "postcode": "6420",
    "city": "Rothenburg bei Könnern"
  },
  {
    "postcode": "6420",
    "city": "Wiendorf bei Könnern"
  },
  {
    "postcode": "6420",
    "city": "Zickeritz"
  },
  {
    "postcode": "6420",
    "city": "Saalekreis"
  },
  {
    "postcode": "6420",
    "city": "Belleben"
  },
  {
    "postcode": "6420",
    "city": "Trebnitz"
  },
  {
    "postcode": "6420",
    "city": "Piesdorf"
  },
  {
    "postcode": "6420",
    "city": "Kirchedlau"
  },
  {
    "postcode": "6420",
    "city": "Ilbersdorf"
  },
  {
    "postcode": "6420",
    "city": "Cörmigk"
  },
  {
    "postcode": "6420",
    "city": "Bebitz"
  },
  {
    "postcode": "6420",
    "city": "Wiendorf"
  },
  {
    "postcode": "6420",
    "city": "Beesedau"
  },
  {
    "postcode": "6420",
    "city": "Beesenlaublingen"
  },
  {
    "postcode": "6420",
    "city": "Berwitz"
  },
  {
    "postcode": "6420",
    "city": "Brucke"
  },
  {
    "postcode": "6420",
    "city": "Pfitzdorf"
  },
  {
    "postcode": "6420",
    "city": "Strenznaundorf"
  },
  {
    "postcode": "6420",
    "city": "Garsena"
  },
  {
    "postcode": "6420",
    "city": "Haus Zeitz"
  },
  {
    "postcode": "6420",
    "city": "Hohenedlau"
  },
  {
    "postcode": "6420",
    "city": "Edlau"
  },
  {
    "postcode": "6420",
    "city": "Kustrena"
  },
  {
    "postcode": "6420",
    "city": "Mitteledlau"
  },
  {
    "postcode": "6420",
    "city": "Mukrena"
  },
  {
    "postcode": "6420",
    "city": "Nelben"
  },
  {
    "postcode": "6420",
    "city": "Poplitz"
  },
  {
    "postcode": "6420",
    "city": "Sieglitz"
  },
  {
    "postcode": "6420",
    "city": "Trebitz"
  },
  {
    "postcode": "6420",
    "city": "Zellewitz"
  },
  {
    "postcode": "6420",
    "city": "Zweihausen"
  },
  {
    "postcode": "6425",
    "city": "Alsleben (Saale)"
  },
  {
    "postcode": "6425",
    "city": "Alsleben"
  },
  {
    "postcode": "6425",
    "city": "Beesenlaublingen"
  },
  {
    "postcode": "6425",
    "city": "Belleben"
  },
  {
    "postcode": "6425",
    "city": "Plötzkau"
  },
  {
    "postcode": "6425",
    "city": "Schackstedt"
  },
  {
    "postcode": "6425",
    "city": "Strenznaundorf"
  },
  {
    "postcode": "6425",
    "city": "Salzlandkreis"
  },
  {
    "postcode": "6425",
    "city": "Gnölbzig"
  },
  {
    "postcode": "6425",
    "city": "Bründel"
  },
  {
    "postcode": "6425",
    "city": "Großwirschleben"
  },
  {
    "postcode": "6429",
    "city": "Gerbitz"
  },
  {
    "postcode": "6429",
    "city": "Neugattersleben"
  },
  {
    "postcode": "6429",
    "city": "Nienburg (Saale)"
  },
  {
    "postcode": "6429",
    "city": "Nienburg"
  },
  {
    "postcode": "6429",
    "city": "Pobzig"
  },
  {
    "postcode": "6429",
    "city": "Wedlitz"
  },
  {
    "postcode": "6429",
    "city": "Salzlandkreis"
  },
  {
    "postcode": "6429",
    "city": "Altenburg"
  },
  {
    "postcode": "6429",
    "city": "Latdorf"
  },
  {
    "postcode": "6429",
    "city": "Gramsdorf"
  },
  {
    "postcode": "6429",
    "city": "Wispitz"
  },
  {
    "postcode": "6429",
    "city": "Borgesdorf"
  },
  {
    "postcode": "6429",
    "city": "Grimschleben"
  },
  {
    "postcode": "6429",
    "city": "Jesar"
  },
  {
    "postcode": "6449",
    "city": "Aschersleben"
  },
  {
    "postcode": "6449",
    "city": "Aschersleben Sachsen-Anhalt"
  },
  {
    "postcode": "6449",
    "city": "Cochstedt"
  },
  {
    "postcode": "6449",
    "city": "Friedrichsaue bei Aschersleben"
  },
  {
    "postcode": "6449",
    "city": "Giersleben"
  },
  {
    "postcode": "6449",
    "city": "Groß Schierstedt"
  },
  {
    "postcode": "6449",
    "city": "Klein Schierstedt"
  },
  {
    "postcode": "6449",
    "city": "Neu Königsaue"
  },
  {
    "postcode": "6449",
    "city": "Schackenthal"
  },
  {
    "postcode": "6449",
    "city": "Schadeleben"
  },
  {
    "postcode": "6449",
    "city": "Westdorf bei Aschersleben"
  },
  {
    "postcode": "6449",
    "city": "Wilsleben"
  },
  {
    "postcode": "6449",
    "city": "Winningen bei Aschersleben"
  },
  {
    "postcode": "6449",
    "city": "Salzlandkreis"
  },
  {
    "postcode": "6449",
    "city": "Friedrichsaue"
  },
  {
    "postcode": "6449",
    "city": "Seeland"
  },
  {
    "postcode": "6449",
    "city": "Westdorf"
  },
  {
    "postcode": "6449",
    "city": "Mehringen"
  },
  {
    "postcode": "6449",
    "city": "Freckleben"
  },
  {
    "postcode": "6449",
    "city": "Schackstedt"
  },
  {
    "postcode": "6449",
    "city": "Drohndorf"
  },
  {
    "postcode": "6449",
    "city": "Winningen"
  },
  {
    "postcode": "6449",
    "city": "Strummendorf"
  },
  {
    "postcode": "6456",
    "city": "Mehringen bei Aschersleben"
  },
  {
    "postcode": "6456",
    "city": "Sandersleben"
  },
  {
    "postcode": "6456",
    "city": "Mansfeld-Südharz"
  },
  {
    "postcode": "6456",
    "city": "Arnstein"
  },
  {
    "postcode": "6456",
    "city": "Sylda"
  },
  {
    "postcode": "6456",
    "city": "Harkerode"
  },
  {
    "postcode": "6456",
    "city": "Wiederstedt"
  },
  {
    "postcode": "6456",
    "city": "Ulzigerode"
  },
  {
    "postcode": "6456",
    "city": "Welbsleben"
  },
  {
    "postcode": "6456",
    "city": "Bräunrode"
  },
  {
    "postcode": "6456",
    "city": "Alterode"
  },
  {
    "postcode": "6456",
    "city": "Stangerode"
  },
  {
    "postcode": "6456",
    "city": "Pfersdorf"
  },
  {
    "postcode": "6456",
    "city": "Arnstedt"
  },
  {
    "postcode": "6456",
    "city": "Quenstedt"
  },
  {
    "postcode": "6456",
    "city": "Willerode"
  },
  {
    "postcode": "6456",
    "city": "Greifenhagen"
  },
  {
    "postcode": "6456",
    "city": "Friedrichrode"
  },
  {
    "postcode": "6456",
    "city": "Roda"
  },
  {
    "postcode": "6458",
    "city": "Hausneindorf"
  },
  {
    "postcode": "6458",
    "city": "Hedersleben bei Aschersleben"
  },
  {
    "postcode": "6458",
    "city": "Heteborn"
  },
  {
    "postcode": "6458",
    "city": "Wedderstedt"
  },
  {
    "postcode": "6458",
    "city": "Harz"
  },
  {
    "postcode": "6458",
    "city": "Hedersleben"
  },
  {
    "postcode": "6458",
    "city": "Selke-Aue"
  },
  {
    "postcode": "6463",
    "city": "Ermsleben"
  },
  {
    "postcode": "6463",
    "city": "Falkenstein / Harz"
  },
  {
    "postcode": "6463",
    "city": "Falkenstein"
  },
  {
    "postcode": "6463",
    "city": "Falkenstein/Harz"
  },
  {
    "postcode": "6463",
    "city": "Meisdorf"
  },
  {
    "postcode": "6463",
    "city": "Radisleben"
  },
  {
    "postcode": "6463",
    "city": "Reinstedt"
  },
  {
    "postcode": "6463",
    "city": "Harz"
  },
  {
    "postcode": "6464",
    "city": "Frose"
  },
  {
    "postcode": "6464",
    "city": "Mansfeld-Südharz"
  },
  {
    "postcode": "6464",
    "city": "Seeland"
  },
  {
    "postcode": "6466",
    "city": "Gatersleben"
  },
  {
    "postcode": "6466",
    "city": "Mansfeld-Südharz"
  },
  {
    "postcode": "6467",
    "city": "Hoym"
  },
  {
    "postcode": "6467",
    "city": "Mansfeld-Südharz"
  },
  {
    "postcode": "6467",
    "city": "Seeland"
  },
  {
    "postcode": "6469",
    "city": "Nachterstedt"
  },
  {
    "postcode": "6469",
    "city": "Mansfeld-Südharz"
  },
  {
    "postcode": "6484",
    "city": "Ditfurt"
  },
  {
    "postcode": "6484",
    "city": "Quedlinburg"
  },
  {
    "postcode": "6484",
    "city": "Westerhausen bei Quedlinburg"
  },
  {
    "postcode": "6484",
    "city": "Harz"
  },
  {
    "postcode": "6484",
    "city": "Gersdorfer Burg"
  },
  {
    "postcode": "6484",
    "city": "Bad Suderode"
  },
  {
    "postcode": "6484",
    "city": "Quarmbeck"
  },
  {
    "postcode": "6484",
    "city": "Morgenrot"
  },
  {
    "postcode": "6484",
    "city": "Münchenhof"
  },
  {
    "postcode": "6493",
    "city": "Ballenstedt"
  },
  {
    "postcode": "6493",
    "city": "Dankerode bei Quedlinburg"
  },
  {
    "postcode": "6493",
    "city": "Harzgerode"
  },
  {
    "postcode": "6493",
    "city": "Königerode bei Quedlinburg"
  },
  {
    "postcode": "6493",
    "city": "Neudorf bei Quedlinburg"
  },
  {
    "postcode": "6493",
    "city": "Schielo"
  },
  {
    "postcode": "6493",
    "city": "Straßberg bei Quedlinburg"
  },
  {
    "postcode": "6493",
    "city": "Harz"
  },
  {
    "postcode": "6493",
    "city": "Rieder"
  },
  {
    "postcode": "6493",
    "city": "Radisleben"
  },
  {
    "postcode": "6493",
    "city": "Badeborn"
  },
  {
    "postcode": "6493",
    "city": "Opperode"
  },
  {
    "postcode": "6493",
    "city": "Asmusstedt"
  },
  {
    "postcode": "6493",
    "city": "Güntersberge"
  },
  {
    "postcode": "6493",
    "city": "Alexisbad"
  },
  {
    "postcode": "6493",
    "city": "Straßberg"
  },
  {
    "postcode": "6493",
    "city": "Königerode"
  },
  {
    "postcode": "6493",
    "city": "Siptenfelde"
  },
  {
    "postcode": "6493",
    "city": "Neudorf"
  },
  {
    "postcode": "6493",
    "city": "Silberhütte"
  },
  {
    "postcode": "6493",
    "city": "Dankerode"
  },
  {
    "postcode": "6493",
    "city": "Bärenrode"
  },
  {
    "postcode": "6493",
    "city": "Mägdesprung"
  },
  {
    "postcode": "6493",
    "city": "Friedrichshöhe"
  },
  {
    "postcode": "6493",
    "city": "Fürst Viktor"
  },
  {
    "postcode": "6493",
    "city": "Hänichen"
  },
  {
    "postcode": "6493",
    "city": "Kirchenholz"
  },
  {
    "postcode": "6493",
    "city": "Rinkemühle"
  },
  {
    "postcode": "6493",
    "city": "Wegehaus"
  },
  {
    "postcode": "64283",
    "city": "Darmstadt"
  },
  {
    "postcode": "64285",
    "city": "Darmstadt"
  },
  {
    "postcode": "64287",
    "city": "Darmstadt"
  },
  {
    "postcode": "64289",
    "city": "Darmstadt"
  },
  {
    "postcode": "64289",
    "city": "Kranichstein"
  },
  {
    "postcode": "64291",
    "city": "Arheilgen"
  },
  {
    "postcode": "64291",
    "city": "Darmstadt"
  },
  {
    "postcode": "64291",
    "city": "Wixhausen"
  },
  {
    "postcode": "64293",
    "city": "Darmstadt"
  },
  {
    "postcode": "64295",
    "city": "Darmstadt"
  },
  {
    "postcode": "64297",
    "city": "Darmstadt"
  },
  {
    "postcode": "64297",
    "city": "Eberstadt"
  },
  {
    "postcode": "64297",
    "city": "Stadt Pfungstadt"
  },
  {
    "postcode": "64319",
    "city": "Eich Kreis Darmstadt"
  },
  {
    "postcode": "64319",
    "city": "Eich"
  },
  {
    "postcode": "64319",
    "city": "Eschollbrücken"
  },
  {
    "postcode": "64319",
    "city": "Hahn bei Pfungstadt"
  },
  {
    "postcode": "64319",
    "city": "Pfungstadt"
  },
  {
    "postcode": "64319",
    "city": "Darmstadt-Dieburg"
  },
  {
    "postcode": "64319",
    "city": "Hahn"
  },
  {
    "postcode": "64331",
    "city": "Braunshardt"
  },
  {
    "postcode": "64331",
    "city": "Gräfenhausen Hessen"
  },
  {
    "postcode": "64331",
    "city": "Gräfenhausen"
  },
  {
    "postcode": "64331",
    "city": "Riedbahn"
  },
  {
    "postcode": "64331",
    "city": "Schneppenhausen"
  },
  {
    "postcode": "64331",
    "city": "Weiterstadt"
  },
  {
    "postcode": "64331",
    "city": "Darmstadt-Dieburg"
  },
  {
    "postcode": "64342",
    "city": "Balkhausen"
  },
  {
    "postcode": "64342",
    "city": "Jugenheim"
  },
  {
    "postcode": "64342",
    "city": "Malchen"
  },
  {
    "postcode": "64342",
    "city": "Ober-Beerbach"
  },
  {
    "postcode": "64342",
    "city": "Seeheim"
  },
  {
    "postcode": "64342",
    "city": "Seeheim-Jugenheim"
  },
  {
    "postcode": "64342",
    "city": "Stettbach an der Bergstraße"
  },
  {
    "postcode": "64342",
    "city": "Darmstadt-Dieburg"
  },
  {
    "postcode": "64342",
    "city": "Stettbach"
  },
  {
    "postcode": "64347",
    "city": "Griesheim Hessen"
  },
  {
    "postcode": "64347",
    "city": "Griesheim"
  },
  {
    "postcode": "64347",
    "city": "Darmstadt-Dieburg"
  },
  {
    "postcode": "64347",
    "city": "Darmstadt"
  },
  {
    "postcode": "64354",
    "city": "Georgenhausen"
  },
  {
    "postcode": "64354",
    "city": "Reinheim"
  },
  {
    "postcode": "64354",
    "city": "Reinheim Odenwald"
  },
  {
    "postcode": "64354",
    "city": "Spachbrücken Hessen"
  },
  {
    "postcode": "64354",
    "city": "Spachbrücken"
  },
  {
    "postcode": "64354",
    "city": "Ueberau Odenwald"
  },
  {
    "postcode": "64354",
    "city": "Ueberau"
  },
  {
    "postcode": "64354",
    "city": "Zeilhard"
  },
  {
    "postcode": "64354",
    "city": "Darmstadt-Dieburg"
  },
  {
    "postcode": "64367",
    "city": "Frankenhausen Odenwald"
  },
  {
    "postcode": "64367",
    "city": "Frankenhausen"
  },
  {
    "postcode": "64367",
    "city": "Mühltal Hessen"
  },
  {
    "postcode": "64367",
    "city": "Mühltal"
  },
  {
    "postcode": "64367",
    "city": "Nieder-Beerbach"
  },
  {
    "postcode": "64367",
    "city": "Nieder-Ramstadt"
  },
  {
    "postcode": "64367",
    "city": "Traisa Kreis Darmstadt"
  },
  {
    "postcode": "64367",
    "city": "Traisa"
  },
  {
    "postcode": "64367",
    "city": "Trautheim"
  },
  {
    "postcode": "64367",
    "city": "Waschenbach"
  },
  {
    "postcode": "64367",
    "city": "Darmstadt-Dieburg"
  },
  {
    "postcode": "64372",
    "city": "Ober-Ramstadt"
  },
  {
    "postcode": "64372",
    "city": "Rohrbach Kreis Darmstadt"
  },
  {
    "postcode": "64372",
    "city": "Rohrbach"
  },
  {
    "postcode": "64372",
    "city": "Darmstadt-Dieburg"
  },
  {
    "postcode": "64372",
    "city": "Modau"
  },
  {
    "postcode": "64372",
    "city": "Hahn"
  },
  {
    "postcode": "64372",
    "city": "Wembach-Hahn"
  },
  {
    "postcode": "64380",
    "city": "Gundernhausen"
  },
  {
    "postcode": "64380",
    "city": "Roßdorf"
  },
  {
    "postcode": "64380",
    "city": "Roßdorf bei Darmstadt"
  },
  {
    "postcode": "64380",
    "city": "Darmstadt-Dieburg"
  },
  {
    "postcode": "64380",
    "city": "Stadt Darmstadt"
  },
  {
    "postcode": "64385",
    "city": "Beerfurth"
  },
  {
    "postcode": "64385",
    "city": "Bockenrod"
  },
  {
    "postcode": "64385",
    "city": "Eberbach Odenwald"
  },
  {
    "postcode": "64385",
    "city": "Eberbach"
  },
  {
    "postcode": "64385",
    "city": "Erzbach"
  },
  {
    "postcode": "64385",
    "city": "Fränkisch-Crumbach"
  },
  {
    "postcode": "64385",
    "city": "Frohnhofen Odenwald"
  },
  {
    "postcode": "64385",
    "city": "Frohnhofen"
  },
  {
    "postcode": "64385",
    "city": "Gumpen Odenwald"
  },
  {
    "postcode": "64385",
    "city": "Gumpen"
  },
  {
    "postcode": "64385",
    "city": "Klein-Gumpen"
  },
  {
    "postcode": "64385",
    "city": "Laudenau"
  },
  {
    "postcode": "64385",
    "city": "Ober-Kainsbach"
  },
  {
    "postcode": "64385",
    "city": "Ober-Ostern"
  },
  {
    "postcode": "64385",
    "city": "Reichelsheim"
  },
  {
    "postcode": "64385",
    "city": "Reichelsheim (Odenwald)"
  },
  {
    "postcode": "64385",
    "city": "Rohrbach bei Michelstadt"
  },
  {
    "postcode": "64385",
    "city": "Unter-Ostern"
  },
  {
    "postcode": "64385",
    "city": "Odenwaldkreis"
  },
  {
    "postcode": "64385",
    "city": "Gersprenz"
  },
  {
    "postcode": "64385",
    "city": "Rohrbach"
  },
  {
    "postcode": "64390",
    "city": "Erzhausen Hessen"
  },
  {
    "postcode": "64390",
    "city": "Erzhausen"
  },
  {
    "postcode": "64390",
    "city": "Darmstadt-Dieburg"
  },
  {
    "postcode": "64395",
    "city": "Affhöllerbach"
  },
  {
    "postcode": "64395",
    "city": "Brensbach"
  },
  {
    "postcode": "64395",
    "city": "Höllerbach"
  },
  {
    "postcode": "64395",
    "city": "Nieder-Kainsbach"
  },
  {
    "postcode": "64395",
    "city": "Ober-Klingen"
  },
  {
    "postcode": "64395",
    "city": "Wallbach Odenwald"
  },
  {
    "postcode": "64395",
    "city": "Wallbach"
  },
  {
    "postcode": "64395",
    "city": "Wersau Odenwald"
  },
  {
    "postcode": "64395",
    "city": "Wersau"
  },
  {
    "postcode": "64395",
    "city": "Odenwaldkreis"
  },
  {
    "postcode": "64395",
    "city": "Hippelsbach"
  },
  {
    "postcode": "64395",
    "city": "Hundertmorgen"
  },
  {
    "postcode": "64395",
    "city": "Bierbach"
  },
  {
    "postcode": "64395",
    "city": "Fränkisch-Crumbach"
  },
  {
    "postcode": "64397",
    "city": "Allertshofen"
  },
  {
    "postcode": "64397",
    "city": "Asbach Odenwald"
  },
  {
    "postcode": "64397",
    "city": "Asbach"
  },
  {
    "postcode": "64397",
    "city": "Brandau Odenwald"
  },
  {
    "postcode": "64397",
    "city": "Brandau"
  },
  {
    "postcode": "64397",
    "city": "Ernsthofen Odenwald"
  },
  {
    "postcode": "64397",
    "city": "Ernsthofen"
  },
  {
    "postcode": "64397",
    "city": "Herchenrode Odenwald"
  },
  {
    "postcode": "64397",
    "city": "Herchenrode"
  },
  {
    "postcode": "64397",
    "city": "Hoxhohl"
  },
  {
    "postcode": "64397",
    "city": "Klein-Bieberau"
  },
  {
    "postcode": "64397",
    "city": "Lützelbach"
  },
  {
    "postcode": "64397",
    "city": "Modautal"
  },
  {
    "postcode": "64397",
    "city": "Neunkirchen Odenwald"
  },
  {
    "postcode": "64397",
    "city": "Neunkirchen"
  },
  {
    "postcode": "64397",
    "city": "Neutsch"
  },
  {
    "postcode": "64397",
    "city": "Webern"
  },
  {
    "postcode": "64397",
    "city": "Darmstadt-Dieburg"
  },
  {
    "postcode": "64397",
    "city": "Fischbachtal"
  },
  {
    "postcode": "64401",
    "city": "Groß-Bieberau"
  },
  {
    "postcode": "64401",
    "city": "Rodau bei Darmstadt"
  },
  {
    "postcode": "64401",
    "city": "Darmstadt-Dieburg"
  },
  {
    "postcode": "64401",
    "city": "Rodau"
  },
  {
    "postcode": "64401",
    "city": "Hippelsbach"
  },
  {
    "postcode": "64404",
    "city": "Bickenbach Bergstraße"
  },
  {
    "postcode": "64404",
    "city": "Bickenbach"
  },
  {
    "postcode": "64404",
    "city": "Darmstadt-Dieburg"
  },
  {
    "postcode": "64405",
    "city": "Billings"
  },
  {
    "postcode": "64405",
    "city": "Fischbachtal Odenwald"
  },
  {
    "postcode": "64405",
    "city": "Fischbachtal"
  },
  {
    "postcode": "64405",
    "city": "Lichtenberg Odenwald"
  },
  {
    "postcode": "64405",
    "city": "Lichtenberg"
  },
  {
    "postcode": "64405",
    "city": "Meßbach Odenwald"
  },
  {
    "postcode": "64405",
    "city": "Meßbach"
  },
  {
    "postcode": "64405",
    "city": "Niedernhausen Odenwald"
  },
  {
    "postcode": "64405",
    "city": "Niedernhausen"
  },
  {
    "postcode": "64405",
    "city": "Nonrod"
  },
  {
    "postcode": "64405",
    "city": "Steinau Odenwald"
  },
  {
    "postcode": "64405",
    "city": "Steinau"
  },
  {
    "postcode": "64405",
    "city": "Darmstadt-Dieburg"
  },
  {
    "postcode": "64407",
    "city": "Fränkisch-Crumbach"
  },
  {
    "postcode": "64407",
    "city": "Michelbach"
  },
  {
    "postcode": "64407",
    "city": "Odenwaldkreis"
  },
  {
    "postcode": "64409",
    "city": "Messel"
  },
  {
    "postcode": "64409",
    "city": "Darmstadt-Dieburg"
  },
  {
    "postcode": "64409",
    "city": "Stadt Darmstadt"
  },
  {
    "postcode": "64409",
    "city": "Grube Messel"
  },
  {
    "postcode": "64521",
    "city": "Berkach Hessen"
  },
  {
    "postcode": "64521",
    "city": "Berkach"
  },
  {
    "postcode": "64521",
    "city": "Dornberg"
  },
  {
    "postcode": "64521",
    "city": "Dornheim Hessen"
  },
  {
    "postcode": "64521",
    "city": "Dornheim"
  },
  {
    "postcode": "64521",
    "city": "Groß-Gerau"
  },
  {
    "postcode": "64521",
    "city": "Wallerstädten"
  },
  {
    "postcode": "64521",
    "city": "Heimstättensiedlung"
  },
  {
    "postcode": "64546",
    "city": "Mörfelden"
  },
  {
    "postcode": "64546",
    "city": "Mörfelden-Walldorf"
  },
  {
    "postcode": "64546",
    "city": "Walldorf Hessen"
  },
  {
    "postcode": "64546",
    "city": "Walldorf"
  },
  {
    "postcode": "64546",
    "city": "Groß-Gerau"
  },
  {
    "postcode": "64560",
    "city": "Crumstadt Hessen"
  },
  {
    "postcode": "64560",
    "city": "Crumstadt"
  },
  {
    "postcode": "64560",
    "city": "Erfelden"
  },
  {
    "postcode": "64560",
    "city": "Goddelau"
  },
  {
    "postcode": "64560",
    "city": "Leeheim Kreis Groß-Gerau"
  },
  {
    "postcode": "64560",
    "city": "Leeheim"
  },
  {
    "postcode": "64560",
    "city": "Riedstadt"
  },
  {
    "postcode": "64560",
    "city": "Wolfskehlen"
  },
  {
    "postcode": "64560",
    "city": "Groß-Gerau"
  },
  {
    "postcode": "64569",
    "city": "Nauheim Kreis Groß-Gerau"
  },
  {
    "postcode": "64569",
    "city": "Nauheim"
  },
  {
    "postcode": "64569",
    "city": "Groß-Gerau"
  },
  {
    "postcode": "64572",
    "city": "Büttelborn"
  },
  {
    "postcode": "64572",
    "city": "Klein-Gerau"
  },
  {
    "postcode": "64572",
    "city": "Worfelden"
  },
  {
    "postcode": "64572",
    "city": "Groß-Gerau"
  },
  {
    "postcode": "64579",
    "city": "Allmendfeld"
  },
  {
    "postcode": "64579",
    "city": "Gernsheim"
  },
  {
    "postcode": "64579",
    "city": "Klein-Rohrheim"
  },
  {
    "postcode": "64579",
    "city": "Schöfferstadt Gernsheim"
  },
  {
    "postcode": "64579",
    "city": "Groß-Gerau"
  },
  {
    "postcode": "64584",
    "city": "Biebesheim am Rhein"
  },
  {
    "postcode": "64584",
    "city": "Groß-Gerau"
  },
  {
    "postcode": "64589",
    "city": "Stockstadt"
  },
  {
    "postcode": "64589",
    "city": "Stockstadt am Rhein"
  },
  {
    "postcode": "64589",
    "city": "Groß-Gerau"
  },
  {
    "postcode": "64589",
    "city": "Erfelden"
  },
  {
    "postcode": "64625",
    "city": "Auerbach"
  },
  {
    "postcode": "64625",
    "city": "Bensheim"
  },
  {
    "postcode": "64625",
    "city": "Fehlheim Kreis Bergstraße"
  },
  {
    "postcode": "64625",
    "city": "Fehlheim"
  },
  {
    "postcode": "64625",
    "city": "Gronau Odenwald"
  },
  {
    "postcode": "64625",
    "city": "Gronau"
  },
  {
    "postcode": "64625",
    "city": "Hochstädten Kreis Bergstraße"
  },
  {
    "postcode": "64625",
    "city": "Hochstädten"
  },
  {
    "postcode": "64625",
    "city": "Langwaden"
  },
  {
    "postcode": "64625",
    "city": "Schönberg"
  },
  {
    "postcode": "64625",
    "city": "Schwanheim Bergstr"
  },
  {
    "postcode": "64625",
    "city": "Schwanheim"
  },
  {
    "postcode": "64625",
    "city": "Wilmshausen Kreis Bergstraße"
  },
  {
    "postcode": "64625",
    "city": "Wilmshausen"
  },
  {
    "postcode": "64625",
    "city": "Zell"
  },
  {
    "postcode": "64625",
    "city": "Bergstraße"
  },
  {
    "postcode": "64646",
    "city": "Erbach Kreis Bergstraße"
  },
  {
    "postcode": "64646",
    "city": "Erbach"
  },
  {
    "postcode": "64646",
    "city": "Hambach"
  },
  {
    "postcode": "64646",
    "city": "Heppenheim"
  },
  {
    "postcode": "64646",
    "city": "Heppenheim (Bergstraße)"
  },
  {
    "postcode": "64646",
    "city": "Igelsbach"
  },
  {
    "postcode": "64646",
    "city": "Kirschhausen Odenwald"
  },
  {
    "postcode": "64646",
    "city": "Kirschhausen"
  },
  {
    "postcode": "64646",
    "city": "Mittershausen"
  },
  {
    "postcode": "64646",
    "city": "Ober-Hambach Kreis Bergstraße"
  },
  {
    "postcode": "64646",
    "city": "Ober-Hambach"
  },
  {
    "postcode": "64646",
    "city": "Ober-Laudenbach"
  },
  {
    "postcode": "64646",
    "city": "Sonderbach"
  },
  {
    "postcode": "64646",
    "city": "Wald-Erlenbach"
  },
  {
    "postcode": "64646",
    "city": "Bergstraße"
  },
  {
    "postcode": "64646",
    "city": "Scheuerberg"
  },
  {
    "postcode": "64646",
    "city": "Unter-Hambach"
  },
  {
    "postcode": "64653",
    "city": "Lorsch Hessen"
  },
  {
    "postcode": "64653",
    "city": "Lorsch"
  },
  {
    "postcode": "64653",
    "city": "Bergstraße"
  },
  {
    "postcode": "64658",
    "city": "Brombach Kreis Bergstraße"
  },
  {
    "postcode": "64658",
    "city": "Brombach"
  },
  {
    "postcode": "64658",
    "city": "Ellenbach Odenwald"
  },
  {
    "postcode": "64658",
    "city": "Ellenbach"
  },
  {
    "postcode": "64658",
    "city": "Erlenbach Kreis Bergstraße"
  },
  {
    "postcode": "64658",
    "city": "Erlenbach"
  },
  {
    "postcode": "64658",
    "city": "Fahrenbach Odenwald"
  },
  {
    "postcode": "64658",
    "city": "Fahrenbach"
  },
  {
    "postcode": "64658",
    "city": "Fürth"
  },
  {
    "postcode": "64658",
    "city": "Fürth Odenwald"
  },
  {
    "postcode": "64658",
    "city": "Kröckelbach Odenwald"
  },
  {
    "postcode": "64658",
    "city": "Kröckelbach"
  },
  {
    "postcode": "64658",
    "city": "Krumbach Odenwald"
  },
  {
    "postcode": "64658",
    "city": "Krumbach"
  },
  {
    "postcode": "64658",
    "city": "Linnenbach"
  },
  {
    "postcode": "64658",
    "city": "Lörzenbach"
  },
  {
    "postcode": "64658",
    "city": "Seidenbach"
  },
  {
    "postcode": "64658",
    "city": "Steinbach Kreis Bergstraße"
  },
  {
    "postcode": "64658",
    "city": "Steinbach"
  },
  {
    "postcode": "64658",
    "city": "Weschnitz"
  },
  {
    "postcode": "64658",
    "city": "Bergstraße"
  },
  {
    "postcode": "64658",
    "city": "Faustenbach"
  },
  {
    "postcode": "64665",
    "city": "Alsbach"
  },
  {
    "postcode": "64665",
    "city": "Alsbach-Hähnlein"
  },
  {
    "postcode": "64665",
    "city": "Hähnlein"
  },
  {
    "postcode": "64665",
    "city": "Sandwiese"
  },
  {
    "postcode": "64665",
    "city": "Darmstadt-Dieburg"
  },
  {
    "postcode": "64668",
    "city": "Albersbach Odenwald"
  },
  {
    "postcode": "64668",
    "city": "Albersbach"
  },
  {
    "postcode": "64668",
    "city": "Lauten-Weschnitz"
  },
  {
    "postcode": "64668",
    "city": "Mitlechtern"
  },
  {
    "postcode": "64668",
    "city": "Münschbach"
  },
  {
    "postcode": "64668",
    "city": "Rimbach Odenwald"
  },
  {
    "postcode": "64668",
    "city": "Rimbach"
  },
  {
    "postcode": "64668",
    "city": "Unter-Mengelbach"
  },
  {
    "postcode": "64668",
    "city": "Zotzenbach"
  },
  {
    "postcode": "64668",
    "city": "Bergstraße"
  },
  {
    "postcode": "64668",
    "city": "Alzenau"
  },
  {
    "postcode": "64673",
    "city": "Rodau Kreis Bergstraße"
  },
  {
    "postcode": "64673",
    "city": "Rodau"
  },
  {
    "postcode": "64673",
    "city": "Zwingenberg"
  },
  {
    "postcode": "64673",
    "city": "Zwingenberg Bergstraße"
  },
  {
    "postcode": "64673",
    "city": "Bergstraße"
  },
  {
    "postcode": "64678",
    "city": "Eulsbach"
  },
  {
    "postcode": "64678",
    "city": "Glattbach Odenwald"
  },
  {
    "postcode": "64678",
    "city": "Glattbach"
  },
  {
    "postcode": "64678",
    "city": "Kolmbach über Bensheim"
  },
  {
    "postcode": "64678",
    "city": "Lindenfels"
  },
  {
    "postcode": "64678",
    "city": "Lindenfels Odenwald"
  },
  {
    "postcode": "64678",
    "city": "Schlierbach Bergstr"
  },
  {
    "postcode": "64678",
    "city": "Schlierbach"
  },
  {
    "postcode": "64678",
    "city": "Seidenbuch"
  },
  {
    "postcode": "64678",
    "city": "Winkel Odenwald"
  },
  {
    "postcode": "64678",
    "city": "Winkel"
  },
  {
    "postcode": "64678",
    "city": "Winterkasten"
  },
  {
    "postcode": "64678",
    "city": "Bergstraße"
  },
  {
    "postcode": "64678",
    "city": "Kolmbach"
  },
  {
    "postcode": "64683",
    "city": "Einhausen Hessen"
  },
  {
    "postcode": "64683",
    "city": "Einhausen"
  },
  {
    "postcode": "64683",
    "city": "Bergstraße"
  },
  {
    "postcode": "64686",
    "city": "Beedenkirchen"
  },
  {
    "postcode": "64686",
    "city": "Elmshausen Kreis Bergstraße"
  },
  {
    "postcode": "64686",
    "city": "Elmshausen"
  },
  {
    "postcode": "64686",
    "city": "Gadernheim"
  },
  {
    "postcode": "64686",
    "city": "Knoden"
  },
  {
    "postcode": "64686",
    "city": "Lautern Odenwald"
  },
  {
    "postcode": "64686",
    "city": "Lautern"
  },
  {
    "postcode": "64686",
    "city": "Lautertal (Odenwald)"
  },
  {
    "postcode": "64686",
    "city": "Lautertal"
  },
  {
    "postcode": "64686",
    "city": "Raidelbach"
  },
  {
    "postcode": "64686",
    "city": "Reichenbach Odenwald"
  },
  {
    "postcode": "64686",
    "city": "Reichenbach"
  },
  {
    "postcode": "64686",
    "city": "Schannenbach"
  },
  {
    "postcode": "64686",
    "city": "Schmal-Beerbach"
  },
  {
    "postcode": "64686",
    "city": "Staffel Odenwald"
  },
  {
    "postcode": "64686",
    "city": "Staffel"
  },
  {
    "postcode": "64686",
    "city": "Wurzelbach"
  },
  {
    "postcode": "64686",
    "city": "Bergstraße"
  },
  {
    "postcode": "64686",
    "city": "Breitenwiesen"
  },
  {
    "postcode": "64689",
    "city": "Grasellenbach"
  },
  {
    "postcode": "64689",
    "city": "Hammelbach"
  },
  {
    "postcode": "64689",
    "city": "Litzelbach Odenwald"
  },
  {
    "postcode": "64689",
    "city": "Litzelbach"
  },
  {
    "postcode": "64689",
    "city": "Tromm"
  },
  {
    "postcode": "64689",
    "city": "Wahlen Odenwald"
  },
  {
    "postcode": "64689",
    "city": "Wahlen"
  },
  {
    "postcode": "64689",
    "city": "Bergstraße"
  },
  {
    "postcode": "64689",
    "city": "Scharbach"
  },
  {
    "postcode": "64711",
    "city": "Bullau"
  },
  {
    "postcode": "64711",
    "city": "Dorf-Erbach"
  },
  {
    "postcode": "64711",
    "city": "Ebersberg Kreis Erbach Odenwald"
  },
  {
    "postcode": "64711",
    "city": "Ebersberg"
  },
  {
    "postcode": "64711",
    "city": "Elsbach Odenwald"
  },
  {
    "postcode": "64711",
    "city": "Elsbach"
  },
  {
    "postcode": "64711",
    "city": "Erbach (Odenwald)"
  },
  {
    "postcode": "64711",
    "city": "Erbach"
  },
  {
    "postcode": "64711",
    "city": "Erbuch"
  },
  {
    "postcode": "64711",
    "city": "Erlenbach Kreis Erbach Odenwald"
  },
  {
    "postcode": "64711",
    "city": "Erlenbach"
  },
  {
    "postcode": "64711",
    "city": "Ernsbach"
  },
  {
    "postcode": "64711",
    "city": "Günterfürst"
  },
  {
    "postcode": "64711",
    "city": "Haisterbach"
  },
  {
    "postcode": "64711",
    "city": "Lauerbach Odenwald"
  },
  {
    "postcode": "64711",
    "city": "Lauerbach"
  },
  {
    "postcode": "64711",
    "city": "Schönnen"
  },
  {
    "postcode": "64711",
    "city": "Odenwaldkreis"
  },
  {
    "postcode": "64711",
    "city": "Michelstadt"
  },
  {
    "postcode": "64711",
    "city": "Habermannskreuz"
  },
  {
    "postcode": "64720",
    "city": "Michelstadt"
  },
  {
    "postcode": "64720",
    "city": "Rehbach Odenwald"
  },
  {
    "postcode": "64720",
    "city": "Rehbach"
  },
  {
    "postcode": "64720",
    "city": "Steinbach Kreis Erbach Odenwald"
  },
  {
    "postcode": "64720",
    "city": "Steinbach"
  },
  {
    "postcode": "64720",
    "city": "Steinbuch"
  },
  {
    "postcode": "64720",
    "city": "Stockheim Odenwald"
  },
  {
    "postcode": "64720",
    "city": "Stockheim"
  },
  {
    "postcode": "64720",
    "city": "Vielbrunn Odenwald"
  },
  {
    "postcode": "64720",
    "city": "Vielbrunn"
  },
  {
    "postcode": "64720",
    "city": "Weiten-Gesäß"
  },
  {
    "postcode": "64720",
    "city": "Würzberg Odenwald"
  },
  {
    "postcode": "64720",
    "city": "Würzberg"
  },
  {
    "postcode": "64720",
    "city": "Odenwaldkreis"
  },
  {
    "postcode": "64720",
    "city": "Eulbach"
  },
  {
    "postcode": "64720",
    "city": "Schimmelshütte"
  },
  {
    "postcode": "64732",
    "city": "Bad König"
  },
  {
    "postcode": "64732",
    "city": "Etzen-Gesäß"
  },
  {
    "postcode": "64732",
    "city": "Fürstengrund"
  },
  {
    "postcode": "64732",
    "city": "Gumpersberg"
  },
  {
    "postcode": "64732",
    "city": "Kimbach"
  },
  {
    "postcode": "64732",
    "city": "Momart"
  },
  {
    "postcode": "64732",
    "city": "Nieder-Kinzig"
  },
  {
    "postcode": "64732",
    "city": "Ober-Kinzig"
  },
  {
    "postcode": "64732",
    "city": "Zell Kreis Erbach Odenwald"
  },
  {
    "postcode": "64732",
    "city": "Zell"
  },
  {
    "postcode": "64732",
    "city": "Odenwaldkreis"
  },
  {
    "postcode": "64739",
    "city": "Annelsbach"
  },
  {
    "postcode": "64739",
    "city": "Dusenbach Odenwald"
  },
  {
    "postcode": "64739",
    "city": "Dusenbach"
  },
  {
    "postcode": "64739",
    "city": "Forstel Odenwald"
  },
  {
    "postcode": "64739",
    "city": "Forstel"
  },
  {
    "postcode": "64739",
    "city": "Hassenroth"
  },
  {
    "postcode": "64739",
    "city": "Hetschbach Odenwald"
  },
  {
    "postcode": "64739",
    "city": "Hetschbach"
  },
  {
    "postcode": "64739",
    "city": "Höchst im Odenwald"
  },
  {
    "postcode": "64739",
    "city": "Hummetroth Odenwald"
  },
  {
    "postcode": "64739",
    "city": "Hummetroth"
  },
  {
    "postcode": "64739",
    "city": "Pfirschbach"
  },
  {
    "postcode": "64739",
    "city": "Odenwaldkreis"
  },
  {
    "postcode": "64739",
    "city": "Höchst"
  },
  {
    "postcode": "64739",
    "city": "Mümling-Grumbach"
  },
  {
    "postcode": "64743",
    "city": "Airlenbach"
  },
  {
    "postcode": "64743",
    "city": "Beerfelden"
  },
  {
    "postcode": "64743",
    "city": "Beerfelden Odenwald"
  },
  {
    "postcode": "64743",
    "city": "Etzean Odenwald"
  },
  {
    "postcode": "64743",
    "city": "Etzean"
  },
  {
    "postcode": "64743",
    "city": "Falken-Gesäß"
  },
  {
    "postcode": "64743",
    "city": "Gammelsbach"
  },
  {
    "postcode": "64743",
    "city": "Hetzbach"
  },
  {
    "postcode": "64743",
    "city": "Marbach Odenwald"
  },
  {
    "postcode": "64743",
    "city": "Marbach"
  },
  {
    "postcode": "64743",
    "city": "Olfen Odenwald"
  },
  {
    "postcode": "64743",
    "city": "Olfen"
  },
  {
    "postcode": "64743",
    "city": "Odenwaldkreis"
  },
  {
    "postcode": "64747",
    "city": "Breuberg"
  },
  {
    "postcode": "64747",
    "city": "Hainstadt Odenwald"
  },
  {
    "postcode": "64747",
    "city": "Hainstadt"
  },
  {
    "postcode": "64747",
    "city": "Neustadt Odenwald"
  },
  {
    "postcode": "64747",
    "city": "Neustadt"
  },
  {
    "postcode": "64747",
    "city": "Rai-Breitenbach"
  },
  {
    "postcode": "64747",
    "city": "Sandbach Hessen"
  },
  {
    "postcode": "64747",
    "city": "Sandbach"
  },
  {
    "postcode": "64747",
    "city": "Wald-Amorbach"
  },
  {
    "postcode": "64747",
    "city": "Odenwaldkreis"
  },
  {
    "postcode": "64750",
    "city": "Breitenbrunn Odenwald"
  },
  {
    "postcode": "64750",
    "city": "Breitenbrunn"
  },
  {
    "postcode": "64750",
    "city": "Haingrund"
  },
  {
    "postcode": "64750",
    "city": "Lützel-Wiebelsbach"
  },
  {
    "postcode": "64750",
    "city": "Lützelbach Odenwald"
  },
  {
    "postcode": "64750",
    "city": "Lützelbach"
  },
  {
    "postcode": "64750",
    "city": "Rimhorn"
  },
  {
    "postcode": "64750",
    "city": "Seckmauern"
  },
  {
    "postcode": "64750",
    "city": "Odenwaldkreis"
  },
  {
    "postcode": "64753",
    "city": "Birkert"
  },
  {
    "postcode": "64753",
    "city": "Böllstein"
  },
  {
    "postcode": "64753",
    "city": "Brombachtal"
  },
  {
    "postcode": "64753",
    "city": "Hembach"
  },
  {
    "postcode": "64753",
    "city": "Odenwaldkreis"
  },
  {
    "postcode": "64753",
    "city": "Wünschbach"
  },
  {
    "postcode": "64753",
    "city": "Kirchbrombach"
  },
  {
    "postcode": "64753",
    "city": "Langenbrombach"
  },
  {
    "postcode": "64754",
    "city": "Eberbach (Baden)"
  },
  {
    "postcode": "64754",
    "city": "Eberbach"
  },
  {
    "postcode": "64754",
    "city": "Hesselbach Odenwald"
  },
  {
    "postcode": "64754",
    "city": "Hesselbach"
  },
  {
    "postcode": "64754",
    "city": "Hesseneck"
  },
  {
    "postcode": "64754",
    "city": "Kailbach Odenwald"
  },
  {
    "postcode": "64754",
    "city": "Kailbach"
  },
  {
    "postcode": "64754",
    "city": "Schöllenbach"
  },
  {
    "postcode": "64754",
    "city": "Odenwaldkreis"
  },
  {
    "postcode": "64754",
    "city": "Badisch Schöllenbach"
  },
  {
    "postcode": "64756",
    "city": "Güttersbach"
  },
  {
    "postcode": "64756",
    "city": "Hiltersklingen"
  },
  {
    "postcode": "64756",
    "city": "Hüttenthal"
  },
  {
    "postcode": "64756",
    "city": "Mossautal"
  },
  {
    "postcode": "64756",
    "city": "Ober-Mossau"
  },
  {
    "postcode": "64756",
    "city": "Unter-Mossau"
  },
  {
    "postcode": "64756",
    "city": "Odenwaldkreis"
  },
  {
    "postcode": "64757",
    "city": "Finkenbach Odenwald"
  },
  {
    "postcode": "64757",
    "city": "Finkenbach"
  },
  {
    "postcode": "64757",
    "city": "Hinterbach"
  },
  {
    "postcode": "64757",
    "city": "Kortelshütte"
  },
  {
    "postcode": "64757",
    "city": "Raubach Odenwald"
  },
  {
    "postcode": "64757",
    "city": "Raubach"
  },
  {
    "postcode": "64757",
    "city": "Rothenberg"
  },
  {
    "postcode": "64757",
    "city": "Rothenberg Odenwald"
  },
  {
    "postcode": "64757",
    "city": "Odenwaldkreis"
  },
  {
    "postcode": "64757",
    "city": "Unter-Hainbrunn"
  },
  {
    "postcode": "64759",
    "city": "Hebstahl"
  },
  {
    "postcode": "64759",
    "city": "Sensbachtal"
  },
  {
    "postcode": "64759",
    "city": "Odenwaldkreis"
  },
  {
    "postcode": "64807",
    "city": "Dieburg"
  },
  {
    "postcode": "64807",
    "city": "Darmstadt-Dieburg"
  },
  {
    "postcode": "64823",
    "city": "Dorndiel"
  },
  {
    "postcode": "64823",
    "city": "Groß-Umstadt"
  },
  {
    "postcode": "64823",
    "city": "Heubach Kreis Dieburg"
  },
  {
    "postcode": "64823",
    "city": "Heubach"
  },
  {
    "postcode": "64823",
    "city": "Kleestadt"
  },
  {
    "postcode": "64823",
    "city": "Klein-Umstadt"
  },
  {
    "postcode": "64823",
    "city": "Raibach Kreis Dieburg"
  },
  {
    "postcode": "64823",
    "city": "Raibach"
  },
  {
    "postcode": "64823",
    "city": "Richen Hessen"
  },
  {
    "postcode": "64823",
    "city": "Richen"
  },
  {
    "postcode": "64823",
    "city": "Semd"
  },
  {
    "postcode": "64823",
    "city": "Wiebelsbach Kreis Dieburg"
  },
  {
    "postcode": "64823",
    "city": "Wiebelsbach"
  },
  {
    "postcode": "64823",
    "city": "Darmstadt-Dieburg"
  },
  {
    "postcode": "64832",
    "city": "Babenhausen"
  },
  {
    "postcode": "64832",
    "city": "Babenhausen Hessen"
  },
  {
    "postcode": "64832",
    "city": "Harpertshausen"
  },
  {
    "postcode": "64832",
    "city": "Harreshausen"
  },
  {
    "postcode": "64832",
    "city": "Hergershausen Kreis Dieburg"
  },
  {
    "postcode": "64832",
    "city": "Hergershausen"
  },
  {
    "postcode": "64832",
    "city": "Langstadt Kreis Dieburg"
  },
  {
    "postcode": "64832",
    "city": "Langstadt"
  },
  {
    "postcode": "64832",
    "city": "Sickenhofen"
  },
  {
    "postcode": "64832",
    "city": "Darmstadt-Dieburg"
  },
  {
    "postcode": "64839",
    "city": "Altheim Hessen"
  },
  {
    "postcode": "64839",
    "city": "Altheim"
  },
  {
    "postcode": "64839",
    "city": "Münster bei Dieburg"
  },
  {
    "postcode": "64839",
    "city": "Darmstadt-Dieburg"
  },
  {
    "postcode": "64839",
    "city": "Münster (Hessen)"
  },
  {
    "postcode": "64839",
    "city": "Münster"
  },
  {
    "postcode": "64839",
    "city": "Breitefeld"
  },
  {
    "postcode": "64846",
    "city": "Groß-Zimmern"
  },
  {
    "postcode": "64846",
    "city": "Klein-Zimmern"
  },
  {
    "postcode": "64846",
    "city": "Darmstadt-Dieburg"
  },
  {
    "postcode": "64846",
    "city": "Gundernhausen"
  },
  {
    "postcode": "64850",
    "city": "Mosbach Kreis Dieburg"
  },
  {
    "postcode": "64850",
    "city": "Mosbach"
  },
  {
    "postcode": "64850",
    "city": "Radheim Hessen"
  },
  {
    "postcode": "64850",
    "city": "Radheim"
  },
  {
    "postcode": "64850",
    "city": "Schaafheim"
  },
  {
    "postcode": "64850",
    "city": "Schlierbach Hessen"
  },
  {
    "postcode": "64850",
    "city": "Schlierbach"
  },
  {
    "postcode": "64850",
    "city": "Darmstadt-Dieburg"
  },
  {
    "postcode": "64853",
    "city": "Habitzheim"
  },
  {
    "postcode": "64853",
    "city": "Hering Odenwald"
  },
  {
    "postcode": "64853",
    "city": "Hering"
  },
  {
    "postcode": "64853",
    "city": "Lengfeld Odenwald"
  },
  {
    "postcode": "64853",
    "city": "Lengfeld"
  },
  {
    "postcode": "64853",
    "city": "Nieder-Klingen"
  },
  {
    "postcode": "64853",
    "city": "Ober-Nauses"
  },
  {
    "postcode": "64853",
    "city": "Otzberg"
  },
  {
    "postcode": "64853",
    "city": "Zipfen"
  },
  {
    "postcode": "64853",
    "city": "Darmstadt-Dieburg"
  },
  {
    "postcode": "64853",
    "city": "Ober-Klingen"
  },
  {
    "postcode": "64853",
    "city": "Ueberau"
  },
  {
    "postcode": "64859",
    "city": "Eppertshausen"
  },
  {
    "postcode": "64859",
    "city": "Thomashütte"
  },
  {
    "postcode": "64859",
    "city": "Darmstadt-Dieburg"
  },
  {
    "postcode": "6485",
    "city": "Harz"
  },
  {
    "postcode": "6485",
    "city": "Quedlinburg"
  },
  {
    "postcode": "6485",
    "city": "Gernrode"
  },
  {
    "postcode": "6485",
    "city": "Bad Suderode"
  },
  {
    "postcode": "6485",
    "city": "Haferfeld"
  }
]