[
  {
    "postcode": "58089",
    "city": "Altenhagen"
  },
  {
    "postcode": "58089",
    "city": "Boele"
  },
  {
    "postcode": "58089",
    "city": "Hagen (Westfalen)"
  },
  {
    "postcode": "58089",
    "city": "Hagen"
  },
  {
    "postcode": "58089",
    "city": "Haspe"
  },
  {
    "postcode": "58089",
    "city": "Vorhalle"
  },
  {
    "postcode": "58089",
    "city": "Wehringhausen"
  },
  {
    "postcode": "58089",
    "city": "Mittelstadt"
  },
  {
    "postcode": "58091",
    "city": "Dahl Ennepe-Ruhrkreis"
  },
  {
    "postcode": "58091",
    "city": "Dahl"
  },
  {
    "postcode": "58091",
    "city": "Eilpe"
  },
  {
    "postcode": "58091",
    "city": "Emst"
  },
  {
    "postcode": "58091",
    "city": "Hagen (Westfalen)"
  },
  {
    "postcode": "58091",
    "city": "Hagen"
  },
  {
    "postcode": "58091",
    "city": "Mittelstadt"
  },
  {
    "postcode": "58091",
    "city": "Wehringhausen"
  },
  {
    "postcode": "58091",
    "city": "Stadt Breckerfeld"
  },
  {
    "postcode": "58093",
    "city": "Berchum"
  },
  {
    "postcode": "58093",
    "city": "Boele"
  },
  {
    "postcode": "58093",
    "city": "Eilpe"
  },
  {
    "postcode": "58093",
    "city": "Emst"
  },
  {
    "postcode": "58093",
    "city": "Hagen (Westfalen)"
  },
  {
    "postcode": "58093",
    "city": "Hagen"
  },
  {
    "postcode": "58093",
    "city": "Hohenlimburg"
  },
  {
    "postcode": "58093",
    "city": "Hochschulviertel"
  },
  {
    "postcode": "58093",
    "city": "Lennetal"
  },
  {
    "postcode": "58093",
    "city": "Halden"
  },
  {
    "postcode": "58093",
    "city": "Mittelstadt"
  },
  {
    "postcode": "58093",
    "city": "Herbeck"
  },
  {
    "postcode": "58095",
    "city": "Hagen (Westfalen)"
  },
  {
    "postcode": "58095",
    "city": "Hagen"
  },
  {
    "postcode": "58095",
    "city": "Mittelstadt"
  },
  {
    "postcode": "58095",
    "city": "Hochschulviertel"
  },
  {
    "postcode": "58095",
    "city": "Wehringhausen"
  },
  {
    "postcode": "58097",
    "city": "Altenhagen"
  },
  {
    "postcode": "58097",
    "city": "Boele"
  },
  {
    "postcode": "58097",
    "city": "Hagen (Westfalen)"
  },
  {
    "postcode": "58097",
    "city": "Hagen"
  },
  {
    "postcode": "58097",
    "city": "Hochschulviertel"
  },
  {
    "postcode": "58097",
    "city": "Mittelstadt"
  },
  {
    "postcode": "58097",
    "city": "Ischeland"
  },
  {
    "postcode": "58099",
    "city": "Berchum"
  },
  {
    "postcode": "58099",
    "city": "Boele"
  },
  {
    "postcode": "58099",
    "city": "Garenfeld Westfalen"
  },
  {
    "postcode": "58099",
    "city": "Garenfeld"
  },
  {
    "postcode": "58099",
    "city": "Hagen (Westfalen)"
  },
  {
    "postcode": "58099",
    "city": "Hagen"
  },
  {
    "postcode": "58099",
    "city": "Hohenlimburg"
  },
  {
    "postcode": "58099",
    "city": "Lennetal"
  },
  {
    "postcode": "58099",
    "city": "Henkhausen"
  },
  {
    "postcode": "58119",
    "city": "Hagen (Westfalen)"
  },
  {
    "postcode": "58119",
    "city": "Hagen"
  },
  {
    "postcode": "58119",
    "city": "Hohenlimburg"
  },
  {
    "postcode": "58119",
    "city": "Henkhausen"
  },
  {
    "postcode": "58119",
    "city": "Oege"
  },
  {
    "postcode": "58135",
    "city": "Hagen (Westfalen)"
  },
  {
    "postcode": "58135",
    "city": "Hagen"
  },
  {
    "postcode": "58135",
    "city": "Haspe"
  },
  {
    "postcode": "58239",
    "city": "Ergste"
  },
  {
    "postcode": "58239",
    "city": "Geisecke"
  },
  {
    "postcode": "58239",
    "city": "Hohenlimburg"
  },
  {
    "postcode": "58239",
    "city": "Lichtendorf"
  },
  {
    "postcode": "58239",
    "city": "Schwerte"
  },
  {
    "postcode": "58239",
    "city": "Villigst"
  },
  {
    "postcode": "58239",
    "city": "Wandhofen"
  },
  {
    "postcode": "58239",
    "city": "Westhofen Westfalen"
  },
  {
    "postcode": "58239",
    "city": "Westhofen"
  },
  {
    "postcode": "58239",
    "city": "Unna"
  },
  {
    "postcode": "58239",
    "city": "Holzen"
  },
  {
    "postcode": "58239",
    "city": "Stadt Hagen"
  },
  {
    "postcode": "58239",
    "city": "Schwerter Heide"
  },
  {
    "postcode": "58256",
    "city": "Altenvoerde"
  },
  {
    "postcode": "58256",
    "city": "Bilstein"
  },
  {
    "postcode": "58256",
    "city": "Bülbringen"
  },
  {
    "postcode": "58256",
    "city": "Burg"
  },
  {
    "postcode": "58256",
    "city": "Büttenberg"
  },
  {
    "postcode": "58256",
    "city": "Ennepetal"
  },
  {
    "postcode": "58256",
    "city": "Hasperbach"
  },
  {
    "postcode": "58256",
    "city": "Homberge"
  },
  {
    "postcode": "58256",
    "city": "Milspe"
  },
  {
    "postcode": "58256",
    "city": "Oberbauer"
  },
  {
    "postcode": "58256",
    "city": "Oberholthausen"
  },
  {
    "postcode": "58256",
    "city": "Rüggeberg"
  },
  {
    "postcode": "58256",
    "city": "Verneis"
  },
  {
    "postcode": "58256",
    "city": "Ennepe-Ruhr-Kreis"
  },
  {
    "postcode": "58256",
    "city": "Hagen"
  },
  {
    "postcode": "58256",
    "city": "Siedlung Heide"
  },
  {
    "postcode": "58256",
    "city": "Voerde"
  },
  {
    "postcode": "58256",
    "city": "Oelkinghausen"
  },
  {
    "postcode": "58256",
    "city": "Peddenöde"
  },
  {
    "postcode": "58256",
    "city": "Breckerfeld"
  },
  {
    "postcode": "58256",
    "city": "Wolfshövel"
  },
  {
    "postcode": "58256",
    "city": "Mühlinghausen"
  },
  {
    "postcode": "58256",
    "city": "Herminghausen"
  },
  {
    "postcode": "58256",
    "city": "Königsfeld"
  },
  {
    "postcode": "58256",
    "city": "Saale"
  },
  {
    "postcode": "58256",
    "city": "Hillringhausen"
  },
  {
    "postcode": "58256",
    "city": "Stadt Hagen"
  },
  {
    "postcode": "58256",
    "city": "Heide"
  },
  {
    "postcode": "58285",
    "city": "Asbeck Ennepe-Ruhrkreis"
  },
  {
    "postcode": "58285",
    "city": "Asbeck"
  },
  {
    "postcode": "58285",
    "city": "Berge Ennepe-Ruhrkreis"
  },
  {
    "postcode": "58285",
    "city": "Berge"
  },
  {
    "postcode": "58285",
    "city": "Gevelsberg"
  },
  {
    "postcode": "58285",
    "city": "Silschede"
  },
  {
    "postcode": "58285",
    "city": "Ennepe-Ruhr-Kreis"
  },
  {
    "postcode": "58285",
    "city": "Knapp"
  },
  {
    "postcode": "58285",
    "city": "Vogelsang"
  },
  {
    "postcode": "58300",
    "city": "Esborn"
  },
  {
    "postcode": "58300",
    "city": "Volmarstein"
  },
  {
    "postcode": "58300",
    "city": "Wengern Ruhr"
  },
  {
    "postcode": "58300",
    "city": "Wengern"
  },
  {
    "postcode": "58300",
    "city": "Wetter an der Ruhr"
  },
  {
    "postcode": "58300",
    "city": "Ennepe-Ruhr-Kreis"
  },
  {
    "postcode": "58300",
    "city": "Wetter (Ruhr)"
  },
  {
    "postcode": "58300",
    "city": "Alt-Wetter"
  },
  {
    "postcode": "58300",
    "city": "Schmandbruch"
  },
  {
    "postcode": "58300",
    "city": "Oberwengern"
  },
  {
    "postcode": "58300",
    "city": "Wetter"
  },
  {
    "postcode": "58313",
    "city": "Ahlenberg"
  },
  {
    "postcode": "58313",
    "city": "Ende"
  },
  {
    "postcode": "58313",
    "city": "Herdecke"
  },
  {
    "postcode": "58313",
    "city": "Herdecke an der Ruhr"
  },
  {
    "postcode": "58313",
    "city": "Ennepe-Ruhr-Kreis"
  },
  {
    "postcode": "58313",
    "city": "Ostende"
  },
  {
    "postcode": "58332",
    "city": "Schwelm"
  },
  {
    "postcode": "58332",
    "city": "Ennepe-Ruhr-Kreis"
  },
  {
    "postcode": "58339",
    "city": "Branten"
  },
  {
    "postcode": "58339",
    "city": "Breckerfeld"
  },
  {
    "postcode": "58339",
    "city": "Delle"
  },
  {
    "postcode": "58339",
    "city": "Epscheid"
  },
  {
    "postcode": "58339",
    "city": "Ennepe-Ruhr-Kreis"
  },
  {
    "postcode": "58339",
    "city": "Zurstraße"
  },
  {
    "postcode": "58339",
    "city": "Ehringhausen"
  },
  {
    "postcode": "58452",
    "city": "Bommern"
  },
  {
    "postcode": "58452",
    "city": "Herbede"
  },
  {
    "postcode": "58452",
    "city": "Witten"
  },
  {
    "postcode": "58452",
    "city": "Ennepe-Ruhr-Kreis"
  },
  {
    "postcode": "58452",
    "city": "Mitte"
  },
  {
    "postcode": "58453",
    "city": "Annen"
  },
  {
    "postcode": "58453",
    "city": "Rüdinghausen"
  },
  {
    "postcode": "58453",
    "city": "Witten"
  },
  {
    "postcode": "58453",
    "city": "Ennepe-Ruhr-Kreis"
  },
  {
    "postcode": "58453",
    "city": "Mitte"
  },
  {
    "postcode": "58454",
    "city": "Annen"
  },
  {
    "postcode": "58454",
    "city": "Rüdinghausen"
  },
  {
    "postcode": "58454",
    "city": "Stockum"
  },
  {
    "postcode": "58454",
    "city": "Witten"
  },
  {
    "postcode": "58454",
    "city": "Ennepe-Ruhr-Kreis"
  },
  {
    "postcode": "58454",
    "city": "Düren"
  },
  {
    "postcode": "58454",
    "city": "Wullen"
  },
  {
    "postcode": "58455",
    "city": "Annen"
  },
  {
    "postcode": "58455",
    "city": "Heven"
  },
  {
    "postcode": "58455",
    "city": "Witten"
  },
  {
    "postcode": "58455",
    "city": "Ennepe-Ruhr-Kreis"
  },
  {
    "postcode": "58455",
    "city": "Mitte"
  },
  {
    "postcode": "58456",
    "city": "Herbede"
  },
  {
    "postcode": "58456",
    "city": "Heven"
  },
  {
    "postcode": "58456",
    "city": "Witten"
  },
  {
    "postcode": "58456",
    "city": "Ennepe-Ruhr-Kreis"
  },
  {
    "postcode": "58456",
    "city": "Durchholz"
  },
  {
    "postcode": "58507",
    "city": "Gevelndorf"
  },
  {
    "postcode": "58507",
    "city": "Lüdenscheid"
  },
  {
    "postcode": "58507",
    "city": "Märkischer Kreis"
  },
  {
    "postcode": "58507",
    "city": "Wehberg"
  },
  {
    "postcode": "58509",
    "city": "Lüdenscheid"
  },
  {
    "postcode": "58509",
    "city": "Märkischer Kreis"
  },
  {
    "postcode": "58511",
    "city": "Lüdenscheid"
  },
  {
    "postcode": "58511",
    "city": "Vogelberg"
  },
  {
    "postcode": "58511",
    "city": "Märkischer Kreis"
  },
  {
    "postcode": "58513",
    "city": "Brüninghausen Westfalen"
  },
  {
    "postcode": "58513",
    "city": "Brüninghausen"
  },
  {
    "postcode": "58513",
    "city": "Eggenscheid"
  },
  {
    "postcode": "58513",
    "city": "Gevelndorf"
  },
  {
    "postcode": "58513",
    "city": "Leifringhausen"
  },
  {
    "postcode": "58513",
    "city": "Lüdenscheid"
  },
  {
    "postcode": "58513",
    "city": "Oberrahmede"
  },
  {
    "postcode": "58513",
    "city": "Rathmecke"
  },
  {
    "postcode": "58513",
    "city": "Wettringhof"
  },
  {
    "postcode": "58513",
    "city": "Märkischer Kreis"
  },
  {
    "postcode": "58513",
    "city": "Freisenberg"
  },
  {
    "postcode": "58513",
    "city": "Dickenberg"
  },
  {
    "postcode": "58513",
    "city": "Wehberg"
  },
  {
    "postcode": "58515",
    "city": "Brügge Westfalen"
  },
  {
    "postcode": "58515",
    "city": "Brügge"
  },
  {
    "postcode": "58515",
    "city": "Brüninghausen Westfalen"
  },
  {
    "postcode": "58515",
    "city": "Brüninghausen"
  },
  {
    "postcode": "58515",
    "city": "Hellersen"
  },
  {
    "postcode": "58515",
    "city": "Lüdenscheid"
  },
  {
    "postcode": "58515",
    "city": "Märkischer Kreis"
  },
  {
    "postcode": "58515",
    "city": "Bierbaum"
  },
  {
    "postcode": "58515",
    "city": "Piepersloh"
  },
  {
    "postcode": "58515",
    "city": "Gemeinde Schalksmühle"
  },
  {
    "postcode": "58515",
    "city": "Leifringhausen"
  },
  {
    "postcode": "58515",
    "city": "Stadt Kierspe"
  },
  {
    "postcode": "58540",
    "city": "Meinerzhagen"
  },
  {
    "postcode": "58540",
    "city": "Valbert Westfalen"
  },
  {
    "postcode": "58540",
    "city": "Valbert"
  },
  {
    "postcode": "58540",
    "city": "Märkischer Kreis"
  },
  {
    "postcode": "58553",
    "city": "Anschlag Westfalen"
  },
  {
    "postcode": "58553",
    "city": "Anschlag"
  },
  {
    "postcode": "58553",
    "city": "Halver"
  },
  {
    "postcode": "58553",
    "city": "Heesfeld"
  },
  {
    "postcode": "58553",
    "city": "Oberbrügge"
  },
  {
    "postcode": "58553",
    "city": "Schwenke"
  },
  {
    "postcode": "58553",
    "city": "Märkischer Kreis"
  },
  {
    "postcode": "58553",
    "city": "Buschhausen"
  },
  {
    "postcode": "58553",
    "city": "Carthausen"
  },
  {
    "postcode": "58553",
    "city": "Grünenbaum"
  },
  {
    "postcode": "58553",
    "city": "Hürxtal"
  },
  {
    "postcode": "58553",
    "city": "Nieder-Carthausen"
  },
  {
    "postcode": "58553",
    "city": "Stadtkern"
  },
  {
    "postcode": "58553",
    "city": "Stadt Wipperfürth"
  },
  {
    "postcode": "58566",
    "city": "Bollwerk Westfalen"
  },
  {
    "postcode": "58566",
    "city": "Bollwerk"
  },
  {
    "postcode": "58566",
    "city": "Höckinghausen"
  },
  {
    "postcode": "58566",
    "city": "Kierspe"
  },
  {
    "postcode": "58566",
    "city": "Kierspe Bahnhof"
  },
  {
    "postcode": "58566",
    "city": "Rönsahl"
  },
  {
    "postcode": "58566",
    "city": "Vollme"
  },
  {
    "postcode": "58566",
    "city": "Märkischer Kreis"
  },
  {
    "postcode": "58566",
    "city": "Kierspe Dorf"
  },
  {
    "postcode": "58566",
    "city": "Grünenbaum"
  },
  {
    "postcode": "58566",
    "city": "Neuenhaus"
  },
  {
    "postcode": "58566",
    "city": "Mettberg"
  },
  {
    "postcode": "58566",
    "city": "Immelscheid"
  },
  {
    "postcode": "58579",
    "city": "Dahlerbrück"
  },
  {
    "postcode": "58579",
    "city": "Heedfeld"
  },
  {
    "postcode": "58579",
    "city": "Hülscheid"
  },
  {
    "postcode": "58579",
    "city": "Klagebach"
  },
  {
    "postcode": "58579",
    "city": "Rotthausen"
  },
  {
    "postcode": "58579",
    "city": "Schalksmühle"
  },
  {
    "postcode": "58579",
    "city": "Winkeln"
  },
  {
    "postcode": "58579",
    "city": "Märkischer Kreis"
  },
  {
    "postcode": "58579",
    "city": "Reeswinkel"
  },
  {
    "postcode": "58579",
    "city": "Stallhaus"
  },
  {
    "postcode": "58579",
    "city": "Strücken"
  },
  {
    "postcode": "58636",
    "city": "Bilveringsen"
  },
  {
    "postcode": "58636",
    "city": "Düingsen"
  },
  {
    "postcode": "58636",
    "city": "Iserlohn"
  },
  {
    "postcode": "58636",
    "city": "Iserlohnerheide"
  },
  {
    "postcode": "58636",
    "city": "Wermingsen"
  },
  {
    "postcode": "58636",
    "city": "Märkischer Kreis"
  },
  {
    "postcode": "58636",
    "city": "Zentrum"
  },
  {
    "postcode": "58636",
    "city": "Löbbeckenkopf"
  },
  {
    "postcode": "58636",
    "city": "Hemberg"
  },
  {
    "postcode": "58638",
    "city": "Dördel"
  },
  {
    "postcode": "58638",
    "city": "Dröschede"
  },
  {
    "postcode": "58638",
    "city": "Gerlingsen"
  },
  {
    "postcode": "58638",
    "city": "Hombruch"
  },
  {
    "postcode": "58638",
    "city": "Iserlohn"
  },
  {
    "postcode": "58638",
    "city": "Iserlohnerheide"
  },
  {
    "postcode": "58638",
    "city": "Märkischer Kreis"
  },
  {
    "postcode": "58638",
    "city": "Nußberg"
  },
  {
    "postcode": "58638",
    "city": "Dröschederfeld"
  },
  {
    "postcode": "58638",
    "city": "Zentrum"
  },
  {
    "postcode": "58638",
    "city": "Bremke"
  },
  {
    "postcode": "58638",
    "city": "Kuhlo"
  },
  {
    "postcode": "58640",
    "city": "Barendorf"
  },
  {
    "postcode": "58640",
    "city": "Drüpplingsen"
  },
  {
    "postcode": "58640",
    "city": "Griesenbrauck"
  },
  {
    "postcode": "58640",
    "city": "Hennen"
  },
  {
    "postcode": "58640",
    "city": "Iserlohn"
  },
  {
    "postcode": "58640",
    "city": "Iserlohnerheide"
  },
  {
    "postcode": "58640",
    "city": "Kalthof"
  },
  {
    "postcode": "58640",
    "city": "Refflingsen"
  },
  {
    "postcode": "58640",
    "city": "Rheinen"
  },
  {
    "postcode": "58640",
    "city": "Rheinermark"
  },
  {
    "postcode": "58640",
    "city": "Sümmern"
  },
  {
    "postcode": "58640",
    "city": "Märkischer Kreis"
  },
  {
    "postcode": "58642",
    "city": "Dröschede"
  },
  {
    "postcode": "58642",
    "city": "Grürmannsheide"
  },
  {
    "postcode": "58642",
    "city": "Iserlohn"
  },
  {
    "postcode": "58642",
    "city": "Lasbeck"
  },
  {
    "postcode": "58642",
    "city": "Letmathe"
  },
  {
    "postcode": "58642",
    "city": "Oestrich"
  },
  {
    "postcode": "58642",
    "city": "Märkischer Kreis"
  },
  {
    "postcode": "58642",
    "city": "Grüne"
  },
  {
    "postcode": "58642",
    "city": "Stübbeken"
  },
  {
    "postcode": "58644",
    "city": "Attern"
  },
  {
    "postcode": "58644",
    "city": "Dahlsen"
  },
  {
    "postcode": "58644",
    "city": "Dröschede"
  },
  {
    "postcode": "58644",
    "city": "Hegenscheid Westfalen"
  },
  {
    "postcode": "58644",
    "city": "Hegenscheid"
  },
  {
    "postcode": "58644",
    "city": "Iserlohn"
  },
  {
    "postcode": "58644",
    "city": "Kesbern"
  },
  {
    "postcode": "58644",
    "city": "Lössel"
  },
  {
    "postcode": "58644",
    "city": "Obergrüne"
  },
  {
    "postcode": "58644",
    "city": "Oestrich"
  },
  {
    "postcode": "58644",
    "city": "Untergrüne"
  },
  {
    "postcode": "58644",
    "city": "Voßwinkel"
  },
  {
    "postcode": "58644",
    "city": "Wixberg Westfalen"
  },
  {
    "postcode": "58644",
    "city": "Wixberg"
  },
  {
    "postcode": "58644",
    "city": "Märkischer Kreis"
  },
  {
    "postcode": "58644",
    "city": "Zentrum"
  },
  {
    "postcode": "58644",
    "city": "Roden"
  },
  {
    "postcode": "58644",
    "city": "Dröschederfeld"
  },
  {
    "postcode": "58675",
    "city": "Apricke"
  },
  {
    "postcode": "58675",
    "city": "Becke bei Hemer"
  },
  {
    "postcode": "58675",
    "city": "Bredenbruch Sauerland"
  },
  {
    "postcode": "58675",
    "city": "Bredenbruch"
  },
  {
    "postcode": "58675",
    "city": "Brockhausen"
  },
  {
    "postcode": "58675",
    "city": "Deilinghofen"
  },
  {
    "postcode": "58675",
    "city": "Frönsberg"
  },
  {
    "postcode": "58675",
    "city": "Hemer"
  },
  {
    "postcode": "58675",
    "city": "Heppingsen Gemeinde Frönsberg"
  },
  {
    "postcode": "58675",
    "city": "Heppingsen"
  },
  {
    "postcode": "58675",
    "city": "Heppingserbach"
  },
  {
    "postcode": "58675",
    "city": "Ihmert"
  },
  {
    "postcode": "58675",
    "city": "Landhausen"
  },
  {
    "postcode": "58675",
    "city": "Riemke"
  },
  {
    "postcode": "58675",
    "city": "Stephanopel Gemeinde Frönsberg"
  },
  {
    "postcode": "58675",
    "city": "Stephanopel"
  },
  {
    "postcode": "58675",
    "city": "Stübecken"
  },
  {
    "postcode": "58675",
    "city": "Sundwig"
  },
  {
    "postcode": "58675",
    "city": "Westig"
  },
  {
    "postcode": "58675",
    "city": "Märkischer Kreis"
  },
  {
    "postcode": "58675",
    "city": "Becke"
  },
  {
    "postcode": "58675",
    "city": "Ihmerterbach"
  },
  {
    "postcode": "58706",
    "city": "Bösperde"
  },
  {
    "postcode": "58706",
    "city": "Menden (Sauerland)"
  },
  {
    "postcode": "58706",
    "city": "Menden"
  },
  {
    "postcode": "58706",
    "city": "Märkischer Kreis"
  },
  {
    "postcode": "58706",
    "city": "Mitte"
  },
  {
    "postcode": "58708",
    "city": "Asbeck Sauerland"
  },
  {
    "postcode": "58708",
    "city": "Asbeck"
  },
  {
    "postcode": "58708",
    "city": "Barge"
  },
  {
    "postcode": "58708",
    "city": "Böingsen"
  },
  {
    "postcode": "58708",
    "city": "Bösperde"
  },
  {
    "postcode": "58708",
    "city": "Brockhausen Sauerland"
  },
  {
    "postcode": "58708",
    "city": "Brockhausen"
  },
  {
    "postcode": "58708",
    "city": "Halingen"
  },
  {
    "postcode": "58708",
    "city": "Lendringsen Sauerland"
  },
  {
    "postcode": "58708",
    "city": "Lendringsen"
  },
  {
    "postcode": "58708",
    "city": "Lürbke Sauerland"
  },
  {
    "postcode": "58708",
    "city": "Lürbke"
  },
  {
    "postcode": "58708",
    "city": "Menden (Sauerland)"
  },
  {
    "postcode": "58708",
    "city": "Menden"
  },
  {
    "postcode": "58708",
    "city": "Ostsümmern"
  },
  {
    "postcode": "58708",
    "city": "Schwitten"
  },
  {
    "postcode": "58708",
    "city": "Märkischer Kreis"
  },
  {
    "postcode": "58708",
    "city": "Platte Heide"
  },
  {
    "postcode": "58708",
    "city": "Mitte"
  },
  {
    "postcode": "58708",
    "city": "Oesbern"
  },
  {
    "postcode": "58710",
    "city": "Hüingsen Sauerland"
  },
  {
    "postcode": "58710",
    "city": "Hüingsen"
  },
  {
    "postcode": "58710",
    "city": "Lendringsen Sauerland"
  },
  {
    "postcode": "58710",
    "city": "Lendringsen"
  },
  {
    "postcode": "58710",
    "city": "Menden (Sauerland)"
  },
  {
    "postcode": "58710",
    "city": "Menden"
  },
  {
    "postcode": "58710",
    "city": "Oberrödinghausen"
  },
  {
    "postcode": "58710",
    "city": "Märkischer Kreis"
  },
  {
    "postcode": "58730",
    "city": "Altendorf bei Fröndenberg Ruhr"
  },
  {
    "postcode": "58730",
    "city": "Altendorf bei Fröndenberg"
  },
  {
    "postcode": "58730",
    "city": "Ardey"
  },
  {
    "postcode": "58730",
    "city": "Bausenhagen"
  },
  {
    "postcode": "58730",
    "city": "Bentrop"
  },
  {
    "postcode": "58730",
    "city": "Dellwig"
  },
  {
    "postcode": "58730",
    "city": "Frohnhausen bei Fröndenberg"
  },
  {
    "postcode": "58730",
    "city": "Frömern"
  },
  {
    "postcode": "58730",
    "city": "Fröndenberg"
  },
  {
    "postcode": "58730",
    "city": "Fröndenberg / Ruhr"
  },
  {
    "postcode": "58730",
    "city": "Hohenheide"
  },
  {
    "postcode": "58730",
    "city": "Langschede"
  },
  {
    "postcode": "58730",
    "city": "Neimen bei Fröndenberg Ruhr"
  },
  {
    "postcode": "58730",
    "city": "Neimen bei Fröndenberg"
  },
  {
    "postcode": "58730",
    "city": "Ostbüren"
  },
  {
    "postcode": "58730",
    "city": "Stentrop"
  },
  {
    "postcode": "58730",
    "city": "Strickherdicke"
  },
  {
    "postcode": "58730",
    "city": "Warmen Ruhr"
  },
  {
    "postcode": "58730",
    "city": "Warmen"
  },
  {
    "postcode": "58730",
    "city": "Unna"
  },
  {
    "postcode": "58730",
    "city": "Fröndenberg/Ruhr"
  },
  {
    "postcode": "58730",
    "city": "Altendorf"
  },
  {
    "postcode": "58730",
    "city": "Neimen"
  },
  {
    "postcode": "58730",
    "city": "Frohnhausen"
  },
  {
    "postcode": "58739",
    "city": "Echthausen"
  },
  {
    "postcode": "58739",
    "city": "Schlückingen"
  },
  {
    "postcode": "58739",
    "city": "Wickede"
  },
  {
    "postcode": "58739",
    "city": "Wickede an der Ruhr"
  },
  {
    "postcode": "58739",
    "city": "Wiehagen bei Fröndenberg"
  },
  {
    "postcode": "58739",
    "city": "Wimbern"
  },
  {
    "postcode": "58739",
    "city": "Soest"
  },
  {
    "postcode": "58739",
    "city": "Wickede (Ruhr)"
  },
  {
    "postcode": "58739",
    "city": "Wiehagen"
  },
  {
    "postcode": "58762",
    "city": "Altena"
  },
  {
    "postcode": "58762",
    "city": "Altena Westfalen"
  },
  {
    "postcode": "58762",
    "city": "Dahle Kreis Altena Westfalen"
  },
  {
    "postcode": "58762",
    "city": "Dahle"
  },
  {
    "postcode": "58762",
    "city": "Evingsen"
  },
  {
    "postcode": "58762",
    "city": "Rahmede"
  },
  {
    "postcode": "58762",
    "city": "Märkischer Kreis"
  },
  {
    "postcode": "58762",
    "city": "Nettenscheid"
  },
  {
    "postcode": "58762",
    "city": "Breitenhagen"
  },
  {
    "postcode": "58762",
    "city": "Altroggenrahmede"
  },
  {
    "postcode": "58762",
    "city": "Drescheiderhagen"
  },
  {
    "postcode": "58762",
    "city": "Gottmecke"
  },
  {
    "postcode": "58762",
    "city": "Grünewiese"
  },
  {
    "postcode": "58762",
    "city": "Mühlenrahmede"
  },
  {
    "postcode": "58762",
    "city": "Zum Hohle"
  },
  {
    "postcode": "58769",
    "city": "Einsal"
  },
  {
    "postcode": "58769",
    "city": "Nachrodt"
  },
  {
    "postcode": "58769",
    "city": "Nachrodt-Wiblingwerde"
  },
  {
    "postcode": "58769",
    "city": "Veserde"
  },
  {
    "postcode": "58769",
    "city": "Wiblingwerde"
  },
  {
    "postcode": "58769",
    "city": "Märkischer Kreis"
  },
  {
    "postcode": "58769",
    "city": "Obstfeld-Langenstück"
  },
  {
    "postcode": "58769",
    "city": "Obstfelder Stall-Schmalsgotte"
  },
  {
    "postcode": "58769",
    "city": "Helbecke-Opperhusen"
  },
  {
    "postcode": "58769",
    "city": "Eilerde"
  },
  {
    "postcode": "58791",
    "city": "Bärenstein"
  },
  {
    "postcode": "58791",
    "city": "Elverlingsen"
  },
  {
    "postcode": "58791",
    "city": "Eveking"
  },
  {
    "postcode": "58791",
    "city": "Kettling"
  },
  {
    "postcode": "58791",
    "city": "Kleinhammer"
  },
  {
    "postcode": "58791",
    "city": "Pungelscheid"
  },
  {
    "postcode": "58791",
    "city": "Ütterlingsen"
  },
  {
    "postcode": "58791",
    "city": "Werdohl"
  },
  {
    "postcode": "58791",
    "city": "Märkischer Kreis"
  },
  {
    "postcode": "58802",
    "city": "Balve"
  },
  {
    "postcode": "58802",
    "city": "Beckum Sauerland"
  },
  {
    "postcode": "58802",
    "city": "Beckum"
  },
  {
    "postcode": "58802",
    "city": "Eisborn"
  },
  {
    "postcode": "58802",
    "city": "Garbeck Sauerland"
  },
  {
    "postcode": "58802",
    "city": "Garbeck"
  },
  {
    "postcode": "58802",
    "city": "Langenholthausen Sauerland"
  },
  {
    "postcode": "58802",
    "city": "Langenholthausen"
  },
  {
    "postcode": "58802",
    "city": "Mellen Sauerland"
  },
  {
    "postcode": "58802",
    "city": "Mellen"
  },
  {
    "postcode": "58802",
    "city": "Volkringhausen"
  },
  {
    "postcode": "58802",
    "city": "Märkischer Kreis"
  },
  {
    "postcode": "58802",
    "city": "Höveringhausen"
  },
  {
    "postcode": "58809",
    "city": "Affeln"
  },
  {
    "postcode": "58809",
    "city": "Altenaffeln"
  },
  {
    "postcode": "58809",
    "city": "Blintrop"
  },
  {
    "postcode": "58809",
    "city": "Küntrop"
  },
  {
    "postcode": "58809",
    "city": "Neuenrade"
  },
  {
    "postcode": "58809",
    "city": "Märkischer Kreis"
  },
  {
    "postcode": "58809",
    "city": "Stadt Balve"
  },
  {
    "postcode": "58809",
    "city": "Niedernhöfen"
  },
  {
    "postcode": "58840",
    "city": "Böddinghausen"
  },
  {
    "postcode": "58840",
    "city": "Dingeringhausen"
  },
  {
    "postcode": "58840",
    "city": "Eiringhausen"
  },
  {
    "postcode": "58840",
    "city": "Himmelmert"
  },
  {
    "postcode": "58840",
    "city": "Holthausen"
  },
  {
    "postcode": "58840",
    "city": "Kückelheim"
  },
  {
    "postcode": "58840",
    "city": "Landemert"
  },
  {
    "postcode": "58840",
    "city": "Lettmecke"
  },
  {
    "postcode": "58840",
    "city": "Oesterau"
  },
  {
    "postcode": "58840",
    "city": "Ohle"
  },
  {
    "postcode": "58840",
    "city": "Pasel"
  },
  {
    "postcode": "58840",
    "city": "Plettenberg"
  },
  {
    "postcode": "58840",
    "city": "Siesel"
  },
  {
    "postcode": "58840",
    "city": "Märkischer Kreis"
  },
  {
    "postcode": "58840",
    "city": "Mühlhoff"
  },
  {
    "postcode": "58840",
    "city": "Deutmecke"
  },
  {
    "postcode": "58840",
    "city": "Keuperkusen"
  },
  {
    "postcode": "58840",
    "city": "Dankelmert"
  },
  {
    "postcode": "58840",
    "city": "Österhammer"
  },
  {
    "postcode": "58840",
    "city": "Köbbinghauserhammer"
  },
  {
    "postcode": "58840",
    "city": "Gemeinde Herscheid"
  },
  {
    "postcode": "58849",
    "city": "Friedlin"
  },
  {
    "postcode": "58849",
    "city": "Herscheid"
  },
  {
    "postcode": "58849",
    "city": "Herscheid Westfalen"
  },
  {
    "postcode": "58849",
    "city": "Hüinghausen"
  },
  {
    "postcode": "58849",
    "city": "Märkischer Kreis"
  },
  {
    "postcode": "58849",
    "city": "Gemeinde Plettenberg"
  }
]