[
  {
    "postcode": "8209",
    "city": "Auerbach / Vogtland"
  },
  {
    "postcode": "8209",
    "city": "Auerbach"
  },
  {
    "postcode": "8209",
    "city": "Vogtlandkreis"
  },
  {
    "postcode": "8209",
    "city": "Auerbach/Vogtl."
  },
  {
    "postcode": "8209",
    "city": "Vogelsgrün"
  },
  {
    "postcode": "8209",
    "city": "Rebesgrün"
  },
  {
    "postcode": "8209",
    "city": "Rempesgrün"
  },
  {
    "postcode": "8209",
    "city": "Brunn"
  },
  {
    "postcode": "8209",
    "city": "Schnarrtanne"
  },
  {
    "postcode": "8209",
    "city": "Beerheide"
  },
  {
    "postcode": "8209",
    "city": "Mühlgrün"
  },
  {
    "postcode": "8209",
    "city": "Hinterhain"
  },
  {
    "postcode": "8209",
    "city": "Reumtengrün"
  },
  {
    "postcode": "8209",
    "city": "Hohengrün"
  },
  {
    "postcode": "8209",
    "city": "Grünheide"
  },
  {
    "postcode": "8209",
    "city": "Carolagrün"
  },
  {
    "postcode": "8209",
    "city": "Sorga"
  },
  {
    "postcode": "8223",
    "city": "Falkenstein / Vogtland"
  },
  {
    "postcode": "8223",
    "city": "Falkenstein"
  },
  {
    "postcode": "8223",
    "city": "Grünbach Vogtland"
  },
  {
    "postcode": "8223",
    "city": "Grünbach"
  },
  {
    "postcode": "8223",
    "city": "Neustadt / Vogtland"
  },
  {
    "postcode": "8223",
    "city": "Neustadt"
  },
  {
    "postcode": "8223",
    "city": "Werda bei Auerbach Vogtland"
  },
  {
    "postcode": "8223",
    "city": "Werda bei Auerbach"
  },
  {
    "postcode": "8223",
    "city": "Vogtlandkreis"
  },
  {
    "postcode": "8223",
    "city": "Falkenstein/Vogtl."
  },
  {
    "postcode": "8223",
    "city": "Grünbach-Muldenberg"
  },
  {
    "postcode": "8223",
    "city": "Neustadt/Vogtl."
  },
  {
    "postcode": "8223",
    "city": "Werda"
  },
  {
    "postcode": "8223",
    "city": "Dorfstadt"
  },
  {
    "postcode": "8223",
    "city": "Poppengrün"
  },
  {
    "postcode": "8223",
    "city": "Neudorf"
  },
  {
    "postcode": "8223",
    "city": "Siebenhitz"
  },
  {
    "postcode": "8223",
    "city": "Oberwinn"
  },
  {
    "postcode": "8223",
    "city": "Unterwinn"
  },
  {
    "postcode": "8223",
    "city": "Kottengrün"
  },
  {
    "postcode": "8228",
    "city": "Rodewisch"
  },
  {
    "postcode": "8228",
    "city": "Vogtlandkreis"
  },
  {
    "postcode": "8228",
    "city": "Röthenbach"
  },
  {
    "postcode": "8228",
    "city": "Rützengrün"
  },
  {
    "postcode": "8233",
    "city": "Buch"
  },
  {
    "postcode": "8233",
    "city": "Treuen Vogtland"
  },
  {
    "postcode": "8233",
    "city": "Treuen"
  },
  {
    "postcode": "8233",
    "city": "Vogtlandkreis"
  },
  {
    "postcode": "8233",
    "city": "Eich"
  },
  {
    "postcode": "8233",
    "city": "Hartmannsgrün"
  },
  {
    "postcode": "8233",
    "city": "Pfaffengrün"
  },
  {
    "postcode": "8233",
    "city": "Altmannsgrün"
  },
  {
    "postcode": "8233",
    "city": "Schreiersgrün"
  },
  {
    "postcode": "8233",
    "city": "Veitenhäuser"
  },
  {
    "postcode": "8236",
    "city": "Ellefeld"
  },
  {
    "postcode": "8236",
    "city": "Vogtlandkreis"
  },
  {
    "postcode": "8237",
    "city": "Steinberg Vogtland"
  },
  {
    "postcode": "8237",
    "city": "Steinberg"
  },
  {
    "postcode": "8237",
    "city": "Wildenau bei Auerbach Vogtland"
  },
  {
    "postcode": "8237",
    "city": "Wildenau bei Auerbach"
  },
  {
    "postcode": "8237",
    "city": "Vogtlandkreis"
  },
  {
    "postcode": "8237",
    "city": "Rothenkirchen"
  },
  {
    "postcode": "8237",
    "city": "Wildenau"
  },
  {
    "postcode": "8237",
    "city": "Wernesgrün"
  },
  {
    "postcode": "8239",
    "city": "Bergen bei Auerbach Vogtland"
  },
  {
    "postcode": "8239",
    "city": "Bergen bei Auerbach"
  },
  {
    "postcode": "8239",
    "city": "Vogtlandkreis"
  },
  {
    "postcode": "8239",
    "city": "Bergen"
  },
  {
    "postcode": "8239",
    "city": "Falkenstein"
  },
  {
    "postcode": "8239",
    "city": "Oberlauterbach"
  },
  {
    "postcode": "8239",
    "city": "Trieb"
  },
  {
    "postcode": "8239",
    "city": "Falkenstein/Vogtl."
  },
  {
    "postcode": "8239",
    "city": "Unterlauterbach"
  },
  {
    "postcode": "8239",
    "city": "Schönau"
  },
  {
    "postcode": "8248",
    "city": "Klingenthal / Sachsen"
  },
  {
    "postcode": "8248",
    "city": "Klingenthal"
  },
  {
    "postcode": "8248",
    "city": "Vogtlandkreis"
  },
  {
    "postcode": "8248",
    "city": "Sachsenberg"
  },
  {
    "postcode": "8248",
    "city": "Brunndöbra"
  },
  {
    "postcode": "8248",
    "city": "Mühlleithen"
  },
  {
    "postcode": "8248",
    "city": "Aschberg"
  },
  {
    "postcode": "8258",
    "city": "Markneukirchen"
  },
  {
    "postcode": "8258",
    "city": "Vogtlandkreis"
  },
  {
    "postcode": "8258",
    "city": "Siebenbrunn"
  },
  {
    "postcode": "8258",
    "city": "Eubabrunn"
  },
  {
    "postcode": "8258",
    "city": "Breitenfeld"
  },
  {
    "postcode": "8258",
    "city": "Landwüst"
  },
  {
    "postcode": "8258",
    "city": "Schönlind"
  },
  {
    "postcode": "8258",
    "city": "Wohlhausen"
  },
  {
    "postcode": "8258",
    "city": "Erlbach"
  },
  {
    "postcode": "8258",
    "city": "Sträßel"
  },
  {
    "postcode": "8258",
    "city": "Gopplasgrün"
  },
  {
    "postcode": "8258",
    "city": "Wernitzgrün"
  },
  {
    "postcode": "8261",
    "city": "Schöneck / Vogtland"
  },
  {
    "postcode": "8261",
    "city": "Schöneck"
  },
  {
    "postcode": "8261",
    "city": "Vogtlandkreis"
  },
  {
    "postcode": "8261",
    "city": "Schöneck/Vogtl."
  },
  {
    "postcode": "8261",
    "city": "Gunzen"
  },
  {
    "postcode": "8261",
    "city": "Schilbach"
  },
  {
    "postcode": "8261",
    "city": "Arnoldsgrün"
  },
  {
    "postcode": "8261",
    "city": "Zwotental"
  },
  {
    "postcode": "8261",
    "city": "Eschenbach"
  },
  {
    "postcode": "8261",
    "city": "Kottenheide"
  },
  {
    "postcode": "8262",
    "city": "Morgenröthe-Rautenkranz"
  },
  {
    "postcode": "8262",
    "city": "Tannenbergsthal / Vogtland"
  },
  {
    "postcode": "8262",
    "city": "Tannenbergsthal"
  },
  {
    "postcode": "8262",
    "city": "Vogtlandkreis"
  },
  {
    "postcode": "8262",
    "city": "Muldenhammer"
  },
  {
    "postcode": "8262",
    "city": "Hammerbrücke"
  },
  {
    "postcode": "8262",
    "city": "Jägersgrün"
  },
  {
    "postcode": "8262",
    "city": "Gottesberg"
  },
  {
    "postcode": "8262",
    "city": "Schneckenstein"
  },
  {
    "postcode": "8265",
    "city": "Erlbach Vogtland"
  },
  {
    "postcode": "8265",
    "city": "Erlbach"
  },
  {
    "postcode": "8267",
    "city": "Zwota"
  },
  {
    "postcode": "8267",
    "city": "Vogtlandkreis"
  },
  {
    "postcode": "8267",
    "city": "Klingenthal"
  },
  {
    "postcode": "8267",
    "city": "Oberzwota"
  },
  {
    "postcode": "8267",
    "city": "Zwota-Zechenbach"
  },
  {
    "postcode": "8269",
    "city": "Hammerbrücke"
  },
  {
    "postcode": "8280",
    "city": "Aue Sachsen"
  },
  {
    "postcode": "8280",
    "city": "Aue"
  },
  {
    "postcode": "8280",
    "city": "Erzgebirgskreis"
  },
  {
    "postcode": "8280",
    "city": "Aue-Bad Schlema"
  },
  {
    "postcode": "8289",
    "city": "Schneeberg Erzgebirge"
  },
  {
    "postcode": "8289",
    "city": "Schneeberg"
  },
  {
    "postcode": "8289",
    "city": "Erzgebirgskreis"
  },
  {
    "postcode": "8289",
    "city": "Neustädtel"
  },
  {
    "postcode": "8289",
    "city": "Lindenau"
  },
  {
    "postcode": "8289",
    "city": "Griesbach"
  },
  {
    "postcode": "8294",
    "city": "Lößnitz"
  },
  {
    "postcode": "8294",
    "city": "Erzgebirgskreis"
  },
  {
    "postcode": "8294",
    "city": "Affalter"
  },
  {
    "postcode": "8294",
    "city": "Dittersdorf"
  },
  {
    "postcode": "8297",
    "city": "Zwönitz"
  },
  {
    "postcode": "8297",
    "city": "Erzgebirgskreis"
  },
  {
    "postcode": "8297",
    "city": "Dorfchemnitz"
  },
  {
    "postcode": "8297",
    "city": "Brünlos"
  },
  {
    "postcode": "8297",
    "city": "Lenkersdorf"
  },
  {
    "postcode": "8297",
    "city": "Hormersdorf"
  },
  {
    "postcode": "8297",
    "city": "Niederzwönitz"
  },
  {
    "postcode": "8297",
    "city": "Günsdorf"
  },
  {
    "postcode": "8297",
    "city": "Kühnhaide"
  },
  {
    "postcode": "8297",
    "city": "Jugendherberge Hormersdorf"
  },
  {
    "postcode": "82008",
    "city": "Unterhaching"
  },
  {
    "postcode": "82008",
    "city": "München"
  },
  {
    "postcode": "82024",
    "city": "Potzham Kreis München"
  },
  {
    "postcode": "82024",
    "city": "Potzham"
  },
  {
    "postcode": "82024",
    "city": "Taufkirchen"
  },
  {
    "postcode": "82024",
    "city": "Taufkirchen Kreis München"
  },
  {
    "postcode": "82024",
    "city": "Westerham"
  },
  {
    "postcode": "82024",
    "city": "Winning Kreis München"
  },
  {
    "postcode": "82024",
    "city": "Winning"
  },
  {
    "postcode": "82024",
    "city": "München"
  },
  {
    "postcode": "82024",
    "city": "Ottobrunn"
  },
  {
    "postcode": "82024",
    "city": "Am Wald"
  },
  {
    "postcode": "82024",
    "city": "Bergham"
  },
  {
    "postcode": "82024",
    "city": "Am Birkengarten"
  },
  {
    "postcode": "82024",
    "city": "Pötting"
  },
  {
    "postcode": "82031",
    "city": "Geiselgasteig Kreis München"
  },
  {
    "postcode": "82031",
    "city": "Geiselgasteig"
  },
  {
    "postcode": "82031",
    "city": "Grünwald Kreis München"
  },
  {
    "postcode": "82031",
    "city": "Grünwald"
  },
  {
    "postcode": "82031",
    "city": "Wörnbrunn Kreis München"
  },
  {
    "postcode": "82031",
    "city": "Wörnbrunn"
  },
  {
    "postcode": "82031",
    "city": "München"
  },
  {
    "postcode": "82031",
    "city": "Grünwalder Forst"
  },
  {
    "postcode": "82032",
    "city": "Deisenhofen bei München"
  },
  {
    "postcode": "82041",
    "city": "Deisenhofen bei München"
  },
  {
    "postcode": "82041",
    "city": "Furth Kreis München"
  },
  {
    "postcode": "82041",
    "city": "Furth"
  },
  {
    "postcode": "82041",
    "city": "Gerblinghausen"
  },
  {
    "postcode": "82041",
    "city": "Kreuzpullach"
  },
  {
    "postcode": "82041",
    "city": "Laufzorn"
  },
  {
    "postcode": "82041",
    "city": "Oberbiberg"
  },
  {
    "postcode": "82041",
    "city": "Oberhaching bei München"
  },
  {
    "postcode": "82041",
    "city": "Ödenpullach"
  },
  {
    "postcode": "82041",
    "city": "München"
  },
  {
    "postcode": "82041",
    "city": "Deisenhofen"
  },
  {
    "postcode": "82041",
    "city": "Oberhaching"
  },
  {
    "postcode": "82049",
    "city": "Großhesselohe Isartal"
  },
  {
    "postcode": "82049",
    "city": "Großhesselohe"
  },
  {
    "postcode": "82049",
    "city": "Pullach"
  },
  {
    "postcode": "82049",
    "city": "Pullach im Isartal"
  },
  {
    "postcode": "82049",
    "city": "München"
  },
  {
    "postcode": "82049",
    "city": "Pullach i. Isartal"
  },
  {
    "postcode": "82049",
    "city": "Höllriegelskreuth"
  },
  {
    "postcode": "82054",
    "city": "Altkirchen Oberbayern"
  },
  {
    "postcode": "82054",
    "city": "Altkirchen"
  },
  {
    "postcode": "82054",
    "city": "Arget"
  },
  {
    "postcode": "82054",
    "city": "Brand"
  },
  {
    "postcode": "82054",
    "city": "Grafing"
  },
  {
    "postcode": "82054",
    "city": "Großeichenhausen Oberbayern"
  },
  {
    "postcode": "82054",
    "city": "Großeichenhausen"
  },
  {
    "postcode": "82054",
    "city": "Gumpertsham"
  },
  {
    "postcode": "82054",
    "city": "Gumpertshausen Oberbayern"
  },
  {
    "postcode": "82054",
    "city": "Gumpertshausen"
  },
  {
    "postcode": "82054",
    "city": "Kleineichenhausen Oberbayern"
  },
  {
    "postcode": "82054",
    "city": "Kleineichenhausen"
  },
  {
    "postcode": "82054",
    "city": "Lanzenhaar"
  },
  {
    "postcode": "82054",
    "city": "Lochhofen"
  },
  {
    "postcode": "82054",
    "city": "Sauerlach"
  },
  {
    "postcode": "82054",
    "city": "München"
  },
  {
    "postcode": "82057",
    "city": "Attenhausen bei Wolfratshausen"
  },
  {
    "postcode": "82057",
    "city": "Dorfen bei Wolfratshausen"
  },
  {
    "postcode": "82057",
    "city": "Icking"
  },
  {
    "postcode": "82057",
    "city": "Icking Isartal"
  },
  {
    "postcode": "82057",
    "city": "Irschenhausen"
  },
  {
    "postcode": "82057",
    "city": "Meilenberg bei Wolfratshausen"
  },
  {
    "postcode": "82057",
    "city": "Schlederloh bei Wolfratshausen"
  },
  {
    "postcode": "82057",
    "city": "Schlederloh bei Wolfratshausen"
  },
  {
    "postcode": "82057",
    "city": "Wadlhausen Isartal"
  },
  {
    "postcode": "82057",
    "city": "Wadlhausen"
  },
  {
    "postcode": "82057",
    "city": "Walchstadt Isartal"
  },
  {
    "postcode": "82057",
    "city": "Walchstadt"
  },
  {
    "postcode": "82057",
    "city": "Bad Tölz-Wolfratshausen"
  },
  {
    "postcode": "82057",
    "city": "Dorfen"
  },
  {
    "postcode": "82057",
    "city": "Schlederloh"
  },
  {
    "postcode": "82057",
    "city": "Attenhausen"
  },
  {
    "postcode": "82057",
    "city": "Holzen"
  },
  {
    "postcode": "82057",
    "city": "Meilenberg"
  },
  {
    "postcode": "82057",
    "city": "Alpe"
  },
  {
    "postcode": "82057",
    "city": "Schützenried"
  },
  {
    "postcode": "82061",
    "city": "Neuried Kreis München"
  },
  {
    "postcode": "82061",
    "city": "Neuried"
  },
  {
    "postcode": "82061",
    "city": "München"
  },
  {
    "postcode": "82061",
    "city": "Forstenrieder Park"
  },
  {
    "postcode": "82064",
    "city": "Beigarten"
  },
  {
    "postcode": "82064",
    "city": "Deigstetten"
  },
  {
    "postcode": "82064",
    "city": "Ebertshausen"
  },
  {
    "postcode": "82064",
    "city": "Frundsbergerhöhe"
  },
  {
    "postcode": "82064",
    "city": "Großdingharting"
  },
  {
    "postcode": "82064",
    "city": "Holzhausen"
  },
  {
    "postcode": "82064",
    "city": "Jettenhausen"
  },
  {
    "postcode": "82064",
    "city": "Kleindingharting"
  },
  {
    "postcode": "82064",
    "city": "Oberdill bei München"
  },
  {
    "postcode": "82064",
    "city": "Straßlach-Dingharting"
  },
  {
    "postcode": "82064",
    "city": "München"
  },
  {
    "postcode": "82064",
    "city": "Oberdill"
  },
  {
    "postcode": "82064",
    "city": "Straßlach"
  },
  {
    "postcode": "82065",
    "city": "Baierbrunn"
  },
  {
    "postcode": "82065",
    "city": "Baierbrunn Isartal"
  },
  {
    "postcode": "82065",
    "city": "Buchenhain Isartal"
  },
  {
    "postcode": "82065",
    "city": "Buchenhain"
  },
  {
    "postcode": "82065",
    "city": "München"
  },
  {
    "postcode": "82065",
    "city": "Forstenrieder Park"
  },
  {
    "postcode": "82067",
    "city": "Ebenhausen Isartal"
  },
  {
    "postcode": "82067",
    "city": "Ebenhausen"
  },
  {
    "postcode": "82067",
    "city": "Kloster Schäftlarn"
  },
  {
    "postcode": "82067",
    "city": "Zell Kreis München"
  },
  {
    "postcode": "82067",
    "city": "Zell"
  },
  {
    "postcode": "82067",
    "city": "München"
  },
  {
    "postcode": "82069",
    "city": "Neufahrn Kreis Starnberg"
  },
  {
    "postcode": "82069",
    "city": "Neufahrn"
  },
  {
    "postcode": "82069",
    "city": "Schäftlarn"
  },
  {
    "postcode": "82069",
    "city": "München"
  },
  {
    "postcode": "82069",
    "city": "Hohenschäftlarn"
  },
  {
    "postcode": "82110",
    "city": "Germering"
  },
  {
    "postcode": "82110",
    "city": "Germering Oberbayern"
  },
  {
    "postcode": "82110",
    "city": "Harthaus"
  },
  {
    "postcode": "82110",
    "city": "Nebel"
  },
  {
    "postcode": "82110",
    "city": "Neugermering"
  },
  {
    "postcode": "82110",
    "city": "Streiflach"
  },
  {
    "postcode": "82110",
    "city": "Unterpfaffenhofen"
  },
  {
    "postcode": "82110",
    "city": "Fürstenfeldbruck"
  },
  {
    "postcode": "82131",
    "city": "Buchendorf"
  },
  {
    "postcode": "82131",
    "city": "Gauting"
  },
  {
    "postcode": "82131",
    "city": "Grubmühl"
  },
  {
    "postcode": "82131",
    "city": "Hausen Kreis Starnberg"
  },
  {
    "postcode": "82131",
    "city": "Hausen"
  },
  {
    "postcode": "82131",
    "city": "Oberbrunn Kreis Starnberg"
  },
  {
    "postcode": "82131",
    "city": "Oberbrunn"
  },
  {
    "postcode": "82131",
    "city": "Stockdorf Gemeinde Gauting"
  },
  {
    "postcode": "82131",
    "city": "Stockdorf"
  },
  {
    "postcode": "82131",
    "city": "Unterbrunn Kreis Starnberg"
  },
  {
    "postcode": "82131",
    "city": "Unterbrunn"
  },
  {
    "postcode": "82131",
    "city": "Starnberg"
  },
  {
    "postcode": "82131",
    "city": "Kasten"
  },
  {
    "postcode": "82131",
    "city": "Neuried"
  },
  {
    "postcode": "82131",
    "city": "Königswiesen"
  },
  {
    "postcode": "82140",
    "city": "Esting"
  },
  {
    "postcode": "82140",
    "city": "Geiselbullach"
  },
  {
    "postcode": "82140",
    "city": "Graßlfing"
  },
  {
    "postcode": "82140",
    "city": "Olching"
  },
  {
    "postcode": "82140",
    "city": "Fürstenfeldbruck"
  },
  {
    "postcode": "82140",
    "city": "Bergkirchen"
  },
  {
    "postcode": "82140",
    "city": "Emmering"
  },
  {
    "postcode": "82140",
    "city": "Neu-Esting"
  },
  {
    "postcode": "82140",
    "city": "Gemeinde Bergkirchen"
  },
  {
    "postcode": "82152",
    "city": "Krailling"
  },
  {
    "postcode": "82152",
    "city": "Martinsried"
  },
  {
    "postcode": "82152",
    "city": "Pentenried"
  },
  {
    "postcode": "82152",
    "city": "Planegg"
  },
  {
    "postcode": "82152",
    "city": "Steinkirchen"
  },
  {
    "postcode": "82152",
    "city": "München"
  },
  {
    "postcode": "82166",
    "city": "Gräfelfing"
  },
  {
    "postcode": "82166",
    "city": "München"
  },
  {
    "postcode": "82166",
    "city": "Lochham"
  },
  {
    "postcode": "82178",
    "city": "Puchheim Oberbayern"
  },
  {
    "postcode": "82178",
    "city": "Puchheim"
  },
  {
    "postcode": "82178",
    "city": "Fürstenfeldbruck"
  },
  {
    "postcode": "82178",
    "city": "Puchheim Bahnhof"
  },
  {
    "postcode": "82178",
    "city": "Puchheim-Ort"
  },
  {
    "postcode": "82194",
    "city": "Gröbenzell"
  },
  {
    "postcode": "82194",
    "city": "Fürstenfeldbruck"
  },
  {
    "postcode": "82205",
    "city": "Argelsried"
  },
  {
    "postcode": "82205",
    "city": "Geisenbrunn"
  },
  {
    "postcode": "82205",
    "city": "Gilching"
  },
  {
    "postcode": "82205",
    "city": "Hüll bei Gilching"
  },
  {
    "postcode": "82205",
    "city": "Neugilching"
  },
  {
    "postcode": "82205",
    "city": "Rottenried"
  },
  {
    "postcode": "82205",
    "city": "Sankt Gilgen"
  },
  {
    "postcode": "82205",
    "city": "Steinberg"
  },
  {
    "postcode": "82205",
    "city": "Steinlach"
  },
  {
    "postcode": "82205",
    "city": "Starnberg"
  },
  {
    "postcode": "82205",
    "city": "Hüll"
  },
  {
    "postcode": "82205",
    "city": "St. Gilgen"
  },
  {
    "postcode": "82205",
    "city": "Talhof"
  },
  {
    "postcode": "82205",
    "city": "Waldhof"
  },
  {
    "postcode": "82205",
    "city": "Wildmoos"
  },
  {
    "postcode": "82211",
    "city": "Breitbrunn am Ammersee"
  },
  {
    "postcode": "82211",
    "city": "Ellwang am Ammersee"
  },
  {
    "postcode": "82211",
    "city": "Herrsching"
  },
  {
    "postcode": "82211",
    "city": "Herrsching am Ammersee"
  },
  {
    "postcode": "82211",
    "city": "Lochschwab am Ammersee"
  },
  {
    "postcode": "82211",
    "city": "Mühlfeld"
  },
  {
    "postcode": "82211",
    "city": "Rausch am Ammersee"
  },
  {
    "postcode": "82211",
    "city": "Ried"
  },
  {
    "postcode": "82211",
    "city": "Wartaweil am Ammersee"
  },
  {
    "postcode": "82211",
    "city": "Wasach"
  },
  {
    "postcode": "82211",
    "city": "Widdersberg am Ammersee"
  },
  {
    "postcode": "82211",
    "city": "Starnberg"
  },
  {
    "postcode": "82211",
    "city": "Herrsching a. Ammersee"
  },
  {
    "postcode": "82211",
    "city": "Breitbrunn"
  },
  {
    "postcode": "82211",
    "city": "Widdersberg"
  },
  {
    "postcode": "82211",
    "city": "Wartaweil"
  },
  {
    "postcode": "82216",
    "city": "Anzhofen Oberbayern"
  },
  {
    "postcode": "82216",
    "city": "Anzhofen"
  },
  {
    "postcode": "82216",
    "city": "Deisenhofen Oberbayern"
  },
  {
    "postcode": "82216",
    "city": "Deisenhofen"
  },
  {
    "postcode": "82216",
    "city": "Diepoltshofen"
  },
  {
    "postcode": "82216",
    "city": "Fußberg Oberbayern"
  },
  {
    "postcode": "82216",
    "city": "Fußberg"
  },
  {
    "postcode": "82216",
    "city": "Galgen Kreis Fürstenfeldbruck"
  },
  {
    "postcode": "82216",
    "city": "Galgen"
  },
  {
    "postcode": "82216",
    "city": "Germerswang"
  },
  {
    "postcode": "82216",
    "city": "Gernlinden"
  },
  {
    "postcode": "82216",
    "city": "Maisach"
  },
  {
    "postcode": "82216",
    "city": "Maisach Oberbayern"
  },
  {
    "postcode": "82216",
    "city": "Malching Gemeinde Maisach Oberbayern"
  },
  {
    "postcode": "82216",
    "city": "Malching"
  },
  {
    "postcode": "82216",
    "city": "Oberlappach Oberbayern"
  },
  {
    "postcode": "82216",
    "city": "Oberlappach"
  },
  {
    "postcode": "82216",
    "city": "Obermalching Kreis Fürstenfeldbruck"
  },
  {
    "postcode": "82216",
    "city": "Obermalching"
  },
  {
    "postcode": "82216",
    "city": "Rottbach Oberbayern"
  },
  {
    "postcode": "82216",
    "city": "Rottbach"
  },
  {
    "postcode": "82216",
    "city": "Thal"
  },
  {
    "postcode": "82216",
    "city": "Überacker Oberbayern"
  },
  {
    "postcode": "82216",
    "city": "Überacker"
  },
  {
    "postcode": "82216",
    "city": "Unterlappach Oberbayern"
  },
  {
    "postcode": "82216",
    "city": "Unterlappach"
  },
  {
    "postcode": "82216",
    "city": "Zötzelhofen Kreis Dachau"
  },
  {
    "postcode": "82216",
    "city": "Zötzelhofen"
  },
  {
    "postcode": "82216",
    "city": "Fürstenfeldbruck"
  },
  {
    "postcode": "82216",
    "city": "Frauenberg"
  },
  {
    "postcode": "82216",
    "city": "Stefansberg"
  },
  {
    "postcode": "82216",
    "city": "Fußbergmoos"
  },
  {
    "postcode": "82216",
    "city": "Gernlinden/Ost"
  },
  {
    "postcode": "82216",
    "city": "Kuchenried"
  },
  {
    "postcode": "82216",
    "city": "Loderhof"
  },
  {
    "postcode": "82216",
    "city": "Pöcklhof"
  },
  {
    "postcode": "82216",
    "city": "Prack"
  },
  {
    "postcode": "82216",
    "city": "Weiherhaus"
  },
  {
    "postcode": "82223",
    "city": "Eichenau bei München"
  },
  {
    "postcode": "82223",
    "city": "Roggenstein bei München"
  },
  {
    "postcode": "82223",
    "city": "Fürstenfeldbruck"
  },
  {
    "postcode": "82223",
    "city": "Eichenau"
  },
  {
    "postcode": "82223",
    "city": "Roggenstein"
  },
  {
    "postcode": "82229",
    "city": "Delling Oberbayern"
  },
  {
    "postcode": "82229",
    "city": "Delling"
  },
  {
    "postcode": "82229",
    "city": "Drößling Oberbayern"
  },
  {
    "postcode": "82229",
    "city": "Drößling"
  },
  {
    "postcode": "82229",
    "city": "Güntering am Pilsensee"
  },
  {
    "postcode": "82229",
    "city": "Hechendorf am Pilsensee"
  },
  {
    "postcode": "82229",
    "city": "Meiling"
  },
  {
    "postcode": "82229",
    "city": "Oberalting Oberbayern"
  },
  {
    "postcode": "82229",
    "city": "Oberalting"
  },
  {
    "postcode": "82229",
    "city": "Seefeld Oberbayern"
  },
  {
    "postcode": "82229",
    "city": "Seefeld"
  },
  {
    "postcode": "82229",
    "city": "Tiefenbrunn"
  },
  {
    "postcode": "82229",
    "city": "Unering"
  },
  {
    "postcode": "82229",
    "city": "Starnberg"
  },
  {
    "postcode": "82229",
    "city": "Hechendorf"
  },
  {
    "postcode": "82234",
    "city": "Hochstadt Kreis Starnberg"
  },
  {
    "postcode": "82234",
    "city": "Hochstadt"
  },
  {
    "postcode": "82234",
    "city": "Mischenried Oberbayern"
  },
  {
    "postcode": "82234",
    "city": "Mischenried"
  },
  {
    "postcode": "82234",
    "city": "Oberpfaffenhofen Oberbayern"
  },
  {
    "postcode": "82234",
    "city": "Oberpfaffenhofen"
  },
  {
    "postcode": "82234",
    "city": "Weichselbaum Oberbayern"
  },
  {
    "postcode": "82234",
    "city": "Weichselbaum"
  },
  {
    "postcode": "82234",
    "city": "Weßling"
  },
  {
    "postcode": "82234",
    "city": "Weßling Oberbayern"
  },
  {
    "postcode": "82234",
    "city": "Starnberg"
  },
  {
    "postcode": "82234",
    "city": "Neuhochstadt"
  },
  {
    "postcode": "82237",
    "city": "Auing"
  },
  {
    "postcode": "82237",
    "city": "Etterschlag"
  },
  {
    "postcode": "82237",
    "city": "Gut Schluifeld"
  },
  {
    "postcode": "82237",
    "city": "Gut Schluifeld"
  },
  {
    "postcode": "82237",
    "city": "Steinebach am Wörthsee"
  },
  {
    "postcode": "82237",
    "city": "Walchstadt"
  },
  {
    "postcode": "82237",
    "city": "Wörthsee"
  },
  {
    "postcode": "82237",
    "city": "Starnberg"
  },
  {
    "postcode": "82237",
    "city": "Steinebach"
  },
  {
    "postcode": "82237",
    "city": "Waldbrunn"
  },
  {
    "postcode": "82237",
    "city": "Gut Schluifeld"
  },
  {
    "postcode": "82239",
    "city": "Alling"
  },
  {
    "postcode": "82239",
    "city": "Alling Oberbayern"
  },
  {
    "postcode": "82239",
    "city": "Biburg"
  },
  {
    "postcode": "82239",
    "city": "Gagers Kreis Fürstenfeldbruck"
  },
  {
    "postcode": "82239",
    "city": "Gagers"
  },
  {
    "postcode": "82239",
    "city": "Germannsberg"
  },
  {
    "postcode": "82239",
    "city": "Hoflach Oberbayern"
  },
  {
    "postcode": "82239",
    "city": "Hoflach"
  },
  {
    "postcode": "82239",
    "city": "Holzhausen"
  },
  {
    "postcode": "82239",
    "city": "Holzkirchen"
  },
  {
    "postcode": "82239",
    "city": "Neuried Kreis Fürstenfeldbruck"
  },
  {
    "postcode": "82239",
    "city": "Neuried"
  },
  {
    "postcode": "82239",
    "city": "Fürstenfeldbruck"
  },
  {
    "postcode": "82239",
    "city": "Angerhof"
  },
  {
    "postcode": "82239",
    "city": "Wagelsried"
  },
  {
    "postcode": "82256",
    "city": "Aich"
  },
  {
    "postcode": "82256",
    "city": "Fürstenfeldbruck"
  },
  {
    "postcode": "82256",
    "city": "Gelbenholzen"
  },
  {
    "postcode": "82256",
    "city": "Lindach Kreis Fürstenfeldbruck"
  },
  {
    "postcode": "82256",
    "city": "Lindach"
  },
  {
    "postcode": "82256",
    "city": "Neu-Lindach"
  },
  {
    "postcode": "82256",
    "city": "Pfaffing"
  },
  {
    "postcode": "82256",
    "city": "Puch"
  },
  {
    "postcode": "82256",
    "city": "Rothschwaig"
  },
  {
    "postcode": "82256",
    "city": "Neulindach"
  },
  {
    "postcode": "82266",
    "city": "Arzla am Ammersee"
  },
  {
    "postcode": "82266",
    "city": "Bachern am Wörthsee"
  },
  {
    "postcode": "82266",
    "city": "Buch am Ammersee"
  },
  {
    "postcode": "82266",
    "city": "Inning"
  },
  {
    "postcode": "82266",
    "city": "Inning am Ammersee"
  },
  {
    "postcode": "82266",
    "city": "Schlagenhofen"
  },
  {
    "postcode": "82266",
    "city": "Stegen am Ammersee"
  },
  {
    "postcode": "82266",
    "city": "Starnberg"
  },
  {
    "postcode": "82266",
    "city": "Inning a. Ammersee"
  },
  {
    "postcode": "82266",
    "city": "Bachern"
  },
  {
    "postcode": "82266",
    "city": "Buch"
  },
  {
    "postcode": "82266",
    "city": "Gut Arzla"
  },
  {
    "postcode": "82266",
    "city": "Martinsberg"
  },
  {
    "postcode": "82269",
    "city": "Dürnast"
  },
  {
    "postcode": "82269",
    "city": "Geltendorf"
  },
  {
    "postcode": "82269",
    "city": "Hausen bei Geltendorf"
  },
  {
    "postcode": "82269",
    "city": "Jedelstetten Oberbayern"
  },
  {
    "postcode": "82269",
    "city": "Jedelstetten"
  },
  {
    "postcode": "82269",
    "city": "Kaltenberg Kreis Landsberg am Lech"
  },
  {
    "postcode": "82269",
    "city": "Kaltenberg"
  },
  {
    "postcode": "82269",
    "city": "Petzenhofen Oberbayern"
  },
  {
    "postcode": "82269",
    "city": "Petzenhofen"
  },
  {
    "postcode": "82269",
    "city": "Unfriedshausen Oberbayern"
  },
  {
    "postcode": "82269",
    "city": "Unfriedshausen"
  },
  {
    "postcode": "82269",
    "city": "Wabern Oberbayern"
  },
  {
    "postcode": "82269",
    "city": "Wabern"
  },
  {
    "postcode": "82269",
    "city": "Walleshausen Oberbayern"
  },
  {
    "postcode": "82269",
    "city": "Walleshausen"
  },
  {
    "postcode": "82269",
    "city": "Landsberg am Lech"
  },
  {
    "postcode": "82269",
    "city": "Hausen"
  },
  {
    "postcode": "82272",
    "city": "Albertshofen"
  },
  {
    "postcode": "82272",
    "city": "Brandenberg"
  },
  {
    "postcode": "82272",
    "city": "Dünzelbach"
  },
  {
    "postcode": "82272",
    "city": "Eismerszell"
  },
  {
    "postcode": "82272",
    "city": "Grunertshofen"
  },
  {
    "postcode": "82272",
    "city": "Hohenzell Kreis Fürstenfeldbruck"
  },
  {
    "postcode": "82272",
    "city": "Hohenzell"
  },
  {
    "postcode": "82272",
    "city": "Langwied"
  },
  {
    "postcode": "82272",
    "city": "Luidenhofen"
  },
  {
    "postcode": "82272",
    "city": "Moorenweis"
  },
  {
    "postcode": "82272",
    "city": "Purk"
  },
  {
    "postcode": "82272",
    "city": "Römertshofen"
  },
  {
    "postcode": "82272",
    "city": "Steinbach Kreis Fürstenfeldbruck"
  },
  {
    "postcode": "82272",
    "city": "Steinbach"
  },
  {
    "postcode": "82272",
    "city": "Windach"
  },
  {
    "postcode": "82272",
    "city": "Zell"
  },
  {
    "postcode": "82272",
    "city": "Fürstenfeldbruck"
  },
  {
    "postcode": "82272",
    "city": "Franzbauer"
  },
  {
    "postcode": "82272",
    "city": "Alm"
  },
  {
    "postcode": "82272",
    "city": "Meierhof"
  },
  {
    "postcode": "82272",
    "city": "Ziegelstadel"
  },
  {
    "postcode": "82275",
    "city": "Emmering Kreis Fürstenfeldbruck"
  },
  {
    "postcode": "82275",
    "city": "Emmering"
  },
  {
    "postcode": "82275",
    "city": "Fürstenfeldbruck"
  },
  {
    "postcode": "82276",
    "city": "Adelshofen"
  },
  {
    "postcode": "82276",
    "city": "Adelshofen Kreis Fürstenfeldbruck"
  },
  {
    "postcode": "82276",
    "city": "Luttenwang"
  },
  {
    "postcode": "82276",
    "city": "Nassenhausen Kreis Fürstenfeldbruck"
  },
  {
    "postcode": "82276",
    "city": "Nassenhausen"
  },
  {
    "postcode": "82276",
    "city": "Fürstenfeldbruck"
  },
  {
    "postcode": "82278",
    "city": "Althegnenberg"
  },
  {
    "postcode": "82278",
    "city": "Hörbach Kreis Fürstenfeldbruck"
  },
  {
    "postcode": "82278",
    "city": "Hörbach"
  },
  {
    "postcode": "82278",
    "city": "Fürstenfeldbruck"
  },
  {
    "postcode": "82278",
    "city": "Lindenhof"
  },
  {
    "postcode": "82279",
    "city": "Eching"
  },
  {
    "postcode": "82279",
    "city": "Eching am Ammersee"
  },
  {
    "postcode": "82279",
    "city": "Gießübl Ammersee"
  },
  {
    "postcode": "82279",
    "city": "Gießübl"
  },
  {
    "postcode": "82279",
    "city": "Landsberg am Lech"
  },
  {
    "postcode": "82281",
    "city": "Dirlesried Kreis Fürstenfeldbruck"
  },
  {
    "postcode": "82281",
    "city": "Dirlesried"
  },
  {
    "postcode": "82281",
    "city": "Dürabuch"
  },
  {
    "postcode": "82281",
    "city": "Egenhofen"
  },
  {
    "postcode": "82281",
    "city": "Egenhofen Kreis Fürstenfeldbruck"
  },
  {
    "postcode": "82281",
    "city": "Herrnzell"
  },
  {
    "postcode": "82281",
    "city": "Karlshof Kreis Fürstenfeldbruck"
  },
  {
    "postcode": "82281",
    "city": "Karlshof"
  },
  {
    "postcode": "82281",
    "city": "Osterholzen Kreis Fürstenfeldbruck"
  },
  {
    "postcode": "82281",
    "city": "Osterholzen"
  },
  {
    "postcode": "82281",
    "city": "Poigern Kreis Fürstenfeldbruck"
  },
  {
    "postcode": "82281",
    "city": "Poigern"
  },
  {
    "postcode": "82281",
    "city": "Waltenhofen"
  },
  {
    "postcode": "82281",
    "city": "Wenigmünchen"
  },
  {
    "postcode": "82281",
    "city": "Weyhern Kreis Fürstenfeldbruck"
  },
  {
    "postcode": "82281",
    "city": "Weyhern"
  },
  {
    "postcode": "82281",
    "city": "Fürstenfeldbruck"
  },
  {
    "postcode": "82281",
    "city": "Unterschweinbach"
  },
  {
    "postcode": "82281",
    "city": "Oberweikertshofen"
  },
  {
    "postcode": "82281",
    "city": "Aufkirchen"
  },
  {
    "postcode": "82281",
    "city": "Pischertshofen"
  },
  {
    "postcode": "82281",
    "city": "Englertshofen"
  },
  {
    "postcode": "82281",
    "city": "Eurastetten"
  },
  {
    "postcode": "82281",
    "city": "Fuchsberg"
  },
  {
    "postcode": "82281",
    "city": "Furtmühle"
  },
  {
    "postcode": "82281",
    "city": "Geisenhofen"
  },
  {
    "postcode": "82281",
    "city": "Rottenfuß"
  },
  {
    "postcode": "82281",
    "city": "Holzmühl"
  },
  {
    "postcode": "82281",
    "city": "Kumpfmühle"
  },
  {
    "postcode": "82281",
    "city": "Rammertshofen"
  },
  {
    "postcode": "82281",
    "city": "Waltershofen"
  },
  {
    "postcode": "82282",
    "city": "Aufkirchen bei Unterschweinbach"
  },
  {
    "postcode": "82282",
    "city": "Dürabuch"
  },
  {
    "postcode": "82282",
    "city": "Englertshofen"
  },
  {
    "postcode": "82282",
    "city": "Eurastetten"
  },
  {
    "postcode": "82282",
    "city": "Geisenhofen bei Unterschweinbach"
  },
  {
    "postcode": "82282",
    "city": "Oberweikertshofen"
  },
  {
    "postcode": "82282",
    "city": "Pischertshofen"
  },
  {
    "postcode": "82282",
    "city": "Rammertshofen"
  },
  {
    "postcode": "82282",
    "city": "Rottenfuß"
  },
  {
    "postcode": "82282",
    "city": "Waltenhofen"
  },
  {
    "postcode": "82282",
    "city": "Waltershofen bei Unterschweinbach"
  },
  {
    "postcode": "82282",
    "city": "Wenigmünchen"
  },
  {
    "postcode": "82284",
    "city": "Grafrath"
  },
  {
    "postcode": "82284",
    "city": "Grafrath Amper"
  },
  {
    "postcode": "82284",
    "city": "Mauern Amper"
  },
  {
    "postcode": "82284",
    "city": "Mauern"
  },
  {
    "postcode": "82284",
    "city": "Unteralting"
  },
  {
    "postcode": "82284",
    "city": "Wildenroth Amper"
  },
  {
    "postcode": "82284",
    "city": "Wildenroth"
  },
  {
    "postcode": "82284",
    "city": "Fürstenfeldbruck"
  },
  {
    "postcode": "82285",
    "city": "Haspelmoor"
  },
  {
    "postcode": "82285",
    "city": "Hattenhofen"
  },
  {
    "postcode": "82285",
    "city": "Hattenhofen Kreis Fürstenfeldbruck"
  },
  {
    "postcode": "82285",
    "city": "Loitershofen Kreis Fürstenfeldbruck"
  },
  {
    "postcode": "82285",
    "city": "Loitershofen"
  },
  {
    "postcode": "82285",
    "city": "Fürstenfeldbruck"
  },
  {
    "postcode": "82287",
    "city": "Jesenwang"
  },
  {
    "postcode": "82287",
    "city": "Pfaffenhofen"
  },
  {
    "postcode": "82287",
    "city": "Fürstenfeldbruck"
  },
  {
    "postcode": "82288",
    "city": "Kottgeisering"
  },
  {
    "postcode": "82288",
    "city": "Fürstenfeldbruck"
  },
  {
    "postcode": "82290",
    "city": "Babenried"
  },
  {
    "postcode": "82290",
    "city": "Hirschthürl"
  },
  {
    "postcode": "82290",
    "city": "Landsberied"
  },
  {
    "postcode": "82290",
    "city": "Fürstenfeldbruck"
  },
  {
    "postcode": "82290",
    "city": "Hirschtürl"
  },
  {
    "postcode": "82291",
    "city": "Egg Oberbayern"
  },
  {
    "postcode": "82291",
    "city": "Egg"
  },
  {
    "postcode": "82291",
    "city": "Eitelsried Kreis Fürstenfeldbrück"
  },
  {
    "postcode": "82291",
    "city": "Eitelsried"
  },
  {
    "postcode": "82291",
    "city": "Mammendorf"
  },
  {
    "postcode": "82291",
    "city": "Mammendorf Oberbayern"
  },
  {
    "postcode": "82291",
    "city": "Nannhofen"
  },
  {
    "postcode": "82291",
    "city": "Peretshofen Oberbayern"
  },
  {
    "postcode": "82291",
    "city": "Peretshofen"
  },
  {
    "postcode": "82291",
    "city": "Fürstenfeldbruck"
  },
  {
    "postcode": "82291",
    "city": "Holzmichl"
  },
  {
    "postcode": "82291",
    "city": "Wiesmichl"
  },
  {
    "postcode": "82293",
    "city": "Hanshofen"
  },
  {
    "postcode": "82293",
    "city": "Längenmoos"
  },
  {
    "postcode": "82293",
    "city": "Mittelstetten"
  },
  {
    "postcode": "82293",
    "city": "Mittelstetten Kreis Fürstenfeldbruck"
  },
  {
    "postcode": "82293",
    "city": "Oberdorf Schwaben"
  },
  {
    "postcode": "82293",
    "city": "Oberdorf"
  },
  {
    "postcode": "82293",
    "city": "Tegernbach bei Mering Schwaben"
  },
  {
    "postcode": "82293",
    "city": "Tegernbach bei Mering"
  },
  {
    "postcode": "82293",
    "city": "Vogach"
  },
  {
    "postcode": "82293",
    "city": "Fürstenfeldbruck"
  },
  {
    "postcode": "82293",
    "city": "Tegernbach"
  },
  {
    "postcode": "82294",
    "city": "Günzlhofen"
  },
  {
    "postcode": "82294",
    "city": "Oberschweinbach"
  },
  {
    "postcode": "82294",
    "city": "Spielberg"
  },
  {
    "postcode": "82294",
    "city": "Fürstenfeldbruck"
  },
  {
    "postcode": "82296",
    "city": "Schöngeising"
  },
  {
    "postcode": "82296",
    "city": "Fürstenfeldbruck"
  },
  {
    "postcode": "82296",
    "city": "Jexhof"
  },
  {
    "postcode": "82296",
    "city": "Zellhof"
  },
  {
    "postcode": "82297",
    "city": "Eresried"
  },
  {
    "postcode": "82297",
    "city": "Hausen bei Hofhegnenberg"
  },
  {
    "postcode": "82297",
    "city": "Hofhegnenberg"
  },
  {
    "postcode": "82297",
    "city": "Steindorf"
  },
  {
    "postcode": "82297",
    "city": "Steindorf Paar"
  },
  {
    "postcode": "82297",
    "city": "Aichach-Friedberg"
  },
  {
    "postcode": "82297",
    "city": "Hausen"
  },
  {
    "postcode": "82299",
    "city": "Burgholz Kreis Fürstenfeldbruck"
  },
  {
    "postcode": "82299",
    "city": "Burgholz"
  },
  {
    "postcode": "82299",
    "city": "Pleitmannswang"
  },
  {
    "postcode": "82299",
    "city": "Türkenfeld"
  },
  {
    "postcode": "82299",
    "city": "Türkenfeld bei Fürstenfeldbruck"
  },
  {
    "postcode": "82299",
    "city": "Zankenhausen"
  },
  {
    "postcode": "82299",
    "city": "Fürstenfeldbruck"
  },
  {
    "postcode": "82299",
    "city": "Klotzau"
  },
  {
    "postcode": "82299",
    "city": "Peutenmühle"
  },
  {
    "postcode": "82319",
    "city": "Buchhof Kreis Starnberg"
  },
  {
    "postcode": "82319",
    "city": "Buchhof"
  },
  {
    "postcode": "82319",
    "city": "Hadorf Kreis Starnberg"
  },
  {
    "postcode": "82319",
    "city": "Hadorf"
  },
  {
    "postcode": "82319",
    "city": "Hanfeld"
  },
  {
    "postcode": "82319",
    "city": "Heimathshausen Kreis Starnberg"
  },
  {
    "postcode": "82319",
    "city": "Heimathshausen"
  },
  {
    "postcode": "82319",
    "city": "Landstetten"
  },
  {
    "postcode": "82319",
    "city": "Leutstetten"
  },
  {
    "postcode": "82319",
    "city": "Mamhofen"
  },
  {
    "postcode": "82319",
    "city": "Mühlthal"
  },
  {
    "postcode": "82319",
    "city": "Percha Kreis Starnberg"
  },
  {
    "postcode": "82319",
    "city": "Percha"
  },
  {
    "postcode": "82319",
    "city": "Perchting"
  },
  {
    "postcode": "82319",
    "city": "Petersbrunn"
  },
  {
    "postcode": "82319",
    "city": "Schorn Kreis Starnberg"
  },
  {
    "postcode": "82319",
    "city": "Schorn"
  },
  {
    "postcode": "82319",
    "city": "Schwaige"
  },
  {
    "postcode": "82319",
    "city": "Söcking Kreis Starnberg"
  },
  {
    "postcode": "82319",
    "city": "Söcking"
  },
  {
    "postcode": "82319",
    "city": "Starnberg"
  },
  {
    "postcode": "82319",
    "city": "Wangen Kreis Starnberg"
  },
  {
    "postcode": "82319",
    "city": "Wangen"
  },
  {
    "postcode": "82319",
    "city": "Seewiesen"
  },
  {
    "postcode": "82319",
    "city": "Jägersbrunn"
  },
  {
    "postcode": "82319",
    "city": "Obermühlthal"
  },
  {
    "postcode": "82319",
    "city": "Waldspielplatz"
  },
  {
    "postcode": "82327",
    "city": "Kampberg"
  },
  {
    "postcode": "82327",
    "city": "Monatshausen"
  },
  {
    "postcode": "82327",
    "city": "Obertraubing"
  },
  {
    "postcode": "82327",
    "city": "Rößlberg"
  },
  {
    "postcode": "82327",
    "city": "Traubing"
  },
  {
    "postcode": "82327",
    "city": "Tutzing"
  },
  {
    "postcode": "82327",
    "city": "Unterzeismering"
  },
  {
    "postcode": "82327",
    "city": "Starnberg"
  },
  {
    "postcode": "82327",
    "city": "Deixlfurt"
  },
  {
    "postcode": "82327",
    "city": "Diemendorf"
  },
  {
    "postcode": "82327",
    "city": "Oberzeismering"
  },
  {
    "postcode": "82327",
    "city": "Neuseeheim"
  },
  {
    "postcode": "82335",
    "city": "Allmannshausen Starnberger See"
  },
  {
    "postcode": "82335",
    "city": "Allmannshausen"
  },
  {
    "postcode": "82335",
    "city": "Assenhausen Starnberger See"
  },
  {
    "postcode": "82335",
    "city": "Assenhausen"
  },
  {
    "postcode": "82335",
    "city": "Aufhausen Kreis Starnberg"
  },
  {
    "postcode": "82335",
    "city": "Aufhausen"
  },
  {
    "postcode": "82335",
    "city": "Aufkirchen Kreis Starnberg"
  },
  {
    "postcode": "82335",
    "city": "Aufkirchen"
  },
  {
    "postcode": "82335",
    "city": "Bachhausen Kreis Starnberg"
  },
  {
    "postcode": "82335",
    "city": "Bachhausen"
  },
  {
    "postcode": "82335",
    "city": "Berg Starnberger See"
  },
  {
    "postcode": "82335",
    "city": "Berg"
  },
  {
    "postcode": "82335",
    "city": "Biberkor Kreis Wolfratshausen"
  },
  {
    "postcode": "82335",
    "city": "Biberkor"
  },
  {
    "postcode": "82335",
    "city": "Farchach Kreis Starnberg"
  },
  {
    "postcode": "82335",
    "city": "Farchach"
  },
  {
    "postcode": "82335",
    "city": "Höhenrain bei Wolfratshausen"
  },
  {
    "postcode": "82335",
    "city": "Kempfenhausen Kreis Starnberg"
  },
  {
    "postcode": "82335",
    "city": "Kempfenhausen"
  },
  {
    "postcode": "82335",
    "city": "Leoni Starnberger See"
  },
  {
    "postcode": "82335",
    "city": "Leoni"
  },
  {
    "postcode": "82335",
    "city": "Maxhöhe"
  },
  {
    "postcode": "82335",
    "city": "Mörlbach Isartal"
  },
  {
    "postcode": "82335",
    "city": "Mörlbach"
  },
  {
    "postcode": "82335",
    "city": "Sibichhausen Starnberger See"
  },
  {
    "postcode": "82335",
    "city": "Sibichhausen"
  },
  {
    "postcode": "82335",
    "city": "Starnberg"
  },
  {
    "postcode": "82335",
    "city": "Höhenrain"
  },
  {
    "postcode": "82335",
    "city": "Bachhauserwies"
  },
  {
    "postcode": "82335",
    "city": "Harkirchen"
  },
  {
    "postcode": "82335",
    "city": "Manthal"
  },
  {
    "postcode": "82335",
    "city": "Martinsholzen"
  },
  {
    "postcode": "82335",
    "city": "Aussiedlerhof"
  },
  {
    "postcode": "82340",
    "city": "Feldafing"
  },
  {
    "postcode": "82340",
    "city": "Garatshausen"
  },
  {
    "postcode": "82340",
    "city": "Wieling"
  },
  {
    "postcode": "82340",
    "city": "Starnberg"
  },
  {
    "postcode": "82343",
    "city": "Aschering"
  },
  {
    "postcode": "82343",
    "city": "Maising Kreis Starnberg"
  },
  {
    "postcode": "82343",
    "city": "Maising"
  },
  {
    "postcode": "82343",
    "city": "Maxhof"
  },
  {
    "postcode": "82343",
    "city": "Niederpöcking"
  },
  {
    "postcode": "82343",
    "city": "Pöcking"
  },
  {
    "postcode": "82343",
    "city": "Pöcking Kreis Starnberg"
  },
  {
    "postcode": "82343",
    "city": "Possenhofen Kreis Starnberg"
  },
  {
    "postcode": "82343",
    "city": "Possenhofen"
  },
  {
    "postcode": "82343",
    "city": "Starnberg"
  },
  {
    "postcode": "82343",
    "city": "Birkensiedlung"
  },
  {
    "postcode": "82346",
    "city": "Andechs"
  },
  {
    "postcode": "82346",
    "city": "Erling"
  },
  {
    "postcode": "82346",
    "city": "Frieding am Ammersee"
  },
  {
    "postcode": "82346",
    "city": "Machtlfing"
  },
  {
    "postcode": "82346",
    "city": "Starnberg"
  },
  {
    "postcode": "82346",
    "city": "Rothenfeld"
  },
  {
    "postcode": "82346",
    "city": "Frieding"
  },
  {
    "postcode": "82347",
    "city": "Bernried"
  },
  {
    "postcode": "82347",
    "city": "Bernried Starnberger See"
  },
  {
    "postcode": "82347",
    "city": "Hapberg Starnberger See"
  },
  {
    "postcode": "82347",
    "city": "Hapberg"
  },
  {
    "postcode": "82347",
    "city": "Höhenried Starnberger See"
  },
  {
    "postcode": "82347",
    "city": "Höhenried"
  },
  {
    "postcode": "82347",
    "city": "Karra Starnberger See"
  },
  {
    "postcode": "82347",
    "city": "Karra"
  },
  {
    "postcode": "82347",
    "city": "Unterholz Starnberger See"
  },
  {
    "postcode": "82347",
    "city": "Unterholz"
  },
  {
    "postcode": "82347",
    "city": "Weilheim-Schongau"
  },
  {
    "postcode": "82347",
    "city": "Gallafilz"
  },
  {
    "postcode": "82347",
    "city": "Adelsried"
  },
  {
    "postcode": "82349",
    "city": "Frohnloh"
  },
  {
    "postcode": "82349",
    "city": "Pentenried"
  },
  {
    "postcode": "82349",
    "city": "Starnberg"
  },
  {
    "postcode": "82362",
    "city": "Deutenhausen Oberbayern"
  },
  {
    "postcode": "82362",
    "city": "Deutenhausen"
  },
  {
    "postcode": "82362",
    "city": "Gossenhofen"
  },
  {
    "postcode": "82362",
    "city": "Lichtenau Oberbayern"
  },
  {
    "postcode": "82362",
    "city": "Lichtenau"
  },
  {
    "postcode": "82362",
    "city": "Marnbach Oberbayern"
  },
  {
    "postcode": "82362",
    "city": "Marnbach"
  },
  {
    "postcode": "82362",
    "city": "Tankenrain Oberbayern"
  },
  {
    "postcode": "82362",
    "city": "Tankenrain"
  },
  {
    "postcode": "82362",
    "city": "Unterhausen"
  },
  {
    "postcode": "82362",
    "city": "Weilheim"
  },
  {
    "postcode": "82362",
    "city": "Weilheim in Oberbayern"
  },
  {
    "postcode": "82362",
    "city": "Weilheim-Schongau"
  },
  {
    "postcode": "82362",
    "city": "Weilheim i. OB"
  },
  {
    "postcode": "82362",
    "city": "Wielenbach"
  },
  {
    "postcode": "82377",
    "city": "Edenhof"
  },
  {
    "postcode": "82377",
    "city": "Heinz"
  },
  {
    "postcode": "82377",
    "city": "Johannisberg"
  },
  {
    "postcode": "82377",
    "city": "Kirnberg"
  },
  {
    "postcode": "82377",
    "city": "Maxkron"
  },
  {
    "postcode": "82377",
    "city": "Nantesbuch"
  },
  {
    "postcode": "82377",
    "city": "Neukirnberg"
  },
  {
    "postcode": "82377",
    "city": "Nonnenwald"
  },
  {
    "postcode": "82377",
    "city": "Oberhof"
  },
  {
    "postcode": "82377",
    "city": "Penzberg"
  },
  {
    "postcode": "82377",
    "city": "Promberg"
  },
  {
    "postcode": "82377",
    "city": "Sankt Johannisrain"
  },
  {
    "postcode": "82377",
    "city": "Wölfl"
  },
  {
    "postcode": "82377",
    "city": "Weilheim-Schongau"
  },
  {
    "postcode": "82377",
    "city": "Steigenberg"
  },
  {
    "postcode": "82377",
    "city": "Reindl"
  },
  {
    "postcode": "82377",
    "city": "Daserhof"
  },
  {
    "postcode": "82377",
    "city": "Rain"
  },
  {
    "postcode": "82377",
    "city": "Schönmühl"
  },
  {
    "postcode": "82377",
    "city": "St. Johannisrain"
  },
  {
    "postcode": "82377",
    "city": "Hub"
  },
  {
    "postcode": "82377",
    "city": "Vordermeier"
  },
  {
    "postcode": "82377",
    "city": "Zist"
  },
  {
    "postcode": "82380",
    "city": "Aich"
  },
  {
    "postcode": "82380",
    "city": "Bruckerhof"
  },
  {
    "postcode": "82380",
    "city": "Ficht"
  },
  {
    "postcode": "82380",
    "city": "Peißenberg"
  },
  {
    "postcode": "82380",
    "city": "Schlag"
  },
  {
    "postcode": "82380",
    "city": "Sulz"
  },
  {
    "postcode": "82380",
    "city": "Windkreut"
  },
  {
    "postcode": "82380",
    "city": "Weilheim-Schongau"
  },
  {
    "postcode": "82380",
    "city": "Osterwald"
  },
  {
    "postcode": "82380",
    "city": "Roßlaich"
  },
  {
    "postcode": "82380",
    "city": "Granerhof"
  },
  {
    "postcode": "82380",
    "city": "Alter Bahnhof"
  },
  {
    "postcode": "82380",
    "city": "Thalacker"
  },
  {
    "postcode": "82380",
    "city": "Hutterer Leite"
  },
  {
    "postcode": "82380",
    "city": "Ammerhöfe"
  },
  {
    "postcode": "82380",
    "city": "Wörth"
  },
  {
    "postcode": "82380",
    "city": "Armeleiten"
  },
  {
    "postcode": "82380",
    "city": "Auf der Leite"
  },
  {
    "postcode": "82380",
    "city": "Obere Au"
  },
  {
    "postcode": "82380",
    "city": "Berghof"
  },
  {
    "postcode": "82380",
    "city": "Buchen"
  },
  {
    "postcode": "82380",
    "city": "Scheithauf"
  },
  {
    "postcode": "82380",
    "city": "Fendt"
  },
  {
    "postcode": "82380",
    "city": "Hochreuth"
  },
  {
    "postcode": "82380",
    "city": "Hohenwart"
  },
  {
    "postcode": "82380",
    "city": "Oberbuchau"
  },
  {
    "postcode": "82380",
    "city": "Rapoltskreut"
  },
  {
    "postcode": "82380",
    "city": "Gemeinde Hohenpeißenberg"
  },
  {
    "postcode": "82380",
    "city": "Schweiber"
  },
  {
    "postcode": "82380",
    "city": "St. Georg"
  },
  {
    "postcode": "82380",
    "city": "St. Michael"
  },
  {
    "postcode": "82380",
    "city": "Strallen"
  },
  {
    "postcode": "82380",
    "city": "Taigschuster"
  },
  {
    "postcode": "82380",
    "city": "Tritschenkreut"
  },
  {
    "postcode": "82380",
    "city": "Unterbuchau"
  },
  {
    "postcode": "82380",
    "city": "Vorm Holz"
  },
  {
    "postcode": "82383",
    "city": "Bschorrwald"
  },
  {
    "postcode": "82383",
    "city": "Buchschorn"
  },
  {
    "postcode": "82383",
    "city": "Hetten"
  },
  {
    "postcode": "82383",
    "city": "Hohenbrand"
  },
  {
    "postcode": "82383",
    "city": "Hohenpeißenberg"
  },
  {
    "postcode": "82383",
    "city": "Klausen"
  },
  {
    "postcode": "82383",
    "city": "Krönau"
  },
  {
    "postcode": "82383",
    "city": "Obersedlhof"
  },
  {
    "postcode": "82383",
    "city": "Pröbstelsberg"
  },
  {
    "postcode": "82383",
    "city": "Söldei"
  },
  {
    "postcode": "82383",
    "city": "Steinfall Gemeinde Ammerhöfe"
  },
  {
    "postcode": "82383",
    "city": "Steinfall"
  },
  {
    "postcode": "82383",
    "city": "Unterbau"
  },
  {
    "postcode": "82383",
    "city": "Untersedlhof"
  },
  {
    "postcode": "82383",
    "city": "Vorderberg"
  },
  {
    "postcode": "82383",
    "city": "Weilheim-Schongau"
  },
  {
    "postcode": "82383",
    "city": "Fuchshölle"
  },
  {
    "postcode": "82383",
    "city": "Hinterschwaig"
  },
  {
    "postcode": "82383",
    "city": "Mitterschwaig"
  },
  {
    "postcode": "82383",
    "city": "Oberschwaig"
  },
  {
    "postcode": "82383",
    "city": "Vorderschwaig"
  },
  {
    "postcode": "82386",
    "city": "Achberg"
  },
  {
    "postcode": "82386",
    "city": "Berg"
  },
  {
    "postcode": "82386",
    "city": "Deimenried"
  },
  {
    "postcode": "82386",
    "city": "Eyach"
  },
  {
    "postcode": "82386",
    "city": "Grasleiten"
  },
  {
    "postcode": "82386",
    "city": "Huglfing"
  },
  {
    "postcode": "82386",
    "city": "Kreilhof"
  },
  {
    "postcode": "82386",
    "city": "Maxlried"
  },
  {
    "postcode": "82386",
    "city": "Oberhausen"
  },
  {
    "postcode": "82386",
    "city": "Oberhausen Oberbayern"
  },
  {
    "postcode": "82386",
    "city": "Rechetsberg"
  },
  {
    "postcode": "82386",
    "city": "Sankt Nikolaus"
  },
  {
    "postcode": "82386",
    "city": "Thalhausen"
  },
  {
    "postcode": "82386",
    "city": "Weilheim-Schongau"
  },
  {
    "postcode": "82386",
    "city": "Georgenhof"
  },
  {
    "postcode": "82386",
    "city": "Rameck"
  },
  {
    "postcode": "82386",
    "city": "Schweyer"
  },
  {
    "postcode": "82386",
    "city": "Steinweiler"
  },
  {
    "postcode": "82386",
    "city": "Weiden"
  },
  {
    "postcode": "82386",
    "city": "Kirnberg"
  },
  {
    "postcode": "82386",
    "city": "St. Nikolaus"
  },
  {
    "postcode": "82386",
    "city": "Obermaxlried"
  },
  {
    "postcode": "82387",
    "city": "Antdorf"
  },
  {
    "postcode": "82387",
    "city": "Frauenrain"
  },
  {
    "postcode": "82387",
    "city": "Neuried"
  },
  {
    "postcode": "82387",
    "city": "Obersiffelhofen"
  },
  {
    "postcode": "82387",
    "city": "Rieden"
  },
  {
    "postcode": "82387",
    "city": "Untersiffelhofen"
  },
  {
    "postcode": "82387",
    "city": "Weilheim-Schongau"
  },
  {
    "postcode": "82387",
    "city": "Breunetsried"
  },
  {
    "postcode": "82387",
    "city": "Dürnberg"
  },
  {
    "postcode": "82387",
    "city": "Gröben"
  },
  {
    "postcode": "82387",
    "city": "Schillersberg"
  },
  {
    "postcode": "82387",
    "city": "Schwarzenbach"
  },
  {
    "postcode": "82387",
    "city": "Wasla"
  },
  {
    "postcode": "82387",
    "city": "Weidwies"
  },
  {
    "postcode": "82389",
    "city": "Böbing"
  },
  {
    "postcode": "82389",
    "city": "Geigersau"
  },
  {
    "postcode": "82389",
    "city": "Grambach"
  },
  {
    "postcode": "82389",
    "city": "Holzleithen"
  },
  {
    "postcode": "82389",
    "city": "Kirnberg"
  },
  {
    "postcode": "82389",
    "city": "Leithen"
  },
  {
    "postcode": "82389",
    "city": "Mühlegg"
  },
  {
    "postcode": "82389",
    "city": "Pischlach"
  },
  {
    "postcode": "82389",
    "city": "Sprengelsbach"
  },
  {
    "postcode": "82389",
    "city": "Thalmühl"
  },
  {
    "postcode": "82389",
    "city": "Vorderkirnberg"
  },
  {
    "postcode": "82389",
    "city": "Wimpes"
  },
  {
    "postcode": "82389",
    "city": "Weilheim-Schongau"
  },
  {
    "postcode": "82389",
    "city": "Ajachmühle"
  },
  {
    "postcode": "82389",
    "city": "Bromberg"
  },
  {
    "postcode": "82389",
    "city": "Feistenau"
  },
  {
    "postcode": "82389",
    "city": "Holzleiten"
  },
  {
    "postcode": "82389",
    "city": "Leiten"
  },
  {
    "postcode": "82389",
    "city": "Lindau"
  },
  {
    "postcode": "82389",
    "city": "Lugenau"
  },
  {
    "postcode": "82389",
    "city": "Ruhe"
  },
  {
    "postcode": "82389",
    "city": "Thalmühle"
  },
  {
    "postcode": "82390",
    "city": "Arnried"
  },
  {
    "postcode": "82390",
    "city": "Eberfing"
  },
  {
    "postcode": "82390",
    "city": "Eichendorf"
  },
  {
    "postcode": "82390",
    "city": "Gandershofen"
  },
  {
    "postcode": "82390",
    "city": "Linden"
  },
  {
    "postcode": "82390",
    "city": "Moos Oberbayern"
  },
  {
    "postcode": "82390",
    "city": "Moos"
  },
  {
    "postcode": "82390",
    "city": "Obereberfing"
  },
  {
    "postcode": "82390",
    "city": "Stadel"
  },
  {
    "postcode": "82390",
    "city": "Untereberfing"
  },
  {
    "postcode": "82390",
    "city": "Weilheim-Schongau"
  },
  {
    "postcode": "82390",
    "city": "Hohenkasten"
  },
  {
    "postcode": "82390",
    "city": "Ludwigsried"
  },
  {
    "postcode": "82390",
    "city": "Marterleiten"
  },
  {
    "postcode": "82390",
    "city": "Sonnenfeld"
  },
  {
    "postcode": "82390",
    "city": "Streitberg"
  },
  {
    "postcode": "82390",
    "city": "Pollingsried"
  },
  {
    "postcode": "82390",
    "city": "Westenried"
  },
  {
    "postcode": "82392",
    "city": "Dürnhausen"
  },
  {
    "postcode": "82392",
    "city": "Habach"
  },
  {
    "postcode": "82392",
    "city": "Habach Oberbayern"
  },
  {
    "postcode": "82392",
    "city": "Habaching"
  },
  {
    "postcode": "82392",
    "city": "Hinterfeld Oberbayern"
  },
  {
    "postcode": "82392",
    "city": "Hinterfeld"
  },
  {
    "postcode": "82392",
    "city": "Weilheim-Schongau"
  },
  {
    "postcode": "82392",
    "city": "Hof"
  },
  {
    "postcode": "82392",
    "city": "Jaudenmühle"
  },
  {
    "postcode": "82392",
    "city": "Kratzlmühle"
  },
  {
    "postcode": "82392",
    "city": "Obermühle"
  },
  {
    "postcode": "82392",
    "city": "Thomamühle"
  },
  {
    "postcode": "82393",
    "city": "Iffeldorf"
  },
  {
    "postcode": "82393",
    "city": "Obereurach"
  },
  {
    "postcode": "82393",
    "city": "Oberlauterbach"
  },
  {
    "postcode": "82393",
    "city": "Steinbach"
  },
  {
    "postcode": "82393",
    "city": "Untereurach"
  },
  {
    "postcode": "82393",
    "city": "Unterlauterbach"
  },
  {
    "postcode": "82393",
    "city": "Weilheim-Schongau"
  },
  {
    "postcode": "82393",
    "city": "Eurach"
  },
  {
    "postcode": "82393",
    "city": "Sanimoor"
  },
  {
    "postcode": "82393",
    "city": "Schwaig"
  },
  {
    "postcode": "82393",
    "city": "Staltach"
  },
  {
    "postcode": "82395",
    "city": "Egenried"
  },
  {
    "postcode": "82395",
    "city": "Obersöchering"
  },
  {
    "postcode": "82395",
    "city": "Untersöchering"
  },
  {
    "postcode": "82395",
    "city": "Weilheim-Schongau"
  },
  {
    "postcode": "82395",
    "city": "Abertshausen"
  },
  {
    "postcode": "82395",
    "city": "Emmenried"
  },
  {
    "postcode": "82395",
    "city": "Habaching"
  },
  {
    "postcode": "82395",
    "city": "Hachtsee"
  },
  {
    "postcode": "82395",
    "city": "Moos"
  },
  {
    "postcode": "82395",
    "city": "Reinthal"
  },
  {
    "postcode": "82395",
    "city": "Schönach"
  },
  {
    "postcode": "82395",
    "city": "Tradlenz"
  },
  {
    "postcode": "82396",
    "city": "Aidenried"
  },
  {
    "postcode": "82396",
    "city": "Hartschimmel"
  },
  {
    "postcode": "82396",
    "city": "Hochschloß"
  },
  {
    "postcode": "82396",
    "city": "Kerschlach"
  },
  {
    "postcode": "82396",
    "city": "Mitterfischen"
  },
  {
    "postcode": "82396",
    "city": "Pähl"
  },
  {
    "postcode": "82396",
    "city": "Vorderfischen"
  },
  {
    "postcode": "82396",
    "city": "Weilheim-Schongau"
  },
  {
    "postcode": "82396",
    "city": "Fischen"
  },
  {
    "postcode": "82396",
    "city": "Hallerhof"
  },
  {
    "postcode": "82396",
    "city": "Hohenpähl"
  },
  {
    "postcode": "82396",
    "city": "Hartschimmelhof"
  },
  {
    "postcode": "82396",
    "city": "Oberer Ammerhof"
  },
  {
    "postcode": "82398",
    "city": "Etting"
  },
  {
    "postcode": "82398",
    "city": "Längenlaich Kreis Weilheim Oberbayern"
  },
  {
    "postcode": "82398",
    "city": "Längenlaich"
  },
  {
    "postcode": "82398",
    "city": "Oderding Kreis Weilheim Oberbayern"
  },
  {
    "postcode": "82398",
    "city": "Oderding"
  },
  {
    "postcode": "82398",
    "city": "Polling"
  },
  {
    "postcode": "82398",
    "city": "Weilheim-Schongau"
  },
  {
    "postcode": "82398",
    "city": "St. Wolfgang"
  },
  {
    "postcode": "82398",
    "city": "Grasla"
  },
  {
    "postcode": "82398",
    "city": "Hungerwies"
  },
  {
    "postcode": "82398",
    "city": "Kugelsbühl"
  },
  {
    "postcode": "82399",
    "city": "Raisting"
  },
  {
    "postcode": "82399",
    "city": "Raisting Oberbayern"
  },
  {
    "postcode": "82399",
    "city": "Sölb"
  },
  {
    "postcode": "82399",
    "city": "Unterstillern"
  },
  {
    "postcode": "82399",
    "city": "Weilheim-Schongau"
  },
  {
    "postcode": "82399",
    "city": "Ertlmühle"
  },
  {
    "postcode": "82399",
    "city": "Harthof"
  },
  {
    "postcode": "82399",
    "city": "Stillern"
  },
  {
    "postcode": "82401",
    "city": "Achen Oberbayern"
  },
  {
    "postcode": "82401",
    "city": "Achen"
  },
  {
    "postcode": "82401",
    "city": "Ammerthal Oberbayern"
  },
  {
    "postcode": "82401",
    "city": "Ammerthal"
  },
  {
    "postcode": "82401",
    "city": "Engle Oberbayern"
  },
  {
    "postcode": "82401",
    "city": "Engle"
  },
  {
    "postcode": "82401",
    "city": "Krummengraben Oberbayern"
  },
  {
    "postcode": "82401",
    "city": "Krummengraben"
  },
  {
    "postcode": "82401",
    "city": "Moos"
  },
  {
    "postcode": "82401",
    "city": "Ölberg Oberbayern"
  },
  {
    "postcode": "82401",
    "city": "Ölberg"
  },
  {
    "postcode": "82401",
    "city": "Ristle Oberbayern"
  },
  {
    "postcode": "82401",
    "city": "Ristle"
  },
  {
    "postcode": "82401",
    "city": "Rochustal"
  },
  {
    "postcode": "82401",
    "city": "Rottenbuch"
  },
  {
    "postcode": "82401",
    "city": "Rottenbuch Oberbayern"
  },
  {
    "postcode": "82401",
    "city": "Rudersau Oberbayern"
  },
  {
    "postcode": "82401",
    "city": "Rudersau"
  },
  {
    "postcode": "82401",
    "city": "Schmauzenberg Oberbayern"
  },
  {
    "postcode": "82401",
    "city": "Schmauzenberg"
  },
  {
    "postcode": "82401",
    "city": "Schönberg"
  },
  {
    "postcode": "82401",
    "city": "Schönegg Oberbayern"
  },
  {
    "postcode": "82401",
    "city": "Schönegg"
  },
  {
    "postcode": "82401",
    "city": "Schwaig"
  },
  {
    "postcode": "82401",
    "city": "Solder Oberbayern"
  },
  {
    "postcode": "82401",
    "city": "Solder"
  },
  {
    "postcode": "82401",
    "city": "Weilheim-Schongau"
  },
  {
    "postcode": "82401",
    "city": "Ammertal"
  },
  {
    "postcode": "82401",
    "city": "Filzbauernweg"
  },
  {
    "postcode": "82401",
    "city": "Hochkreit"
  },
  {
    "postcode": "82401",
    "city": "Kreit"
  },
  {
    "postcode": "82401",
    "city": "Reiswies"
  },
  {
    "postcode": "82401",
    "city": "Voglherd"
  },
  {
    "postcode": "82401",
    "city": "Ziegelfeld"
  },
  {
    "postcode": "82401",
    "city": "Zum Schmiedenbauer"
  },
  {
    "postcode": "82402",
    "city": "Eisenrain"
  },
  {
    "postcode": "82402",
    "city": "Hohenberg"
  },
  {
    "postcode": "82402",
    "city": "Jenhausen"
  },
  {
    "postcode": "82402",
    "city": "Kreutberg"
  },
  {
    "postcode": "82402",
    "city": "Magnetsried"
  },
  {
    "postcode": "82402",
    "city": "Nußberg"
  },
  {
    "postcode": "82402",
    "city": "Oppenried"
  },
  {
    "postcode": "82402",
    "city": "Seeseiten"
  },
  {
    "postcode": "82402",
    "city": "Seeshaupt"
  },
  {
    "postcode": "82402",
    "city": "Weilheim-Schongau"
  },
  {
    "postcode": "82402",
    "city": "Ellmann"
  },
  {
    "postcode": "82402",
    "city": "Pollingsried"
  },
  {
    "postcode": "82402",
    "city": "Holzmühle"
  },
  {
    "postcode": "82402",
    "city": "Hübschmühle"
  },
  {
    "postcode": "82402",
    "city": "Kronleiten"
  },
  {
    "postcode": "82402",
    "city": "Schmitten"
  },
  {
    "postcode": "82402",
    "city": "Ungertsried"
  },
  {
    "postcode": "82402",
    "city": "Wolfetsried"
  },
  {
    "postcode": "82404",
    "city": "Mühleck"
  },
  {
    "postcode": "82404",
    "city": "Riedern"
  },
  {
    "postcode": "82404",
    "city": "Sindelsdorf"
  },
  {
    "postcode": "82404",
    "city": "Urthal"
  },
  {
    "postcode": "82404",
    "city": "Weilheim-Schongau"
  },
  {
    "postcode": "82404",
    "city": "Auf dem Rauth"
  },
  {
    "postcode": "82404",
    "city": "Auf der Seeleite"
  },
  {
    "postcode": "82404",
    "city": "Berghof"
  },
  {
    "postcode": "82404",
    "city": "Füllersried"
  },
  {
    "postcode": "82404",
    "city": "Schweigersried"
  },
  {
    "postcode": "82405",
    "city": "Forst"
  },
  {
    "postcode": "82405",
    "city": "Geiger"
  },
  {
    "postcode": "82405",
    "city": "Haid"
  },
  {
    "postcode": "82405",
    "city": "Holzlehen"
  },
  {
    "postcode": "82405",
    "city": "Linden"
  },
  {
    "postcode": "82405",
    "city": "Mandlhof"
  },
  {
    "postcode": "82405",
    "city": "Metzgengasse"
  },
  {
    "postcode": "82405",
    "city": "Paterzell"
  },
  {
    "postcode": "82405",
    "city": "Sankt Leonhard im Forst"
  },
  {
    "postcode": "82405",
    "city": "Schellschwang"
  },
  {
    "postcode": "82405",
    "city": "Schlitten"
  },
  {
    "postcode": "82405",
    "city": "Schönwag"
  },
  {
    "postcode": "82405",
    "city": "Schwabhof"
  },
  {
    "postcode": "82405",
    "city": "Wessobrunn"
  },
  {
    "postcode": "82405",
    "city": "Zellsee"
  },
  {
    "postcode": "82405",
    "city": "Weilheim-Schongau"
  },
  {
    "postcode": "82405",
    "city": "Blaik"
  },
  {
    "postcode": "82405",
    "city": "Moosmühle"
  },
  {
    "postcode": "82407",
    "city": "Bauerbach"
  },
  {
    "postcode": "82407",
    "city": "Diemendorf"
  },
  {
    "postcode": "82407",
    "city": "Haunshofen"
  },
  {
    "postcode": "82407",
    "city": "Wielenbach"
  },
  {
    "postcode": "82407",
    "city": "Wilzhofen"
  },
  {
    "postcode": "82407",
    "city": "Weilheim-Schongau"
  },
  {
    "postcode": "82407",
    "city": "Siedlung Hardt"
  },
  {
    "postcode": "82407",
    "city": "Gut Raucherberg"
  },
  {
    "postcode": "82407",
    "city": "Wieser"
  },
  {
    "postcode": "82409",
    "city": "Hausen"
  },
  {
    "postcode": "82409",
    "city": "Ilchberg"
  },
  {
    "postcode": "82409",
    "city": "Kreut"
  },
  {
    "postcode": "82409",
    "city": "Linden"
  },
  {
    "postcode": "82409",
    "city": "Morgenbach"
  },
  {
    "postcode": "82409",
    "city": "Peustelsau"
  },
  {
    "postcode": "82409",
    "city": "Schwaig"
  },
  {
    "postcode": "82409",
    "city": "See"
  },
  {
    "postcode": "82409",
    "city": "Straubenbach"
  },
  {
    "postcode": "82409",
    "city": "Unterbauern"
  },
  {
    "postcode": "82409",
    "city": "Unterhäusern"
  },
  {
    "postcode": "82409",
    "city": "Wildsteig"
  },
  {
    "postcode": "82409",
    "city": "Weilheim-Schongau"
  },
  {
    "postcode": "82409",
    "city": "Bichl"
  },
  {
    "postcode": "82409",
    "city": "Hargenwies"
  },
  {
    "postcode": "82409",
    "city": "Perau"
  },
  {
    "postcode": "82409",
    "city": "Rentschen"
  },
  {
    "postcode": "82409",
    "city": "Schildschwaig"
  },
  {
    "postcode": "82409",
    "city": "Soyermühle"
  },
  {
    "postcode": "82409",
    "city": "Westholz"
  },
  {
    "postcode": "82418",
    "city": "Achrain Staffelsee"
  },
  {
    "postcode": "82418",
    "city": "Achrain"
  },
  {
    "postcode": "82418",
    "city": "Aidling"
  },
  {
    "postcode": "82418",
    "city": "Egling Staffelsee"
  },
  {
    "postcode": "82418",
    "city": "Egling"
  },
  {
    "postcode": "82418",
    "city": "Froschhausen Staffelsee"
  },
  {
    "postcode": "82418",
    "city": "Froschhausen"
  },
  {
    "postcode": "82418",
    "city": "Hagen Staffelsee"
  },
  {
    "postcode": "82418",
    "city": "Hagen"
  },
  {
    "postcode": "82418",
    "city": "Hechendorf Staffelsee"
  },
  {
    "postcode": "82418",
    "city": "Hechendorf"
  },
  {
    "postcode": "82418",
    "city": "Leibersberg"
  },
  {
    "postcode": "82418",
    "city": "Murnau"
  },
  {
    "postcode": "82418",
    "city": "Murnau am Staffelsee"
  },
  {
    "postcode": "82418",
    "city": "Rieden Staffelsee"
  },
  {
    "postcode": "82418",
    "city": "Rieden"
  },
  {
    "postcode": "82418",
    "city": "Riedhausen Staffelsee"
  },
  {
    "postcode": "82418",
    "city": "Riedhausen"
  },
  {
    "postcode": "82418",
    "city": "Riegsee"
  },
  {
    "postcode": "82418",
    "city": "Seehausen am Staffelsee"
  },
  {
    "postcode": "82418",
    "city": "Weindorf Staffelsee"
  },
  {
    "postcode": "82418",
    "city": "Weindorf"
  },
  {
    "postcode": "82418",
    "city": "Westried"
  },
  {
    "postcode": "82418",
    "city": "Garmisch-Partenkirchen"
  },
  {
    "postcode": "82418",
    "city": "Hofheim"
  },
  {
    "postcode": "82418",
    "city": "Murnau a. Staffelsee"
  },
  {
    "postcode": "82418",
    "city": "Seehausen a. Staffelsee"
  },
  {
    "postcode": "82418",
    "city": "Spatzenhausen"
  },
  {
    "postcode": "82418",
    "city": "Seeleiten"
  },
  {
    "postcode": "82418",
    "city": "Guglhör"
  },
  {
    "postcode": "82418",
    "city": "Höhlmühle"
  },
  {
    "postcode": "82418",
    "city": "Lothdorf"
  },
  {
    "postcode": "82418",
    "city": "Seehausen"
  },
  {
    "postcode": "82431",
    "city": "Einsiedl"
  },
  {
    "postcode": "82431",
    "city": "Kochel"
  },
  {
    "postcode": "82431",
    "city": "Kochel am See"
  },
  {
    "postcode": "82431",
    "city": "Ort am See"
  },
  {
    "postcode": "82431",
    "city": "Pessenbach am See"
  },
  {
    "postcode": "82431",
    "city": "Pfisterberg"
  },
  {
    "postcode": "82431",
    "city": "Ried"
  },
  {
    "postcode": "82431",
    "city": "Bad Tölz-Wolfratshausen"
  },
  {
    "postcode": "82431",
    "city": "Kochel a. See"
  },
  {
    "postcode": "82431",
    "city": "Altjoch"
  },
  {
    "postcode": "82431",
    "city": "Pessenbach"
  },
  {
    "postcode": "82431",
    "city": "Brunnenbach"
  },
  {
    "postcode": "82431",
    "city": "Ort"
  },
  {
    "postcode": "82431",
    "city": "Lobesau"
  },
  {
    "postcode": "82432",
    "city": "Urfeld Oberbayern"
  },
  {
    "postcode": "82432",
    "city": "Urfeld"
  },
  {
    "postcode": "82432",
    "city": "Walchensee Oberbayern"
  },
  {
    "postcode": "82432",
    "city": "Walchensee"
  },
  {
    "postcode": "82432",
    "city": "Zwergern"
  },
  {
    "postcode": "82432",
    "city": "Bad Tölz-Wolfratshausen"
  },
  {
    "postcode": "82432",
    "city": "Obernach"
  },
  {
    "postcode": "82433",
    "city": "Bad Kohlgrub"
  },
  {
    "postcode": "82433",
    "city": "Gagers"
  },
  {
    "postcode": "82433",
    "city": "Großenast"
  },
  {
    "postcode": "82433",
    "city": "Grub"
  },
  {
    "postcode": "82433",
    "city": "Guggenberg"
  },
  {
    "postcode": "82433",
    "city": "Hinterkehr"
  },
  {
    "postcode": "82433",
    "city": "Kraggenau"
  },
  {
    "postcode": "82433",
    "city": "Rochusfeld"
  },
  {
    "postcode": "82433",
    "city": "Sonnen"
  },
  {
    "postcode": "82433",
    "city": "Sprittelsberg"
  },
  {
    "postcode": "82433",
    "city": "Steigrain"
  },
  {
    "postcode": "82433",
    "city": "Vorderkehr"
  },
  {
    "postcode": "82433",
    "city": "Wäldle"
  },
  {
    "postcode": "82433",
    "city": "Garmisch-Partenkirchen"
  },
  {
    "postcode": "82433",
    "city": "Jägerhaus"
  },
  {
    "postcode": "82433",
    "city": "Linden"
  },
  {
    "postcode": "82433",
    "city": "Obernau"
  },
  {
    "postcode": "82433",
    "city": "Schönau"
  },
  {
    "postcode": "82433",
    "city": "Windegg"
  },
  {
    "postcode": "82435",
    "city": "Bad Bayersoien"
  },
  {
    "postcode": "82435",
    "city": "Garmisch-Partenkirchen"
  },
  {
    "postcode": "82435",
    "city": "Echelsbach"
  },
  {
    "postcode": "82435",
    "city": "Kirmesau"
  },
  {
    "postcode": "82435",
    "city": "Sommerhof"
  },
  {
    "postcode": "82435",
    "city": "Findenau"
  },
  {
    "postcode": "82435",
    "city": "Gschwend"
  },
  {
    "postcode": "82435",
    "city": "Lettigenbichel"
  },
  {
    "postcode": "82435",
    "city": "Zum Grundbauer"
  },
  {
    "postcode": "82436",
    "city": "Eglfing"
  },
  {
    "postcode": "82436",
    "city": "Eglfing Oberbayern"
  },
  {
    "postcode": "82436",
    "city": "Obereglfing"
  },
  {
    "postcode": "82436",
    "city": "Tauting"
  },
  {
    "postcode": "82436",
    "city": "Untereglfing"
  },
  {
    "postcode": "82436",
    "city": "Weilheim-Schongau"
  },
  {
    "postcode": "82436",
    "city": "Heimgarten"
  },
  {
    "postcode": "82438",
    "city": "Eschenlohe Loisach"
  },
  {
    "postcode": "82438",
    "city": "Eschenlohe"
  },
  {
    "postcode": "82438",
    "city": "Wengwies Loisach"
  },
  {
    "postcode": "82438",
    "city": "Wengwies"
  },
  {
    "postcode": "82438",
    "city": "Garmisch-Partenkirchen"
  },
  {
    "postcode": "82439",
    "city": "Großweil"
  },
  {
    "postcode": "82439",
    "city": "Kleinweil"
  },
  {
    "postcode": "82439",
    "city": "Pölten"
  },
  {
    "postcode": "82439",
    "city": "Zell"
  },
  {
    "postcode": "82439",
    "city": "Garmisch-Partenkirchen"
  },
  {
    "postcode": "82439",
    "city": "Kreut"
  },
  {
    "postcode": "82441",
    "city": "Buchenried"
  },
  {
    "postcode": "82441",
    "city": "Kleinaschau"
  },
  {
    "postcode": "82441",
    "city": "Ohlstadt"
  },
  {
    "postcode": "82441",
    "city": "Weichs"
  },
  {
    "postcode": "82441",
    "city": "Garmisch-Partenkirchen"
  },
  {
    "postcode": "82441",
    "city": "Schwaiganger"
  },
  {
    "postcode": "82442",
    "city": "Altenau Oberbayern"
  },
  {
    "postcode": "82442",
    "city": "Altenau"
  },
  {
    "postcode": "82442",
    "city": "Saulgrub"
  },
  {
    "postcode": "82442",
    "city": "Wurmansau Oberbayern"
  },
  {
    "postcode": "82442",
    "city": "Wurmansau"
  },
  {
    "postcode": "82442",
    "city": "Garmisch-Partenkirchen"
  },
  {
    "postcode": "82442",
    "city": "Mayersäge"
  },
  {
    "postcode": "82444",
    "city": "Raut"
  },
  {
    "postcode": "82444",
    "city": "Schlehdorf"
  },
  {
    "postcode": "82444",
    "city": "Unterau"
  },
  {
    "postcode": "82444",
    "city": "Bad Tölz-Wolfratshausen"
  },
  {
    "postcode": "82445",
    "city": "Schwaigen Oberbayern"
  },
  {
    "postcode": "82445",
    "city": "Schwaigen"
  },
  {
    "postcode": "82445",
    "city": "Garmisch-Partenkirchen"
  },
  {
    "postcode": "82445",
    "city": "Grafenaschau"
  },
  {
    "postcode": "82447",
    "city": "Spatzenhausen"
  },
  {
    "postcode": "82447",
    "city": "Waltersberg"
  },
  {
    "postcode": "82447",
    "city": "Garmisch-Partenkirchen"
  },
  {
    "postcode": "82449",
    "city": "Brand"
  },
  {
    "postcode": "82449",
    "city": "Hechenrain Staffelsee"
  },
  {
    "postcode": "82449",
    "city": "Hechenrain"
  },
  {
    "postcode": "82449",
    "city": "Heimgarten Gemeinde Eglfing"
  },
  {
    "postcode": "82449",
    "city": "Heimgarten"
  },
  {
    "postcode": "82449",
    "city": "Kalkofen"
  },
  {
    "postcode": "82449",
    "city": "Luketsried"
  },
  {
    "postcode": "82449",
    "city": "Saliter"
  },
  {
    "postcode": "82449",
    "city": "Sallach"
  },
  {
    "postcode": "82449",
    "city": "Schöffau"
  },
  {
    "postcode": "82449",
    "city": "Uffing"
  },
  {
    "postcode": "82449",
    "city": "Uffing am Staffelsee"
  },
  {
    "postcode": "82449",
    "city": "Völlenbach Staffelsee"
  },
  {
    "postcode": "82449",
    "city": "Völlenbach"
  },
  {
    "postcode": "82449",
    "city": "Garmisch-Partenkirchen"
  },
  {
    "postcode": "82449",
    "city": "Uffing a. Staffelsee"
  },
  {
    "postcode": "82449",
    "city": "Spindler"
  },
  {
    "postcode": "82449",
    "city": "Buch"
  },
  {
    "postcode": "82449",
    "city": "Filzbauer"
  },
  {
    "postcode": "82449",
    "city": "Grub"
  },
  {
    "postcode": "82449",
    "city": "Guggenberg"
  },
  {
    "postcode": "82449",
    "city": "Höldern"
  },
  {
    "postcode": "82449",
    "city": "Harberg"
  },
  {
    "postcode": "82449",
    "city": "Kirnberg"
  },
  {
    "postcode": "82449",
    "city": "Obernach"
  },
  {
    "postcode": "82449",
    "city": "Schachmoos"
  },
  {
    "postcode": "82449",
    "city": "Streicher"
  },
  {
    "postcode": "82449",
    "city": "Tafertshofen"
  },
  {
    "postcode": "82467",
    "city": "Burgrain"
  },
  {
    "postcode": "82467",
    "city": "Garmisch"
  },
  {
    "postcode": "82467",
    "city": "Garmisch-Partenkirchen"
  },
  {
    "postcode": "82467",
    "city": "Griesen"
  },
  {
    "postcode": "82467",
    "city": "Kaltenbrunn"
  },
  {
    "postcode": "82467",
    "city": "Partenkirchen"
  },
  {
    "postcode": "82467",
    "city": "Schlattan"
  },
  {
    "postcode": "82467",
    "city": "Wamberg"
  },
  {
    "postcode": "82467",
    "city": "Wildenau"
  },
  {
    "postcode": "82481",
    "city": "Mittenwald"
  },
  {
    "postcode": "82481",
    "city": "Garmisch-Partenkirchen"
  },
  {
    "postcode": "82481",
    "city": "Am Brunnstein"
  },
  {
    "postcode": "82481",
    "city": "Am Ferchensee"
  },
  {
    "postcode": "82481",
    "city": "Am Gletscherschliff"
  },
  {
    "postcode": "82481",
    "city": "Am Horn"
  },
  {
    "postcode": "82481",
    "city": "Lautersee"
  },
  {
    "postcode": "82481",
    "city": "Am Luttensee"
  },
  {
    "postcode": "82481",
    "city": "Am Quicken"
  },
  {
    "postcode": "82481",
    "city": "Am Schmalensee"
  },
  {
    "postcode": "82481",
    "city": "Am Seinsbach"
  },
  {
    "postcode": "82481",
    "city": "Wildensee"
  },
  {
    "postcode": "82481",
    "city": "Beim Gerber"
  },
  {
    "postcode": "82481",
    "city": "Buckelwiesen"
  },
  {
    "postcode": "82487",
    "city": "Oberammergau"
  },
  {
    "postcode": "82487",
    "city": "Garmisch-Partenkirchen"
  },
  {
    "postcode": "82487",
    "city": "Sankt Gregor"
  },
  {
    "postcode": "82488",
    "city": "Ettal"
  },
  {
    "postcode": "82488",
    "city": "Graswang"
  },
  {
    "postcode": "82488",
    "city": "Garmisch-Partenkirchen"
  },
  {
    "postcode": "82488",
    "city": "Linderhof"
  },
  {
    "postcode": "82490",
    "city": "Farchant"
  },
  {
    "postcode": "82490",
    "city": "Mühldörfl"
  },
  {
    "postcode": "82490",
    "city": "Garmisch-Partenkirchen"
  },
  {
    "postcode": "82491",
    "city": "Eibsee"
  },
  {
    "postcode": "82491",
    "city": "Grainau"
  },
  {
    "postcode": "82491",
    "city": "Hammersbach"
  },
  {
    "postcode": "82491",
    "city": "Obergrainau"
  },
  {
    "postcode": "82491",
    "city": "Schmölz"
  },
  {
    "postcode": "82491",
    "city": "Untergrainau"
  },
  {
    "postcode": "82491",
    "city": "Garmisch-Partenkirchen"
  },
  {
    "postcode": "82493",
    "city": "Elmau"
  },
  {
    "postcode": "82493",
    "city": "Gerold"
  },
  {
    "postcode": "82493",
    "city": "Klais"
  },
  {
    "postcode": "82493",
    "city": "Garmisch-Partenkirchen"
  },
  {
    "postcode": "82493",
    "city": "Kranzbach"
  },
  {
    "postcode": "82493",
    "city": "Krün"
  },
  {
    "postcode": "82494",
    "city": "Barmsee"
  },
  {
    "postcode": "82494",
    "city": "Krün"
  },
  {
    "postcode": "82494",
    "city": "Garmisch-Partenkirchen"
  },
  {
    "postcode": "82496",
    "city": "Oberau Loisach"
  },
  {
    "postcode": "82496",
    "city": "Oberau"
  },
  {
    "postcode": "82496",
    "city": "Garmisch-Partenkirchen"
  },
  {
    "postcode": "82496",
    "city": "Buchwies"
  },
  {
    "postcode": "82497",
    "city": "Scherenau"
  },
  {
    "postcode": "82497",
    "city": "Unterammergau"
  },
  {
    "postcode": "82497",
    "city": "Garmisch-Partenkirchen"
  },
  {
    "postcode": "82497",
    "city": "Kappel"
  },
  {
    "postcode": "82499",
    "city": "Obernach Oberbayern"
  },
  {
    "postcode": "82499",
    "city": "Obernach"
  },
  {
    "postcode": "82499",
    "city": "Wallgau"
  },
  {
    "postcode": "82499",
    "city": "Garmisch-Partenkirchen"
  },
  {
    "postcode": "82515",
    "city": "Bergkramer"
  },
  {
    "postcode": "82515",
    "city": "Nantwein"
  },
  {
    "postcode": "82515",
    "city": "Waldram"
  },
  {
    "postcode": "82515",
    "city": "Weidach"
  },
  {
    "postcode": "82515",
    "city": "Wolfratshausen"
  },
  {
    "postcode": "82515",
    "city": "Bad Tölz-Wolfratshausen"
  },
  {
    "postcode": "82515",
    "city": "Farchet"
  },
  {
    "postcode": "82538",
    "city": "Buchberg"
  },
  {
    "postcode": "82538",
    "city": "Gartenberg Oberbayern"
  },
  {
    "postcode": "82538",
    "city": "Gartenberg"
  },
  {
    "postcode": "82538",
    "city": "Gelting bei Wolfratshausen"
  },
  {
    "postcode": "82538",
    "city": "Geretsried"
  },
  {
    "postcode": "82538",
    "city": "Schwaigwall bei Wolfratshausen"
  },
  {
    "postcode": "82538",
    "city": "Bad Tölz-Wolfratshausen"
  },
  {
    "postcode": "82538",
    "city": "Stein"
  },
  {
    "postcode": "82538",
    "city": "Gelting"
  },
  {
    "postcode": "82538",
    "city": "Pupplinger Au"
  },
  {
    "postcode": "82541",
    "city": "Ammerland Starnberger See"
  },
  {
    "postcode": "82541",
    "city": "Ammerland"
  },
  {
    "postcode": "82541",
    "city": "Attenkam Starnberger See"
  },
  {
    "postcode": "82541",
    "city": "Attenkam"
  },
  {
    "postcode": "82541",
    "city": "Bolzwang Kreis Wolfratshausen"
  },
  {
    "postcode": "82541",
    "city": "Bolzwang"
  },
  {
    "postcode": "82541",
    "city": "Degerndorf Starnberger See"
  },
  {
    "postcode": "82541",
    "city": "Degerndorf"
  },
  {
    "postcode": "82541",
    "city": "Holzhausen am Starnberger See"
  },
  {
    "postcode": "82541",
    "city": "Münsing"
  },
  {
    "postcode": "82541",
    "city": "Münsing Starnberger See"
  },
  {
    "postcode": "82541",
    "city": "Oberambach Starnberger See"
  },
  {
    "postcode": "82541",
    "city": "Oberambach"
  },
  {
    "postcode": "82541",
    "city": "Pischetsried"
  },
  {
    "postcode": "82541",
    "city": "Reichenkam Starnberger See"
  },
  {
    "postcode": "82541",
    "city": "Reichenkam"
  },
  {
    "postcode": "82541",
    "city": "Ried Starnberger See"
  },
  {
    "postcode": "82541",
    "city": "Ried"
  },
  {
    "postcode": "82541",
    "city": "Sankt Heinrich"
  },
  {
    "postcode": "82541",
    "city": "Seeheim Starnberger See"
  },
  {
    "postcode": "82541",
    "city": "Seeheim"
  },
  {
    "postcode": "82541",
    "city": "Sonderham Kreis Wolfratshausen"
  },
  {
    "postcode": "82541",
    "city": "Sonderham"
  },
  {
    "postcode": "82541",
    "city": "Weidenkam Starnberger See"
  },
  {
    "postcode": "82541",
    "city": "Weidenkam"
  },
  {
    "postcode": "82541",
    "city": "Weipertshausen Starnberger See"
  },
  {
    "postcode": "82541",
    "city": "Weipertshausen"
  },
  {
    "postcode": "82541",
    "city": "Wimpasing Starnberger See"
  },
  {
    "postcode": "82541",
    "city": "Wimpasing"
  },
  {
    "postcode": "82541",
    "city": "Bad Tölz-Wolfratshausen"
  },
  {
    "postcode": "82541",
    "city": "Ambach"
  },
  {
    "postcode": "82541",
    "city": "Holzhausen"
  },
  {
    "postcode": "82541",
    "city": "Bergkramer"
  },
  {
    "postcode": "82541",
    "city": "St. Heinrich"
  },
  {
    "postcode": "82541",
    "city": "Bruckmaier"
  },
  {
    "postcode": "82541",
    "city": "Buchscharn"
  },
  {
    "postcode": "82541",
    "city": "Buchsee"
  },
  {
    "postcode": "82541",
    "city": "Luigenkam"
  },
  {
    "postcode": "82541",
    "city": "Mandl"
  },
  {
    "postcode": "82541",
    "city": "Schallenkam"
  },
  {
    "postcode": "82541",
    "city": "Schechen"
  },
  {
    "postcode": "82541",
    "city": "Schwabbruck"
  },
  {
    "postcode": "82541",
    "city": "Staudach"
  },
  {
    "postcode": "82541",
    "city": "Stroblmühle"
  },
  {
    "postcode": "82541",
    "city": "Birklkam"
  },
  {
    "postcode": "82544",
    "city": "Attenham"
  },
  {
    "postcode": "82544",
    "city": "Aufhofen Kreis Wolfratshausen"
  },
  {
    "postcode": "82544",
    "city": "Aufhofen"
  },
  {
    "postcode": "82544",
    "city": "Deining Oberbayern"
  },
  {
    "postcode": "82544",
    "city": "Deining"
  },
  {
    "postcode": "82544",
    "city": "Dettenhausen Kreis Wolfratshausen"
  },
  {
    "postcode": "82544",
    "city": "Dettenhausen"
  },
  {
    "postcode": "82544",
    "city": "Egling"
  },
  {
    "postcode": "82544",
    "city": "Egling bei Wolfratshausen"
  },
  {
    "postcode": "82544",
    "city": "Endlhausen"
  },
  {
    "postcode": "82544",
    "city": "Ergertshausen bei Wolfratshausen"
  },
  {
    "postcode": "82544",
    "city": "Eulenschwang"
  },
  {
    "postcode": "82544",
    "city": "Feldkirchen Oberbayern"
  },
  {
    "postcode": "82544",
    "city": "Feldkirchen"
  },
  {
    "postcode": "82544",
    "city": "Geilertshausen"
  },
  {
    "postcode": "82544",
    "city": "Harmating"
  },
  {
    "postcode": "82544",
    "city": "Hornstein Oberbayern"
  },
  {
    "postcode": "82544",
    "city": "Hornstein"
  },
  {
    "postcode": "82544",
    "city": "Moosham Oberbayern"
  },
  {
    "postcode": "82544",
    "city": "Moosham"
  },
  {
    "postcode": "82544",
    "city": "Neufahrn bei Wolfratshausen"
  },
  {
    "postcode": "82544",
    "city": "Oberegling Kreis Wolfratshausen"
  },
  {
    "postcode": "82544",
    "city": "Oberegling"
  },
  {
    "postcode": "82544",
    "city": "Oehnböck Oberbayern"
  },
  {
    "postcode": "82544",
    "city": "Oehnböck"
  },
  {
    "postcode": "82544",
    "city": "Puppling bei Wolfratshausen"
  },
  {
    "postcode": "82544",
    "city": "Reichertshausen bei Holzkirchen Oberbayern"
  },
  {
    "postcode": "82544",
    "city": "Reichertshausen bei Holzkirchen"
  },
  {
    "postcode": "82544",
    "city": "Riedhof bei Wolfratshausen"
  },
  {
    "postcode": "82544",
    "city": "Sachsenhausen bei Wolfratshausen"
  },
  {
    "postcode": "82544",
    "city": "Schallkofen Oberbayern"
  },
  {
    "postcode": "82544",
    "city": "Schallkofen"
  },
  {
    "postcode": "82544",
    "city": "Siegertshofen"
  },
  {
    "postcode": "82544",
    "city": "Sonnenham"
  },
  {
    "postcode": "82544",
    "city": "Thanning Oberbayern"
  },
  {
    "postcode": "82544",
    "city": "Thanning"
  },
  {
    "postcode": "82544",
    "city": "Wörschhausen Oberbayern"
  },
  {
    "postcode": "82544",
    "city": "Wörschhausen"
  },
  {
    "postcode": "82544",
    "city": "Bad Tölz-Wolfratshausen"
  },
  {
    "postcode": "82544",
    "city": "Puppling"
  },
  {
    "postcode": "82544",
    "city": "Öhnböck"
  },
  {
    "postcode": "82544",
    "city": "Bullreuth"
  },
  {
    "postcode": "82544",
    "city": "Aumühle"
  },
  {
    "postcode": "82544",
    "city": "Neufahrn"
  },
  {
    "postcode": "82544",
    "city": "Ergertshausen"
  },
  {
    "postcode": "82544",
    "city": "Dürnstein"
  },
  {
    "postcode": "82544",
    "city": "Golkofen"
  },
  {
    "postcode": "82544",
    "city": "Schalkofen"
  },
  {
    "postcode": "82544",
    "city": "Sachsenhausen"
  },
  {
    "postcode": "82544",
    "city": "Klausenhütte"
  },
  {
    "postcode": "82544",
    "city": "Neukolbing"
  },
  {
    "postcode": "82544",
    "city": "Reichertshausen"
  },
  {
    "postcode": "82544",
    "city": "Riedhof"
  },
  {
    "postcode": "82544",
    "city": "Schönberg"
  },
  {
    "postcode": "82544",
    "city": "Sägmühle"
  },
  {
    "postcode": "82544",
    "city": "Weihermühle"
  },
  {
    "postcode": "82547",
    "city": "Berg bei Eurasburg Kreis Wolfratshausen"
  },
  {
    "postcode": "82547",
    "city": "Berg bei Eurasburg"
  },
  {
    "postcode": "82547",
    "city": "Beuerberg bei Wolfratshausen"
  },
  {
    "postcode": "82547",
    "city": "Bierbichl bei Wolfratshausen"
  },
  {
    "postcode": "82547",
    "city": "Blöcken"
  },
  {
    "postcode": "82547",
    "city": "Boschhof bei Wolfratshausen"
  },
  {
    "postcode": "82547",
    "city": "Bruckner"
  },
  {
    "postcode": "82547",
    "city": "Eurasburg"
  },
  {
    "postcode": "82547",
    "city": "Eurasburg bei Wolfratshausen"
  },
  {
    "postcode": "82547",
    "city": "Faistenberg bei Wolfratshausen"
  },
  {
    "postcode": "82547",
    "city": "Filzbuch bei Wolfratshausen"
  },
  {
    "postcode": "82547",
    "city": "Gasteig Kreis Wolfratshausen"
  },
  {
    "postcode": "82547",
    "city": "Gasteig"
  },
  {
    "postcode": "82547",
    "city": "Haag"
  },
  {
    "postcode": "82547",
    "city": "Haidach bei Eurasburg Kreis Wolfratshausen"
  },
  {
    "postcode": "82547",
    "city": "Haidach bei Eurasburg"
  },
  {
    "postcode": "82547",
    "city": "Happerg bei Eurasburg Kreis Wolfratshausen"
  },
  {
    "postcode": "82547",
    "city": "Happerg bei Eurasburg"
  },
  {
    "postcode": "82547",
    "city": "Hofstätt bei Wolfratshausen"
  },
  {
    "postcode": "82547",
    "city": "Lengenwies Kreis Wolfratshausen"
  },
  {
    "postcode": "82547",
    "city": "Lengenwies"
  },
  {
    "postcode": "82547",
    "city": "Maierwald bei Wolfratshausen"
  },
  {
    "postcode": "82547",
    "city": "Mandl bei Wolfratshausen"
  },
  {
    "postcode": "82547",
    "city": "Oberherrnhausen"
  },
  {
    "postcode": "82547",
    "city": "Schwaig"
  },
  {
    "postcode": "82547",
    "city": "Speck bei Wolfratshausen"
  },
  {
    "postcode": "82547",
    "city": "Steingrub bei Eurasburg Kreis Wolfratshausen"
  },
  {
    "postcode": "82547",
    "city": "Steingrub bei Eurasburg"
  },
  {
    "postcode": "82547",
    "city": "Sterz bei Wolfratshausen"
  },
  {
    "postcode": "82547",
    "city": "Unterherrnhausen"
  },
  {
    "postcode": "82547",
    "city": "Wammetsberg bei Wolfratshausen"
  },
  {
    "postcode": "82547",
    "city": "Bad Tölz-Wolfratshausen"
  },
  {
    "postcode": "82547",
    "city": "Adelsreuth"
  },
  {
    "postcode": "82547",
    "city": "Beuerberg"
  },
  {
    "postcode": "82547",
    "city": "Achmühle"
  },
  {
    "postcode": "82547",
    "city": "Happerg"
  },
  {
    "postcode": "82547",
    "city": "Babenstuben"
  },
  {
    "postcode": "82547",
    "city": "Bachbauer"
  },
  {
    "postcode": "82547",
    "city": "Baierlach"
  },
  {
    "postcode": "82547",
    "city": "Bergbauer"
  },
  {
    "postcode": "82547",
    "city": "Bierbichl"
  },
  {
    "postcode": "82547",
    "city": "Brandstätt"
  },
  {
    "postcode": "82547",
    "city": "Bräumann"
  },
  {
    "postcode": "82547",
    "city": "Faistenberg"
  },
  {
    "postcode": "82547",
    "city": "Filz"
  },
  {
    "postcode": "82547",
    "city": "Filzbuch"
  },
  {
    "postcode": "82547",
    "city": "Frettenried"
  },
  {
    "postcode": "82547",
    "city": "Sterz"
  },
  {
    "postcode": "82547",
    "city": "Berg"
  },
  {
    "postcode": "82547",
    "city": "Höhl"
  },
  {
    "postcode": "82547",
    "city": "Habichtgraben"
  },
  {
    "postcode": "82547",
    "city": "Haidach"
  },
  {
    "postcode": "82547",
    "city": "Hainzenau"
  },
  {
    "postcode": "82547",
    "city": "Hofstätt"
  },
  {
    "postcode": "82547",
    "city": "Hohenleiten"
  },
  {
    "postcode": "82547",
    "city": "Impleiten"
  },
  {
    "postcode": "82547",
    "city": "Loh"
  },
  {
    "postcode": "82547",
    "city": "Maierwald"
  },
  {
    "postcode": "82547",
    "city": "Mandl"
  },
  {
    "postcode": "82547",
    "city": "Märzanderl"
  },
  {
    "postcode": "82547",
    "city": "Oberfeld"
  },
  {
    "postcode": "82547",
    "city": "Oberhof"
  },
  {
    "postcode": "82547",
    "city": "Oed"
  },
  {
    "postcode": "82547",
    "city": "Putzlehen"
  },
  {
    "postcode": "82547",
    "city": "Quarzbichl"
  },
  {
    "postcode": "82547",
    "city": "Rohr"
  },
  {
    "postcode": "82547",
    "city": "Schaberer"
  },
  {
    "postcode": "82547",
    "city": "Schwarzlehen"
  },
  {
    "postcode": "82547",
    "city": "Speck"
  },
  {
    "postcode": "82547",
    "city": "Sprengenöd"
  },
  {
    "postcode": "82547",
    "city": "Steingrub"
  },
  {
    "postcode": "82547",
    "city": "Waltersteig"
  },
  {
    "postcode": "82547",
    "city": "Wammetsberg"
  },
  {
    "postcode": "82547",
    "city": "Winkl"
  },
  {
    "postcode": "82547",
    "city": "Zwitzenlehen"
  },
  {
    "postcode": "82549",
    "city": "Au"
  },
  {
    "postcode": "82549",
    "city": "Berg"
  },
  {
    "postcode": "82549",
    "city": "Brandl"
  },
  {
    "postcode": "82549",
    "city": "Graben"
  },
  {
    "postcode": "82549",
    "city": "Grafing Oberbayern"
  },
  {
    "postcode": "82549",
    "city": "Grafing"
  },
  {
    "postcode": "82549",
    "city": "Heigl"
  },
  {
    "postcode": "82549",
    "city": "Höfen"
  },
  {
    "postcode": "82549",
    "city": "Königsdorf"
  },
  {
    "postcode": "82549",
    "city": "Königsdorf Oberbayern"
  },
  {
    "postcode": "82549",
    "city": "Kreut Oberbayern"
  },
  {
    "postcode": "82549",
    "city": "Kreut"
  },
  {
    "postcode": "82549",
    "city": "Mooseurach bei Wolfratshausen"
  },
  {
    "postcode": "82549",
    "city": "Osterhofen Oberbayern"
  },
  {
    "postcode": "82549",
    "city": "Osterhofen"
  },
  {
    "postcode": "82549",
    "city": "Pföderl"
  },
  {
    "postcode": "82549",
    "city": "Schönrain"
  },
  {
    "postcode": "82549",
    "city": "Schwaighofen"
  },
  {
    "postcode": "82549",
    "city": "Wiesen"
  },
  {
    "postcode": "82549",
    "city": "Zellwies Oberbayern"
  },
  {
    "postcode": "82549",
    "city": "Zellwies"
  },
  {
    "postcode": "82549",
    "city": "Bad Tölz-Wolfratshausen"
  },
  {
    "postcode": "82549",
    "city": "Niederham"
  },
  {
    "postcode": "82549",
    "city": "Boschhof"
  },
  {
    "postcode": "82549",
    "city": "Hornberg"
  },
  {
    "postcode": "82549",
    "city": "Lindenrain"
  },
  {
    "postcode": "82549",
    "city": "Mooseurach"
  },
  {
    "postcode": "82549",
    "city": "Mühlgraben"
  },
  {
    "postcode": "82549",
    "city": "Hochland"
  },
  {
    "postcode": "82549",
    "city": "Schuß"
  },
  {
    "postcode": "82549",
    "city": "Sonnenhofen"
  },
  {
    "postcode": "82549",
    "city": "Wolfsgrube"
  },
  {
    "postcode": "82475",
    "city": "Garmisch-Partenkirchen"
  },
  {
    "postcode": "82475",
    "city": "Schneefernerhaus"
  }
]