[
  {
    "postcode": "4703",
    "city": "Bockelwitz"
  },
  {
    "postcode": "4703",
    "city": "Gersdorf"
  },
  {
    "postcode": "4703",
    "city": "Hartha bei Döbeln"
  },
  {
    "postcode": "4703",
    "city": "Leisnig"
  },
  {
    "postcode": "4703",
    "city": "Mittelsachsen"
  },
  {
    "postcode": "4703",
    "city": "Altenhof"
  },
  {
    "postcode": "4703",
    "city": "Altleisnig"
  },
  {
    "postcode": "4703",
    "city": "Fischendorf"
  },
  {
    "postcode": "4703",
    "city": "Minkwitz"
  },
  {
    "postcode": "4703",
    "city": "Beiersdorf"
  },
  {
    "postcode": "4703",
    "city": "Brösen"
  },
  {
    "postcode": "4703",
    "city": "Clennen"
  },
  {
    "postcode": "4703",
    "city": "Dobernitz"
  },
  {
    "postcode": "4703",
    "city": "Doberquitz"
  },
  {
    "postcode": "4703",
    "city": "Doberschwitz"
  },
  {
    "postcode": "4703",
    "city": "Tragnitz"
  },
  {
    "postcode": "4703",
    "city": "Großpelsen"
  },
  {
    "postcode": "4703",
    "city": "Polkenberg"
  },
  {
    "postcode": "4703",
    "city": "Görnitz"
  },
  {
    "postcode": "4703",
    "city": "Gorschmitz"
  },
  {
    "postcode": "4703",
    "city": "Hetzdorf"
  },
  {
    "postcode": "4703",
    "city": "Kalthausen"
  },
  {
    "postcode": "4703",
    "city": "Kleinpelsen"
  },
  {
    "postcode": "4703",
    "city": "Klosterbuch"
  },
  {
    "postcode": "4703",
    "city": "Korpitzsch"
  },
  {
    "postcode": "4703",
    "city": "Kroptewitz"
  },
  {
    "postcode": "4703",
    "city": "Leuterwitz"
  },
  {
    "postcode": "4703",
    "city": "Marschwitz"
  },
  {
    "postcode": "4703",
    "city": "Meinitz"
  },
  {
    "postcode": "4703",
    "city": "Naundorf"
  },
  {
    "postcode": "4703",
    "city": "Naunhof"
  },
  {
    "postcode": "4703",
    "city": "Börtewitz"
  },
  {
    "postcode": "4703",
    "city": "Nicollschwitz"
  },
  {
    "postcode": "4703",
    "city": "Paudritzsch"
  },
  {
    "postcode": "4703",
    "city": "Polditz"
  },
  {
    "postcode": "4703",
    "city": "Queckhain"
  },
  {
    "postcode": "4703",
    "city": "Röda"
  },
  {
    "postcode": "4703",
    "city": "Scheergrund"
  },
  {
    "postcode": "4703",
    "city": "Sitten"
  },
  {
    "postcode": "4703",
    "city": "Tautendorf"
  },
  {
    "postcode": "4703",
    "city": "Wiesenthal"
  },
  {
    "postcode": "4703",
    "city": "Zeschwitz"
  },
  {
    "postcode": "4703",
    "city": "Zollschwitz"
  },
  {
    "postcode": "4703",
    "city": "Zschockau"
  },
  {
    "postcode": "4720",
    "city": "Döbeln"
  },
  {
    "postcode": "4720",
    "city": "Ebersbach bei Döbeln"
  },
  {
    "postcode": "4720",
    "city": "Großweitzschen"
  },
  {
    "postcode": "4720",
    "city": "Mochau bei Döbeln"
  },
  {
    "postcode": "4720",
    "city": "Ziegra-Knobelsdorf"
  },
  {
    "postcode": "4720",
    "city": "Zschaitz-Ottewig"
  },
  {
    "postcode": "4720",
    "city": "Mittelsachsen"
  },
  {
    "postcode": "4720",
    "city": "Neudorf"
  },
  {
    "postcode": "4720",
    "city": "Töpeln"
  },
  {
    "postcode": "4720",
    "city": "Limmritz"
  },
  {
    "postcode": "4720",
    "city": "Forchheim"
  },
  {
    "postcode": "4720",
    "city": "Mannsdorf"
  },
  {
    "postcode": "4720",
    "city": "Mochau"
  },
  {
    "postcode": "4720",
    "city": "Großsteinbach"
  },
  {
    "postcode": "4720",
    "city": "Wöllsdorf"
  },
  {
    "postcode": "4720",
    "city": "Miera"
  },
  {
    "postcode": "4720",
    "city": "Gertitzsch"
  },
  {
    "postcode": "4720",
    "city": "Ebersbach"
  },
  {
    "postcode": "4720",
    "city": "Choren"
  },
  {
    "postcode": "4720",
    "city": "Beicha"
  },
  {
    "postcode": "4720",
    "city": "Petersberg"
  },
  {
    "postcode": "4720",
    "city": "Simselwitz"
  },
  {
    "postcode": "4720",
    "city": "Neugreußnig"
  },
  {
    "postcode": "4720",
    "city": "Schallhausen"
  },
  {
    "postcode": "4720",
    "city": "Stockhausen"
  },
  {
    "postcode": "4720",
    "city": "Obersteinbach"
  },
  {
    "postcode": "4720",
    "city": "Pischwitz"
  },
  {
    "postcode": "4720",
    "city": "Bormitz"
  },
  {
    "postcode": "4720",
    "city": "Ziegra"
  },
  {
    "postcode": "4720",
    "city": "Nöthschütz"
  },
  {
    "postcode": "4720",
    "city": "Dreißig"
  },
  {
    "postcode": "4720",
    "city": "Technitz"
  },
  {
    "postcode": "4720",
    "city": "Gödelitz"
  },
  {
    "postcode": "4720",
    "city": "Präbschütz"
  },
  {
    "postcode": "4720",
    "city": "Geleitshäuser"
  },
  {
    "postcode": "4720",
    "city": "Hermsdorf"
  },
  {
    "postcode": "4720",
    "city": "Juchhöh"
  },
  {
    "postcode": "4720",
    "city": "Kleinmockritz"
  },
  {
    "postcode": "4720",
    "city": "Leschen"
  },
  {
    "postcode": "4720",
    "city": "Lüttewitz b Döbeln"
  },
  {
    "postcode": "4720",
    "city": "Maltitz"
  },
  {
    "postcode": "4720",
    "city": "Markritz"
  },
  {
    "postcode": "4720",
    "city": "Meila"
  },
  {
    "postcode": "4720",
    "city": "Nelkanitz"
  },
  {
    "postcode": "4720",
    "city": "Oberranschütz"
  },
  {
    "postcode": "4720",
    "city": "Gärtitz"
  },
  {
    "postcode": "4720",
    "city": "Pommlitz"
  },
  {
    "postcode": "4720",
    "city": "Prüfern"
  },
  {
    "postcode": "4720",
    "city": "Sörmitz"
  },
  {
    "postcode": "4720",
    "city": "Schweimnitz"
  },
  {
    "postcode": "4720",
    "city": "Schweta"
  },
  {
    "postcode": "4720",
    "city": "Masten"
  },
  {
    "postcode": "4720",
    "city": "Theeschütz"
  },
  {
    "postcode": "4720",
    "city": "Zschackwitz"
  },
  {
    "postcode": "4720",
    "city": "Zschäschütz"
  },
  {
    "postcode": "4720",
    "city": "Westewitz"
  },
  {
    "postcode": "4720",
    "city": "Mockritz"
  },
  {
    "postcode": "4720",
    "city": "Bennewitz"
  },
  {
    "postcode": "4720",
    "city": "Döschütz"
  },
  {
    "postcode": "4720",
    "city": "Eichardt"
  },
  {
    "postcode": "4720",
    "city": "Göldnitz"
  },
  {
    "postcode": "4720",
    "city": "Gadewitz"
  },
  {
    "postcode": "4720",
    "city": "Gallschütz"
  },
  {
    "postcode": "4720",
    "city": "Graumnitz"
  },
  {
    "postcode": "4720",
    "city": "Höckendorf"
  },
  {
    "postcode": "4720",
    "city": "Hochweitzschen"
  },
  {
    "postcode": "4720",
    "city": "Jeßnitz"
  },
  {
    "postcode": "4720",
    "city": "Kleinweitzschen"
  },
  {
    "postcode": "4720",
    "city": "Niederranschütz"
  },
  {
    "postcode": "4720",
    "city": "Obergoseln"
  },
  {
    "postcode": "4720",
    "city": "Zschepplitz"
  },
  {
    "postcode": "4720",
    "city": "Redemitz"
  },
  {
    "postcode": "4720",
    "city": "Strölla"
  },
  {
    "postcode": "4720",
    "city": "Strocken"
  },
  {
    "postcode": "4720",
    "city": "Tronitz"
  },
  {
    "postcode": "4720",
    "city": "Wollsdorf"
  },
  {
    "postcode": "4720",
    "city": "Zaschwitz"
  },
  {
    "postcode": "4720",
    "city": "Zschörnewitz"
  },
  {
    "postcode": "4720",
    "city": "Lüttewitz"
  },
  {
    "postcode": "4720",
    "city": "Zschaitz"
  },
  {
    "postcode": "4720",
    "city": "Baderitz"
  },
  {
    "postcode": "4720",
    "city": "Dürrweitzschen"
  },
  {
    "postcode": "4720",
    "city": "Möbertitz"
  },
  {
    "postcode": "4720",
    "city": "Goselitz"
  },
  {
    "postcode": "4720",
    "city": "Auterwitz"
  },
  {
    "postcode": "4720",
    "city": "Zunschwitz"
  },
  {
    "postcode": "4720",
    "city": "Ottewig"
  },
  {
    "postcode": "4720",
    "city": "Lützschnitz"
  },
  {
    "postcode": "4720",
    "city": "Mischütz"
  },
  {
    "postcode": "4720",
    "city": "Glaucha"
  },
  {
    "postcode": "4736",
    "city": "Waldheim Sachsen"
  },
  {
    "postcode": "4736",
    "city": "Waldheim"
  },
  {
    "postcode": "4736",
    "city": "Mittelsachsen"
  },
  {
    "postcode": "4736",
    "city": "Rudelsdorf"
  },
  {
    "postcode": "4736",
    "city": "Knobelsdorf"
  },
  {
    "postcode": "4736",
    "city": "Gebersbach"
  },
  {
    "postcode": "4736",
    "city": "Meinsberg"
  },
  {
    "postcode": "4736",
    "city": "Gilsberg"
  },
  {
    "postcode": "4736",
    "city": "Heyda"
  },
  {
    "postcode": "4736",
    "city": "Heiligenborn"
  },
  {
    "postcode": "4736",
    "city": "Neuhausen"
  },
  {
    "postcode": "4736",
    "city": "Massanei"
  },
  {
    "postcode": "4736",
    "city": "Neumilkau"
  },
  {
    "postcode": "4736",
    "city": "Neuschönberg"
  },
  {
    "postcode": "4736",
    "city": "Rauschenthal"
  },
  {
    "postcode": "4736",
    "city": "Reinsdorf"
  },
  {
    "postcode": "4736",
    "city": "Schönberg"
  },
  {
    "postcode": "4736",
    "city": "Vierhäuser"
  },
  {
    "postcode": "4741",
    "city": "Niederstriegis"
  },
  {
    "postcode": "4741",
    "city": "Roßwein"
  },
  {
    "postcode": "4741",
    "city": "Mittelsachsen"
  },
  {
    "postcode": "4741",
    "city": "Otzdorf"
  },
  {
    "postcode": "4741",
    "city": "Grunau"
  },
  {
    "postcode": "4741",
    "city": "Gleisberg"
  },
  {
    "postcode": "4741",
    "city": "Mahlitzsch"
  },
  {
    "postcode": "4741",
    "city": "Littdorf"
  },
  {
    "postcode": "4741",
    "city": "Haßlau"
  },
  {
    "postcode": "4741",
    "city": "Hohenlauft"
  },
  {
    "postcode": "4741",
    "city": "Klinge"
  },
  {
    "postcode": "4741",
    "city": "Naußlitz"
  },
  {
    "postcode": "4741",
    "city": "Seifersdorf"
  },
  {
    "postcode": "4741",
    "city": "Niederforst"
  },
  {
    "postcode": "4741",
    "city": "Ossig"
  },
  {
    "postcode": "4741",
    "city": "Ullrichsberg"
  },
  {
    "postcode": "4741",
    "city": "Wettersdorf"
  },
  {
    "postcode": "4741",
    "city": "Wetterwitz"
  },
  {
    "postcode": "4741",
    "city": "Zweinig"
  },
  {
    "postcode": "4746",
    "city": "Gersdorf"
  },
  {
    "postcode": "4746",
    "city": "Hartha bei Döbeln"
  },
  {
    "postcode": "4746",
    "city": "Mittelsachsen"
  },
  {
    "postcode": "4746",
    "city": "Hartha"
  },
  {
    "postcode": "4746",
    "city": "Langenau"
  },
  {
    "postcode": "4746",
    "city": "Steina"
  },
  {
    "postcode": "4746",
    "city": "Aschershain"
  },
  {
    "postcode": "4746",
    "city": "Diedenhain"
  },
  {
    "postcode": "4746",
    "city": "Kieselbach"
  },
  {
    "postcode": "4746",
    "city": "Lauschka"
  },
  {
    "postcode": "4746",
    "city": "Nauhain"
  },
  {
    "postcode": "4746",
    "city": "Neudörfchen"
  },
  {
    "postcode": "4746",
    "city": "Saalbach"
  },
  {
    "postcode": "4746",
    "city": "Schönerstädt"
  },
  {
    "postcode": "4746",
    "city": "Seifersdorf"
  },
  {
    "postcode": "4746",
    "city": "Wallbach"
  },
  {
    "postcode": "4746",
    "city": "Wendishain"
  },
  {
    "postcode": "4749",
    "city": "Ostrau Sachsen"
  },
  {
    "postcode": "4749",
    "city": "Ostrau"
  },
  {
    "postcode": "4749",
    "city": "Mittelsachsen"
  },
  {
    "postcode": "4749",
    "city": "Schrebitz"
  },
  {
    "postcode": "4749",
    "city": "Rittmitz"
  },
  {
    "postcode": "4749",
    "city": "Clanzschwitz"
  },
  {
    "postcode": "4749",
    "city": "Obersteina"
  },
  {
    "postcode": "4749",
    "city": "Jahna"
  },
  {
    "postcode": "4749",
    "city": "Kattnitz"
  },
  {
    "postcode": "4749",
    "city": "Kiebitz"
  },
  {
    "postcode": "4749",
    "city": "Noschkowitz"
  },
  {
    "postcode": "4749",
    "city": "Pulsitz"
  },
  {
    "postcode": "4749",
    "city": "Zschochau"
  },
  {
    "postcode": "4749",
    "city": "Wutzschwitz"
  },
  {
    "postcode": "4749",
    "city": "Auerschütz"
  },
  {
    "postcode": "4749",
    "city": "Beutig"
  },
  {
    "postcode": "4749",
    "city": "Delmschütz"
  },
  {
    "postcode": "4749",
    "city": "Niederlützschera"
  },
  {
    "postcode": "4749",
    "city": "Gaschütz"
  },
  {
    "postcode": "4749",
    "city": "Sömnitz"
  },
  {
    "postcode": "4749",
    "city": "Münchhof"
  },
  {
    "postcode": "4749",
    "city": "Binnewitz"
  },
  {
    "postcode": "4749",
    "city": "Töllschütz"
  },
  {
    "postcode": "4749",
    "city": "Trebanitz"
  },
  {
    "postcode": "4749",
    "city": "Merschütz"
  },
  {
    "postcode": "4749",
    "city": "Oberlützschera"
  },
  {
    "postcode": "4749",
    "city": "Schmorren"
  },
  {
    "postcode": "4749",
    "city": "Schlagwitz"
  },
  {
    "postcode": "4758",
    "city": "Cavertitz"
  },
  {
    "postcode": "4758",
    "city": "Liebschützberg"
  },
  {
    "postcode": "4758",
    "city": "Naundorf bei Oschatz"
  },
  {
    "postcode": "4758",
    "city": "Oschatz"
  },
  {
    "postcode": "4758",
    "city": "Nordsachsen"
  },
  {
    "postcode": "4758",
    "city": "Hof"
  },
  {
    "postcode": "4758",
    "city": "Naundorf"
  },
  {
    "postcode": "4758",
    "city": "Treptitz"
  },
  {
    "postcode": "4758",
    "city": "Olganitz"
  },
  {
    "postcode": "4758",
    "city": "Bucha"
  },
  {
    "postcode": "4758",
    "city": "Schöna"
  },
  {
    "postcode": "4758",
    "city": "Lampertswalde"
  },
  {
    "postcode": "4758",
    "city": "Schirmenitz"
  },
  {
    "postcode": "4758",
    "city": "Klingenhain"
  },
  {
    "postcode": "4758",
    "city": "Sörnewitz"
  },
  {
    "postcode": "4758",
    "city": "Reudnitz"
  },
  {
    "postcode": "4758",
    "city": "Außig"
  },
  {
    "postcode": "4758",
    "city": "Zeuckritz"
  },
  {
    "postcode": "4758",
    "city": "Haage"
  },
  {
    "postcode": "4758",
    "city": "Nasenberg"
  },
  {
    "postcode": "4758",
    "city": "Reppen"
  },
  {
    "postcode": "4758",
    "city": "Raitzen"
  },
  {
    "postcode": "4758",
    "city": "Kreina"
  },
  {
    "postcode": "4758",
    "city": "Borna"
  },
  {
    "postcode": "4758",
    "city": "Leisnitz"
  },
  {
    "postcode": "4758",
    "city": "Sahlassan"
  },
  {
    "postcode": "4758",
    "city": "Wadewitz"
  },
  {
    "postcode": "4758",
    "city": "Ganzig"
  },
  {
    "postcode": "4758",
    "city": "Zaußwitz"
  },
  {
    "postcode": "4758",
    "city": "Klötitz"
  },
  {
    "postcode": "4758",
    "city": "Kleinragewitz"
  },
  {
    "postcode": "4758",
    "city": "Laas"
  },
  {
    "postcode": "4758",
    "city": "Gaunitz"
  },
  {
    "postcode": "4758",
    "city": "Leckwitz"
  },
  {
    "postcode": "4758",
    "city": "Terpitz"
  },
  {
    "postcode": "4758",
    "city": "Schönnewitz"
  },
  {
    "postcode": "4758",
    "city": "Wellerswalde"
  },
  {
    "postcode": "4758",
    "city": "Bornitz"
  },
  {
    "postcode": "4758",
    "city": "Liebschütz"
  },
  {
    "postcode": "4758",
    "city": "Clanzschwitz"
  },
  {
    "postcode": "4758",
    "city": "Thalheim"
  },
  {
    "postcode": "4758",
    "city": "Zöschau"
  },
  {
    "postcode": "4758",
    "city": "Fliegerhorst"
  },
  {
    "postcode": "4758",
    "city": "Merkwitz"
  },
  {
    "postcode": "4758",
    "city": "Altoschatz"
  },
  {
    "postcode": "4758",
    "city": "Schmorkau"
  },
  {
    "postcode": "4758",
    "city": "Rechau"
  },
  {
    "postcode": "4758",
    "city": "Mannschatz"
  },
  {
    "postcode": "4758",
    "city": "Lonnewitz"
  },
  {
    "postcode": "4758",
    "city": "Zschöllau"
  },
  {
    "postcode": "4758",
    "city": "Kleinforst"
  },
  {
    "postcode": "4758",
    "city": "Limbach"
  },
  {
    "postcode": "4758",
    "city": "Leuben"
  },
  {
    "postcode": "4758",
    "city": "Striesa"
  },
  {
    "postcode": "4769",
    "city": "Mügeln bei Oschatz"
  },
  {
    "postcode": "4769",
    "city": "Naundorf bei Oschatz"
  },
  {
    "postcode": "4769",
    "city": "Sornzig-Ablaß"
  },
  {
    "postcode": "4769",
    "city": "Nordsachsen"
  },
  {
    "postcode": "4769",
    "city": "Mügeln"
  },
  {
    "postcode": "4769",
    "city": "Naundorf"
  },
  {
    "postcode": "4769",
    "city": "Salbitz"
  },
  {
    "postcode": "4769",
    "city": "Querbitzsch"
  },
  {
    "postcode": "4769",
    "city": "Ablaß"
  },
  {
    "postcode": "4769",
    "city": "Zävertitz"
  },
  {
    "postcode": "4769",
    "city": "Schweta"
  },
  {
    "postcode": "4769",
    "city": "Grauschwitz"
  },
  {
    "postcode": "4769",
    "city": "Lüttnitz"
  },
  {
    "postcode": "4769",
    "city": "Neubaderitz"
  },
  {
    "postcode": "4769",
    "city": "Baderitz"
  },
  {
    "postcode": "4769",
    "city": "Paschkowitz"
  },
  {
    "postcode": "4769",
    "city": "Gaudlitz"
  },
  {
    "postcode": "4769",
    "city": "Nebitzschen"
  },
  {
    "postcode": "4769",
    "city": "Neusornzig"
  },
  {
    "postcode": "4769",
    "city": "Sornzig"
  },
  {
    "postcode": "4769",
    "city": "Niedergoseln"
  },
  {
    "postcode": "4769",
    "city": "Glossen"
  },
  {
    "postcode": "4769",
    "city": "Kemmlitz"
  },
  {
    "postcode": "4769",
    "city": "Poppitz"
  },
  {
    "postcode": "4769",
    "city": "Lichteneichen"
  },
  {
    "postcode": "4769",
    "city": "Berntitz"
  },
  {
    "postcode": "4769",
    "city": "Seelitz"
  },
  {
    "postcode": "4769",
    "city": "Mahris"
  },
  {
    "postcode": "4769",
    "city": "Oetzsch"
  },
  {
    "postcode": "4769",
    "city": "Schleben"
  },
  {
    "postcode": "4769",
    "city": "Pommlitz"
  },
  {
    "postcode": "4769",
    "city": "Zschannewitz"
  },
  {
    "postcode": "4769",
    "city": "Wetitz"
  },
  {
    "postcode": "4769",
    "city": "Schlanzschwitz"
  },
  {
    "postcode": "4769",
    "city": "Ockritz"
  },
  {
    "postcode": "4769",
    "city": "Remsa"
  },
  {
    "postcode": "4769",
    "city": "Zeicha"
  },
  {
    "postcode": "4769",
    "city": "Gastewitz"
  },
  {
    "postcode": "4769",
    "city": "Casabra"
  },
  {
    "postcode": "4769",
    "city": "Hohenwussen"
  },
  {
    "postcode": "4769",
    "city": "Stennschütz"
  },
  {
    "postcode": "4769",
    "city": "Kreina"
  },
  {
    "postcode": "4769",
    "city": "Neu-Casabra"
  },
  {
    "postcode": "4774",
    "city": "Dahlen Sachsen"
  },
  {
    "postcode": "4774",
    "city": "Dahlen"
  },
  {
    "postcode": "4774",
    "city": "Nordsachsen"
  },
  {
    "postcode": "4774",
    "city": "Schmannewitz"
  },
  {
    "postcode": "4774",
    "city": "Neuböhla"
  },
  {
    "postcode": "4774",
    "city": "Ochsensaal"
  },
  {
    "postcode": "4774",
    "city": "Großböhla"
  },
  {
    "postcode": "4774",
    "city": "Bortewitz"
  },
  {
    "postcode": "4774",
    "city": "Börln"
  },
  {
    "postcode": "4774",
    "city": "Schwarzer Kater"
  },
  {
    "postcode": "4774",
    "city": "Kleinböhla"
  },
  {
    "postcode": "4774",
    "city": "Radegast"
  },
  {
    "postcode": "4779",
    "city": "Wermsdorf"
  },
  {
    "postcode": "4779",
    "city": "Nordsachsen"
  },
  {
    "postcode": "4779",
    "city": "Calbitz"
  },
  {
    "postcode": "4779",
    "city": "Liptitz"
  },
  {
    "postcode": "4779",
    "city": "Lampersdorf"
  },
  {
    "postcode": "4779",
    "city": "Mahlis"
  },
  {
    "postcode": "4779",
    "city": "Malkwitz"
  },
  {
    "postcode": "4779",
    "city": "Gröppendorf"
  },
  {
    "postcode": "4779",
    "city": "Collm"
  },
  {
    "postcode": "4779",
    "city": "Luppa"
  },
  {
    "postcode": "4779",
    "city": "Wiederoda"
  },
  {
    "postcode": "4779",
    "city": "Wadewitz"
  },
  {
    "postcode": "47051",
    "city": "Duisburg"
  },
  {
    "postcode": "47051",
    "city": "Duissern"
  },
  {
    "postcode": "47051",
    "city": "Kaßlerfeld"
  },
  {
    "postcode": "47051",
    "city": "Altstadt"
  },
  {
    "postcode": "47051",
    "city": "Dellviertel"
  },
  {
    "postcode": "47053",
    "city": "Duisburg"
  },
  {
    "postcode": "47053",
    "city": "Wanheimerort"
  },
  {
    "postcode": "47053",
    "city": "Hochfeld"
  },
  {
    "postcode": "47053",
    "city": "Dellviertel"
  },
  {
    "postcode": "47053",
    "city": "Altstadt"
  },
  {
    "postcode": "47055",
    "city": "Buchholz"
  },
  {
    "postcode": "47055",
    "city": "Duisburg"
  },
  {
    "postcode": "47055",
    "city": "Wanheimerort"
  },
  {
    "postcode": "47055",
    "city": "Neudorf-Süd"
  },
  {
    "postcode": "47055",
    "city": "Wanheim-Angerhausen"
  },
  {
    "postcode": "47055",
    "city": "Hochfeld"
  },
  {
    "postcode": "47057",
    "city": "Duisburg"
  },
  {
    "postcode": "47057",
    "city": "Neudorf-Süd"
  },
  {
    "postcode": "47057",
    "city": "Neudorf-Nord"
  },
  {
    "postcode": "47057",
    "city": "Dellviertel"
  },
  {
    "postcode": "47057",
    "city": "Duissern"
  },
  {
    "postcode": "47057",
    "city": "Hochfeld"
  },
  {
    "postcode": "47058",
    "city": "Duisburg"
  },
  {
    "postcode": "47058",
    "city": "Duissern"
  },
  {
    "postcode": "47058",
    "city": "Kaßlerfeld"
  },
  {
    "postcode": "47058",
    "city": "Altstadt"
  },
  {
    "postcode": "47059",
    "city": "Duisburg"
  },
  {
    "postcode": "47059",
    "city": "Kaßlerfeld"
  },
  {
    "postcode": "47059",
    "city": "Neuenkamp"
  },
  {
    "postcode": "47059",
    "city": "Duissern"
  },
  {
    "postcode": "47119",
    "city": "Beeck"
  },
  {
    "postcode": "47119",
    "city": "Duisburg"
  },
  {
    "postcode": "47119",
    "city": "Laar"
  },
  {
    "postcode": "47119",
    "city": "Ruhrort"
  },
  {
    "postcode": "47137",
    "city": "Duisburg"
  },
  {
    "postcode": "47137",
    "city": "Obermeiderich"
  },
  {
    "postcode": "47137",
    "city": "Untermeiderich"
  },
  {
    "postcode": "47137",
    "city": "Mittelmeiderich"
  },
  {
    "postcode": "47138",
    "city": "Duisburg"
  },
  {
    "postcode": "47138",
    "city": "Neumühl"
  },
  {
    "postcode": "47138",
    "city": "Obermeiderich"
  },
  {
    "postcode": "47138",
    "city": "Ruhrort"
  },
  {
    "postcode": "47138",
    "city": "Mittelmeiderich"
  },
  {
    "postcode": "47138",
    "city": "Untermeiderich"
  },
  {
    "postcode": "47139",
    "city": "Beeck"
  },
  {
    "postcode": "47139",
    "city": "Beeckerwerth"
  },
  {
    "postcode": "47139",
    "city": "Duisburg"
  },
  {
    "postcode": "47139",
    "city": "Untermeiderich"
  },
  {
    "postcode": "47166",
    "city": "Beeck"
  },
  {
    "postcode": "47166",
    "city": "Bruckhausen"
  },
  {
    "postcode": "47166",
    "city": "Duisburg"
  },
  {
    "postcode": "47166",
    "city": "Marxloh"
  },
  {
    "postcode": "47166",
    "city": "Neumühl"
  },
  {
    "postcode": "47166",
    "city": "Obermarxloh"
  },
  {
    "postcode": "47166",
    "city": "Alt-Hamborn"
  },
  {
    "postcode": "47166",
    "city": "Obermeiderich"
  },
  {
    "postcode": "47167",
    "city": "Duisburg"
  },
  {
    "postcode": "47167",
    "city": "Marxloh"
  },
  {
    "postcode": "47167",
    "city": "Neumühl"
  },
  {
    "postcode": "47167",
    "city": "Obermarxloh"
  },
  {
    "postcode": "47167",
    "city": "Oberhausen"
  },
  {
    "postcode": "47167",
    "city": "Röttgersbach"
  },
  {
    "postcode": "47167",
    "city": "Buschhausen"
  },
  {
    "postcode": "47169",
    "city": "Aldenrade"
  },
  {
    "postcode": "47169",
    "city": "Duisburg"
  },
  {
    "postcode": "47169",
    "city": "Fahrn"
  },
  {
    "postcode": "47169",
    "city": "Marxloh"
  },
  {
    "postcode": "47169",
    "city": "Wehofen"
  },
  {
    "postcode": "47169",
    "city": "Röttgersbach"
  },
  {
    "postcode": "47178",
    "city": "Duisburg"
  },
  {
    "postcode": "47178",
    "city": "Overbruch"
  },
  {
    "postcode": "47178",
    "city": "Vierlinden"
  },
  {
    "postcode": "47178",
    "city": "Alt-Walsum"
  },
  {
    "postcode": "47179",
    "city": "Aldenrade"
  },
  {
    "postcode": "47179",
    "city": "Duisburg"
  },
  {
    "postcode": "47179",
    "city": "Fahrn"
  },
  {
    "postcode": "47179",
    "city": "Vierlinden"
  },
  {
    "postcode": "47179",
    "city": "Wehofen"
  },
  {
    "postcode": "47179",
    "city": "Alt-Walsum"
  },
  {
    "postcode": "47198",
    "city": "Duisburg"
  },
  {
    "postcode": "47198",
    "city": "Hochheide"
  },
  {
    "postcode": "47198",
    "city": "Homberg"
  },
  {
    "postcode": "47198",
    "city": "Alt-Homberg"
  },
  {
    "postcode": "47199",
    "city": "Baerl"
  },
  {
    "postcode": "47199",
    "city": "Duisburg"
  },
  {
    "postcode": "47199",
    "city": "Hochheide"
  },
  {
    "postcode": "47226",
    "city": "Bergheim"
  },
  {
    "postcode": "47226",
    "city": "Duisburg"
  },
  {
    "postcode": "47226",
    "city": "Hochemmerich"
  },
  {
    "postcode": "47226",
    "city": "Rheinhausen-Mitte"
  },
  {
    "postcode": "47228",
    "city": "Asterlagen"
  },
  {
    "postcode": "47228",
    "city": "Bergheim"
  },
  {
    "postcode": "47228",
    "city": "Duisburg"
  },
  {
    "postcode": "47228",
    "city": "Friemersheim"
  },
  {
    "postcode": "47228",
    "city": "Hochemmerich"
  },
  {
    "postcode": "47228",
    "city": "Winkelhausen"
  },
  {
    "postcode": "47229",
    "city": "Bergheim"
  },
  {
    "postcode": "47229",
    "city": "Duisburg"
  },
  {
    "postcode": "47229",
    "city": "Friemersheim"
  },
  {
    "postcode": "47229",
    "city": "Rumeln-Kaldenhausen"
  },
  {
    "postcode": "47229",
    "city": "Rheinhausen-Mitte"
  },
  {
    "postcode": "47239",
    "city": "Duisburg"
  },
  {
    "postcode": "47239",
    "city": "Rumeln-Kaldenhausen"
  },
  {
    "postcode": "47249",
    "city": "Buchholz"
  },
  {
    "postcode": "47249",
    "city": "Duisburg"
  },
  {
    "postcode": "47249",
    "city": "Großenbaum"
  },
  {
    "postcode": "47249",
    "city": "Wanheim-Angerhausen"
  },
  {
    "postcode": "47259",
    "city": "Duisburg"
  },
  {
    "postcode": "47259",
    "city": "Huckingen"
  },
  {
    "postcode": "47259",
    "city": "Hüttenheim"
  },
  {
    "postcode": "47259",
    "city": "Mündelheim"
  },
  {
    "postcode": "47259",
    "city": "Ungelsheim"
  },
  {
    "postcode": "47259",
    "city": "Wanheim-Angerhausen"
  },
  {
    "postcode": "47269",
    "city": "Buchholz"
  },
  {
    "postcode": "47269",
    "city": "Duisburg"
  },
  {
    "postcode": "47269",
    "city": "Großenbaum"
  },
  {
    "postcode": "47269",
    "city": "Rahm"
  },
  {
    "postcode": "47279",
    "city": "Bissingheim"
  },
  {
    "postcode": "47279",
    "city": "Buchholz"
  },
  {
    "postcode": "47279",
    "city": "Duisburg"
  },
  {
    "postcode": "47279",
    "city": "Großenbaum"
  },
  {
    "postcode": "47279",
    "city": "Wanheimerort"
  },
  {
    "postcode": "47279",
    "city": "Wedau"
  },
  {
    "postcode": "47279",
    "city": "Neudorf-Süd"
  },
  {
    "postcode": "47441",
    "city": "Asberg"
  },
  {
    "postcode": "47441",
    "city": "Moers"
  },
  {
    "postcode": "47441",
    "city": "Wesel"
  },
  {
    "postcode": "47441",
    "city": "Moers-Mitte"
  },
  {
    "postcode": "47441",
    "city": "Hülsdonk"
  },
  {
    "postcode": "47441",
    "city": "Moers-Hülsdonk"
  },
  {
    "postcode": "47441",
    "city": "Moers-Asberg"
  },
  {
    "postcode": "47443",
    "city": "Hochstraß"
  },
  {
    "postcode": "47443",
    "city": "Meerbeck"
  },
  {
    "postcode": "47443",
    "city": "Moers"
  },
  {
    "postcode": "47443",
    "city": "Scherpenberg"
  },
  {
    "postcode": "47443",
    "city": "Wesel"
  },
  {
    "postcode": "47443",
    "city": "Moers-Mitte"
  },
  {
    "postcode": "47443",
    "city": "Baerler Busch"
  },
  {
    "postcode": "47443",
    "city": "Rheinkamp-Meerbeck"
  },
  {
    "postcode": "47445",
    "city": "Bornheim"
  },
  {
    "postcode": "47445",
    "city": "Eick"
  },
  {
    "postcode": "47445",
    "city": "Genend"
  },
  {
    "postcode": "47445",
    "city": "Kohlenhuck"
  },
  {
    "postcode": "47445",
    "city": "Moers"
  },
  {
    "postcode": "47445",
    "city": "Repelen"
  },
  {
    "postcode": "47445",
    "city": "Utfort"
  },
  {
    "postcode": "47445",
    "city": "Wesel"
  },
  {
    "postcode": "47445",
    "city": "Kapellen-Mitte"
  },
  {
    "postcode": "47445",
    "city": "Rheinkamp Mitte"
  },
  {
    "postcode": "47445",
    "city": "Rheinkamp-Utfort"
  },
  {
    "postcode": "47445",
    "city": "Rheinkamp-Repelen"
  },
  {
    "postcode": "47445",
    "city": "Rheinkamp-Genend"
  },
  {
    "postcode": "47445",
    "city": "Baerler Busch"
  },
  {
    "postcode": "47447",
    "city": "Bettenkamp"
  },
  {
    "postcode": "47447",
    "city": "Holderberg"
  },
  {
    "postcode": "47447",
    "city": "Moers"
  },
  {
    "postcode": "47447",
    "city": "Schwafheim"
  },
  {
    "postcode": "47447",
    "city": "Vinn"
  },
  {
    "postcode": "47447",
    "city": "Wesel"
  },
  {
    "postcode": "47447",
    "city": "Achterathsheide"
  },
  {
    "postcode": "47447",
    "city": "Achterathsfeld"
  },
  {
    "postcode": "47447",
    "city": "Vennikel"
  },
  {
    "postcode": "47447",
    "city": "Kapellen-Mitte"
  },
  {
    "postcode": "47447",
    "city": "Kapellen-Achterathsfeld"
  },
  {
    "postcode": "47447",
    "city": "Moers-Hülsdonk"
  },
  {
    "postcode": "47447",
    "city": "Moers-Mitte"
  },
  {
    "postcode": "47447",
    "city": "Kapellen-Vennikel"
  },
  {
    "postcode": "47447",
    "city": "Moers-Vinn"
  },
  {
    "postcode": "47475",
    "city": "Dachsbruch"
  },
  {
    "postcode": "47475",
    "city": "Hoerstgen"
  },
  {
    "postcode": "47475",
    "city": "Kamp-Lintfort"
  },
  {
    "postcode": "47475",
    "city": "Kamperbrück"
  },
  {
    "postcode": "47475",
    "city": "Lintfort"
  },
  {
    "postcode": "47475",
    "city": "Saalhoff"
  },
  {
    "postcode": "47475",
    "city": "Wickrath"
  },
  {
    "postcode": "47475",
    "city": "Wesel"
  },
  {
    "postcode": "47475",
    "city": "Kamp"
  },
  {
    "postcode": "47475",
    "city": "Niersenbruch"
  },
  {
    "postcode": "47475",
    "city": "Gestfeld"
  },
  {
    "postcode": "47475",
    "city": "Geisbruch"
  },
  {
    "postcode": "47475",
    "city": "Altfeld"
  },
  {
    "postcode": "47475",
    "city": "Rossenray"
  },
  {
    "postcode": "47475",
    "city": "Stadtkern"
  },
  {
    "postcode": "47475",
    "city": "Dachsberg"
  },
  {
    "postcode": "47495",
    "city": "Alpsray"
  },
  {
    "postcode": "47495",
    "city": "Borth Niederrhein"
  },
  {
    "postcode": "47495",
    "city": "Borth"
  },
  {
    "postcode": "47495",
    "city": "Budberg Kreis Moers"
  },
  {
    "postcode": "47495",
    "city": "Budberg"
  },
  {
    "postcode": "47495",
    "city": "Eversael Kreis Moers"
  },
  {
    "postcode": "47495",
    "city": "Eversael"
  },
  {
    "postcode": "47495",
    "city": "Millingen"
  },
  {
    "postcode": "47495",
    "city": "Orsoy Niederrhein"
  },
  {
    "postcode": "47495",
    "city": "Orsoy"
  },
  {
    "postcode": "47495",
    "city": "Ossenberg Niederrhein"
  },
  {
    "postcode": "47495",
    "city": "Ossenberg"
  },
  {
    "postcode": "47495",
    "city": "Rheinberg"
  },
  {
    "postcode": "47495",
    "city": "Vierbaum Kreis Moers"
  },
  {
    "postcode": "47495",
    "city": "Vierbaum"
  },
  {
    "postcode": "47495",
    "city": "Wallach"
  },
  {
    "postcode": "47495",
    "city": "Wesel"
  },
  {
    "postcode": "47506",
    "city": "Dong"
  },
  {
    "postcode": "47506",
    "city": "Neukirchen"
  },
  {
    "postcode": "47506",
    "city": "Neukirchen-Vluyn"
  },
  {
    "postcode": "47506",
    "city": "Niep"
  },
  {
    "postcode": "47506",
    "city": "Rayen"
  },
  {
    "postcode": "47506",
    "city": "Vluyn"
  },
  {
    "postcode": "47506",
    "city": "Wesel"
  },
  {
    "postcode": "47506",
    "city": "Hochkamer"
  },
  {
    "postcode": "47506",
    "city": "Hülsdonk"
  },
  {
    "postcode": "47506",
    "city": "Vluynbusch"
  },
  {
    "postcode": "47509",
    "city": "Kengen"
  },
  {
    "postcode": "47509",
    "city": "Lind"
  },
  {
    "postcode": "47509",
    "city": "Neufeld"
  },
  {
    "postcode": "47509",
    "city": "Rheurdt"
  },
  {
    "postcode": "47509",
    "city": "Saelhuysen"
  },
  {
    "postcode": "47509",
    "city": "Schaephuysen"
  },
  {
    "postcode": "47509",
    "city": "Kleve"
  },
  {
    "postcode": "47509",
    "city": "Finkenberg"
  },
  {
    "postcode": "47533",
    "city": "Bimmen"
  },
  {
    "postcode": "47533",
    "city": "Brienen"
  },
  {
    "postcode": "47533",
    "city": "Donsbrüggen"
  },
  {
    "postcode": "47533",
    "city": "Düffelward"
  },
  {
    "postcode": "47533",
    "city": "Griethausen"
  },
  {
    "postcode": "47533",
    "city": "Keeken"
  },
  {
    "postcode": "47533",
    "city": "Kellen"
  },
  {
    "postcode": "47533",
    "city": "Kleve"
  },
  {
    "postcode": "47533",
    "city": "Kleve Niederrhein"
  },
  {
    "postcode": "47533",
    "city": "Materborn"
  },
  {
    "postcode": "47533",
    "city": "Rindern"
  },
  {
    "postcode": "47533",
    "city": "Schenkenschanz"
  },
  {
    "postcode": "47533",
    "city": "Warbeyen"
  },
  {
    "postcode": "47533",
    "city": "Wardhausen"
  },
  {
    "postcode": "47533",
    "city": "Reichswalde"
  },
  {
    "postcode": "47533",
    "city": "Salmorth"
  },
  {
    "postcode": "47546",
    "city": "Appeldorn Niederrhein"
  },
  {
    "postcode": "47546",
    "city": "Appeldorn"
  },
  {
    "postcode": "47546",
    "city": "Emmericher Eyland"
  },
  {
    "postcode": "47546",
    "city": "Grieth"
  },
  {
    "postcode": "47546",
    "city": "Hanselaer Niederrhein"
  },
  {
    "postcode": "47546",
    "city": "Hanselaer"
  },
  {
    "postcode": "47546",
    "city": "Hönnepel"
  },
  {
    "postcode": "47546",
    "city": "Kalkar"
  },
  {
    "postcode": "47546",
    "city": "Kalkar Niederrhein"
  },
  {
    "postcode": "47546",
    "city": "Kehrum Niederrhein"
  },
  {
    "postcode": "47546",
    "city": "Kehrum"
  },
  {
    "postcode": "47546",
    "city": "Niedermörmter"
  },
  {
    "postcode": "47546",
    "city": "Wissel"
  },
  {
    "postcode": "47546",
    "city": "Kleve"
  },
  {
    "postcode": "47546",
    "city": "Altkalkar"
  },
  {
    "postcode": "47546",
    "city": "Neulouisendorf"
  },
  {
    "postcode": "47546",
    "city": "Bylerward"
  },
  {
    "postcode": "47546",
    "city": "Mühlenfeld"
  },
  {
    "postcode": "47546",
    "city": "Wisselward"
  },
  {
    "postcode": "47551",
    "city": "Bedburg-Hau"
  },
  {
    "postcode": "47551",
    "city": "Hasselt Niederrhein"
  },
  {
    "postcode": "47551",
    "city": "Hasselt"
  },
  {
    "postcode": "47551",
    "city": "Hau"
  },
  {
    "postcode": "47551",
    "city": "Huisberden"
  },
  {
    "postcode": "47551",
    "city": "Louisendorf Niederrhein"
  },
  {
    "postcode": "47551",
    "city": "Louisendorf"
  },
  {
    "postcode": "47551",
    "city": "Qualburg Niederrhein"
  },
  {
    "postcode": "47551",
    "city": "Qualburg"
  },
  {
    "postcode": "47551",
    "city": "Till-Moyland"
  },
  {
    "postcode": "47551",
    "city": "Kleve"
  },
  {
    "postcode": "47551",
    "city": "Schneppenbaum"
  },
  {
    "postcode": "47559",
    "city": "Frasselt Niederrhein"
  },
  {
    "postcode": "47559",
    "city": "Frasselt"
  },
  {
    "postcode": "47559",
    "city": "Grafwegen Niederrhein"
  },
  {
    "postcode": "47559",
    "city": "Grafwegen"
  },
  {
    "postcode": "47559",
    "city": "Kranenburg"
  },
  {
    "postcode": "47559",
    "city": "Kranenburg Niederrhein"
  },
  {
    "postcode": "47559",
    "city": "Mehr Niederrhein"
  },
  {
    "postcode": "47559",
    "city": "Mehr"
  },
  {
    "postcode": "47559",
    "city": "Niel Niederrhein"
  },
  {
    "postcode": "47559",
    "city": "Niel"
  },
  {
    "postcode": "47559",
    "city": "Nütterden"
  },
  {
    "postcode": "47559",
    "city": "Schottheide Niederrhein"
  },
  {
    "postcode": "47559",
    "city": "Schottheide"
  },
  {
    "postcode": "47559",
    "city": "Wyler"
  },
  {
    "postcode": "47559",
    "city": "Zyfflich"
  },
  {
    "postcode": "47559",
    "city": "Kleve"
  },
  {
    "postcode": "47574",
    "city": "Asperden"
  },
  {
    "postcode": "47574",
    "city": "Goch"
  },
  {
    "postcode": "47574",
    "city": "Hassum"
  },
  {
    "postcode": "47574",
    "city": "Hommersum"
  },
  {
    "postcode": "47574",
    "city": "Hülm"
  },
  {
    "postcode": "47574",
    "city": "Kessel Niederrhein"
  },
  {
    "postcode": "47574",
    "city": "Kessel"
  },
  {
    "postcode": "47574",
    "city": "Nierswalde"
  },
  {
    "postcode": "47574",
    "city": "Pfalzdorf Niederrhein"
  },
  {
    "postcode": "47574",
    "city": "Pfalzdorf"
  },
  {
    "postcode": "47574",
    "city": "Kleve"
  },
  {
    "postcode": "47574",
    "city": "Boyenhof"
  },
  {
    "postcode": "47589",
    "city": "Keppeln"
  },
  {
    "postcode": "47589",
    "city": "Uedem"
  },
  {
    "postcode": "47589",
    "city": "Uedemerbruch"
  },
  {
    "postcode": "47589",
    "city": "Uedemerfeld"
  },
  {
    "postcode": "47589",
    "city": "Kleve"
  },
  {
    "postcode": "47608",
    "city": "Baersdonk Gemeinde Vernum"
  },
  {
    "postcode": "47608",
    "city": "Baersdonk"
  },
  {
    "postcode": "47608",
    "city": "Geldern"
  },
  {
    "postcode": "47608",
    "city": "Hartefeld"
  },
  {
    "postcode": "47608",
    "city": "Kapellen Kreis Geldern"
  },
  {
    "postcode": "47608",
    "city": "Kapellen"
  },
  {
    "postcode": "47608",
    "city": "Lüllingen"
  },
  {
    "postcode": "47608",
    "city": "Pont Kreis Geldern"
  },
  {
    "postcode": "47608",
    "city": "Pont"
  },
  {
    "postcode": "47608",
    "city": "Veert"
  },
  {
    "postcode": "47608",
    "city": "Vernum"
  },
  {
    "postcode": "47608",
    "city": "Walbeck Rheinland"
  },
  {
    "postcode": "47608",
    "city": "Walbeck"
  },
  {
    "postcode": "47608",
    "city": "Kleve"
  },
  {
    "postcode": "47608",
    "city": "Aengenesch"
  },
  {
    "postcode": "47623",
    "city": "Kevelaer"
  },
  {
    "postcode": "47623",
    "city": "Kleve"
  },
  {
    "postcode": "47624",
    "city": "Kevelaer"
  },
  {
    "postcode": "47624",
    "city": "Twisteden"
  },
  {
    "postcode": "47624",
    "city": "Kleve"
  },
  {
    "postcode": "47625",
    "city": "Kevelaer"
  },
  {
    "postcode": "47625",
    "city": "Wetten"
  },
  {
    "postcode": "47625",
    "city": "Kleve"
  },
  {
    "postcode": "47625",
    "city": "Twisteden"
  },
  {
    "postcode": "47626",
    "city": "Kevelaer"
  },
  {
    "postcode": "47626",
    "city": "Winnekendonk"
  },
  {
    "postcode": "47626",
    "city": "Kleve"
  },
  {
    "postcode": "47627",
    "city": "Kervenheim"
  },
  {
    "postcode": "47627",
    "city": "Kevelaer"
  },
  {
    "postcode": "47627",
    "city": "Kleve"
  },
  {
    "postcode": "47638",
    "city": "Auwel"
  },
  {
    "postcode": "47638",
    "city": "Broekhuysen"
  },
  {
    "postcode": "47638",
    "city": "Brüxken"
  },
  {
    "postcode": "47638",
    "city": "Dam"
  },
  {
    "postcode": "47638",
    "city": "Herongen"
  },
  {
    "postcode": "47638",
    "city": "Hetzert"
  },
  {
    "postcode": "47638",
    "city": "Holt"
  },
  {
    "postcode": "47638",
    "city": "Kastanienburg"
  },
  {
    "postcode": "47638",
    "city": "Straelen"
  },
  {
    "postcode": "47638",
    "city": "Vorst"
  },
  {
    "postcode": "47638",
    "city": "Westerbroek"
  },
  {
    "postcode": "47638",
    "city": "Kleve"
  },
  {
    "postcode": "47638",
    "city": "Rieth"
  },
  {
    "postcode": "47638",
    "city": "Vossum"
  },
  {
    "postcode": "47638",
    "city": "Boekholt"
  },
  {
    "postcode": "47638",
    "city": "Auwel-Holt"
  },
  {
    "postcode": "47638",
    "city": "Louisenburg"
  },
  {
    "postcode": "47638",
    "city": "Vlasrath"
  },
  {
    "postcode": "47638",
    "city": "Herschel"
  },
  {
    "postcode": "47638",
    "city": "Niersbroek"
  },
  {
    "postcode": "47638",
    "city": "Mühlensteeg"
  },
  {
    "postcode": "47638",
    "city": "Sang"
  },
  {
    "postcode": "47638",
    "city": "Zand"
  },
  {
    "postcode": "47647",
    "city": "Aldekerk"
  },
  {
    "postcode": "47647",
    "city": "Kerken"
  },
  {
    "postcode": "47647",
    "city": "Nieukerk"
  },
  {
    "postcode": "47647",
    "city": "Stenden"
  },
  {
    "postcode": "47647",
    "city": "Kleve"
  },
  {
    "postcode": "47647",
    "city": "Rahm"
  },
  {
    "postcode": "47647",
    "city": "Obereyll"
  },
  {
    "postcode": "47652",
    "city": "Laarbruch"
  },
  {
    "postcode": "47652",
    "city": "Weeze"
  },
  {
    "postcode": "47652",
    "city": "Wemb"
  },
  {
    "postcode": "47652",
    "city": "Kleve"
  },
  {
    "postcode": "47652",
    "city": "Hees"
  },
  {
    "postcode": "47652",
    "city": "Oberhelsum"
  },
  {
    "postcode": "47652",
    "city": "Am Bruch"
  },
  {
    "postcode": "47661",
    "city": "Brückerheide"
  },
  {
    "postcode": "47661",
    "city": "Issum"
  },
  {
    "postcode": "47661",
    "city": "Oermten"
  },
  {
    "postcode": "47661",
    "city": "Sevelen Kreis Geldern"
  },
  {
    "postcode": "47661",
    "city": "Sevelen"
  },
  {
    "postcode": "47661",
    "city": "Kleve"
  },
  {
    "postcode": "47661",
    "city": "Aengenesch"
  },
  {
    "postcode": "47661",
    "city": "Vorst"
  },
  {
    "postcode": "47665",
    "city": "Hamb Kreis Geldern"
  },
  {
    "postcode": "47665",
    "city": "Hamb"
  },
  {
    "postcode": "47665",
    "city": "Labbeck"
  },
  {
    "postcode": "47665",
    "city": "Sonsbeck"
  },
  {
    "postcode": "47665",
    "city": "Wesel"
  },
  {
    "postcode": "47669",
    "city": "Wachtendonk"
  },
  {
    "postcode": "47669",
    "city": "Wankum"
  },
  {
    "postcode": "47669",
    "city": "Kleve"
  },
  {
    "postcode": "47798",
    "city": "Dießem / Lehmheide"
  },
  {
    "postcode": "47798",
    "city": "Dießem"
  },
  {
    "postcode": "47798",
    "city": "Inrath / Kliedbruch"
  },
  {
    "postcode": "47798",
    "city": "Inrath"
  },
  {
    "postcode": "47798",
    "city": "Krefeld"
  },
  {
    "postcode": "47798",
    "city": "Stadtmitte"
  },
  {
    "postcode": "47798",
    "city": "Dießem/Lehmheide"
  },
  {
    "postcode": "47798",
    "city": "Inrath/Kliedbruch"
  },
  {
    "postcode": "47798",
    "city": "Cracau"
  },
  {
    "postcode": "47798",
    "city": "Kempener Feld/Baakeshof"
  },
  {
    "postcode": "47798",
    "city": "Kempener Feld"
  },
  {
    "postcode": "47799",
    "city": "Bockum"
  },
  {
    "postcode": "47799",
    "city": "Dießem / Lehmheide"
  },
  {
    "postcode": "47799",
    "city": "Dießem"
  },
  {
    "postcode": "47799",
    "city": "Krefeld"
  },
  {
    "postcode": "47799",
    "city": "Cracau"
  },
  {
    "postcode": "47799",
    "city": "Stadtmitte"
  },
  {
    "postcode": "47800",
    "city": "Bockum"
  },
  {
    "postcode": "47800",
    "city": "Krefeld"
  },
  {
    "postcode": "47800",
    "city": "Uerdingen"
  },
  {
    "postcode": "47800",
    "city": "Stadtmitte"
  },
  {
    "postcode": "47800",
    "city": "Gartenstadt"
  },
  {
    "postcode": "47800",
    "city": "Oppum"
  },
  {
    "postcode": "47800",
    "city": "Verberg"
  },
  {
    "postcode": "47802",
    "city": "Inrath / Kliedbruch"
  },
  {
    "postcode": "47802",
    "city": "Inrath"
  },
  {
    "postcode": "47802",
    "city": "Krefeld"
  },
  {
    "postcode": "47802",
    "city": "Traar"
  },
  {
    "postcode": "47802",
    "city": "Uerdingen"
  },
  {
    "postcode": "47802",
    "city": "Verberg"
  },
  {
    "postcode": "47802",
    "city": "Gartenstadt"
  },
  {
    "postcode": "47802",
    "city": "Hülser Berg"
  },
  {
    "postcode": "47802",
    "city": "Inrath/Kliedbruch"
  },
  {
    "postcode": "47803",
    "city": "Bockum"
  },
  {
    "postcode": "47803",
    "city": "Inrath / Kliedbruch"
  },
  {
    "postcode": "47803",
    "city": "Inrath"
  },
  {
    "postcode": "47803",
    "city": "Krefeld"
  },
  {
    "postcode": "47803",
    "city": "Inrath/Kliedbruch"
  },
  {
    "postcode": "47803",
    "city": "Kempener Feld/Baakeshof"
  },
  {
    "postcode": "47803",
    "city": "Benrad-Nord"
  },
  {
    "postcode": "47803",
    "city": "Cracau"
  },
  {
    "postcode": "47803",
    "city": "Stadtmitte"
  },
  {
    "postcode": "47803",
    "city": "Benrad-Süd"
  },
  {
    "postcode": "47803",
    "city": "Hülser Berg"
  },
  {
    "postcode": "47803",
    "city": "Kempener Feld"
  },
  {
    "postcode": "47804",
    "city": "Fischeln"
  },
  {
    "postcode": "47804",
    "city": "Hüls bei Krefeld"
  },
  {
    "postcode": "47804",
    "city": "Krefeld"
  },
  {
    "postcode": "47804",
    "city": "Benrad-Süd"
  },
  {
    "postcode": "47804",
    "city": "Kempener Feld/Baakeshof"
  },
  {
    "postcode": "47804",
    "city": "Benrad-Nord"
  },
  {
    "postcode": "47804",
    "city": "Forstwald"
  },
  {
    "postcode": "47804",
    "city": "Benrad"
  },
  {
    "postcode": "47804",
    "city": "Hüls"
  },
  {
    "postcode": "47804",
    "city": "Kempener Feld"
  },
  {
    "postcode": "47805",
    "city": "Dießem / Lehmheide"
  },
  {
    "postcode": "47805",
    "city": "Dießem"
  },
  {
    "postcode": "47805",
    "city": "Fischeln"
  },
  {
    "postcode": "47805",
    "city": "Krefeld"
  },
  {
    "postcode": "47805",
    "city": "Dießem/Lehmheide"
  },
  {
    "postcode": "47805",
    "city": "Oppum"
  },
  {
    "postcode": "47807",
    "city": "Dießem / Lehmheide"
  },
  {
    "postcode": "47807",
    "city": "Dießem"
  },
  {
    "postcode": "47807",
    "city": "Fischeln"
  },
  {
    "postcode": "47807",
    "city": "Krefeld"
  },
  {
    "postcode": "47809",
    "city": "Bockum"
  },
  {
    "postcode": "47809",
    "city": "Dießem / Lehmheide"
  },
  {
    "postcode": "47809",
    "city": "Dießem"
  },
  {
    "postcode": "47809",
    "city": "Fischeln"
  },
  {
    "postcode": "47809",
    "city": "Krefeld"
  },
  {
    "postcode": "47809",
    "city": "Oppum"
  },
  {
    "postcode": "47809",
    "city": "Linn"
  },
  {
    "postcode": "47809",
    "city": "Gellep-Stratum"
  },
  {
    "postcode": "47809",
    "city": "Dießem/Lehmheide"
  },
  {
    "postcode": "47829",
    "city": "Krefeld"
  },
  {
    "postcode": "47829",
    "city": "Uerdingen"
  },
  {
    "postcode": "47829",
    "city": "Gartenstadt"
  },
  {
    "postcode": "47839",
    "city": "Hüls bei Krefeld"
  },
  {
    "postcode": "47839",
    "city": "Inrath / Kliedbruch"
  },
  {
    "postcode": "47839",
    "city": "Inrath"
  },
  {
    "postcode": "47839",
    "city": "Krefeld"
  },
  {
    "postcode": "47839",
    "city": "Hüls"
  },
  {
    "postcode": "47839",
    "city": "Inrath/Kliedbruch"
  },
  {
    "postcode": "47839",
    "city": "Hülser Berg"
  },
  {
    "postcode": "47877",
    "city": "Anrath"
  },
  {
    "postcode": "47877",
    "city": "Hardt"
  },
  {
    "postcode": "47877",
    "city": "Neersen"
  },
  {
    "postcode": "47877",
    "city": "Schiefbahn"
  },
  {
    "postcode": "47877",
    "city": "Willich"
  },
  {
    "postcode": "47877",
    "city": "Viersen"
  },
  {
    "postcode": "47906",
    "city": "Kempen"
  },
  {
    "postcode": "47906",
    "city": "Kempen Niederrhein"
  },
  {
    "postcode": "47906",
    "city": "Sankt Hubert"
  },
  {
    "postcode": "47906",
    "city": "Tönisberg"
  },
  {
    "postcode": "47906",
    "city": "Viersen"
  },
  {
    "postcode": "47906",
    "city": "St. Hubert"
  },
  {
    "postcode": "47906",
    "city": "Haag"
  },
  {
    "postcode": "47906",
    "city": "Vinnbrück"
  },
  {
    "postcode": "47906",
    "city": "Unterweiden"
  },
  {
    "postcode": "47906",
    "city": "Niederfeld"
  },
  {
    "postcode": "47906",
    "city": "Klixdorf"
  },
  {
    "postcode": "47906",
    "city": "Schmelendorf"
  },
  {
    "postcode": "47906",
    "city": "Wall"
  },
  {
    "postcode": "47906",
    "city": "Ziegelheide"
  },
  {
    "postcode": "47918",
    "city": "Sankt Tönis"
  },
  {
    "postcode": "47918",
    "city": "Tönisvorst"
  },
  {
    "postcode": "47918",
    "city": "Vorst"
  },
  {
    "postcode": "47918",
    "city": "Viersen"
  },
  {
    "postcode": "47918",
    "city": "St. Tönis"
  },
  {
    "postcode": "47929",
    "city": "Grefrath"
  },
  {
    "postcode": "47929",
    "city": "Grefrath Niederrhein"
  },
  {
    "postcode": "47929",
    "city": "Mülhausen"
  },
  {
    "postcode": "47929",
    "city": "Oedt"
  },
  {
    "postcode": "47929",
    "city": "Vinkrath bei Krefeld"
  },
  {
    "postcode": "47929",
    "city": "Vorst bei Krefeld"
  },
  {
    "postcode": "47929",
    "city": "Viersen"
  },
  {
    "postcode": "47929",
    "city": "Vinkrath"
  }
]