[
  {
    "postcode": "52062",
    "city": "Aachen"
  },
  {
    "postcode": "52064",
    "city": "Aachen"
  },
  {
    "postcode": "52066",
    "city": "Aachen"
  },
  {
    "postcode": "52068",
    "city": "Aachen"
  },
  {
    "postcode": "52070",
    "city": "Aachen"
  },
  {
    "postcode": "52070",
    "city": "Haaren Kreis Aachen"
  },
  {
    "postcode": "52070",
    "city": "Haaren"
  },
  {
    "postcode": "52070",
    "city": "Laurensberg Kreis Aachen"
  },
  {
    "postcode": "52070",
    "city": "Laurensberg"
  },
  {
    "postcode": "52072",
    "city": "Aachen"
  },
  {
    "postcode": "52072",
    "city": "Horbach Kreis Aachen"
  },
  {
    "postcode": "52072",
    "city": "Horbach"
  },
  {
    "postcode": "52072",
    "city": "Laurensberg Kreis Aachen"
  },
  {
    "postcode": "52072",
    "city": "Laurensberg"
  },
  {
    "postcode": "52072",
    "city": "Richterich"
  },
  {
    "postcode": "52072",
    "city": "Uersfeld"
  },
  {
    "postcode": "52074",
    "city": "Aachen"
  },
  {
    "postcode": "52074",
    "city": "Laurensberg Kreis Aachen"
  },
  {
    "postcode": "52074",
    "city": "Laurensberg"
  },
  {
    "postcode": "52074",
    "city": "Orsbach Kreis Aachen"
  },
  {
    "postcode": "52074",
    "city": "Orsbach"
  },
  {
    "postcode": "52074",
    "city": "Vaalserquartier"
  },
  {
    "postcode": "52074",
    "city": "Seffent"
  },
  {
    "postcode": "52076",
    "city": "Aachen"
  },
  {
    "postcode": "52076",
    "city": "Friesenrath Kreis Aachen"
  },
  {
    "postcode": "52076",
    "city": "Friesenrath"
  },
  {
    "postcode": "52076",
    "city": "Hahn Kreis Aachen"
  },
  {
    "postcode": "52076",
    "city": "Hahn"
  },
  {
    "postcode": "52076",
    "city": "Kornelimünster"
  },
  {
    "postcode": "52076",
    "city": "Krauthausen Kreis Aachen"
  },
  {
    "postcode": "52076",
    "city": "Krauthausen"
  },
  {
    "postcode": "52076",
    "city": "Lichtenbusch"
  },
  {
    "postcode": "52076",
    "city": "Nütheim"
  },
  {
    "postcode": "52076",
    "city": "Oberforstbach"
  },
  {
    "postcode": "52076",
    "city": "Schleckheim"
  },
  {
    "postcode": "52076",
    "city": "Sief"
  },
  {
    "postcode": "52076",
    "city": "Walheim Kreis Aachen"
  },
  {
    "postcode": "52076",
    "city": "Walheim"
  },
  {
    "postcode": "52076",
    "city": "Brand"
  },
  {
    "postcode": "52076",
    "city": "Schmithof"
  },
  {
    "postcode": "52078",
    "city": "Aachen"
  },
  {
    "postcode": "52078",
    "city": "Eilendorf Kreis Aachen"
  },
  {
    "postcode": "52078",
    "city": "Eilendorf"
  },
  {
    "postcode": "52078",
    "city": "Brand"
  },
  {
    "postcode": "52080",
    "city": "Aachen"
  },
  {
    "postcode": "52080",
    "city": "Eilendorf Kreis Aachen"
  },
  {
    "postcode": "52080",
    "city": "Eilendorf"
  },
  {
    "postcode": "52080",
    "city": "Haaren Kreis Aachen"
  },
  {
    "postcode": "52080",
    "city": "Haaren"
  },
  {
    "postcode": "52080",
    "city": "Verlautenheide"
  },
  {
    "postcode": "52134",
    "city": "Herzogenrath"
  },
  {
    "postcode": "52134",
    "city": "Kohlscheid"
  },
  {
    "postcode": "52134",
    "city": "Merkstein"
  },
  {
    "postcode": "52134",
    "city": "Straß"
  },
  {
    "postcode": "52134",
    "city": "Aachen"
  },
  {
    "postcode": "52134",
    "city": "Niederbardenberg"
  },
  {
    "postcode": "52146",
    "city": "Bardenberg"
  },
  {
    "postcode": "52146",
    "city": "Broichweiden"
  },
  {
    "postcode": "52146",
    "city": "Würselen"
  },
  {
    "postcode": "52146",
    "city": "Aachen"
  },
  {
    "postcode": "52146",
    "city": "Linden-Neusen"
  },
  {
    "postcode": "52146",
    "city": "Morsbach"
  },
  {
    "postcode": "52152",
    "city": "Bickerath"
  },
  {
    "postcode": "52152",
    "city": "Dedenborn"
  },
  {
    "postcode": "52152",
    "city": "Eicherscheid Kreis Monschau"
  },
  {
    "postcode": "52152",
    "city": "Eicherscheid"
  },
  {
    "postcode": "52152",
    "city": "Einruhr"
  },
  {
    "postcode": "52152",
    "city": "Erkensruhr"
  },
  {
    "postcode": "52152",
    "city": "Hammer Kreis Monschau"
  },
  {
    "postcode": "52152",
    "city": "Hammer"
  },
  {
    "postcode": "52152",
    "city": "Huppenbroich"
  },
  {
    "postcode": "52152",
    "city": "Kesternich"
  },
  {
    "postcode": "52152",
    "city": "Lammersdorf bei Aachen"
  },
  {
    "postcode": "52152",
    "city": "Paustenbach"
  },
  {
    "postcode": "52152",
    "city": "Rollesbroich"
  },
  {
    "postcode": "52152",
    "city": "Rurberg"
  },
  {
    "postcode": "52152",
    "city": "Simmerath"
  },
  {
    "postcode": "52152",
    "city": "Steckenborn"
  },
  {
    "postcode": "52152",
    "city": "Strauch Kreis Monschau"
  },
  {
    "postcode": "52152",
    "city": "Strauch"
  },
  {
    "postcode": "52152",
    "city": "Witzerath"
  },
  {
    "postcode": "52152",
    "city": "Woffelsbach"
  },
  {
    "postcode": "52152",
    "city": "Aachen"
  },
  {
    "postcode": "52152",
    "city": "Lammersdorf"
  },
  {
    "postcode": "52152",
    "city": "Hirschrott"
  },
  {
    "postcode": "52156",
    "city": "Dreistegen"
  },
  {
    "postcode": "52156",
    "city": "Höfen Rheinland"
  },
  {
    "postcode": "52156",
    "city": "Höfen"
  },
  {
    "postcode": "52156",
    "city": "Imgenbroich"
  },
  {
    "postcode": "52156",
    "city": "Kalterherberg"
  },
  {
    "postcode": "52156",
    "city": "Konzen"
  },
  {
    "postcode": "52156",
    "city": "Monschau"
  },
  {
    "postcode": "52156",
    "city": "Mützenich Kreis Monschau"
  },
  {
    "postcode": "52156",
    "city": "Mützenich"
  },
  {
    "postcode": "52156",
    "city": "Rohren"
  },
  {
    "postcode": "52156",
    "city": "Schwingsborn"
  },
  {
    "postcode": "52156",
    "city": "Widdau"
  },
  {
    "postcode": "52156",
    "city": "Aachen"
  },
  {
    "postcode": "52156",
    "city": "Menzerath"
  },
  {
    "postcode": "52159",
    "city": "Mulartshütte"
  },
  {
    "postcode": "52159",
    "city": "Roetgen"
  },
  {
    "postcode": "52159",
    "city": "Roetgen Eifel"
  },
  {
    "postcode": "52159",
    "city": "Aachen"
  },
  {
    "postcode": "52159",
    "city": "Rott"
  },
  {
    "postcode": "52159",
    "city": "Charliersmühle"
  },
  {
    "postcode": "52222",
    "city": "Atsch Rheinland"
  },
  {
    "postcode": "52222",
    "city": "Atsch"
  },
  {
    "postcode": "52222",
    "city": "Donnerberg"
  },
  {
    "postcode": "52222",
    "city": "Münsterbusch"
  },
  {
    "postcode": "52222",
    "city": "Stolberg (Rheinland)"
  },
  {
    "postcode": "52222",
    "city": "Stolberg"
  },
  {
    "postcode": "52222",
    "city": "Stolberg Rheinland"
  },
  {
    "postcode": "52222",
    "city": "Aachen"
  },
  {
    "postcode": "52222",
    "city": "Stolberg (Rhld.)"
  },
  {
    "postcode": "52222",
    "city": "Velau-Steinfurt"
  },
  {
    "postcode": "52222",
    "city": "Liester"
  },
  {
    "postcode": "52223",
    "city": "Breinig"
  },
  {
    "postcode": "52223",
    "city": "Büsbach"
  },
  {
    "postcode": "52223",
    "city": "Dorff"
  },
  {
    "postcode": "52223",
    "city": "Münsterbusch"
  },
  {
    "postcode": "52223",
    "city": "Stolberg (Rheinland)"
  },
  {
    "postcode": "52223",
    "city": "Stolberg"
  },
  {
    "postcode": "52223",
    "city": "Stolberg Rheinland"
  },
  {
    "postcode": "52223",
    "city": "Aachen"
  },
  {
    "postcode": "52223",
    "city": "Stolberg (Rhld.)"
  },
  {
    "postcode": "52223",
    "city": "Liester"
  },
  {
    "postcode": "52223",
    "city": "Hammer"
  },
  {
    "postcode": "52224",
    "city": "Donnerberg"
  },
  {
    "postcode": "52224",
    "city": "Gressenich"
  },
  {
    "postcode": "52224",
    "city": "Mausbach Rheinland"
  },
  {
    "postcode": "52224",
    "city": "Mausbach"
  },
  {
    "postcode": "52224",
    "city": "Schevenhütte"
  },
  {
    "postcode": "52224",
    "city": "Stolberg (Rheinland)"
  },
  {
    "postcode": "52224",
    "city": "Stolberg"
  },
  {
    "postcode": "52224",
    "city": "Stolberg Rheinland"
  },
  {
    "postcode": "52224",
    "city": "Venwegen"
  },
  {
    "postcode": "52224",
    "city": "Vicht Rheinland"
  },
  {
    "postcode": "52224",
    "city": "Vicht"
  },
  {
    "postcode": "52224",
    "city": "Werth bei Stolberg Rheinland"
  },
  {
    "postcode": "52224",
    "city": "Werth bei Stolberg"
  },
  {
    "postcode": "52224",
    "city": "Zweifall"
  },
  {
    "postcode": "52224",
    "city": "Aachen"
  },
  {
    "postcode": "52224",
    "city": "Stolberg (Rhld.)"
  },
  {
    "postcode": "52224",
    "city": "Werth"
  },
  {
    "postcode": "52224",
    "city": "Hammer"
  },
  {
    "postcode": "52249",
    "city": "Aue"
  },
  {
    "postcode": "52249",
    "city": "Bergrath"
  },
  {
    "postcode": "52249",
    "city": "Dürwiß"
  },
  {
    "postcode": "52249",
    "city": "Eschweiler"
  },
  {
    "postcode": "52249",
    "city": "Eschweiler Rheinland"
  },
  {
    "postcode": "52249",
    "city": "Hastenrath"
  },
  {
    "postcode": "52249",
    "city": "Hehlrath"
  },
  {
    "postcode": "52249",
    "city": "Hovermühle Rheinland"
  },
  {
    "postcode": "52249",
    "city": "Hovermühle"
  },
  {
    "postcode": "52249",
    "city": "Hücheln"
  },
  {
    "postcode": "52249",
    "city": "Kinzweiler"
  },
  {
    "postcode": "52249",
    "city": "Nothberg"
  },
  {
    "postcode": "52249",
    "city": "Röhe"
  },
  {
    "postcode": "52249",
    "city": "Sankt Jöris"
  },
  {
    "postcode": "52249",
    "city": "Scherpenseel"
  },
  {
    "postcode": "52249",
    "city": "Stich"
  },
  {
    "postcode": "52249",
    "city": "Volkenrath"
  },
  {
    "postcode": "52249",
    "city": "Weisweiler"
  },
  {
    "postcode": "52249",
    "city": "Wilhelmshöhe"
  },
  {
    "postcode": "52249",
    "city": "Aachen"
  },
  {
    "postcode": "52249",
    "city": "Siedlung Waldschule"
  },
  {
    "postcode": "52249",
    "city": "Neu-Lohn"
  },
  {
    "postcode": "52249",
    "city": "Röthgen"
  },
  {
    "postcode": "52249",
    "city": "Pumpe"
  },
  {
    "postcode": "52249",
    "city": "St. Jöris"
  },
  {
    "postcode": "52249",
    "city": "Bohl"
  },
  {
    "postcode": "52249",
    "city": "Ost"
  },
  {
    "postcode": "52249",
    "city": "Stadtwald"
  },
  {
    "postcode": "52349",
    "city": "Düren Rheinland"
  },
  {
    "postcode": "52349",
    "city": "Düren"
  },
  {
    "postcode": "52349",
    "city": "Gürzenich"
  },
  {
    "postcode": "52351",
    "city": "Düren Rheinland"
  },
  {
    "postcode": "52351",
    "city": "Düren"
  },
  {
    "postcode": "52351",
    "city": "Wörthsiedlung"
  },
  {
    "postcode": "52353",
    "city": "Arnoldsweiler"
  },
  {
    "postcode": "52353",
    "city": "Birkesdorf"
  },
  {
    "postcode": "52353",
    "city": "Düren Rheinland"
  },
  {
    "postcode": "52353",
    "city": "Düren"
  },
  {
    "postcode": "52353",
    "city": "Echtz"
  },
  {
    "postcode": "52353",
    "city": "Hoven Kreis Düren"
  },
  {
    "postcode": "52353",
    "city": "Hoven"
  },
  {
    "postcode": "52353",
    "city": "Mariaweiler"
  },
  {
    "postcode": "52353",
    "city": "Merken"
  },
  {
    "postcode": "52355",
    "city": "Berzbuir"
  },
  {
    "postcode": "52355",
    "city": "Birgel Kreis Düren"
  },
  {
    "postcode": "52355",
    "city": "Birgel"
  },
  {
    "postcode": "52355",
    "city": "Derichsweiler"
  },
  {
    "postcode": "52355",
    "city": "Düren Rheinland"
  },
  {
    "postcode": "52355",
    "city": "Düren"
  },
  {
    "postcode": "52355",
    "city": "Echtz"
  },
  {
    "postcode": "52355",
    "city": "Gürzenich"
  },
  {
    "postcode": "52355",
    "city": "Konzendorf"
  },
  {
    "postcode": "52355",
    "city": "Krauthausen Kreis Düren"
  },
  {
    "postcode": "52355",
    "city": "Krauthausen"
  },
  {
    "postcode": "52355",
    "city": "Kufferath"
  },
  {
    "postcode": "52355",
    "city": "Lendersdorf"
  },
  {
    "postcode": "52355",
    "city": "Niederau Kreis Düren"
  },
  {
    "postcode": "52355",
    "city": "Niederau"
  },
  {
    "postcode": "52355",
    "city": "Rölsdorf"
  },
  {
    "postcode": "52355",
    "city": "Boisdorfer Siedlung"
  },
  {
    "postcode": "52372",
    "city": "Bogheim"
  },
  {
    "postcode": "52372",
    "city": "Boich"
  },
  {
    "postcode": "52372",
    "city": "Drove"
  },
  {
    "postcode": "52372",
    "city": "Gemeinde Hürtgenwald"
  },
  {
    "postcode": "52372",
    "city": "Kreuzau"
  },
  {
    "postcode": "52372",
    "city": "Leversbach"
  },
  {
    "postcode": "52372",
    "city": "Obermaubach"
  },
  {
    "postcode": "52372",
    "city": "Schlagstein"
  },
  {
    "postcode": "52372",
    "city": "Schneidhausen"
  },
  {
    "postcode": "52372",
    "city": "Stockheim Kreis Düren"
  },
  {
    "postcode": "52372",
    "city": "Stockheim"
  },
  {
    "postcode": "52372",
    "city": "Thum Kreis Düren"
  },
  {
    "postcode": "52372",
    "city": "Thum"
  },
  {
    "postcode": "52372",
    "city": "Üdingen"
  },
  {
    "postcode": "52372",
    "city": "Untermaubach"
  },
  {
    "postcode": "52372",
    "city": "Winden Kreis Düren"
  },
  {
    "postcode": "52372",
    "city": "Winden"
  },
  {
    "postcode": "52372",
    "city": "Düren"
  },
  {
    "postcode": "52372",
    "city": "Bilstein"
  },
  {
    "postcode": "52372",
    "city": "Bergheim"
  },
  {
    "postcode": "52372",
    "city": "Langenbroich"
  },
  {
    "postcode": "52372",
    "city": "Gemeinde Nideggen"
  },
  {
    "postcode": "52379",
    "city": "D'horn"
  },
  {
    "postcode": "52379",
    "city": "Geich"
  },
  {
    "postcode": "52379",
    "city": "Hamich"
  },
  {
    "postcode": "52379",
    "city": "Heistern"
  },
  {
    "postcode": "52379",
    "city": "Jüngersdorf"
  },
  {
    "postcode": "52379",
    "city": "Langerwehe"
  },
  {
    "postcode": "52379",
    "city": "Luchem"
  },
  {
    "postcode": "52379",
    "city": "Merode"
  },
  {
    "postcode": "52379",
    "city": "Obergeich"
  },
  {
    "postcode": "52379",
    "city": "Rothammer"
  },
  {
    "postcode": "52379",
    "city": "Schlich Kreis Düren"
  },
  {
    "postcode": "52379",
    "city": "Schlich"
  },
  {
    "postcode": "52379",
    "city": "Schönthal bei Eschweiler Rheinland"
  },
  {
    "postcode": "52379",
    "city": "Schönthal bei Eschweiler"
  },
  {
    "postcode": "52379",
    "city": "Stütgerloch"
  },
  {
    "postcode": "52379",
    "city": "Wenau"
  },
  {
    "postcode": "52379",
    "city": "Düren"
  },
  {
    "postcode": "52379",
    "city": "Pier"
  },
  {
    "postcode": "52379",
    "city": "Schönthal"
  },
  {
    "postcode": "52382",
    "city": "Ellen"
  },
  {
    "postcode": "52382",
    "city": "Hambach Kreis Jülich"
  },
  {
    "postcode": "52382",
    "city": "Hambach"
  },
  {
    "postcode": "52382",
    "city": "Huchem-Stammeln"
  },
  {
    "postcode": "52382",
    "city": "Krauthausen"
  },
  {
    "postcode": "52382",
    "city": "Niederzier"
  },
  {
    "postcode": "52382",
    "city": "Oberzier"
  },
  {
    "postcode": "52382",
    "city": "Selhausen"
  },
  {
    "postcode": "52382",
    "city": "Düren"
  },
  {
    "postcode": "52385",
    "city": "Abenden"
  },
  {
    "postcode": "52385",
    "city": "Embken Kreis Düren"
  },
  {
    "postcode": "52385",
    "city": "Embken"
  },
  {
    "postcode": "52385",
    "city": "Muldenau"
  },
  {
    "postcode": "52385",
    "city": "Nideggen"
  },
  {
    "postcode": "52385",
    "city": "Rath"
  },
  {
    "postcode": "52385",
    "city": "Schmidt Eifel"
  },
  {
    "postcode": "52385",
    "city": "Schmidt"
  },
  {
    "postcode": "52385",
    "city": "Wollersheim"
  },
  {
    "postcode": "52385",
    "city": "Düren"
  },
  {
    "postcode": "52385",
    "city": "Berg"
  },
  {
    "postcode": "52385",
    "city": "Brück"
  },
  {
    "postcode": "52388",
    "city": "Binsfeld Kreis Düren"
  },
  {
    "postcode": "52388",
    "city": "Binsfeld"
  },
  {
    "postcode": "52388",
    "city": "Dorweiler Rheinland"
  },
  {
    "postcode": "52388",
    "city": "Dorweiler"
  },
  {
    "postcode": "52388",
    "city": "Eggersheim"
  },
  {
    "postcode": "52388",
    "city": "Eschweiler über Feld"
  },
  {
    "postcode": "52388",
    "city": "Frauwüllesheim"
  },
  {
    "postcode": "52388",
    "city": "Hochkirchen"
  },
  {
    "postcode": "52388",
    "city": "Irresheim"
  },
  {
    "postcode": "52388",
    "city": "Nörvenich"
  },
  {
    "postcode": "52388",
    "city": "Oberbolheim"
  },
  {
    "postcode": "52388",
    "city": "Pingsheim"
  },
  {
    "postcode": "52388",
    "city": "Poll"
  },
  {
    "postcode": "52388",
    "city": "Rath bei Nörvenich"
  },
  {
    "postcode": "52388",
    "city": "Rommelsheim"
  },
  {
    "postcode": "52388",
    "city": "Wissersheim"
  },
  {
    "postcode": "52388",
    "city": "Düren"
  },
  {
    "postcode": "52388",
    "city": "Rath"
  },
  {
    "postcode": "52391",
    "city": "Disternich"
  },
  {
    "postcode": "52391",
    "city": "Froitzheim"
  },
  {
    "postcode": "52391",
    "city": "Ginnick"
  },
  {
    "postcode": "52391",
    "city": "Gladbach Kreis Düren"
  },
  {
    "postcode": "52391",
    "city": "Gladbach"
  },
  {
    "postcode": "52391",
    "city": "Jakobwüllesheim"
  },
  {
    "postcode": "52391",
    "city": "Kelz"
  },
  {
    "postcode": "52391",
    "city": "Lüxheim"
  },
  {
    "postcode": "52391",
    "city": "Müddersheim"
  },
  {
    "postcode": "52391",
    "city": "Sievernich"
  },
  {
    "postcode": "52391",
    "city": "Soller Kreis Düren"
  },
  {
    "postcode": "52391",
    "city": "Soller"
  },
  {
    "postcode": "52391",
    "city": "Vettweiß"
  },
  {
    "postcode": "52391",
    "city": "Düren"
  },
  {
    "postcode": "52391",
    "city": "Frangenheim"
  },
  {
    "postcode": "52393",
    "city": "Bergstein"
  },
  {
    "postcode": "52393",
    "city": "Brandenberg Kreis Düren"
  },
  {
    "postcode": "52393",
    "city": "Brandenberg"
  },
  {
    "postcode": "52393",
    "city": "Gey"
  },
  {
    "postcode": "52393",
    "city": "Großhau"
  },
  {
    "postcode": "52393",
    "city": "Horm"
  },
  {
    "postcode": "52393",
    "city": "Hürtgen"
  },
  {
    "postcode": "52393",
    "city": "Hürtgenwald"
  },
  {
    "postcode": "52393",
    "city": "Kleinhau"
  },
  {
    "postcode": "52393",
    "city": "Simonskall"
  },
  {
    "postcode": "52393",
    "city": "Straß"
  },
  {
    "postcode": "52393",
    "city": "Vossenack"
  },
  {
    "postcode": "52393",
    "city": "Zerkall"
  },
  {
    "postcode": "52393",
    "city": "Düren"
  },
  {
    "postcode": "52393",
    "city": "Raffelsbrand"
  },
  {
    "postcode": "52393",
    "city": "Schafberg"
  },
  {
    "postcode": "52396",
    "city": "Blens"
  },
  {
    "postcode": "52396",
    "city": "Düttling"
  },
  {
    "postcode": "52396",
    "city": "Hasenfeld"
  },
  {
    "postcode": "52396",
    "city": "Hausen bei Düren"
  },
  {
    "postcode": "52396",
    "city": "Heimbach"
  },
  {
    "postcode": "52396",
    "city": "Heimbach Eifel"
  },
  {
    "postcode": "52396",
    "city": "Hergarten"
  },
  {
    "postcode": "52396",
    "city": "Vlatten"
  },
  {
    "postcode": "52396",
    "city": "Düren"
  },
  {
    "postcode": "52396",
    "city": "Hausen"
  },
  {
    "postcode": "52399",
    "city": "Girbelsrath"
  },
  {
    "postcode": "52399",
    "city": "Golzheim"
  },
  {
    "postcode": "52399",
    "city": "Merzenich"
  },
  {
    "postcode": "52399",
    "city": "Merzenich Kreis Düren"
  },
  {
    "postcode": "52399",
    "city": "Morschenich"
  },
  {
    "postcode": "52399",
    "city": "Düren"
  },
  {
    "postcode": "52428",
    "city": "Altenburg bei Jülich"
  },
  {
    "postcode": "52428",
    "city": "Barmen Kreis Jülich"
  },
  {
    "postcode": "52428",
    "city": "Barmen"
  },
  {
    "postcode": "52428",
    "city": "Bourheim"
  },
  {
    "postcode": "52428",
    "city": "Daubenrath"
  },
  {
    "postcode": "52428",
    "city": "Güsten Rheinland"
  },
  {
    "postcode": "52428",
    "city": "Güsten"
  },
  {
    "postcode": "52428",
    "city": "Jülich"
  },
  {
    "postcode": "52428",
    "city": "Kirchberg Kreis Jülich"
  },
  {
    "postcode": "52428",
    "city": "Kirchberg"
  },
  {
    "postcode": "52428",
    "city": "Koslar Kreis Jülich"
  },
  {
    "postcode": "52428",
    "city": "Koslar"
  },
  {
    "postcode": "52428",
    "city": "Mersch"
  },
  {
    "postcode": "52428",
    "city": "Merzenhausen"
  },
  {
    "postcode": "52428",
    "city": "Pattern"
  },
  {
    "postcode": "52428",
    "city": "Selgersdorf"
  },
  {
    "postcode": "52428",
    "city": "Serrest"
  },
  {
    "postcode": "52428",
    "city": "Stetternich"
  },
  {
    "postcode": "52428",
    "city": "Welldorf"
  },
  {
    "postcode": "52428",
    "city": "Düren"
  },
  {
    "postcode": "52428",
    "city": "Broich"
  },
  {
    "postcode": "52428",
    "city": "Altenburg"
  },
  {
    "postcode": "52428",
    "city": "Lich-Steinstraß"
  },
  {
    "postcode": "52441",
    "city": "Boslar"
  },
  {
    "postcode": "52441",
    "city": "Ederen"
  },
  {
    "postcode": "52441",
    "city": "Floßdorf"
  },
  {
    "postcode": "52441",
    "city": "Gereonsweiler"
  },
  {
    "postcode": "52441",
    "city": "Gevenich Kreis Jülich"
  },
  {
    "postcode": "52441",
    "city": "Gevenich"
  },
  {
    "postcode": "52441",
    "city": "Glimbach"
  },
  {
    "postcode": "52441",
    "city": "Hottorf"
  },
  {
    "postcode": "52441",
    "city": "Kiffelberg"
  },
  {
    "postcode": "52441",
    "city": "Kofferen"
  },
  {
    "postcode": "52441",
    "city": "Körrenzig"
  },
  {
    "postcode": "52441",
    "city": "Linnich"
  },
  {
    "postcode": "52441",
    "city": "Rurdorf"
  },
  {
    "postcode": "52441",
    "city": "Tetz"
  },
  {
    "postcode": "52441",
    "city": "Welz"
  },
  {
    "postcode": "52441",
    "city": "Düren"
  },
  {
    "postcode": "52445",
    "city": "Ameln Rheinland"
  },
  {
    "postcode": "52445",
    "city": "Ameln"
  },
  {
    "postcode": "52445",
    "city": "Bettenhoven"
  },
  {
    "postcode": "52445",
    "city": "Gevelsdorf"
  },
  {
    "postcode": "52445",
    "city": "Hasselsweiler"
  },
  {
    "postcode": "52445",
    "city": "Höllen"
  },
  {
    "postcode": "52445",
    "city": "Hompesch"
  },
  {
    "postcode": "52445",
    "city": "Jackerath"
  },
  {
    "postcode": "52445",
    "city": "Kalrath"
  },
  {
    "postcode": "52445",
    "city": "Mündt"
  },
  {
    "postcode": "52445",
    "city": "Müntz"
  },
  {
    "postcode": "52445",
    "city": "Opherten"
  },
  {
    "postcode": "52445",
    "city": "Ralshoven"
  },
  {
    "postcode": "52445",
    "city": "Rödingen Kreis Jülich"
  },
  {
    "postcode": "52445",
    "city": "Rödingen"
  },
  {
    "postcode": "52445",
    "city": "Sevenich"
  },
  {
    "postcode": "52445",
    "city": "Spiel"
  },
  {
    "postcode": "52445",
    "city": "Titz"
  },
  {
    "postcode": "52445",
    "city": "Düren"
  },
  {
    "postcode": "52457",
    "city": "Aldenhoven"
  },
  {
    "postcode": "52457",
    "city": "Aldenhoven bei Jülich"
  },
  {
    "postcode": "52457",
    "city": "Dürboslar"
  },
  {
    "postcode": "52457",
    "city": "Engelsdorf Kreis Jülich"
  },
  {
    "postcode": "52457",
    "city": "Engelsdorf"
  },
  {
    "postcode": "52457",
    "city": "Freialdenhoven"
  },
  {
    "postcode": "52457",
    "city": "Niedermerz"
  },
  {
    "postcode": "52457",
    "city": "Schleiden Kreis Jülich"
  },
  {
    "postcode": "52457",
    "city": "Schleiden"
  },
  {
    "postcode": "52457",
    "city": "Siersdorf"
  },
  {
    "postcode": "52457",
    "city": "Düren"
  },
  {
    "postcode": "52459",
    "city": "Altdorf Kreis Jülich"
  },
  {
    "postcode": "52459",
    "city": "Altdorf"
  },
  {
    "postcode": "52459",
    "city": "Inden"
  },
  {
    "postcode": "52459",
    "city": "Inden bei Jülich"
  },
  {
    "postcode": "52459",
    "city": "Lamersdorf Kreis Düren"
  },
  {
    "postcode": "52459",
    "city": "Lamersdorf"
  },
  {
    "postcode": "52459",
    "city": "Lucherberg"
  },
  {
    "postcode": "52459",
    "city": "Pier"
  },
  {
    "postcode": "52459",
    "city": "Schophoven"
  },
  {
    "postcode": "52459",
    "city": "Düren"
  },
  {
    "postcode": "52459",
    "city": "Inden/Altdorf"
  },
  {
    "postcode": "52459",
    "city": "Frenz"
  },
  {
    "postcode": "52477",
    "city": "Alsdorf"
  },
  {
    "postcode": "52477",
    "city": "Alsdorf Rheinland"
  },
  {
    "postcode": "52477",
    "city": "Begau Siedlung"
  },
  {
    "postcode": "52477",
    "city": "Begau"
  },
  {
    "postcode": "52477",
    "city": "Bettendorf Rheinland"
  },
  {
    "postcode": "52477",
    "city": "Bettendorf"
  },
  {
    "postcode": "52477",
    "city": "Busch Siedlung"
  },
  {
    "postcode": "52477",
    "city": "Busch"
  },
  {
    "postcode": "52477",
    "city": "Duffesheide"
  },
  {
    "postcode": "52477",
    "city": "Hoengen bei Alsdorf Rheinland"
  },
  {
    "postcode": "52477",
    "city": "Hoengen bei Alsdorf"
  },
  {
    "postcode": "52477",
    "city": "Kellersberg Rheinland"
  },
  {
    "postcode": "52477",
    "city": "Kellersberg"
  },
  {
    "postcode": "52477",
    "city": "Mariadorf bei Alsdorf Rheinland"
  },
  {
    "postcode": "52477",
    "city": "Mariadorf bei Alsdorf"
  },
  {
    "postcode": "52477",
    "city": "Ofden"
  },
  {
    "postcode": "52477",
    "city": "Schaufenberg Rheinland"
  },
  {
    "postcode": "52477",
    "city": "Schaufenberg"
  },
  {
    "postcode": "52477",
    "city": "Schleibach Rheinland"
  },
  {
    "postcode": "52477",
    "city": "Schleibach"
  },
  {
    "postcode": "52477",
    "city": "Warden bei Alsdorf Rheinland"
  },
  {
    "postcode": "52477",
    "city": "Warden bei Alsdorf"
  },
  {
    "postcode": "52477",
    "city": "Zopp Siedlung"
  },
  {
    "postcode": "52477",
    "city": "Zopp"
  },
  {
    "postcode": "52477",
    "city": "Aachen"
  },
  {
    "postcode": "52477",
    "city": "Hoengen"
  },
  {
    "postcode": "52477",
    "city": "Mariadorf"
  },
  {
    "postcode": "52477",
    "city": "Blumenrath"
  },
  {
    "postcode": "52477",
    "city": "Ost"
  },
  {
    "postcode": "52477",
    "city": "Warden"
  },
  {
    "postcode": "52477",
    "city": "Broicher Siedlung"
  },
  {
    "postcode": "52477",
    "city": "Neuweiler"
  },
  {
    "postcode": "52499",
    "city": "Baesweiler"
  },
  {
    "postcode": "52499",
    "city": "Beggendorf Rheinland"
  },
  {
    "postcode": "52499",
    "city": "Beggendorf"
  },
  {
    "postcode": "52499",
    "city": "Floverich"
  },
  {
    "postcode": "52499",
    "city": "Loverich"
  },
  {
    "postcode": "52499",
    "city": "Oidtweiler"
  },
  {
    "postcode": "52499",
    "city": "Puffendorf"
  },
  {
    "postcode": "52499",
    "city": "Setterich"
  },
  {
    "postcode": "52499",
    "city": "Aachen"
  },
  {
    "postcode": "52511",
    "city": "Apweiler Selfkantkreis"
  },
  {
    "postcode": "52511",
    "city": "Apweiler"
  },
  {
    "postcode": "52511",
    "city": "Bauchem"
  },
  {
    "postcode": "52511",
    "city": "Beeck Selfkantkreis"
  },
  {
    "postcode": "52511",
    "city": "Beeck"
  },
  {
    "postcode": "52511",
    "city": "Bocket"
  },
  {
    "postcode": "52511",
    "city": "Flahstraß Selfkantkreis"
  },
  {
    "postcode": "52511",
    "city": "Flahstraß"
  },
  {
    "postcode": "52511",
    "city": "Geilenkirchen"
  },
  {
    "postcode": "52511",
    "city": "Gillrath"
  },
  {
    "postcode": "52511",
    "city": "Grotenrath"
  },
  {
    "postcode": "52511",
    "city": "Hatterath"
  },
  {
    "postcode": "52511",
    "city": "Hochheid"
  },
  {
    "postcode": "52511",
    "city": "Honsdorf Selfkantkreis"
  },
  {
    "postcode": "52511",
    "city": "Honsdorf"
  },
  {
    "postcode": "52511",
    "city": "Hünshoven"
  },
  {
    "postcode": "52511",
    "city": "Immendorf Selfkantkreis"
  },
  {
    "postcode": "52511",
    "city": "Immendorf"
  },
  {
    "postcode": "52511",
    "city": "Kraudorf"
  },
  {
    "postcode": "52511",
    "city": "Leiffarth Selfkantkreis"
  },
  {
    "postcode": "52511",
    "city": "Leiffarth"
  },
  {
    "postcode": "52511",
    "city": "Lindern Rheinland"
  },
  {
    "postcode": "52511",
    "city": "Lindern"
  },
  {
    "postcode": "52511",
    "city": "Loherhof Gut"
  },
  {
    "postcode": "52511",
    "city": "Loherhof"
  },
  {
    "postcode": "52511",
    "city": "Müllendorf Selfkantkreis"
  },
  {
    "postcode": "52511",
    "city": "Müllendorf"
  },
  {
    "postcode": "52511",
    "city": "Niederheid"
  },
  {
    "postcode": "52511",
    "city": "Nierstraß"
  },
  {
    "postcode": "52511",
    "city": "Nirm"
  },
  {
    "postcode": "52511",
    "city": "Prummern"
  },
  {
    "postcode": "52511",
    "city": "Rischden"
  },
  {
    "postcode": "52511",
    "city": "Süggerath"
  },
  {
    "postcode": "52511",
    "city": "Teveren"
  },
  {
    "postcode": "52511",
    "city": "Tripsrath"
  },
  {
    "postcode": "52511",
    "city": "Waurichen Selfkantkreis"
  },
  {
    "postcode": "52511",
    "city": "Waurichen"
  },
  {
    "postcode": "52511",
    "city": "Würm Selfkantkreis"
  },
  {
    "postcode": "52511",
    "city": "Würm"
  },
  {
    "postcode": "52511",
    "city": "Heinsberg"
  },
  {
    "postcode": "52511",
    "city": "Hoven"
  },
  {
    "postcode": "52511",
    "city": "Kogenbroich"
  },
  {
    "postcode": "52511",
    "city": "Panneschopp"
  },
  {
    "postcode": "52525",
    "city": "Aphoven / Laffeld"
  },
  {
    "postcode": "52525",
    "city": "Aphoven"
  },
  {
    "postcode": "52525",
    "city": "Bocket Selfkantkreis"
  },
  {
    "postcode": "52525",
    "city": "Bocket"
  },
  {
    "postcode": "52525",
    "city": "Braunsrath"
  },
  {
    "postcode": "52525",
    "city": "Brüggelchen"
  },
  {
    "postcode": "52525",
    "city": "Dorath Rheinland"
  },
  {
    "postcode": "52525",
    "city": "Dorath"
  },
  {
    "postcode": "52525",
    "city": "Dremmen"
  },
  {
    "postcode": "52525",
    "city": "Erpen Rheinland"
  },
  {
    "postcode": "52525",
    "city": "Erpen"
  },
  {
    "postcode": "52525",
    "city": "Frilinghoven Selfkantkreis"
  },
  {
    "postcode": "52525",
    "city": "Frilinghoven"
  },
  {
    "postcode": "52525",
    "city": "Haaren"
  },
  {
    "postcode": "52525",
    "city": "Heinsberg"
  },
  {
    "postcode": "52525",
    "city": "Heinsberg Rheinland"
  },
  {
    "postcode": "52525",
    "city": "Hontem"
  },
  {
    "postcode": "52525",
    "city": "Karken"
  },
  {
    "postcode": "52525",
    "city": "Kempen Selfkantkreis"
  },
  {
    "postcode": "52525",
    "city": "Kempen"
  },
  {
    "postcode": "52525",
    "city": "Kirchhoven Selfkantkreis"
  },
  {
    "postcode": "52525",
    "city": "Kirchhoven"
  },
  {
    "postcode": "52525",
    "city": "Lieck Selfkantkreis"
  },
  {
    "postcode": "52525",
    "city": "Lieck"
  },
  {
    "postcode": "52525",
    "city": "Löcken"
  },
  {
    "postcode": "52525",
    "city": "Oberbruch Rheinland"
  },
  {
    "postcode": "52525",
    "city": "Oberbruch"
  },
  {
    "postcode": "52525",
    "city": "Obspringen"
  },
  {
    "postcode": "52525",
    "city": "Porselen / Horst"
  },
  {
    "postcode": "52525",
    "city": "Porselen"
  },
  {
    "postcode": "52525",
    "city": "Randerath / Uetterath"
  },
  {
    "postcode": "52525",
    "city": "Randerath"
  },
  {
    "postcode": "52525",
    "city": "Schafhausen Rheinland"
  },
  {
    "postcode": "52525",
    "city": "Schafhausen"
  },
  {
    "postcode": "52525",
    "city": "Schleiden Rheinland"
  },
  {
    "postcode": "52525",
    "city": "Schleiden"
  },
  {
    "postcode": "52525",
    "city": "Schöndorf"
  },
  {
    "postcode": "52525",
    "city": "Selsten"
  },
  {
    "postcode": "52525",
    "city": "Straeten"
  },
  {
    "postcode": "52525",
    "city": "Uetterath"
  },
  {
    "postcode": "52525",
    "city": "Unterbruch"
  },
  {
    "postcode": "52525",
    "city": "Waldenrath"
  },
  {
    "postcode": "52525",
    "city": "Waldfeucht"
  },
  {
    "postcode": "52525",
    "city": "Aphoven/Laffeld"
  },
  {
    "postcode": "52525",
    "city": "Randerath/Uetterath"
  },
  {
    "postcode": "52525",
    "city": "Porselen/Horst"
  },
  {
    "postcode": "52525",
    "city": "Vinn"
  },
  {
    "postcode": "52525",
    "city": "Theberath"
  },
  {
    "postcode": "52525",
    "city": "Floitgraf"
  },
  {
    "postcode": "52525",
    "city": "Laffeld"
  },
  {
    "postcode": "52531",
    "city": "Boscheln"
  },
  {
    "postcode": "52531",
    "city": "Frelenberg"
  },
  {
    "postcode": "52531",
    "city": "Marienberg"
  },
  {
    "postcode": "52531",
    "city": "Rimburg"
  },
  {
    "postcode": "52531",
    "city": "Scherpenseel"
  },
  {
    "postcode": "52531",
    "city": "Siepenbusch"
  },
  {
    "postcode": "52531",
    "city": "Übach-Palenberg"
  },
  {
    "postcode": "52531",
    "city": "Windhausen"
  },
  {
    "postcode": "52531",
    "city": "Zweibrüggen"
  },
  {
    "postcode": "52531",
    "city": "Heinsberg"
  },
  {
    "postcode": "52531",
    "city": "Palenberg"
  },
  {
    "postcode": "52531",
    "city": "Übach"
  },
  {
    "postcode": "52531",
    "city": "Holthausen"
  },
  {
    "postcode": "52538",
    "city": "Birgden"
  },
  {
    "postcode": "52538",
    "city": "Breberen"
  },
  {
    "postcode": "52538",
    "city": "Broichhoven"
  },
  {
    "postcode": "52538",
    "city": "Brüxgen"
  },
  {
    "postcode": "52538",
    "city": "Buscherheide"
  },
  {
    "postcode": "52538",
    "city": "Gangelt"
  },
  {
    "postcode": "52538",
    "city": "Harzelt"
  },
  {
    "postcode": "52538",
    "city": "Hastenrath"
  },
  {
    "postcode": "52538",
    "city": "Havert"
  },
  {
    "postcode": "52538",
    "city": "Hillensberg"
  },
  {
    "postcode": "52538",
    "city": "Höngen Selfkantkreis"
  },
  {
    "postcode": "52538",
    "city": "Höngen"
  },
  {
    "postcode": "52538",
    "city": "Isenbruch"
  },
  {
    "postcode": "52538",
    "city": "Kievelberg"
  },
  {
    "postcode": "52538",
    "city": "Kreuzrath"
  },
  {
    "postcode": "52538",
    "city": "Langbroich"
  },
  {
    "postcode": "52538",
    "city": "Nachbarheid"
  },
  {
    "postcode": "52538",
    "city": "Niederbusch Selfkantkreis"
  },
  {
    "postcode": "52538",
    "city": "Niederbusch"
  },
  {
    "postcode": "52538",
    "city": "Saeffelen"
  },
  {
    "postcode": "52538",
    "city": "Schalbruch"
  },
  {
    "postcode": "52538",
    "city": "Schierwaldenrath"
  },
  {
    "postcode": "52538",
    "city": "Schümm"
  },
  {
    "postcode": "52538",
    "city": "Selfkant"
  },
  {
    "postcode": "52538",
    "city": "Stahe Selfkantkreis"
  },
  {
    "postcode": "52538",
    "city": "Stahe"
  },
  {
    "postcode": "52538",
    "city": "Süsterseel"
  },
  {
    "postcode": "52538",
    "city": "Tüddern"
  },
  {
    "postcode": "52538",
    "city": "Wehr Selfkantkreis"
  },
  {
    "postcode": "52538",
    "city": "Wehr"
  },
  {
    "postcode": "52538",
    "city": "Heinsberg"
  },
  {
    "postcode": "52538",
    "city": "Mindergangelt"
  },
  {
    "postcode": "52538",
    "city": "Hohenbusch"
  },
  {
    "postcode": "52538",
    "city": "Vinteln"
  },
  {
    "postcode": "52538",
    "city": "Heilder"
  },
  {
    "postcode": "52538",
    "city": "Millen-Bruch"
  },
  {
    "postcode": "52538",
    "city": "Stein"
  },
  {
    "postcode": "52538",
    "city": "Dieck"
  },
  {
    "postcode": "52538",
    "city": "Millen"
  },
  {
    "postcode": "52538",
    "city": "Großwehrhagen"
  },
  {
    "postcode": "52538",
    "city": "Kleinwehrhagen"
  }
]