[
  {
    "postcode": "9600",
    "city": "Niederschöna"
  },
  {
    "postcode": "9600",
    "city": "Oberschöna"
  },
  {
    "postcode": "9600",
    "city": "Weißenborn / Erzgebirge"
  },
  {
    "postcode": "9600",
    "city": "Weißenborn"
  },
  {
    "postcode": "9600",
    "city": "Mittelsachsen"
  },
  {
    "postcode": "9600",
    "city": "Weißenborn/Erzgeb."
  },
  {
    "postcode": "9600",
    "city": "Wegefarth"
  },
  {
    "postcode": "9600",
    "city": "Bräunsdorf"
  },
  {
    "postcode": "9600",
    "city": "Langhennersdorf"
  },
  {
    "postcode": "9600",
    "city": "Kleinschirma"
  },
  {
    "postcode": "9600",
    "city": "Berthelsdorf"
  },
  {
    "postcode": "9603",
    "city": "Großschirma"
  },
  {
    "postcode": "9603",
    "city": "Siebenlehn"
  },
  {
    "postcode": "9603",
    "city": "Mittelsachsen"
  },
  {
    "postcode": "9603",
    "city": "Reichenbach"
  },
  {
    "postcode": "9603",
    "city": "Obergruna"
  },
  {
    "postcode": "9603",
    "city": "Seifersdorf"
  },
  {
    "postcode": "9603",
    "city": "Kleinvoigtsberg"
  },
  {
    "postcode": "9603",
    "city": "Großvoigtsberg"
  },
  {
    "postcode": "9603",
    "city": "Hohentanne"
  },
  {
    "postcode": "9603",
    "city": "Rothenfurth"
  },
  {
    "postcode": "9618",
    "city": "Brand-Erbisdorf"
  },
  {
    "postcode": "9618",
    "city": "Großhartmannsdorf"
  },
  {
    "postcode": "9618",
    "city": "Mittelsachsen"
  },
  {
    "postcode": "9618",
    "city": "Langenau"
  },
  {
    "postcode": "9618",
    "city": "Gränitz"
  },
  {
    "postcode": "9618",
    "city": "Himmelsfürst"
  },
  {
    "postcode": "9618",
    "city": "Oberreichenbach"
  },
  {
    "postcode": "9618",
    "city": "St. Michaelis"
  },
  {
    "postcode": "9618",
    "city": "Linda"
  },
  {
    "postcode": "9618",
    "city": "Obersaida"
  },
  {
    "postcode": "9618",
    "city": "Mittelsaida"
  },
  {
    "postcode": "9618",
    "city": "Niedersaida"
  },
  {
    "postcode": "9619",
    "city": "Dorfchemnitz bei Sayda"
  },
  {
    "postcode": "9619",
    "city": "Mulda / Sachsen"
  },
  {
    "postcode": "9619",
    "city": "Mulda"
  },
  {
    "postcode": "9619",
    "city": "Sayda"
  },
  {
    "postcode": "9619",
    "city": "Wolfsgrund"
  },
  {
    "postcode": "9619",
    "city": "Mittelsachsen"
  },
  {
    "postcode": "9619",
    "city": "Dorfchemnitz"
  },
  {
    "postcode": "9619",
    "city": "Voigtsdorf"
  },
  {
    "postcode": "9619",
    "city": "Zethau"
  },
  {
    "postcode": "9619",
    "city": "Helbigsdorf"
  },
  {
    "postcode": "9619",
    "city": "Friedebach"
  },
  {
    "postcode": "9619",
    "city": "Ullersdorf"
  },
  {
    "postcode": "9623",
    "city": "Frauenstein Sachsen"
  },
  {
    "postcode": "9623",
    "city": "Frauenstein"
  },
  {
    "postcode": "9623",
    "city": "Rechenberg-Bienenmühle"
  },
  {
    "postcode": "9623",
    "city": "Mittelsachsen"
  },
  {
    "postcode": "9623",
    "city": "Burkersdorf"
  },
  {
    "postcode": "9623",
    "city": "Nassau"
  },
  {
    "postcode": "9623",
    "city": "Dittersbach"
  },
  {
    "postcode": "9623",
    "city": "Kleinbobritzsch"
  },
  {
    "postcode": "9623",
    "city": "Holzhau"
  },
  {
    "postcode": "9623",
    "city": "Clausnitz"
  },
  {
    "postcode": "9623",
    "city": "Neuclausnitz"
  },
  {
    "postcode": "9627",
    "city": "Bobritzsch"
  },
  {
    "postcode": "9627",
    "city": "Hilbersdorf bei Freiberg"
  },
  {
    "postcode": "9627",
    "city": "Mittelsachsen"
  },
  {
    "postcode": "9627",
    "city": "Bobritzsch-Hilbersdorf"
  },
  {
    "postcode": "9627",
    "city": "Hilbersdorf"
  },
  {
    "postcode": "9627",
    "city": "Naundorf"
  },
  {
    "postcode": "9627",
    "city": "Niederbobritzsch"
  },
  {
    "postcode": "9627",
    "city": "Oberbobritzsch"
  },
  {
    "postcode": "9627",
    "city": "Sohra"
  },
  {
    "postcode": "9629",
    "city": "Reinsberg bei Freiberg"
  },
  {
    "postcode": "9629",
    "city": "Mittelsachsen"
  },
  {
    "postcode": "9629",
    "city": "Bieberstein"
  },
  {
    "postcode": "9629",
    "city": "Burkersdorf Mulde"
  },
  {
    "postcode": "9629",
    "city": "Dittmannsdorf"
  },
  {
    "postcode": "9629",
    "city": "Drehfeld"
  },
  {
    "postcode": "9629",
    "city": "Neukirchen"
  },
  {
    "postcode": "9629",
    "city": "Reinsberg"
  },
  {
    "postcode": "9629",
    "city": "Steinbach"
  },
  {
    "postcode": "9629",
    "city": "Wilsdruff"
  },
  {
    "postcode": "9633",
    "city": "Halsbrücke"
  },
  {
    "postcode": "9633",
    "city": "Mittelsachsen"
  },
  {
    "postcode": "9633",
    "city": "Tuttendorf"
  },
  {
    "postcode": "9633",
    "city": "Krummenhennersdorf"
  },
  {
    "postcode": "9633",
    "city": "Conradsdorf"
  },
  {
    "postcode": "9633",
    "city": "Hetzdorf"
  },
  {
    "postcode": "9633",
    "city": "Niederschöna"
  },
  {
    "postcode": "9633",
    "city": "Oberschaar"
  },
  {
    "postcode": "9633",
    "city": "Falkenberg"
  },
  {
    "postcode": "9633",
    "city": "Erlicht"
  },
  {
    "postcode": "9633",
    "city": "Haida"
  },
  {
    "postcode": "9634",
    "city": "Großschirma"
  },
  {
    "postcode": "9634",
    "city": "Siebenlehn"
  },
  {
    "postcode": "9634",
    "city": "Mittelsachsen"
  },
  {
    "postcode": "9634",
    "city": "Hirschfeld"
  },
  {
    "postcode": "9634",
    "city": "Reinsberg"
  },
  {
    "postcode": "9638",
    "city": "Lichtenberg / Erzgebirge"
  },
  {
    "postcode": "9638",
    "city": "Lichtenberg"
  },
  {
    "postcode": "9638",
    "city": "Mittelsachsen"
  },
  {
    "postcode": "9638",
    "city": "Lichtenberg/Erzgeb."
  },
  {
    "postcode": "9638",
    "city": "Müdisdorf"
  },
  {
    "postcode": "9638",
    "city": "Weigmannsdorf"
  },
  {
    "postcode": "9648",
    "city": "Altmittweida"
  },
  {
    "postcode": "9648",
    "city": "Kriebstein"
  },
  {
    "postcode": "9648",
    "city": "Mittweida"
  },
  {
    "postcode": "9648",
    "city": "Mittelsachsen"
  },
  {
    "postcode": "9648",
    "city": "Erlau"
  },
  {
    "postcode": "9648",
    "city": "Grünlichtenberg"
  },
  {
    "postcode": "9648",
    "city": "Kriebethal"
  },
  {
    "postcode": "9648",
    "city": "Höfchen"
  },
  {
    "postcode": "9648",
    "city": "Ehrenberg"
  },
  {
    "postcode": "9648",
    "city": "Höckendorf"
  },
  {
    "postcode": "9648",
    "city": "Erlebach"
  },
  {
    "postcode": "9648",
    "city": "Reichenbach"
  },
  {
    "postcode": "9648",
    "city": "Lauenhain"
  },
  {
    "postcode": "9648",
    "city": "Ringethal"
  },
  {
    "postcode": "9648",
    "city": "Falkenhain"
  },
  {
    "postcode": "9648",
    "city": "Thalheim"
  },
  {
    "postcode": "9648",
    "city": "Tanneberg"
  },
  {
    "postcode": "9648",
    "city": "Frankenau"
  },
  {
    "postcode": "9661",
    "city": "Hainichen Sachsen"
  },
  {
    "postcode": "9661",
    "city": "Hainichen"
  },
  {
    "postcode": "9661",
    "city": "Rossau bei Mittweida"
  },
  {
    "postcode": "9661",
    "city": "Striegistal"
  },
  {
    "postcode": "9661",
    "city": "Tiefenbach Sachsen"
  },
  {
    "postcode": "9661",
    "city": "Tiefenbach"
  },
  {
    "postcode": "9661",
    "city": "Mittelsachsen"
  },
  {
    "postcode": "9661",
    "city": "Rossau"
  },
  {
    "postcode": "9661",
    "city": "Gersdorf"
  },
  {
    "postcode": "9661",
    "city": "Eulendorf"
  },
  {
    "postcode": "9661",
    "city": "Schlegel"
  },
  {
    "postcode": "9661",
    "city": "Cunnersdorf"
  },
  {
    "postcode": "9661",
    "city": "Bockendorf"
  },
  {
    "postcode": "9661",
    "city": "Falkenau"
  },
  {
    "postcode": "9661",
    "city": "Riechberg"
  },
  {
    "postcode": "9661",
    "city": "Siegfried"
  },
  {
    "postcode": "9661",
    "city": "Oberrossau"
  },
  {
    "postcode": "9661",
    "city": "Schönborn-Dreiwerden"
  },
  {
    "postcode": "9661",
    "city": "Weinsdorf"
  },
  {
    "postcode": "9661",
    "city": "Greifendorf"
  },
  {
    "postcode": "9661",
    "city": "Moosheim"
  },
  {
    "postcode": "9661",
    "city": "Seifersbach"
  },
  {
    "postcode": "9661",
    "city": "Niederrossau"
  },
  {
    "postcode": "9661",
    "city": "Hermsdorf"
  },
  {
    "postcode": "9661",
    "city": "Naundorf"
  },
  {
    "postcode": "9661",
    "city": "Böhrigen"
  },
  {
    "postcode": "9661",
    "city": "Arnsdorf"
  },
  {
    "postcode": "9661",
    "city": "Marbach"
  },
  {
    "postcode": "9661",
    "city": "Etzdorf"
  },
  {
    "postcode": "9661",
    "city": "Berbersdorf"
  },
  {
    "postcode": "9661",
    "city": "Schmalbach"
  },
  {
    "postcode": "9661",
    "city": "Pappendorf"
  },
  {
    "postcode": "9661",
    "city": "Dittersdorf"
  },
  {
    "postcode": "9661",
    "city": "Mobendorf"
  },
  {
    "postcode": "9661",
    "city": "Goßberg"
  },
  {
    "postcode": "9661",
    "city": "Kaltofen"
  },
  {
    "postcode": "9661",
    "city": "Kummersheim"
  },
  {
    "postcode": "9669",
    "city": "Frankenberg / Sachsen"
  },
  {
    "postcode": "9669",
    "city": "Frankenberg"
  },
  {
    "postcode": "9669",
    "city": "Mittelsachsen"
  },
  {
    "postcode": "9669",
    "city": "Frankenberg/Sa."
  },
  {
    "postcode": "9669",
    "city": "Altenhain"
  },
  {
    "postcode": "9669",
    "city": "Dittersbach"
  },
  {
    "postcode": "9669",
    "city": "Mühlbach"
  },
  {
    "postcode": "9669",
    "city": "Hausdorf"
  },
  {
    "postcode": "9669",
    "city": "Langenstriegis"
  },
  {
    "postcode": "9669",
    "city": "Sachsenburg"
  },
  {
    "postcode": "9669",
    "city": "Irbersdorf"
  },
  {
    "postcode": "96047",
    "city": "Bamberg"
  },
  {
    "postcode": "96047",
    "city": "Gaustadt"
  },
  {
    "postcode": "96049",
    "city": "Bamberg"
  },
  {
    "postcode": "96049",
    "city": "Bug Kreis Bamberg"
  },
  {
    "postcode": "96049",
    "city": "Bug"
  },
  {
    "postcode": "96049",
    "city": "Gaustadt"
  },
  {
    "postcode": "96049",
    "city": "Wildensorg"
  },
  {
    "postcode": "96050",
    "city": "Bamberg"
  },
  {
    "postcode": "96052",
    "city": "Bamberg"
  },
  {
    "postcode": "96052",
    "city": "Kramersfeld"
  },
  {
    "postcode": "96052",
    "city": "Hirschknock"
  },
  {
    "postcode": "96052",
    "city": "Gartenstadt"
  },
  {
    "postcode": "96103",
    "city": "Dörfleins"
  },
  {
    "postcode": "96103",
    "city": "Hallstadt"
  },
  {
    "postcode": "96103",
    "city": "Bamberg"
  },
  {
    "postcode": "96106",
    "city": "Albersdorf Unterfranken"
  },
  {
    "postcode": "96106",
    "city": "Albersdorf"
  },
  {
    "postcode": "96106",
    "city": "Bischwind am Raueneck"
  },
  {
    "postcode": "96106",
    "city": "Bramberg Unterfranken"
  },
  {
    "postcode": "96106",
    "city": "Bramberg"
  },
  {
    "postcode": "96106",
    "city": "Brünn Unterfranken"
  },
  {
    "postcode": "96106",
    "city": "Brünn"
  },
  {
    "postcode": "96106",
    "city": "Ebern"
  },
  {
    "postcode": "96106",
    "city": "Eichelberg Unterfranken"
  },
  {
    "postcode": "96106",
    "city": "Eichelberg"
  },
  {
    "postcode": "96106",
    "city": "Eyrichshof"
  },
  {
    "postcode": "96106",
    "city": "Fierst Unterfranken"
  },
  {
    "postcode": "96106",
    "city": "Fierst"
  },
  {
    "postcode": "96106",
    "city": "Fischbach"
  },
  {
    "postcode": "96106",
    "city": "Frickendorf Unterfranken"
  },
  {
    "postcode": "96106",
    "city": "Frickendorf"
  },
  {
    "postcode": "96106",
    "city": "Heubach Unterfranken"
  },
  {
    "postcode": "96106",
    "city": "Heubach"
  },
  {
    "postcode": "96106",
    "city": "Höchstädten"
  },
  {
    "postcode": "96106",
    "city": "Jesserndorf Unterfranken"
  },
  {
    "postcode": "96106",
    "city": "Jesserndorf"
  },
  {
    "postcode": "96106",
    "city": "Kurzewind"
  },
  {
    "postcode": "96106",
    "city": "Neuses am Raueneck"
  },
  {
    "postcode": "96106",
    "city": "Reutersbrunn Unterfranken"
  },
  {
    "postcode": "96106",
    "city": "Reutersbrunn"
  },
  {
    "postcode": "96106",
    "city": "Ruppach Unterfranken"
  },
  {
    "postcode": "96106",
    "city": "Ruppach"
  },
  {
    "postcode": "96106",
    "city": "Sandhof"
  },
  {
    "postcode": "96106",
    "city": "Siegelfeld"
  },
  {
    "postcode": "96106",
    "city": "Unterpreppach Unterfranken"
  },
  {
    "postcode": "96106",
    "city": "Unterpreppach"
  },
  {
    "postcode": "96106",
    "city": "Vorbach Unterfranken"
  },
  {
    "postcode": "96106",
    "city": "Vorbach"
  },
  {
    "postcode": "96106",
    "city": "Weißenbrunn"
  },
  {
    "postcode": "96106",
    "city": "Welkendorf"
  },
  {
    "postcode": "96106",
    "city": "Haßberge"
  },
  {
    "postcode": "96106",
    "city": "Bischwind a. Raueneck"
  },
  {
    "postcode": "96106",
    "city": "Papiermühle"
  },
  {
    "postcode": "96106",
    "city": "Neuses a. Raueneck"
  },
  {
    "postcode": "96106",
    "city": "Gemünd"
  },
  {
    "postcode": "96106",
    "city": "Gemünder Mühle"
  },
  {
    "postcode": "96106",
    "city": "Hetschingsmühle"
  },
  {
    "postcode": "96106",
    "city": "Lützelebern"
  },
  {
    "postcode": "96106",
    "city": "Ruppachsmühle"
  },
  {
    "postcode": "96106",
    "city": "Sachsenhof"
  },
  {
    "postcode": "96106",
    "city": "Specke"
  },
  {
    "postcode": "96106",
    "city": "Straßenhof"
  },
  {
    "postcode": "96110",
    "city": "Burgellern"
  },
  {
    "postcode": "96110",
    "city": "Burglesau"
  },
  {
    "postcode": "96110",
    "city": "Demmelsdorf"
  },
  {
    "postcode": "96110",
    "city": "Dörrnwasserlos"
  },
  {
    "postcode": "96110",
    "city": "Doschendorf"
  },
  {
    "postcode": "96110",
    "city": "Ehrl"
  },
  {
    "postcode": "96110",
    "city": "Köttensdorf"
  },
  {
    "postcode": "96110",
    "city": "Kübelstein Oberfranken"
  },
  {
    "postcode": "96110",
    "city": "Kübelstein"
  },
  {
    "postcode": "96110",
    "city": "Ludwag Oberfranken"
  },
  {
    "postcode": "96110",
    "city": "Ludwag"
  },
  {
    "postcode": "96110",
    "city": "Neudorf bei Scheßlitz"
  },
  {
    "postcode": "96110",
    "city": "Pausdorf"
  },
  {
    "postcode": "96110",
    "city": "Peulendorf"
  },
  {
    "postcode": "96110",
    "city": "Pünzendorf"
  },
  {
    "postcode": "96110",
    "city": "Roschlaub"
  },
  {
    "postcode": "96110",
    "city": "Roßdach"
  },
  {
    "postcode": "96110",
    "city": "Scheßlitz"
  },
  {
    "postcode": "96110",
    "city": "Schlappenreuth"
  },
  {
    "postcode": "96110",
    "city": "Schweisdorf"
  },
  {
    "postcode": "96110",
    "city": "Starkenschwind"
  },
  {
    "postcode": "96110",
    "city": "Straßgiech"
  },
  {
    "postcode": "96110",
    "city": "Stübig"
  },
  {
    "postcode": "96110",
    "city": "Weichenwasserlos"
  },
  {
    "postcode": "96110",
    "city": "Weingarten"
  },
  {
    "postcode": "96110",
    "city": "Wiesengiech"
  },
  {
    "postcode": "96110",
    "city": "Windischletten"
  },
  {
    "postcode": "96110",
    "city": "Würgau"
  },
  {
    "postcode": "96110",
    "city": "Zeckendorf"
  },
  {
    "postcode": "96110",
    "city": "Bamberg"
  },
  {
    "postcode": "96110",
    "city": "Giechburg"
  },
  {
    "postcode": "96110",
    "city": "Gügel"
  },
  {
    "postcode": "96110",
    "city": "Neudorf"
  },
  {
    "postcode": "96110",
    "city": "Schrautershof"
  },
  {
    "postcode": "96114",
    "city": "Erlach"
  },
  {
    "postcode": "96114",
    "city": "Friesen Kreis Bamberg"
  },
  {
    "postcode": "96114",
    "city": "Friesen"
  },
  {
    "postcode": "96114",
    "city": "Großbuchfeld"
  },
  {
    "postcode": "96114",
    "city": "Hirschaid"
  },
  {
    "postcode": "96114",
    "city": "Juliushof"
  },
  {
    "postcode": "96114",
    "city": "Kleinbuchfeld"
  },
  {
    "postcode": "96114",
    "city": "Köttmannsdorf"
  },
  {
    "postcode": "96114",
    "city": "Röbersdorf"
  },
  {
    "postcode": "96114",
    "city": "Rothensand"
  },
  {
    "postcode": "96114",
    "city": "Sassanfahrt"
  },
  {
    "postcode": "96114",
    "city": "Seigendorf"
  },
  {
    "postcode": "96114",
    "city": "Bamberg"
  },
  {
    "postcode": "96117",
    "city": "Drosendorf Kreis Bamberg"
  },
  {
    "postcode": "96117",
    "city": "Drosendorf"
  },
  {
    "postcode": "96117",
    "city": "Kremmeldorf"
  },
  {
    "postcode": "96117",
    "city": "Laubend"
  },
  {
    "postcode": "96117",
    "city": "Lichteneiche bei Bamberg"
  },
  {
    "postcode": "96117",
    "city": "Meedensdorf"
  },
  {
    "postcode": "96117",
    "city": "Memmelsdorf"
  },
  {
    "postcode": "96117",
    "city": "Merkendorf"
  },
  {
    "postcode": "96117",
    "city": "Schmerldorf"
  },
  {
    "postcode": "96117",
    "city": "Weichendorf"
  },
  {
    "postcode": "96117",
    "city": "Bamberg"
  },
  {
    "postcode": "96117",
    "city": "Lichteneiche"
  },
  {
    "postcode": "96120",
    "city": "Bischberg"
  },
  {
    "postcode": "96120",
    "city": "Bischberg Oberfranken"
  },
  {
    "postcode": "96120",
    "city": "Trosdorf"
  },
  {
    "postcode": "96120",
    "city": "Tütschengereuth"
  },
  {
    "postcode": "96120",
    "city": "Weipelsdorf"
  },
  {
    "postcode": "96120",
    "city": "Bamberg"
  },
  {
    "postcode": "96120",
    "city": "Rothof"
  },
  {
    "postcode": "96123",
    "city": "Litzendorf"
  },
  {
    "postcode": "96123",
    "city": "Lohndorf Kreis Bamberg"
  },
  {
    "postcode": "96123",
    "city": "Lohndorf"
  },
  {
    "postcode": "96123",
    "city": "Melkendorf Kreis Bamberg"
  },
  {
    "postcode": "96123",
    "city": "Melkendorf"
  },
  {
    "postcode": "96123",
    "city": "Naisa Kreis Bamberg"
  },
  {
    "postcode": "96123",
    "city": "Naisa"
  },
  {
    "postcode": "96123",
    "city": "Pödeldorf Kreis Bamberg"
  },
  {
    "postcode": "96123",
    "city": "Pödeldorf"
  },
  {
    "postcode": "96123",
    "city": "Schammelsdorf Kreis Bamberg"
  },
  {
    "postcode": "96123",
    "city": "Schammelsdorf"
  },
  {
    "postcode": "96123",
    "city": "Tiefenellern Kreis Bamberg"
  },
  {
    "postcode": "96123",
    "city": "Tiefenellern"
  },
  {
    "postcode": "96123",
    "city": "Bamberg"
  },
  {
    "postcode": "96126",
    "city": "Allertshausen Unterfranken"
  },
  {
    "postcode": "96126",
    "city": "Allertshausen"
  },
  {
    "postcode": "96126",
    "city": "Altenstein"
  },
  {
    "postcode": "96126",
    "city": "Birkenfeld Haßberge"
  },
  {
    "postcode": "96126",
    "city": "Birkenfeld"
  },
  {
    "postcode": "96126",
    "city": "Dippach"
  },
  {
    "postcode": "96126",
    "city": "Ditterswind"
  },
  {
    "postcode": "96126",
    "city": "Dürrenried Unterfranken"
  },
  {
    "postcode": "96126",
    "city": "Dürrenried"
  },
  {
    "postcode": "96126",
    "city": "Eckartshausen Unterfranken"
  },
  {
    "postcode": "96126",
    "city": "Eckartshausen"
  },
  {
    "postcode": "96126",
    "city": "Ermershausen Unterfranken"
  },
  {
    "postcode": "96126",
    "city": "Ermershausen"
  },
  {
    "postcode": "96126",
    "city": "Geroldswind"
  },
  {
    "postcode": "96126",
    "city": "Gresselgrund"
  },
  {
    "postcode": "96126",
    "city": "Gückelhirn"
  },
  {
    "postcode": "96126",
    "city": "Hafenpreppach Unterfranken"
  },
  {
    "postcode": "96126",
    "city": "Hafenpreppach"
  },
  {
    "postcode": "96126",
    "city": "Marbach"
  },
  {
    "postcode": "96126",
    "city": "Maroldsweisach"
  },
  {
    "postcode": "96126",
    "city": "Pfaffendorf Unterfranken"
  },
  {
    "postcode": "96126",
    "city": "Pfaffendorf"
  },
  {
    "postcode": "96126",
    "city": "Voccawind"
  },
  {
    "postcode": "96126",
    "city": "Wasmuthhausen Unterfranken"
  },
  {
    "postcode": "96126",
    "city": "Wasmuthhausen"
  },
  {
    "postcode": "96126",
    "city": "Haßberge"
  },
  {
    "postcode": "96126",
    "city": "Saarhof"
  },
  {
    "postcode": "96126",
    "city": "Todtenweisach"
  },
  {
    "postcode": "96126",
    "city": "Wüstenbirkach"
  },
  {
    "postcode": "96129",
    "city": "Amlingstadt"
  },
  {
    "postcode": "96129",
    "city": "Geisfeld"
  },
  {
    "postcode": "96129",
    "city": "Leesten"
  },
  {
    "postcode": "96129",
    "city": "Mistendorf"
  },
  {
    "postcode": "96129",
    "city": "Roßdorf am Forst"
  },
  {
    "postcode": "96129",
    "city": "Strullendorf"
  },
  {
    "postcode": "96129",
    "city": "Wernsdorf"
  },
  {
    "postcode": "96129",
    "city": "Zeegendorf"
  },
  {
    "postcode": "96129",
    "city": "Bamberg"
  },
  {
    "postcode": "96129",
    "city": "Roßdorf"
  },
  {
    "postcode": "96129",
    "city": "Hauptsmoor"
  },
  {
    "postcode": "96132",
    "city": "Aschbach Oberfranken"
  },
  {
    "postcode": "96132",
    "city": "Aschbach"
  },
  {
    "postcode": "96132",
    "city": "Attelsdorf"
  },
  {
    "postcode": "96132",
    "city": "Debersdorf"
  },
  {
    "postcode": "96132",
    "city": "Eckersbach"
  },
  {
    "postcode": "96132",
    "city": "Elsendorf Oberfranken"
  },
  {
    "postcode": "96132",
    "city": "Elsendorf"
  },
  {
    "postcode": "96132",
    "city": "Güntersdorf Oberfranken"
  },
  {
    "postcode": "96132",
    "city": "Güntersdorf"
  },
  {
    "postcode": "96132",
    "city": "Heuchelheim Oberfranken"
  },
  {
    "postcode": "96132",
    "city": "Heuchelheim"
  },
  {
    "postcode": "96132",
    "city": "Hohn am Berg"
  },
  {
    "postcode": "96132",
    "city": "Obermelsendorf Oberfranken"
  },
  {
    "postcode": "96132",
    "city": "Obermelsendorf"
  },
  {
    "postcode": "96132",
    "city": "Possenfelden Oberfranken"
  },
  {
    "postcode": "96132",
    "city": "Possenfelden"
  },
  {
    "postcode": "96132",
    "city": "Rambach"
  },
  {
    "postcode": "96132",
    "city": "Reichmannsdorf Oberfranken"
  },
  {
    "postcode": "96132",
    "city": "Reichmannsdorf"
  },
  {
    "postcode": "96132",
    "city": "Schlüsselfeld"
  },
  {
    "postcode": "96132",
    "city": "Thüngbach"
  },
  {
    "postcode": "96132",
    "city": "Thüngfeld"
  },
  {
    "postcode": "96132",
    "city": "Untermelsendorf Oberfranken"
  },
  {
    "postcode": "96132",
    "city": "Untermelsendorf"
  },
  {
    "postcode": "96132",
    "city": "Wüstenbuch Oberfranken"
  },
  {
    "postcode": "96132",
    "city": "Wüstenbuch"
  },
  {
    "postcode": "96132",
    "city": "Ziegelsambach Oberfranken"
  },
  {
    "postcode": "96132",
    "city": "Ziegelsambach"
  },
  {
    "postcode": "96132",
    "city": "Bamberg"
  },
  {
    "postcode": "96132",
    "city": "Bernroth"
  },
  {
    "postcode": "96132",
    "city": "Einöde"
  },
  {
    "postcode": "96132",
    "city": "Fallmeisterei"
  },
  {
    "postcode": "96132",
    "city": "Hopfenmühle"
  },
  {
    "postcode": "96132",
    "city": "Lach"
  },
  {
    "postcode": "96135",
    "city": "Debring"
  },
  {
    "postcode": "96135",
    "city": "Dellerhof"
  },
  {
    "postcode": "96135",
    "city": "Dellern"
  },
  {
    "postcode": "96135",
    "city": "Hartlanden"
  },
  {
    "postcode": "96135",
    "city": "Höfen Kreis Bamberg"
  },
  {
    "postcode": "96135",
    "city": "Höfen"
  },
  {
    "postcode": "96135",
    "city": "Knottenhof"
  },
  {
    "postcode": "96135",
    "city": "Kreuzschuh Oberfranken"
  },
  {
    "postcode": "96135",
    "city": "Kreuzschuh"
  },
  {
    "postcode": "96135",
    "city": "Mühlendorf Oberfranken"
  },
  {
    "postcode": "96135",
    "city": "Mühlendorf"
  },
  {
    "postcode": "96135",
    "city": "Seehöflein"
  },
  {
    "postcode": "96135",
    "city": "Stegaurach"
  },
  {
    "postcode": "96135",
    "city": "Unteraurach"
  },
  {
    "postcode": "96135",
    "city": "Waizendorf Kreis Bamberg"
  },
  {
    "postcode": "96135",
    "city": "Waizendorf"
  },
  {
    "postcode": "96135",
    "city": "Bamberg"
  },
  {
    "postcode": "96135",
    "city": "Kaifeck"
  },
  {
    "postcode": "96135",
    "city": "Mutzershof"
  },
  {
    "postcode": "96138",
    "city": "Ampferbach"
  },
  {
    "postcode": "96138",
    "city": "Büchelberg"
  },
  {
    "postcode": "96138",
    "city": "Burgebrach"
  },
  {
    "postcode": "96138",
    "city": "Dietendorf"
  },
  {
    "postcode": "96138",
    "city": "Dippach"
  },
  {
    "postcode": "96138",
    "city": "Dürrhof"
  },
  {
    "postcode": "96138",
    "city": "Försdorf"
  },
  {
    "postcode": "96138",
    "city": "Grasmannsdorf"
  },
  {
    "postcode": "96138",
    "city": "Hirschbrunn Kreis Bamberg"
  },
  {
    "postcode": "96138",
    "city": "Hirschbrunn"
  },
  {
    "postcode": "96138",
    "city": "Klemmenhof"
  },
  {
    "postcode": "96138",
    "city": "Krumbach"
  },
  {
    "postcode": "96138",
    "city": "Küstersgreuth Kreis Bamberg"
  },
  {
    "postcode": "96138",
    "city": "Küstersgreuth"
  },
  {
    "postcode": "96138",
    "city": "Manndorf"
  },
  {
    "postcode": "96138",
    "city": "Mönchherrnsdorf"
  },
  {
    "postcode": "96138",
    "city": "Mönchsambach"
  },
  {
    "postcode": "96138",
    "city": "Oberharnsbach"
  },
  {
    "postcode": "96138",
    "city": "Oberköst Kreis Bamberg"
  },
  {
    "postcode": "96138",
    "city": "Oberköst"
  },
  {
    "postcode": "96138",
    "city": "Stappenbach"
  },
  {
    "postcode": "96138",
    "city": "Tempelsgreuth Kreis Bamberg"
  },
  {
    "postcode": "96138",
    "city": "Tempelsgreuth"
  },
  {
    "postcode": "96138",
    "city": "Treppendorf Kreis Bamberg"
  },
  {
    "postcode": "96138",
    "city": "Treppendorf"
  },
  {
    "postcode": "96138",
    "city": "Unterharnsbach"
  },
  {
    "postcode": "96138",
    "city": "Unterneuses Kreis Bamberg"
  },
  {
    "postcode": "96138",
    "city": "Unterneuses"
  },
  {
    "postcode": "96138",
    "city": "Vollmannsdorf"
  },
  {
    "postcode": "96138",
    "city": "Wolfsbach"
  },
  {
    "postcode": "96138",
    "city": "Bamberg"
  },
  {
    "postcode": "96138",
    "city": "Failshof"
  },
  {
    "postcode": "96138",
    "city": "Magdalenenkappel"
  },
  {
    "postcode": "96138",
    "city": "Schatzenhof"
  },
  {
    "postcode": "96142",
    "city": "Drosendorf"
  },
  {
    "postcode": "96142",
    "city": "Fernreuth"
  },
  {
    "postcode": "96142",
    "city": "Freienfels Oberfranken"
  },
  {
    "postcode": "96142",
    "city": "Freienfels"
  },
  {
    "postcode": "96142",
    "city": "Hainbach"
  },
  {
    "postcode": "96142",
    "city": "Höfen bei Bayreuth"
  },
  {
    "postcode": "96142",
    "city": "Hollfeld"
  },
  {
    "postcode": "96142",
    "city": "Kainach"
  },
  {
    "postcode": "96142",
    "city": "Krögelstein"
  },
  {
    "postcode": "96142",
    "city": "Loch"
  },
  {
    "postcode": "96142",
    "city": "Moggendorf bei Bayreuth"
  },
  {
    "postcode": "96142",
    "city": "Neidenstein"
  },
  {
    "postcode": "96142",
    "city": "Pilgerndorf bei Bayreuth"
  },
  {
    "postcode": "96142",
    "city": "Schönfeld bei Bayreuth"
  },
  {
    "postcode": "96142",
    "city": "Stechendorf"
  },
  {
    "postcode": "96142",
    "city": "Treppendorf bei Bayreuth"
  },
  {
    "postcode": "96142",
    "city": "Weiher"
  },
  {
    "postcode": "96142",
    "city": "Welkendorf bei Bayreuth"
  },
  {
    "postcode": "96142",
    "city": "Wiesentfels"
  },
  {
    "postcode": "96142",
    "city": "Wohnsdorf bei Bayreuth"
  },
  {
    "postcode": "96142",
    "city": "Bayreuth"
  },
  {
    "postcode": "96142",
    "city": "Gottelhof"
  },
  {
    "postcode": "96142",
    "city": "Höfen"
  },
  {
    "postcode": "96142",
    "city": "Moggendorf"
  },
  {
    "postcode": "96142",
    "city": "Pilgerndorf"
  },
  {
    "postcode": "96142",
    "city": "Schönfeld"
  },
  {
    "postcode": "96142",
    "city": "Schafhof"
  },
  {
    "postcode": "96142",
    "city": "Tiefenlesau"
  },
  {
    "postcode": "96142",
    "city": "Treppendorf"
  },
  {
    "postcode": "96142",
    "city": "Utzbürg"
  },
  {
    "postcode": "96142",
    "city": "Welkendorf"
  },
  {
    "postcode": "96142",
    "city": "Wohnsdorf"
  },
  {
    "postcode": "96145",
    "city": "Autenhausen Oberfranken"
  },
  {
    "postcode": "96145",
    "city": "Autenhausen"
  },
  {
    "postcode": "96145",
    "city": "Bischwind bei Heilgersdorf"
  },
  {
    "postcode": "96145",
    "city": "Dietersdorf Oberfranken"
  },
  {
    "postcode": "96145",
    "city": "Dietersdorf"
  },
  {
    "postcode": "96145",
    "city": "Gemünda Oberfranken"
  },
  {
    "postcode": "96145",
    "city": "Gemünda"
  },
  {
    "postcode": "96145",
    "city": "Gleismuthhausen Oberfranken"
  },
  {
    "postcode": "96145",
    "city": "Gleismuthhausen"
  },
  {
    "postcode": "96145",
    "city": "Hattersdorf"
  },
  {
    "postcode": "96145",
    "city": "Heilgersdorf"
  },
  {
    "postcode": "96145",
    "city": "Krumbach"
  },
  {
    "postcode": "96145",
    "city": "Lechenroth Oberfranken"
  },
  {
    "postcode": "96145",
    "city": "Lechenroth"
  },
  {
    "postcode": "96145",
    "city": "Merlach Oberfranken"
  },
  {
    "postcode": "96145",
    "city": "Merlach"
  },
  {
    "postcode": "96145",
    "city": "Muggenbach Oberfranken"
  },
  {
    "postcode": "96145",
    "city": "Muggenbach"
  },
  {
    "postcode": "96145",
    "city": "Oberelldorf Oberfranken"
  },
  {
    "postcode": "96145",
    "city": "Oberelldorf"
  },
  {
    "postcode": "96145",
    "city": "Rothenberg"
  },
  {
    "postcode": "96145",
    "city": "Seßlach"
  },
  {
    "postcode": "96145",
    "city": "Setzelsdorf"
  },
  {
    "postcode": "96145",
    "city": "Trammershof"
  },
  {
    "postcode": "96145",
    "city": "Unterelldorf"
  },
  {
    "postcode": "96145",
    "city": "Coburg"
  },
  {
    "postcode": "96145",
    "city": "Bischwind"
  },
  {
    "postcode": "96145",
    "city": "Eckersdorf"
  },
  {
    "postcode": "96145",
    "city": "Gehegsmühle"
  },
  {
    "postcode": "96145",
    "city": "Heinersdorf"
  },
  {
    "postcode": "96145",
    "city": "Schloß Wiesen"
  },
  {
    "postcode": "96146",
    "city": "Altendorf Kreis Bamberg"
  },
  {
    "postcode": "96146",
    "city": "Altendorf"
  },
  {
    "postcode": "96146",
    "city": "Seußling"
  },
  {
    "postcode": "96146",
    "city": "Bamberg"
  },
  {
    "postcode": "96148",
    "city": "Baunach"
  },
  {
    "postcode": "96148",
    "city": "Daschendorf"
  },
  {
    "postcode": "96148",
    "city": "Dorgendorf Unterfranken"
  },
  {
    "postcode": "96148",
    "city": "Dorgendorf"
  },
  {
    "postcode": "96148",
    "city": "Godeldorf"
  },
  {
    "postcode": "96148",
    "city": "Godelhof"
  },
  {
    "postcode": "96148",
    "city": "Priegendorf Unterfranken"
  },
  {
    "postcode": "96148",
    "city": "Priegendorf"
  },
  {
    "postcode": "96148",
    "city": "Reckenneusig Unterfranken"
  },
  {
    "postcode": "96148",
    "city": "Reckenneusig"
  },
  {
    "postcode": "96148",
    "city": "Bamberg"
  },
  {
    "postcode": "96148",
    "city": "Leucherhof"
  },
  {
    "postcode": "96149",
    "city": "Breitengüßbach"
  },
  {
    "postcode": "96149",
    "city": "Hohengüßbach"
  },
  {
    "postcode": "96149",
    "city": "Leimershof"
  },
  {
    "postcode": "96149",
    "city": "Unteroberndorf"
  },
  {
    "postcode": "96149",
    "city": "Zückshut"
  },
  {
    "postcode": "96149",
    "city": "Bamberg"
  },
  {
    "postcode": "96151",
    "city": "Breitbrunn"
  },
  {
    "postcode": "96151",
    "city": "Breitbrunn Unterfranken"
  },
  {
    "postcode": "96151",
    "city": "Edelbrunn Unterfranken"
  },
  {
    "postcode": "96151",
    "city": "Edelbrunn"
  },
  {
    "postcode": "96151",
    "city": "Förstersgrund"
  },
  {
    "postcode": "96151",
    "city": "Hermannsberg Unterfranken"
  },
  {
    "postcode": "96151",
    "city": "Hermannsberg"
  },
  {
    "postcode": "96151",
    "city": "Kottendorf"
  },
  {
    "postcode": "96151",
    "city": "Lußberg"
  },
  {
    "postcode": "96151",
    "city": "Haßberge"
  },
  {
    "postcode": "96151",
    "city": "Doktorshof"
  },
  {
    "postcode": "96151",
    "city": "Hasenmühle"
  },
  {
    "postcode": "96152",
    "city": "Breitenlohe"
  },
  {
    "postcode": "96152",
    "city": "Buchbach"
  },
  {
    "postcode": "96152",
    "city": "Burghaslach"
  },
  {
    "postcode": "96152",
    "city": "Burghöchstadt"
  },
  {
    "postcode": "96152",
    "city": "Freihaslach"
  },
  {
    "postcode": "96152",
    "city": "Fürstenforst"
  },
  {
    "postcode": "96152",
    "city": "Gleißenberg"
  },
  {
    "postcode": "96152",
    "city": "Harthof"
  },
  {
    "postcode": "96152",
    "city": "Kirchrimbach"
  },
  {
    "postcode": "96152",
    "city": "Niederndorf"
  },
  {
    "postcode": "96152",
    "city": "Oberrimbach"
  },
  {
    "postcode": "96152",
    "city": "Rosenbirkach"
  },
  {
    "postcode": "96152",
    "city": "Seitenbuch"
  },
  {
    "postcode": "96152",
    "city": "Unterrimbach"
  },
  {
    "postcode": "96152",
    "city": "Neustadt an der Aisch-Bad Windsheim"
  },
  {
    "postcode": "96152",
    "city": "Buchmühle"
  },
  {
    "postcode": "96152",
    "city": "Hardhof"
  },
  {
    "postcode": "96152",
    "city": "Münchhof"
  },
  {
    "postcode": "96154",
    "city": "Burgwindheim"
  },
  {
    "postcode": "96154",
    "city": "Kappel"
  },
  {
    "postcode": "96154",
    "city": "Kehlingsdorf"
  },
  {
    "postcode": "96154",
    "city": "Kötsch"
  },
  {
    "postcode": "96154",
    "city": "Mittelsteinach"
  },
  {
    "postcode": "96154",
    "city": "Oberweiler"
  },
  {
    "postcode": "96154",
    "city": "Schrappach"
  },
  {
    "postcode": "96154",
    "city": "Untersteinach"
  },
  {
    "postcode": "96154",
    "city": "Unterweiler"
  },
  {
    "postcode": "96154",
    "city": "Bamberg"
  },
  {
    "postcode": "96154",
    "city": "Mendenmühle"
  },
  {
    "postcode": "96154",
    "city": "Obersteinach"
  },
  {
    "postcode": "96155",
    "city": "Buttenheim"
  },
  {
    "postcode": "96155",
    "city": "Dreuschendorf"
  },
  {
    "postcode": "96155",
    "city": "Frankendorf Oberfranken"
  },
  {
    "postcode": "96155",
    "city": "Frankendorf"
  },
  {
    "postcode": "96155",
    "city": "Gunzendorf Oberfranken"
  },
  {
    "postcode": "96155",
    "city": "Gunzendorf"
  },
  {
    "postcode": "96155",
    "city": "Hochstall"
  },
  {
    "postcode": "96155",
    "city": "Kälberberg"
  },
  {
    "postcode": "96155",
    "city": "Ketschendorf Oberfranken"
  },
  {
    "postcode": "96155",
    "city": "Ketschendorf"
  },
  {
    "postcode": "96155",
    "city": "Stackendorf"
  },
  {
    "postcode": "96155",
    "city": "Tiefenhöchstadt"
  },
  {
    "postcode": "96155",
    "city": "Bamberg"
  },
  {
    "postcode": "96157",
    "city": "Buch"
  },
  {
    "postcode": "96157",
    "city": "Eberau Oberfranken"
  },
  {
    "postcode": "96157",
    "city": "Eberau"
  },
  {
    "postcode": "96157",
    "city": "Ebrach"
  },
  {
    "postcode": "96157",
    "city": "Ebrach Oberfranken"
  },
  {
    "postcode": "96157",
    "city": "Großbirkach Oberfranken"
  },
  {
    "postcode": "96157",
    "city": "Großbirkach"
  },
  {
    "postcode": "96157",
    "city": "Großgressingen Oberfranken"
  },
  {
    "postcode": "96157",
    "city": "Großgressingen"
  },
  {
    "postcode": "96157",
    "city": "Hof Oberfranken"
  },
  {
    "postcode": "96157",
    "city": "Hof"
  },
  {
    "postcode": "96157",
    "city": "Kleinbirkach"
  },
  {
    "postcode": "96157",
    "city": "Kleingressingen Oberfranken"
  },
  {
    "postcode": "96157",
    "city": "Kleingressingen"
  },
  {
    "postcode": "96157",
    "city": "Neudorf bei Ebrach Oberfranken"
  },
  {
    "postcode": "96157",
    "city": "Neudorf bei Ebrach"
  },
  {
    "postcode": "96157",
    "city": "Schmerb Oberfranken"
  },
  {
    "postcode": "96157",
    "city": "Schmerb"
  },
  {
    "postcode": "96157",
    "city": "Winkelhof Oberfranken"
  },
  {
    "postcode": "96157",
    "city": "Winkelhof"
  },
  {
    "postcode": "96157",
    "city": "Bamberg"
  },
  {
    "postcode": "96157",
    "city": "Neudorf"
  },
  {
    "postcode": "96158",
    "city": "Abtsdorf"
  },
  {
    "postcode": "96158",
    "city": "Birkach"
  },
  {
    "postcode": "96158",
    "city": "Ellersdorf"
  },
  {
    "postcode": "96158",
    "city": "Frensdorf"
  },
  {
    "postcode": "96158",
    "city": "Frensdorf Oberfranken"
  },
  {
    "postcode": "96158",
    "city": "Herrnsdorf"
  },
  {
    "postcode": "96158",
    "city": "Hundshof"
  },
  {
    "postcode": "96158",
    "city": "Lonnershof"
  },
  {
    "postcode": "96158",
    "city": "Obergreuth"
  },
  {
    "postcode": "96158",
    "city": "Rattelshof"
  },
  {
    "postcode": "96158",
    "city": "Reundorf"
  },
  {
    "postcode": "96158",
    "city": "Schlüsselau"
  },
  {
    "postcode": "96158",
    "city": "Untergreuth"
  },
  {
    "postcode": "96158",
    "city": "Vorra Oberfranken"
  },
  {
    "postcode": "96158",
    "city": "Vorra"
  },
  {
    "postcode": "96158",
    "city": "Wingersdorf"
  },
  {
    "postcode": "96158",
    "city": "Bamberg"
  },
  {
    "postcode": "96160",
    "city": "Burggrub"
  },
  {
    "postcode": "96160",
    "city": "Dürrnbuch"
  },
  {
    "postcode": "96160",
    "city": "Ebersbrunn"
  },
  {
    "postcode": "96160",
    "city": "Füttersee"
  },
  {
    "postcode": "96160",
    "city": "Geiselwind"
  },
  {
    "postcode": "96160",
    "city": "Gräfenneuses"
  },
  {
    "postcode": "96160",
    "city": "Haag"
  },
  {
    "postcode": "96160",
    "city": "Hohnsberg"
  },
  {
    "postcode": "96160",
    "city": "Holzberndorf"
  },
  {
    "postcode": "96160",
    "city": "Ilmenau Oberfranken"
  },
  {
    "postcode": "96160",
    "city": "Ilmenau"
  },
  {
    "postcode": "96160",
    "city": "Langenberg"
  },
  {
    "postcode": "96160",
    "city": "Neugrub"
  },
  {
    "postcode": "96160",
    "city": "Rehweiler"
  },
  {
    "postcode": "96160",
    "city": "Röhrensee"
  },
  {
    "postcode": "96160",
    "city": "Sixtenberg Oberfranken"
  },
  {
    "postcode": "96160",
    "city": "Sixtenberg"
  },
  {
    "postcode": "96160",
    "city": "Wasserberndorf Oberfranken"
  },
  {
    "postcode": "96160",
    "city": "Wasserberndorf"
  },
  {
    "postcode": "96160",
    "city": "Kitzingen"
  },
  {
    "postcode": "96160",
    "city": "Hammermühle"
  },
  {
    "postcode": "96160",
    "city": "Hutzelmühle"
  },
  {
    "postcode": "96160",
    "city": "Theuerleinsmühle"
  },
  {
    "postcode": "96160",
    "city": "Weingartsmühle"
  },
  {
    "postcode": "96160",
    "city": "Seeramsmühle"
  },
  {
    "postcode": "96160",
    "city": "Schleifmühle"
  },
  {
    "postcode": "96160",
    "city": "Schnackenmühle"
  },
  {
    "postcode": "96161",
    "city": "Gerach"
  },
  {
    "postcode": "96161",
    "city": "Gerach Oberfranken"
  },
  {
    "postcode": "96161",
    "city": "Mauschendorf Oberfranken"
  },
  {
    "postcode": "96161",
    "city": "Mauschendorf"
  },
  {
    "postcode": "96161",
    "city": "Bamberg"
  },
  {
    "postcode": "96161",
    "city": "Laimbachsmühle"
  },
  {
    "postcode": "96163",
    "city": "Gundelsheim (Oberfranken)"
  },
  {
    "postcode": "96163",
    "city": "Gundelsheim"
  },
  {
    "postcode": "96163",
    "city": "Bamberg"
  },
  {
    "postcode": "96164",
    "city": "Kemmern"
  },
  {
    "postcode": "96164",
    "city": "Bamberg"
  },
  {
    "postcode": "96166",
    "city": "Goggelgereuth"
  },
  {
    "postcode": "96166",
    "city": "Kirchlauter"
  },
  {
    "postcode": "96166",
    "city": "Neubrunn Haßberge"
  },
  {
    "postcode": "96166",
    "city": "Neubrunn"
  },
  {
    "postcode": "96166",
    "city": "Pettstadt"
  },
  {
    "postcode": "96166",
    "city": "Haßberge"
  },
  {
    "postcode": "96166",
    "city": "Hecklesmühle"
  },
  {
    "postcode": "96166",
    "city": "Paßmühle"
  },
  {
    "postcode": "96166",
    "city": "Weikartslauter"
  },
  {
    "postcode": "96166",
    "city": "Winterhof"
  },
  {
    "postcode": "96167",
    "city": "Huppendorf Oberfranken"
  },
  {
    "postcode": "96167",
    "city": "Huppendorf"
  },
  {
    "postcode": "96167",
    "city": "Königsfeld"
  },
  {
    "postcode": "96167",
    "city": "Königsfeld Oberfranken"
  },
  {
    "postcode": "96167",
    "city": "Kotzendorf"
  },
  {
    "postcode": "96167",
    "city": "Laibarös bei Hollfeld"
  },
  {
    "postcode": "96167",
    "city": "Poxdorf bei Hollfeld"
  },
  {
    "postcode": "96167",
    "city": "Treunitz"
  },
  {
    "postcode": "96167",
    "city": "Voitmannsdorf"
  },
  {
    "postcode": "96167",
    "city": "Bamberg"
  },
  {
    "postcode": "96167",
    "city": "Laibarös"
  },
  {
    "postcode": "96167",
    "city": "Poxdorf"
  },
  {
    "postcode": "96169",
    "city": "Appendorf Unterfranken"
  },
  {
    "postcode": "96169",
    "city": "Appendorf"
  },
  {
    "postcode": "96169",
    "city": "Deusdorf Oberfranken"
  },
  {
    "postcode": "96169",
    "city": "Deusdorf"
  },
  {
    "postcode": "96169",
    "city": "Lauter Oberfranken"
  },
  {
    "postcode": "96169",
    "city": "Lauter"
  },
  {
    "postcode": "96169",
    "city": "Leppelsdorf"
  },
  {
    "postcode": "96169",
    "city": "Bamberg"
  },
  {
    "postcode": "96170",
    "city": "Lisberg"
  },
  {
    "postcode": "96170",
    "city": "Neuhausen"
  },
  {
    "postcode": "96170",
    "city": "Priesendorf"
  },
  {
    "postcode": "96170",
    "city": "Trabelsdorf"
  },
  {
    "postcode": "96170",
    "city": "Triefenbach"
  },
  {
    "postcode": "96170",
    "city": "Bamberg"
  },
  {
    "postcode": "96170",
    "city": "Neumühle"
  },
  {
    "postcode": "96172",
    "city": "Decheldorf"
  },
  {
    "postcode": "96172",
    "city": "Mühlhausen Mittelfranken"
  },
  {
    "postcode": "96172",
    "city": "Mühlhausen"
  },
  {
    "postcode": "96172",
    "city": "Schirnsdorf Mittelfranken"
  },
  {
    "postcode": "96172",
    "city": "Schirnsdorf"
  },
  {
    "postcode": "96172",
    "city": "Simmersdorf"
  },
  {
    "postcode": "96172",
    "city": "Erlangen-Höchstadt"
  },
  {
    "postcode": "96172",
    "city": "Lempenmühle"
  },
  {
    "postcode": "96172",
    "city": "Neumühle"
  },
  {
    "postcode": "96173",
    "city": "Johannishof"
  },
  {
    "postcode": "96173",
    "city": "Oberhaid"
  },
  {
    "postcode": "96173",
    "city": "Oberhaid Oberfranken"
  },
  {
    "postcode": "96173",
    "city": "Sandhof Oberfranken"
  },
  {
    "postcode": "96173",
    "city": "Sandhof"
  },
  {
    "postcode": "96173",
    "city": "Staffelbach Oberfranken"
  },
  {
    "postcode": "96173",
    "city": "Staffelbach"
  },
  {
    "postcode": "96173",
    "city": "Unterhaid Oberfranken"
  },
  {
    "postcode": "96173",
    "city": "Unterhaid"
  },
  {
    "postcode": "96173",
    "city": "Bamberg"
  },
  {
    "postcode": "96175",
    "city": "Eichenhof"
  },
  {
    "postcode": "96175",
    "city": "Neuhaus"
  },
  {
    "postcode": "96175",
    "city": "Pettstadt"
  },
  {
    "postcode": "96175",
    "city": "Pettstadt Oberfranken"
  },
  {
    "postcode": "96175",
    "city": "Schadlos"
  },
  {
    "postcode": "96175",
    "city": "Bamberg"
  },
  {
    "postcode": "96176",
    "city": "Dürrnhof"
  },
  {
    "postcode": "96176",
    "city": "Herbelsdorf"
  },
  {
    "postcode": "96176",
    "city": "Junkersdorf"
  },
  {
    "postcode": "96176",
    "city": "Kraisdorf"
  },
  {
    "postcode": "96176",
    "city": "Lichtenstein"
  },
  {
    "postcode": "96176",
    "city": "Lohr"
  },
  {
    "postcode": "96176",
    "city": "Pfarrweisach"
  },
  {
    "postcode": "96176",
    "city": "Rabelsdorf"
  },
  {
    "postcode": "96176",
    "city": "Römmelsdorf"
  },
  {
    "postcode": "96176",
    "city": "Haßberge"
  },
  {
    "postcode": "96176",
    "city": "Hauckenmühle"
  },
  {
    "postcode": "96178",
    "city": "Limbach Oberfranken"
  },
  {
    "postcode": "96178",
    "city": "Limbach"
  },
  {
    "postcode": "96178",
    "city": "Oberndorf Oberfranken"
  },
  {
    "postcode": "96178",
    "city": "Oberndorf"
  },
  {
    "postcode": "96178",
    "city": "Pommersfelden"
  },
  {
    "postcode": "96178",
    "city": "Sambach Oberfranken"
  },
  {
    "postcode": "96178",
    "city": "Sambach"
  },
  {
    "postcode": "96178",
    "city": "Schweinbach Oberfranken"
  },
  {
    "postcode": "96178",
    "city": "Schweinbach"
  },
  {
    "postcode": "96178",
    "city": "Steppach Oberfranken"
  },
  {
    "postcode": "96178",
    "city": "Steppach"
  },
  {
    "postcode": "96178",
    "city": "Stolzenroth Oberfranken"
  },
  {
    "postcode": "96178",
    "city": "Stolzenroth"
  },
  {
    "postcode": "96178",
    "city": "Unterköst Oberfranken"
  },
  {
    "postcode": "96178",
    "city": "Unterköst"
  },
  {
    "postcode": "96178",
    "city": "Weiher Oberfranken"
  },
  {
    "postcode": "96178",
    "city": "Weiher"
  },
  {
    "postcode": "96178",
    "city": "Wind Oberfranken"
  },
  {
    "postcode": "96178",
    "city": "Wind"
  },
  {
    "postcode": "96178",
    "city": "Bamberg"
  },
  {
    "postcode": "96179",
    "city": "Busendorf im Itzgrund"
  },
  {
    "postcode": "96179",
    "city": "Ebing Oberfranken"
  },
  {
    "postcode": "96179",
    "city": "Ebing"
  },
  {
    "postcode": "96179",
    "city": "Freudeneck Oberfranken"
  },
  {
    "postcode": "96179",
    "city": "Freudeneck"
  },
  {
    "postcode": "96179",
    "city": "Helfenroth Oberfranken"
  },
  {
    "postcode": "96179",
    "city": "Helfenroth"
  },
  {
    "postcode": "96179",
    "city": "Hilkersdorf"
  },
  {
    "postcode": "96179",
    "city": "Höfen Oberfranken"
  },
  {
    "postcode": "96179",
    "city": "Höfen"
  },
  {
    "postcode": "96179",
    "city": "Höfenneusig Oberfranken"
  },
  {
    "postcode": "96179",
    "city": "Höfenneusig"
  },
  {
    "postcode": "96179",
    "city": "Medlitz Oberfranken"
  },
  {
    "postcode": "96179",
    "city": "Medlitz"
  },
  {
    "postcode": "96179",
    "city": "Mürsbach Oberfranken"
  },
  {
    "postcode": "96179",
    "city": "Mürsbach"
  },
  {
    "postcode": "96179",
    "city": "Rattelsdorf"
  },
  {
    "postcode": "96179",
    "city": "Rattelsdorf Oberfranken"
  },
  {
    "postcode": "96179",
    "city": "Speiersberg"
  },
  {
    "postcode": "96179",
    "city": "Zaugendorf Oberfranken"
  },
  {
    "postcode": "96179",
    "city": "Zaugendorf"
  },
  {
    "postcode": "96179",
    "city": "Bamberg"
  },
  {
    "postcode": "96179",
    "city": "Busendorf"
  },
  {
    "postcode": "96179",
    "city": "Poppendorf"
  },
  {
    "postcode": "96181",
    "city": "Fabrikschleichach"
  },
  {
    "postcode": "96181",
    "city": "Falsbrunn"
  },
  {
    "postcode": "96181",
    "city": "Fürnbach"
  },
  {
    "postcode": "96181",
    "city": "Geusfeld"
  },
  {
    "postcode": "96181",
    "city": "Karbach bei Haßfurt"
  },
  {
    "postcode": "96181",
    "city": "Koppenwind"
  },
  {
    "postcode": "96181",
    "city": "Obersteinbach Unterfranken"
  },
  {
    "postcode": "96181",
    "city": "Obersteinbach"
  },
  {
    "postcode": "96181",
    "city": "Prölsdorf"
  },
  {
    "postcode": "96181",
    "city": "Rauhenebrach"
  },
  {
    "postcode": "96181",
    "city": "Schindelsee"
  },
  {
    "postcode": "96181",
    "city": "Spielhof"
  },
  {
    "postcode": "96181",
    "city": "Theinheim"
  },
  {
    "postcode": "96181",
    "city": "Untersteinbach Unterfranken"
  },
  {
    "postcode": "96181",
    "city": "Untersteinbach"
  },
  {
    "postcode": "96181",
    "city": "Waldschwind"
  },
  {
    "postcode": "96181",
    "city": "Wustviel"
  },
  {
    "postcode": "96181",
    "city": "Haßberge"
  },
  {
    "postcode": "96181",
    "city": "Karbach"
  },
  {
    "postcode": "96182",
    "city": "Laimbach Unterfranken"
  },
  {
    "postcode": "96182",
    "city": "Laimbach"
  },
  {
    "postcode": "96182",
    "city": "Obermanndorf"
  },
  {
    "postcode": "96182",
    "city": "Reckendorf"
  },
  {
    "postcode": "96182",
    "city": "Reckendorf Oberfranken"
  },
  {
    "postcode": "96182",
    "city": "Untermanndorf"
  },
  {
    "postcode": "96182",
    "city": "Bamberg"
  },
  {
    "postcode": "96182",
    "city": "Zeitzenhof"
  },
  {
    "postcode": "96184",
    "city": "Gräfenholz"
  },
  {
    "postcode": "96184",
    "city": "Lind"
  },
  {
    "postcode": "96184",
    "city": "Losbergsgereuth"
  },
  {
    "postcode": "96184",
    "city": "Rentweinsdorf"
  },
  {
    "postcode": "96184",
    "city": "Salmsdorf Oberfranken"
  },
  {
    "postcode": "96184",
    "city": "Salmsdorf"
  },
  {
    "postcode": "96184",
    "city": "Sendelbach"
  },
  {
    "postcode": "96184",
    "city": "Treinfeld"
  },
  {
    "postcode": "96184",
    "city": "Haßberge"
  },
  {
    "postcode": "96184",
    "city": "Hebendorf"
  },
  {
    "postcode": "96184",
    "city": "Ottneuses"
  },
  {
    "postcode": "96184",
    "city": "Treinfeldsmühle"
  },
  {
    "postcode": "96185",
    "city": "Frenshof"
  },
  {
    "postcode": "96185",
    "city": "Fröschhof im Steigerwald"
  },
  {
    "postcode": "96185",
    "city": "Grub"
  },
  {
    "postcode": "96185",
    "city": "Halbersdorf im Steigerwald"
  },
  {
    "postcode": "96185",
    "city": "Niederndorf im Steigerwald"
  },
  {
    "postcode": "96185",
    "city": "Oberneuses im Steigerwald"
  },
  {
    "postcode": "96185",
    "city": "Schönbrunn im Steigerwald"
  },
  {
    "postcode": "96185",
    "city": "Steinsdorf"
  },
  {
    "postcode": "96185",
    "city": "Zettmannsdorf im Steigerwald"
  },
  {
    "postcode": "96185",
    "city": "Bamberg"
  },
  {
    "postcode": "96185",
    "city": "Schönbrunn i. Steigerwald"
  },
  {
    "postcode": "96185",
    "city": "Schönbrunn"
  },
  {
    "postcode": "96185",
    "city": "Niederndorf"
  },
  {
    "postcode": "96185",
    "city": "Halbersdorf"
  },
  {
    "postcode": "96185",
    "city": "Zettmannsdorf"
  },
  {
    "postcode": "96185",
    "city": "Fröschhof"
  },
  {
    "postcode": "96185",
    "city": "Oberneuses"
  },
  {
    "postcode": "96187",
    "city": "Eichenhüll Kreis Bamberg"
  },
  {
    "postcode": "96187",
    "city": "Eichenhüll"
  },
  {
    "postcode": "96187",
    "city": "Hohenhäusling Oberfranken"
  },
  {
    "postcode": "96187",
    "city": "Hohenhäusling"
  },
  {
    "postcode": "96187",
    "city": "Pfaffendorf"
  },
  {
    "postcode": "96187",
    "city": "Roßdorf am Berg"
  },
  {
    "postcode": "96187",
    "city": "Schederndorf"
  },
  {
    "postcode": "96187",
    "city": "Stadelhofen"
  },
  {
    "postcode": "96187",
    "city": "Stadelhofen Oberfranken"
  },
  {
    "postcode": "96187",
    "city": "Steinfeld Oberfranken"
  },
  {
    "postcode": "96187",
    "city": "Steinfeld"
  },
  {
    "postcode": "96187",
    "city": "Wölkendorf Kreis Bamberg"
  },
  {
    "postcode": "96187",
    "city": "Wölkendorf"
  },
  {
    "postcode": "96187",
    "city": "Wotzendorf Kreis Bamberg"
  },
  {
    "postcode": "96187",
    "city": "Wotzendorf"
  },
  {
    "postcode": "96187",
    "city": "Bamberg"
  },
  {
    "postcode": "96187",
    "city": "Hopfenmühle"
  },
  {
    "postcode": "96188",
    "city": "Stettfeld Unterfranken"
  },
  {
    "postcode": "96188",
    "city": "Stettfeld"
  },
  {
    "postcode": "96188",
    "city": "Haßberge"
  },
  {
    "postcode": "96190",
    "city": "Buch"
  },
  {
    "postcode": "96190",
    "city": "Gereuth"
  },
  {
    "postcode": "96190",
    "city": "Gleusdorf"
  },
  {
    "postcode": "96190",
    "city": "Hemmendorf"
  },
  {
    "postcode": "96190",
    "city": "Memmelsdorf"
  },
  {
    "postcode": "96190",
    "city": "Obermerzbach"
  },
  {
    "postcode": "96190",
    "city": "Recheldorf"
  },
  {
    "postcode": "96190",
    "city": "Untermerzbach"
  },
  {
    "postcode": "96190",
    "city": "Wüstenwelsberg"
  },
  {
    "postcode": "96190",
    "city": "Haßberge"
  },
  {
    "postcode": "96190",
    "city": "Kadersmühle"
  },
  {
    "postcode": "96190",
    "city": "Landsbach"
  },
  {
    "postcode": "96190",
    "city": "Truschenhof"
  },
  {
    "postcode": "96191",
    "city": "Stückbrunn"
  },
  {
    "postcode": "96191",
    "city": "Trunstadt"
  },
  {
    "postcode": "96191",
    "city": "Viereth"
  },
  {
    "postcode": "96191",
    "city": "Viereth-Trunstadt"
  },
  {
    "postcode": "96191",
    "city": "Weiher"
  },
  {
    "postcode": "96191",
    "city": "Bamberg"
  },
  {
    "postcode": "96193",
    "city": "Buchfeld"
  },
  {
    "postcode": "96193",
    "city": "Horbach Mittelfranken"
  },
  {
    "postcode": "96193",
    "city": "Horbach"
  },
  {
    "postcode": "96193",
    "city": "Reumannswind"
  },
  {
    "postcode": "96193",
    "city": "Volkersdorf"
  },
  {
    "postcode": "96193",
    "city": "Wachenroth"
  },
  {
    "postcode": "96193",
    "city": "Warmersdorf"
  },
  {
    "postcode": "96193",
    "city": "Weingartsgreuth"
  },
  {
    "postcode": "96193",
    "city": "Erlangen-Höchstadt"
  },
  {
    "postcode": "96193",
    "city": "Unteralbach"
  },
  {
    "postcode": "96193",
    "city": "Eckartsmühle"
  },
  {
    "postcode": "96193",
    "city": "Hammermühle"
  },
  {
    "postcode": "96193",
    "city": "Oberalbach"
  },
  {
    "postcode": "96194",
    "city": "Erlau Oberfranken"
  },
  {
    "postcode": "96194",
    "city": "Erlau"
  },
  {
    "postcode": "96194",
    "city": "Feigendorf"
  },
  {
    "postcode": "96194",
    "city": "Kolmsdorf"
  },
  {
    "postcode": "96194",
    "city": "Walsdorf"
  },
  {
    "postcode": "96194",
    "city": "Walsdorf Oberfranken"
  },
  {
    "postcode": "96194",
    "city": "Zettelsdorf"
  },
  {
    "postcode": "96194",
    "city": "Bamberg"
  },
  {
    "postcode": "96194",
    "city": "Hetzentännig"
  },
  {
    "postcode": "96196",
    "city": "Bojendorf"
  },
  {
    "postcode": "96196",
    "city": "Gräfenhäusling Oberfranken"
  },
  {
    "postcode": "96196",
    "city": "Gräfenhäusling"
  },
  {
    "postcode": "96196",
    "city": "Mährenhüll"
  },
  {
    "postcode": "96196",
    "city": "Schneeberg"
  },
  {
    "postcode": "96196",
    "city": "Wattendorf"
  },
  {
    "postcode": "96196",
    "city": "Wattendorf Oberfranken"
  },
  {
    "postcode": "96196",
    "city": "Bamberg"
  },
  {
    "postcode": "96197",
    "city": "Feulersdorf"
  },
  {
    "postcode": "96197",
    "city": "Gelbsreuth"
  },
  {
    "postcode": "96197",
    "city": "Großenhül"
  },
  {
    "postcode": "96197",
    "city": "Kleinhül"
  },
  {
    "postcode": "96197",
    "city": "Sanspareil"
  },
  {
    "postcode": "96197",
    "city": "Schirradorf"
  },
  {
    "postcode": "96197",
    "city": "Wonsees"
  },
  {
    "postcode": "96197",
    "city": "Zedersitz"
  },
  {
    "postcode": "96197",
    "city": "Kulmbach"
  },
  {
    "postcode": "96197",
    "city": "Plötzmühle"
  },
  {
    "postcode": "96197",
    "city": "Schlötzmühle"
  },
  {
    "postcode": "96199",
    "city": "Kirchschletten Oberfranken"
  },
  {
    "postcode": "96199",
    "city": "Kirchschletten"
  },
  {
    "postcode": "96199",
    "city": "Lauf Oberfranken"
  },
  {
    "postcode": "96199",
    "city": "Lauf"
  },
  {
    "postcode": "96199",
    "city": "Oberleiterbach Oberfranken"
  },
  {
    "postcode": "96199",
    "city": "Oberleiterbach"
  },
  {
    "postcode": "96199",
    "city": "Oberoberndorf Oberfranken"
  },
  {
    "postcode": "96199",
    "city": "Oberoberndorf"
  },
  {
    "postcode": "96199",
    "city": "Reuthlos Oberfranken"
  },
  {
    "postcode": "96199",
    "city": "Reuthlos"
  },
  {
    "postcode": "96199",
    "city": "Roth"
  },
  {
    "postcode": "96199",
    "city": "Sassendorf"
  },
  {
    "postcode": "96199",
    "city": "Unterleiterbach Oberfranken"
  },
  {
    "postcode": "96199",
    "city": "Unterleiterbach"
  },
  {
    "postcode": "96199",
    "city": "Zapfendorf"
  },
  {
    "postcode": "96199",
    "city": "Bamberg"
  },
  {
    "postcode": "96199",
    "city": "Weihersmühle"
  },
  {
    "postcode": "96215",
    "city": "Buch am Forst"
  },
  {
    "postcode": "96215",
    "city": "Degendorf Bayern"
  },
  {
    "postcode": "96215",
    "city": "Degendorf"
  },
  {
    "postcode": "96215",
    "city": "Eichig"
  },
  {
    "postcode": "96215",
    "city": "Gnellenroth Oberfranken"
  },
  {
    "postcode": "96215",
    "city": "Gnellenroth"
  },
  {
    "postcode": "96215",
    "city": "Isling"
  },
  {
    "postcode": "96215",
    "city": "Klosterlangheim"
  },
  {
    "postcode": "96215",
    "city": "Kösten"
  },
  {
    "postcode": "96215",
    "city": "Köttel"
  },
  {
    "postcode": "96215",
    "city": "Lahm bei Lichtenfels Bayern"
  },
  {
    "postcode": "96215",
    "city": "Lahm bei Lichtenfels"
  },
  {
    "postcode": "96215",
    "city": "Lichtenfels"
  },
  {
    "postcode": "96215",
    "city": "Lichtenfels Bayern"
  },
  {
    "postcode": "96215",
    "city": "Mistelfeld"
  },
  {
    "postcode": "96215",
    "city": "Mönchkröttendorf"
  },
  {
    "postcode": "96215",
    "city": "Oberlangheim Bayern"
  },
  {
    "postcode": "96215",
    "city": "Oberlangheim"
  },
  {
    "postcode": "96215",
    "city": "Oberwallenstadt"
  },
  {
    "postcode": "96215",
    "city": "Reundorf"
  },
  {
    "postcode": "96215",
    "city": "Roth Kreis Lichtenfels Bayern"
  },
  {
    "postcode": "96215",
    "city": "Roth"
  },
  {
    "postcode": "96215",
    "city": "Rothmannsthal"
  },
  {
    "postcode": "96215",
    "city": "Schney"
  },
  {
    "postcode": "96215",
    "city": "Schönsreuth"
  },
  {
    "postcode": "96215",
    "city": "Seehof"
  },
  {
    "postcode": "96215",
    "city": "Seubelsdorf Bayern"
  },
  {
    "postcode": "96215",
    "city": "Seubelsdorf"
  },
  {
    "postcode": "96215",
    "city": "Stetten Oberfranken"
  },
  {
    "postcode": "96215",
    "city": "Stetten"
  },
  {
    "postcode": "96215",
    "city": "Tiefenroth Oberfranken"
  },
  {
    "postcode": "96215",
    "city": "Tiefenroth"
  },
  {
    "postcode": "96215",
    "city": "Trieb Oberfranken"
  },
  {
    "postcode": "96215",
    "city": "Trieb"
  },
  {
    "postcode": "96215",
    "city": "Unterwallenstadt"
  },
  {
    "postcode": "96215",
    "city": "Weingarten Oberfranken"
  },
  {
    "postcode": "96215",
    "city": "Weingarten"
  },
  {
    "postcode": "96215",
    "city": "Bohnberg"
  },
  {
    "postcode": "96215",
    "city": "Lahm"
  },
  {
    "postcode": "96215",
    "city": "Krappenroth"
  },
  {
    "postcode": "96215",
    "city": "Friesenhof"
  },
  {
    "postcode": "96215",
    "city": "Hammer"
  },
  {
    "postcode": "96215",
    "city": "Hof Söhnleinsberg"
  },
  {
    "postcode": "96215",
    "city": "Karolinenhöhe"
  },
  {
    "postcode": "96215",
    "city": "Naßanger"
  },
  {
    "postcode": "96215",
    "city": "Stöcken"
  },
  {
    "postcode": "96224",
    "city": "Burgkunstadt"
  },
  {
    "postcode": "96224",
    "city": "Eben Oberfranken"
  },
  {
    "postcode": "96224",
    "city": "Eben"
  },
  {
    "postcode": "96224",
    "city": "Ebneth"
  },
  {
    "postcode": "96224",
    "city": "Flurholz"
  },
  {
    "postcode": "96224",
    "city": "Gärtenroth"
  },
  {
    "postcode": "96224",
    "city": "Hainweiher"
  },
  {
    "postcode": "96224",
    "city": "Hainzendorf"
  },
  {
    "postcode": "96224",
    "city": "Kaltenreuth"
  },
  {
    "postcode": "96224",
    "city": "Kirchlein"
  },
  {
    "postcode": "96224",
    "city": "Mainklein"
  },
  {
    "postcode": "96224",
    "city": "Mainroth"
  },
  {
    "postcode": "96224",
    "city": "Meuselsberg"
  },
  {
    "postcode": "96224",
    "city": "Neuses am Main"
  },
  {
    "postcode": "96224",
    "city": "Pfaffeggetten"
  },
  {
    "postcode": "96224",
    "city": "Reuth"
  },
  {
    "postcode": "96224",
    "city": "Theisau"
  },
  {
    "postcode": "96224",
    "city": "Weidnitz"
  },
  {
    "postcode": "96224",
    "city": "Wildenroth"
  },
  {
    "postcode": "96224",
    "city": "Lichtenfels"
  },
  {
    "postcode": "96224",
    "city": "Neuses a Main"
  },
  {
    "postcode": "96224",
    "city": "Lopphof"
  },
  {
    "postcode": "96231",
    "city": "Altenbanz"
  },
  {
    "postcode": "96231",
    "city": "Bad Staffelstein"
  },
  {
    "postcode": "96231",
    "city": "End"
  },
  {
    "postcode": "96231",
    "city": "Frauendorf"
  },
  {
    "postcode": "96231",
    "city": "Grundfeld"
  },
  {
    "postcode": "96231",
    "city": "Hausen"
  },
  {
    "postcode": "96231",
    "city": "Horsdorf Oberfranken"
  },
  {
    "postcode": "96231",
    "city": "Horsdorf"
  },
  {
    "postcode": "96231",
    "city": "Kaider"
  },
  {
    "postcode": "96231",
    "city": "Kloster Banz"
  },
  {
    "postcode": "96231",
    "city": "Kloster Banz"
  },
  {
    "postcode": "96231",
    "city": "Krögelhof"
  },
  {
    "postcode": "96231",
    "city": "Kümmersreuth"
  },
  {
    "postcode": "96231",
    "city": "Loffeld Oberfranken"
  },
  {
    "postcode": "96231",
    "city": "Loffeld"
  },
  {
    "postcode": "96231",
    "city": "Nedensdorf"
  },
  {
    "postcode": "96231",
    "city": "Neubanz Oberfranken"
  },
  {
    "postcode": "96231",
    "city": "Neubanz"
  },
  {
    "postcode": "96231",
    "city": "Neuhof"
  },
  {
    "postcode": "96231",
    "city": "Püchitz"
  },
  {
    "postcode": "96231",
    "city": "Romansthal Oberfranken"
  },
  {
    "postcode": "96231",
    "city": "Romansthal"
  },
  {
    "postcode": "96231",
    "city": "Schönbrunn Oberfranken"
  },
  {
    "postcode": "96231",
    "city": "Schönbrunn"
  },
  {
    "postcode": "96231",
    "city": "Schwabthal"
  },
  {
    "postcode": "96231",
    "city": "Serkendorf"
  },
  {
    "postcode": "96231",
    "city": "Stadel"
  },
  {
    "postcode": "96231",
    "city": "Staffelstein"
  },
  {
    "postcode": "96231",
    "city": "Stublang"
  },
  {
    "postcode": "96231",
    "city": "Uetzing"
  },
  {
    "postcode": "96231",
    "city": "Unnersdorf"
  },
  {
    "postcode": "96231",
    "city": "Unterzettlitz Oberfranken"
  },
  {
    "postcode": "96231",
    "city": "Unterzettlitz"
  },
  {
    "postcode": "96231",
    "city": "Vierzehnheiligen"
  },
  {
    "postcode": "96231",
    "city": "Wiesen"
  },
  {
    "postcode": "96231",
    "city": "Wolfsdorf Oberfranken"
  },
  {
    "postcode": "96231",
    "city": "Wolfsdorf"
  },
  {
    "postcode": "96231",
    "city": "Zilgendorf"
  },
  {
    "postcode": "96231",
    "city": "Lichtenfels"
  },
  {
    "postcode": "96231",
    "city": "Eichelsee"
  },
  {
    "postcode": "96231",
    "city": "Gößmitz"
  },
  {
    "postcode": "96231",
    "city": "Kloster Banz"
  },
  {
    "postcode": "96231",
    "city": "Kurklinik Lautergrund"
  },
  {
    "postcode": "96231",
    "city": "Oberau"
  },
  {
    "postcode": "96231",
    "city": "Rothof"
  },
  {
    "postcode": "96231",
    "city": "Voreichen"
  },
  {
    "postcode": "96231",
    "city": "Weisbrem"
  },
  {
    "postcode": "96237",
    "city": "Ebersdorf"
  },
  {
    "postcode": "96237",
    "city": "Ebersdorf bei Coburg"
  },
  {
    "postcode": "96237",
    "city": "Friesendorf bei Lichtenfels Bayern"
  },
  {
    "postcode": "96237",
    "city": "Friesendorf bei Lichtenfels"
  },
  {
    "postcode": "96237",
    "city": "Frohnlach bei Lichtenfels Bayern"
  },
  {
    "postcode": "96237",
    "city": "Frohnlach bei Lichtenfels"
  },
  {
    "postcode": "96237",
    "city": "Großgarnstadt"
  },
  {
    "postcode": "96237",
    "city": "Kleingarnstadt"
  },
  {
    "postcode": "96237",
    "city": "Oberfüllbach"
  },
  {
    "postcode": "96237",
    "city": "Coburg"
  },
  {
    "postcode": "96237",
    "city": "Ebersdorf b. Coburg"
  },
  {
    "postcode": "96237",
    "city": "Frohnlach"
  },
  {
    "postcode": "96237",
    "city": "Friesendorf"
  },
  {
    "postcode": "96237",
    "city": "Dürrmühle"
  },
  {
    "postcode": "96242",
    "city": "Bieberbach"
  },
  {
    "postcode": "96242",
    "city": "Firmelsdorf"
  },
  {
    "postcode": "96242",
    "city": "Gestungshausen"
  },
  {
    "postcode": "96242",
    "city": "Hassenberg"
  },
  {
    "postcode": "96242",
    "city": "Neuses am Brand"
  },
  {
    "postcode": "96242",
    "city": "Oberwasungen am Berg"
  },
  {
    "postcode": "96242",
    "city": "Sonnefeld"
  },
  {
    "postcode": "96242",
    "city": "Weickenbach"
  },
  {
    "postcode": "96242",
    "city": "Weischau"
  },
  {
    "postcode": "96242",
    "city": "Wörlsdorf"
  },
  {
    "postcode": "96242",
    "city": "Zedersdorf"
  },
  {
    "postcode": "96242",
    "city": "Coburg"
  },
  {
    "postcode": "96242",
    "city": "Neuses a. Brand"
  },
  {
    "postcode": "96242",
    "city": "Oberwasungen"
  },
  {
    "postcode": "96247",
    "city": "Lettenreuth"
  },
  {
    "postcode": "96247",
    "city": "Michelau"
  },
  {
    "postcode": "96247",
    "city": "Michelau in Oberfranken"
  },
  {
    "postcode": "96247",
    "city": "Neuensee"
  },
  {
    "postcode": "96247",
    "city": "Oberreuth"
  },
  {
    "postcode": "96247",
    "city": "Schwürbitz"
  },
  {
    "postcode": "96247",
    "city": "Lichtenfels"
  },
  {
    "postcode": "96247",
    "city": "Michelau i.OFr."
  },
  {
    "postcode": "96247",
    "city": "Breitengüßbacher Forst"
  },
  {
    "postcode": "96250",
    "city": "Birkach"
  },
  {
    "postcode": "96250",
    "city": "Dittersbrunn"
  },
  {
    "postcode": "96250",
    "city": "Döringstadt"
  },
  {
    "postcode": "96250",
    "city": "Draisdorf"
  },
  {
    "postcode": "96250",
    "city": "Ebensfeld"
  },
  {
    "postcode": "96250",
    "city": "Eggenbach"
  },
  {
    "postcode": "96250",
    "city": "Freiberg"
  },
  {
    "postcode": "96250",
    "city": "Kleukheim"
  },
  {
    "postcode": "96250",
    "city": "Kümmel"
  },
  {
    "postcode": "96250",
    "city": "Kutzenberg"
  },
  {
    "postcode": "96250",
    "city": "Messenfeld"
  },
  {
    "postcode": "96250",
    "city": "Neudorf bei Ebensfeld"
  },
  {
    "postcode": "96250",
    "city": "Niederau"
  },
  {
    "postcode": "96250",
    "city": "Oberbrunn"
  },
  {
    "postcode": "96250",
    "city": "Oberküps"
  },
  {
    "postcode": "96250",
    "city": "Peusenhof"
  },
  {
    "postcode": "96250",
    "city": "Pferdsfeld"
  },
  {
    "postcode": "96250",
    "city": "Prächting"
  },
  {
    "postcode": "96250",
    "city": "Sträublingshof"
  },
  {
    "postcode": "96250",
    "city": "Ummersberg"
  },
  {
    "postcode": "96250",
    "city": "Unterbrunn"
  },
  {
    "postcode": "96250",
    "city": "Unterküps"
  },
  {
    "postcode": "96250",
    "city": "Unterneuses"
  },
  {
    "postcode": "96250",
    "city": "Lichtenfels"
  },
  {
    "postcode": "96250",
    "city": "Erlhof"
  },
  {
    "postcode": "96250",
    "city": "Hanhof"
  },
  {
    "postcode": "96250",
    "city": "Mönchshof"
  },
  {
    "postcode": "96250",
    "city": "Neudorf"
  },
  {
    "postcode": "96253",
    "city": "Birkach am Forst"
  },
  {
    "postcode": "96253",
    "city": "Haarth"
  },
  {
    "postcode": "96253",
    "city": "Meschenbach Oberfranken"
  },
  {
    "postcode": "96253",
    "city": "Meschenbach"
  },
  {
    "postcode": "96253",
    "city": "Obersiemau am Forst"
  },
  {
    "postcode": "96253",
    "city": "Scherneck"
  },
  {
    "postcode": "96253",
    "city": "Stöppach Oberfranken"
  },
  {
    "postcode": "96253",
    "city": "Stöppach"
  },
  {
    "postcode": "96253",
    "city": "Untersiemau"
  },
  {
    "postcode": "96253",
    "city": "Weißenbrunn am Forst"
  },
  {
    "postcode": "96253",
    "city": "Ziegelsdorf"
  },
  {
    "postcode": "96253",
    "city": "Coburg"
  },
  {
    "postcode": "96253",
    "city": "Weißenbrunn a. Forst"
  },
  {
    "postcode": "96253",
    "city": "Obersiemau"
  },
  {
    "postcode": "96253",
    "city": "Birkach a. Forst"
  },
  {
    "postcode": "96257",
    "city": "Mannsgereuth an der Rodach"
  },
  {
    "postcode": "96257",
    "city": "Marktgraitz"
  },
  {
    "postcode": "96257",
    "city": "Obristfeld"
  },
  {
    "postcode": "96257",
    "city": "Redwitz"
  },
  {
    "postcode": "96257",
    "city": "Redwitz an der Rodach"
  },
  {
    "postcode": "96257",
    "city": "Trainau"
  },
  {
    "postcode": "96257",
    "city": "Unterlangenstadt"
  },
  {
    "postcode": "96257",
    "city": "Lichtenfels"
  },
  {
    "postcode": "96257",
    "city": "Redwitz a.d.Rodach"
  },
  {
    "postcode": "96257",
    "city": "Mannsgereuth"
  },
  {
    "postcode": "96260",
    "city": "Altendorf"
  },
  {
    "postcode": "96260",
    "city": "Arnstein Oberfranken"
  },
  {
    "postcode": "96260",
    "city": "Arnstein"
  },
  {
    "postcode": "96260",
    "city": "Bernreuth"
  },
  {
    "postcode": "96260",
    "city": "Buckendorf"
  },
  {
    "postcode": "96260",
    "city": "Erlach"
  },
  {
    "postcode": "96260",
    "city": "Fesselsdorf"
  },
  {
    "postcode": "96260",
    "city": "Frankenberg"
  },
  {
    "postcode": "96260",
    "city": "Geutenreuth"
  },
  {
    "postcode": "96260",
    "city": "Giechkröttendorf"
  },
  {
    "postcode": "96260",
    "city": "Görau"
  },
  {
    "postcode": "96260",
    "city": "Großziegenfeld"
  },
  {
    "postcode": "96260",
    "city": "Kaspauer"
  },
  {
    "postcode": "96260",
    "city": "Kleinziegenfeld"
  },
  {
    "postcode": "96260",
    "city": "Krassach"
  },
  {
    "postcode": "96260",
    "city": "Modschiedel"
  },
  {
    "postcode": "96260",
    "city": "Mosenberg"
  },
  {
    "postcode": "96260",
    "city": "Neudorf"
  },
  {
    "postcode": "96260",
    "city": "Niesten"
  },
  {
    "postcode": "96260",
    "city": "Schammendorf"
  },
  {
    "postcode": "96260",
    "city": "Seubersdorf"
  },
  {
    "postcode": "96260",
    "city": "Siedamsdorf"
  },
  {
    "postcode": "96260",
    "city": "Wallersberg"
  },
  {
    "postcode": "96260",
    "city": "Weiden"
  },
  {
    "postcode": "96260",
    "city": "Weismain"
  },
  {
    "postcode": "96260",
    "city": "Wohnsig"
  },
  {
    "postcode": "96260",
    "city": "Wunkendorf"
  },
  {
    "postcode": "96260",
    "city": "Lichtenfels"
  },
  {
    "postcode": "96260",
    "city": "Berghaus"
  },
  {
    "postcode": "96260",
    "city": "Erhardsmühle"
  },
  {
    "postcode": "96260",
    "city": "Schwarzmühle"
  },
  {
    "postcode": "96260",
    "city": "Kordigast"
  },
  {
    "postcode": "96260",
    "city": "Krassacher Mühle"
  },
  {
    "postcode": "96260",
    "city": "Lindenkeller"
  },
  {
    "postcode": "96260",
    "city": "Lochhaus"
  },
  {
    "postcode": "96260",
    "city": "Oberloch"
  },
  {
    "postcode": "96260",
    "city": "Schrepfersmühle"
  },
  {
    "postcode": "96260",
    "city": "Waßmannsmühle"
  },
  {
    "postcode": "96260",
    "city": "Weihersmühle"
  },
  {
    "postcode": "96264",
    "city": "Altenkunstadt"
  },
  {
    "postcode": "96264",
    "city": "Baiersdorf"
  },
  {
    "postcode": "96264",
    "city": "Burkheim"
  },
  {
    "postcode": "96264",
    "city": "Maineck"
  },
  {
    "postcode": "96264",
    "city": "Pfaffendorf"
  },
  {
    "postcode": "96264",
    "city": "Prügel"
  },
  {
    "postcode": "96264",
    "city": "Röhrig"
  },
  {
    "postcode": "96264",
    "city": "Spiesberg am Main"
  },
  {
    "postcode": "96264",
    "city": "Strössendorf"
  },
  {
    "postcode": "96264",
    "city": "Tauschendorf"
  },
  {
    "postcode": "96264",
    "city": "Woffendorf"
  },
  {
    "postcode": "96264",
    "city": "Zeublitz am Main"
  },
  {
    "postcode": "96264",
    "city": "Lichtenfels"
  },
  {
    "postcode": "96264",
    "city": "Kordigast"
  },
  {
    "postcode": "96264",
    "city": "Trebitzmühle"
  },
  {
    "postcode": "96264",
    "city": "Zeublitz"
  },
  {
    "postcode": "96264",
    "city": "Spiesberg"
  },
  {
    "postcode": "96268",
    "city": "Bächlein"
  },
  {
    "postcode": "96268",
    "city": "Burgstall"
  },
  {
    "postcode": "96268",
    "city": "Hof an der Steinach"
  },
  {
    "postcode": "96268",
    "city": "Horb an der Steinach"
  },
  {
    "postcode": "96268",
    "city": "Kaltenbrunn"
  },
  {
    "postcode": "96268",
    "city": "Leutendorf Oberfranken"
  },
  {
    "postcode": "96268",
    "city": "Leutendorf"
  },
  {
    "postcode": "96268",
    "city": "Mitwitz"
  },
  {
    "postcode": "96268",
    "city": "Neubau"
  },
  {
    "postcode": "96268",
    "city": "Neundorf"
  },
  {
    "postcode": "96268",
    "city": "Schwärzdorf"
  },
  {
    "postcode": "96268",
    "city": "Steinach an der Steinach"
  },
  {
    "postcode": "96268",
    "city": "Kronach"
  },
  {
    "postcode": "96268",
    "city": "Steinach a.d. Steinach"
  },
  {
    "postcode": "96268",
    "city": "Angerwustung"
  },
  {
    "postcode": "96268",
    "city": "Bohlswustung"
  },
  {
    "postcode": "96268",
    "city": "Bätzenwustung"
  },
  {
    "postcode": "96268",
    "city": "Dickenwustung"
  },
  {
    "postcode": "96268",
    "city": "Froschgrün"
  },
  {
    "postcode": "96268",
    "city": "Haderleinswustung"
  },
  {
    "postcode": "96268",
    "city": "Harthof"
  },
  {
    "postcode": "96268",
    "city": "Hof a.d. Steinach"
  },
  {
    "postcode": "96268",
    "city": "Horb a.d. Steinach"
  },
  {
    "postcode": "96268",
    "city": "Häusles"
  },
  {
    "postcode": "96268",
    "city": "Hüttenwustung"
  },
  {
    "postcode": "96268",
    "city": "Krötendorfswustung"
  },
  {
    "postcode": "96268",
    "city": "Lochleithen"
  },
  {
    "postcode": "96268",
    "city": "Reuterswustung"
  },
  {
    "postcode": "96268",
    "city": "Rotberg"
  },
  {
    "postcode": "96268",
    "city": "Schaumbergwustung"
  },
  {
    "postcode": "96268",
    "city": "Schnitzerswustung"
  },
  {
    "postcode": "96268",
    "city": "Veitenwustung"
  },
  {
    "postcode": "96269",
    "city": "Buchenrod"
  },
  {
    "postcode": "96269",
    "city": "Gossenberg an der Eichen"
  },
  {
    "postcode": "96269",
    "city": "Großheirath"
  },
  {
    "postcode": "96269",
    "city": "Neuses an der Eichen"
  },
  {
    "postcode": "96269",
    "city": "Rossach Oberfranken"
  },
  {
    "postcode": "96269",
    "city": "Rossach"
  },
  {
    "postcode": "96269",
    "city": "Watzendorf an der Eichen"
  },
  {
    "postcode": "96269",
    "city": "Coburg"
  },
  {
    "postcode": "96269",
    "city": "Neuses a d Eichen"
  },
  {
    "postcode": "96269",
    "city": "Watzendorf"
  },
  {
    "postcode": "96269",
    "city": "Erlesmühle"
  },
  {
    "postcode": "96269",
    "city": "Gossenberg"
  },
  {
    "postcode": "96271",
    "city": "Buscheller bei Lichtenfels Bayern"
  },
  {
    "postcode": "96271",
    "city": "Buscheller bei Lichtenfels"
  },
  {
    "postcode": "96271",
    "city": "Forsthub am Forst"
  },
  {
    "postcode": "96271",
    "city": "Grub am Forst"
  },
  {
    "postcode": "96271",
    "city": "Rohrbach Oberfranken"
  },
  {
    "postcode": "96271",
    "city": "Rohrbach"
  },
  {
    "postcode": "96271",
    "city": "Roth am Forst"
  },
  {
    "postcode": "96271",
    "city": "Zeickhorn bei Lichtenfels"
  },
  {
    "postcode": "96271",
    "city": "Coburg"
  },
  {
    "postcode": "96271",
    "city": "Grub a. Forst"
  },
  {
    "postcode": "96271",
    "city": "Grub"
  },
  {
    "postcode": "96271",
    "city": "Buscheller"
  },
  {
    "postcode": "96271",
    "city": "Forsthub"
  },
  {
    "postcode": "96271",
    "city": "Zeickhorn"
  },
  {
    "postcode": "96272",
    "city": "Anger am Main"
  },
  {
    "postcode": "96272",
    "city": "Burgstall am Main"
  },
  {
    "postcode": "96272",
    "city": "Hochstadt"
  },
  {
    "postcode": "96272",
    "city": "Hochstadt am Main"
  },
  {
    "postcode": "96272",
    "city": "Obersdorf am Main"
  },
  {
    "postcode": "96272",
    "city": "Reuth am Main"
  },
  {
    "postcode": "96272",
    "city": "Thelitz am Main"
  },
  {
    "postcode": "96272",
    "city": "Wolfsloch am Main"
  },
  {
    "postcode": "96272",
    "city": "Lichtenfels"
  },
  {
    "postcode": "96272",
    "city": "Hochstadt a. Main"
  },
  {
    "postcode": "96272",
    "city": "Wolfsloch"
  },
  {
    "postcode": "96272",
    "city": "Anger"
  },
  {
    "postcode": "96272",
    "city": "Obersdorf"
  },
  {
    "postcode": "96272",
    "city": "Burgstall"
  },
  {
    "postcode": "96272",
    "city": "Geutersberg"
  },
  {
    "postcode": "96272",
    "city": "Gruben"
  },
  {
    "postcode": "96272",
    "city": "Reuth"
  },
  {
    "postcode": "96272",
    "city": "Thelitz"
  },
  {
    "postcode": "96274",
    "city": "Bodelstadt"
  },
  {
    "postcode": "96274",
    "city": "Büdenhof"
  },
  {
    "postcode": "96274",
    "city": "Gleußen"
  },
  {
    "postcode": "96274",
    "city": "Herreth"
  },
  {
    "postcode": "96274",
    "city": "Itzgrund"
  },
  {
    "postcode": "96274",
    "city": "Kaltenbrunn im Itzgrund"
  },
  {
    "postcode": "96274",
    "city": "Kaltenherberg"
  },
  {
    "postcode": "96274",
    "city": "Lahm im Itzgrund"
  },
  {
    "postcode": "96274",
    "city": "Merkendorf"
  },
  {
    "postcode": "96274",
    "city": "Pülsdorf"
  },
  {
    "postcode": "96274",
    "city": "Schleifenhan Oberfranken"
  },
  {
    "postcode": "96274",
    "city": "Schleifenhan"
  },
  {
    "postcode": "96274",
    "city": "Schottenstein"
  },
  {
    "postcode": "96274",
    "city": "Welsberg"
  },
  {
    "postcode": "96274",
    "city": "Coburg"
  },
  {
    "postcode": "96274",
    "city": "Lahm"
  },
  {
    "postcode": "96274",
    "city": "Kaltenbrunn"
  },
  {
    "postcode": "96274",
    "city": "Lohof"
  },
  {
    "postcode": "96274",
    "city": "Schenkenau"
  },
  {
    "postcode": "96274",
    "city": "Sorghof"
  },
  {
    "postcode": "96275",
    "city": "Horb am Main"
  },
  {
    "postcode": "96275",
    "city": "Marktzeuln"
  },
  {
    "postcode": "96275",
    "city": "Zettlitz am Main"
  },
  {
    "postcode": "96275",
    "city": "Lichtenfels"
  },
  {
    "postcode": "96275",
    "city": "Horb a. Main"
  },
  {
    "postcode": "96275",
    "city": "Zettlitz"
  },
  {
    "postcode": "96277",
    "city": "Beikheim"
  },
  {
    "postcode": "96277",
    "city": "Mödlitz"
  },
  {
    "postcode": "96277",
    "city": "Schneckenlohe"
  },
  {
    "postcode": "96277",
    "city": "Kronach"
  },
  {
    "postcode": "96277",
    "city": "Neubrand"
  },
  {
    "postcode": "96279",
    "city": "Neuensorg Kreis Lichtenfels Bayern"
  },
  {
    "postcode": "96279",
    "city": "Neuensorg"
  },
  {
    "postcode": "96279",
    "city": "Trübenbach"
  },
  {
    "postcode": "96279",
    "city": "Weidhausen bei Coburg"
  },
  {
    "postcode": "96279",
    "city": "Weidhausen Oberfranken"
  },
  {
    "postcode": "96279",
    "city": "Weidhausen"
  },
  {
    "postcode": "96279",
    "city": "Coburg"
  },
  {
    "postcode": "96279",
    "city": "Weidhausen b. Coburg"
  },
  {
    "postcode": "96317",
    "city": "Birkach"
  },
  {
    "postcode": "96317",
    "city": "Blumau"
  },
  {
    "postcode": "96317",
    "city": "Breitenloh"
  },
  {
    "postcode": "96317",
    "city": "Dennach"
  },
  {
    "postcode": "96317",
    "city": "Dörfles"
  },
  {
    "postcode": "96317",
    "city": "Entmannsdorf"
  },
  {
    "postcode": "96317",
    "city": "Fischbach Kreis Kronach"
  },
  {
    "postcode": "96317",
    "city": "Fischbach"
  },
  {
    "postcode": "96317",
    "city": "Friesen Kreis Kronach"
  },
  {
    "postcode": "96317",
    "city": "Friesen"
  },
  {
    "postcode": "96317",
    "city": "Glosberg"
  },
  {
    "postcode": "96317",
    "city": "Gundelsdorf Oberfranken"
  },
  {
    "postcode": "96317",
    "city": "Gundelsdorf"
  },
  {
    "postcode": "96317",
    "city": "Hinterstöcken Kreis Kronach"
  },
  {
    "postcode": "96317",
    "city": "Hinterstöcken"
  },
  {
    "postcode": "96317",
    "city": "Höfles"
  },
  {
    "postcode": "96317",
    "city": "Kathragrub"
  },
  {
    "postcode": "96317",
    "city": "Kestel"
  },
  {
    "postcode": "96317",
    "city": "Knellendorf"
  },
  {
    "postcode": "96317",
    "city": "Kronach"
  },
  {
    "postcode": "96317",
    "city": "Kronach Oberfranken"
  },
  {
    "postcode": "96317",
    "city": "Mostrach"
  },
  {
    "postcode": "96317",
    "city": "Neuses Kreis Kronach"
  },
  {
    "postcode": "96317",
    "city": "Neuses"
  },
  {
    "postcode": "96317",
    "city": "Rennesberg"
  },
  {
    "postcode": "96317",
    "city": "Rotschreuth"
  },
  {
    "postcode": "96317",
    "city": "Rottelsdorf Oberfranken"
  },
  {
    "postcode": "96317",
    "city": "Rottelsdorf"
  },
  {
    "postcode": "96317",
    "city": "Seelach"
  },
  {
    "postcode": "96317",
    "city": "Tauschendorf"
  },
  {
    "postcode": "96317",
    "city": "Vogtendorf"
  },
  {
    "postcode": "96317",
    "city": "Vorderstöcken Kreis Kronach"
  },
  {
    "postcode": "96317",
    "city": "Vorderstöcken"
  },
  {
    "postcode": "96317",
    "city": "Wötzelsdorf"
  },
  {
    "postcode": "96317",
    "city": "Wüstbuch Kreis Kronach"
  },
  {
    "postcode": "96317",
    "city": "Wüstbuch"
  },
  {
    "postcode": "96317",
    "city": "Ziegelerden"
  },
  {
    "postcode": "96317",
    "city": "Zollbrunn"
  },
  {
    "postcode": "96317",
    "city": "Kaltbuch"
  },
  {
    "postcode": "96317",
    "city": "Allern"
  },
  {
    "postcode": "96317",
    "city": "Gehülz"
  },
  {
    "postcode": "96317",
    "city": "Bernsroth"
  },
  {
    "postcode": "96317",
    "city": "Biegenmühle"
  },
  {
    "postcode": "96317",
    "city": "Bierberg"
  },
  {
    "postcode": "96317",
    "city": "Bürg"
  },
  {
    "postcode": "96317",
    "city": "Detschramühle"
  },
  {
    "postcode": "96317",
    "city": "Dobersgrund"
  },
  {
    "postcode": "96317",
    "city": "Dobrach"
  },
  {
    "postcode": "96317",
    "city": "Fröschbrunn"
  },
  {
    "postcode": "96317",
    "city": "Friedrichsburg"
  },
  {
    "postcode": "96317",
    "city": "Gießübel"
  },
  {
    "postcode": "96317",
    "city": "Grundmühle"
  },
  {
    "postcode": "96317",
    "city": "Grünlinden"
  },
  {
    "postcode": "96317",
    "city": "Horlachen"
  },
  {
    "postcode": "96317",
    "city": "Dobershof"
  },
  {
    "postcode": "96317",
    "city": "Kleienmühle"
  },
  {
    "postcode": "96317",
    "city": "Krugsberg"
  },
  {
    "postcode": "96317",
    "city": "Kuhberg"
  },
  {
    "postcode": "96317",
    "city": "Letzenberg"
  },
  {
    "postcode": "96317",
    "city": "Letzenhof"
  },
  {
    "postcode": "96317",
    "city": "Obere Allern"
  },
  {
    "postcode": "96317",
    "city": "Planersgut"
  },
  {
    "postcode": "96317",
    "city": "Poppenhof"
  },
  {
    "postcode": "96317",
    "city": "Ruppen"
  },
  {
    "postcode": "96317",
    "city": "Rußmühle"
  },
  {
    "postcode": "96317",
    "city": "Seelabach"
  },
  {
    "postcode": "96317",
    "city": "Staibra"
  },
  {
    "postcode": "96317",
    "city": "Stressenberg"
  },
  {
    "postcode": "96317",
    "city": "Stüben"
  },
  {
    "postcode": "96317",
    "city": "Trebesgrund"
  },
  {
    "postcode": "96317",
    "city": "Untere Allern"
  },
  {
    "postcode": "96317",
    "city": "Vonz"
  },
  {
    "postcode": "96317",
    "city": "Zollschneidmühle"
  },
  {
    "postcode": "96328",
    "city": "Au Kreis Kronach"
  },
  {
    "postcode": "96328",
    "city": "Au"
  },
  {
    "postcode": "96328",
    "city": "Burkersdorf Oberfranken"
  },
  {
    "postcode": "96328",
    "city": "Burkersdorf"
  },
  {
    "postcode": "96328",
    "city": "Hain"
  },
  {
    "postcode": "96328",
    "city": "Hummenberg"
  },
  {
    "postcode": "96328",
    "city": "Johannisthal Oberfranken"
  },
  {
    "postcode": "96328",
    "city": "Johannisthal"
  },
  {
    "postcode": "96328",
    "city": "Küps"
  },
  {
    "postcode": "96328",
    "city": "Lerchenhof Oberfranken"
  },
  {
    "postcode": "96328",
    "city": "Lerchenhof"
  },
  {
    "postcode": "96328",
    "city": "Löhlein"
  },
  {
    "postcode": "96328",
    "city": "Nagel"
  },
  {
    "postcode": "96328",
    "city": "Oberlangenstadt"
  },
  {
    "postcode": "96328",
    "city": "Rödern"
  },
  {
    "postcode": "96328",
    "city": "Schmölz Oberfranken"
  },
  {
    "postcode": "96328",
    "city": "Schmölz"
  },
  {
    "postcode": "96328",
    "city": "Theisenort"
  },
  {
    "postcode": "96328",
    "city": "Tiefenklein"
  },
  {
    "postcode": "96328",
    "city": "Tüschnitz"
  },
  {
    "postcode": "96328",
    "city": "Weides"
  },
  {
    "postcode": "96328",
    "city": "Kronach"
  },
  {
    "postcode": "96328",
    "city": "Emmersheim"
  },
  {
    "postcode": "96328",
    "city": "Hinterloh"
  },
  {
    "postcode": "96328",
    "city": "Köhlersloh"
  },
  {
    "postcode": "96328",
    "city": "Kachelmannsberg"
  },
  {
    "postcode": "96328",
    "city": "Krienesschneidmühle"
  },
  {
    "postcode": "96328",
    "city": "Oberberg"
  },
  {
    "postcode": "96328",
    "city": "Schafhof"
  },
  {
    "postcode": "96328",
    "city": "Unterberg"
  },
  {
    "postcode": "96332",
    "city": "Brauersdorf Kreis Kronach"
  },
  {
    "postcode": "96332",
    "city": "Brauersdorf"
  },
  {
    "postcode": "96332",
    "city": "Eila Kreis Kronach"
  },
  {
    "postcode": "96332",
    "city": "Eila"
  },
  {
    "postcode": "96332",
    "city": "Förtschendorf Kreis Kronach"
  },
  {
    "postcode": "96332",
    "city": "Förtschendorf"
  },
  {
    "postcode": "96332",
    "city": "Friedersdorf Kreis Kronach"
  },
  {
    "postcode": "96332",
    "city": "Friedersdorf"
  },
  {
    "postcode": "96332",
    "city": "Grössau Kreis Kronach"
  },
  {
    "postcode": "96332",
    "city": "Grössau"
  },
  {
    "postcode": "96332",
    "city": "Marienroth Kreis Kronach"
  },
  {
    "postcode": "96332",
    "city": "Marienroth"
  },
  {
    "postcode": "96332",
    "city": "Posseck in Bayern"
  },
  {
    "postcode": "96332",
    "city": "Pressig"
  },
  {
    "postcode": "96332",
    "city": "Rothenkirchen Oberfranken"
  },
  {
    "postcode": "96332",
    "city": "Rothenkirchen"
  },
  {
    "postcode": "96332",
    "city": "Welitsch Kreis Kronach"
  },
  {
    "postcode": "96332",
    "city": "Welitsch"
  },
  {
    "postcode": "96332",
    "city": "Kronach"
  },
  {
    "postcode": "96332",
    "city": "Posseck"
  },
  {
    "postcode": "96337",
    "city": "Ebersdorf Kreis Kronach"
  },
  {
    "postcode": "96337",
    "city": "Ebersdorf"
  },
  {
    "postcode": "96337",
    "city": "Falkenstein"
  },
  {
    "postcode": "96337",
    "city": "Lauenhain"
  },
  {
    "postcode": "96337",
    "city": "Lauenstein Oberfranken"
  },
  {
    "postcode": "96337",
    "city": "Lauenstein"
  },
  {
    "postcode": "96337",
    "city": "Ludwigsstadt"
  },
  {
    "postcode": "96337",
    "city": "Ottendorf"
  },
  {
    "postcode": "96337",
    "city": "Spitzberg"
  },
  {
    "postcode": "96337",
    "city": "Springelhof"
  },
  {
    "postcode": "96337",
    "city": "Steinbach an der Haide"
  },
  {
    "postcode": "96337",
    "city": "Kronach"
  },
  {
    "postcode": "96337",
    "city": "Fischbachsmühle"
  },
  {
    "postcode": "96337",
    "city": "Katzwich"
  },
  {
    "postcode": "96337",
    "city": "Steinbach a d Haide"
  },
  {
    "postcode": "96337",
    "city": "Steinbachsgrund"
  },
  {
    "postcode": "96337",
    "city": "Ziegelhütte"
  },
  {
    "postcode": "96342",
    "city": "Burggrub Kreis Kronach"
  },
  {
    "postcode": "96342",
    "city": "Burggrub"
  },
  {
    "postcode": "96342",
    "city": "Haig Oberfranken"
  },
  {
    "postcode": "96342",
    "city": "Haig"
  },
  {
    "postcode": "96342",
    "city": "Haßlach"
  },
  {
    "postcode": "96342",
    "city": "Mostholz Kreis Kronach"
  },
  {
    "postcode": "96342",
    "city": "Mostholz"
  },
  {
    "postcode": "96342",
    "city": "Neukenroth"
  },
  {
    "postcode": "96342",
    "city": "Reitsch"
  },
  {
    "postcode": "96342",
    "city": "Stockheim"
  },
  {
    "postcode": "96342",
    "city": "Stockheim Oberfranken"
  },
  {
    "postcode": "96342",
    "city": "Wolfersdorf Oberfranken"
  },
  {
    "postcode": "96342",
    "city": "Wolfersdorf"
  },
  {
    "postcode": "96342",
    "city": "Kronach"
  },
  {
    "postcode": "96342",
    "city": "Rittersmühle"
  },
  {
    "postcode": "96346",
    "city": "Dörnach Oberfranken"
  },
  {
    "postcode": "96346",
    "city": "Dörnach"
  },
  {
    "postcode": "96346",
    "city": "Geuser"
  },
  {
    "postcode": "96346",
    "city": "Neuengrün"
  },
  {
    "postcode": "96346",
    "city": "Wallenfels"
  },
  {
    "postcode": "96346",
    "city": "Wallenfels Oberfranken"
  },
  {
    "postcode": "96346",
    "city": "Wellesberg Oberfranken"
  },
  {
    "postcode": "96346",
    "city": "Wellesberg"
  },
  {
    "postcode": "96346",
    "city": "Wolfersgrün"
  },
  {
    "postcode": "96346",
    "city": "Kronach"
  },
  {
    "postcode": "96346",
    "city": "Berghaus"
  },
  {
    "postcode": "96346",
    "city": "Gemeinde Steinwiesen"
  },
  {
    "postcode": "96346",
    "city": "Forstloh"
  },
  {
    "postcode": "96346",
    "city": "Hammer"
  },
  {
    "postcode": "96346",
    "city": "Hintere Schnaid"
  },
  {
    "postcode": "96346",
    "city": "Kleinthiemitz"
  },
  {
    "postcode": "96346",
    "city": "Lorchenmühle"
  },
  {
    "postcode": "96346",
    "city": "Mittlere Schnaid"
  },
  {
    "postcode": "96346",
    "city": "Neumühle"
  },
  {
    "postcode": "96346",
    "city": "Schindelthal"
  },
  {
    "postcode": "96346",
    "city": "Schnappenhammer"
  },
  {
    "postcode": "96346",
    "city": "Stumpfmühle"
  },
  {
    "postcode": "96346",
    "city": "Thiemitz"
  },
  {
    "postcode": "96346",
    "city": "Voglerei"
  },
  {
    "postcode": "96346",
    "city": "Vordere Schnaid"
  },
  {
    "postcode": "96346",
    "city": "Wellesbach"
  },
  {
    "postcode": "96346",
    "city": "Wellesmühle"
  },
  {
    "postcode": "96349",
    "city": "Birnbaum Oberfranken"
  },
  {
    "postcode": "96349",
    "city": "Birnbaum"
  },
  {
    "postcode": "96349",
    "city": "Hubertushöhe"
  },
  {
    "postcode": "96349",
    "city": "Neufang Kreis Kronach"
  },
  {
    "postcode": "96349",
    "city": "Neufang"
  },
  {
    "postcode": "96349",
    "city": "Nurn"
  },
  {
    "postcode": "96349",
    "city": "Steinwiesen"
  },
  {
    "postcode": "96349",
    "city": "Kronach"
  },
  {
    "postcode": "96349",
    "city": "Mauthaus"
  },
  {
    "postcode": "96349",
    "city": "Berglesdorf"
  },
  {
    "postcode": "96349",
    "city": "Eisenhammer"
  },
  {
    "postcode": "96349",
    "city": "Klingersmühle"
  },
  {
    "postcode": "96349",
    "city": "Kochsmühle"
  },
  {
    "postcode": "96349",
    "city": "Kübelberg"
  },
  {
    "postcode": "96349",
    "city": "Löfflersmühle"
  },
  {
    "postcode": "96349",
    "city": "Leitschmühle"
  },
  {
    "postcode": "96349",
    "city": "Remitzhof"
  },
  {
    "postcode": "96349",
    "city": "Rieblich"
  },
  {
    "postcode": "96349",
    "city": "Schlegelshaid"
  },
  {
    "postcode": "96349",
    "city": "Schnabrichsmühle"
  },
  {
    "postcode": "96349",
    "city": "Tempenberg"
  },
  {
    "postcode": "96352",
    "city": "Effelter Kreis Kronach"
  },
  {
    "postcode": "96352",
    "city": "Effelter"
  },
  {
    "postcode": "96352",
    "city": "Eibenberg Oberfranken"
  },
  {
    "postcode": "96352",
    "city": "Eibenberg"
  },
  {
    "postcode": "96352",
    "city": "Eichenbühl Kreis Kronach"
  },
  {
    "postcode": "96352",
    "city": "Eichenbühl"
  },
  {
    "postcode": "96352",
    "city": "Geschwend Kreis Kronach"
  },
  {
    "postcode": "96352",
    "city": "Geschwend"
  },
  {
    "postcode": "96352",
    "city": "Gifting Kreis Kronach"
  },
  {
    "postcode": "96352",
    "city": "Gifting"
  },
  {
    "postcode": "96352",
    "city": "Gries"
  },
  {
    "postcode": "96352",
    "city": "Grümpel Gemeinde Hesselbach"
  },
  {
    "postcode": "96352",
    "city": "Grümpel"
  },
  {
    "postcode": "96352",
    "city": "Hesselbach Oberfranken"
  },
  {
    "postcode": "96352",
    "city": "Hesselbach"
  },
  {
    "postcode": "96352",
    "city": "Lahm Kreis Kronach"
  },
  {
    "postcode": "96352",
    "city": "Lahm"
  },
  {
    "postcode": "96352",
    "city": "Remschlitz Kreis Kronach"
  },
  {
    "postcode": "96352",
    "city": "Remschlitz"
  },
  {
    "postcode": "96352",
    "city": "Roßlach"
  },
  {
    "postcode": "96352",
    "city": "Steinberg Oberfranken"
  },
  {
    "postcode": "96352",
    "city": "Steinberg"
  },
  {
    "postcode": "96352",
    "city": "Tiefenbach Oberfranken"
  },
  {
    "postcode": "96352",
    "city": "Tiefenbach"
  },
  {
    "postcode": "96352",
    "city": "Trebesberg"
  },
  {
    "postcode": "96352",
    "city": "Wilhelmsthal"
  },
  {
    "postcode": "96352",
    "city": "Wilhelmsthal Oberfranken"
  },
  {
    "postcode": "96352",
    "city": "Winterleithen Kreis Kronach"
  },
  {
    "postcode": "96352",
    "city": "Winterleithen"
  },
  {
    "postcode": "96352",
    "city": "Kronach"
  },
  {
    "postcode": "96352",
    "city": "Bug"
  },
  {
    "postcode": "96352",
    "city": "Bärengrund"
  },
  {
    "postcode": "96352",
    "city": "Effeltermühle"
  },
  {
    "postcode": "96352",
    "city": "Eichelberg"
  },
  {
    "postcode": "96352",
    "city": "Fehnenschneidmühle"
  },
  {
    "postcode": "96352",
    "city": "Felsmühle"
  },
  {
    "postcode": "96352",
    "city": "Hühnerleite"
  },
  {
    "postcode": "96352",
    "city": "Kotschersgrund"
  },
  {
    "postcode": "96352",
    "city": "Kugelmühle"
  },
  {
    "postcode": "96352",
    "city": "Kämmerlein"
  },
  {
    "postcode": "96352",
    "city": "Ludwigsland"
  },
  {
    "postcode": "96352",
    "city": "Obere Grümpelmühle"
  },
  {
    "postcode": "96352",
    "city": "Redwitzerhöh"
  },
  {
    "postcode": "96352",
    "city": "Sattelmühle"
  },
  {
    "postcode": "96352",
    "city": "Schafhut"
  },
  {
    "postcode": "96352",
    "city": "Schäferei"
  },
  {
    "postcode": "96352",
    "city": "Steingraben"
  },
  {
    "postcode": "96352",
    "city": "Untere Grümpelmühle"
  },
  {
    "postcode": "96355",
    "city": "Alexanderhütte"
  },
  {
    "postcode": "96355",
    "city": "Kleintettau"
  },
  {
    "postcode": "96355",
    "city": "Langenau Oberfranken"
  },
  {
    "postcode": "96355",
    "city": "Langenau"
  },
  {
    "postcode": "96355",
    "city": "Sattelgrund Gemeinde Langenau"
  },
  {
    "postcode": "96355",
    "city": "Sattelgrund"
  },
  {
    "postcode": "96355",
    "city": "Schauberg"
  },
  {
    "postcode": "96355",
    "city": "Tettau"
  },
  {
    "postcode": "96355",
    "city": "Tettau Oberfranken"
  },
  {
    "postcode": "96355",
    "city": "Kronach"
  },
  {
    "postcode": "96358",
    "city": "Finkenmühle"
  },
  {
    "postcode": "96358",
    "city": "Haßlach bei Teuschnitz"
  },
  {
    "postcode": "96358",
    "city": "Rappoltengrün"
  },
  {
    "postcode": "96358",
    "city": "Reichenbach Kreis Kronach"
  },
  {
    "postcode": "96358",
    "city": "Reichenbach"
  },
  {
    "postcode": "96358",
    "city": "Teuschnitz"
  },
  {
    "postcode": "96358",
    "city": "Wickendorf"
  },
  {
    "postcode": "96358",
    "city": "Kronach"
  },
  {
    "postcode": "96358",
    "city": "Haßlach"
  },
  {
    "postcode": "96358",
    "city": "Kremnitzmühle"
  },
  {
    "postcode": "96358",
    "city": "Rauschenhof"
  },
  {
    "postcode": "96358",
    "city": "Wiesenmühle"
  },
  {
    "postcode": "96361",
    "city": "Buchbach"
  },
  {
    "postcode": "96361",
    "city": "Hirschfeld Oberfranken"
  },
  {
    "postcode": "96361",
    "city": "Hirschfeld"
  },
  {
    "postcode": "96361",
    "city": "Kehlbach Oberfranken"
  },
  {
    "postcode": "96361",
    "city": "Kehlbach"
  },
  {
    "postcode": "96361",
    "city": "Steinbach am Wald"
  },
  {
    "postcode": "96361",
    "city": "Windheim Oberfranken"
  },
  {
    "postcode": "96361",
    "city": "Windheim"
  },
  {
    "postcode": "96361",
    "city": "Kronach"
  },
  {
    "postcode": "96361",
    "city": "Steinbach a. Wald"
  },
  {
    "postcode": "96361",
    "city": "Steinbach"
  },
  {
    "postcode": "96364",
    "city": "Großvichtach"
  },
  {
    "postcode": "96364",
    "city": "Kleinvichtach"
  },
  {
    "postcode": "96364",
    "city": "Marktrodach"
  },
  {
    "postcode": "96364",
    "city": "Mittelberg"
  },
  {
    "postcode": "96364",
    "city": "Oberrodach"
  },
  {
    "postcode": "96364",
    "city": "Seibelsdorf Oberfranken"
  },
  {
    "postcode": "96364",
    "city": "Seibelsdorf"
  },
  {
    "postcode": "96364",
    "city": "Unterrodach"
  },
  {
    "postcode": "96364",
    "city": "Waldbuch Oberfranken"
  },
  {
    "postcode": "96364",
    "city": "Waldbuch"
  },
  {
    "postcode": "96364",
    "city": "Wurbach"
  },
  {
    "postcode": "96364",
    "city": "Zeyern"
  },
  {
    "postcode": "96364",
    "city": "Kronach"
  },
  {
    "postcode": "96364",
    "city": "Ebersmühle"
  },
  {
    "postcode": "96364",
    "city": "Kreuzberg"
  },
  {
    "postcode": "96364",
    "city": "Vogtsmühle"
  },
  {
    "postcode": "96365",
    "city": "Heinersberg"
  },
  {
    "postcode": "96365",
    "city": "Ködelberg"
  },
  {
    "postcode": "96365",
    "city": "Nordhalben"
  },
  {
    "postcode": "96365",
    "city": "Thomasmühle"
  },
  {
    "postcode": "96365",
    "city": "Kronach"
  },
  {
    "postcode": "96365",
    "city": "Buckenreuth"
  },
  {
    "postcode": "96365",
    "city": "Grund"
  },
  {
    "postcode": "96365",
    "city": "Krögelsmühle"
  },
  {
    "postcode": "96365",
    "city": "Neumühle"
  },
  {
    "postcode": "96365",
    "city": "Regberg"
  },
  {
    "postcode": "96365",
    "city": "Stengelshof"
  },
  {
    "postcode": "96365",
    "city": "Stoffelsmühle"
  },
  {
    "postcode": "96365",
    "city": "Wetthof"
  },
  {
    "postcode": "96367",
    "city": "Tschirn"
  },
  {
    "postcode": "96367",
    "city": "Kronach"
  },
  {
    "postcode": "96367",
    "city": "Dobermühle"
  },
  {
    "postcode": "96369",
    "city": "Buch"
  },
  {
    "postcode": "96369",
    "city": "Eichenbühl"
  },
  {
    "postcode": "96369",
    "city": "Gössersdorf"
  },
  {
    "postcode": "96369",
    "city": "Grün Kreis Kronach"
  },
  {
    "postcode": "96369",
    "city": "Grün"
  },
  {
    "postcode": "96369",
    "city": "Hummendorf"
  },
  {
    "postcode": "96369",
    "city": "Neuenreuth"
  },
  {
    "postcode": "96369",
    "city": "Reuth"
  },
  {
    "postcode": "96369",
    "city": "Thonberg Oberfranken"
  },
  {
    "postcode": "96369",
    "city": "Thonberg"
  },
  {
    "postcode": "96369",
    "city": "Weißenbrunn"
  },
  {
    "postcode": "96369",
    "city": "Weißenbrunn Kreis Kronach"
  },
  {
    "postcode": "96369",
    "city": "Wildenberg Kreis Kronach"
  },
  {
    "postcode": "96369",
    "city": "Wildenberg"
  },
  {
    "postcode": "96369",
    "city": "Kronach"
  },
  {
    "postcode": "96369",
    "city": "Welzmühle"
  },
  {
    "postcode": "96369",
    "city": "Böhlbach"
  },
  {
    "postcode": "96369",
    "city": "Friedrichsburg"
  },
  {
    "postcode": "96369",
    "city": "Holzhaus"
  },
  {
    "postcode": "96369",
    "city": "Neutennig"
  },
  {
    "postcode": "96369",
    "city": "Obertennig"
  },
  {
    "postcode": "96369",
    "city": "Plösenthal"
  },
  {
    "postcode": "96369",
    "city": "Rangen"
  },
  {
    "postcode": "96369",
    "city": "Rucksgasse"
  },
  {
    "postcode": "96369",
    "city": "Rucksmühle"
  },
  {
    "postcode": "96369",
    "city": "Sachspfeife"
  },
  {
    "postcode": "96369",
    "city": "Schaufel"
  },
  {
    "postcode": "96369",
    "city": "Schlottermühle"
  },
  {
    "postcode": "96369",
    "city": "Sorg"
  },
  {
    "postcode": "96369",
    "city": "Untertennig"
  },
  {
    "postcode": "96369",
    "city": "Wustung"
  },
  {
    "postcode": "96450",
    "city": "Beiersdorf bei Coburg"
  },
  {
    "postcode": "96450",
    "city": "Bertelsdorf Oberfranken"
  },
  {
    "postcode": "96450",
    "city": "Bertelsdorf"
  },
  {
    "postcode": "96450",
    "city": "Coburg"
  },
  {
    "postcode": "96450",
    "city": "Cortendorf"
  },
  {
    "postcode": "96450",
    "city": "Creidlitz"
  },
  {
    "postcode": "96450",
    "city": "Glend Oberfranken"
  },
  {
    "postcode": "96450",
    "city": "Glend"
  },
  {
    "postcode": "96450",
    "city": "Ketschendorf"
  },
  {
    "postcode": "96450",
    "city": "Löbelstein"
  },
  {
    "postcode": "96450",
    "city": "Lützelbuch"
  },
  {
    "postcode": "96450",
    "city": "Neu- und Neershof"
  },
  {
    "postcode": "96450",
    "city": "Scheuerfeld Oberfranken"
  },
  {
    "postcode": "96450",
    "city": "Scheuerfeld"
  },
  {
    "postcode": "96450",
    "city": "Seidmannsdorf"
  },
  {
    "postcode": "96450",
    "city": "Wüstenahorn"
  },
  {
    "postcode": "96450",
    "city": "Beiersdorf"
  },
  {
    "postcode": "96450",
    "city": "Rögen"
  },
  {
    "postcode": "96450",
    "city": "Neuses"
  },
  {
    "postcode": "96450",
    "city": "Bertelsdorfer Höhe"
  },
  {
    "postcode": "96465",
    "city": "Aicha am Berg"
  },
  {
    "postcode": "96465",
    "city": "Birkig bei Fürth am Berg"
  },
  {
    "postcode": "96465",
    "city": "Boderndorf"
  },
  {
    "postcode": "96465",
    "city": "Brüx bei Coburg"
  },
  {
    "postcode": "96465",
    "city": "Ebersdorf"
  },
  {
    "postcode": "96465",
    "city": "Fechheim"
  },
  {
    "postcode": "96465",
    "city": "Fürth am Berg"
  },
  {
    "postcode": "96465",
    "city": "Haarbrücken Kreis Coburg"
  },
  {
    "postcode": "96465",
    "city": "Haarbrücken"
  },
  {
    "postcode": "96465",
    "city": "Höhn bei Coburg"
  },
  {
    "postcode": "96465",
    "city": "Horb bei Fürth am Berg"
  },
  {
    "postcode": "96465",
    "city": "Kemmaten"
  },
  {
    "postcode": "96465",
    "city": "Ketschenbach"
  },
  {
    "postcode": "96465",
    "city": "Meilschnitz"
  },
  {
    "postcode": "96465",
    "city": "Mittelwasungen am Berg"
  },
  {
    "postcode": "96465",
    "city": "Neustadt bei Coburg"
  },
  {
    "postcode": "96465",
    "city": "Plesten am Berg"
  },
  {
    "postcode": "96465",
    "city": "Rüttmannsdorf bei Coburg"
  },
  {
    "postcode": "96465",
    "city": "Thann Kreis Coburg"
  },
  {
    "postcode": "96465",
    "city": "Thann"
  },
  {
    "postcode": "96465",
    "city": "Unterwasungen am Berg"
  },
  {
    "postcode": "96465",
    "city": "Weimersdorf bei Coburg"
  },
  {
    "postcode": "96465",
    "city": "Wellmersdorf bei Coburg"
  },
  {
    "postcode": "96465",
    "city": "Wildenheid"
  },
  {
    "postcode": "96465",
    "city": "Coburg"
  },
  {
    "postcode": "96465",
    "city": "Neustadt b. Coburg"
  },
  {
    "postcode": "96465",
    "city": "Neustadt"
  },
  {
    "postcode": "96465",
    "city": "Fürth a. Berg"
  },
  {
    "postcode": "96465",
    "city": "Höhn"
  },
  {
    "postcode": "96465",
    "city": "Unterwasungen"
  },
  {
    "postcode": "96465",
    "city": "Birkig"
  },
  {
    "postcode": "96465",
    "city": "Wellmersdorf"
  },
  {
    "postcode": "96465",
    "city": "Brüx"
  },
  {
    "postcode": "96465",
    "city": "Horb"
  },
  {
    "postcode": "96465",
    "city": "Plesten"
  },
  {
    "postcode": "96465",
    "city": "Mittelwasungen"
  },
  {
    "postcode": "96465",
    "city": "Aicha"
  },
  {
    "postcode": "96465",
    "city": "Rüttmannsdorf"
  },
  {
    "postcode": "96465",
    "city": "Weimersdorf"
  },
  {
    "postcode": "96472",
    "city": "Blumenrod"
  },
  {
    "postcode": "96472",
    "city": "Einberg"
  },
  {
    "postcode": "96472",
    "city": "Fischbach Oberfranken"
  },
  {
    "postcode": "96472",
    "city": "Fischbach"
  },
  {
    "postcode": "96472",
    "city": "Fornbach vorm Wald"
  },
  {
    "postcode": "96472",
    "city": "Kipfendorf"
  },
  {
    "postcode": "96472",
    "city": "Mittelberg"
  },
  {
    "postcode": "96472",
    "city": "Mönchröden"
  },
  {
    "postcode": "96472",
    "city": "Oberwohlsbach"
  },
  {
    "postcode": "96472",
    "city": "Oeslau"
  },
  {
    "postcode": "96472",
    "city": "Rödental"
  },
  {
    "postcode": "96472",
    "city": "Rothenhof über Coburg"
  },
  {
    "postcode": "96472",
    "city": "Schönstädt Oberfranken"
  },
  {
    "postcode": "96472",
    "city": "Schönstädt"
  },
  {
    "postcode": "96472",
    "city": "Spittelstein"
  },
  {
    "postcode": "96472",
    "city": "Unterwohlsbach"
  },
  {
    "postcode": "96472",
    "city": "Waldsachsen Oberfranken"
  },
  {
    "postcode": "96472",
    "city": "Waldsachsen"
  },
  {
    "postcode": "96472",
    "city": "Waltersdorf Oberfranken"
  },
  {
    "postcode": "96472",
    "city": "Waltersdorf"
  },
  {
    "postcode": "96472",
    "city": "Weißenbrunn vorm Wald"
  },
  {
    "postcode": "96472",
    "city": "Coburg"
  },
  {
    "postcode": "96472",
    "city": "Rothenhof"
  },
  {
    "postcode": "96472",
    "city": "Fornbach"
  },
  {
    "postcode": "96476",
    "city": "Bad Rodach"
  },
  {
    "postcode": "96476",
    "city": "Breitenau Oberfranken"
  },
  {
    "postcode": "96476",
    "city": "Breitenau"
  },
  {
    "postcode": "96476",
    "city": "Carlshan Oberfranken"
  },
  {
    "postcode": "96476",
    "city": "Carlshan"
  },
  {
    "postcode": "96476",
    "city": "Elsa Oberfranken"
  },
  {
    "postcode": "96476",
    "city": "Elsa"
  },
  {
    "postcode": "96476",
    "city": "Gauerstadt"
  },
  {
    "postcode": "96476",
    "city": "Grattstadt"
  },
  {
    "postcode": "96476",
    "city": "Heldritt"
  },
  {
    "postcode": "96476",
    "city": "Lempertshausen bei Coburg"
  },
  {
    "postcode": "96476",
    "city": "Mährenhausen"
  },
  {
    "postcode": "96476",
    "city": "Niederndorf"
  },
  {
    "postcode": "96476",
    "city": "Oettingshausen"
  },
  {
    "postcode": "96476",
    "city": "Rodach bei Coburg"
  },
  {
    "postcode": "96476",
    "city": "Roßfeld Oberfranken"
  },
  {
    "postcode": "96476",
    "city": "Roßfeld"
  },
  {
    "postcode": "96476",
    "city": "Rudelsdorf bei Coburg"
  },
  {
    "postcode": "96476",
    "city": "Schweighof bei Coburg"
  },
  {
    "postcode": "96476",
    "city": "Sülzfeld bei Coburg"
  },
  {
    "postcode": "96476",
    "city": "Coburg"
  },
  {
    "postcode": "96476",
    "city": "Rodach"
  },
  {
    "postcode": "96476",
    "city": "Lempertshausen"
  },
  {
    "postcode": "96476",
    "city": "Rudelsdorf"
  },
  {
    "postcode": "96476",
    "city": "Sülzfeld"
  },
  {
    "postcode": "96476",
    "city": "Schweighof"
  },
  {
    "postcode": "96479",
    "city": "Altenhof Oberfranken"
  },
  {
    "postcode": "96479",
    "city": "Altenhof"
  },
  {
    "postcode": "96479",
    "city": "Gersbach"
  },
  {
    "postcode": "96479",
    "city": "Hergramsdorf Oberfranken"
  },
  {
    "postcode": "96479",
    "city": "Hergramsdorf"
  },
  {
    "postcode": "96479",
    "city": "Neundorf bei Coburg"
  },
  {
    "postcode": "96479",
    "city": "Schlettach"
  },
  {
    "postcode": "96479",
    "city": "Tambach"
  },
  {
    "postcode": "96479",
    "city": "Weidach Oberfranken"
  },
  {
    "postcode": "96479",
    "city": "Weidach"
  },
  {
    "postcode": "96479",
    "city": "Weitramsdorf"
  },
  {
    "postcode": "96479",
    "city": "Coburg"
  },
  {
    "postcode": "96479",
    "city": "Neundorf"
  },
  {
    "postcode": "96479",
    "city": "Weidach-Vogelherd"
  },
  {
    "postcode": "96482",
    "city": "Ahorn"
  },
  {
    "postcode": "96482",
    "city": "Ahorn Kreis Coburg"
  },
  {
    "postcode": "96482",
    "city": "Eicha Oberfranken"
  },
  {
    "postcode": "96482",
    "city": "Eicha"
  },
  {
    "postcode": "96482",
    "city": "Finkenau"
  },
  {
    "postcode": "96482",
    "city": "Schafhof Kreis Coburg"
  },
  {
    "postcode": "96482",
    "city": "Schafhof"
  },
  {
    "postcode": "96482",
    "city": "Schorkendorf Oberfranken"
  },
  {
    "postcode": "96482",
    "city": "Schorkendorf"
  },
  {
    "postcode": "96482",
    "city": "Triebsdorf"
  },
  {
    "postcode": "96482",
    "city": "Witzmannsberg Oberfranken"
  },
  {
    "postcode": "96482",
    "city": "Witzmannsberg"
  },
  {
    "postcode": "96482",
    "city": "Wohlbach Kreis Coburg"
  },
  {
    "postcode": "96482",
    "city": "Wohlbach"
  },
  {
    "postcode": "96482",
    "city": "Coburg"
  },
  {
    "postcode": "96484",
    "city": "Ahlstadt"
  },
  {
    "postcode": "96484",
    "city": "Beuerfeld"
  },
  {
    "postcode": "96484",
    "city": "Drossenhausen"
  },
  {
    "postcode": "96484",
    "city": "Einzelberg"
  },
  {
    "postcode": "96484",
    "city": "Großwalbur"
  },
  {
    "postcode": "96484",
    "city": "Herbartsdorf"
  },
  {
    "postcode": "96484",
    "city": "Kleinwalbur"
  },
  {
    "postcode": "96484",
    "city": "Kösfeld bei Coburg"
  },
  {
    "postcode": "96484",
    "city": "Meeder"
  },
  {
    "postcode": "96484",
    "city": "Mirsdorf"
  },
  {
    "postcode": "96484",
    "city": "Moggenbrunn"
  },
  {
    "postcode": "96484",
    "city": "Neida"
  },
  {
    "postcode": "96484",
    "city": "Ottowind"
  },
  {
    "postcode": "96484",
    "city": "Sulzdorf bei Coburg"
  },
  {
    "postcode": "96484",
    "city": "Wiesenfeld bei Coburg"
  },
  {
    "postcode": "96484",
    "city": "Coburg"
  },
  {
    "postcode": "96484",
    "city": "Wiesenfeld"
  },
  {
    "postcode": "96484",
    "city": "Sulzdorf"
  },
  {
    "postcode": "96484",
    "city": "Birkenmoor"
  },
  {
    "postcode": "96484",
    "city": "Kösfeld"
  },
  {
    "postcode": "96486",
    "city": "Lautertal Oberfranken"
  },
  {
    "postcode": "96486",
    "city": "Lautertal"
  },
  {
    "postcode": "96486",
    "city": "Neukirchen Oberfranken"
  },
  {
    "postcode": "96486",
    "city": "Neukirchen"
  },
  {
    "postcode": "96486",
    "city": "Oberlauter"
  },
  {
    "postcode": "96486",
    "city": "Rottenbach"
  },
  {
    "postcode": "96486",
    "city": "Tiefenlauter"
  },
  {
    "postcode": "96486",
    "city": "Tremersdorf"
  },
  {
    "postcode": "96486",
    "city": "Unterlauter"
  },
  {
    "postcode": "96486",
    "city": "Coburg"
  },
  {
    "postcode": "96487",
    "city": "Dörfles-Esbach"
  },
  {
    "postcode": "96487",
    "city": "Coburg"
  },
  {
    "postcode": "96489",
    "city": "Niederfüllbach"
  },
  {
    "postcode": "96489",
    "city": "Coburg"
  },
  {
    "postcode": "96515",
    "city": "Jagdshof"
  },
  {
    "postcode": "96515",
    "city": "Judenbach"
  },
  {
    "postcode": "96515",
    "city": "Neuenbau"
  },
  {
    "postcode": "96515",
    "city": "Oberland am Rennsteig"
  },
  {
    "postcode": "96515",
    "city": "Sonneberg Thüringen"
  },
  {
    "postcode": "96515",
    "city": "Sonneberg"
  },
  {
    "postcode": "96515",
    "city": "Oberlind"
  },
  {
    "postcode": "96515",
    "city": "Blechhammer"
  },
  {
    "postcode": "96515",
    "city": "Spechtsbrunn"
  },
  {
    "postcode": "96515",
    "city": "Hasenthal"
  },
  {
    "postcode": "96515",
    "city": "Mürschnitz"
  },
  {
    "postcode": "96515",
    "city": "Bettelhecken"
  },
  {
    "postcode": "96515",
    "city": "Köppelsdorf"
  },
  {
    "postcode": "96515",
    "city": "Hönbach"
  },
  {
    "postcode": "96515",
    "city": "Land"
  },
  {
    "postcode": "96515",
    "city": "Malmerz"
  },
  {
    "postcode": "96515",
    "city": "Steinbach"
  },
  {
    "postcode": "96515",
    "city": "Neufang"
  },
  {
    "postcode": "96515",
    "city": "Haselbach"
  },
  {
    "postcode": "96515",
    "city": "Wehd"
  },
  {
    "postcode": "96515",
    "city": "Hüttensteinach"
  },
  {
    "postcode": "96515",
    "city": "Eschenthal"
  },
  {
    "postcode": "96515",
    "city": "Friedrichsthal"
  },
  {
    "postcode": "96515",
    "city": "Georgshütte"
  },
  {
    "postcode": "96515",
    "city": "Schneidemühle"
  },
  {
    "postcode": "96515",
    "city": "Hüttengrund"
  },
  {
    "postcode": "96515",
    "city": "Unterlind"
  },
  {
    "postcode": "96515",
    "city": "Vorwerk"
  },
  {
    "postcode": "96523",
    "city": "Land"
  },
  {
    "postcode": "96523",
    "city": "Oberland am Rennsteig"
  },
  {
    "postcode": "96523",
    "city": "Steinach Thüringen"
  },
  {
    "postcode": "96523",
    "city": "Steinach"
  },
  {
    "postcode": "96523",
    "city": "Sonneberg"
  },
  {
    "postcode": "96524",
    "city": "Föritz"
  },
  {
    "postcode": "96524",
    "city": "Neuhaus-Schierschnitz"
  },
  {
    "postcode": "96524",
    "city": "Sonneberg"
  },
  {
    "postcode": "96524",
    "city": "Föritztal"
  },
  {
    "postcode": "96524",
    "city": "Heubisch"
  },
  {
    "postcode": "96524",
    "city": "Heinersdorf"
  },
  {
    "postcode": "96524",
    "city": "Judenbach"
  },
  {
    "postcode": "96524",
    "city": "Gefell"
  },
  {
    "postcode": "96524",
    "city": "Rottmar"
  },
  {
    "postcode": "96524",
    "city": "Oerlsdorf"
  },
  {
    "postcode": "96524",
    "city": "Mogger"
  },
  {
    "postcode": "96524",
    "city": "Weidhausen"
  },
  {
    "postcode": "96524",
    "city": "Mupperg"
  },
  {
    "postcode": "96524",
    "city": "Sichelreuth"
  },
  {
    "postcode": "96524",
    "city": "Neuenbau"
  },
  {
    "postcode": "96524",
    "city": "Eichitz"
  },
  {
    "postcode": "96524",
    "city": "Lindenberg"
  },
  {
    "postcode": "96524",
    "city": "Jagdshof"
  },
  {
    "postcode": "96524",
    "city": "Schwärzdorf"
  },
  {
    "postcode": "96524",
    "city": "Mönchsberg"
  },
  {
    "postcode": "96528",
    "city": "Bachfeld"
  },
  {
    "postcode": "96528",
    "city": "Effelder-Rauenstein"
  },
  {
    "postcode": "96528",
    "city": "Schalkau"
  },
  {
    "postcode": "96528",
    "city": "Sonneberg"
  },
  {
    "postcode": "96528",
    "city": "Frankenblick"
  },
  {
    "postcode": "96528",
    "city": "Mengersgereuth-Hämmern"
  },
  {
    "postcode": "96528",
    "city": "Effelder"
  },
  {
    "postcode": "96528",
    "city": "Rauenstein"
  },
  {
    "postcode": "96528",
    "city": "Seltendorf"
  },
  {
    "postcode": "96528",
    "city": "Melchersberg"
  },
  {
    "postcode": "96528",
    "city": "Grümpen"
  },
  {
    "postcode": "96528",
    "city": "Döhlau"
  },
  {
    "postcode": "96528",
    "city": "Fichtach"
  },
  {
    "postcode": "96528",
    "city": "Hohetann"
  },
  {
    "postcode": "96528",
    "city": "Meschenbach"
  },
  {
    "postcode": "96528",
    "city": "Rabenäußig"
  },
  {
    "postcode": "96528",
    "city": "Rückerswind"
  },
  {
    "postcode": "96528",
    "city": "Welchendorf"
  },
  {
    "postcode": "96528",
    "city": "Almerswind"
  },
  {
    "postcode": "96528",
    "city": "Selsendorf"
  },
  {
    "postcode": "96528",
    "city": "Theuern"
  },
  {
    "postcode": "96528",
    "city": "Truckenthal"
  },
  {
    "postcode": "96528",
    "city": "Roth"
  },
  {
    "postcode": "96528",
    "city": "Ehnes"
  },
  {
    "postcode": "96528",
    "city": "Emstadt"
  },
  {
    "postcode": "96528",
    "city": "Gundelswind"
  },
  {
    "postcode": "96528",
    "city": "Katzberg"
  },
  {
    "postcode": "96528",
    "city": "Mausendorf"
  },
  {
    "postcode": "96529",
    "city": "Mengersgereuth-Hämmern"
  }
]