[
  {
    "postcode": "99084",
    "city": "Erfurt"
  },
  {
    "postcode": "99084",
    "city": "Altstadt"
  },
  {
    "postcode": "99084",
    "city": "Brühlervorstadt"
  },
  {
    "postcode": "99084",
    "city": "Löbervorstadt"
  },
  {
    "postcode": "99085",
    "city": "Erfurt"
  },
  {
    "postcode": "99085",
    "city": "Krämpfervorstadt"
  },
  {
    "postcode": "99085",
    "city": "Johannesvorstadt"
  },
  {
    "postcode": "99085",
    "city": "Hohenwinden"
  },
  {
    "postcode": "99085",
    "city": "Daberstedt"
  },
  {
    "postcode": "99085",
    "city": "Ilversgehofen"
  },
  {
    "postcode": "99086",
    "city": "Erfurt"
  },
  {
    "postcode": "99086",
    "city": "Ilversgehofen"
  },
  {
    "postcode": "99086",
    "city": "Hohenwinden"
  },
  {
    "postcode": "99086",
    "city": "Johannesvorstadt"
  },
  {
    "postcode": "99086",
    "city": "Johannesplatz"
  },
  {
    "postcode": "99086",
    "city": "Krämpfervorstadt"
  },
  {
    "postcode": "99086",
    "city": "Andreasvorstadt"
  },
  {
    "postcode": "99087",
    "city": "Erfurt"
  },
  {
    "postcode": "99087",
    "city": "Roter Berg"
  },
  {
    "postcode": "99087",
    "city": "Hohenwinden"
  },
  {
    "postcode": "99089",
    "city": "Erfurt"
  },
  {
    "postcode": "99089",
    "city": "Andreasvorstadt"
  },
  {
    "postcode": "99089",
    "city": "Ilversgehofen"
  },
  {
    "postcode": "99089",
    "city": "Rieth"
  },
  {
    "postcode": "99089",
    "city": "Altstadt"
  },
  {
    "postcode": "99089",
    "city": "Berliner Platz"
  },
  {
    "postcode": "99091",
    "city": "Erfurt"
  },
  {
    "postcode": "99091",
    "city": "Gispersleben"
  },
  {
    "postcode": "99091",
    "city": "Roter Berg"
  },
  {
    "postcode": "99091",
    "city": "Berliner Platz"
  },
  {
    "postcode": "99091",
    "city": "Moskauer Platz"
  },
  {
    "postcode": "99092",
    "city": "Bindersleben"
  },
  {
    "postcode": "99092",
    "city": "Erfurt"
  },
  {
    "postcode": "99092",
    "city": "Frienstedt"
  },
  {
    "postcode": "99092",
    "city": "Brühlervorstadt"
  },
  {
    "postcode": "99092",
    "city": "Andreasvorstadt"
  },
  {
    "postcode": "99092",
    "city": "Ermstedt"
  },
  {
    "postcode": "99092",
    "city": "Gottstedt"
  },
  {
    "postcode": "99092",
    "city": "Marbach"
  },
  {
    "postcode": "99094",
    "city": "Erfurt"
  },
  {
    "postcode": "99094",
    "city": "Schmira"
  },
  {
    "postcode": "99094",
    "city": "Bischleben-Stedten"
  },
  {
    "postcode": "99094",
    "city": "Brühlervorstadt"
  },
  {
    "postcode": "99094",
    "city": "Hochheim"
  },
  {
    "postcode": "99094",
    "city": "Möbisburg-Rhoda"
  },
  {
    "postcode": "99094",
    "city": "Molsdorf"
  },
  {
    "postcode": "99094",
    "city": "Löbervorstadt"
  },
  {
    "postcode": "99096",
    "city": "Erfurt"
  },
  {
    "postcode": "99096",
    "city": "Löbervorstadt"
  },
  {
    "postcode": "99096",
    "city": "Melchendorf"
  },
  {
    "postcode": "99096",
    "city": "Daberstedt"
  },
  {
    "postcode": "99096",
    "city": "Brühlervorstadt"
  },
  {
    "postcode": "99096",
    "city": "Altstadt"
  },
  {
    "postcode": "99097",
    "city": "Erfurt"
  },
  {
    "postcode": "99097",
    "city": "Melchendorf"
  },
  {
    "postcode": "99097",
    "city": "Waltersleben"
  },
  {
    "postcode": "99097",
    "city": "Egstedt a Steiger"
  },
  {
    "postcode": "99097",
    "city": "Wiesenhügel"
  },
  {
    "postcode": "99098",
    "city": "Büßleben"
  },
  {
    "postcode": "99098",
    "city": "Erfurt"
  },
  {
    "postcode": "99098",
    "city": "Linderbach"
  },
  {
    "postcode": "99098",
    "city": "Urbich"
  },
  {
    "postcode": "99098",
    "city": "Kerspleben"
  },
  {
    "postcode": "99098",
    "city": "Hochstedt"
  },
  {
    "postcode": "99098",
    "city": "Vieselbach"
  },
  {
    "postcode": "99098",
    "city": "Töttleben"
  },
  {
    "postcode": "99098",
    "city": "Wallichen"
  },
  {
    "postcode": "99098",
    "city": "Azmannsdorf"
  },
  {
    "postcode": "99099",
    "city": "Dittelstedt"
  },
  {
    "postcode": "99099",
    "city": "Erfurt"
  },
  {
    "postcode": "99099",
    "city": "Melchendorf"
  },
  {
    "postcode": "99099",
    "city": "Urbich"
  },
  {
    "postcode": "99099",
    "city": "Niedernissa"
  },
  {
    "postcode": "99099",
    "city": "Daberstedt"
  },
  {
    "postcode": "99099",
    "city": "Windischholzhausen"
  },
  {
    "postcode": "99099",
    "city": "Herrenberg"
  },
  {
    "postcode": "99099",
    "city": "Rohda a Haarberg"
  },
  {
    "postcode": "99099",
    "city": "Haarberg"
  },
  {
    "postcode": "99100",
    "city": "Alach"
  },
  {
    "postcode": "99100",
    "city": "Bienstädt"
  },
  {
    "postcode": "99100",
    "city": "Dachwig"
  },
  {
    "postcode": "99100",
    "city": "Döllstädt"
  },
  {
    "postcode": "99100",
    "city": "Gierstädt / Kleinfahner"
  },
  {
    "postcode": "99100",
    "city": "Gierstädt"
  },
  {
    "postcode": "99100",
    "city": "Großfahner"
  },
  {
    "postcode": "99100",
    "city": "Schaderode"
  },
  {
    "postcode": "99100",
    "city": "Zimmernsupra"
  },
  {
    "postcode": "99100",
    "city": "Gotha"
  },
  {
    "postcode": "99100",
    "city": "Kleinfahner"
  },
  {
    "postcode": "99102",
    "city": "Klettbach"
  },
  {
    "postcode": "99102",
    "city": "Rockhausen"
  },
  {
    "postcode": "99102",
    "city": "Windischholzhausen"
  },
  {
    "postcode": "99102",
    "city": "Ilm-Kreis"
  },
  {
    "postcode": "99102",
    "city": "Schellroda"
  },
  {
    "postcode": "99130",
    "city": "Dannheim"
  },
  {
    "postcode": "99130",
    "city": "Marlishausen"
  },
  {
    "postcode": "99189",
    "city": "Andisleben"
  },
  {
    "postcode": "99189",
    "city": "Elxleben an der Gera"
  },
  {
    "postcode": "99189",
    "city": "Gebesee"
  },
  {
    "postcode": "99189",
    "city": "Haßleben Thüringen"
  },
  {
    "postcode": "99189",
    "city": "Haßleben"
  },
  {
    "postcode": "99189",
    "city": "Ringleben bei Gebesee"
  },
  {
    "postcode": "99189",
    "city": "Walschleben"
  },
  {
    "postcode": "99189",
    "city": "Witterda"
  },
  {
    "postcode": "99189",
    "city": "Sömmerda"
  },
  {
    "postcode": "99189",
    "city": "Elxleben"
  },
  {
    "postcode": "99189",
    "city": "Ringleben"
  },
  {
    "postcode": "99189",
    "city": "Friedrichsdorf"
  },
  {
    "postcode": "99192",
    "city": "Apfelstädt"
  },
  {
    "postcode": "99192",
    "city": "Gamstädt"
  },
  {
    "postcode": "99192",
    "city": "Ingersleben"
  },
  {
    "postcode": "99192",
    "city": "Neudietendorf"
  },
  {
    "postcode": "99192",
    "city": "Nottleben"
  },
  {
    "postcode": "99192",
    "city": "Gotha"
  },
  {
    "postcode": "99192",
    "city": "Nesse-Apfelstädt"
  },
  {
    "postcode": "99192",
    "city": "Kleinrettbach"
  },
  {
    "postcode": "99192",
    "city": "Kornhochheim"
  },
  {
    "postcode": "99195",
    "city": "Alperstedt"
  },
  {
    "postcode": "99195",
    "city": "Eckstedt"
  },
  {
    "postcode": "99195",
    "city": "Großrudestedt"
  },
  {
    "postcode": "99195",
    "city": "Markvippach"
  },
  {
    "postcode": "99195",
    "city": "Nöda"
  },
  {
    "postcode": "99195",
    "city": "Riethnordhausen Thüringen"
  },
  {
    "postcode": "99195",
    "city": "Riethnordhausen"
  },
  {
    "postcode": "99195",
    "city": "Schloßvippach"
  },
  {
    "postcode": "99195",
    "city": "Sömmerda"
  },
  {
    "postcode": "99195",
    "city": "Kleinrudestedt"
  },
  {
    "postcode": "99195",
    "city": "Kranichborn"
  },
  {
    "postcode": "99195",
    "city": "Schwansee"
  },
  {
    "postcode": "99195",
    "city": "Bachstedt"
  },
  {
    "postcode": "99195",
    "city": "Dielsdorf"
  },
  {
    "postcode": "99198",
    "city": "Großmölsen"
  },
  {
    "postcode": "99198",
    "city": "Kleinmölsen"
  },
  {
    "postcode": "99198",
    "city": "Mönchenholzhausen"
  },
  {
    "postcode": "99198",
    "city": "Ollendorf bei Erfurt"
  },
  {
    "postcode": "99198",
    "city": "Udestedt"
  },
  {
    "postcode": "99198",
    "city": "Sömmerda"
  },
  {
    "postcode": "99198",
    "city": "Ollendorf"
  },
  {
    "postcode": "99310",
    "city": "Alkersleben"
  },
  {
    "postcode": "99310",
    "city": "Angelhausen-Oberndorf"
  },
  {
    "postcode": "99310",
    "city": "Arnstadt"
  },
  {
    "postcode": "99310",
    "city": "Bösleben-Wüllersleben"
  },
  {
    "postcode": "99310",
    "city": "Branchewinda"
  },
  {
    "postcode": "99310",
    "city": "Dannheim"
  },
  {
    "postcode": "99310",
    "city": "Dornheim bei Arnstadt"
  },
  {
    "postcode": "99310",
    "city": "Ettischleben"
  },
  {
    "postcode": "99310",
    "city": "Kettmannshausen"
  },
  {
    "postcode": "99310",
    "city": "Marlishausen"
  },
  {
    "postcode": "99310",
    "city": "Neuroda"
  },
  {
    "postcode": "99310",
    "city": "Osthausen-Wülfershausen"
  },
  {
    "postcode": "99310",
    "city": "Reinsfeld"
  },
  {
    "postcode": "99310",
    "city": "Schmerfeld"
  },
  {
    "postcode": "99310",
    "city": "Wachsenburggemeinde"
  },
  {
    "postcode": "99310",
    "city": "Wipfra"
  },
  {
    "postcode": "99310",
    "city": "Wipfratal"
  },
  {
    "postcode": "99310",
    "city": "Witzleben"
  },
  {
    "postcode": "99310",
    "city": "Ilm-Kreis"
  },
  {
    "postcode": "99310",
    "city": "Dornheim"
  },
  {
    "postcode": "99310",
    "city": "Hausen"
  },
  {
    "postcode": "99310",
    "city": "Rudisleben"
  },
  {
    "postcode": "99310",
    "city": "Dosdorf"
  },
  {
    "postcode": "99310",
    "city": "Espenfeld"
  },
  {
    "postcode": "99310",
    "city": "Siegelbach"
  },
  {
    "postcode": "99310",
    "city": "Görbitzhausen"
  },
  {
    "postcode": "99310",
    "city": "Roda"
  },
  {
    "postcode": "99310",
    "city": "Bösleben"
  },
  {
    "postcode": "99310",
    "city": "Wüllersleben"
  },
  {
    "postcode": "99310",
    "city": "Osthausen"
  },
  {
    "postcode": "99310",
    "city": "Wülfershausen"
  },
  {
    "postcode": "99310",
    "city": "Ellichleben"
  },
  {
    "postcode": "99310",
    "city": "Achelstädt"
  },
  {
    "postcode": "99326",
    "city": "Dienstedt-Hettstedt"
  },
  {
    "postcode": "99326",
    "city": "Gösselborn"
  },
  {
    "postcode": "99326",
    "city": "Großliebringen"
  },
  {
    "postcode": "99326",
    "city": "Hammersfeld"
  },
  {
    "postcode": "99326",
    "city": "Ilmtal"
  },
  {
    "postcode": "99326",
    "city": "Nahwinden"
  },
  {
    "postcode": "99326",
    "city": "Niederwillingen"
  },
  {
    "postcode": "99326",
    "city": "Oberwillingen"
  },
  {
    "postcode": "99326",
    "city": "Stadtilm"
  },
  {
    "postcode": "99326",
    "city": "Traßdorf"
  },
  {
    "postcode": "99326",
    "city": "Ilm-Kreis"
  },
  {
    "postcode": "99326",
    "city": "Dienstedt"
  },
  {
    "postcode": "99326",
    "city": "Behringen"
  },
  {
    "postcode": "99326",
    "city": "Dörnfeld"
  },
  {
    "postcode": "99326",
    "city": "Singen"
  },
  {
    "postcode": "99326",
    "city": "Griesheim"
  },
  {
    "postcode": "99326",
    "city": "Cottendorf"
  },
  {
    "postcode": "99326",
    "city": "Döllstedt"
  },
  {
    "postcode": "99326",
    "city": "Ehrenstein"
  },
  {
    "postcode": "99326",
    "city": "Geilsdorf"
  },
  {
    "postcode": "99326",
    "city": "Großhettstedt"
  },
  {
    "postcode": "99326",
    "city": "Hohes Kreuz"
  },
  {
    "postcode": "99326",
    "city": "Kleinhettstedt"
  },
  {
    "postcode": "99326",
    "city": "Kleinliebringen"
  },
  {
    "postcode": "99326",
    "city": "Oesteröda"
  },
  {
    "postcode": "99330",
    "city": "Crawinkel"
  },
  {
    "postcode": "99330",
    "city": "Frankenhain Thüringen"
  },
  {
    "postcode": "99330",
    "city": "Frankenhain"
  },
  {
    "postcode": "99330",
    "city": "Gräfenroda"
  },
  {
    "postcode": "99330",
    "city": "Liebenstein bei Arnstadt"
  },
  {
    "postcode": "99330",
    "city": "Gotha"
  },
  {
    "postcode": "99330",
    "city": "Geratal"
  },
  {
    "postcode": "99330",
    "city": "Ohrdruf"
  },
  {
    "postcode": "99334",
    "city": "Elleben"
  },
  {
    "postcode": "99334",
    "city": "Elxleben bei Arnstadt"
  },
  {
    "postcode": "99334",
    "city": "Ichtershausen"
  },
  {
    "postcode": "99334",
    "city": "Kirchheim bei Arnstadt"
  },
  {
    "postcode": "99334",
    "city": "Ilm-Kreis"
  },
  {
    "postcode": "99334",
    "city": "Amt Wachsenburg"
  },
  {
    "postcode": "99334",
    "city": "Elxleben"
  },
  {
    "postcode": "99334",
    "city": "Sülzenbrücken"
  },
  {
    "postcode": "99334",
    "city": "Kirchheim"
  },
  {
    "postcode": "99334",
    "city": "Holzhausen"
  },
  {
    "postcode": "99334",
    "city": "Haarhausen"
  },
  {
    "postcode": "99334",
    "city": "Werningsleben"
  },
  {
    "postcode": "99334",
    "city": "Bechstedt-Wagd"
  },
  {
    "postcode": "99334",
    "city": "Thörey"
  },
  {
    "postcode": "99334",
    "city": "Bittstädt"
  },
  {
    "postcode": "99334",
    "city": "Röhrensee"
  },
  {
    "postcode": "99334",
    "city": "Eischleben"
  },
  {
    "postcode": "99334",
    "city": "Gewerbegebiet Ichtershausen"
  },
  {
    "postcode": "99334",
    "city": "Rehestedt"
  },
  {
    "postcode": "99334",
    "city": "Rehestädt"
  },
  {
    "postcode": "99334",
    "city": "Riechheim"
  },
  {
    "postcode": "99334",
    "city": "Gügleben"
  },
  {
    "postcode": "99338",
    "city": "Angelroda"
  },
  {
    "postcode": "99338",
    "city": "Gossel"
  },
  {
    "postcode": "99338",
    "city": "Neusiß"
  },
  {
    "postcode": "99338",
    "city": "Plaue Thüringen"
  },
  {
    "postcode": "99338",
    "city": "Plaue"
  },
  {
    "postcode": "99338",
    "city": "Ilm-Kreis"
  },
  {
    "postcode": "99338",
    "city": "Rippersroda"
  },
  {
    "postcode": "99423",
    "city": "Weimar Thüringen"
  },
  {
    "postcode": "99423",
    "city": "Weimar"
  },
  {
    "postcode": "99423",
    "city": "Westvorstadt"
  },
  {
    "postcode": "99423",
    "city": "Altstadt"
  },
  {
    "postcode": "99423",
    "city": "Nordvorstadt"
  },
  {
    "postcode": "99423",
    "city": "Innenstadt"
  },
  {
    "postcode": "99423",
    "city": "Südstadt"
  },
  {
    "postcode": "99425",
    "city": "Weimar Thüringen"
  },
  {
    "postcode": "99425",
    "city": "Weimar"
  },
  {
    "postcode": "99425",
    "city": "Süßenborn"
  },
  {
    "postcode": "99425",
    "city": "Parkvorstadt"
  },
  {
    "postcode": "99425",
    "city": "Südstadt"
  },
  {
    "postcode": "99425",
    "city": "Schönblick"
  },
  {
    "postcode": "99425",
    "city": "Taubach"
  },
  {
    "postcode": "99425",
    "city": "Oberweimar"
  },
  {
    "postcode": "99425",
    "city": "Tiefurt"
  },
  {
    "postcode": "99425",
    "city": "Nordvorstadt"
  },
  {
    "postcode": "99425",
    "city": "Südweststadt"
  },
  {
    "postcode": "99427",
    "city": "Weimar Thüringen"
  },
  {
    "postcode": "99427",
    "city": "Weimar"
  },
  {
    "postcode": "99427",
    "city": "Industriegebiet Nord"
  },
  {
    "postcode": "99427",
    "city": "Schöndorf"
  },
  {
    "postcode": "99427",
    "city": "Nordstadt"
  },
  {
    "postcode": "99427",
    "city": "Weststadt"
  },
  {
    "postcode": "99427",
    "city": "Südweststadt"
  },
  {
    "postcode": "99427",
    "city": "Industriegebiet"
  },
  {
    "postcode": "99427",
    "city": "Industriegebiet West"
  },
  {
    "postcode": "99428",
    "city": "Bechstedtstraß"
  },
  {
    "postcode": "99428",
    "city": "Daasdorf am Berge"
  },
  {
    "postcode": "99428",
    "city": "Hopfgarten bei Weimar Thüringen"
  },
  {
    "postcode": "99428",
    "city": "Hopfgarten bei Weimar"
  },
  {
    "postcode": "99428",
    "city": "Isseroda"
  },
  {
    "postcode": "99428",
    "city": "Niederzimmern"
  },
  {
    "postcode": "99428",
    "city": "Nohra"
  },
  {
    "postcode": "99428",
    "city": "Ottstedt am Berge"
  },
  {
    "postcode": "99428",
    "city": "Utzberg"
  },
  {
    "postcode": "99428",
    "city": "Weimar Thüringen"
  },
  {
    "postcode": "99428",
    "city": "Weimar"
  },
  {
    "postcode": "99428",
    "city": "Weimarer Land"
  },
  {
    "postcode": "99428",
    "city": "Grammetal"
  },
  {
    "postcode": "99428",
    "city": "Ulla"
  },
  {
    "postcode": "99428",
    "city": "Obergrunstedt"
  },
  {
    "postcode": "99428",
    "city": "Legefeld"
  },
  {
    "postcode": "99428",
    "city": "Tröbsdorf"
  },
  {
    "postcode": "99428",
    "city": "Gaberndorf"
  },
  {
    "postcode": "99428",
    "city": "Gelmeroda"
  },
  {
    "postcode": "99428",
    "city": "Niedergrunstedt"
  },
  {
    "postcode": "99428",
    "city": "Possendorf"
  },
  {
    "postcode": "99428",
    "city": "Holzdorf"
  },
  {
    "postcode": "99438",
    "city": "Bad Berka"
  },
  {
    "postcode": "99438",
    "city": "Buchfart"
  },
  {
    "postcode": "99438",
    "city": "Gutendorf bei Bad Berka"
  },
  {
    "postcode": "99438",
    "city": "Hetschburg"
  },
  {
    "postcode": "99438",
    "city": "Oettern"
  },
  {
    "postcode": "99438",
    "city": "Tonndorf bei Bad Berka"
  },
  {
    "postcode": "99438",
    "city": "Troistedt"
  },
  {
    "postcode": "99438",
    "city": "Vollersroda"
  },
  {
    "postcode": "99438",
    "city": "Weimarer Land"
  },
  {
    "postcode": "99438",
    "city": "Tonndorf"
  },
  {
    "postcode": "99438",
    "city": "München"
  },
  {
    "postcode": "99438",
    "city": "Kottendorf"
  },
  {
    "postcode": "99438",
    "city": "Tannroda"
  },
  {
    "postcode": "99438",
    "city": "Schoppendorf"
  },
  {
    "postcode": "99438",
    "city": "Bergern"
  },
  {
    "postcode": "99438",
    "city": "Gutendorf"
  },
  {
    "postcode": "99438",
    "city": "Meckfeld"
  },
  {
    "postcode": "99438",
    "city": "Tiefengruben"
  },
  {
    "postcode": "99438",
    "city": "Böttelborn"
  },
  {
    "postcode": "99439",
    "city": "Ballstedt"
  },
  {
    "postcode": "99439",
    "city": "Berlstedt"
  },
  {
    "postcode": "99439",
    "city": "Buttelstedt"
  },
  {
    "postcode": "99439",
    "city": "Ettersburg"
  },
  {
    "postcode": "99439",
    "city": "Großobringen"
  },
  {
    "postcode": "99439",
    "city": "Heichelheim"
  },
  {
    "postcode": "99439",
    "city": "Hottelstedt"
  },
  {
    "postcode": "99439",
    "city": "Kleinobringen"
  },
  {
    "postcode": "99439",
    "city": "Krautheim bei Weimar Thüringen"
  },
  {
    "postcode": "99439",
    "city": "Krautheim bei Weimar"
  },
  {
    "postcode": "99439",
    "city": "Leutenthal"
  },
  {
    "postcode": "99439",
    "city": "Neumark bei Weimar Thüringen"
  },
  {
    "postcode": "99439",
    "city": "Neumark bei Weimar"
  },
  {
    "postcode": "99439",
    "city": "Ramsla"
  },
  {
    "postcode": "99439",
    "city": "Rohrbach bei Weimar Thüringen"
  },
  {
    "postcode": "99439",
    "city": "Rohrbach bei Weimar"
  },
  {
    "postcode": "99439",
    "city": "Sachsenhausen bei Weimar Thüringen"
  },
  {
    "postcode": "99439",
    "city": "Sachsenhausen bei Weimar"
  },
  {
    "postcode": "99439",
    "city": "Schwerstedt bei Weimar Thüringen"
  },
  {
    "postcode": "99439",
    "city": "Schwerstedt bei Weimar"
  },
  {
    "postcode": "99439",
    "city": "Vippachedelhausen"
  },
  {
    "postcode": "99439",
    "city": "Wohlsborn"
  },
  {
    "postcode": "99439",
    "city": "Weimarer Land"
  },
  {
    "postcode": "99439",
    "city": "Am Ettersberg"
  },
  {
    "postcode": "99439",
    "city": "Neumark"
  },
  {
    "postcode": "99439",
    "city": "Schwerstedt"
  },
  {
    "postcode": "99439",
    "city": "Krautheim"
  },
  {
    "postcode": "99439",
    "city": "Daasdorf b Buttelstedt"
  },
  {
    "postcode": "99439",
    "city": "Sachsenhausen"
  },
  {
    "postcode": "99439",
    "city": "Ottmannshausen"
  },
  {
    "postcode": "99439",
    "city": "Haindorf"
  },
  {
    "postcode": "99439",
    "city": "Nermsdorf"
  },
  {
    "postcode": "99439",
    "city": "Stedten a Ettersberg"
  },
  {
    "postcode": "99439",
    "city": "Thalborn"
  },
  {
    "postcode": "99439",
    "city": "Weiden"
  },
  {
    "postcode": "99441",
    "city": "Döbritschen bei Weimar Thüringen"
  },
  {
    "postcode": "99441",
    "city": "Döbritschen bei Weimar"
  },
  {
    "postcode": "99441",
    "city": "Frankendorf bei Weimar Thüringen"
  },
  {
    "postcode": "99441",
    "city": "Frankendorf bei Weimar"
  },
  {
    "postcode": "99441",
    "city": "Großschwabhausen"
  },
  {
    "postcode": "99441",
    "city": "Hammerstedt"
  },
  {
    "postcode": "99441",
    "city": "Hohlstedt bei Weimar Thüringen"
  },
  {
    "postcode": "99441",
    "city": "Hohlstedt bei Weimar"
  },
  {
    "postcode": "99441",
    "city": "Kiliansroda"
  },
  {
    "postcode": "99441",
    "city": "Kleinschwabhausen bei Mellingen"
  },
  {
    "postcode": "99441",
    "city": "Kromsdorf"
  },
  {
    "postcode": "99441",
    "city": "Lehnstedt bei Mellingen"
  },
  {
    "postcode": "99441",
    "city": "Magdala"
  },
  {
    "postcode": "99441",
    "city": "Mechelroda"
  },
  {
    "postcode": "99441",
    "city": "Mellingen"
  },
  {
    "postcode": "99441",
    "city": "Umpferstedt"
  },
  {
    "postcode": "99441",
    "city": "Weimarer Land"
  },
  {
    "postcode": "99441",
    "city": "Döbritschen"
  },
  {
    "postcode": "99441",
    "city": "Frankendorf"
  },
  {
    "postcode": "99441",
    "city": "Ilmtal-Weinstraße"
  },
  {
    "postcode": "99441",
    "city": "Jena"
  },
  {
    "postcode": "99441",
    "city": "Kleinschwabhausen"
  },
  {
    "postcode": "99441",
    "city": "Lehnstedt"
  },
  {
    "postcode": "99441",
    "city": "Vollradisroda"
  },
  {
    "postcode": "99441",
    "city": "Hohlstedt"
  },
  {
    "postcode": "99441",
    "city": "Kötschau"
  },
  {
    "postcode": "99441",
    "city": "Göttern"
  },
  {
    "postcode": "99441",
    "city": "Ottstedt"
  },
  {
    "postcode": "99441",
    "city": "Maina"
  },
  {
    "postcode": "99441",
    "city": "Linda"
  },
  {
    "postcode": "99441",
    "city": "Köttendorf"
  },
  {
    "postcode": "99444",
    "city": "Blankenhain Thüringen"
  },
  {
    "postcode": "99444",
    "city": "Blankenhain"
  },
  {
    "postcode": "99444",
    "city": "Lengefeld"
  },
  {
    "postcode": "99444",
    "city": "Weimarer Land"
  },
  {
    "postcode": "99444",
    "city": "Rettwitz"
  },
  {
    "postcode": "99444",
    "city": "Saalborn"
  },
  {
    "postcode": "99444",
    "city": "Niedersynderstedt"
  },
  {
    "postcode": "99444",
    "city": "Altdörnfeld"
  },
  {
    "postcode": "99444",
    "city": "Drößnitz"
  },
  {
    "postcode": "99444",
    "city": "Lotschen"
  },
  {
    "postcode": "99444",
    "city": "Großlohma"
  },
  {
    "postcode": "99444",
    "city": "Rottdorf"
  },
  {
    "postcode": "99444",
    "city": "Wittersroda"
  },
  {
    "postcode": "99444",
    "city": "Söllnitz"
  },
  {
    "postcode": "99444",
    "city": "Schwarza"
  },
  {
    "postcode": "99444",
    "city": "Kleinlohma"
  },
  {
    "postcode": "99444",
    "city": "Hochdorf"
  },
  {
    "postcode": "99444",
    "city": "Meckfeld"
  },
  {
    "postcode": "99444",
    "city": "Tromlitz"
  },
  {
    "postcode": "99444",
    "city": "Thangelstedt"
  },
  {
    "postcode": "99444",
    "city": "Neudörnfeld"
  },
  {
    "postcode": "99444",
    "city": "Loßnitz"
  },
  {
    "postcode": "99444",
    "city": "Keßlar"
  },
  {
    "postcode": "99444",
    "city": "Obersynderstedt"
  },
  {
    "postcode": "99444",
    "city": "Neckeroda"
  },
  {
    "postcode": "99444",
    "city": "Krakendorf"
  },
  {
    "postcode": "99448",
    "city": "Hohenfelden"
  },
  {
    "postcode": "99448",
    "city": "Kranichfeld"
  },
  {
    "postcode": "99448",
    "city": "Nauendorf bei Kranichfeld"
  },
  {
    "postcode": "99448",
    "city": "Rittersdorf bei Weimar Thüringen"
  },
  {
    "postcode": "99448",
    "city": "Rittersdorf bei Weimar"
  },
  {
    "postcode": "99448",
    "city": "Weimarer Land"
  },
  {
    "postcode": "99448",
    "city": "Nauendorf"
  },
  {
    "postcode": "99448",
    "city": "Rittersdorf"
  },
  {
    "postcode": "99448",
    "city": "Stedten"
  },
  {
    "postcode": "99448",
    "city": "Barchfeld"
  },
  {
    "postcode": "99510",
    "city": "Apolda"
  },
  {
    "postcode": "99510",
    "city": "Flurstedt"
  },
  {
    "postcode": "99510",
    "city": "Gebstedt"
  },
  {
    "postcode": "99510",
    "city": "Kapellendorf"
  },
  {
    "postcode": "99510",
    "city": "Liebstedt"
  },
  {
    "postcode": "99510",
    "city": "Mattstedt"
  },
  {
    "postcode": "99510",
    "city": "Niederreißen"
  },
  {
    "postcode": "99510",
    "city": "Niederroßla"
  },
  {
    "postcode": "99510",
    "city": "Nirmsdorf"
  },
  {
    "postcode": "99510",
    "city": "Oberreißen"
  },
  {
    "postcode": "99510",
    "city": "Obertrebra"
  },
  {
    "postcode": "99510",
    "city": "Oßmannstedt"
  },
  {
    "postcode": "99510",
    "city": "Pfiffelbach"
  },
  {
    "postcode": "99510",
    "city": "Saaleplatte"
  },
  {
    "postcode": "99510",
    "city": "Wickerstedt"
  },
  {
    "postcode": "99510",
    "city": "Wiegendorf"
  },
  {
    "postcode": "99510",
    "city": "Willerstedt"
  },
  {
    "postcode": "99510",
    "city": "Weimarer Land"
  },
  {
    "postcode": "99510",
    "city": "Bad Sulza"
  },
  {
    "postcode": "99510",
    "city": "Ilmtal-Weinstraße"
  },
  {
    "postcode": "99510",
    "city": "Utenbach"
  },
  {
    "postcode": "99510",
    "city": "Oberroßla/Rödigsdorf"
  },
  {
    "postcode": "99510",
    "city": "Oberndorf"
  },
  {
    "postcode": "99510",
    "city": "Herressen-Sulzbach"
  },
  {
    "postcode": "99510",
    "city": "Nauendorf"
  },
  {
    "postcode": "99510",
    "city": "Schöten"
  },
  {
    "postcode": "99510",
    "city": "Herressen"
  },
  {
    "postcode": "99510",
    "city": "Zottelstedt"
  },
  {
    "postcode": "99510",
    "city": "Heusdorf"
  },
  {
    "postcode": "99510",
    "city": "Kromsdorf"
  },
  {
    "postcode": "99510",
    "city": "Denstedt"
  },
  {
    "postcode": "99510",
    "city": "Ulrichshalben"
  },
  {
    "postcode": "99510",
    "city": "Rohrbach"
  },
  {
    "postcode": "99510",
    "city": "Wersdorf"
  },
  {
    "postcode": "99510",
    "city": "Goldbach"
  },
  {
    "postcode": "99510",
    "city": "Leutenthal"
  },
  {
    "postcode": "99510",
    "city": "Schwabsdorf"
  },
  {
    "postcode": "99510",
    "city": "Oberroßla"
  },
  {
    "postcode": "99518",
    "city": "Auerstedt"
  },
  {
    "postcode": "99518",
    "city": "Bad Sulza"
  },
  {
    "postcode": "99518",
    "city": "Eberstedt"
  },
  {
    "postcode": "99518",
    "city": "Großheringen"
  },
  {
    "postcode": "99518",
    "city": "Ködderitzsch"
  },
  {
    "postcode": "99518",
    "city": "Niedertrebra"
  },
  {
    "postcode": "99518",
    "city": "Rannstedt"
  },
  {
    "postcode": "99518",
    "city": "Reisdorf bei Bad Sulza"
  },
  {
    "postcode": "99518",
    "city": "Schmiedehausen"
  },
  {
    "postcode": "99518",
    "city": "Weimarer Land"
  },
  {
    "postcode": "99518",
    "city": "Lachstedt"
  },
  {
    "postcode": "99518",
    "city": "Bergsulza"
  },
  {
    "postcode": "99518",
    "city": "Wickerstedt"
  },
  {
    "postcode": "99518",
    "city": "Sonnendorf"
  },
  {
    "postcode": "99518",
    "city": "Gebstedt"
  },
  {
    "postcode": "99518",
    "city": "Flurstedt"
  },
  {
    "postcode": "99518",
    "city": "Neustedt"
  },
  {
    "postcode": "99518",
    "city": "Reisdorf"
  },
  {
    "postcode": "99518",
    "city": "Kaatschen-Weichau"
  },
  {
    "postcode": "99518",
    "city": "Darnstedt"
  },
  {
    "postcode": "99518",
    "city": "Escherode"
  },
  {
    "postcode": "99610",
    "city": "Großbrembach"
  },
  {
    "postcode": "99610",
    "city": "Kleinbrembach"
  },
  {
    "postcode": "99610",
    "city": "Sömmerda"
  },
  {
    "postcode": "99610",
    "city": "Sprötau"
  },
  {
    "postcode": "99610",
    "city": "Vogelsberg bei Sömmerda"
  },
  {
    "postcode": "99610",
    "city": "Wundersleben"
  },
  {
    "postcode": "99610",
    "city": "Vogelsberg"
  },
  {
    "postcode": "99610",
    "city": "Orlishausen"
  },
  {
    "postcode": "99610",
    "city": "Frohndorf"
  },
  {
    "postcode": "99610",
    "city": "Schillingstedt"
  },
  {
    "postcode": "99610",
    "city": "Tunzenhausen"
  },
  {
    "postcode": "99610",
    "city": "Schallenburg"
  },
  {
    "postcode": "99610",
    "city": "Leubingen"
  },
  {
    "postcode": "99610",
    "city": "Wenigensömmern"
  },
  {
    "postcode": "99610",
    "city": "Stödten"
  },
  {
    "postcode": "99610",
    "city": "Rohrborn"
  },
  {
    "postcode": "99625",
    "city": "Beichlingen"
  },
  {
    "postcode": "99625",
    "city": "Großmonra"
  },
  {
    "postcode": "99625",
    "city": "Großneuhausen"
  },
  {
    "postcode": "99625",
    "city": "Kleinneuhausen"
  },
  {
    "postcode": "99625",
    "city": "Kölleda"
  },
  {
    "postcode": "99625",
    "city": "Schillingstedt"
  },
  {
    "postcode": "99625",
    "city": "Sömmerda"
  },
  {
    "postcode": "99625",
    "city": "Battgendorf"
  },
  {
    "postcode": "99625",
    "city": "Backleben"
  },
  {
    "postcode": "99625",
    "city": "Burgwenden"
  },
  {
    "postcode": "99625",
    "city": "Dermsdorf"
  },
  {
    "postcode": "99625",
    "city": "Altenbeichlingen"
  },
  {
    "postcode": "99625",
    "city": "Kiebitzhöhe"
  },
  {
    "postcode": "99628",
    "city": "Buttstädt"
  },
  {
    "postcode": "99628",
    "city": "Ellersleben"
  },
  {
    "postcode": "99628",
    "city": "Eßleben-Teutleben"
  },
  {
    "postcode": "99628",
    "city": "Guthmannshausen"
  },
  {
    "postcode": "99628",
    "city": "Hardisleben"
  },
  {
    "postcode": "99628",
    "city": "Mannstedt"
  },
  {
    "postcode": "99628",
    "city": "Olbersleben"
  },
  {
    "postcode": "99628",
    "city": "Rudersdorf bei Sömmerda"
  },
  {
    "postcode": "99628",
    "city": "Sömmerda"
  },
  {
    "postcode": "99628",
    "city": "Rudersdorf"
  },
  {
    "postcode": "99628",
    "city": "Großbrembach"
  },
  {
    "postcode": "99628",
    "city": "Kleinbrembach"
  },
  {
    "postcode": "99628",
    "city": "Eßleben"
  },
  {
    "postcode": "99628",
    "city": "Teutleben"
  },
  {
    "postcode": "99631",
    "city": "Günstedt"
  },
  {
    "postcode": "99631",
    "city": "Herrnschwende"
  },
  {
    "postcode": "99631",
    "city": "Weißensee Thüringen"
  },
  {
    "postcode": "99631",
    "city": "Weißensee"
  },
  {
    "postcode": "99631",
    "city": "Sömmerda"
  },
  {
    "postcode": "99631",
    "city": "Nausiß"
  },
  {
    "postcode": "99631",
    "city": "Ottenhausen"
  },
  {
    "postcode": "99631",
    "city": "Waltersdorf"
  },
  {
    "postcode": "99631",
    "city": "Scherndorf"
  },
  {
    "postcode": "99631",
    "city": "Luthersborn"
  },
  {
    "postcode": "99634",
    "city": "Gangloffsömmern"
  },
  {
    "postcode": "99634",
    "city": "Henschleben"
  },
  {
    "postcode": "99634",
    "city": "Schwerstedt bei Sömmerda"
  },
  {
    "postcode": "99634",
    "city": "Straußfurt"
  },
  {
    "postcode": "99634",
    "city": "Werningshausen"
  },
  {
    "postcode": "99634",
    "city": "Sömmerda"
  },
  {
    "postcode": "99634",
    "city": "Schwerstedt"
  },
  {
    "postcode": "99634",
    "city": "Schilfa"
  },
  {
    "postcode": "99634",
    "city": "Vehra"
  },
  {
    "postcode": "99636",
    "city": "Ostramondra"
  },
  {
    "postcode": "99636",
    "city": "Rastenberg"
  },
  {
    "postcode": "99636",
    "city": "Sömmerda"
  },
  {
    "postcode": "99636",
    "city": "Roldisleben"
  },
  {
    "postcode": "99636",
    "city": "Bachra"
  },
  {
    "postcode": "99636",
    "city": "Rothenberga"
  },
  {
    "postcode": "99636",
    "city": "Schafau"
  },
  {
    "postcode": "99638",
    "city": "Büchel bei Sömmerda"
  },
  {
    "postcode": "99638",
    "city": "Frömmstedt"
  },
  {
    "postcode": "99638",
    "city": "Griefstedt"
  },
  {
    "postcode": "99638",
    "city": "Kindelbrück"
  },
  {
    "postcode": "99638",
    "city": "Riethgen"
  },
  {
    "postcode": "99638",
    "city": "Sömmerda"
  },
  {
    "postcode": "99638",
    "city": "Büchel"
  },
  {
    "postcode": "99638",
    "city": "Thomas-Müntzer-Siedlung"
  },
  {
    "postcode": "99706",
    "city": "Badra"
  },
  {
    "postcode": "99706",
    "city": "Bendeleben"
  },
  {
    "postcode": "99706",
    "city": "Hachelbich"
  },
  {
    "postcode": "99706",
    "city": "Sondershausen Thüringen"
  },
  {
    "postcode": "99706",
    "city": "Sondershausen"
  },
  {
    "postcode": "99706",
    "city": "Kyffhäuserkreis"
  },
  {
    "postcode": "99706",
    "city": "Schernberg"
  },
  {
    "postcode": "99706",
    "city": "Oberspier"
  },
  {
    "postcode": "99706",
    "city": "Hohenebra"
  },
  {
    "postcode": "99706",
    "city": "Berka"
  },
  {
    "postcode": "99706",
    "city": "Kleinberndten"
  },
  {
    "postcode": "99706",
    "city": "Thalebra"
  },
  {
    "postcode": "99706",
    "city": "Großfurra"
  },
  {
    "postcode": "99706",
    "city": "Immenrode"
  },
  {
    "postcode": "99706",
    "city": "Großberndten"
  },
  {
    "postcode": "99706",
    "city": "Straußberg"
  },
  {
    "postcode": "99706",
    "city": "Himmelsberg"
  },
  {
    "postcode": "99706",
    "city": "Dietenborn"
  },
  {
    "postcode": "99713",
    "city": "Abtsbessingen"
  },
  {
    "postcode": "99713",
    "city": "Bellstedt"
  },
  {
    "postcode": "99713",
    "city": "Ebeleben"
  },
  {
    "postcode": "99713",
    "city": "Freienbessingen"
  },
  {
    "postcode": "99713",
    "city": "Helbedündorf"
  },
  {
    "postcode": "99713",
    "city": "Holzsußra"
  },
  {
    "postcode": "99713",
    "city": "Rockstedt bei Ebeleben"
  },
  {
    "postcode": "99713",
    "city": "Schernberg bei Ebeleben"
  },
  {
    "postcode": "99713",
    "city": "Thüringenhausen"
  },
  {
    "postcode": "99713",
    "city": "Wolferschwenda"
  },
  {
    "postcode": "99713",
    "city": "Kyffhäuserkreis"
  },
  {
    "postcode": "99713",
    "city": "Rockstedt"
  },
  {
    "postcode": "99713",
    "city": "Billeben"
  },
  {
    "postcode": "99713",
    "city": "Rockensußra"
  },
  {
    "postcode": "99713",
    "city": "Allmenhausen"
  },
  {
    "postcode": "99713",
    "city": "Wiedermuth"
  },
  {
    "postcode": "99713",
    "city": "Gundersleben"
  },
  {
    "postcode": "99713",
    "city": "Toba"
  },
  {
    "postcode": "99713",
    "city": "Keula"
  },
  {
    "postcode": "99713",
    "city": "Holzthaleben"
  },
  {
    "postcode": "99713",
    "city": "Großbrüchter"
  },
  {
    "postcode": "99713",
    "city": "Kleinbrüchter"
  },
  {
    "postcode": "99713",
    "city": "Friedrichsrode"
  },
  {
    "postcode": "99713",
    "city": "Peukendorf"
  },
  {
    "postcode": "99718",
    "city": "Clingen"
  },
  {
    "postcode": "99718",
    "city": "Greußen"
  },
  {
    "postcode": "99718",
    "city": "Großenehrich"
  },
  {
    "postcode": "99718",
    "city": "Niederbösa"
  },
  {
    "postcode": "99718",
    "city": "Oberbösa"
  },
  {
    "postcode": "99718",
    "city": "Topfstedt"
  },
  {
    "postcode": "99718",
    "city": "Trebra bei Sondershausen"
  },
  {
    "postcode": "99718",
    "city": "Wasserthaleben"
  },
  {
    "postcode": "99718",
    "city": "Westgreußen"
  },
  {
    "postcode": "99718",
    "city": "Kyffhäuserkreis"
  },
  {
    "postcode": "99718",
    "city": "Trebra"
  },
  {
    "postcode": "99718",
    "city": "Grüningen"
  },
  {
    "postcode": "99718",
    "city": "Otterstedt"
  },
  {
    "postcode": "99718",
    "city": "Westerengel"
  },
  {
    "postcode": "99718",
    "city": "Kirchengel"
  },
  {
    "postcode": "99718",
    "city": "Rohnstedt"
  },
  {
    "postcode": "99718",
    "city": "Feldengel"
  },
  {
    "postcode": "99718",
    "city": "Niederspier"
  },
  {
    "postcode": "99718",
    "city": "Holzengel"
  },
  {
    "postcode": "99718",
    "city": "Bliederstedt"
  },
  {
    "postcode": "99718",
    "city": "Wenigenehrich"
  },
  {
    "postcode": "99718",
    "city": "Niedertopfstedt"
  },
  {
    "postcode": "99718",
    "city": "Obertopfstedt"
  },
  {
    "postcode": "99734",
    "city": "Nordhausen Thüringen"
  },
  {
    "postcode": "99734",
    "city": "Nordhausen"
  },
  {
    "postcode": "99734",
    "city": "Leimbach"
  },
  {
    "postcode": "99734",
    "city": "Buchholz"
  },
  {
    "postcode": "99734",
    "city": "Steigerthal"
  },
  {
    "postcode": "99734",
    "city": "Bielen"
  },
  {
    "postcode": "99734",
    "city": "Herreden"
  },
  {
    "postcode": "99734",
    "city": "Hesserode"
  },
  {
    "postcode": "99734",
    "city": "Stempeda"
  },
  {
    "postcode": "99734",
    "city": "Hochstedt"
  },
  {
    "postcode": "99734",
    "city": "Himmelgarten"
  },
  {
    "postcode": "99734",
    "city": "Steinbrücken"
  },
  {
    "postcode": "99734",
    "city": "Rodishain"
  },
  {
    "postcode": "99734",
    "city": "Sundhausen"
  },
  {
    "postcode": "99734",
    "city": "Petersdorf"
  },
  {
    "postcode": "99734",
    "city": "Hörningen"
  },
  {
    "postcode": "99734",
    "city": "Rüdigsdorf"
  },
  {
    "postcode": "99735",
    "city": "Etzelsrode"
  },
  {
    "postcode": "99735",
    "city": "Friedrichsthal bei Nordhausen"
  },
  {
    "postcode": "99735",
    "city": "Hainrode / Hainleite"
  },
  {
    "postcode": "99735",
    "city": "Hainrode"
  },
  {
    "postcode": "99735",
    "city": "Hohenstein bei Nordhausen"
  },
  {
    "postcode": "99735",
    "city": "Kleinfurra"
  },
  {
    "postcode": "99735",
    "city": "Nohra bei Nordhausen"
  },
  {
    "postcode": "99735",
    "city": "Petersdorf bei Nordhausen"
  },
  {
    "postcode": "99735",
    "city": "Werther bei Nordhausen"
  },
  {
    "postcode": "99735",
    "city": "Wolkramshausen"
  },
  {
    "postcode": "99735",
    "city": "Nordhausen"
  },
  {
    "postcode": "99735",
    "city": "Bleicherode"
  },
  {
    "postcode": "99735",
    "city": "Friedrichsthal"
  },
  {
    "postcode": "99735",
    "city": "Fronderode"
  },
  {
    "postcode": "99735",
    "city": "Großwechsungen"
  },
  {
    "postcode": "99735",
    "city": "Günzerode"
  },
  {
    "postcode": "99735",
    "city": "Haferungen"
  },
  {
    "postcode": "99735",
    "city": "Immenrode"
  },
  {
    "postcode": "99735",
    "city": "Kleinwechsungen"
  },
  {
    "postcode": "99735",
    "city": "Mörbach"
  },
  {
    "postcode": "99735",
    "city": "Mauderode"
  },
  {
    "postcode": "99735",
    "city": "Nohra"
  },
  {
    "postcode": "99735",
    "city": "Pützlingen"
  },
  {
    "postcode": "99735",
    "city": "Werther"
  },
  {
    "postcode": "99735",
    "city": "Wollersleben"
  },
  {
    "postcode": "99735",
    "city": "Hain"
  },
  {
    "postcode": "99735",
    "city": "Hünstein"
  },
  {
    "postcode": "99735",
    "city": "Kinderode"
  },
  {
    "postcode": "99735",
    "city": "Kleinwerther"
  },
  {
    "postcode": "99735",
    "city": "Schate"
  },
  {
    "postcode": "99735",
    "city": "Wernrode"
  },
  {
    "postcode": "99752",
    "city": "Bleicherode"
  },
  {
    "postcode": "99752",
    "city": "Kehmstedt"
  },
  {
    "postcode": "99752",
    "city": "Kleinbodungen"
  },
  {
    "postcode": "99752",
    "city": "Kraja"
  },
  {
    "postcode": "99752",
    "city": "Lipprechterode"
  },
  {
    "postcode": "99752",
    "city": "Wipperdorf"
  },
  {
    "postcode": "99752",
    "city": "Nordhausen"
  },
  {
    "postcode": "99755",
    "city": "Ellrich"
  },
  {
    "postcode": "99755",
    "city": "Hohenstein bei Nordhausen"
  },
  {
    "postcode": "99755",
    "city": "Nordhausen"
  },
  {
    "postcode": "99755",
    "city": "Hohenstein"
  },
  {
    "postcode": "99755",
    "city": "Appenrode"
  },
  {
    "postcode": "99755",
    "city": "Gudersleben"
  },
  {
    "postcode": "99755",
    "city": "Rothesütte"
  },
  {
    "postcode": "99755",
    "city": "Werna"
  },
  {
    "postcode": "99755",
    "city": "Sülzhayn"
  },
  {
    "postcode": "99755",
    "city": "Woffleben"
  },
  {
    "postcode": "99755",
    "city": "Cleysingen"
  },
  {
    "postcode": "99755",
    "city": "Trebra"
  },
  {
    "postcode": "99755",
    "city": "Mackenrode"
  },
  {
    "postcode": "99755",
    "city": "Branderode"
  },
  {
    "postcode": "99755",
    "city": "Klettenberg"
  },
  {
    "postcode": "99755",
    "city": "Holbach"
  },
  {
    "postcode": "99755",
    "city": "Liebenrode"
  },
  {
    "postcode": "99755",
    "city": "Schiedungen"
  },
  {
    "postcode": "99755",
    "city": "Limlingerode"
  },
  {
    "postcode": "99755",
    "city": "Obersachswerfen"
  },
  {
    "postcode": "99759",
    "city": "Großlohra"
  },
  {
    "postcode": "99759",
    "city": "Niedergebra"
  },
  {
    "postcode": "99759",
    "city": "Obergebra"
  },
  {
    "postcode": "99759",
    "city": "Rehungen"
  },
  {
    "postcode": "99759",
    "city": "Sollstedt Wipper"
  },
  {
    "postcode": "99759",
    "city": "Sollstedt"
  },
  {
    "postcode": "99759",
    "city": "Nordhausen"
  },
  {
    "postcode": "99759",
    "city": "Bleicherode"
  },
  {
    "postcode": "99759",
    "city": "Elende"
  },
  {
    "postcode": "99759",
    "city": "Friedrichslohra"
  },
  {
    "postcode": "99759",
    "city": "Kleinwenden"
  },
  {
    "postcode": "99759",
    "city": "Amt Lohra"
  },
  {
    "postcode": "99759",
    "city": "Münchenlohra"
  },
  {
    "postcode": "99759",
    "city": "Großwenden"
  },
  {
    "postcode": "99759",
    "city": "Wülfingerode"
  },
  {
    "postcode": "99759",
    "city": "Utterode"
  },
  {
    "postcode": "99762",
    "city": "Buchholz bei Nordhausen"
  },
  {
    "postcode": "99762",
    "city": "Harzungen"
  },
  {
    "postcode": "99762",
    "city": "Herrmannsacker"
  },
  {
    "postcode": "99762",
    "city": "Neustadt / Harz"
  },
  {
    "postcode": "99762",
    "city": "Neustadt"
  },
  {
    "postcode": "99762",
    "city": "Niedersachswerfen"
  },
  {
    "postcode": "99762",
    "city": "Rodishain"
  },
  {
    "postcode": "99762",
    "city": "Stempeda"
  },
  {
    "postcode": "99762",
    "city": "Nordhausen"
  },
  {
    "postcode": "99765",
    "city": "Auleben"
  },
  {
    "postcode": "99765",
    "city": "Görsbach"
  },
  {
    "postcode": "99765",
    "city": "Hamma"
  },
  {
    "postcode": "99765",
    "city": "Heringen / Helme"
  },
  {
    "postcode": "99765",
    "city": "Heringen"
  },
  {
    "postcode": "99765",
    "city": "Urbach bei Nordhausen"
  },
  {
    "postcode": "99765",
    "city": "Uthleben"
  },
  {
    "postcode": "99765",
    "city": "Windehausen"
  },
  {
    "postcode": "99765",
    "city": "Nordhausen"
  },
  {
    "postcode": "99765",
    "city": "Urbach"
  },
  {
    "postcode": "99768",
    "city": "Ilfeld Südharz"
  },
  {
    "postcode": "99768",
    "city": "Ilfeld"
  },
  {
    "postcode": "99768",
    "city": "Nordhausen"
  },
  {
    "postcode": "99768",
    "city": "Harztor"
  },
  {
    "postcode": "99768",
    "city": "Niedersachswerfen"
  },
  {
    "postcode": "99768",
    "city": "Neustadt"
  },
  {
    "postcode": "99768",
    "city": "Herrmannsacker"
  },
  {
    "postcode": "99768",
    "city": "Harzungen"
  },
  {
    "postcode": "99768",
    "city": "Osterode"
  },
  {
    "postcode": "99768",
    "city": "Sophienhof"
  },
  {
    "postcode": "99817",
    "city": "Eisenach Thüringen"
  },
  {
    "postcode": "99817",
    "city": "Eisenach"
  },
  {
    "postcode": "99817",
    "city": "Stockhausen"
  },
  {
    "postcode": "99817",
    "city": "Neuenhof-Hörschel"
  },
  {
    "postcode": "99817",
    "city": "Neukirchen"
  },
  {
    "postcode": "99817",
    "city": "Stregda"
  },
  {
    "postcode": "99817",
    "city": "Stedtfeld"
  },
  {
    "postcode": "99817",
    "city": "Madelungen"
  },
  {
    "postcode": "99817",
    "city": "Berteroda"
  },
  {
    "postcode": "99817",
    "city": "Hötzelsroda"
  },
  {
    "postcode": "99817",
    "city": "Wartha-Göringen"
  },
  {
    "postcode": "99817",
    "city": "Hörschel"
  },
  {
    "postcode": "99817",
    "city": "Göringen"
  },
  {
    "postcode": "99819",
    "city": "Ettenhausen an der Suhl"
  },
  {
    "postcode": "99819",
    "city": "Hörselberg"
  },
  {
    "postcode": "99819",
    "city": "Hörselberg-Hainich"
  },
  {
    "postcode": "99819",
    "city": "Krauthausen bei Eisenach"
  },
  {
    "postcode": "99819",
    "city": "Lauchröden"
  },
  {
    "postcode": "99819",
    "city": "Marksuhl"
  },
  {
    "postcode": "99819",
    "city": "Oberellen"
  },
  {
    "postcode": "99819",
    "city": "Unterellen"
  },
  {
    "postcode": "99819",
    "city": "Wolfsburg-Unkeroda"
  },
  {
    "postcode": "99819",
    "city": "Wartburgkreis"
  },
  {
    "postcode": "99819",
    "city": "Bad Salzungen"
  },
  {
    "postcode": "99819",
    "city": "Gerstungen"
  },
  {
    "postcode": "99819",
    "city": "Krauthausen"
  },
  {
    "postcode": "99819",
    "city": "Ettenhausen a.d. Suhl"
  },
  {
    "postcode": "99819",
    "city": "Deubachshof"
  },
  {
    "postcode": "99819",
    "city": "Pferdsdorf-Spichra"
  },
  {
    "postcode": "99819",
    "city": "Lengröden"
  },
  {
    "postcode": "99819",
    "city": "Ütteroda"
  },
  {
    "postcode": "99819",
    "city": "Pferdsdorf"
  },
  {
    "postcode": "99819",
    "city": "Spichra"
  },
  {
    "postcode": "99826",
    "city": "Berka vor dem Hainich"
  },
  {
    "postcode": "99826",
    "city": "Bischofroda"
  },
  {
    "postcode": "99826",
    "city": "Ebenshausen"
  },
  {
    "postcode": "99826",
    "city": "Frankenroda"
  },
  {
    "postcode": "99826",
    "city": "Hallungen"
  },
  {
    "postcode": "99826",
    "city": "Lauterbach bei Eisenach"
  },
  {
    "postcode": "99826",
    "city": "Mihla"
  },
  {
    "postcode": "99826",
    "city": "Nazza"
  },
  {
    "postcode": "99826",
    "city": "Wartburgkreis"
  },
  {
    "postcode": "99826",
    "city": "Amt Creuzburg"
  },
  {
    "postcode": "99826",
    "city": "Berka v d Hainich"
  },
  {
    "postcode": "99826",
    "city": "Lauterbach"
  },
  {
    "postcode": "99826",
    "city": "Wernershausen"
  },
  {
    "postcode": "99830",
    "city": "Treffurt"
  },
  {
    "postcode": "99830",
    "city": "Wartburgkreis"
  },
  {
    "postcode": "99830",
    "city": "Ifta"
  },
  {
    "postcode": "99830",
    "city": "Schnellmannshausen"
  },
  {
    "postcode": "99830",
    "city": "Falken"
  },
  {
    "postcode": "99830",
    "city": "Großburschla"
  },
  {
    "postcode": "99830",
    "city": "Volteroda"
  },
  {
    "postcode": "99830",
    "city": "Hattengehau"
  },
  {
    "postcode": "99830",
    "city": "Schrapfendorf"
  },
  {
    "postcode": "99830",
    "city": "Wolfmannsgehau"
  },
  {
    "postcode": "99831",
    "city": "Creuzburg"
  },
  {
    "postcode": "99831",
    "city": "Ifta"
  },
  {
    "postcode": "99831",
    "city": "Wartburgkreis"
  },
  {
    "postcode": "99831",
    "city": "Amt Creuzburg"
  },
  {
    "postcode": "99831",
    "city": "Mihla"
  },
  {
    "postcode": "99831",
    "city": "Buchenau"
  },
  {
    "postcode": "99831",
    "city": "Scherbda"
  },
  {
    "postcode": "99831",
    "city": "Ebenau"
  },
  {
    "postcode": "99834",
    "city": "Gerstungen"
  },
  {
    "postcode": "99834",
    "city": "Wartburgkreis"
  },
  {
    "postcode": "99834",
    "city": "Oberellen"
  },
  {
    "postcode": "99834",
    "city": "Marksuhl"
  },
  {
    "postcode": "99834",
    "city": "Unterellen"
  },
  {
    "postcode": "99834",
    "city": "Sallmannshausen"
  },
  {
    "postcode": "99834",
    "city": "Lauchröden"
  },
  {
    "postcode": "99834",
    "city": "Neustädt"
  },
  {
    "postcode": "99834",
    "city": "Burkhardtroda"
  },
  {
    "postcode": "99834",
    "city": "Lindigshof"
  },
  {
    "postcode": "99837",
    "city": "Berka / Werra"
  },
  {
    "postcode": "99837",
    "city": "Berka"
  },
  {
    "postcode": "99837",
    "city": "Dankmarshausen"
  },
  {
    "postcode": "99837",
    "city": "Dippach bei Berka"
  },
  {
    "postcode": "99837",
    "city": "Großensee bei Eisenach"
  },
  {
    "postcode": "99837",
    "city": "Wartburgkreis"
  },
  {
    "postcode": "99837",
    "city": "Werra-Suhl-Tal"
  },
  {
    "postcode": "99837",
    "city": "Abteroda"
  },
  {
    "postcode": "99837",
    "city": "Dippach"
  },
  {
    "postcode": "99837",
    "city": "Herda"
  },
  {
    "postcode": "99837",
    "city": "Horschlitt"
  },
  {
    "postcode": "99837",
    "city": "Vitzeroda"
  },
  {
    "postcode": "99837",
    "city": "Wünschensuhl"
  },
  {
    "postcode": "99837",
    "city": "Fernbreitenbach"
  },
  {
    "postcode": "99837",
    "city": "Gospenroda"
  },
  {
    "postcode": "99837",
    "city": "Großensee"
  },
  {
    "postcode": "99837",
    "city": "Auenheim/Rienau"
  },
  {
    "postcode": "99837",
    "city": "Rienau"
  },
  {
    "postcode": "99837",
    "city": "Gasteroda"
  },
  {
    "postcode": "99837",
    "city": "Kratzeroda"
  },
  {
    "postcode": "99837",
    "city": "Hausbreitenbach"
  },
  {
    "postcode": "99837",
    "city": "Auenheim"
  },
  {
    "postcode": "99842",
    "city": "Ruhla"
  },
  {
    "postcode": "99842",
    "city": "Wartburgkreis"
  },
  {
    "postcode": "99842",
    "city": "Kittelsthal"
  },
  {
    "postcode": "99842",
    "city": "Thal"
  },
  {
    "postcode": "99846",
    "city": "Seebach bei Eisenach"
  },
  {
    "postcode": "99846",
    "city": "Wartburgkreis"
  },
  {
    "postcode": "99846",
    "city": "Seebach"
  },
  {
    "postcode": "99848",
    "city": "Hörselberg"
  },
  {
    "postcode": "99848",
    "city": "Hörselberg-Hainich"
  },
  {
    "postcode": "99848",
    "city": "Wutha-Farnroda"
  },
  {
    "postcode": "99848",
    "city": "Wartburgkreis"
  },
  {
    "postcode": "99848",
    "city": "Schönau"
  },
  {
    "postcode": "99848",
    "city": "Mosbach"
  },
  {
    "postcode": "99848",
    "city": "Kahlenberg"
  },
  {
    "postcode": "99867",
    "city": "Gotha Thüringen"
  },
  {
    "postcode": "99867",
    "city": "Gotha"
  },
  {
    "postcode": "99867",
    "city": "Siebleben"
  },
  {
    "postcode": "99867",
    "city": "Uelleben"
  },
  {
    "postcode": "99867",
    "city": "Boilstädt"
  },
  {
    "postcode": "99867",
    "city": "Sundhausen"
  },
  {
    "postcode": "99869",
    "city": "Ballstädt"
  },
  {
    "postcode": "99869",
    "city": "Brüheim"
  },
  {
    "postcode": "99869",
    "city": "Bufleben"
  },
  {
    "postcode": "99869",
    "city": "Ebenheim"
  },
  {
    "postcode": "99869",
    "city": "Emleben"
  },
  {
    "postcode": "99869",
    "city": "Eschenbergen"
  },
  {
    "postcode": "99869",
    "city": "Friedrichswerth bei Gotha"
  },
  {
    "postcode": "99869",
    "city": "Friemar"
  },
  {
    "postcode": "99869",
    "city": "Goldbach bei Gotha"
  },
  {
    "postcode": "99869",
    "city": "Grabsleben"
  },
  {
    "postcode": "99869",
    "city": "Günthersleben"
  },
  {
    "postcode": "99869",
    "city": "Günthersleben-Wechmar"
  },
  {
    "postcode": "99869",
    "city": "Haina bei Gotha"
  },
  {
    "postcode": "99869",
    "city": "Hochheim bei Gotha"
  },
  {
    "postcode": "99869",
    "city": "Molschleben"
  },
  {
    "postcode": "99869",
    "city": "Mühlberg bei Gotha"
  },
  {
    "postcode": "99869",
    "city": "Pferdingsleben"
  },
  {
    "postcode": "99869",
    "city": "Remstädt"
  },
  {
    "postcode": "99869",
    "city": "Schwabhausen bei Gotha"
  },
  {
    "postcode": "99869",
    "city": "Seebergen bei Gotha"
  },
  {
    "postcode": "99869",
    "city": "Sonneborn bei Gotha"
  },
  {
    "postcode": "99869",
    "city": "Tröchtelborn"
  },
  {
    "postcode": "99869",
    "city": "Tüttleben"
  },
  {
    "postcode": "99869",
    "city": "Wandersleben"
  },
  {
    "postcode": "99869",
    "city": "Wangenheim"
  },
  {
    "postcode": "99869",
    "city": "Warza"
  },
  {
    "postcode": "99869",
    "city": "Wechmar"
  },
  {
    "postcode": "99869",
    "city": "Weingarten bei Gotha"
  },
  {
    "postcode": "99869",
    "city": "Westhausen bei Gotha"
  },
  {
    "postcode": "99869",
    "city": "Gotha"
  },
  {
    "postcode": "99869",
    "city": "Drei Gleichen"
  },
  {
    "postcode": "99869",
    "city": "Hörsel"
  },
  {
    "postcode": "99869",
    "city": "Nessetal"
  },
  {
    "postcode": "99869",
    "city": "Schwabhausen"
  },
  {
    "postcode": "99869",
    "city": "Sonneborn"
  },
  {
    "postcode": "99869",
    "city": "Weingarten"
  },
  {
    "postcode": "99869",
    "city": "Seebergen"
  },
  {
    "postcode": "99869",
    "city": "Mühlberg"
  },
  {
    "postcode": "99869",
    "city": "Cobstädt"
  },
  {
    "postcode": "99869",
    "city": "Großrettbach"
  },
  {
    "postcode": "99869",
    "city": "Wannigsroda"
  },
  {
    "postcode": "99869",
    "city": "Friedrichswerth"
  },
  {
    "postcode": "99869",
    "city": "Goldbach"
  },
  {
    "postcode": "99869",
    "city": "Westhausen"
  },
  {
    "postcode": "99869",
    "city": "Hochheim"
  },
  {
    "postcode": "99869",
    "city": "Haina"
  },
  {
    "postcode": "99869",
    "city": "Pfullendorf"
  },
  {
    "postcode": "99869",
    "city": "Hausen"
  },
  {
    "postcode": "99869",
    "city": "Eberstädt"
  },
  {
    "postcode": "99880",
    "city": "Aspach bei Gotha"
  },
  {
    "postcode": "99880",
    "city": "Fröttstädt"
  },
  {
    "postcode": "99880",
    "city": "Hörselgau"
  },
  {
    "postcode": "99880",
    "city": "Laucha Thüringen"
  },
  {
    "postcode": "99880",
    "city": "Laucha"
  },
  {
    "postcode": "99880",
    "city": "Leinatal"
  },
  {
    "postcode": "99880",
    "city": "Mechterstädt"
  },
  {
    "postcode": "99880",
    "city": "Metebach"
  },
  {
    "postcode": "99880",
    "city": "Teutleben bei Gotha"
  },
  {
    "postcode": "99880",
    "city": "Trügleben"
  },
  {
    "postcode": "99880",
    "city": "Waltershausen"
  },
  {
    "postcode": "99880",
    "city": "Gotha"
  },
  {
    "postcode": "99880",
    "city": "Aspach"
  },
  {
    "postcode": "99880",
    "city": "Teutleben"
  },
  {
    "postcode": "99880",
    "city": "Neufrankenroda"
  },
  {
    "postcode": "99880",
    "city": "Schmerbach"
  },
  {
    "postcode": "99880",
    "city": "Winterstein"
  },
  {
    "postcode": "99880",
    "city": "Schwarzhausen"
  },
  {
    "postcode": "99880",
    "city": "Schnepfenthal"
  },
  {
    "postcode": "99880",
    "city": "Wahlwinkel"
  },
  {
    "postcode": "99880",
    "city": "Fischbach"
  },
  {
    "postcode": "99880",
    "city": "Langenhain"
  },
  {
    "postcode": "99885",
    "city": "Luisenthal Thüringen"
  },
  {
    "postcode": "99885",
    "city": "Luisenthal"
  },
  {
    "postcode": "99885",
    "city": "Ohrdruf"
  },
  {
    "postcode": "99885",
    "city": "Wölfis"
  },
  {
    "postcode": "99885",
    "city": "Gotha"
  },
  {
    "postcode": "99885",
    "city": "Gräfenhain"
  },
  {
    "postcode": "99885",
    "city": "Crawinkel"
  },
  {
    "postcode": "99887",
    "city": "Georgenthal / Thüringer Wald"
  },
  {
    "postcode": "99887",
    "city": "Georgenthal"
  },
  {
    "postcode": "99887",
    "city": "Gräfenhain Thüringen"
  },
  {
    "postcode": "99887",
    "city": "Gräfenhain"
  },
  {
    "postcode": "99887",
    "city": "Herrenhof bei Gotha"
  },
  {
    "postcode": "99887",
    "city": "Hohenkirchen bei Gotha"
  },
  {
    "postcode": "99887",
    "city": "Petriroda"
  },
  {
    "postcode": "99887",
    "city": "Gotha"
  },
  {
    "postcode": "99887",
    "city": "Herrenhof"
  },
  {
    "postcode": "99887",
    "city": "Ohrdruf"
  },
  {
    "postcode": "99887",
    "city": "Leina"
  },
  {
    "postcode": "99887",
    "city": "Gospiteroda"
  },
  {
    "postcode": "99887",
    "city": "Engelsbach"
  },
  {
    "postcode": "99887",
    "city": "Altenbergen"
  },
  {
    "postcode": "99887",
    "city": "Catterfeld"
  },
  {
    "postcode": "99887",
    "city": "Wipperoda"
  },
  {
    "postcode": "99887",
    "city": "Schönau v d Walde"
  },
  {
    "postcode": "99887",
    "city": "Schönau von der Walde"
  },
  {
    "postcode": "99887",
    "city": "Nauendorf"
  },
  {
    "postcode": "99891",
    "city": "Emsetal"
  },
  {
    "postcode": "99891",
    "city": "Tabarz / Thüringer Wald"
  },
  {
    "postcode": "99891",
    "city": "Tabarz"
  },
  {
    "postcode": "99891",
    "city": "Gotha"
  },
  {
    "postcode": "99891",
    "city": "Bad Tabarz"
  },
  {
    "postcode": "99894",
    "city": "Ernstroda"
  },
  {
    "postcode": "99894",
    "city": "Friedrichroda"
  },
  {
    "postcode": "99894",
    "city": "Leinatal"
  },
  {
    "postcode": "99894",
    "city": "Gotha"
  },
  {
    "postcode": "99894",
    "city": "Georgenthal"
  },
  {
    "postcode": "99894",
    "city": "Finsterbergen"
  },
  {
    "postcode": "99894",
    "city": "Cumbach"
  },
  {
    "postcode": "99894",
    "city": "Catterfeld"
  },
  {
    "postcode": "99894",
    "city": "Gospiteroda"
  },
  {
    "postcode": "99894",
    "city": "Leina"
  },
  {
    "postcode": "99897",
    "city": "Tambach-Dietharz / Thüringer Wald"
  },
  {
    "postcode": "99897",
    "city": "Tambach-Dietharz"
  },
  {
    "postcode": "99897",
    "city": "Gotha"
  },
  {
    "postcode": "99898",
    "city": "Finsterbergen"
  },
  {
    "postcode": "99947",
    "city": "Bad Langensalza"
  },
  {
    "postcode": "99947",
    "city": "Behringen bei Bad Langensalza"
  },
  {
    "postcode": "99947",
    "city": "Bothenheilingen"
  },
  {
    "postcode": "99947",
    "city": "Hörselberg-Hainich"
  },
  {
    "postcode": "99947",
    "city": "Issersheilingen"
  },
  {
    "postcode": "99947",
    "city": "Kirchheilingen"
  },
  {
    "postcode": "99947",
    "city": "Kleinwelsbach"
  },
  {
    "postcode": "99947",
    "city": "Mülverstedt"
  },
  {
    "postcode": "99947",
    "city": "Neunheilingen"
  },
  {
    "postcode": "99947",
    "city": "Schönstedt"
  },
  {
    "postcode": "99947",
    "city": "Sundhausen bei Bad Langensalza"
  },
  {
    "postcode": "99947",
    "city": "Tottleben"
  },
  {
    "postcode": "99947",
    "city": "Weberstedt"
  },
  {
    "postcode": "99947",
    "city": "Unstrut-Hainich-Kreis"
  },
  {
    "postcode": "99947",
    "city": "Sundhausen"
  },
  {
    "postcode": "99947",
    "city": "Unstrut-Hainich"
  },
  {
    "postcode": "99947",
    "city": "Großwelsbach"
  },
  {
    "postcode": "99947",
    "city": "Merxleben"
  },
  {
    "postcode": "99947",
    "city": "Zimmern"
  },
  {
    "postcode": "99947",
    "city": "Henningsleben"
  },
  {
    "postcode": "99947",
    "city": "Wiegleben"
  },
  {
    "postcode": "99947",
    "city": "Eckardtsleben"
  },
  {
    "postcode": "99947",
    "city": "Illeben"
  },
  {
    "postcode": "99947",
    "city": "Thamsbrück"
  },
  {
    "postcode": "99947",
    "city": "Nägelstedt"
  },
  {
    "postcode": "99947",
    "city": "Grumbach"
  },
  {
    "postcode": "99947",
    "city": "Klettstedt"
  },
  {
    "postcode": "99947",
    "city": "Aschara"
  },
  {
    "postcode": "99947",
    "city": "Waldstedt"
  },
  {
    "postcode": "99947",
    "city": "Alterstedt"
  },
  {
    "postcode": "99955",
    "city": "Bad Tennstedt"
  },
  {
    "postcode": "99955",
    "city": "Ballhausen bei Bad Tennstedt"
  },
  {
    "postcode": "99955",
    "city": "Blankenburg Thüringen"
  },
  {
    "postcode": "99955",
    "city": "Blankenburg"
  },
  {
    "postcode": "99955",
    "city": "Bruchstedt"
  },
  {
    "postcode": "99955",
    "city": "Haussömmern"
  },
  {
    "postcode": "99955",
    "city": "Herbsleben"
  },
  {
    "postcode": "99955",
    "city": "Hornsömmern"
  },
  {
    "postcode": "99955",
    "city": "Klettstedt"
  },
  {
    "postcode": "99955",
    "city": "Kutzleben"
  },
  {
    "postcode": "99955",
    "city": "Mittelsömmern"
  },
  {
    "postcode": "99955",
    "city": "Urleben"
  },
  {
    "postcode": "99955",
    "city": "Unstrut-Hainich-Kreis"
  },
  {
    "postcode": "99955",
    "city": "Ballhausen"
  },
  {
    "postcode": "99955",
    "city": "Kleinvargula"
  },
  {
    "postcode": "99955",
    "city": "Lützensömmern"
  },
  {
    "postcode": "99958",
    "city": "Großvargula"
  },
  {
    "postcode": "99958",
    "city": "Tonna"
  },
  {
    "postcode": "99958",
    "city": "Gotha"
  },
  {
    "postcode": "99958",
    "city": "Gräfentonna"
  },
  {
    "postcode": "99958",
    "city": "Burgtonna"
  },
  {
    "postcode": "99974",
    "city": "Mühlhausen / Thüringen"
  },
  {
    "postcode": "99974",
    "city": "Mühlhausen"
  },
  {
    "postcode": "99974",
    "city": "Unstruttal"
  },
  {
    "postcode": "99974",
    "city": "Unstrut-Hainich-Kreis"
  },
  {
    "postcode": "99974",
    "city": "Ammern"
  },
  {
    "postcode": "99974",
    "city": "Dachrieden"
  },
  {
    "postcode": "99974",
    "city": "Kaisershagen"
  },
  {
    "postcode": "99974",
    "city": "Mühlhausen/Thüringen"
  },
  {
    "postcode": "99974",
    "city": "Reiser"
  },
  {
    "postcode": "99974",
    "city": "Felchta"
  },
  {
    "postcode": "99974",
    "city": "Görmar"
  },
  {
    "postcode": "99974",
    "city": "Windeberg"
  },
  {
    "postcode": "99974",
    "city": "Saalfeld"
  },
  {
    "postcode": "99974",
    "city": "Sambach"
  },
  {
    "postcode": "99976",
    "city": "Anrode"
  },
  {
    "postcode": "99976",
    "city": "Dünwald"
  },
  {
    "postcode": "99976",
    "city": "Hildebrandshausen"
  },
  {
    "postcode": "99976",
    "city": "Lengenfeld unterm Stein"
  },
  {
    "postcode": "99976",
    "city": "Rodeberg"
  },
  {
    "postcode": "99976",
    "city": "Unstruttal"
  },
  {
    "postcode": "99976",
    "city": "Unstrut-Hainich-Kreis"
  },
  {
    "postcode": "99976",
    "city": "Eigenrode"
  },
  {
    "postcode": "99976",
    "city": "Faulungen"
  },
  {
    "postcode": "99976",
    "city": "Horsmar"
  },
  {
    "postcode": "99976",
    "city": "Kleinkeula"
  },
  {
    "postcode": "99976",
    "city": "Sollstedt"
  },
  {
    "postcode": "99976",
    "city": "Südeichsfeld"
  },
  {
    "postcode": "99976",
    "city": "Bickenriede"
  },
  {
    "postcode": "99976",
    "city": "Dörna"
  },
  {
    "postcode": "99976",
    "city": "Lengefeld"
  },
  {
    "postcode": "99976",
    "city": "Zella"
  },
  {
    "postcode": "99976",
    "city": "Hollenbach"
  },
  {
    "postcode": "99976",
    "city": "Breitenbich"
  },
  {
    "postcode": "99976",
    "city": "Hüpstedt"
  },
  {
    "postcode": "99976",
    "city": "Beberstedt"
  },
  {
    "postcode": "99976",
    "city": "Zaunröden"
  },
  {
    "postcode": "99976",
    "city": "Schacht 2"
  },
  {
    "postcode": "99976",
    "city": "Beyrode"
  },
  {
    "postcode": "99976",
    "city": "Struth"
  },
  {
    "postcode": "99976",
    "city": "Eigenrieden"
  },
  {
    "postcode": "99986",
    "city": "Flarchheim"
  },
  {
    "postcode": "99986",
    "city": "Kammerforst bei Mühlhausen"
  },
  {
    "postcode": "99986",
    "city": "Langula"
  },
  {
    "postcode": "99986",
    "city": "Niederdorla"
  },
  {
    "postcode": "99986",
    "city": "Oberdorla"
  },
  {
    "postcode": "99986",
    "city": "Oppershausen Thüringen"
  },
  {
    "postcode": "99986",
    "city": "Oppershausen"
  },
  {
    "postcode": "99986",
    "city": "Unstrut-Hainich-Kreis"
  },
  {
    "postcode": "99986",
    "city": "Kammerforst"
  },
  {
    "postcode": "99986",
    "city": "Vogtei"
  },
  {
    "postcode": "99988",
    "city": "Heyerode Thüringen"
  },
  {
    "postcode": "99988",
    "city": "Heyerode"
  },
  {
    "postcode": "99988",
    "city": "Katharinenberg"
  },
  {
    "postcode": "99988",
    "city": "Unstrut-Hainich-Kreis"
  },
  {
    "postcode": "99988",
    "city": "Diedorf"
  },
  {
    "postcode": "99988",
    "city": "Schierschwende"
  },
  {
    "postcode": "99988",
    "city": "Südeichsfeld"
  },
  {
    "postcode": "99988",
    "city": "Vogtei"
  },
  {
    "postcode": "99988",
    "city": "Wendehausen"
  },
  {
    "postcode": "99988",
    "city": "Schönberg"
  },
  {
    "postcode": "99991",
    "city": "Altengottern"
  },
  {
    "postcode": "99991",
    "city": "Großengottern"
  },
  {
    "postcode": "99991",
    "city": "Heroldishausen"
  },
  {
    "postcode": "99991",
    "city": "Unstrut-Hainich-Kreis"
  },
  {
    "postcode": "99991",
    "city": "Unstrut-Hainich"
  },
  {
    "postcode": "99994",
    "city": "Marolterode"
  },
  {
    "postcode": "99994",
    "city": "Schlotheim"
  },
  {
    "postcode": "99994",
    "city": "Unstrut-Hainich-Kreis"
  },
  {
    "postcode": "99994",
    "city": "Nottertal-Heilinger Höhen"
  },
  {
    "postcode": "99994",
    "city": "Wohnsiedlung Am Flugplatz"
  },
  {
    "postcode": "99994",
    "city": "Obermehler"
  },
  {
    "postcode": "99994",
    "city": "Großmehlra"
  },
  {
    "postcode": "99994",
    "city": "Mehrstedt"
  },
  {
    "postcode": "99994",
    "city": "Hohenbergen"
  },
  {
    "postcode": "99994",
    "city": "Siedlung Pöthen"
  },
  {
    "postcode": "99996",
    "city": "Menteroda"
  },
  {
    "postcode": "99996",
    "city": "Obermehler"
  },
  {
    "postcode": "99996",
    "city": "Unstrut-Hainich-Kreis"
  },
  {
    "postcode": "99996",
    "city": "Nottertal-Heilinger Höhen"
  },
  {
    "postcode": "99996",
    "city": "Urbach"
  },
  {
    "postcode": "99996",
    "city": "Schacht Pöthen"
  },
  {
    "postcode": "99996",
    "city": "Großmehlra"
  },
  {
    "postcode": "99998",
    "city": "Körner"
  },
  {
    "postcode": "99998",
    "city": "Weinbergen"
  },
  {
    "postcode": "99998",
    "city": "Unstrut-Hainich-Kreis"
  },
  {
    "postcode": "99998",
    "city": "Mühlhausen/Thüringen"
  },
  {
    "postcode": "99998",
    "city": "Volkenroda"
  },
  {
    "postcode": "99998",
    "city": "Österkörner"
  },
  {
    "postcode": "99998",
    "city": "Bollstedt"
  },
  {
    "postcode": "99998",
    "city": "Seebach"
  },
  {
    "postcode": "99998",
    "city": "Höngeda"
  },
  {
    "postcode": "99998",
    "city": "Grabe"
  },
  {
    "postcode": "99998",
    "city": "Mühlhausen"
  },
  {
    "postcode": "99090",
    "city": "Erfurt"
  },
  {
    "postcode": "99090",
    "city": "Schaderode"
  },
  {
    "postcode": "99090",
    "city": "Tiefthal"
  },
  {
    "postcode": "99090",
    "city": "Kühnhausen"
  },
  {
    "postcode": "99090",
    "city": "Töttelstädt"
  },
  {
    "postcode": "99090",
    "city": "Salomonsborn"
  },
  {
    "postcode": "99090",
    "city": "Alach"
  },
  {
    "postcode": "99095",
    "city": "Erfurt"
  },
  {
    "postcode": "99095",
    "city": "Stotternheim"
  },
  {
    "postcode": "99095",
    "city": "Mittelhausen"
  },
  {
    "postcode": "99095",
    "city": "Schwerborn"
  },
  {
    "postcode": "99707",
    "city": "Kyffhäuserkreis"
  },
  {
    "postcode": "99707",
    "city": "Kyffhäuserland"
  },
  {
    "postcode": "99707",
    "city": "Hachelbich"
  },
  {
    "postcode": "99707",
    "city": "Bendeleben"
  },
  {
    "postcode": "99707",
    "city": "Göllingen"
  },
  {
    "postcode": "99707",
    "city": "Badra"
  },
  {
    "postcode": "99707",
    "city": "Seega"
  },
  {
    "postcode": "99707",
    "city": "Rottleben"
  },
  {
    "postcode": "99707",
    "city": "Steinthaleben"
  },
  {
    "postcode": "99707",
    "city": "Günserode"
  },
  {
    "postcode": "99820",
    "city": "Wartburgkreis"
  },
  {
    "postcode": "99820",
    "city": "Hörselberg-Hainich"
  },
  {
    "postcode": "99820",
    "city": "Großenlupnitz"
  },
  {
    "postcode": "99820",
    "city": "Behringen"
  },
  {
    "postcode": "99820",
    "city": "Kälberfeld"
  },
  {
    "postcode": "99820",
    "city": "Craula"
  },
  {
    "postcode": "99820",
    "city": "Wenigenlupnitz"
  },
  {
    "postcode": "99820",
    "city": "Bolleroda"
  },
  {
    "postcode": "99820",
    "city": "Tüngeda"
  },
  {
    "postcode": "99820",
    "city": "Wolfsbehringen"
  },
  {
    "postcode": "99820",
    "city": "Ettenhausen a d Nesse"
  },
  {
    "postcode": "99820",
    "city": "Sättelstädt"
  },
  {
    "postcode": "99820",
    "city": "Reichenbach"
  },
  {
    "postcode": "99820",
    "city": "Sondra"
  },
  {
    "postcode": "99820",
    "city": "Burla"
  },
  {
    "postcode": "99820",
    "city": "Hastrungsfeld"
  },
  {
    "postcode": "99820",
    "city": "Melborn"
  },
  {
    "postcode": "99820",
    "city": "Beuernfeld"
  },
  {
    "postcode": "99820",
    "city": "Hütscheroda"
  }
]