[
  {
    "postcode": "8056",
    "city": "Zwickau"
  },
  {
    "postcode": "8056",
    "city": "Innenstadt"
  },
  {
    "postcode": "8056",
    "city": "Schedewitz"
  },
  {
    "postcode": "8056",
    "city": "Oberhohndorf"
  },
  {
    "postcode": "8056",
    "city": "Bahnhofsvorstadt"
  },
  {
    "postcode": "8056",
    "city": "Niederplanitz"
  },
  {
    "postcode": "8056",
    "city": "Bockwa"
  },
  {
    "postcode": "8056",
    "city": "Maxhütte"
  },
  {
    "postcode": "8058",
    "city": "Zwickau"
  },
  {
    "postcode": "8058",
    "city": "Weißenborn"
  },
  {
    "postcode": "8058",
    "city": "Pölbitz"
  },
  {
    "postcode": "8058",
    "city": "Crossen"
  },
  {
    "postcode": "8058",
    "city": "Mosel"
  },
  {
    "postcode": "8058",
    "city": "Oberrothenbach"
  },
  {
    "postcode": "8058",
    "city": "Hartmannsdorf"
  },
  {
    "postcode": "8058",
    "city": "Schlunzig"
  },
  {
    "postcode": "8058",
    "city": "Schneppendorf"
  },
  {
    "postcode": "8058",
    "city": "Niederhohndorf"
  },
  {
    "postcode": "8060",
    "city": "Zwickau"
  },
  {
    "postcode": "8060",
    "city": "Marienthal"
  },
  {
    "postcode": "8060",
    "city": "Brand"
  },
  {
    "postcode": "8062",
    "city": "Zwickau"
  },
  {
    "postcode": "8062",
    "city": "Niederplanitz"
  },
  {
    "postcode": "8062",
    "city": "Neuplanitz"
  },
  {
    "postcode": "8062",
    "city": "Oberplanitz"
  },
  {
    "postcode": "8064",
    "city": "Zwickau"
  },
  {
    "postcode": "8064",
    "city": "Oberplanitz"
  },
  {
    "postcode": "8064",
    "city": "Cainsdorf"
  },
  {
    "postcode": "8064",
    "city": "Niederplanitz"
  },
  {
    "postcode": "8064",
    "city": "Hüttelsgrün"
  },
  {
    "postcode": "8064",
    "city": "Rottmannsdorf"
  },
  {
    "postcode": "8064",
    "city": "Schedewitz"
  },
  {
    "postcode": "8064",
    "city": "Neuplanitz"
  },
  {
    "postcode": "8066",
    "city": "Zwickau"
  },
  {
    "postcode": "8066",
    "city": "Pöhlau"
  },
  {
    "postcode": "8066",
    "city": "Eckersbach"
  },
  {
    "postcode": "8066",
    "city": "Auerbach"
  },
  {
    "postcode": "8066",
    "city": "Pölbitz"
  },
  {
    "postcode": "80331",
    "city": "München"
  },
  {
    "postcode": "80331",
    "city": "Altstadt-Lehel"
  },
  {
    "postcode": "80331",
    "city": "Ludwigsvorstadt-Isarvorstadt"
  },
  {
    "postcode": "80333",
    "city": "München"
  },
  {
    "postcode": "80333",
    "city": "Maxvorstadt"
  },
  {
    "postcode": "80333",
    "city": "Altstadt-Lehel"
  },
  {
    "postcode": "80335",
    "city": "München"
  },
  {
    "postcode": "80335",
    "city": "Ludwigsvorstadt-Isarvorstadt"
  },
  {
    "postcode": "80335",
    "city": "Maxvorstadt"
  },
  {
    "postcode": "80335",
    "city": "Schwanthalerhöhe"
  },
  {
    "postcode": "80335",
    "city": "Altstadt-Lehel"
  },
  {
    "postcode": "80335",
    "city": "Neuhausen-Nymphenburg"
  },
  {
    "postcode": "80336",
    "city": "München"
  },
  {
    "postcode": "80336",
    "city": "Ludwigsvorstadt-Isarvorstadt"
  },
  {
    "postcode": "80336",
    "city": "Sendling"
  },
  {
    "postcode": "80336",
    "city": "Altstadt-Lehel"
  },
  {
    "postcode": "80337",
    "city": "München"
  },
  {
    "postcode": "80337",
    "city": "Ludwigsvorstadt-Isarvorstadt"
  },
  {
    "postcode": "80337",
    "city": "Sendling"
  },
  {
    "postcode": "80339",
    "city": "München"
  },
  {
    "postcode": "80339",
    "city": "Schwanthalerhöhe"
  },
  {
    "postcode": "80339",
    "city": "Ludwigsvorstadt-Isarvorstadt"
  },
  {
    "postcode": "80469",
    "city": "München"
  },
  {
    "postcode": "80469",
    "city": "Altstadt-Lehel"
  },
  {
    "postcode": "80469",
    "city": "Ludwigsvorstadt-Isarvorstadt"
  },
  {
    "postcode": "80538",
    "city": "München"
  },
  {
    "postcode": "80538",
    "city": "Altstadt-Lehel"
  },
  {
    "postcode": "80538",
    "city": "Schwabing-Freimann"
  },
  {
    "postcode": "80538",
    "city": "Ludwigsvorstadt-Isarvorstadt"
  },
  {
    "postcode": "80539",
    "city": "München"
  },
  {
    "postcode": "80539",
    "city": "Altstadt-Lehel"
  },
  {
    "postcode": "80539",
    "city": "Maxvorstadt"
  },
  {
    "postcode": "80539",
    "city": "Schwabing-Freimann"
  },
  {
    "postcode": "80634",
    "city": "Moosach"
  },
  {
    "postcode": "80634",
    "city": "München"
  },
  {
    "postcode": "80634",
    "city": "Neuhausen-Nymphenburg"
  },
  {
    "postcode": "80636",
    "city": "Moosach"
  },
  {
    "postcode": "80636",
    "city": "München"
  },
  {
    "postcode": "80636",
    "city": "Maxvorstadt"
  },
  {
    "postcode": "80636",
    "city": "Neuhausen-Nymphenburg"
  },
  {
    "postcode": "80637",
    "city": "Moosach"
  },
  {
    "postcode": "80637",
    "city": "München"
  },
  {
    "postcode": "80637",
    "city": "Neuhausen-Nymphenburg"
  },
  {
    "postcode": "80638",
    "city": "Moosach"
  },
  {
    "postcode": "80638",
    "city": "München"
  },
  {
    "postcode": "80638",
    "city": "Neuhausen-Nymphenburg"
  },
  {
    "postcode": "80639",
    "city": "München"
  },
  {
    "postcode": "80639",
    "city": "Neuhausen-Nymphenburg"
  },
  {
    "postcode": "80639",
    "city": "Laim"
  },
  {
    "postcode": "80686",
    "city": "München"
  },
  {
    "postcode": "80686",
    "city": "Laim"
  },
  {
    "postcode": "80686",
    "city": "Sendling-Westpark"
  },
  {
    "postcode": "80687",
    "city": "München"
  },
  {
    "postcode": "80687",
    "city": "Laim"
  },
  {
    "postcode": "80687",
    "city": "Pasing-Obermenzing"
  },
  {
    "postcode": "80689",
    "city": "München"
  },
  {
    "postcode": "80689",
    "city": "Laim"
  },
  {
    "postcode": "80689",
    "city": "Hadern"
  },
  {
    "postcode": "80689",
    "city": "Pasing-Obermenzing"
  },
  {
    "postcode": "80796",
    "city": "Milbertshofen-Am Hart"
  },
  {
    "postcode": "80796",
    "city": "München"
  },
  {
    "postcode": "80796",
    "city": "Schwabing-West"
  },
  {
    "postcode": "80797",
    "city": "Milbertshofen-Am Hart"
  },
  {
    "postcode": "80797",
    "city": "München"
  },
  {
    "postcode": "80797",
    "city": "Schwabing-West"
  },
  {
    "postcode": "80797",
    "city": "Maxvorstadt"
  },
  {
    "postcode": "80797",
    "city": "Neuhausen-Nymphenburg"
  },
  {
    "postcode": "80798",
    "city": "München"
  },
  {
    "postcode": "80798",
    "city": "Maxvorstadt"
  },
  {
    "postcode": "80798",
    "city": "Schwabing-West"
  },
  {
    "postcode": "80799",
    "city": "München"
  },
  {
    "postcode": "80799",
    "city": "Maxvorstadt"
  },
  {
    "postcode": "80799",
    "city": "Schwabing-Freimann"
  },
  {
    "postcode": "80799",
    "city": "Schwabing-West"
  },
  {
    "postcode": "80801",
    "city": "München"
  },
  {
    "postcode": "80801",
    "city": "Schwabing-West"
  },
  {
    "postcode": "80801",
    "city": "Schwabing-Freimann"
  },
  {
    "postcode": "80802",
    "city": "München"
  },
  {
    "postcode": "80802",
    "city": "Schwabing-Freimann"
  },
  {
    "postcode": "80802",
    "city": "Maxvorstadt"
  },
  {
    "postcode": "80803",
    "city": "Milbertshofen-Am Hart"
  },
  {
    "postcode": "80803",
    "city": "München"
  },
  {
    "postcode": "80803",
    "city": "Schwabing-West"
  },
  {
    "postcode": "80803",
    "city": "Schwabing-Freimann"
  },
  {
    "postcode": "80804",
    "city": "Milbertshofen-Am Hart"
  },
  {
    "postcode": "80804",
    "city": "München"
  },
  {
    "postcode": "80804",
    "city": "Schwabing-West"
  },
  {
    "postcode": "80804",
    "city": "Schwabing-Freimann"
  },
  {
    "postcode": "80805",
    "city": "Milbertshofen-Am Hart"
  },
  {
    "postcode": "80805",
    "city": "München"
  },
  {
    "postcode": "80805",
    "city": "Schwabing-Freimann"
  },
  {
    "postcode": "80807",
    "city": "Milbertshofen-Am Hart"
  },
  {
    "postcode": "80807",
    "city": "München"
  },
  {
    "postcode": "80807",
    "city": "Schwabing-Freimann"
  },
  {
    "postcode": "80809",
    "city": "Milbertshofen-Am Hart"
  },
  {
    "postcode": "80809",
    "city": "Moosach"
  },
  {
    "postcode": "80809",
    "city": "München"
  },
  {
    "postcode": "80809",
    "city": "Schwabing-West"
  },
  {
    "postcode": "80809",
    "city": "Neuhausen-Nymphenburg"
  },
  {
    "postcode": "80933",
    "city": "München"
  },
  {
    "postcode": "80933",
    "city": "Feldmoching-Hasenbergl"
  },
  {
    "postcode": "80933",
    "city": "Milbertshofen-Am Hart"
  },
  {
    "postcode": "80935",
    "city": "Milbertshofen-Am Hart"
  },
  {
    "postcode": "80935",
    "city": "München"
  },
  {
    "postcode": "80935",
    "city": "Feldmoching-Hasenbergl"
  },
  {
    "postcode": "80937",
    "city": "Milbertshofen-Am Hart"
  },
  {
    "postcode": "80937",
    "city": "München"
  },
  {
    "postcode": "80939",
    "city": "Milbertshofen-Am Hart"
  },
  {
    "postcode": "80939",
    "city": "München"
  },
  {
    "postcode": "80939",
    "city": "Schwabing-Freimann"
  },
  {
    "postcode": "80992",
    "city": "Moosach"
  },
  {
    "postcode": "80992",
    "city": "München"
  },
  {
    "postcode": "80992",
    "city": "Neuhausen-Nymphenburg"
  },
  {
    "postcode": "80992",
    "city": "Pasing-Obermenzing"
  },
  {
    "postcode": "80993",
    "city": "Moosach"
  },
  {
    "postcode": "80993",
    "city": "München"
  },
  {
    "postcode": "80995",
    "city": "Moosach"
  },
  {
    "postcode": "80995",
    "city": "München"
  },
  {
    "postcode": "80995",
    "city": "Feldmoching-Hasenbergl"
  },
  {
    "postcode": "80995",
    "city": "Allach-Untermenzing"
  },
  {
    "postcode": "80997",
    "city": "Moosach"
  },
  {
    "postcode": "80997",
    "city": "München"
  },
  {
    "postcode": "80997",
    "city": "Allach-Untermenzing"
  },
  {
    "postcode": "80997",
    "city": "Pasing-Obermenzing"
  },
  {
    "postcode": "80999",
    "city": "München"
  },
  {
    "postcode": "80999",
    "city": "Allach-Untermenzing"
  }
]