[
  {
    "postcode": "54290",
    "city": "Trier"
  },
  {
    "postcode": "54290",
    "city": "Trier-Süd"
  },
  {
    "postcode": "54290",
    "city": "Innenstadt"
  },
  {
    "postcode": "54292",
    "city": "Eitelsbach"
  },
  {
    "postcode": "54292",
    "city": "Trier"
  },
  {
    "postcode": "54292",
    "city": "Trier-Nord"
  },
  {
    "postcode": "54292",
    "city": "Ruwer"
  },
  {
    "postcode": "54293",
    "city": "Biewer"
  },
  {
    "postcode": "54293",
    "city": "Ehrang"
  },
  {
    "postcode": "54293",
    "city": "Pallien"
  },
  {
    "postcode": "54293",
    "city": "Pfalzel"
  },
  {
    "postcode": "54293",
    "city": "Quint"
  },
  {
    "postcode": "54293",
    "city": "Trier"
  },
  {
    "postcode": "54293",
    "city": "Trier-West-Pallien"
  },
  {
    "postcode": "54293",
    "city": "Trier-West"
  },
  {
    "postcode": "54294",
    "city": "Euren"
  },
  {
    "postcode": "54294",
    "city": "Trier"
  },
  {
    "postcode": "54294",
    "city": "Zewen"
  },
  {
    "postcode": "54294",
    "city": "Trier-West"
  },
  {
    "postcode": "54294",
    "city": "Trier-West-Pallien"
  },
  {
    "postcode": "54294",
    "city": "Weismark-Feyen"
  },
  {
    "postcode": "54294",
    "city": "Trier-Süd"
  },
  {
    "postcode": "54295",
    "city": "Heiligkreuz"
  },
  {
    "postcode": "54295",
    "city": "Kürenz"
  },
  {
    "postcode": "54295",
    "city": "Olewig"
  },
  {
    "postcode": "54295",
    "city": "Tarforst"
  },
  {
    "postcode": "54295",
    "city": "Trier"
  },
  {
    "postcode": "54295",
    "city": "Trier-Ost"
  },
  {
    "postcode": "54295",
    "city": "Trier-Nord"
  },
  {
    "postcode": "54296",
    "city": "Filsch"
  },
  {
    "postcode": "54296",
    "city": "Heiligkreuz"
  },
  {
    "postcode": "54296",
    "city": "Kernscheid"
  },
  {
    "postcode": "54296",
    "city": "Kürenz"
  },
  {
    "postcode": "54296",
    "city": "Olewig"
  },
  {
    "postcode": "54296",
    "city": "Tarforst"
  },
  {
    "postcode": "54296",
    "city": "Trier"
  },
  {
    "postcode": "54296",
    "city": "Irsch"
  },
  {
    "postcode": "54296",
    "city": "Mariahof"
  },
  {
    "postcode": "54296",
    "city": "Weismark-Feyen"
  },
  {
    "postcode": "54296",
    "city": "Trier-Nord"
  },
  {
    "postcode": "54296",
    "city": "Trier-Ost"
  },
  {
    "postcode": "54298",
    "city": "Aach bei Trier"
  },
  {
    "postcode": "54298",
    "city": "Eisenach bei Trier"
  },
  {
    "postcode": "54298",
    "city": "Gilzem"
  },
  {
    "postcode": "54298",
    "city": "Greimerath bei Trier"
  },
  {
    "postcode": "54298",
    "city": "Helenenberg"
  },
  {
    "postcode": "54298",
    "city": "Hofweiler"
  },
  {
    "postcode": "54298",
    "city": "Igel"
  },
  {
    "postcode": "54298",
    "city": "Ittel"
  },
  {
    "postcode": "54298",
    "city": "Kunkelborn Gemeinde Ralingen"
  },
  {
    "postcode": "54298",
    "city": "Kunkelborn"
  },
  {
    "postcode": "54298",
    "city": "Kyll"
  },
  {
    "postcode": "54298",
    "city": "Liersberg"
  },
  {
    "postcode": "54298",
    "city": "Möhn"
  },
  {
    "postcode": "54298",
    "city": "Orenhofen"
  },
  {
    "postcode": "54298",
    "city": "Welschbillig"
  },
  {
    "postcode": "54298",
    "city": "Eifelkreis Bitburg-Prüm"
  },
  {
    "postcode": "54298",
    "city": "Aach"
  },
  {
    "postcode": "54298",
    "city": "Eisenach"
  },
  {
    "postcode": "54298",
    "city": "Höhjunk"
  },
  {
    "postcode": "54298",
    "city": "Träg"
  },
  {
    "postcode": "54306",
    "city": "Hochmark"
  },
  {
    "postcode": "54306",
    "city": "Kordel"
  },
  {
    "postcode": "54306",
    "city": "Trier-Saarburg"
  },
  {
    "postcode": "54308",
    "city": "Grewenich an der Sauer"
  },
  {
    "postcode": "54308",
    "city": "Langsur"
  },
  {
    "postcode": "54308",
    "city": "Mesenich an der Sauer"
  },
  {
    "postcode": "54308",
    "city": "Metzdorf an der Sauer"
  },
  {
    "postcode": "54308",
    "city": "Trier-Saarburg"
  },
  {
    "postcode": "54308",
    "city": "Mesenich"
  },
  {
    "postcode": "54308",
    "city": "Grewenich"
  },
  {
    "postcode": "54308",
    "city": "Metzdorf"
  },
  {
    "postcode": "54309",
    "city": "Beßlich"
  },
  {
    "postcode": "54309",
    "city": "Butzweiler"
  },
  {
    "postcode": "54309",
    "city": "Lorich"
  },
  {
    "postcode": "54309",
    "city": "Newel"
  },
  {
    "postcode": "54309",
    "city": "Trier-Saarburg"
  },
  {
    "postcode": "54310",
    "city": "Edingen an der Sauer"
  },
  {
    "postcode": "54310",
    "city": "Godendorf an der Sauer"
  },
  {
    "postcode": "54310",
    "city": "Kersch"
  },
  {
    "postcode": "54310",
    "city": "Mahlendorf an der Sauer"
  },
  {
    "postcode": "54310",
    "city": "Menningen an der Sauer"
  },
  {
    "postcode": "54310",
    "city": "Minden Sauer"
  },
  {
    "postcode": "54310",
    "city": "Minden"
  },
  {
    "postcode": "54310",
    "city": "Olk"
  },
  {
    "postcode": "54310",
    "city": "Ralingen"
  },
  {
    "postcode": "54310",
    "city": "Ralingen an der Sauer"
  },
  {
    "postcode": "54310",
    "city": "Wintersdorf an der Sauer"
  },
  {
    "postcode": "54310",
    "city": "Eifelkreis Bitburg-Prüm"
  },
  {
    "postcode": "54310",
    "city": "Menningen"
  },
  {
    "postcode": "54310",
    "city": "Wintersdorf"
  },
  {
    "postcode": "54310",
    "city": "Edingen"
  },
  {
    "postcode": "54310",
    "city": "Godendorf"
  },
  {
    "postcode": "54311",
    "city": "Fusenich"
  },
  {
    "postcode": "54311",
    "city": "Sirzenich"
  },
  {
    "postcode": "54311",
    "city": "Trierweiler"
  },
  {
    "postcode": "54311",
    "city": "Udelfangen"
  },
  {
    "postcode": "54311",
    "city": "Trier-Saarburg"
  },
  {
    "postcode": "54313",
    "city": "Daufenbach Eifel"
  },
  {
    "postcode": "54313",
    "city": "Daufenbach"
  },
  {
    "postcode": "54313",
    "city": "Rodt Kyll"
  },
  {
    "postcode": "54313",
    "city": "Rodt"
  },
  {
    "postcode": "54313",
    "city": "Schleidweiler"
  },
  {
    "postcode": "54313",
    "city": "Zemmer"
  },
  {
    "postcode": "54313",
    "city": "Trier-Saarburg"
  },
  {
    "postcode": "54314",
    "city": "Baldringen"
  },
  {
    "postcode": "54314",
    "city": "Greimerath bei Trier"
  },
  {
    "postcode": "54314",
    "city": "Hentern"
  },
  {
    "postcode": "54314",
    "city": "Kalfertshaus"
  },
  {
    "postcode": "54314",
    "city": "Neunhäuser Jagdhaus"
  },
  {
    "postcode": "54314",
    "city": "Neunhäuser"
  },
  {
    "postcode": "54314",
    "city": "Paschel"
  },
  {
    "postcode": "54314",
    "city": "Schömerich"
  },
  {
    "postcode": "54314",
    "city": "Vierherrenborn"
  },
  {
    "postcode": "54314",
    "city": "Zerf"
  },
  {
    "postcode": "54314",
    "city": "Trier-Saarburg"
  },
  {
    "postcode": "54314",
    "city": "Greimerath"
  },
  {
    "postcode": "54316",
    "city": "Bonerath"
  },
  {
    "postcode": "54316",
    "city": "Franzenheim"
  },
  {
    "postcode": "54316",
    "city": "Geizenburg"
  },
  {
    "postcode": "54316",
    "city": "Hinzenburg"
  },
  {
    "postcode": "54316",
    "city": "Hockweiler"
  },
  {
    "postcode": "54316",
    "city": "Holzerath"
  },
  {
    "postcode": "54316",
    "city": "Lampaden"
  },
  {
    "postcode": "54316",
    "city": "Lonzenburg"
  },
  {
    "postcode": "54316",
    "city": "Ollmuth"
  },
  {
    "postcode": "54316",
    "city": "Pluwig"
  },
  {
    "postcode": "54316",
    "city": "Schöndorf"
  },
  {
    "postcode": "54316",
    "city": "Schöndorf Ruwer"
  },
  {
    "postcode": "54316",
    "city": "Trier-Saarburg"
  },
  {
    "postcode": "54316",
    "city": "Pluwigerhammer"
  },
  {
    "postcode": "54317",
    "city": "Farschweiler"
  },
  {
    "postcode": "54317",
    "city": "Gusterath"
  },
  {
    "postcode": "54317",
    "city": "Gutweiler"
  },
  {
    "postcode": "54317",
    "city": "Herl"
  },
  {
    "postcode": "54317",
    "city": "Kasel Ruwer"
  },
  {
    "postcode": "54317",
    "city": "Kasel"
  },
  {
    "postcode": "54317",
    "city": "Korlingen"
  },
  {
    "postcode": "54317",
    "city": "Lorscheid bei Trier"
  },
  {
    "postcode": "54317",
    "city": "Morscheid Ruwer"
  },
  {
    "postcode": "54317",
    "city": "Morscheid"
  },
  {
    "postcode": "54317",
    "city": "Neuhaus"
  },
  {
    "postcode": "54317",
    "city": "Osburg"
  },
  {
    "postcode": "54317",
    "city": "Riveris"
  },
  {
    "postcode": "54317",
    "city": "Sommerau Ruwer"
  },
  {
    "postcode": "54317",
    "city": "Sommerau"
  },
  {
    "postcode": "54317",
    "city": "Thomm"
  },
  {
    "postcode": "54317",
    "city": "Trier-Saarburg"
  },
  {
    "postcode": "54317",
    "city": "Lorscheid"
  },
  {
    "postcode": "54318",
    "city": "Mertesdorf"
  },
  {
    "postcode": "54318",
    "city": "Trier-Saarburg"
  },
  {
    "postcode": "54320",
    "city": "Waldrach"
  },
  {
    "postcode": "54320",
    "city": "Trier-Saarburg"
  },
  {
    "postcode": "54329",
    "city": "Filzen Saar"
  },
  {
    "postcode": "54329",
    "city": "Filzen"
  },
  {
    "postcode": "54329",
    "city": "Hamm bei Filzen"
  },
  {
    "postcode": "54329",
    "city": "Kommlingen"
  },
  {
    "postcode": "54329",
    "city": "Könen"
  },
  {
    "postcode": "54329",
    "city": "Konz"
  },
  {
    "postcode": "54329",
    "city": "Krettnach"
  },
  {
    "postcode": "54329",
    "city": "Niedermennig"
  },
  {
    "postcode": "54329",
    "city": "Oberemmel"
  },
  {
    "postcode": "54329",
    "city": "Obermennig"
  },
  {
    "postcode": "54329",
    "city": "Trier-Saarburg"
  },
  {
    "postcode": "54329",
    "city": "Hamm"
  },
  {
    "postcode": "54331",
    "city": "Oberbillig"
  },
  {
    "postcode": "54331",
    "city": "Pellingen"
  },
  {
    "postcode": "54331",
    "city": "Trier-Saarburg"
  },
  {
    "postcode": "54332",
    "city": "Reinig"
  },
  {
    "postcode": "54332",
    "city": "Wasserliesch"
  },
  {
    "postcode": "54332",
    "city": "Trier-Saarburg"
  },
  {
    "postcode": "54338",
    "city": "Issel"
  },
  {
    "postcode": "54338",
    "city": "Longen"
  },
  {
    "postcode": "54338",
    "city": "Schweich"
  },
  {
    "postcode": "54338",
    "city": "Schweich Mosel"
  },
  {
    "postcode": "54338",
    "city": "Trier-Saarburg"
  },
  {
    "postcode": "54340",
    "city": "Bekond"
  },
  {
    "postcode": "54340",
    "city": "Detzem"
  },
  {
    "postcode": "54340",
    "city": "Ensch"
  },
  {
    "postcode": "54340",
    "city": "Kirsch"
  },
  {
    "postcode": "54340",
    "city": "Klüsserath"
  },
  {
    "postcode": "54340",
    "city": "Köwerich"
  },
  {
    "postcode": "54340",
    "city": "Leiwen"
  },
  {
    "postcode": "54340",
    "city": "Longuich"
  },
  {
    "postcode": "54340",
    "city": "Naurath (Eifel)"
  },
  {
    "postcode": "54340",
    "city": "Naurath"
  },
  {
    "postcode": "54340",
    "city": "Pölich"
  },
  {
    "postcode": "54340",
    "city": "Riol"
  },
  {
    "postcode": "54340",
    "city": "Schleich"
  },
  {
    "postcode": "54340",
    "city": "Thörnich"
  },
  {
    "postcode": "54340",
    "city": "Trier-Saarburg"
  },
  {
    "postcode": "54340",
    "city": "Zummet"
  },
  {
    "postcode": "54341",
    "city": "Fastrau"
  },
  {
    "postcode": "54341",
    "city": "Fell"
  },
  {
    "postcode": "54341",
    "city": "Trier-Saarburg"
  },
  {
    "postcode": "54343",
    "city": "Föhren bei Trier"
  },
  {
    "postcode": "54343",
    "city": "Trier-Saarburg"
  },
  {
    "postcode": "54343",
    "city": "Föhren"
  },
  {
    "postcode": "54344",
    "city": "Kenn"
  },
  {
    "postcode": "54344",
    "city": "Trier-Saarburg"
  },
  {
    "postcode": "54346",
    "city": "Lörsch"
  },
  {
    "postcode": "54346",
    "city": "Mehring"
  },
  {
    "postcode": "54346",
    "city": "Mehring Mosel"
  },
  {
    "postcode": "54346",
    "city": "Trier-Saarburg"
  },
  {
    "postcode": "54347",
    "city": "Dhron"
  },
  {
    "postcode": "54347",
    "city": "Leiwen"
  },
  {
    "postcode": "54347",
    "city": "Neumagen"
  },
  {
    "postcode": "54347",
    "city": "Neumagen-Dhron"
  },
  {
    "postcode": "54347",
    "city": "Trittenheim"
  },
  {
    "postcode": "54347",
    "city": "Bernkastel-Wittlich"
  },
  {
    "postcode": "54347",
    "city": "Papiermühle"
  },
  {
    "postcode": "54349",
    "city": "Trittenheim"
  },
  {
    "postcode": "54349",
    "city": "Bernkastel-Wittlich"
  },
  {
    "postcode": "54411",
    "city": "Abtei"
  },
  {
    "postcode": "54411",
    "city": "Deuselbach"
  },
  {
    "postcode": "54411",
    "city": "Hermeskeil"
  },
  {
    "postcode": "54411",
    "city": "Höfchen bei Hermeskeil"
  },
  {
    "postcode": "54411",
    "city": "Rorodt"
  },
  {
    "postcode": "54411",
    "city": "Bernkastel-Wittlich"
  },
  {
    "postcode": "54411",
    "city": "Höfchen"
  },
  {
    "postcode": "54413",
    "city": "Bescheid bei Hermeskeil"
  },
  {
    "postcode": "54413",
    "city": "Beuren (Hochwald)"
  },
  {
    "postcode": "54413",
    "city": "Beuren"
  },
  {
    "postcode": "54413",
    "city": "Damflos"
  },
  {
    "postcode": "54413",
    "city": "Geisfeld bei Hermeskeil"
  },
  {
    "postcode": "54413",
    "city": "Grimburg"
  },
  {
    "postcode": "54413",
    "city": "Gusenburg"
  },
  {
    "postcode": "54413",
    "city": "Prosterath Hochwald"
  },
  {
    "postcode": "54413",
    "city": "Prosterath"
  },
  {
    "postcode": "54413",
    "city": "Rascheid"
  },
  {
    "postcode": "54413",
    "city": "Trier-Saarburg"
  },
  {
    "postcode": "54413",
    "city": "Bescheid"
  },
  {
    "postcode": "54413",
    "city": "Geisfeld"
  },
  {
    "postcode": "54421",
    "city": "Hinzert-Pölert"
  },
  {
    "postcode": "54421",
    "city": "Reinsfeld Hunsrück"
  },
  {
    "postcode": "54421",
    "city": "Reinsfeld"
  },
  {
    "postcode": "54421",
    "city": "Trier-Saarburg"
  },
  {
    "postcode": "54422",
    "city": "Börfink"
  },
  {
    "postcode": "54422",
    "city": "Muhl"
  },
  {
    "postcode": "54422",
    "city": "Neuhütten"
  },
  {
    "postcode": "54422",
    "city": "Neuhütten Hunsrück"
  },
  {
    "postcode": "54422",
    "city": "Thranenweier"
  },
  {
    "postcode": "54422",
    "city": "Züsch"
  },
  {
    "postcode": "54422",
    "city": "Birkenfeld"
  },
  {
    "postcode": "54424",
    "city": "Bäsch"
  },
  {
    "postcode": "54424",
    "city": "Burtscheid"
  },
  {
    "postcode": "54424",
    "city": "Etgert"
  },
  {
    "postcode": "54424",
    "city": "Gielert"
  },
  {
    "postcode": "54424",
    "city": "Lückenburg"
  },
  {
    "postcode": "54424",
    "city": "Thalfang"
  },
  {
    "postcode": "54424",
    "city": "Bernkastel-Wittlich"
  },
  {
    "postcode": "54426",
    "city": "Berglicht"
  },
  {
    "postcode": "54426",
    "city": "Breit"
  },
  {
    "postcode": "54426",
    "city": "Büdlich"
  },
  {
    "postcode": "54426",
    "city": "Dhronecken"
  },
  {
    "postcode": "54426",
    "city": "Gräfendhron"
  },
  {
    "postcode": "54426",
    "city": "Heidenburg"
  },
  {
    "postcode": "54426",
    "city": "Hilscheid"
  },
  {
    "postcode": "54426",
    "city": "Immert"
  },
  {
    "postcode": "54426",
    "city": "Malborn"
  },
  {
    "postcode": "54426",
    "city": "Merschbach"
  },
  {
    "postcode": "54426",
    "city": "Naurath (Wald)"
  },
  {
    "postcode": "54426",
    "city": "Naurath"
  },
  {
    "postcode": "54426",
    "city": "Neunkirchen Hunsrück"
  },
  {
    "postcode": "54426",
    "city": "Neunkirchen"
  },
  {
    "postcode": "54426",
    "city": "Schönberg bei Hermeskeil"
  },
  {
    "postcode": "54426",
    "city": "Talling"
  },
  {
    "postcode": "54426",
    "city": "Thiergarten Hochwald"
  },
  {
    "postcode": "54426",
    "city": "Thiergarten"
  },
  {
    "postcode": "54426",
    "city": "Bernkastel-Wittlich"
  },
  {
    "postcode": "54426",
    "city": "Schönberg"
  },
  {
    "postcode": "54427",
    "city": "Kell am See"
  },
  {
    "postcode": "54427",
    "city": "Trier-Saarburg"
  },
  {
    "postcode": "54429",
    "city": "Heddert"
  },
  {
    "postcode": "54429",
    "city": "Mandern bei Hermeskeil"
  },
  {
    "postcode": "54429",
    "city": "Schillingen"
  },
  {
    "postcode": "54429",
    "city": "Waldweiler"
  },
  {
    "postcode": "54429",
    "city": "Trier-Saarburg"
  },
  {
    "postcode": "54429",
    "city": "Mandern"
  },
  {
    "postcode": "54439",
    "city": "Beurig"
  },
  {
    "postcode": "54439",
    "city": "Dilmar"
  },
  {
    "postcode": "54439",
    "city": "Dittlingen"
  },
  {
    "postcode": "54439",
    "city": "Esingen"
  },
  {
    "postcode": "54439",
    "city": "Fisch"
  },
  {
    "postcode": "54439",
    "city": "Helfant"
  },
  {
    "postcode": "54439",
    "city": "Kahren bei Saarburg Saar"
  },
  {
    "postcode": "54439",
    "city": "Kahren bei Saarburg"
  },
  {
    "postcode": "54439",
    "city": "Kreuzweiler"
  },
  {
    "postcode": "54439",
    "city": "Krutweiler"
  },
  {
    "postcode": "54439",
    "city": "Merzkirchen"
  },
  {
    "postcode": "54439",
    "city": "Niederleuken"
  },
  {
    "postcode": "54439",
    "city": "Palzem"
  },
  {
    "postcode": "54439",
    "city": "Saarburg"
  },
  {
    "postcode": "54439",
    "city": "Saarburg Saar"
  },
  {
    "postcode": "54439",
    "city": "Südlingen"
  },
  {
    "postcode": "54439",
    "city": "Wehr/Mosel"
  },
  {
    "postcode": "54439",
    "city": "Wehr"
  },
  {
    "postcode": "54439",
    "city": "Trier-Saarburg"
  },
  {
    "postcode": "54439",
    "city": "Körrig"
  },
  {
    "postcode": "54439",
    "city": "Portz"
  },
  {
    "postcode": "54439",
    "city": "Kelsen"
  },
  {
    "postcode": "54439",
    "city": "Rommelfangen"
  },
  {
    "postcode": "54439",
    "city": "Kahren"
  },
  {
    "postcode": "54441",
    "city": "Ayl Saar"
  },
  {
    "postcode": "54441",
    "city": "Ayl"
  },
  {
    "postcode": "54441",
    "city": "Beuren Saargau"
  },
  {
    "postcode": "54441",
    "city": "Beuren"
  },
  {
    "postcode": "54441",
    "city": "Hamm bei Taben-Rodt"
  },
  {
    "postcode": "54441",
    "city": "Kanzem"
  },
  {
    "postcode": "54441",
    "city": "Kastel-Staadt"
  },
  {
    "postcode": "54441",
    "city": "Kirf"
  },
  {
    "postcode": "54441",
    "city": "Kümmern bei Saarburg Saar"
  },
  {
    "postcode": "54441",
    "city": "Kümmern bei Saarburg"
  },
  {
    "postcode": "54441",
    "city": "Mannebach bei Saarburg"
  },
  {
    "postcode": "54441",
    "city": "Meurich"
  },
  {
    "postcode": "54441",
    "city": "Ockfen"
  },
  {
    "postcode": "54441",
    "city": "Perdenbach"
  },
  {
    "postcode": "54441",
    "city": "Schoden"
  },
  {
    "postcode": "54441",
    "city": "Taben-Rodt"
  },
  {
    "postcode": "54441",
    "city": "Temmels"
  },
  {
    "postcode": "54441",
    "city": "Trassem"
  },
  {
    "postcode": "54441",
    "city": "Wawern Saar"
  },
  {
    "postcode": "54441",
    "city": "Wawern"
  },
  {
    "postcode": "54441",
    "city": "Wellen Mosel"
  },
  {
    "postcode": "54441",
    "city": "Wellen"
  },
  {
    "postcode": "54441",
    "city": "Trier-Saarburg"
  },
  {
    "postcode": "54441",
    "city": "Mannebach"
  },
  {
    "postcode": "54450",
    "city": "Freudenburg"
  },
  {
    "postcode": "54450",
    "city": "Freudenburg-Kollesleuken"
  },
  {
    "postcode": "54450",
    "city": "Trier-Saarburg"
  },
  {
    "postcode": "54450",
    "city": "Kollesleuken"
  },
  {
    "postcode": "54451",
    "city": "Irsch Saar"
  },
  {
    "postcode": "54451",
    "city": "Irsch"
  },
  {
    "postcode": "54451",
    "city": "Trier-Saarburg"
  },
  {
    "postcode": "54453",
    "city": "Köllig"
  },
  {
    "postcode": "54453",
    "city": "Nittel"
  },
  {
    "postcode": "54453",
    "city": "Rehlingen Mosel"
  },
  {
    "postcode": "54453",
    "city": "Rehlingen"
  },
  {
    "postcode": "54453",
    "city": "Trier-Saarburg"
  },
  {
    "postcode": "54455",
    "city": "Serrig"
  },
  {
    "postcode": "54455",
    "city": "Trier-Saarburg"
  },
  {
    "postcode": "54456",
    "city": "Fellerich"
  },
  {
    "postcode": "54456",
    "city": "Onsdorf"
  },
  {
    "postcode": "54456",
    "city": "Tawern"
  },
  {
    "postcode": "54456",
    "city": "Trier-Saarburg"
  },
  {
    "postcode": "54457",
    "city": "Söst"
  },
  {
    "postcode": "54457",
    "city": "Wincheringen"
  },
  {
    "postcode": "54457",
    "city": "Trier-Saarburg"
  },
  {
    "postcode": "54457",
    "city": "Bilzingen"
  },
  {
    "postcode": "54459",
    "city": "Wiltingen"
  },
  {
    "postcode": "54459",
    "city": "Trier-Saarburg"
  },
  {
    "postcode": "54470",
    "city": "Andel Mosel"
  },
  {
    "postcode": "54470",
    "city": "Andel"
  },
  {
    "postcode": "54470",
    "city": "Bernkastel-Kues"
  },
  {
    "postcode": "54470",
    "city": "Graach"
  },
  {
    "postcode": "54470",
    "city": "Graach an der Mosel"
  },
  {
    "postcode": "54470",
    "city": "Hirzlei"
  },
  {
    "postcode": "54470",
    "city": "Kues"
  },
  {
    "postcode": "54470",
    "city": "Lieser"
  },
  {
    "postcode": "54470",
    "city": "Wehlen Mosel"
  },
  {
    "postcode": "54470",
    "city": "Wehlen"
  },
  {
    "postcode": "54470",
    "city": "Bernkastel-Wittlich"
  },
  {
    "postcode": "54470",
    "city": "Bernkastel"
  },
  {
    "postcode": "54470",
    "city": "Schäferei"
  },
  {
    "postcode": "54472",
    "city": "Annenberg"
  },
  {
    "postcode": "54472",
    "city": "Brauneberg"
  },
  {
    "postcode": "54472",
    "city": "Burgen bei Bernkastel-Kues"
  },
  {
    "postcode": "54472",
    "city": "Filzen"
  },
  {
    "postcode": "54472",
    "city": "Gornhausen"
  },
  {
    "postcode": "54472",
    "city": "Hochscheid Hunsrück"
  },
  {
    "postcode": "54472",
    "city": "Hochscheid"
  },
  {
    "postcode": "54472",
    "city": "Kommen"
  },
  {
    "postcode": "54472",
    "city": "Longkamp"
  },
  {
    "postcode": "54472",
    "city": "Monzelfeld"
  },
  {
    "postcode": "54472",
    "city": "Thalveldenz"
  },
  {
    "postcode": "54472",
    "city": "Veldenz"
  },
  {
    "postcode": "54472",
    "city": "Bernkastel-Wittlich"
  },
  {
    "postcode": "54472",
    "city": "Burgen"
  },
  {
    "postcode": "54472",
    "city": "Hirzlei"
  },
  {
    "postcode": "54483",
    "city": "Emmeroth"
  },
  {
    "postcode": "54483",
    "city": "Fronhofen bei Bernkastel-Kues"
  },
  {
    "postcode": "54483",
    "city": "Kleinich"
  },
  {
    "postcode": "54483",
    "city": "Oberkleinich"
  },
  {
    "postcode": "54483",
    "city": "Pilmeroth"
  },
  {
    "postcode": "54483",
    "city": "Thalkleinich"
  },
  {
    "postcode": "54483",
    "city": "Bernkastel-Wittlich"
  },
  {
    "postcode": "54483",
    "city": "Fronhofen"
  },
  {
    "postcode": "54483",
    "city": "Götzeroth-Ilsbach"
  },
  {
    "postcode": "54484",
    "city": "Maring"
  },
  {
    "postcode": "54484",
    "city": "Maring-Noviand"
  },
  {
    "postcode": "54484",
    "city": "Noviand"
  },
  {
    "postcode": "54484",
    "city": "Bernkastel-Wittlich"
  },
  {
    "postcode": "54486",
    "city": "Mülheim (Mosel)"
  },
  {
    "postcode": "54486",
    "city": "Mülheim"
  },
  {
    "postcode": "54486",
    "city": "Bernkastel-Wittlich"
  },
  {
    "postcode": "54486",
    "city": "Mülheim an der Mosel"
  },
  {
    "postcode": "54487",
    "city": "Rondel"
  },
  {
    "postcode": "54487",
    "city": "Wintrich"
  },
  {
    "postcode": "54487",
    "city": "Bernkastel-Wittlich"
  },
  {
    "postcode": "54492",
    "city": "Erden"
  },
  {
    "postcode": "54492",
    "city": "Klosterberg bei Zeltingen-Rachtig"
  },
  {
    "postcode": "54492",
    "city": "Lösnich"
  },
  {
    "postcode": "54492",
    "city": "Rachtig"
  },
  {
    "postcode": "54492",
    "city": "Zeltingen-Rachtig"
  },
  {
    "postcode": "54492",
    "city": "Bernkastel-Wittlich"
  },
  {
    "postcode": "54492",
    "city": "Altmachern"
  },
  {
    "postcode": "54492",
    "city": "Klosterberg"
  },
  {
    "postcode": "54492",
    "city": "Machern"
  },
  {
    "postcode": "54492",
    "city": "Zeltingen"
  },
  {
    "postcode": "54497",
    "city": "Bischofsdhron"
  },
  {
    "postcode": "54497",
    "city": "Elzerath"
  },
  {
    "postcode": "54497",
    "city": "Gonzerath"
  },
  {
    "postcode": "54497",
    "city": "Gutenthal"
  },
  {
    "postcode": "54497",
    "city": "Haag Hunsrück"
  },
  {
    "postcode": "54497",
    "city": "Haag"
  },
  {
    "postcode": "54497",
    "city": "Heinzerath"
  },
  {
    "postcode": "54497",
    "city": "Hinzerath"
  },
  {
    "postcode": "54497",
    "city": "Horath"
  },
  {
    "postcode": "54497",
    "city": "Hoxel"
  },
  {
    "postcode": "54497",
    "city": "Hundheim bei Bernkastel-Kues"
  },
  {
    "postcode": "54497",
    "city": "Hunolstein"
  },
  {
    "postcode": "54497",
    "city": "Merscheid Hunsrück"
  },
  {
    "postcode": "54497",
    "city": "Merscheid"
  },
  {
    "postcode": "54497",
    "city": "Morbach"
  },
  {
    "postcode": "54497",
    "city": "Morbach Hunsrück"
  },
  {
    "postcode": "54497",
    "city": "Morscheid-Riedenburg"
  },
  {
    "postcode": "54497",
    "city": "Odert"
  },
  {
    "postcode": "54497",
    "city": "Rapperath"
  },
  {
    "postcode": "54497",
    "city": "Wederath"
  },
  {
    "postcode": "54497",
    "city": "Weiperath"
  },
  {
    "postcode": "54497",
    "city": "Wenigerath"
  },
  {
    "postcode": "54497",
    "city": "Wolzburg"
  },
  {
    "postcode": "54497",
    "city": "Bernkastel-Wittlich"
  },
  {
    "postcode": "54497",
    "city": "Hundheim"
  },
  {
    "postcode": "54497",
    "city": "Hinterbach"
  },
  {
    "postcode": "54498",
    "city": "Ferres"
  },
  {
    "postcode": "54498",
    "city": "Müstert"
  },
  {
    "postcode": "54498",
    "city": "Niederemmel"
  },
  {
    "postcode": "54498",
    "city": "Piesport"
  },
  {
    "postcode": "54498",
    "city": "Reinsport"
  },
  {
    "postcode": "54498",
    "city": "Bernkastel-Wittlich"
  },
  {
    "postcode": "54516",
    "city": "Bombogen"
  },
  {
    "postcode": "54516",
    "city": "Dorf Kreis Wittlich"
  },
  {
    "postcode": "54516",
    "city": "Dorf"
  },
  {
    "postcode": "54516",
    "city": "Flußbach"
  },
  {
    "postcode": "54516",
    "city": "Lüxem"
  },
  {
    "postcode": "54516",
    "city": "Neuerburg Kreis Wittlich"
  },
  {
    "postcode": "54516",
    "city": "Neuerburg"
  },
  {
    "postcode": "54516",
    "city": "Wengerohr"
  },
  {
    "postcode": "54516",
    "city": "Wittlich"
  },
  {
    "postcode": "54516",
    "city": "Bernkastel-Wittlich"
  },
  {
    "postcode": "54518",
    "city": "Altrich"
  },
  {
    "postcode": "54518",
    "city": "Arenrath"
  },
  {
    "postcode": "54518",
    "city": "Bergweiler bei Wittlich"
  },
  {
    "postcode": "54518",
    "city": "Binsfeld bei Wittlich"
  },
  {
    "postcode": "54518",
    "city": "Bruch bei Wittlich"
  },
  {
    "postcode": "54518",
    "city": "Büscheid"
  },
  {
    "postcode": "54518",
    "city": "Dodenburg"
  },
  {
    "postcode": "54518",
    "city": "Dreis bei Wittlich"
  },
  {
    "postcode": "54518",
    "city": "Esch bei Wittlich"
  },
  {
    "postcode": "54518",
    "city": "Gladbach bei Wittlich"
  },
  {
    "postcode": "54518",
    "city": "Greverath"
  },
  {
    "postcode": "54518",
    "city": "Haardt"
  },
  {
    "postcode": "54518",
    "city": "Heckenmünster"
  },
  {
    "postcode": "54518",
    "city": "Heidweiler bei Wittlich"
  },
  {
    "postcode": "54518",
    "city": "Hupperath"
  },
  {
    "postcode": "54518",
    "city": "Kesten"
  },
  {
    "postcode": "54518",
    "city": "Minderlittgen"
  },
  {
    "postcode": "54518",
    "city": "Minheim Mosel"
  },
  {
    "postcode": "54518",
    "city": "Minheim"
  },
  {
    "postcode": "54518",
    "city": "Niersbach"
  },
  {
    "postcode": "54518",
    "city": "Osann-Monzel"
  },
  {
    "postcode": "54518",
    "city": "Platten bei Wittlich"
  },
  {
    "postcode": "54518",
    "city": "Plein"
  },
  {
    "postcode": "54518",
    "city": "Rivenich"
  },
  {
    "postcode": "54518",
    "city": "Sehlem bei Wittlich"
  },
  {
    "postcode": "54518",
    "city": "Bernkastel-Wittlich"
  },
  {
    "postcode": "54518",
    "city": "Bergweiler"
  },
  {
    "postcode": "54518",
    "city": "Binsfeld"
  },
  {
    "postcode": "54518",
    "city": "Bruch"
  },
  {
    "postcode": "54518",
    "city": "Dreis"
  },
  {
    "postcode": "54518",
    "city": "Esch"
  },
  {
    "postcode": "54518",
    "city": "Gladbach"
  },
  {
    "postcode": "54518",
    "city": "Heidweiler"
  },
  {
    "postcode": "54518",
    "city": "Kaisermühle"
  },
  {
    "postcode": "54518",
    "city": "Platten"
  },
  {
    "postcode": "54518",
    "city": "Sehlem"
  },
  {
    "postcode": "54518",
    "city": "Osann"
  },
  {
    "postcode": "54523",
    "city": "Dierscheid"
  },
  {
    "postcode": "54523",
    "city": "Erlenbach Mosel"
  },
  {
    "postcode": "54523",
    "city": "Erlenbach"
  },
  {
    "postcode": "54523",
    "city": "Hetzerath Mosel"
  },
  {
    "postcode": "54523",
    "city": "Hetzerath"
  },
  {
    "postcode": "54523",
    "city": "Bernkastel-Wittlich"
  },
  {
    "postcode": "54523",
    "city": "Kalbergerhof"
  },
  {
    "postcode": "54524",
    "city": "Klausen Mosel"
  },
  {
    "postcode": "54524",
    "city": "Klausen"
  },
  {
    "postcode": "54524",
    "city": "Krames Kreis Wittlich"
  },
  {
    "postcode": "54524",
    "city": "Krames"
  },
  {
    "postcode": "54524",
    "city": "Bernkastel-Wittlich"
  },
  {
    "postcode": "54526",
    "city": "Burg / Salm"
  },
  {
    "postcode": "54526",
    "city": "Burg"
  },
  {
    "postcode": "54526",
    "city": "Landscheid"
  },
  {
    "postcode": "54526",
    "city": "Landscheid Eifel"
  },
  {
    "postcode": "54526",
    "city": "Niederkail"
  },
  {
    "postcode": "54526",
    "city": "Bernkastel-Wittlich"
  },
  {
    "postcode": "54526",
    "city": "Burg/Salm"
  },
  {
    "postcode": "54526",
    "city": "Hof Hau"
  },
  {
    "postcode": "54526",
    "city": "Hof Raskop"
  },
  {
    "postcode": "54528",
    "city": "Dörbach"
  },
  {
    "postcode": "54528",
    "city": "Salmrohr"
  },
  {
    "postcode": "54528",
    "city": "Salmtal"
  },
  {
    "postcode": "54528",
    "city": "Bernkastel-Wittlich"
  },
  {
    "postcode": "54529",
    "city": "Spang"
  },
  {
    "postcode": "54529",
    "city": "Spangdahlem"
  },
  {
    "postcode": "54529",
    "city": "Eifelkreis Bitburg-Prüm"
  },
  {
    "postcode": "54531",
    "city": "Eckfeld"
  },
  {
    "postcode": "54531",
    "city": "Manderscheid"
  },
  {
    "postcode": "54531",
    "city": "Manderscheid Eifel"
  },
  {
    "postcode": "54531",
    "city": "Meerfeld"
  },
  {
    "postcode": "54531",
    "city": "Niedermanderscheid Eifel"
  },
  {
    "postcode": "54531",
    "city": "Niedermanderscheid"
  },
  {
    "postcode": "54531",
    "city": "Pantenburg"
  },
  {
    "postcode": "54531",
    "city": "Wallscheid"
  },
  {
    "postcode": "54531",
    "city": "Bernkastel-Wittlich"
  },
  {
    "postcode": "54533",
    "city": "Bettenfeld Eifel"
  },
  {
    "postcode": "54533",
    "city": "Bettenfeld"
  },
  {
    "postcode": "54533",
    "city": "Dierfeld"
  },
  {
    "postcode": "54533",
    "city": "Eichelhütte"
  },
  {
    "postcode": "54533",
    "city": "Eisenschmitt"
  },
  {
    "postcode": "54533",
    "city": "Gipperath"
  },
  {
    "postcode": "54533",
    "city": "Gransdorf"
  },
  {
    "postcode": "54533",
    "city": "Greimerath Eifel"
  },
  {
    "postcode": "54533",
    "city": "Greimerath"
  },
  {
    "postcode": "54533",
    "city": "Hasborn Eifel"
  },
  {
    "postcode": "54533",
    "city": "Hasborn"
  },
  {
    "postcode": "54533",
    "city": "Laufeld"
  },
  {
    "postcode": "54533",
    "city": "Niederöfflingen"
  },
  {
    "postcode": "54533",
    "city": "Niederscheidweiler"
  },
  {
    "postcode": "54533",
    "city": "Oberkail"
  },
  {
    "postcode": "54533",
    "city": "Oberöfflingen"
  },
  {
    "postcode": "54533",
    "city": "Oberscheidweiler"
  },
  {
    "postcode": "54533",
    "city": "Schwarzenborn Eifel"
  },
  {
    "postcode": "54533",
    "city": "Schwarzenborn"
  },
  {
    "postcode": "54533",
    "city": "Willwerscheid"
  },
  {
    "postcode": "54533",
    "city": "Bernkastel-Wittlich"
  },
  {
    "postcode": "54533",
    "city": "Biermühle"
  },
  {
    "postcode": "54533",
    "city": "Salmberg"
  },
  {
    "postcode": "54534",
    "city": "Großlittgen"
  },
  {
    "postcode": "54534",
    "city": "Karl"
  },
  {
    "postcode": "54534",
    "city": "Musweiler"
  },
  {
    "postcode": "54534",
    "city": "Schladt"
  },
  {
    "postcode": "54534",
    "city": "Bernkastel-Wittlich"
  },
  {
    "postcode": "54536",
    "city": "Kövenig"
  },
  {
    "postcode": "54536",
    "city": "Kröv"
  },
  {
    "postcode": "54536",
    "city": "Bernkastel-Wittlich"
  },
  {
    "postcode": "54538",
    "city": "Bausendorf"
  },
  {
    "postcode": "54538",
    "city": "Bengel"
  },
  {
    "postcode": "54538",
    "city": "Bengel Mosel"
  },
  {
    "postcode": "54538",
    "city": "Diefenbach bei Wittlich"
  },
  {
    "postcode": "54538",
    "city": "Hetzhof"
  },
  {
    "postcode": "54538",
    "city": "Hontheim"
  },
  {
    "postcode": "54538",
    "city": "Hontheim bei Wittlich"
  },
  {
    "postcode": "54538",
    "city": "Kindel"
  },
  {
    "postcode": "54538",
    "city": "Kinderbeuern"
  },
  {
    "postcode": "54538",
    "city": "Kinheim"
  },
  {
    "postcode": "54538",
    "city": "Krinkhof bei Wittlich"
  },
  {
    "postcode": "54538",
    "city": "Olkenbach"
  },
  {
    "postcode": "54538",
    "city": "Springiersbach Mosel"
  },
  {
    "postcode": "54538",
    "city": "Springiersbach"
  },
  {
    "postcode": "54538",
    "city": "Wispelt bei Wittlich"
  },
  {
    "postcode": "54538",
    "city": "Bernkastel-Wittlich"
  },
  {
    "postcode": "54538",
    "city": "Diefenbach"
  },
  {
    "postcode": "54538",
    "city": "Melchhof"
  },
  {
    "postcode": "54538",
    "city": "Bonsbeuren"
  },
  {
    "postcode": "54538",
    "city": "Krinkhof"
  },
  {
    "postcode": "54538",
    "city": "Wispelt"
  },
  {
    "postcode": "54539",
    "city": "Ürzig Mosel"
  },
  {
    "postcode": "54539",
    "city": "Ürzig"
  },
  {
    "postcode": "54539",
    "city": "Zeltingen-Rachtig"
  },
  {
    "postcode": "54539",
    "city": "Bernkastel-Wittlich"
  },
  {
    "postcode": "54539",
    "city": "Zeltingen Forsthaus"
  },
  {
    "postcode": "54550",
    "city": "Boverath"
  },
  {
    "postcode": "54550",
    "city": "Daun"
  },
  {
    "postcode": "54550",
    "city": "Gemünden"
  },
  {
    "postcode": "54550",
    "city": "Neunkirchen Kreis Daun"
  },
  {
    "postcode": "54550",
    "city": "Neunkirchen"
  },
  {
    "postcode": "54550",
    "city": "Pützborn"
  },
  {
    "postcode": "54550",
    "city": "Rengen"
  },
  {
    "postcode": "54550",
    "city": "Waldkönigen"
  },
  {
    "postcode": "54550",
    "city": "Weiersbach"
  },
  {
    "postcode": "54550",
    "city": "Vulkaneifel"
  },
  {
    "postcode": "54550",
    "city": "Steinborn"
  },
  {
    "postcode": "54552",
    "city": "Beinhausen"
  },
  {
    "postcode": "54552",
    "city": "Boxberg Kreis Daun"
  },
  {
    "postcode": "54552",
    "city": "Boxberg"
  },
  {
    "postcode": "54552",
    "city": "Brockscheid"
  },
  {
    "postcode": "54552",
    "city": "Brück"
  },
  {
    "postcode": "54552",
    "city": "Darscheid Kreis Daun"
  },
  {
    "postcode": "54552",
    "city": "Darscheid"
  },
  {
    "postcode": "54552",
    "city": "Demerath"
  },
  {
    "postcode": "54552",
    "city": "Dockweiler"
  },
  {
    "postcode": "54552",
    "city": "Dreis"
  },
  {
    "postcode": "54552",
    "city": "Dreis-Brück"
  },
  {
    "postcode": "54552",
    "city": "Ellscheid"
  },
  {
    "postcode": "54552",
    "city": "Gefell Kreis Daun"
  },
  {
    "postcode": "54552",
    "city": "Gefell"
  },
  {
    "postcode": "54552",
    "city": "Hörscheid"
  },
  {
    "postcode": "54552",
    "city": "Hörschhausen"
  },
  {
    "postcode": "54552",
    "city": "Immerath Kreis Daun"
  },
  {
    "postcode": "54552",
    "city": "Immerath"
  },
  {
    "postcode": "54552",
    "city": "Katzwinkel Eifel"
  },
  {
    "postcode": "54552",
    "city": "Katzwinkel"
  },
  {
    "postcode": "54552",
    "city": "Kradenbach"
  },
  {
    "postcode": "54552",
    "city": "Mehren Kreis Daun"
  },
  {
    "postcode": "54552",
    "city": "Mehren"
  },
  {
    "postcode": "54552",
    "city": "Neichen Kreis Daun"
  },
  {
    "postcode": "54552",
    "city": "Neichen"
  },
  {
    "postcode": "54552",
    "city": "Nerdlen"
  },
  {
    "postcode": "54552",
    "city": "Sarmersbach"
  },
  {
    "postcode": "54552",
    "city": "Schalkenmehren"
  },
  {
    "postcode": "54552",
    "city": "Schönbach Kreis Daun"
  },
  {
    "postcode": "54552",
    "city": "Schönbach"
  },
  {
    "postcode": "54552",
    "city": "Steineberg Eifel"
  },
  {
    "postcode": "54552",
    "city": "Steineberg"
  },
  {
    "postcode": "54552",
    "city": "Steiningen"
  },
  {
    "postcode": "54552",
    "city": "Strotzbüsch"
  },
  {
    "postcode": "54552",
    "city": "Tettscheid"
  },
  {
    "postcode": "54552",
    "city": "Trittscheid"
  },
  {
    "postcode": "54552",
    "city": "Üdersdorf"
  },
  {
    "postcode": "54552",
    "city": "Udler"
  },
  {
    "postcode": "54552",
    "city": "Utzerath"
  },
  {
    "postcode": "54552",
    "city": "Vulkaneifel"
  },
  {
    "postcode": "54558",
    "city": "Gillenfeld"
  },
  {
    "postcode": "54558",
    "city": "Mückeln"
  },
  {
    "postcode": "54558",
    "city": "Saxler"
  },
  {
    "postcode": "54558",
    "city": "Strohn"
  },
  {
    "postcode": "54558",
    "city": "Winkel (Eifel)"
  },
  {
    "postcode": "54558",
    "city": "Winkel"
  },
  {
    "postcode": "54558",
    "city": "Vulkaneifel"
  },
  {
    "postcode": "54568",
    "city": "Bewingen"
  },
  {
    "postcode": "54568",
    "city": "Büscheich"
  },
  {
    "postcode": "54568",
    "city": "Gees"
  },
  {
    "postcode": "54568",
    "city": "Gerolstein"
  },
  {
    "postcode": "54568",
    "city": "Hinterhausen"
  },
  {
    "postcode": "54568",
    "city": "Lissingen"
  },
  {
    "postcode": "54568",
    "city": "Michelbach"
  },
  {
    "postcode": "54568",
    "city": "Müllenborn"
  },
  {
    "postcode": "54568",
    "city": "Oos"
  },
  {
    "postcode": "54568",
    "city": "Roth bei Gerolstein"
  },
  {
    "postcode": "54568",
    "city": "Vulkaneifel"
  },
  {
    "postcode": "54568",
    "city": "Roth"
  },
  {
    "postcode": "54570",
    "city": "Berlingen Eifel"
  },
  {
    "postcode": "54570",
    "city": "Berlingen"
  },
  {
    "postcode": "54570",
    "city": "Betteldorf"
  },
  {
    "postcode": "54570",
    "city": "Bleckhausen Eifel"
  },
  {
    "postcode": "54570",
    "city": "Bleckhausen"
  },
  {
    "postcode": "54570",
    "city": "Densborn"
  },
  {
    "postcode": "54570",
    "city": "Desserath"
  },
  {
    "postcode": "54570",
    "city": "Deudesfeld"
  },
  {
    "postcode": "54570",
    "city": "Hinterweiler Eifel"
  },
  {
    "postcode": "54570",
    "city": "Hinterweiler"
  },
  {
    "postcode": "54570",
    "city": "Hohenfels-Essingen"
  },
  {
    "postcode": "54570",
    "city": "Kalenborn-Scheuern"
  },
  {
    "postcode": "54570",
    "city": "Kirchweiler"
  },
  {
    "postcode": "54570",
    "city": "Meisburg"
  },
  {
    "postcode": "54570",
    "city": "Mürlenbach"
  },
  {
    "postcode": "54570",
    "city": "Neroth"
  },
  {
    "postcode": "54570",
    "city": "Niederstadtfeld"
  },
  {
    "postcode": "54570",
    "city": "Oberstadtfeld"
  },
  {
    "postcode": "54570",
    "city": "Pelm"
  },
  {
    "postcode": "54570",
    "city": "Rockeskyll"
  },
  {
    "postcode": "54570",
    "city": "Salm Eifel"
  },
  {
    "postcode": "54570",
    "city": "Salm"
  },
  {
    "postcode": "54570",
    "city": "Schutz"
  },
  {
    "postcode": "54570",
    "city": "Wallenborn"
  },
  {
    "postcode": "54570",
    "city": "Weidenbach bei Gerolstein"
  },
  {
    "postcode": "54570",
    "city": "Vulkaneifel"
  },
  {
    "postcode": "54570",
    "city": "Sauerseifen"
  },
  {
    "postcode": "54570",
    "city": "Weidenbach"
  },
  {
    "postcode": "54570",
    "city": "Hohenfels"
  },
  {
    "postcode": "54570",
    "city": "Essingen"
  },
  {
    "postcode": "54570",
    "city": "Scheuern"
  },
  {
    "postcode": "54574",
    "city": "Birresborn"
  },
  {
    "postcode": "54574",
    "city": "Kopp"
  },
  {
    "postcode": "54574",
    "city": "Rom Eifel"
  },
  {
    "postcode": "54574",
    "city": "Rom"
  },
  {
    "postcode": "54574",
    "city": "Vulkaneifel"
  },
  {
    "postcode": "54576",
    "city": "Bolsdorf"
  },
  {
    "postcode": "54576",
    "city": "Dohm"
  },
  {
    "postcode": "54576",
    "city": "Dohm-Lammersdorf"
  },
  {
    "postcode": "54576",
    "city": "Hillesheim Eifel"
  },
  {
    "postcode": "54576",
    "city": "Hillesheim"
  },
  {
    "postcode": "54576",
    "city": "Hillesheim/Eifel"
  },
  {
    "postcode": "54576",
    "city": "Lammersdorf"
  },
  {
    "postcode": "54576",
    "city": "Niederbettingen"
  },
  {
    "postcode": "54576",
    "city": "Vulkaneifel"
  },
  {
    "postcode": "54578",
    "city": "Basberg Eifel"
  },
  {
    "postcode": "54578",
    "city": "Basberg"
  },
  {
    "postcode": "54578",
    "city": "Berndorf Eifel"
  },
  {
    "postcode": "54578",
    "city": "Berndorf"
  },
  {
    "postcode": "54578",
    "city": "Kerpen (Eifel)"
  },
  {
    "postcode": "54578",
    "city": "Kerpen"
  },
  {
    "postcode": "54578",
    "city": "Kerpen/Eifel"
  },
  {
    "postcode": "54578",
    "city": "Loogh Eifel"
  },
  {
    "postcode": "54578",
    "city": "Loogh"
  },
  {
    "postcode": "54578",
    "city": "Mirbach"
  },
  {
    "postcode": "54578",
    "city": "Nohn Eifel"
  },
  {
    "postcode": "54578",
    "city": "Nohn"
  },
  {
    "postcode": "54578",
    "city": "Oberbettingen"
  },
  {
    "postcode": "54578",
    "city": "Oberehe"
  },
  {
    "postcode": "54578",
    "city": "Oberehe-Stroheich"
  },
  {
    "postcode": "54578",
    "city": "Stroheich"
  },
  {
    "postcode": "54578",
    "city": "Walsdorf"
  },
  {
    "postcode": "54578",
    "city": "Walsdorf Eifel"
  },
  {
    "postcode": "54578",
    "city": "Wiesbaum"
  },
  {
    "postcode": "54578",
    "city": "Zilsdorf Eifel"
  },
  {
    "postcode": "54578",
    "city": "Zilsdorf"
  },
  {
    "postcode": "54578",
    "city": "Vulkaneifel"
  },
  {
    "postcode": "54579",
    "city": "Ahütte"
  },
  {
    "postcode": "54579",
    "city": "Heyroth"
  },
  {
    "postcode": "54579",
    "city": "Leudersdorf"
  },
  {
    "postcode": "54579",
    "city": "Niederehe"
  },
  {
    "postcode": "54579",
    "city": "Üxheim"
  },
  {
    "postcode": "54579",
    "city": "Vulkaneifel"
  },
  {
    "postcode": "54579",
    "city": "Nollenbach"
  },
  {
    "postcode": "54579",
    "city": "Flesten"
  },
  {
    "postcode": "54584",
    "city": "Feusdorf"
  },
  {
    "postcode": "54584",
    "city": "Gönnersdorf bei Gerolstein"
  },
  {
    "postcode": "54584",
    "city": "Jünkerath"
  },
  {
    "postcode": "54584",
    "city": "Vulkaneifel"
  },
  {
    "postcode": "54584",
    "city": "Gönnersdorf"
  },
  {
    "postcode": "54585",
    "city": "Esch bei Gerolstein"
  },
  {
    "postcode": "54585",
    "city": "Vulkaneifel"
  },
  {
    "postcode": "54585",
    "city": "Esch"
  },
  {
    "postcode": "54586",
    "city": "Schüller"
  },
  {
    "postcode": "54586",
    "city": "Vulkaneifel"
  },
  {
    "postcode": "54587",
    "city": "Birgel bei Lissendorf"
  },
  {
    "postcode": "54587",
    "city": "Lissendorf"
  },
  {
    "postcode": "54587",
    "city": "Vulkaneifel"
  },
  {
    "postcode": "54587",
    "city": "Birgel"
  },
  {
    "postcode": "54589",
    "city": "Kerschenbach"
  },
  {
    "postcode": "54589",
    "city": "Niederkyll"
  },
  {
    "postcode": "54589",
    "city": "Schönfeld Kreis Prüm"
  },
  {
    "postcode": "54589",
    "city": "Schönfeld"
  },
  {
    "postcode": "54589",
    "city": "Stadtkyll"
  },
  {
    "postcode": "54589",
    "city": "Vulkaneifel"
  },
  {
    "postcode": "54595",
    "city": "Dausfeld"
  },
  {
    "postcode": "54595",
    "city": "Gondelsheim Eifel"
  },
  {
    "postcode": "54595",
    "city": "Gondelsheim"
  },
  {
    "postcode": "54595",
    "city": "Gondenbrett"
  },
  {
    "postcode": "54595",
    "city": "Hermespand"
  },
  {
    "postcode": "54595",
    "city": "Niedermehlen"
  },
  {
    "postcode": "54595",
    "city": "Niederprüm"
  },
  {
    "postcode": "54595",
    "city": "Obermehlen"
  },
  {
    "postcode": "54595",
    "city": "Orlenbach"
  },
  {
    "postcode": "54595",
    "city": "Pittenbach"
  },
  {
    "postcode": "54595",
    "city": "Prüm"
  },
  {
    "postcode": "54595",
    "city": "Prüm (Eifel)"
  },
  {
    "postcode": "54595",
    "city": "Schloßheck"
  },
  {
    "postcode": "54595",
    "city": "Steinmehlen"
  },
  {
    "postcode": "54595",
    "city": "Wascheid"
  },
  {
    "postcode": "54595",
    "city": "Watzerath"
  },
  {
    "postcode": "54595",
    "city": "Weinsfeld"
  },
  {
    "postcode": "54595",
    "city": "Weinsheim"
  },
  {
    "postcode": "54595",
    "city": "Weinsheim Eifel"
  },
  {
    "postcode": "54595",
    "city": "Willwerath"
  },
  {
    "postcode": "54595",
    "city": "Eifelkreis Bitburg-Prüm"
  },
  {
    "postcode": "54597",
    "city": "Auel"
  },
  {
    "postcode": "54597",
    "city": "Auw"
  },
  {
    "postcode": "54597",
    "city": "Auw bei Prüm"
  },
  {
    "postcode": "54597",
    "city": "Balesfeld"
  },
  {
    "postcode": "54597",
    "city": "Burbach Eifel"
  },
  {
    "postcode": "54597",
    "city": "Burbach"
  },
  {
    "postcode": "54597",
    "city": "Duppach"
  },
  {
    "postcode": "54597",
    "city": "Ellwerath"
  },
  {
    "postcode": "54597",
    "city": "Euscheid"
  },
  {
    "postcode": "54597",
    "city": "Feuerscheid"
  },
  {
    "postcode": "54597",
    "city": "Fleringen"
  },
  {
    "postcode": "54597",
    "city": "Gemeinde Wawern"
  },
  {
    "postcode": "54597",
    "city": "Gesotz Gemeinde Feuerscheid"
  },
  {
    "postcode": "54597",
    "city": "Gesotz"
  },
  {
    "postcode": "54597",
    "city": "Habscheid"
  },
  {
    "postcode": "54597",
    "city": "Hersdorf"
  },
  {
    "postcode": "54597",
    "city": "Hollnich"
  },
  {
    "postcode": "54597",
    "city": "Kinzenburg"
  },
  {
    "postcode": "54597",
    "city": "Kleinlangenfeld"
  },
  {
    "postcode": "54597",
    "city": "Kobscheid Kreis Prüm"
  },
  {
    "postcode": "54597",
    "city": "Kobscheid"
  },
  {
    "postcode": "54597",
    "city": "Lascheid Eifel"
  },
  {
    "postcode": "54597",
    "city": "Lascheid"
  },
  {
    "postcode": "54597",
    "city": "Laudesfeld Kreis Prüm"
  },
  {
    "postcode": "54597",
    "city": "Laudesfeld"
  },
  {
    "postcode": "54597",
    "city": "Lierfeld"
  },
  {
    "postcode": "54597",
    "city": "Lünebach"
  },
  {
    "postcode": "54597",
    "city": "Masthorn"
  },
  {
    "postcode": "54597",
    "city": "Matzerath Eifel"
  },
  {
    "postcode": "54597",
    "city": "Matzerath"
  },
  {
    "postcode": "54597",
    "city": "Merlscheid"
  },
  {
    "postcode": "54597",
    "city": "Neuendorf Eifel"
  },
  {
    "postcode": "54597",
    "city": "Neuendorf"
  },
  {
    "postcode": "54597",
    "city": "Neuheilenbach"
  },
  {
    "postcode": "54597",
    "city": "Neustraßburg"
  },
  {
    "postcode": "54597",
    "city": "Olzheim"
  },
  {
    "postcode": "54597",
    "city": "Ormont"
  },
  {
    "postcode": "54597",
    "city": "Plütscheid"
  },
  {
    "postcode": "54597",
    "city": "Pronsfeld"
  },
  {
    "postcode": "54597",
    "city": "Reuth Eifel"
  },
  {
    "postcode": "54597",
    "city": "Reuth"
  },
  {
    "postcode": "54597",
    "city": "Rommersheim"
  },
  {
    "postcode": "54597",
    "city": "Rommersheim bei Prüm"
  },
  {
    "postcode": "54597",
    "city": "Roth bei Prüm"
  },
  {
    "postcode": "54597",
    "city": "Schlausenbach"
  },
  {
    "postcode": "54597",
    "city": "Schwirzheim"
  },
  {
    "postcode": "54597",
    "city": "Seiwerath"
  },
  {
    "postcode": "54597",
    "city": "Steffeln"
  },
  {
    "postcode": "54597",
    "city": "Strickscheid"
  },
  {
    "postcode": "54597",
    "city": "Wallersheim Eifel"
  },
  {
    "postcode": "54597",
    "city": "Wallersheim"
  },
  {
    "postcode": "54597",
    "city": "Weißenseifen Gemeinde Wallersheim"
  },
  {
    "postcode": "54597",
    "city": "Weißenseifen"
  },
  {
    "postcode": "54597",
    "city": "Wischeid Kreis Prüm"
  },
  {
    "postcode": "54597",
    "city": "Wischeid"
  },
  {
    "postcode": "54597",
    "city": "Eifelkreis Bitburg-Prüm"
  },
  {
    "postcode": "54597",
    "city": "Denterhof"
  },
  {
    "postcode": "54597",
    "city": "Gesotz Gem Plütscheid"
  },
  {
    "postcode": "54597",
    "city": "Hofswald"
  },
  {
    "postcode": "54597",
    "city": "Weißenseifen Gem Wallersheim"
  },
  {
    "postcode": "54597",
    "city": "Jakobsknopp"
  },
  {
    "postcode": "54597",
    "city": "Nieder-Hersdorf"
  },
  {
    "postcode": "54597",
    "city": "Ober-Hersdorf"
  },
  {
    "postcode": "54597",
    "city": "Knaufspesch"
  },
  {
    "postcode": "54597",
    "city": "Schloßheck"
  },
  {
    "postcode": "54597",
    "city": "Gem Wawern"
  },
  {
    "postcode": "54597",
    "city": "Schartzberg"
  },
  {
    "postcode": "54608",
    "city": "Bleialf"
  },
  {
    "postcode": "54608",
    "city": "Brandscheid Eifel"
  },
  {
    "postcode": "54608",
    "city": "Brandscheid"
  },
  {
    "postcode": "54608",
    "city": "Buchet Eifel"
  },
  {
    "postcode": "54608",
    "city": "Buchet"
  },
  {
    "postcode": "54608",
    "city": "Großlangenfeld"
  },
  {
    "postcode": "54608",
    "city": "Herscheid"
  },
  {
    "postcode": "54608",
    "city": "Hontheim"
  },
  {
    "postcode": "54608",
    "city": "Mützenich bei Prüm"
  },
  {
    "postcode": "54608",
    "city": "Oberlascheid"
  },
  {
    "postcode": "54608",
    "city": "Schweiler"
  },
  {
    "postcode": "54608",
    "city": "Sellerich"
  },
  {
    "postcode": "54608",
    "city": "Winterscheid Eifel"
  },
  {
    "postcode": "54608",
    "city": "Winterscheid"
  },
  {
    "postcode": "54608",
    "city": "Eifelkreis Bitburg-Prüm"
  },
  {
    "postcode": "54608",
    "city": "Mützenich"
  },
  {
    "postcode": "54608",
    "city": "Weidinger"
  },
  {
    "postcode": "54608",
    "city": "Sellericher Höhe"
  },
  {
    "postcode": "54610",
    "city": "Büdesheim Eifel"
  },
  {
    "postcode": "54610",
    "city": "Büdesheim"
  },
  {
    "postcode": "54610",
    "city": "Eifelkreis Bitburg-Prüm"
  },
  {
    "postcode": "54611",
    "city": "Hallschlag"
  },
  {
    "postcode": "54611",
    "city": "Scheid Eifel"
  },
  {
    "postcode": "54611",
    "city": "Scheid"
  },
  {
    "postcode": "54611",
    "city": "Vulkaneifel"
  },
  {
    "postcode": "54612",
    "city": "Lasel"
  },
  {
    "postcode": "54612",
    "city": "Nimshuscheid"
  },
  {
    "postcode": "54612",
    "city": "Wawern Eifel"
  },
  {
    "postcode": "54612",
    "city": "Wawern"
  },
  {
    "postcode": "54612",
    "city": "Eifelkreis Bitburg-Prüm"
  },
  {
    "postcode": "54612",
    "city": "Nimshuscheidermühle"
  },
  {
    "postcode": "54614",
    "city": "Dingdorf Eifel"
  },
  {
    "postcode": "54614",
    "city": "Dingdorf"
  },
  {
    "postcode": "54614",
    "city": "Giesdorf"
  },
  {
    "postcode": "54614",
    "city": "Heisdorf"
  },
  {
    "postcode": "54614",
    "city": "Niederlauch"
  },
  {
    "postcode": "54614",
    "city": "Nimsreuland"
  },
  {
    "postcode": "54614",
    "city": "Oberlauch"
  },
  {
    "postcode": "54614",
    "city": "Schönecken"
  },
  {
    "postcode": "54614",
    "city": "Winringen"
  },
  {
    "postcode": "54614",
    "city": "Eifelkreis Bitburg-Prüm"
  },
  {
    "postcode": "54616",
    "city": "Eigelscheid"
  },
  {
    "postcode": "54616",
    "city": "Elcherath"
  },
  {
    "postcode": "54616",
    "city": "Heckhalenfeld"
  },
  {
    "postcode": "54616",
    "city": "Hemmeres"
  },
  {
    "postcode": "54616",
    "city": "Ihren"
  },
  {
    "postcode": "54616",
    "city": "Steinebrück"
  },
  {
    "postcode": "54616",
    "city": "Urb"
  },
  {
    "postcode": "54616",
    "city": "Wallmerath"
  },
  {
    "postcode": "54616",
    "city": "Winterspelt"
  },
  {
    "postcode": "54616",
    "city": "Eifelkreis Bitburg-Prüm"
  },
  {
    "postcode": "54616",
    "city": "Hasselbach"
  },
  {
    "postcode": "54617",
    "city": "Harspelt"
  },
  {
    "postcode": "54617",
    "city": "Lützkampen"
  },
  {
    "postcode": "54617",
    "city": "Sevenig (Our)"
  },
  {
    "postcode": "54617",
    "city": "Sevenig"
  },
  {
    "postcode": "54617",
    "city": "Welchenhausen"
  },
  {
    "postcode": "54617",
    "city": "Eifelkreis Bitburg-Prüm"
  },
  {
    "postcode": "54619",
    "city": "Binscheid"
  },
  {
    "postcode": "54619",
    "city": "Dackscheid bei Großkampenberg"
  },
  {
    "postcode": "54619",
    "city": "Eschfeld"
  },
  {
    "postcode": "54619",
    "city": "Großkampenberg"
  },
  {
    "postcode": "54619",
    "city": "Heckhuscheid"
  },
  {
    "postcode": "54619",
    "city": "Herzfeld Eifel"
  },
  {
    "postcode": "54619",
    "city": "Herzfeld"
  },
  {
    "postcode": "54619",
    "city": "Huf"
  },
  {
    "postcode": "54619",
    "city": "Kesfeld"
  },
  {
    "postcode": "54619",
    "city": "Kopscheid Eifel"
  },
  {
    "postcode": "54619",
    "city": "Kopscheid"
  },
  {
    "postcode": "54619",
    "city": "Leidenborn"
  },
  {
    "postcode": "54619",
    "city": "Lichtenborn Eifel"
  },
  {
    "postcode": "54619",
    "city": "Lichtenborn"
  },
  {
    "postcode": "54619",
    "city": "Niederüttfeld"
  },
  {
    "postcode": "54619",
    "city": "Oberüttfeld"
  },
  {
    "postcode": "54619",
    "city": "Reiff"
  },
  {
    "postcode": "54619",
    "city": "Roscheid Eifel"
  },
  {
    "postcode": "54619",
    "city": "Roscheid"
  },
  {
    "postcode": "54619",
    "city": "Sengerich"
  },
  {
    "postcode": "54619",
    "city": "Üttfeld"
  },
  {
    "postcode": "54619",
    "city": "Eifelkreis Bitburg-Prüm"
  },
  {
    "postcode": "54619",
    "city": "Dackscheid"
  },
  {
    "postcode": "54619",
    "city": "Üttfeld-Bahnhof"
  },
  {
    "postcode": "54619",
    "city": "Nieder-Üttfeld"
  },
  {
    "postcode": "54634",
    "city": "Birtlingen"
  },
  {
    "postcode": "54634",
    "city": "Bitburg"
  },
  {
    "postcode": "54634",
    "city": "Erdorf Eifel"
  },
  {
    "postcode": "54634",
    "city": "Erdorf"
  },
  {
    "postcode": "54634",
    "city": "Irsch"
  },
  {
    "postcode": "54634",
    "city": "Masholder"
  },
  {
    "postcode": "54634",
    "city": "Matzen Kreis Bitburg"
  },
  {
    "postcode": "54634",
    "city": "Matzen"
  },
  {
    "postcode": "54634",
    "city": "Metterich"
  },
  {
    "postcode": "54634",
    "city": "Mötsch"
  },
  {
    "postcode": "54634",
    "city": "Niederstedem"
  },
  {
    "postcode": "54634",
    "city": "Oberstedem"
  },
  {
    "postcode": "54634",
    "city": "Stahl"
  },
  {
    "postcode": "54634",
    "city": "Eifelkreis Bitburg-Prüm"
  },
  {
    "postcode": "54636",
    "city": "Altscheid"
  },
  {
    "postcode": "54636",
    "city": "Badenborn Eifel"
  },
  {
    "postcode": "54636",
    "city": "Badenborn"
  },
  {
    "postcode": "54636",
    "city": "Baustert"
  },
  {
    "postcode": "54636",
    "city": "Bickendorf Eifel"
  },
  {
    "postcode": "54636",
    "city": "Bickendorf"
  },
  {
    "postcode": "54636",
    "city": "Biersdorf am See"
  },
  {
    "postcode": "54636",
    "city": "Brecht Eifel"
  },
  {
    "postcode": "54636",
    "city": "Brecht"
  },
  {
    "postcode": "54636",
    "city": "Dahlem bei Bitburg"
  },
  {
    "postcode": "54636",
    "city": "Dockendorf"
  },
  {
    "postcode": "54636",
    "city": "Echtershausen"
  },
  {
    "postcode": "54636",
    "city": "Ehlenz"
  },
  {
    "postcode": "54636",
    "city": "Eßlingen Eifel"
  },
  {
    "postcode": "54636",
    "city": "Eßlingen"
  },
  {
    "postcode": "54636",
    "city": "Feilsdorf"
  },
  {
    "postcode": "54636",
    "city": "Fließem"
  },
  {
    "postcode": "54636",
    "city": "Hamm Eifel"
  },
  {
    "postcode": "54636",
    "city": "Hamm"
  },
  {
    "postcode": "54636",
    "city": "Heilenbach"
  },
  {
    "postcode": "54636",
    "city": "Hermesdorf"
  },
  {
    "postcode": "54636",
    "city": "Hütterscheid"
  },
  {
    "postcode": "54636",
    "city": "Hüttingen an der Kyll"
  },
  {
    "postcode": "54636",
    "city": "Idenheim"
  },
  {
    "postcode": "54636",
    "city": "Idesheim"
  },
  {
    "postcode": "54636",
    "city": "Ingendorf Eifel"
  },
  {
    "postcode": "54636",
    "city": "Ingendorf"
  },
  {
    "postcode": "54636",
    "city": "Koosbüsch"
  },
  {
    "postcode": "54636",
    "city": "Ließem Eifel"
  },
  {
    "postcode": "54636",
    "city": "Ließem"
  },
  {
    "postcode": "54636",
    "city": "Meckel"
  },
  {
    "postcode": "54636",
    "city": "Messerich"
  },
  {
    "postcode": "54636",
    "city": "Mülbach Eifel"
  },
  {
    "postcode": "54636",
    "city": "Mülbach"
  },
  {
    "postcode": "54636",
    "city": "Nattenheim"
  },
  {
    "postcode": "54636",
    "city": "Niederweidingen"
  },
  {
    "postcode": "54636",
    "city": "Niederweiler Eifel"
  },
  {
    "postcode": "54636",
    "city": "Niederweiler"
  },
  {
    "postcode": "54636",
    "city": "Oberweiler Eifel"
  },
  {
    "postcode": "54636",
    "city": "Oberweiler"
  },
  {
    "postcode": "54636",
    "city": "Oberweis Eifel"
  },
  {
    "postcode": "54636",
    "city": "Oberweis"
  },
  {
    "postcode": "54636",
    "city": "Rittersdorf Eifel"
  },
  {
    "postcode": "54636",
    "city": "Rittersdorf"
  },
  {
    "postcode": "54636",
    "city": "Röhl"
  },
  {
    "postcode": "54636",
    "city": "Scharfbillig"
  },
  {
    "postcode": "54636",
    "city": "Schleid bei Bitburg"
  },
  {
    "postcode": "54636",
    "city": "Seffern"
  },
  {
    "postcode": "54636",
    "city": "Sefferweich"
  },
  {
    "postcode": "54636",
    "city": "Sülm"
  },
  {
    "postcode": "54636",
    "city": "Trimport"
  },
  {
    "postcode": "54636",
    "city": "Weidingen"
  },
  {
    "postcode": "54636",
    "city": "Wiersdorf Eifel"
  },
  {
    "postcode": "54636",
    "city": "Wiersdorf"
  },
  {
    "postcode": "54636",
    "city": "Wißmannsdorf"
  },
  {
    "postcode": "54636",
    "city": "Wolsfeld"
  },
  {
    "postcode": "54636",
    "city": "Eifelkreis Bitburg-Prüm"
  },
  {
    "postcode": "54636",
    "city": "Altenhof"
  },
  {
    "postcode": "54636",
    "city": "Dahlem"
  },
  {
    "postcode": "54636",
    "city": "Merkeshausen"
  },
  {
    "postcode": "54636",
    "city": "Neumühle"
  },
  {
    "postcode": "54636",
    "city": "Schleid"
  },
  {
    "postcode": "54646",
    "city": "Bettingen Eifel"
  },
  {
    "postcode": "54646",
    "city": "Bettingen"
  },
  {
    "postcode": "54646",
    "city": "Brimingen"
  },
  {
    "postcode": "54646",
    "city": "Burg Eifel"
  },
  {
    "postcode": "54646",
    "city": "Burg"
  },
  {
    "postcode": "54646",
    "city": "Enzen Eifel"
  },
  {
    "postcode": "54646",
    "city": "Enzen"
  },
  {
    "postcode": "54646",
    "city": "Halsdorf Eifel"
  },
  {
    "postcode": "54646",
    "city": "Halsdorf"
  },
  {
    "postcode": "54646",
    "city": "Hisel Eifel"
  },
  {
    "postcode": "54646",
    "city": "Hisel"
  },
  {
    "postcode": "54646",
    "city": "Niehl Eifel"
  },
  {
    "postcode": "54646",
    "city": "Niehl"
  },
  {
    "postcode": "54646",
    "city": "Olsdorf"
  },
  {
    "postcode": "54646",
    "city": "Stockem Eifel"
  },
  {
    "postcode": "54646",
    "city": "Stockem"
  },
  {
    "postcode": "54646",
    "city": "Wettlingen"
  },
  {
    "postcode": "54646",
    "city": "Eifelkreis Bitburg-Prüm"
  },
  {
    "postcode": "54647",
    "city": "Dudeldorf"
  },
  {
    "postcode": "54647",
    "city": "Gondorf bei Bitburg"
  },
  {
    "postcode": "54647",
    "city": "Ordorf"
  },
  {
    "postcode": "54647",
    "city": "Pickließem"
  },
  {
    "postcode": "54647",
    "city": "Eifelkreis Bitburg-Prüm"
  },
  {
    "postcode": "54647",
    "city": "Gondorf"
  },
  {
    "postcode": "54649",
    "city": "Dackscheid bei Waxweiler"
  },
  {
    "postcode": "54649",
    "city": "Eilscheid"
  },
  {
    "postcode": "54649",
    "city": "Greimelscheid"
  },
  {
    "postcode": "54649",
    "city": "Hargarten Eifel"
  },
  {
    "postcode": "54649",
    "city": "Hargarten"
  },
  {
    "postcode": "54649",
    "city": "Heilhausen"
  },
  {
    "postcode": "54649",
    "city": "Lambertsberg"
  },
  {
    "postcode": "54649",
    "city": "Lauperath"
  },
  {
    "postcode": "54649",
    "city": "Luppertsseifen Gemeinde Burscheid"
  },
  {
    "postcode": "54649",
    "city": "Luppertsseifen"
  },
  {
    "postcode": "54649",
    "city": "Manderscheid bei Waxweiler"
  },
  {
    "postcode": "54649",
    "city": "Mauel bei Waxweiler"
  },
  {
    "postcode": "54649",
    "city": "Niederpierscheid"
  },
  {
    "postcode": "54649",
    "city": "Oberpierscheid"
  },
  {
    "postcode": "54649",
    "city": "Philippsweiler"
  },
  {
    "postcode": "54649",
    "city": "Pintesfeld"
  },
  {
    "postcode": "54649",
    "city": "Röllersdorf"
  },
  {
    "postcode": "54649",
    "city": "Waxweiler"
  },
  {
    "postcode": "54649",
    "city": "Eifelkreis Bitburg-Prüm"
  },
  {
    "postcode": "54649",
    "city": "Dackscheid"
  },
  {
    "postcode": "54649",
    "city": "Luppertsseifen Gem Burscheid"
  },
  {
    "postcode": "54649",
    "city": "Manderscheid"
  },
  {
    "postcode": "54649",
    "city": "Mauel"
  },
  {
    "postcode": "54655",
    "city": "Etteldorf"
  },
  {
    "postcode": "54655",
    "city": "Kyllburg"
  },
  {
    "postcode": "54655",
    "city": "Kyllburgweiler"
  },
  {
    "postcode": "54655",
    "city": "Malberg"
  },
  {
    "postcode": "54655",
    "city": "Malberg Eifel"
  },
  {
    "postcode": "54655",
    "city": "Malbergweich"
  },
  {
    "postcode": "54655",
    "city": "Mohrweiler"
  },
  {
    "postcode": "54655",
    "city": "Orsfeld"
  },
  {
    "postcode": "54655",
    "city": "Sankt Thomas Eifel"
  },
  {
    "postcode": "54655",
    "city": "Sankt Thomas"
  },
  {
    "postcode": "54655",
    "city": "Seinsfeld"
  },
  {
    "postcode": "54655",
    "city": "Steinborn Eifel"
  },
  {
    "postcode": "54655",
    "city": "Steinborn"
  },
  {
    "postcode": "54655",
    "city": "Usch"
  },
  {
    "postcode": "54655",
    "city": "Wilsecker"
  },
  {
    "postcode": "54655",
    "city": "Zendscheid"
  },
  {
    "postcode": "54655",
    "city": "Eifelkreis Bitburg-Prüm"
  },
  {
    "postcode": "54655",
    "city": "Altenhof"
  },
  {
    "postcode": "54657",
    "city": "Badem"
  },
  {
    "postcode": "54657",
    "city": "Gindorf Eifel"
  },
  {
    "postcode": "54657",
    "city": "Gindorf"
  },
  {
    "postcode": "54657",
    "city": "Neidenbach"
  },
  {
    "postcode": "54657",
    "city": "Eifelkreis Bitburg-Prüm"
  },
  {
    "postcode": "54662",
    "city": "Beilingen"
  },
  {
    "postcode": "54662",
    "city": "Herforst"
  },
  {
    "postcode": "54662",
    "city": "Philippsheim"
  },
  {
    "postcode": "54662",
    "city": "Speicher Eifel"
  },
  {
    "postcode": "54662",
    "city": "Speicher"
  },
  {
    "postcode": "54662",
    "city": "Eifelkreis Bitburg-Prüm"
  },
  {
    "postcode": "54662",
    "city": "Pfalzkyll"
  },
  {
    "postcode": "54664",
    "city": "Auw an der Kyll"
  },
  {
    "postcode": "54664",
    "city": "Hosten"
  },
  {
    "postcode": "54664",
    "city": "Preist"
  },
  {
    "postcode": "54664",
    "city": "Eifelkreis Bitburg-Prüm"
  },
  {
    "postcode": "54666",
    "city": "Irrel"
  },
  {
    "postcode": "54666",
    "city": "Eifelkreis Bitburg-Prüm"
  },
  {
    "postcode": "54668",
    "city": "Alsdorf Eifel"
  },
  {
    "postcode": "54668",
    "city": "Alsdorf"
  },
  {
    "postcode": "54668",
    "city": "Echternacherbrück"
  },
  {
    "postcode": "54668",
    "city": "Ernzen"
  },
  {
    "postcode": "54668",
    "city": "Ferschweiler"
  },
  {
    "postcode": "54668",
    "city": "Holsthum"
  },
  {
    "postcode": "54668",
    "city": "Kaschenbach"
  },
  {
    "postcode": "54668",
    "city": "Niederweis"
  },
  {
    "postcode": "54668",
    "city": "Peffingen"
  },
  {
    "postcode": "54668",
    "city": "Prümzurlay"
  },
  {
    "postcode": "54668",
    "city": "Schankweiler"
  },
  {
    "postcode": "54668",
    "city": "Eifelkreis Bitburg-Prüm"
  },
  {
    "postcode": "54668",
    "city": "Diesburgerhof"
  },
  {
    "postcode": "54668",
    "city": "Neu-Diesburgerhof"
  },
  {
    "postcode": "54669",
    "city": "Bollendorf"
  },
  {
    "postcode": "54669",
    "city": "Eifelkreis Bitburg-Prüm"
  },
  {
    "postcode": "54673",
    "city": "Ammeldingen bei Neuerburg"
  },
  {
    "postcode": "54673",
    "city": "Bauler bei Neuerburg"
  },
  {
    "postcode": "54673",
    "city": "Berkoth"
  },
  {
    "postcode": "54673",
    "city": "Berscheid Eifel"
  },
  {
    "postcode": "54673",
    "city": "Berscheid"
  },
  {
    "postcode": "54673",
    "city": "Burscheid Eifel"
  },
  {
    "postcode": "54673",
    "city": "Burscheid"
  },
  {
    "postcode": "54673",
    "city": "Dauwelshausen"
  },
  {
    "postcode": "54673",
    "city": "Emmelbaum"
  },
  {
    "postcode": "54673",
    "city": "Falkenauel"
  },
  {
    "postcode": "54673",
    "city": "Gemünd an der Our"
  },
  {
    "postcode": "54673",
    "city": "Heilbach Eifel"
  },
  {
    "postcode": "54673",
    "city": "Heilbach"
  },
  {
    "postcode": "54673",
    "city": "Herbstmühle Eifel"
  },
  {
    "postcode": "54673",
    "city": "Herbstmühle"
  },
  {
    "postcode": "54673",
    "city": "Hütten Eifel"
  },
  {
    "postcode": "54673",
    "city": "Hütten"
  },
  {
    "postcode": "54673",
    "city": "Karlshausen"
  },
  {
    "postcode": "54673",
    "city": "Keppeshausen"
  },
  {
    "postcode": "54673",
    "city": "Koxhausen"
  },
  {
    "postcode": "54673",
    "city": "Krautscheid Eifel"
  },
  {
    "postcode": "54673",
    "city": "Krautscheid"
  },
  {
    "postcode": "54673",
    "city": "Leimbach bei Neuerburg"
  },
  {
    "postcode": "54673",
    "city": "Muxerath"
  },
  {
    "postcode": "54673",
    "city": "Nasingen"
  },
  {
    "postcode": "54673",
    "city": "Neuerburg Eifel"
  },
  {
    "postcode": "54673",
    "city": "Neuerburg"
  },
  {
    "postcode": "54673",
    "city": "Plascheid"
  },
  {
    "postcode": "54673",
    "city": "Preischeid"
  },
  {
    "postcode": "54673",
    "city": "Ringhuscheid Eifel"
  },
  {
    "postcode": "54673",
    "city": "Ringhuscheid"
  },
  {
    "postcode": "54673",
    "city": "Rodershausen"
  },
  {
    "postcode": "54673",
    "city": "Scheitenkorb"
  },
  {
    "postcode": "54673",
    "city": "Scheuern bei Neuerburg"
  },
  {
    "postcode": "54673",
    "city": "Sevenig bei Neuerburg"
  },
  {
    "postcode": "54673",
    "city": "Uppershausen"
  },
  {
    "postcode": "54673",
    "city": "Waldhof-Falkenstein"
  },
  {
    "postcode": "54673",
    "city": "Zweifelscheid"
  },
  {
    "postcode": "54673",
    "city": "Eifelkreis Bitburg-Prüm"
  },
  {
    "postcode": "54673",
    "city": "Bauler"
  },
  {
    "postcode": "54673",
    "city": "Gaymühle Gem Bauler"
  },
  {
    "postcode": "54673",
    "city": "Gemünd"
  },
  {
    "postcode": "54673",
    "city": "Leimbach"
  },
  {
    "postcode": "54673",
    "city": "Machtemesmühle"
  },
  {
    "postcode": "54673",
    "city": "Scheuern"
  },
  {
    "postcode": "54673",
    "city": "Schwabert"
  },
  {
    "postcode": "54673",
    "city": "Waldhof"
  },
  {
    "postcode": "54675",
    "city": "Ammeldingen an der Our"
  },
  {
    "postcode": "54675",
    "city": "Biesdorf Eifel"
  },
  {
    "postcode": "54675",
    "city": "Biesdorf"
  },
  {
    "postcode": "54675",
    "city": "Fischbach-Oberraden"
  },
  {
    "postcode": "54675",
    "city": "Freilingen"
  },
  {
    "postcode": "54675",
    "city": "Geichlingen"
  },
  {
    "postcode": "54675",
    "city": "Gentingen"
  },
  {
    "postcode": "54675",
    "city": "Hommerdingen"
  },
  {
    "postcode": "54675",
    "city": "Hüttingen bei Lahr"
  },
  {
    "postcode": "54675",
    "city": "Körperich Eifel"
  },
  {
    "postcode": "54675",
    "city": "Körperich"
  },
  {
    "postcode": "54675",
    "city": "Kruchten"
  },
  {
    "postcode": "54675",
    "city": "Lahr Eifel"
  },
  {
    "postcode": "54675",
    "city": "Lahr"
  },
  {
    "postcode": "54675",
    "city": "Mettendorf Eifel"
  },
  {
    "postcode": "54675",
    "city": "Mettendorf"
  },
  {
    "postcode": "54675",
    "city": "Niedergeckler"
  },
  {
    "postcode": "54675",
    "city": "Niederraden Eifel"
  },
  {
    "postcode": "54675",
    "city": "Niederraden"
  },
  {
    "postcode": "54675",
    "city": "Nusbaum"
  },
  {
    "postcode": "54675",
    "city": "Obergeckler"
  },
  {
    "postcode": "54675",
    "city": "Obersgegen Eifel"
  },
  {
    "postcode": "54675",
    "city": "Obersgegen"
  },
  {
    "postcode": "54675",
    "city": "Roth an der Our"
  },
  {
    "postcode": "54675",
    "city": "Seimerich Eifel"
  },
  {
    "postcode": "54675",
    "city": "Seimerich"
  },
  {
    "postcode": "54675",
    "city": "Sinspelt"
  },
  {
    "postcode": "54675",
    "city": "Utscheid"
  },
  {
    "postcode": "54675",
    "city": "Wallendorf Eifel"
  },
  {
    "postcode": "54675",
    "city": "Wallendorf"
  },
  {
    "postcode": "54675",
    "city": "Eifelkreis Bitburg-Prüm"
  },
  {
    "postcode": "54675",
    "city": "Gaymühle Gem Wallendorf"
  },
  {
    "postcode": "54675",
    "city": "Hüttingen"
  },
  {
    "postcode": "54675",
    "city": "Bierendorf"
  },
  {
    "postcode": "54687",
    "city": "Arzfeld"
  },
  {
    "postcode": "54687",
    "city": "Eifelkreis Bitburg-Prüm"
  },
  {
    "postcode": "54689",
    "city": "Affler"
  },
  {
    "postcode": "54689",
    "city": "Bommert"
  },
  {
    "postcode": "54689",
    "city": "Dahnen"
  },
  {
    "postcode": "54689",
    "city": "Daleiden"
  },
  {
    "postcode": "54689",
    "city": "Dasburg Eifel"
  },
  {
    "postcode": "54689",
    "city": "Dasburg"
  },
  {
    "postcode": "54689",
    "city": "Irrhausen"
  },
  {
    "postcode": "54689",
    "city": "Jucken"
  },
  {
    "postcode": "54689",
    "city": "Kickeshausen"
  },
  {
    "postcode": "54689",
    "city": "Olmscheid"
  },
  {
    "postcode": "54689",
    "city": "Preischeid"
  },
  {
    "postcode": "54689",
    "city": "Reipeldingen"
  },
  {
    "postcode": "54689",
    "city": "Steinrausch Eifel"
  },
  {
    "postcode": "54689",
    "city": "Steinrausch"
  },
  {
    "postcode": "54689",
    "city": "Übereisenbach"
  },
  {
    "postcode": "54689",
    "city": "Eifelkreis Bitburg-Prüm"
  },
  {
    "postcode": "54689",
    "city": "Ölverhof"
  }
]