[
  {
    "postcode": "7806",
    "city": "Breitenhain bei Neustadt"
  },
  {
    "postcode": "7806",
    "city": "Dreba"
  },
  {
    "postcode": "7806",
    "city": "Kospoda"
  },
  {
    "postcode": "7806",
    "city": "Lausnitz bei Neustadt an der Orla"
  },
  {
    "postcode": "7806",
    "city": "Neustadt an der Orla"
  },
  {
    "postcode": "7806",
    "city": "Stanau"
  },
  {
    "postcode": "7806",
    "city": "Weira"
  },
  {
    "postcode": "7806",
    "city": "Saale-Orla-Kreis"
  },
  {
    "postcode": "7806",
    "city": "Lausnitz"
  },
  {
    "postcode": "7806",
    "city": "Burgwitz"
  },
  {
    "postcode": "7806",
    "city": "Meilitz"
  },
  {
    "postcode": "7806",
    "city": "Knau"
  },
  {
    "postcode": "7806",
    "city": "Neunhofen"
  },
  {
    "postcode": "7806",
    "city": "Moderwitz"
  },
  {
    "postcode": "7806",
    "city": "Neustadt"
  },
  {
    "postcode": "7806",
    "city": "Lichtenau"
  },
  {
    "postcode": "7806",
    "city": "Breitenhain"
  },
  {
    "postcode": "7806",
    "city": "Bucha"
  },
  {
    "postcode": "7806",
    "city": "Köthnitz"
  },
  {
    "postcode": "7806",
    "city": "Kleina"
  },
  {
    "postcode": "7806",
    "city": "Linda"
  },
  {
    "postcode": "7806",
    "city": "Posen"
  },
  {
    "postcode": "7806",
    "city": "Steinbrücken"
  },
  {
    "postcode": "7806",
    "city": "Strößwitz"
  },
  {
    "postcode": "7819",
    "city": "Dreitzsch"
  },
  {
    "postcode": "7819",
    "city": "Geroda bei Neustadt"
  },
  {
    "postcode": "7819",
    "city": "Lemnitz"
  },
  {
    "postcode": "7819",
    "city": "Linda bei Neustadt an der Orla"
  },
  {
    "postcode": "7819",
    "city": "Miesitz"
  },
  {
    "postcode": "7819",
    "city": "Mittelpöllnitz"
  },
  {
    "postcode": "7819",
    "city": "Pillingsdorf"
  },
  {
    "postcode": "7819",
    "city": "Rosendorf"
  },
  {
    "postcode": "7819",
    "city": "Schmieritz"
  },
  {
    "postcode": "7819",
    "city": "Tömmelsdorf"
  },
  {
    "postcode": "7819",
    "city": "Triptis"
  },
  {
    "postcode": "7819",
    "city": "Saale-Orla-Kreis"
  },
  {
    "postcode": "7819",
    "city": "Geroda"
  },
  {
    "postcode": "7819",
    "city": "Alsmannsdorf"
  },
  {
    "postcode": "7819",
    "city": "Geheege"
  },
  {
    "postcode": "7819",
    "city": "Wittchenstein"
  },
  {
    "postcode": "7819",
    "city": "Leubsdorf"
  },
  {
    "postcode": "7819",
    "city": "Kopitzsch"
  },
  {
    "postcode": "7819",
    "city": "Porstendorf"
  },
  {
    "postcode": "7819",
    "city": "Zwackau"
  },
  {
    "postcode": "7819",
    "city": "Traun"
  },
  {
    "postcode": "7819",
    "city": "Weltwitz"
  },
  {
    "postcode": "7819",
    "city": "Wüstenwetzdorf"
  },
  {
    "postcode": "7819",
    "city": "Oberpöllnitz"
  },
  {
    "postcode": "7819",
    "city": "Döblitz"
  },
  {
    "postcode": "7819",
    "city": "Steinpöllnitz"
  },
  {
    "postcode": "7819",
    "city": "Burkersdorf"
  },
  {
    "postcode": "7819",
    "city": "Hasla"
  },
  {
    "postcode": "7819",
    "city": "Ottmannsdorf"
  },
  {
    "postcode": "7819",
    "city": "Schönborn"
  },
  {
    "postcode": "78048",
    "city": "Villingen"
  },
  {
    "postcode": "78048",
    "city": "Villingen-Schwenningen"
  },
  {
    "postcode": "78048",
    "city": "Schwarzwald-Baar-Kreis"
  },
  {
    "postcode": "78050",
    "city": "Villingen"
  },
  {
    "postcode": "78050",
    "city": "Villingen-Schwenningen"
  },
  {
    "postcode": "78050",
    "city": "Schwarzwald-Baar-Kreis"
  },
  {
    "postcode": "78052",
    "city": "Herzogenweiler"
  },
  {
    "postcode": "78052",
    "city": "Marbach"
  },
  {
    "postcode": "78052",
    "city": "Obereschach"
  },
  {
    "postcode": "78052",
    "city": "Pfaffenweiler"
  },
  {
    "postcode": "78052",
    "city": "Rietheim"
  },
  {
    "postcode": "78052",
    "city": "Sommertshausen"
  },
  {
    "postcode": "78052",
    "city": "Tannheim"
  },
  {
    "postcode": "78052",
    "city": "Villingen"
  },
  {
    "postcode": "78052",
    "city": "Villingen-Schwenningen"
  },
  {
    "postcode": "78052",
    "city": "Weilersbach"
  },
  {
    "postcode": "78052",
    "city": "Schwarzwald-Baar-Kreis"
  },
  {
    "postcode": "78052",
    "city": "Schilterhäusle"
  },
  {
    "postcode": "78052",
    "city": "Zollhaus"
  },
  {
    "postcode": "78052",
    "city": "Nordstetten"
  },
  {
    "postcode": "78054",
    "city": "Villingen-Schwenningen"
  },
  {
    "postcode": "78054",
    "city": "Schwarzwald-Baar-Kreis"
  },
  {
    "postcode": "78054",
    "city": "Schwenningen"
  },
  {
    "postcode": "78056",
    "city": "Mühlhausen"
  },
  {
    "postcode": "78056",
    "city": "Villingen-Schwenningen"
  },
  {
    "postcode": "78056",
    "city": "Weigheim"
  },
  {
    "postcode": "78056",
    "city": "Schwarzwald-Baar-Kreis"
  },
  {
    "postcode": "78056",
    "city": "Schwenningen"
  },
  {
    "postcode": "78073",
    "city": "Aasen"
  },
  {
    "postcode": "78073",
    "city": "Bad Dürrheim"
  },
  {
    "postcode": "78073",
    "city": "Bad Dürrheim (Schwarzwald)"
  },
  {
    "postcode": "78073",
    "city": "Biesingen"
  },
  {
    "postcode": "78073",
    "city": "Hochemmingen"
  },
  {
    "postcode": "78073",
    "city": "Oberbaldingen"
  },
  {
    "postcode": "78073",
    "city": "Öfingen"
  },
  {
    "postcode": "78073",
    "city": "Sunthausen"
  },
  {
    "postcode": "78073",
    "city": "Unterbaldingen"
  },
  {
    "postcode": "78073",
    "city": "Schwarzwald-Baar-Kreis"
  },
  {
    "postcode": "78078",
    "city": "Fischbach"
  },
  {
    "postcode": "78078",
    "city": "Kappel"
  },
  {
    "postcode": "78078",
    "city": "Niedereschach"
  },
  {
    "postcode": "78078",
    "city": "Schabenhausen"
  },
  {
    "postcode": "78078",
    "city": "Schwarzwald-Baar-Kreis"
  },
  {
    "postcode": "78083",
    "city": "Dauchingen"
  },
  {
    "postcode": "78083",
    "city": "Schwarzwald-Baar-Kreis"
  },
  {
    "postcode": "78083",
    "city": "Ebersteinerhof"
  },
  {
    "postcode": "78086",
    "city": "Brigachtal"
  },
  {
    "postcode": "78086",
    "city": "Kirchdorf"
  },
  {
    "postcode": "78086",
    "city": "Klengen"
  },
  {
    "postcode": "78086",
    "city": "Überauchen"
  },
  {
    "postcode": "78086",
    "city": "Schwarzwald-Baar-Kreis"
  },
  {
    "postcode": "78086",
    "city": "Bad Dürrheim"
  },
  {
    "postcode": "78087",
    "city": "Mönchweiler"
  },
  {
    "postcode": "78087",
    "city": "Schwarzwald-Baar-Kreis"
  },
  {
    "postcode": "78089",
    "city": "Unterkirnach"
  },
  {
    "postcode": "78089",
    "city": "Schwarzwald-Baar-Kreis"
  },
  {
    "postcode": "78098",
    "city": "Gremmelsbach"
  },
  {
    "postcode": "78098",
    "city": "Nußbach"
  },
  {
    "postcode": "78098",
    "city": "Schonach"
  },
  {
    "postcode": "78098",
    "city": "Schönwald"
  },
  {
    "postcode": "78098",
    "city": "Triberg"
  },
  {
    "postcode": "78098",
    "city": "Triberg im Schwarzwald"
  },
  {
    "postcode": "78098",
    "city": "Schwarzwald-Baar-Kreis"
  },
  {
    "postcode": "78098",
    "city": "Stadtgebiet"
  },
  {
    "postcode": "78112",
    "city": "Brigach"
  },
  {
    "postcode": "78112",
    "city": "Langenschiltach"
  },
  {
    "postcode": "78112",
    "city": "Oberkirnach"
  },
  {
    "postcode": "78112",
    "city": "Peterzell"
  },
  {
    "postcode": "78112",
    "city": "Sankt Georgen im Schwarzwald"
  },
  {
    "postcode": "78112",
    "city": "Schoren (Schwarzwald)"
  },
  {
    "postcode": "78112",
    "city": "Schoren"
  },
  {
    "postcode": "78112",
    "city": "Sommerau"
  },
  {
    "postcode": "78112",
    "city": "Stadtgebiet"
  },
  {
    "postcode": "78112",
    "city": "Stockburg"
  },
  {
    "postcode": "78112",
    "city": "Schwarzwald-Baar-Kreis"
  },
  {
    "postcode": "78112",
    "city": "St. Georgen im Schwarzwald"
  },
  {
    "postcode": "78120",
    "city": "Furtwangen im Schwarzwald"
  },
  {
    "postcode": "78120",
    "city": "Gütenbach"
  },
  {
    "postcode": "78120",
    "city": "Neukirch"
  },
  {
    "postcode": "78120",
    "city": "Rohrbach"
  },
  {
    "postcode": "78120",
    "city": "Schönenbach"
  },
  {
    "postcode": "78120",
    "city": "Schwarzwald-Baar-Kreis"
  },
  {
    "postcode": "78120",
    "city": "Stadtgebiet"
  },
  {
    "postcode": "78120",
    "city": "Linach"
  },
  {
    "postcode": "78126",
    "city": "Buchenberg"
  },
  {
    "postcode": "78126",
    "city": "Burgberg"
  },
  {
    "postcode": "78126",
    "city": "Erdmannsweiler"
  },
  {
    "postcode": "78126",
    "city": "Königsfeld"
  },
  {
    "postcode": "78126",
    "city": "Königsfeld im Schwarzwald"
  },
  {
    "postcode": "78126",
    "city": "Neuhausen"
  },
  {
    "postcode": "78126",
    "city": "Weiler"
  },
  {
    "postcode": "78126",
    "city": "Schwarzwald-Baar-Kreis"
  },
  {
    "postcode": "78126",
    "city": "Brogen"
  },
  {
    "postcode": "78132",
    "city": "Hornberg (Schwarzwaldbahn)"
  },
  {
    "postcode": "78132",
    "city": "Hornberg"
  },
  {
    "postcode": "78132",
    "city": "Niederwasser"
  },
  {
    "postcode": "78132",
    "city": "Stadtgebiet"
  },
  {
    "postcode": "78132",
    "city": "Ortenaukreis"
  },
  {
    "postcode": "78132",
    "city": "Reichenbach"
  },
  {
    "postcode": "78132",
    "city": "Tennenbronn"
  },
  {
    "postcode": "78136",
    "city": "Schonach im Schwarzwald"
  },
  {
    "postcode": "78136",
    "city": "Schwarzwald-Baar-Kreis"
  },
  {
    "postcode": "78141",
    "city": "Schönwald im Schwarzwald"
  },
  {
    "postcode": "78141",
    "city": "Schwarzwald-Baar-Kreis"
  },
  {
    "postcode": "78144",
    "city": "Tennenbronn"
  },
  {
    "postcode": "78144",
    "city": "Rottweil"
  },
  {
    "postcode": "78144",
    "city": "Schramberg"
  },
  {
    "postcode": "78144",
    "city": "St. Georgen"
  },
  {
    "postcode": "78144",
    "city": "Sankt Georgen im Schwarzwald"
  },
  {
    "postcode": "78147",
    "city": "Eisenbach"
  },
  {
    "postcode": "78147",
    "city": "Hammereisenbach-Bregenbach"
  },
  {
    "postcode": "78147",
    "city": "Urach"
  },
  {
    "postcode": "78147",
    "city": "Vöhrenbach"
  },
  {
    "postcode": "78147",
    "city": "Schwarzwald-Baar-Kreis"
  },
  {
    "postcode": "78147",
    "city": "Stadtgebiet"
  },
  {
    "postcode": "78147",
    "city": "Langenbach"
  },
  {
    "postcode": "78148",
    "city": "Gütenbach"
  },
  {
    "postcode": "78148",
    "city": "Schwarzwald-Baar-Kreis"
  },
  {
    "postcode": "78148",
    "city": "Neueck"
  },
  {
    "postcode": "78166",
    "city": "Allmendshofen"
  },
  {
    "postcode": "78166",
    "city": "Aufen"
  },
  {
    "postcode": "78166",
    "city": "Donaueschingen"
  },
  {
    "postcode": "78166",
    "city": "Grüningen"
  },
  {
    "postcode": "78166",
    "city": "Hammereisenbach"
  },
  {
    "postcode": "78166",
    "city": "Heidenhofen"
  },
  {
    "postcode": "78166",
    "city": "Hubertshofen"
  },
  {
    "postcode": "78166",
    "city": "Neudingen"
  },
  {
    "postcode": "78166",
    "city": "Pfohren"
  },
  {
    "postcode": "78166",
    "city": "Wolterdingen"
  },
  {
    "postcode": "78166",
    "city": "Zindelstein"
  },
  {
    "postcode": "78166",
    "city": "Schwarzwald-Baar-Kreis"
  },
  {
    "postcode": "78166",
    "city": "Aasen"
  },
  {
    "postcode": "78166",
    "city": "Stadt Hüfingen"
  },
  {
    "postcode": "78176",
    "city": "Achdorf"
  },
  {
    "postcode": "78176",
    "city": "Aselfingen"
  },
  {
    "postcode": "78176",
    "city": "Blumberg (Baden)"
  },
  {
    "postcode": "78176",
    "city": "Blumberg"
  },
  {
    "postcode": "78176",
    "city": "Epfenhofen"
  },
  {
    "postcode": "78176",
    "city": "Eschach"
  },
  {
    "postcode": "78176",
    "city": "Fützen"
  },
  {
    "postcode": "78176",
    "city": "Hondingen"
  },
  {
    "postcode": "78176",
    "city": "Kommingen"
  },
  {
    "postcode": "78176",
    "city": "Nordhalden"
  },
  {
    "postcode": "78176",
    "city": "Opferdingen"
  },
  {
    "postcode": "78176",
    "city": "Randen"
  },
  {
    "postcode": "78176",
    "city": "Riedböhringen"
  },
  {
    "postcode": "78176",
    "city": "Riedöschingen"
  },
  {
    "postcode": "78176",
    "city": "Überachen"
  },
  {
    "postcode": "78176",
    "city": "Zollhaus"
  },
  {
    "postcode": "78176",
    "city": "Schwarzwald-Baar-Kreis"
  },
  {
    "postcode": "78176",
    "city": "Neuhaus"
  },
  {
    "postcode": "78176",
    "city": "Schabelhöfe"
  },
  {
    "postcode": "78183",
    "city": "Behla"
  },
  {
    "postcode": "78183",
    "city": "Fürstenberg"
  },
  {
    "postcode": "78183",
    "city": "Hausen"
  },
  {
    "postcode": "78183",
    "city": "Hüfingen"
  },
  {
    "postcode": "78183",
    "city": "Mundelfingen"
  },
  {
    "postcode": "78183",
    "city": "Sumpfohren"
  },
  {
    "postcode": "78183",
    "city": "Schwarzwald-Baar-Kreis"
  },
  {
    "postcode": "78183",
    "city": "Donaueschingen"
  },
  {
    "postcode": "78183",
    "city": "Hausen vor Wald"
  },
  {
    "postcode": "78187",
    "city": "Aulfingen"
  },
  {
    "postcode": "78187",
    "city": "Geisingen"
  },
  {
    "postcode": "78187",
    "city": "Geisingen (Baden)"
  },
  {
    "postcode": "78187",
    "city": "Gutmadingen"
  },
  {
    "postcode": "78187",
    "city": "Leipferdingen"
  },
  {
    "postcode": "78187",
    "city": "Tuttlingen"
  },
  {
    "postcode": "78187",
    "city": "Kirchen-Hausen"
  },
  {
    "postcode": "78194",
    "city": "Bachzimmern"
  },
  {
    "postcode": "78194",
    "city": "Hattingen"
  },
  {
    "postcode": "78194",
    "city": "Hintschingen"
  },
  {
    "postcode": "78194",
    "city": "Immendingen"
  },
  {
    "postcode": "78194",
    "city": "Ippingen"
  },
  {
    "postcode": "78194",
    "city": "Mauenheim"
  },
  {
    "postcode": "78194",
    "city": "Zimmern"
  },
  {
    "postcode": "78194",
    "city": "Tuttlingen"
  },
  {
    "postcode": "78199",
    "city": "Bräunlingen"
  },
  {
    "postcode": "78199",
    "city": "Bruggen"
  },
  {
    "postcode": "78199",
    "city": "Döggingen"
  },
  {
    "postcode": "78199",
    "city": "Mistelbrunn"
  },
  {
    "postcode": "78199",
    "city": "Unterbränd"
  },
  {
    "postcode": "78199",
    "city": "Waldhausen"
  },
  {
    "postcode": "78199",
    "city": "Schwarzwald-Baar-Kreis"
  },
  {
    "postcode": "78224",
    "city": "Beuren an der Aach"
  },
  {
    "postcode": "78224",
    "city": "Bohlingen"
  },
  {
    "postcode": "78224",
    "city": "Friedingen"
  },
  {
    "postcode": "78224",
    "city": "Hausen"
  },
  {
    "postcode": "78224",
    "city": "Schlatt unter Krähen"
  },
  {
    "postcode": "78224",
    "city": "Singen"
  },
  {
    "postcode": "78224",
    "city": "Singen (Hohentwiel)"
  },
  {
    "postcode": "78224",
    "city": "Überlingen"
  },
  {
    "postcode": "78224",
    "city": "Konstanz"
  },
  {
    "postcode": "78224",
    "city": "Beuren"
  },
  {
    "postcode": "78224",
    "city": "Schlatt"
  },
  {
    "postcode": "78234",
    "city": "Anselfingen"
  },
  {
    "postcode": "78234",
    "city": "Bargen"
  },
  {
    "postcode": "78234",
    "city": "Biesendorf"
  },
  {
    "postcode": "78234",
    "city": "Bittelbrunn"
  },
  {
    "postcode": "78234",
    "city": "Engen"
  },
  {
    "postcode": "78234",
    "city": "Engen (Hegau)"
  },
  {
    "postcode": "78234",
    "city": "Neuhausen"
  },
  {
    "postcode": "78234",
    "city": "Stetten"
  },
  {
    "postcode": "78234",
    "city": "Welschingen"
  },
  {
    "postcode": "78234",
    "city": "Zimmerholz"
  },
  {
    "postcode": "78234",
    "city": "Konstanz"
  },
  {
    "postcode": "78239",
    "city": "Arlen"
  },
  {
    "postcode": "78239",
    "city": "Rielasingen-Worblingen"
  },
  {
    "postcode": "78239",
    "city": "Worblingen"
  },
  {
    "postcode": "78239",
    "city": "Konstanz"
  },
  {
    "postcode": "78239",
    "city": "Rielasingen"
  },
  {
    "postcode": "78244",
    "city": "Bietingen"
  },
  {
    "postcode": "78244",
    "city": "Ebringen"
  },
  {
    "postcode": "78244",
    "city": "Gottmadingen"
  },
  {
    "postcode": "78244",
    "city": "Murbach"
  },
  {
    "postcode": "78244",
    "city": "Randegg"
  },
  {
    "postcode": "78244",
    "city": "Konstanz"
  },
  {
    "postcode": "78247",
    "city": "Binningen"
  },
  {
    "postcode": "78247",
    "city": "Duchtlingen"
  },
  {
    "postcode": "78247",
    "city": "Hilzingen"
  },
  {
    "postcode": "78247",
    "city": "Riedheim"
  },
  {
    "postcode": "78247",
    "city": "Schlatt am Randen"
  },
  {
    "postcode": "78247",
    "city": "Storzeln"
  },
  {
    "postcode": "78247",
    "city": "Weiterdingen"
  },
  {
    "postcode": "78247",
    "city": "Konstanz"
  },
  {
    "postcode": "78247",
    "city": "Schlatt"
  },
  {
    "postcode": "78247",
    "city": "Twielfeld"
  },
  {
    "postcode": "78250",
    "city": "Beuren am Ried"
  },
  {
    "postcode": "78250",
    "city": "Blumenfeld"
  },
  {
    "postcode": "78250",
    "city": "Büßlingen"
  },
  {
    "postcode": "78250",
    "city": "Tengen"
  },
  {
    "postcode": "78250",
    "city": "Uttenhofen"
  },
  {
    "postcode": "78250",
    "city": "Watterdingen"
  },
  {
    "postcode": "78250",
    "city": "Weil"
  },
  {
    "postcode": "78250",
    "city": "Wiechs"
  },
  {
    "postcode": "78250",
    "city": "Konstanz"
  },
  {
    "postcode": "78250",
    "city": "Beuren"
  },
  {
    "postcode": "78250",
    "city": "Talheim"
  },
  {
    "postcode": "78253",
    "city": "Eckartsbrunn"
  },
  {
    "postcode": "78253",
    "city": "Eigeltingen"
  },
  {
    "postcode": "78253",
    "city": "Heudorf"
  },
  {
    "postcode": "78253",
    "city": "Honstetten"
  },
  {
    "postcode": "78253",
    "city": "Langenstein"
  },
  {
    "postcode": "78253",
    "city": "Münchhöf"
  },
  {
    "postcode": "78253",
    "city": "Reute"
  },
  {
    "postcode": "78253",
    "city": "Rorgenwies"
  },
  {
    "postcode": "78253",
    "city": "Konstanz"
  },
  {
    "postcode": "78256",
    "city": "Steißlingen"
  },
  {
    "postcode": "78256",
    "city": "Wiechs"
  },
  {
    "postcode": "78256",
    "city": "Konstanz"
  },
  {
    "postcode": "78259",
    "city": "Mühlhausen"
  },
  {
    "postcode": "78259",
    "city": "Mühlhausen-Ehingen"
  },
  {
    "postcode": "78259",
    "city": "Konstanz"
  },
  {
    "postcode": "78259",
    "city": "Ehingen"
  },
  {
    "postcode": "78262",
    "city": "Gailingen am Hochrhein"
  },
  {
    "postcode": "78262",
    "city": "Konstanz"
  },
  {
    "postcode": "78266",
    "city": "Büsingen am Hochrhein"
  },
  {
    "postcode": "78266",
    "city": "Konstanz"
  },
  {
    "postcode": "78267",
    "city": "Aach (Hegau)"
  },
  {
    "postcode": "78267",
    "city": "Aach"
  },
  {
    "postcode": "78267",
    "city": "Konstanz"
  },
  {
    "postcode": "78269",
    "city": "Volkertshausen"
  },
  {
    "postcode": "78269",
    "city": "Konstanz"
  },
  {
    "postcode": "78315",
    "city": "Böhringen"
  },
  {
    "postcode": "78315",
    "city": "Güttingen"
  },
  {
    "postcode": "78315",
    "city": "Liggeringen"
  },
  {
    "postcode": "78315",
    "city": "Markelfingen"
  },
  {
    "postcode": "78315",
    "city": "Möggingen"
  },
  {
    "postcode": "78315",
    "city": "Radolfzell"
  },
  {
    "postcode": "78315",
    "city": "Radolfzell am Bodensee"
  },
  {
    "postcode": "78315",
    "city": "Reute"
  },
  {
    "postcode": "78315",
    "city": "Stahringen"
  },
  {
    "postcode": "78315",
    "city": "Konstanz"
  },
  {
    "postcode": "78333",
    "city": "Airach"
  },
  {
    "postcode": "78333",
    "city": "Bleiche"
  },
  {
    "postcode": "78333",
    "city": "Espasingen"
  },
  {
    "postcode": "78333",
    "city": "Frickenweiler"
  },
  {
    "postcode": "78333",
    "city": "Hindelwangen"
  },
  {
    "postcode": "78333",
    "city": "Homberg"
  },
  {
    "postcode": "78333",
    "city": "Hoppetenzell"
  },
  {
    "postcode": "78333",
    "city": "Mahlspüren im Hegau"
  },
  {
    "postcode": "78333",
    "city": "Mahlspüren im Tal"
  },
  {
    "postcode": "78333",
    "city": "Raithaslach"
  },
  {
    "postcode": "78333",
    "city": "Seelfingen"
  },
  {
    "postcode": "78333",
    "city": "Stockach"
  },
  {
    "postcode": "78333",
    "city": "Stockach (Baden)"
  },
  {
    "postcode": "78333",
    "city": "Wahlwies"
  },
  {
    "postcode": "78333",
    "city": "Windegg"
  },
  {
    "postcode": "78333",
    "city": "Winterspüren"
  },
  {
    "postcode": "78333",
    "city": "Zizenhausen"
  },
  {
    "postcode": "78333",
    "city": "Konstanz"
  },
  {
    "postcode": "78333",
    "city": "Mahlspüren i.H."
  },
  {
    "postcode": "78333",
    "city": "Mahlspüren i.T."
  },
  {
    "postcode": "78333",
    "city": "Besetze"
  },
  {
    "postcode": "78333",
    "city": "Schmelze"
  },
  {
    "postcode": "78337",
    "city": "Kattenhorn"
  },
  {
    "postcode": "78337",
    "city": "Öhningen"
  },
  {
    "postcode": "78337",
    "city": "Öhningen (Bodensee)"
  },
  {
    "postcode": "78337",
    "city": "Schienen"
  },
  {
    "postcode": "78337",
    "city": "Wangen"
  },
  {
    "postcode": "78337",
    "city": "Konstanz"
  },
  {
    "postcode": "78343",
    "city": "Gaienhofen"
  },
  {
    "postcode": "78343",
    "city": "Gundholzen"
  },
  {
    "postcode": "78343",
    "city": "Hemmenhofen"
  },
  {
    "postcode": "78343",
    "city": "Horn"
  },
  {
    "postcode": "78343",
    "city": "Konstanz"
  },
  {
    "postcode": "78345",
    "city": "Bankholzen"
  },
  {
    "postcode": "78345",
    "city": "Bettnang"
  },
  {
    "postcode": "78345",
    "city": "Iznang"
  },
  {
    "postcode": "78345",
    "city": "Moos"
  },
  {
    "postcode": "78345",
    "city": "Moos (Bodensee)"
  },
  {
    "postcode": "78345",
    "city": "Weiler"
  },
  {
    "postcode": "78345",
    "city": "Konstanz"
  },
  {
    "postcode": "78351",
    "city": "Bodman"
  },
  {
    "postcode": "78351",
    "city": "Bodman-Ludwigshafen"
  },
  {
    "postcode": "78351",
    "city": "Ludwigshafen"
  },
  {
    "postcode": "78351",
    "city": "Konstanz"
  },
  {
    "postcode": "78354",
    "city": "Sipplingen"
  },
  {
    "postcode": "78354",
    "city": "Bodenseekreis"
  },
  {
    "postcode": "78355",
    "city": "Deutwang"
  },
  {
    "postcode": "78355",
    "city": "Hohenfels bei Stockach"
  },
  {
    "postcode": "78355",
    "city": "Kalkofen"
  },
  {
    "postcode": "78355",
    "city": "Liggersdorf"
  },
  {
    "postcode": "78355",
    "city": "Mindersdorf"
  },
  {
    "postcode": "78355",
    "city": "Selgetsweiler"
  },
  {
    "postcode": "78355",
    "city": "Konstanz"
  },
  {
    "postcode": "78355",
    "city": "Hohenfels"
  },
  {
    "postcode": "78357",
    "city": "Gallmannsweil"
  },
  {
    "postcode": "78357",
    "city": "Mainwangen"
  },
  {
    "postcode": "78357",
    "city": "Mühlingen"
  },
  {
    "postcode": "78357",
    "city": "Mühlingen (Baden)"
  },
  {
    "postcode": "78357",
    "city": "Schwackenreute"
  },
  {
    "postcode": "78357",
    "city": "Zoznegg"
  },
  {
    "postcode": "78357",
    "city": "Konstanz"
  },
  {
    "postcode": "78359",
    "city": "Orsingen-Nenzingen"
  },
  {
    "postcode": "78359",
    "city": "Konstanz"
  },
  {
    "postcode": "78359",
    "city": "Orsingen"
  },
  {
    "postcode": "78359",
    "city": "Nenzingen"
  },
  {
    "postcode": "78462",
    "city": "Konstanz Universitätsstadt"
  },
  {
    "postcode": "78462",
    "city": "Konstanz"
  },
  {
    "postcode": "78462",
    "city": "Altstadt"
  },
  {
    "postcode": "78462",
    "city": "Paradies"
  },
  {
    "postcode": "78464",
    "city": "Allmannsdorf"
  },
  {
    "postcode": "78464",
    "city": "Egg"
  },
  {
    "postcode": "78464",
    "city": "Königsbau"
  },
  {
    "postcode": "78464",
    "city": "Konstanz Universitätsstadt"
  },
  {
    "postcode": "78464",
    "city": "Konstanz"
  },
  {
    "postcode": "78464",
    "city": "Litzelstetten"
  },
  {
    "postcode": "78464",
    "city": "Petershausen"
  },
  {
    "postcode": "78464",
    "city": "Staad"
  },
  {
    "postcode": "78465",
    "city": "Dettingen"
  },
  {
    "postcode": "78465",
    "city": "Dingelsdorf"
  },
  {
    "postcode": "78465",
    "city": "Konstanz Universitätsstadt"
  },
  {
    "postcode": "78465",
    "city": "Konstanz"
  },
  {
    "postcode": "78465",
    "city": "Litzelstetten"
  },
  {
    "postcode": "78465",
    "city": "Wallhausen"
  },
  {
    "postcode": "78467",
    "city": "Fürstenberg"
  },
  {
    "postcode": "78467",
    "city": "Industriegebiet"
  },
  {
    "postcode": "78467",
    "city": "Konstanz Universitätsstadt"
  },
  {
    "postcode": "78467",
    "city": "Konstanz"
  },
  {
    "postcode": "78467",
    "city": "Petershausen"
  },
  {
    "postcode": "78467",
    "city": "Wollmatingen"
  },
  {
    "postcode": "78476",
    "city": "Allensbach"
  },
  {
    "postcode": "78476",
    "city": "Freudental"
  },
  {
    "postcode": "78476",
    "city": "Hegne"
  },
  {
    "postcode": "78476",
    "city": "Kaltbrunn"
  },
  {
    "postcode": "78476",
    "city": "Langenrain"
  },
  {
    "postcode": "78476",
    "city": "Konstanz"
  },
  {
    "postcode": "78476",
    "city": "Gemeinmärkhof"
  },
  {
    "postcode": "78479",
    "city": "Reichenau (Baden)"
  },
  {
    "postcode": "78479",
    "city": "Reichenau"
  },
  {
    "postcode": "78479",
    "city": "Konstanz"
  },
  {
    "postcode": "78479",
    "city": "Mittelzell"
  },
  {
    "postcode": "78532",
    "city": "Eßlingen"
  },
  {
    "postcode": "78532",
    "city": "Möhringen"
  },
  {
    "postcode": "78532",
    "city": "Nendingen"
  },
  {
    "postcode": "78532",
    "city": "Tuttlingen"
  },
  {
    "postcode": "78549",
    "city": "Spaichingen"
  },
  {
    "postcode": "78549",
    "city": "Tuttlingen"
  },
  {
    "postcode": "78554",
    "city": "Aixheim"
  },
  {
    "postcode": "78554",
    "city": "Aldingen"
  },
  {
    "postcode": "78554",
    "city": "Aldingen (Kreis Tuttlingen)"
  },
  {
    "postcode": "78554",
    "city": "Neuhaus"
  },
  {
    "postcode": "78554",
    "city": "Tuttlingen"
  },
  {
    "postcode": "78554",
    "city": "Erlenmühle"
  },
  {
    "postcode": "78554",
    "city": "Michelhölzle"
  },
  {
    "postcode": "78559",
    "city": "Gosheim (Württemberg)"
  },
  {
    "postcode": "78559",
    "city": "Gosheim"
  },
  {
    "postcode": "78559",
    "city": "Tuttlingen"
  },
  {
    "postcode": "78564",
    "city": "Harras"
  },
  {
    "postcode": "78564",
    "city": "Martinsberg"
  },
  {
    "postcode": "78564",
    "city": "Reichenbach am Heuberg"
  },
  {
    "postcode": "78564",
    "city": "Wehingen (Württemberg)"
  },
  {
    "postcode": "78564",
    "city": "Wehingen"
  },
  {
    "postcode": "78564",
    "city": "Tuttlingen"
  },
  {
    "postcode": "78567",
    "city": "Fridingen an der Donau"
  },
  {
    "postcode": "78567",
    "city": "Tuttlingen"
  },
  {
    "postcode": "78567",
    "city": "Scheuerlehof"
  },
  {
    "postcode": "78570",
    "city": "Mühlheim"
  },
  {
    "postcode": "78570",
    "city": "Mühlheim an der Donau"
  },
  {
    "postcode": "78570",
    "city": "Stetten"
  },
  {
    "postcode": "78570",
    "city": "Tuttlingen"
  },
  {
    "postcode": "78573",
    "city": "Wurmlingen bei Tuttlingen"
  },
  {
    "postcode": "78573",
    "city": "Tuttlingen"
  },
  {
    "postcode": "78573",
    "city": "Wurmlingen"
  },
  {
    "postcode": "78576",
    "city": "Emmingen"
  },
  {
    "postcode": "78576",
    "city": "Emmingen-Liptingen"
  },
  {
    "postcode": "78576",
    "city": "Höfe Liptingen"
  },
  {
    "postcode": "78576",
    "city": "Liptingen"
  },
  {
    "postcode": "78576",
    "city": "Tuttlingen"
  },
  {
    "postcode": "78576",
    "city": "Höfe Emmingen"
  },
  {
    "postcode": "78579",
    "city": "Neuhausen ob Eck"
  },
  {
    "postcode": "78579",
    "city": "Oberschwandorf"
  },
  {
    "postcode": "78579",
    "city": "Unterschwandorf"
  },
  {
    "postcode": "78579",
    "city": "Volkertsweiler"
  },
  {
    "postcode": "78579",
    "city": "Worndorf"
  },
  {
    "postcode": "78579",
    "city": "Tuttlingen"
  },
  {
    "postcode": "78579",
    "city": "Neuhausen"
  },
  {
    "postcode": "78579",
    "city": "Schwandorf"
  },
  {
    "postcode": "78580",
    "city": "Bärenthal (Hohenzollern)"
  },
  {
    "postcode": "78580",
    "city": "Bärenthal"
  },
  {
    "postcode": "78580",
    "city": "Tuttlingen"
  },
  {
    "postcode": "78582",
    "city": "Balgheim (Württemberg)"
  },
  {
    "postcode": "78582",
    "city": "Balgheim"
  },
  {
    "postcode": "78582",
    "city": "Tuttlingen"
  },
  {
    "postcode": "78583",
    "city": "Böttingen (Kreis Tuttlingen)"
  },
  {
    "postcode": "78583",
    "city": "Böttingen"
  },
  {
    "postcode": "78583",
    "city": "Tuttlingen"
  },
  {
    "postcode": "78585",
    "city": "Bubsheim"
  },
  {
    "postcode": "78585",
    "city": "Tuttlingen"
  },
  {
    "postcode": "78586",
    "city": "Deilingen"
  },
  {
    "postcode": "78586",
    "city": "Delkhofen"
  },
  {
    "postcode": "78586",
    "city": "Tuttlingen"
  },
  {
    "postcode": "78588",
    "city": "Denkingen (Württemberg)"
  },
  {
    "postcode": "78588",
    "city": "Denkingen"
  },
  {
    "postcode": "78588",
    "city": "Tuttlingen"
  },
  {
    "postcode": "78588",
    "city": "Klippeneck"
  },
  {
    "postcode": "78589",
    "city": "Dürbheim (Kreis Tuttlingen)"
  },
  {
    "postcode": "78589",
    "city": "Dürbheim"
  },
  {
    "postcode": "78589",
    "city": "Risiberg"
  },
  {
    "postcode": "78589",
    "city": "Tuttlingen"
  },
  {
    "postcode": "78591",
    "city": "Durchhausen"
  },
  {
    "postcode": "78591",
    "city": "Tuttlingen"
  },
  {
    "postcode": "78592",
    "city": "Egesheim"
  },
  {
    "postcode": "78592",
    "city": "Tuttlingen"
  },
  {
    "postcode": "78594",
    "city": "Gunningen"
  },
  {
    "postcode": "78594",
    "city": "Tuttlingen"
  },
  {
    "postcode": "78595",
    "city": "Hausen ob Verena"
  },
  {
    "postcode": "78595",
    "city": "Tuttlingen"
  },
  {
    "postcode": "78597",
    "city": "Irndorf"
  },
  {
    "postcode": "78597",
    "city": "Tuttlingen"
  },
  {
    "postcode": "78598",
    "city": "Königsheim"
  },
  {
    "postcode": "78598",
    "city": "Tuttlingen"
  },
  {
    "postcode": "78600",
    "city": "Kolbingen"
  },
  {
    "postcode": "78600",
    "city": "Tuttlingen"
  },
  {
    "postcode": "78601",
    "city": "Mahlstetten"
  },
  {
    "postcode": "78601",
    "city": "Tuttlingen"
  },
  {
    "postcode": "78601",
    "city": "Mühlheim"
  },
  {
    "postcode": "78601",
    "city": "Mühlheim an der Donau"
  },
  {
    "postcode": "78603",
    "city": "Renquishausen"
  },
  {
    "postcode": "78603",
    "city": "Tuttlingen"
  },
  {
    "postcode": "78604",
    "city": "Bulzingen"
  },
  {
    "postcode": "78604",
    "city": "Höfle"
  },
  {
    "postcode": "78604",
    "city": "Lupbühl"
  },
  {
    "postcode": "78604",
    "city": "Rietheim"
  },
  {
    "postcode": "78604",
    "city": "Rietheim-Weilheim"
  },
  {
    "postcode": "78604",
    "city": "Rußberg"
  },
  {
    "postcode": "78604",
    "city": "Weilheim"
  },
  {
    "postcode": "78604",
    "city": "Tuttlingen"
  },
  {
    "postcode": "78606",
    "city": "Oberflacht"
  },
  {
    "postcode": "78606",
    "city": "Seitingen"
  },
  {
    "postcode": "78606",
    "city": "Seitingen-Oberflacht"
  },
  {
    "postcode": "78606",
    "city": "Tuttlingen"
  },
  {
    "postcode": "78607",
    "city": "Talheim (Kreis Tuttlingen)"
  },
  {
    "postcode": "78607",
    "city": "Talheim"
  },
  {
    "postcode": "78607",
    "city": "Tuttlingen"
  },
  {
    "postcode": "78609",
    "city": "Tuningen"
  },
  {
    "postcode": "78609",
    "city": "Schwarzwald-Baar-Kreis"
  },
  {
    "postcode": "78628",
    "city": "Bühlingen"
  },
  {
    "postcode": "78628",
    "city": "Feckenhausen"
  },
  {
    "postcode": "78628",
    "city": "Göllsdorf"
  },
  {
    "postcode": "78628",
    "city": "Hausen"
  },
  {
    "postcode": "78628",
    "city": "Hochhalden bei Rottweil"
  },
  {
    "postcode": "78628",
    "city": "Neufra"
  },
  {
    "postcode": "78628",
    "city": "Neukirch"
  },
  {
    "postcode": "78628",
    "city": "Rottweil"
  },
  {
    "postcode": "78628",
    "city": "Vaihinger Hof"
  },
  {
    "postcode": "78628",
    "city": "Zepfenhan"
  },
  {
    "postcode": "78628",
    "city": "Hochwald"
  },
  {
    "postcode": "78647",
    "city": "Schura"
  },
  {
    "postcode": "78647",
    "city": "Trossingen"
  },
  {
    "postcode": "78647",
    "city": "Tuttlingen"
  },
  {
    "postcode": "78652",
    "city": "Deißlingen"
  },
  {
    "postcode": "78652",
    "city": "Deißlingen (Neckar)"
  },
  {
    "postcode": "78652",
    "city": "Lauffen"
  },
  {
    "postcode": "78652",
    "city": "Rottweil"
  },
  {
    "postcode": "78652",
    "city": "Zimmern ob Rottweil"
  },
  {
    "postcode": "78655",
    "city": "Dunningen"
  },
  {
    "postcode": "78655",
    "city": "Dunningen (Württemberg)"
  },
  {
    "postcode": "78655",
    "city": "Lackendorf"
  },
  {
    "postcode": "78655",
    "city": "Seedorf"
  },
  {
    "postcode": "78655",
    "city": "Rottweil"
  },
  {
    "postcode": "78658",
    "city": "Flözlingen"
  },
  {
    "postcode": "78658",
    "city": "Horgen"
  },
  {
    "postcode": "78658",
    "city": "Stetten"
  },
  {
    "postcode": "78658",
    "city": "Zimmern ob Rottweil"
  },
  {
    "postcode": "78658",
    "city": "Rottweil"
  },
  {
    "postcode": "78658",
    "city": "Zimmern"
  },
  {
    "postcode": "78661",
    "city": "Böhringen"
  },
  {
    "postcode": "78661",
    "city": "Dietingen"
  },
  {
    "postcode": "78661",
    "city": "Dietingen bei Rottweil"
  },
  {
    "postcode": "78661",
    "city": "Gösslingen"
  },
  {
    "postcode": "78661",
    "city": "Irslingen"
  },
  {
    "postcode": "78661",
    "city": "Rotenzimmern"
  },
  {
    "postcode": "78661",
    "city": "Rottweil"
  },
  {
    "postcode": "78662",
    "city": "Bösingen"
  },
  {
    "postcode": "78662",
    "city": "Bösingen (Kreis Rottweil)"
  },
  {
    "postcode": "78662",
    "city": "Herrenzimmern"
  },
  {
    "postcode": "78662",
    "city": "Kasperleshof"
  },
  {
    "postcode": "78662",
    "city": "Rottweil"
  },
  {
    "postcode": "78664",
    "city": "Eschbronn (Württemberg)"
  },
  {
    "postcode": "78664",
    "city": "Eschbronn"
  },
  {
    "postcode": "78664",
    "city": "Locherhof"
  },
  {
    "postcode": "78664",
    "city": "Mariazell"
  },
  {
    "postcode": "78664",
    "city": "Untere Mühlbauern"
  },
  {
    "postcode": "78664",
    "city": "Rottweil"
  },
  {
    "postcode": "78665",
    "city": "Frittlingen"
  },
  {
    "postcode": "78665",
    "city": "Tuttlingen"
  },
  {
    "postcode": "78667",
    "city": "Hochwald (Württemberg)"
  },
  {
    "postcode": "78667",
    "city": "Hochwald"
  },
  {
    "postcode": "78667",
    "city": "Villingendorf"
  },
  {
    "postcode": "78667",
    "city": "Rottweil"
  },
  {
    "postcode": "78669",
    "city": "Wellendingen"
  },
  {
    "postcode": "78669",
    "city": "Wellendingen (Württemberg)"
  },
  {
    "postcode": "78669",
    "city": "Wilflingen"
  },
  {
    "postcode": "78669",
    "city": "Rottweil"
  },
  {
    "postcode": "78713",
    "city": "Brambach"
  },
  {
    "postcode": "78713",
    "city": "Heiligenbronn"
  },
  {
    "postcode": "78713",
    "city": "Hutneck"
  },
  {
    "postcode": "78713",
    "city": "Schönbronn"
  },
  {
    "postcode": "78713",
    "city": "Schramberg"
  },
  {
    "postcode": "78713",
    "city": "Sulgen"
  },
  {
    "postcode": "78713",
    "city": "Waldmössingen"
  },
  {
    "postcode": "78713",
    "city": "Rottweil"
  },
  {
    "postcode": "78713",
    "city": "Gifizenmoos"
  },
  {
    "postcode": "78713",
    "city": "Schlangenbühl"
  },
  {
    "postcode": "78727",
    "city": "Aistaig"
  },
  {
    "postcode": "78727",
    "city": "Altoberndorf"
  },
  {
    "postcode": "78727",
    "city": "Beffendorf"
  },
  {
    "postcode": "78727",
    "city": "Bochingen"
  },
  {
    "postcode": "78727",
    "city": "Boll"
  },
  {
    "postcode": "78727",
    "city": "Hochmössingen"
  },
  {
    "postcode": "78727",
    "city": "Oberndorf am Neckar"
  },
  {
    "postcode": "78727",
    "city": "x07 92339 Oberndorf"
  },
  {
    "postcode": "78727",
    "city": "Rottweil"
  },
  {
    "postcode": "78727",
    "city": "Sulz am Neckar"
  },
  {
    "postcode": "78727",
    "city": "Lindenhof"
  },
  {
    "postcode": "78727",
    "city": "Oberndorf"
  },
  {
    "postcode": "78730",
    "city": "Finsterbach"
  },
  {
    "postcode": "78730",
    "city": "Fohrenbühl"
  },
  {
    "postcode": "78730",
    "city": "Hinterbach"
  },
  {
    "postcode": "78730",
    "city": "Lauterbach (Schwarzwald)"
  },
  {
    "postcode": "78730",
    "city": "Lauterbach"
  },
  {
    "postcode": "78730",
    "city": "Mückenberg"
  },
  {
    "postcode": "78730",
    "city": "Rotwasser"
  },
  {
    "postcode": "78730",
    "city": "Sulzbach"
  },
  {
    "postcode": "78730",
    "city": "Unterdorf"
  },
  {
    "postcode": "78730",
    "city": "Welschdorf"
  },
  {
    "postcode": "78730",
    "city": "Rottweil"
  },
  {
    "postcode": "78733",
    "city": "Aichhalden"
  },
  {
    "postcode": "78733",
    "city": "Aichhalden bei Schramberg"
  },
  {
    "postcode": "78733",
    "city": "Bach und Altenberg"
  },
  {
    "postcode": "78733",
    "city": "Bühlen"
  },
  {
    "postcode": "78733",
    "city": "Kiener"
  },
  {
    "postcode": "78733",
    "city": "Loch"
  },
  {
    "postcode": "78733",
    "city": "Reint"
  },
  {
    "postcode": "78733",
    "city": "Rötenberg"
  },
  {
    "postcode": "78733",
    "city": "Schachen"
  },
  {
    "postcode": "78733",
    "city": "Schwanenmoos"
  },
  {
    "postcode": "78733",
    "city": "Rottweil"
  },
  {
    "postcode": "78733",
    "city": "Breitreute"
  },
  {
    "postcode": "78733",
    "city": "Neuhaus"
  },
  {
    "postcode": "78736",
    "city": "Epfendorf"
  },
  {
    "postcode": "78736",
    "city": "Harthausen"
  },
  {
    "postcode": "78736",
    "city": "Höhingen"
  },
  {
    "postcode": "78736",
    "city": "Talhausen"
  },
  {
    "postcode": "78736",
    "city": "Trichtingen"
  },
  {
    "postcode": "78736",
    "city": "Rottweil"
  },
  {
    "postcode": "78737",
    "city": "Fluorn"
  },
  {
    "postcode": "78737",
    "city": "Fluorn-Winzeln"
  },
  {
    "postcode": "78737",
    "city": "Winzeln"
  },
  {
    "postcode": "78737",
    "city": "Rottweil"
  },
  {
    "postcode": "78739",
    "city": "Hardt bei Schramberg"
  },
  {
    "postcode": "78739",
    "city": "Nägelesee"
  },
  {
    "postcode": "78739",
    "city": "Rottweil"
  },
  {
    "postcode": "78739",
    "city": "Hardt"
  }
]