[
  {
    "postcode": "7318",
    "city": "Arnsgereuth"
  },
  {
    "postcode": "7318",
    "city": "Saalfeld / Saale"
  },
  {
    "postcode": "7318",
    "city": "Saalfeld"
  },
  {
    "postcode": "7318",
    "city": "Wittgendorf bei Saalfeld"
  },
  {
    "postcode": "7318",
    "city": "Saalfeld-Rudolstadt"
  },
  {
    "postcode": "7318",
    "city": "Saalfeld/Saale"
  },
  {
    "postcode": "7318",
    "city": "Schmiedefeld"
  },
  {
    "postcode": "7318",
    "city": "Unterwirbach"
  },
  {
    "postcode": "7318",
    "city": "Kleingeschwenda"
  },
  {
    "postcode": "7318",
    "city": "Thomas-Müntzer Siedlung"
  },
  {
    "postcode": "7318",
    "city": "Beulwitz"
  },
  {
    "postcode": "7318",
    "city": "Volkmannsdorf"
  },
  {
    "postcode": "7318",
    "city": "Dittrichshütte"
  },
  {
    "postcode": "7318",
    "city": "Bernsdorf"
  },
  {
    "postcode": "7318",
    "city": "Obernitz"
  },
  {
    "postcode": "7318",
    "city": "Witzendorf"
  },
  {
    "postcode": "7318",
    "city": "Reschwitz"
  },
  {
    "postcode": "7318",
    "city": "Reichmannsdorf"
  },
  {
    "postcode": "7318",
    "city": "Birkenheide"
  },
  {
    "postcode": "7318",
    "city": "Braunsdorf"
  },
  {
    "postcode": "7318",
    "city": "Burkersdorf"
  },
  {
    "postcode": "7318",
    "city": "Dittersdorf"
  },
  {
    "postcode": "7318",
    "city": "Crösten"
  },
  {
    "postcode": "7318",
    "city": "Eyba"
  },
  {
    "postcode": "7318",
    "city": "Jehmichen"
  },
  {
    "postcode": "7318",
    "city": "Knobelsdorf"
  },
  {
    "postcode": "7318",
    "city": "Lositz"
  },
  {
    "postcode": "7318",
    "city": "Aue am Berg"
  },
  {
    "postcode": "7318",
    "city": "Wickersdorf"
  },
  {
    "postcode": "7318",
    "city": "Wöhlsdorf"
  },
  {
    "postcode": "7318",
    "city": "Wittgendorf"
  },
  {
    "postcode": "7318",
    "city": "Wittmannsgereuth"
  },
  {
    "postcode": "7330",
    "city": "Marktgölitz"
  },
  {
    "postcode": "7330",
    "city": "Probstzella"
  },
  {
    "postcode": "7330",
    "city": "Schaderthal"
  },
  {
    "postcode": "7330",
    "city": "Saalfeld-Rudolstadt"
  },
  {
    "postcode": "7330",
    "city": "Unterloquitz"
  },
  {
    "postcode": "7330",
    "city": "Arnsbach"
  },
  {
    "postcode": "7330",
    "city": "Döhlen"
  },
  {
    "postcode": "7330",
    "city": "Gabe Gottes"
  },
  {
    "postcode": "7330",
    "city": "Großgeschwenda"
  },
  {
    "postcode": "7330",
    "city": "Zopten"
  },
  {
    "postcode": "7330",
    "city": "Königsthal"
  },
  {
    "postcode": "7330",
    "city": "Kleinneundorf"
  },
  {
    "postcode": "7330",
    "city": "Laasen"
  },
  {
    "postcode": "7330",
    "city": "Lichtentanne"
  },
  {
    "postcode": "7330",
    "city": "Limbach"
  },
  {
    "postcode": "7330",
    "city": "Obergölitz"
  },
  {
    "postcode": "7330",
    "city": "Oberloquitz"
  },
  {
    "postcode": "7330",
    "city": "Pippelsdorf"
  },
  {
    "postcode": "7330",
    "city": "Reichenbach"
  },
  {
    "postcode": "7330",
    "city": "Roda"
  },
  {
    "postcode": "7330",
    "city": "Schlaga"
  },
  {
    "postcode": "7330",
    "city": "Wickendorf"
  },
  {
    "postcode": "7333",
    "city": "Unterwellenborn"
  },
  {
    "postcode": "7333",
    "city": "Saalfeld-Rudolstadt"
  },
  {
    "postcode": "7333",
    "city": "Kamsdorf"
  },
  {
    "postcode": "7333",
    "city": "Goßwitz"
  },
  {
    "postcode": "7333",
    "city": "Könitz"
  },
  {
    "postcode": "7333",
    "city": "Oberwellenborn"
  },
  {
    "postcode": "7333",
    "city": "Bucha"
  },
  {
    "postcode": "7333",
    "city": "Birkigt"
  },
  {
    "postcode": "7333",
    "city": "Lausnitz"
  },
  {
    "postcode": "7333",
    "city": "Langenschade"
  },
  {
    "postcode": "7333",
    "city": "Dorfkulm"
  },
  {
    "postcode": "7334",
    "city": "Goßwitz bei Saalfeld"
  },
  {
    "postcode": "7334",
    "city": "Kamsdorf"
  },
  {
    "postcode": "7334",
    "city": "Saalfeld-Rudolstadt"
  },
  {
    "postcode": "7336",
    "city": "Birkigt bei Saalfeld Saale"
  },
  {
    "postcode": "7336",
    "city": "Birkigt bei Saalfeld"
  },
  {
    "postcode": "7336",
    "city": "Könitz"
  },
  {
    "postcode": "7338",
    "city": "Altenbeuthen"
  },
  {
    "postcode": "7338",
    "city": "Drognitz"
  },
  {
    "postcode": "7338",
    "city": "Hohenwarte"
  },
  {
    "postcode": "7338",
    "city": "Kaulsdorf Saale"
  },
  {
    "postcode": "7338",
    "city": "Kaulsdorf"
  },
  {
    "postcode": "7338",
    "city": "Leutenberg"
  },
  {
    "postcode": "7338",
    "city": "Saalfeld-Rudolstadt"
  },
  {
    "postcode": "7338",
    "city": "Altenroth"
  },
  {
    "postcode": "7338",
    "city": "Lothra"
  },
  {
    "postcode": "7338",
    "city": "Reitzengeschwenda"
  },
  {
    "postcode": "7338",
    "city": "Neidenberga"
  },
  {
    "postcode": "7338",
    "city": "Neuenbeuthen"
  },
  {
    "postcode": "7338",
    "city": "Eichicht"
  },
  {
    "postcode": "7338",
    "city": "Breternitz"
  },
  {
    "postcode": "7338",
    "city": "Fischersdorf"
  },
  {
    "postcode": "7338",
    "city": "Hockeroda"
  },
  {
    "postcode": "7338",
    "city": "Tauschwitz"
  },
  {
    "postcode": "7338",
    "city": "Weischwitz"
  },
  {
    "postcode": "7338",
    "city": "Munschwitz"
  },
  {
    "postcode": "7338",
    "city": "Dorfilm"
  },
  {
    "postcode": "7338",
    "city": "Grünau"
  },
  {
    "postcode": "7338",
    "city": "Herschdorf"
  },
  {
    "postcode": "7338",
    "city": "Hirzbach"
  },
  {
    "postcode": "7338",
    "city": "Kleingeschwenda"
  },
  {
    "postcode": "7338",
    "city": "Löhma"
  },
  {
    "postcode": "7338",
    "city": "Landsendorf"
  },
  {
    "postcode": "7338",
    "city": "Steinsdorf"
  },
  {
    "postcode": "7338",
    "city": "Rosenthal"
  },
  {
    "postcode": "7338",
    "city": "Schweinbach"
  },
  {
    "postcode": "7343",
    "city": "Wurzbach"
  },
  {
    "postcode": "7343",
    "city": "Saale-Orla-Kreis"
  },
  {
    "postcode": "7343",
    "city": "Heinersdorf"
  },
  {
    "postcode": "7343",
    "city": "Grumbach"
  },
  {
    "postcode": "7343",
    "city": "Heberndorf"
  },
  {
    "postcode": "7343",
    "city": "Titschendorf"
  },
  {
    "postcode": "7343",
    "city": "Oßla"
  },
  {
    "postcode": "7343",
    "city": "Weitisberga"
  },
  {
    "postcode": "7349",
    "city": "Lehesten Thüringer Wald"
  },
  {
    "postcode": "7349",
    "city": "Lehesten"
  },
  {
    "postcode": "7349",
    "city": "Saalfeld-Rudolstadt"
  },
  {
    "postcode": "7349",
    "city": "Brennersgrün"
  },
  {
    "postcode": "7349",
    "city": "Schmiedebach"
  },
  {
    "postcode": "7349",
    "city": "Röttersdorf"
  },
  {
    "postcode": "7356",
    "city": "Bad Lobenstein"
  },
  {
    "postcode": "7356",
    "city": "Lichtenbrunn"
  },
  {
    "postcode": "7356",
    "city": "Neundorf (bei Lobenstein)"
  },
  {
    "postcode": "7356",
    "city": "Neundorf"
  },
  {
    "postcode": "7356",
    "city": "Oberlemnitz"
  },
  {
    "postcode": "7356",
    "city": "Unterlemnitz"
  },
  {
    "postcode": "7356",
    "city": "Saale-Orla-Kreis"
  },
  {
    "postcode": "7356",
    "city": "Lobenstein"
  },
  {
    "postcode": "7356",
    "city": "Helmsgrün"
  },
  {
    "postcode": "7356",
    "city": "Saaldorf"
  },
  {
    "postcode": "7366",
    "city": "Birkenhügel"
  },
  {
    "postcode": "7366",
    "city": "Blankenberg Thüringen"
  },
  {
    "postcode": "7366",
    "city": "Blankenberg"
  },
  {
    "postcode": "7366",
    "city": "Blankenstein Saale"
  },
  {
    "postcode": "7366",
    "city": "Blankenstein"
  },
  {
    "postcode": "7366",
    "city": "Harra"
  },
  {
    "postcode": "7366",
    "city": "Lichtenbrunn"
  },
  {
    "postcode": "7366",
    "city": "Pottiga"
  },
  {
    "postcode": "7366",
    "city": "Schlegel bei Lobenstein"
  },
  {
    "postcode": "7366",
    "city": "Saale-Orla-Kreis"
  },
  {
    "postcode": "7366",
    "city": "Rosenthal am Rennsteig"
  },
  {
    "postcode": "7366",
    "city": "Kießling"
  },
  {
    "postcode": "7366",
    "city": "Lemnitzhammer"
  },
  {
    "postcode": "7366",
    "city": "Neundorf"
  },
  {
    "postcode": "7366",
    "city": "Schlegel"
  },
  {
    "postcode": "7366",
    "city": "Seibis"
  },
  {
    "postcode": "7368",
    "city": "Remptendorf"
  },
  {
    "postcode": "7368",
    "city": "Saalburg-Ebersdorf"
  },
  {
    "postcode": "7368",
    "city": "Zschachenmühle"
  },
  {
    "postcode": "7368",
    "city": "Saale-Orla-Kreis"
  },
  {
    "postcode": "7368",
    "city": "Altengesees"
  },
  {
    "postcode": "7368",
    "city": "Liebschütz"
  },
  {
    "postcode": "7368",
    "city": "Liebengrün"
  },
  {
    "postcode": "7368",
    "city": "Burglemnitz"
  },
  {
    "postcode": "7368",
    "city": "Eliasbrunn"
  },
  {
    "postcode": "7368",
    "city": "Gahma"
  },
  {
    "postcode": "7368",
    "city": "Thimmendorf"
  },
  {
    "postcode": "7368",
    "city": "Gleima"
  },
  {
    "postcode": "7368",
    "city": "Rauschengesees"
  },
  {
    "postcode": "7368",
    "city": "Ruppersdorf"
  },
  {
    "postcode": "7368",
    "city": "Thierbach"
  },
  {
    "postcode": "7368",
    "city": "Weisbach"
  },
  {
    "postcode": "7381",
    "city": "Bodelwitz"
  },
  {
    "postcode": "7381",
    "city": "Döbritz"
  },
  {
    "postcode": "7381",
    "city": "Langenorla"
  },
  {
    "postcode": "7381",
    "city": "Moxa"
  },
  {
    "postcode": "7381",
    "city": "Nimritz"
  },
  {
    "postcode": "7381",
    "city": "Oberoppurg"
  },
  {
    "postcode": "7381",
    "city": "Oppurg"
  },
  {
    "postcode": "7381",
    "city": "Paska"
  },
  {
    "postcode": "7381",
    "city": "Pößneck"
  },
  {
    "postcode": "7381",
    "city": "Solkwitz"
  },
  {
    "postcode": "7381",
    "city": "Trannroda"
  },
  {
    "postcode": "7381",
    "city": "Wernburg"
  },
  {
    "postcode": "7381",
    "city": "Saale-Orla-Kreis"
  },
  {
    "postcode": "7381",
    "city": "Kleindembach"
  },
  {
    "postcode": "7381",
    "city": "Langendembach"
  },
  {
    "postcode": "7381",
    "city": "Mariengrund"
  },
  {
    "postcode": "7381",
    "city": "Rehmen"
  },
  {
    "postcode": "7381",
    "city": "Kolba"
  },
  {
    "postcode": "7381",
    "city": "Pößneck Stadt"
  },
  {
    "postcode": "7381",
    "city": "Schlettwein"
  },
  {
    "postcode": "7381",
    "city": "Öpitz"
  },
  {
    "postcode": "7381",
    "city": "Schweinitz"
  },
  {
    "postcode": "7381",
    "city": "Buchtahöhe"
  },
  {
    "postcode": "7381",
    "city": "Seebach"
  },
  {
    "postcode": "7387",
    "city": "Dobian"
  },
  {
    "postcode": "7387",
    "city": "Krölpa bei Pößneck"
  },
  {
    "postcode": "7387",
    "city": "Lausnitz bei Pößneck"
  },
  {
    "postcode": "7387",
    "city": "Trannroda"
  },
  {
    "postcode": "7387",
    "city": "Saale-Orla-Kreis"
  },
  {
    "postcode": "7387",
    "city": "Krölpa"
  },
  {
    "postcode": "7387",
    "city": "Herschdorf"
  },
  {
    "postcode": "7387",
    "city": "Friedebach"
  },
  {
    "postcode": "7387",
    "city": "Gräfendorf"
  },
  {
    "postcode": "7387",
    "city": "Rockendorf"
  },
  {
    "postcode": "7387",
    "city": "Hütten"
  },
  {
    "postcode": "7387",
    "city": "Zella"
  },
  {
    "postcode": "7387",
    "city": "Kalte Schenke"
  },
  {
    "postcode": "7387",
    "city": "Oelsen"
  },
  {
    "postcode": "7389",
    "city": "Bucha bei Pößneck"
  },
  {
    "postcode": "7389",
    "city": "Dobian"
  },
  {
    "postcode": "7389",
    "city": "Gertewitz"
  },
  {
    "postcode": "7389",
    "city": "Gössitz"
  },
  {
    "postcode": "7389",
    "city": "Grobengereuth"
  },
  {
    "postcode": "7389",
    "city": "Keila"
  },
  {
    "postcode": "7389",
    "city": "Knau bei Pößneck"
  },
  {
    "postcode": "7389",
    "city": "Peuschen"
  },
  {
    "postcode": "7389",
    "city": "Quaschwitz"
  },
  {
    "postcode": "7389",
    "city": "Ranis"
  },
  {
    "postcode": "7389",
    "city": "Schmorda"
  },
  {
    "postcode": "7389",
    "city": "Seisla"
  },
  {
    "postcode": "7389",
    "city": "Wilhelmsdorf bei Pößneck"
  },
  {
    "postcode": "7389",
    "city": "Saale-Orla-Kreis"
  },
  {
    "postcode": "7389",
    "city": "Wilhelmsdorf"
  },
  {
    "postcode": "7389",
    "city": "Bahren"
  },
  {
    "postcode": "7389",
    "city": "Laskau"
  },
  {
    "postcode": "7389",
    "city": "Wöhlsdorf"
  },
  {
    "postcode": "73033",
    "city": "Göppingen"
  },
  {
    "postcode": "73033",
    "city": "Stadtgebiet"
  },
  {
    "postcode": "73033",
    "city": "Faurndau"
  },
  {
    "postcode": "73035",
    "city": "Bezgenriet"
  },
  {
    "postcode": "73035",
    "city": "Göppingen"
  },
  {
    "postcode": "73035",
    "city": "Jebenhausen"
  },
  {
    "postcode": "73035",
    "city": "Lerchenberg"
  },
  {
    "postcode": "73035",
    "city": "Stadtgebiet"
  },
  {
    "postcode": "73035",
    "city": "Bartenbach"
  },
  {
    "postcode": "73035",
    "city": "Faurndau"
  },
  {
    "postcode": "73035",
    "city": "Schiefergrube"
  },
  {
    "postcode": "73035",
    "city": "Stadt Uhingen"
  },
  {
    "postcode": "73037",
    "city": "Göppingen"
  },
  {
    "postcode": "73037",
    "city": "Hohenstaufen"
  },
  {
    "postcode": "73037",
    "city": "Holzheim"
  },
  {
    "postcode": "73037",
    "city": "Industriegebiet Ost"
  },
  {
    "postcode": "73037",
    "city": "Lenglingen"
  },
  {
    "postcode": "73037",
    "city": "Maitis"
  },
  {
    "postcode": "73037",
    "city": "Manzen"
  },
  {
    "postcode": "73037",
    "city": "Ottenbach"
  },
  {
    "postcode": "73037",
    "city": "Sankt Gotthardt"
  },
  {
    "postcode": "73037",
    "city": "Stadtgebiet"
  },
  {
    "postcode": "73037",
    "city": "Ursenwang"
  },
  {
    "postcode": "73037",
    "city": "Eitleshof"
  },
  {
    "postcode": "73037",
    "city": "Iltishof"
  },
  {
    "postcode": "73037",
    "city": "Voralb"
  },
  {
    "postcode": "73037",
    "city": "St. Gotthardt"
  },
  {
    "postcode": "73037",
    "city": "Hohrein"
  },
  {
    "postcode": "73054",
    "city": "Eislingen"
  },
  {
    "postcode": "73054",
    "city": "Eislingen / Fils"
  },
  {
    "postcode": "73054",
    "city": "Eschenbäche"
  },
  {
    "postcode": "73054",
    "city": "Krummwälden"
  },
  {
    "postcode": "73054",
    "city": "Göppingen"
  },
  {
    "postcode": "73054",
    "city": "Eislingen/Fils"
  },
  {
    "postcode": "73061",
    "city": "Büchenbronn"
  },
  {
    "postcode": "73061",
    "city": "Bünzwangen"
  },
  {
    "postcode": "73061",
    "city": "Ebersbach an der Fils"
  },
  {
    "postcode": "73061",
    "city": "Krapfenreut"
  },
  {
    "postcode": "73061",
    "city": "Roßwälden"
  },
  {
    "postcode": "73061",
    "city": "Weiler"
  },
  {
    "postcode": "73061",
    "city": "Göppingen"
  },
  {
    "postcode": "73061",
    "city": "Sulpach"
  },
  {
    "postcode": "73061",
    "city": "Ebersbach"
  },
  {
    "postcode": "73066",
    "city": "Baiereck"
  },
  {
    "postcode": "73066",
    "city": "Diegelsberg"
  },
  {
    "postcode": "73066",
    "city": "Holzhausen"
  },
  {
    "postcode": "73066",
    "city": "Nassach"
  },
  {
    "postcode": "73066",
    "city": "Nassachmühle"
  },
  {
    "postcode": "73066",
    "city": "Sparwiesen"
  },
  {
    "postcode": "73066",
    "city": "Uhingen"
  },
  {
    "postcode": "73066",
    "city": "Unterhütt"
  },
  {
    "postcode": "73066",
    "city": "Göppingen"
  },
  {
    "postcode": "73072",
    "city": "Aichhöfle"
  },
  {
    "postcode": "73072",
    "city": "Birkhof"
  },
  {
    "postcode": "73072",
    "city": "Donzdorf"
  },
  {
    "postcode": "73072",
    "city": "Grünbach"
  },
  {
    "postcode": "73072",
    "city": "Hagenbuch"
  },
  {
    "postcode": "73072",
    "city": "Hochberg"
  },
  {
    "postcode": "73072",
    "city": "Kuchalb"
  },
  {
    "postcode": "73072",
    "city": "Lauxenhof"
  },
  {
    "postcode": "73072",
    "city": "Oberweckerstell"
  },
  {
    "postcode": "73072",
    "city": "Reichenbach"
  },
  {
    "postcode": "73072",
    "city": "Schillingshof"
  },
  {
    "postcode": "73072",
    "city": "Schurrenhof"
  },
  {
    "postcode": "73072",
    "city": "Staudenhof"
  },
  {
    "postcode": "73072",
    "city": "Unterweckerstell"
  },
  {
    "postcode": "73072",
    "city": "Winzingen"
  },
  {
    "postcode": "73072",
    "city": "Göppingen"
  },
  {
    "postcode": "73072",
    "city": "Kratzerhöfle"
  },
  {
    "postcode": "73079",
    "city": "Süßen"
  },
  {
    "postcode": "73079",
    "city": "Göppingen"
  },
  {
    "postcode": "73079",
    "city": "Baierhof"
  },
  {
    "postcode": "73084",
    "city": "Bärenbach"
  },
  {
    "postcode": "73084",
    "city": "Salach (Württemberg)"
  },
  {
    "postcode": "73084",
    "city": "Salach"
  },
  {
    "postcode": "73084",
    "city": "Göppingen"
  },
  {
    "postcode": "73087",
    "city": "Bad Boll"
  },
  {
    "postcode": "73087",
    "city": "Boll"
  },
  {
    "postcode": "73087",
    "city": "Boll (Kreis Göppingen)"
  },
  {
    "postcode": "73087",
    "city": "Eckwälden"
  },
  {
    "postcode": "73087",
    "city": "Göppingen"
  },
  {
    "postcode": "73087",
    "city": "Erlenwasen"
  },
  {
    "postcode": "73092",
    "city": "Heiningen (Kreis Göppingen)"
  },
  {
    "postcode": "73092",
    "city": "Heiningen"
  },
  {
    "postcode": "73092",
    "city": "Göppingen"
  },
  {
    "postcode": "73095",
    "city": "Albershausen"
  },
  {
    "postcode": "73095",
    "city": "Schafhof"
  },
  {
    "postcode": "73095",
    "city": "Göppingen"
  },
  {
    "postcode": "73098",
    "city": "Oberhausen"
  },
  {
    "postcode": "73098",
    "city": "Rechberghausen"
  },
  {
    "postcode": "73098",
    "city": "Göppingen"
  },
  {
    "postcode": "73099",
    "city": "Adelberg (Württemberg)"
  },
  {
    "postcode": "73099",
    "city": "Adelberg"
  },
  {
    "postcode": "73099",
    "city": "Göppingen"
  },
  {
    "postcode": "73101",
    "city": "Aichelberg (Kreis Göppingen)"
  },
  {
    "postcode": "73101",
    "city": "Aichelberg"
  },
  {
    "postcode": "73101",
    "city": "Göppingen"
  },
  {
    "postcode": "73101",
    "city": "Zell"
  },
  {
    "postcode": "73101",
    "city": "Zell unter Aichelberg"
  },
  {
    "postcode": "73102",
    "city": "Birenbach (Kreis Göppingen)"
  },
  {
    "postcode": "73102",
    "city": "Birenbach"
  },
  {
    "postcode": "73102",
    "city": "Göppingen"
  },
  {
    "postcode": "73104",
    "city": "Börtlingen"
  },
  {
    "postcode": "73104",
    "city": "Börtlingen (Kreis Göppingen)"
  },
  {
    "postcode": "73104",
    "city": "Breech"
  },
  {
    "postcode": "73104",
    "city": "Zell Gemeinde Börtlingen"
  },
  {
    "postcode": "73104",
    "city": "Zell"
  },
  {
    "postcode": "73104",
    "city": "Göppingen"
  },
  {
    "postcode": "73105",
    "city": "Dürnau (Kreis Göppingen)"
  },
  {
    "postcode": "73105",
    "city": "Dürnau"
  },
  {
    "postcode": "73105",
    "city": "Göppingen"
  },
  {
    "postcode": "73107",
    "city": "Eschenbach Württemberg"
  },
  {
    "postcode": "73107",
    "city": "Eschenbach"
  },
  {
    "postcode": "73107",
    "city": "Lotenberg (Gemeinde Heiningen)"
  },
  {
    "postcode": "73107",
    "city": "Lotenberg"
  },
  {
    "postcode": "73107",
    "city": "Göppingen"
  },
  {
    "postcode": "73107",
    "city": "Haagwiesen"
  },
  {
    "postcode": "73107",
    "city": "Heiningen"
  },
  {
    "postcode": "73108",
    "city": "Gammelshausen (Württemberg)"
  },
  {
    "postcode": "73108",
    "city": "Gammelshausen"
  },
  {
    "postcode": "73108",
    "city": "Göppingen"
  },
  {
    "postcode": "73110",
    "city": "Hattenhofen (Württemberg)"
  },
  {
    "postcode": "73110",
    "city": "Hattenhofen"
  },
  {
    "postcode": "73110",
    "city": "Göppingen"
  },
  {
    "postcode": "73111",
    "city": "Lauterstein"
  },
  {
    "postcode": "73111",
    "city": "Lützelalb"
  },
  {
    "postcode": "73111",
    "city": "Nenningen"
  },
  {
    "postcode": "73111",
    "city": "Weißenstein"
  },
  {
    "postcode": "73111",
    "city": "Göppingen"
  },
  {
    "postcode": "73113",
    "city": "Geyrenwald"
  },
  {
    "postcode": "73113",
    "city": "Jackenhof"
  },
  {
    "postcode": "73113",
    "city": "Kitzen"
  },
  {
    "postcode": "73113",
    "city": "Ottenbach (Württemberg)"
  },
  {
    "postcode": "73113",
    "city": "Ottenbach"
  },
  {
    "postcode": "73113",
    "city": "Schurrhof"
  },
  {
    "postcode": "73113",
    "city": "Göppingen"
  },
  {
    "postcode": "73114",
    "city": "Rommental"
  },
  {
    "postcode": "73114",
    "city": "Schlat"
  },
  {
    "postcode": "73114",
    "city": "Göppingen"
  },
  {
    "postcode": "73116",
    "city": "Krettenhof"
  },
  {
    "postcode": "73116",
    "city": "Lindenbronn"
  },
  {
    "postcode": "73116",
    "city": "Wäschenbeuren"
  },
  {
    "postcode": "73116",
    "city": "Wäscherhof"
  },
  {
    "postcode": "73116",
    "city": "Göppingen"
  },
  {
    "postcode": "73117",
    "city": "Oberwälden"
  },
  {
    "postcode": "73117",
    "city": "Wangen"
  },
  {
    "postcode": "73117",
    "city": "Wangen (Kreis Göppingen)"
  },
  {
    "postcode": "73117",
    "city": "Göppingen"
  },
  {
    "postcode": "73119",
    "city": "Pliensbach"
  },
  {
    "postcode": "73119",
    "city": "Zell unter Aichelberg"
  },
  {
    "postcode": "73119",
    "city": "Göppingen"
  },
  {
    "postcode": "73119",
    "city": "Zell"
  },
  {
    "postcode": "73207",
    "city": "Plochingen"
  },
  {
    "postcode": "73207",
    "city": "Esslingen"
  },
  {
    "postcode": "73207",
    "city": "Stumpenhof"
  },
  {
    "postcode": "73230",
    "city": "Jesingen"
  },
  {
    "postcode": "73230",
    "city": "Kirchheim"
  },
  {
    "postcode": "73230",
    "city": "Kirchheim unter Teck"
  },
  {
    "postcode": "73230",
    "city": "Lindorf"
  },
  {
    "postcode": "73230",
    "city": "Nabern"
  },
  {
    "postcode": "73230",
    "city": "Ötlingen / Teck"
  },
  {
    "postcode": "73230",
    "city": "Ötlingen"
  },
  {
    "postcode": "73230",
    "city": "Schafhof"
  },
  {
    "postcode": "73230",
    "city": "Esslingen"
  },
  {
    "postcode": "73235",
    "city": "Häringen"
  },
  {
    "postcode": "73235",
    "city": "Hepsisau"
  },
  {
    "postcode": "73235",
    "city": "Herzogenau"
  },
  {
    "postcode": "73235",
    "city": "Weilheim"
  },
  {
    "postcode": "73235",
    "city": "Weilheim an der Teck"
  },
  {
    "postcode": "73235",
    "city": "Esslingen"
  },
  {
    "postcode": "73235",
    "city": "Kaltenwanghof"
  },
  {
    "postcode": "73235",
    "city": "Egelsberg"
  },
  {
    "postcode": "73240",
    "city": "Bodelshofen"
  },
  {
    "postcode": "73240",
    "city": "Unterboihingen"
  },
  {
    "postcode": "73240",
    "city": "Wendlingen am Neckar"
  },
  {
    "postcode": "73240",
    "city": "Esslingen"
  },
  {
    "postcode": "73249",
    "city": "Freitagshof"
  },
  {
    "postcode": "73249",
    "city": "Wernau (Neckar)"
  },
  {
    "postcode": "73249",
    "city": "Wernau"
  },
  {
    "postcode": "73249",
    "city": "Esslingen"
  },
  {
    "postcode": "73249",
    "city": "Berghof"
  },
  {
    "postcode": "73249",
    "city": "Erlenhof"
  },
  {
    "postcode": "73252",
    "city": "Brucken"
  },
  {
    "postcode": "73252",
    "city": "Gutenberg"
  },
  {
    "postcode": "73252",
    "city": "Krebsstein"
  },
  {
    "postcode": "73252",
    "city": "Lenningen (Württemberg)"
  },
  {
    "postcode": "73252",
    "city": "Lenningen"
  },
  {
    "postcode": "73252",
    "city": "Oberlenningen"
  },
  {
    "postcode": "73252",
    "city": "Schlattstall"
  },
  {
    "postcode": "73252",
    "city": "Schopfloch"
  },
  {
    "postcode": "73252",
    "city": "Unterlenningen"
  },
  {
    "postcode": "73252",
    "city": "Esslingen"
  },
  {
    "postcode": "73252",
    "city": "Hochwang"
  },
  {
    "postcode": "73257",
    "city": "Köngen"
  },
  {
    "postcode": "73257",
    "city": "Esslingen"
  },
  {
    "postcode": "73262",
    "city": "Reichenbach an der Fils"
  },
  {
    "postcode": "73262",
    "city": "Esslingen"
  },
  {
    "postcode": "73262",
    "city": "Plochingen"
  },
  {
    "postcode": "73265",
    "city": "Dettingen unter Teck"
  },
  {
    "postcode": "73265",
    "city": "Esslingen"
  },
  {
    "postcode": "73266",
    "city": "Bissingen"
  },
  {
    "postcode": "73266",
    "city": "Bissingen an der Teck"
  },
  {
    "postcode": "73266",
    "city": "Ochsenwang"
  },
  {
    "postcode": "73266",
    "city": "Randeck"
  },
  {
    "postcode": "73266",
    "city": "Esslingen"
  },
  {
    "postcode": "73266",
    "city": "Diepoldsburg"
  },
  {
    "postcode": "73266",
    "city": "Engelhof"
  },
  {
    "postcode": "73266",
    "city": "Torfgrube"
  },
  {
    "postcode": "73268",
    "city": "Erkenbrechtsweiler"
  },
  {
    "postcode": "73268",
    "city": "Esslingen"
  },
  {
    "postcode": "73269",
    "city": "Hochdorf bei Plochingen"
  },
  {
    "postcode": "73269",
    "city": "Esslingen"
  },
  {
    "postcode": "73269",
    "city": "Hochdorf"
  },
  {
    "postcode": "73271",
    "city": "Holzmaden"
  },
  {
    "postcode": "73271",
    "city": "Esslingen"
  },
  {
    "postcode": "73271",
    "city": "Kirchheim"
  },
  {
    "postcode": "73271",
    "city": "Kirchheim unter Teck"
  },
  {
    "postcode": "73272",
    "city": "Neidlingen"
  },
  {
    "postcode": "73272",
    "city": "Esslingen"
  },
  {
    "postcode": "73274",
    "city": "Notzingen"
  },
  {
    "postcode": "73274",
    "city": "Wellingen"
  },
  {
    "postcode": "73274",
    "city": "Esslingen"
  },
  {
    "postcode": "73275",
    "city": "Ohmden"
  },
  {
    "postcode": "73275",
    "city": "Esslingen"
  },
  {
    "postcode": "73277",
    "city": "Owen (Teck)"
  },
  {
    "postcode": "73277",
    "city": "Owen"
  },
  {
    "postcode": "73277",
    "city": "Esslingen"
  },
  {
    "postcode": "73278",
    "city": "Schlierbach (Württemberg)"
  },
  {
    "postcode": "73278",
    "city": "Schlierbach"
  },
  {
    "postcode": "73278",
    "city": "Göppingen"
  },
  {
    "postcode": "73312",
    "city": "Aufhausen"
  },
  {
    "postcode": "73312",
    "city": "Berneck bei Geislingen an der Steige"
  },
  {
    "postcode": "73312",
    "city": "Christofshof"
  },
  {
    "postcode": "73312",
    "city": "Eybach"
  },
  {
    "postcode": "73312",
    "city": "Geislingen"
  },
  {
    "postcode": "73312",
    "city": "Geislingen an der Steige"
  },
  {
    "postcode": "73312",
    "city": "Hofstett am Steig"
  },
  {
    "postcode": "73312",
    "city": "Stötten"
  },
  {
    "postcode": "73312",
    "city": "Türkheim"
  },
  {
    "postcode": "73312",
    "city": "Waldhausen"
  },
  {
    "postcode": "73312",
    "city": "Weiler ob Helfenstein"
  },
  {
    "postcode": "73312",
    "city": "Wittingen"
  },
  {
    "postcode": "73312",
    "city": "Göppingen"
  },
  {
    "postcode": "73312",
    "city": "Bad Überkingen"
  },
  {
    "postcode": "73312",
    "city": "Bad Ditzenbach"
  },
  {
    "postcode": "73312",
    "city": "Berneck"
  },
  {
    "postcode": "73312",
    "city": "Deggingen"
  },
  {
    "postcode": "73312",
    "city": "Obere Roggenmühle"
  },
  {
    "postcode": "73312",
    "city": "Schonterhöhe"
  },
  {
    "postcode": "73312",
    "city": "Weiler"
  },
  {
    "postcode": "73312",
    "city": "Altenstadt"
  },
  {
    "postcode": "73326",
    "city": "Deggingen"
  },
  {
    "postcode": "73326",
    "city": "Reichenbach"
  },
  {
    "postcode": "73326",
    "city": "Göppingen"
  },
  {
    "postcode": "73326",
    "city": "Bad Ditzenbach"
  },
  {
    "postcode": "73329",
    "city": "Kuchen (Fils)"
  },
  {
    "postcode": "73329",
    "city": "Kuchen"
  },
  {
    "postcode": "73329",
    "city": "Göppingen"
  },
  {
    "postcode": "73333",
    "city": "Gingen an der Fils"
  },
  {
    "postcode": "73333",
    "city": "Grünenberg"
  },
  {
    "postcode": "73333",
    "city": "Göppingen"
  },
  {
    "postcode": "73333",
    "city": "Bad Überkingen"
  },
  {
    "postcode": "73337",
    "city": "Bad Überkingen"
  },
  {
    "postcode": "73337",
    "city": "Hausen"
  },
  {
    "postcode": "73337",
    "city": "Oberböhringen"
  },
  {
    "postcode": "73337",
    "city": "Unterböhringen"
  },
  {
    "postcode": "73337",
    "city": "Göppingen"
  },
  {
    "postcode": "73337",
    "city": "Michelsberg"
  },
  {
    "postcode": "73340",
    "city": "Amstetten"
  },
  {
    "postcode": "73340",
    "city": "Amstetten (Württemberg)"
  },
  {
    "postcode": "73340",
    "city": "Bräunisheim"
  },
  {
    "postcode": "73340",
    "city": "Hofstett-Emerbuch"
  },
  {
    "postcode": "73340",
    "city": "Reutti"
  },
  {
    "postcode": "73340",
    "city": "Schalkstetten"
  },
  {
    "postcode": "73340",
    "city": "Stubersheim"
  },
  {
    "postcode": "73340",
    "city": "Alb-Donau-Kreis"
  },
  {
    "postcode": "73340",
    "city": "Amstetten-Dorf"
  },
  {
    "postcode": "73342",
    "city": "Auendorf"
  },
  {
    "postcode": "73342",
    "city": "Bad Ditzenbach"
  },
  {
    "postcode": "73342",
    "city": "Gosbach"
  },
  {
    "postcode": "73342",
    "city": "Göppingen"
  },
  {
    "postcode": "73344",
    "city": "Gruibingen"
  },
  {
    "postcode": "73344",
    "city": "Göppingen"
  },
  {
    "postcode": "73345",
    "city": "Drackenstein (Schwäbische Alb)"
  },
  {
    "postcode": "73345",
    "city": "Drackenstein"
  },
  {
    "postcode": "73345",
    "city": "Hohenstadt bei Geislingen an der Steige"
  },
  {
    "postcode": "73345",
    "city": "Oberdrackenstein"
  },
  {
    "postcode": "73345",
    "city": "Unterdrackenstein"
  },
  {
    "postcode": "73345",
    "city": "Göppingen"
  },
  {
    "postcode": "73345",
    "city": "Geislinger Weg"
  },
  {
    "postcode": "73345",
    "city": "Großmannshof"
  },
  {
    "postcode": "73345",
    "city": "Hohenstadt"
  },
  {
    "postcode": "73347",
    "city": "Mühlhausen im Täle"
  },
  {
    "postcode": "73347",
    "city": "Göppingen"
  },
  {
    "postcode": "73349",
    "city": "Wiesensteig"
  },
  {
    "postcode": "73349",
    "city": "Göppingen"
  },
  {
    "postcode": "73349",
    "city": "Eselhöfe"
  },
  {
    "postcode": "73349",
    "city": "Kölleshof"
  },
  {
    "postcode": "73349",
    "city": "Todsburg"
  },
  {
    "postcode": "73430",
    "city": "Aalen"
  },
  {
    "postcode": "73430",
    "city": "Aalen (Württemberg)"
  },
  {
    "postcode": "73430",
    "city": "Heisenberg"
  },
  {
    "postcode": "73430",
    "city": "Wagenrain"
  },
  {
    "postcode": "73430",
    "city": "Weidenfeld"
  },
  {
    "postcode": "73430",
    "city": "Ostalbkreis"
  },
  {
    "postcode": "73431",
    "city": "Aalen"
  },
  {
    "postcode": "73431",
    "city": "Aalen (Württemberg)"
  },
  {
    "postcode": "73431",
    "city": "Mantelhof"
  },
  {
    "postcode": "73431",
    "city": "Wasseralfingen"
  },
  {
    "postcode": "73431",
    "city": "Ostalbkreis"
  },
  {
    "postcode": "73432",
    "city": "Aalen"
  },
  {
    "postcode": "73432",
    "city": "Aalen (Württemberg)"
  },
  {
    "postcode": "73432",
    "city": "Affalterwang"
  },
  {
    "postcode": "73432",
    "city": "Arlesberg"
  },
  {
    "postcode": "73432",
    "city": "Bernlohe"
  },
  {
    "postcode": "73432",
    "city": "Beuren"
  },
  {
    "postcode": "73432",
    "city": "Brastelburg"
  },
  {
    "postcode": "73432",
    "city": "Ebnat"
  },
  {
    "postcode": "73432",
    "city": "Geiselwang"
  },
  {
    "postcode": "73432",
    "city": "Himmlingen"
  },
  {
    "postcode": "73432",
    "city": "Neukochen"
  },
  {
    "postcode": "73432",
    "city": "Niesitz"
  },
  {
    "postcode": "73432",
    "city": "Simmisweiler"
  },
  {
    "postcode": "73432",
    "city": "Unterkochen"
  },
  {
    "postcode": "73432",
    "city": "Waldhausen"
  },
  {
    "postcode": "73432",
    "city": "Ostalbkreis"
  },
  {
    "postcode": "73433",
    "city": "Aalen"
  },
  {
    "postcode": "73433",
    "city": "Aalen (Württemberg)"
  },
  {
    "postcode": "73433",
    "city": "Affalterried"
  },
  {
    "postcode": "73433",
    "city": "Attenhofen"
  },
  {
    "postcode": "73433",
    "city": "Brausenried"
  },
  {
    "postcode": "73433",
    "city": "Goldshöfe"
  },
  {
    "postcode": "73433",
    "city": "Hofen"
  },
  {
    "postcode": "73433",
    "city": "Oberalfingen"
  },
  {
    "postcode": "73433",
    "city": "Onatsfeld"
  },
  {
    "postcode": "73433",
    "city": "Röthardt"
  },
  {
    "postcode": "73433",
    "city": "Treppach"
  },
  {
    "postcode": "73433",
    "city": "Wasseralfingen"
  },
  {
    "postcode": "73433",
    "city": "Ostalbkreis"
  },
  {
    "postcode": "73433",
    "city": "Fachsenfeld"
  },
  {
    "postcode": "73434",
    "city": "Aalen (Württemberg)"
  },
  {
    "postcode": "73434",
    "city": "Aalen"
  },
  {
    "postcode": "73434",
    "city": "Bernhardsdorf"
  },
  {
    "postcode": "73434",
    "city": "Dewangen"
  },
  {
    "postcode": "73434",
    "city": "Fachsenfeld"
  },
  {
    "postcode": "73434",
    "city": "Faulherrnhof"
  },
  {
    "postcode": "73434",
    "city": "Himmlingsweiler"
  },
  {
    "postcode": "73434",
    "city": "Hüttenhöfe"
  },
  {
    "postcode": "73434",
    "city": "Rauental"
  },
  {
    "postcode": "73434",
    "city": "Rodamsdörfle"
  },
  {
    "postcode": "73434",
    "city": "Rötenberg"
  },
  {
    "postcode": "73434",
    "city": "Rotsold"
  },
  {
    "postcode": "73434",
    "city": "Sandberg Württemberg"
  },
  {
    "postcode": "73434",
    "city": "Sandberg"
  },
  {
    "postcode": "73434",
    "city": "Schloßreute"
  },
  {
    "postcode": "73434",
    "city": "Unterrombach"
  },
  {
    "postcode": "73434",
    "city": "Vogelsang"
  },
  {
    "postcode": "73434",
    "city": "Waiblingen"
  },
  {
    "postcode": "73434",
    "city": "Ostalbkreis"
  },
  {
    "postcode": "73434",
    "city": "Untersiegenbühl"
  },
  {
    "postcode": "73434",
    "city": "Mädle"
  },
  {
    "postcode": "73441",
    "city": "Aufhausen"
  },
  {
    "postcode": "73441",
    "city": "Baldern"
  },
  {
    "postcode": "73441",
    "city": "Bopfingen"
  },
  {
    "postcode": "73441",
    "city": "Dorfen"
  },
  {
    "postcode": "73441",
    "city": "Flochberg"
  },
  {
    "postcode": "73441",
    "city": "Härtsfeldhausen"
  },
  {
    "postcode": "73441",
    "city": "Hohenberg"
  },
  {
    "postcode": "73441",
    "city": "Hohenlohe bei Bopfingen"
  },
  {
    "postcode": "73441",
    "city": "Itzlingen"
  },
  {
    "postcode": "73441",
    "city": "Kerkingen"
  },
  {
    "postcode": "73441",
    "city": "Meisterstall"
  },
  {
    "postcode": "73441",
    "city": "Michelfeld"
  },
  {
    "postcode": "73441",
    "city": "Oberdorf"
  },
  {
    "postcode": "73441",
    "city": "Oberriffingen"
  },
  {
    "postcode": "73441",
    "city": "Osterholz bei Bopfingen"
  },
  {
    "postcode": "73441",
    "city": "Schloßberg"
  },
  {
    "postcode": "73441",
    "city": "Trochtelfingen"
  },
  {
    "postcode": "73441",
    "city": "Unterriffingen"
  },
  {
    "postcode": "73441",
    "city": "Ostalbkreis"
  },
  {
    "postcode": "73441",
    "city": "Heerhof"
  },
  {
    "postcode": "73441",
    "city": "Hohenlohe"
  },
  {
    "postcode": "73441",
    "city": "Kirchheim"
  },
  {
    "postcode": "73441",
    "city": "Osterholz"
  },
  {
    "postcode": "73441",
    "city": "Auf der Kappel"
  },
  {
    "postcode": "73441",
    "city": "Baiermühle"
  },
  {
    "postcode": "73441",
    "city": "Blankenhöfe"
  },
  {
    "postcode": "73441",
    "city": "Zimmerstetten"
  },
  {
    "postcode": "73441",
    "city": "Edelmühle"
  },
  {
    "postcode": "73441",
    "city": "Hochfeld"
  },
  {
    "postcode": "73441",
    "city": "Holzmühle"
  },
  {
    "postcode": "73441",
    "city": "Kalkofen"
  },
  {
    "postcode": "73441",
    "city": "Untere Röhrbachmühle"
  },
  {
    "postcode": "73441",
    "city": "Obere Röhrbachmühle"
  },
  {
    "postcode": "73441",
    "city": "Obere Schlägweidmühle"
  },
  {
    "postcode": "73441",
    "city": "Oberes Johannisfeld"
  },
  {
    "postcode": "73441",
    "city": "Ungnad"
  },
  {
    "postcode": "73441",
    "city": "Untere Schlägweidmühle"
  },
  {
    "postcode": "73441",
    "city": "Kirchheim am Ries"
  },
  {
    "postcode": "73447",
    "city": "Oberkochen"
  },
  {
    "postcode": "73447",
    "city": "Ostalbkreis"
  },
  {
    "postcode": "73450",
    "city": "Dehlingen"
  },
  {
    "postcode": "73450",
    "city": "Dorfmerkingen"
  },
  {
    "postcode": "73450",
    "city": "Dossingen"
  },
  {
    "postcode": "73450",
    "city": "Elchingen"
  },
  {
    "postcode": "73450",
    "city": "Fluertshäuserhof"
  },
  {
    "postcode": "73450",
    "city": "Hohlenstein"
  },
  {
    "postcode": "73450",
    "city": "Kloster Neresheim"
  },
  {
    "postcode": "73450",
    "city": "Kösingen"
  },
  {
    "postcode": "73450",
    "city": "Mörtingen"
  },
  {
    "postcode": "73450",
    "city": "Neresheim"
  },
  {
    "postcode": "73450",
    "city": "Ohmenheim"
  },
  {
    "postcode": "73450",
    "city": "Schweindorf"
  },
  {
    "postcode": "73450",
    "city": "Stetten"
  },
  {
    "postcode": "73450",
    "city": "Weilermerkingen"
  },
  {
    "postcode": "73450",
    "city": "Ostalbkreis"
  },
  {
    "postcode": "73450",
    "city": "Hochstatter Hof"
  },
  {
    "postcode": "73450",
    "city": "Sägmühle"
  },
  {
    "postcode": "73450",
    "city": "Maueräcker"
  },
  {
    "postcode": "73450",
    "city": "Eichplatte"
  },
  {
    "postcode": "73450",
    "city": "Eichhof"
  },
  {
    "postcode": "73450",
    "city": "Fleinersloh"
  },
  {
    "postcode": "73450",
    "city": "Gallusmühle"
  },
  {
    "postcode": "73450",
    "city": "Hölzleshof"
  },
  {
    "postcode": "73450",
    "city": "Haldenhöfe"
  },
  {
    "postcode": "73450",
    "city": "Hinteres Härdtle"
  },
  {
    "postcode": "73450",
    "city": "Härdtlehof"
  },
  {
    "postcode": "73450",
    "city": "Härtsfeldwerke"
  },
  {
    "postcode": "73450",
    "city": "Lixhöfe"
  },
  {
    "postcode": "73450",
    "city": "Steinmühle"
  },
  {
    "postcode": "73453",
    "city": "Abtsgmünd"
  },
  {
    "postcode": "73453",
    "city": "Adelmannsfelden"
  },
  {
    "postcode": "73453",
    "city": "Algishofen"
  },
  {
    "postcode": "73453",
    "city": "Altschmiede"
  },
  {
    "postcode": "73453",
    "city": "Berg"
  },
  {
    "postcode": "73453",
    "city": "Billingshalden"
  },
  {
    "postcode": "73453",
    "city": "Börrat"
  },
  {
    "postcode": "73453",
    "city": "Burren"
  },
  {
    "postcode": "73453",
    "city": "Dinkbühl"
  },
  {
    "postcode": "73453",
    "city": "Fach"
  },
  {
    "postcode": "73453",
    "city": "Haag"
  },
  {
    "postcode": "73453",
    "city": "Hangendenbuch"
  },
  {
    "postcode": "73453",
    "city": "Hinterbüchelberg"
  },
  {
    "postcode": "73453",
    "city": "Hohenstadt"
  },
  {
    "postcode": "73453",
    "city": "Laubach"
  },
  {
    "postcode": "73453",
    "city": "Leinroden"
  },
  {
    "postcode": "73453",
    "city": "Lutstrut"
  },
  {
    "postcode": "73453",
    "city": "Neubronn"
  },
  {
    "postcode": "73453",
    "city": "Neuschmiede"
  },
  {
    "postcode": "73453",
    "city": "Pommertsweiler"
  },
  {
    "postcode": "73453",
    "city": "Reichertshofen"
  },
  {
    "postcode": "73453",
    "city": "Roßnagel"
  },
  {
    "postcode": "73453",
    "city": "Rötenbach bei Abtsgmünd"
  },
  {
    "postcode": "73453",
    "city": "Rötenberg"
  },
  {
    "postcode": "73453",
    "city": "Schäufele"
  },
  {
    "postcode": "73453",
    "city": "Schleifhäusle bei Abtsgmünd"
  },
  {
    "postcode": "73453",
    "city": "Seelach"
  },
  {
    "postcode": "73453",
    "city": "Straßdorf"
  },
  {
    "postcode": "73453",
    "city": "Untergröningen"
  },
  {
    "postcode": "73453",
    "city": "Vorderbüchelberg"
  },
  {
    "postcode": "73453",
    "city": "Wegstetten"
  },
  {
    "postcode": "73453",
    "city": "Wildenhäusle"
  },
  {
    "postcode": "73453",
    "city": "Wildenhof"
  },
  {
    "postcode": "73453",
    "city": "Wilflingen"
  },
  {
    "postcode": "73453",
    "city": "Wöllstein"
  },
  {
    "postcode": "73453",
    "city": "Zimmerberg"
  },
  {
    "postcode": "73453",
    "city": "Ostalbkreis"
  },
  {
    "postcode": "73453",
    "city": "Brandhof"
  },
  {
    "postcode": "73453",
    "city": "Fuchshäusle"
  },
  {
    "postcode": "73453",
    "city": "Langenhalde"
  },
  {
    "postcode": "73453",
    "city": "Obersiegenbühl"
  },
  {
    "postcode": "73453",
    "city": "Rötenbach"
  },
  {
    "postcode": "73453",
    "city": "Schlauchhof"
  },
  {
    "postcode": "73453",
    "city": "Schleifhäusle"
  },
  {
    "postcode": "73453",
    "city": "Suhhaus"
  },
  {
    "postcode": "73453",
    "city": "Wahlenhalden"
  },
  {
    "postcode": "73453",
    "city": "Zanken"
  },
  {
    "postcode": "73453",
    "city": "Altweiher"
  },
  {
    "postcode": "73453",
    "city": "Amselhöfle"
  },
  {
    "postcode": "73453",
    "city": "Bernhardshof"
  },
  {
    "postcode": "73453",
    "city": "Schneiderhaus"
  },
  {
    "postcode": "73453",
    "city": "Brastelhof"
  },
  {
    "postcode": "73453",
    "city": "Butzenberg"
  },
  {
    "postcode": "73453",
    "city": "Christhäuser"
  },
  {
    "postcode": "73453",
    "city": "Eiderhalden"
  },
  {
    "postcode": "73453",
    "city": "Fischbach"
  },
  {
    "postcode": "73453",
    "city": "Fischhaus"
  },
  {
    "postcode": "73453",
    "city": "Frauenhof"
  },
  {
    "postcode": "73453",
    "city": "Gschwendhof"
  },
  {
    "postcode": "73453",
    "city": "Höfenhölzle"
  },
  {
    "postcode": "73453",
    "city": "Hammerschmiede"
  },
  {
    "postcode": "73453",
    "city": "Herrenfeld"
  },
  {
    "postcode": "73453",
    "city": "Herrenwald"
  },
  {
    "postcode": "73453",
    "city": "Hohenhöfen"
  },
  {
    "postcode": "73453",
    "city": "Köhrhof"
  },
  {
    "postcode": "73453",
    "city": "Kauhof"
  },
  {
    "postcode": "73453",
    "city": "Kellerhaus"
  },
  {
    "postcode": "73453",
    "city": "Kocherhof"
  },
  {
    "postcode": "73453",
    "city": "Maisenhäuser"
  },
  {
    "postcode": "73453",
    "city": "Mittelhohlenbach"
  },
  {
    "postcode": "73453",
    "city": "Neumühle"
  },
  {
    "postcode": "73453",
    "city": "Oberhohlenbach"
  },
  {
    "postcode": "73453",
    "city": "Vorderer Rötenbach"
  },
  {
    "postcode": "73453",
    "city": "Öchsenhof"
  },
  {
    "postcode": "73453",
    "city": "Ölmühle"
  },
  {
    "postcode": "73453",
    "city": "Schafhäuser"
  },
  {
    "postcode": "73453",
    "city": "Spatzenmühle"
  },
  {
    "postcode": "73453",
    "city": "Spiegelrain"
  },
  {
    "postcode": "73453",
    "city": "Stein"
  },
  {
    "postcode": "73453",
    "city": "Tyrol"
  },
  {
    "postcode": "73453",
    "city": "Ziegelhütte"
  },
  {
    "postcode": "73453",
    "city": "Zimmerbergmühle"
  },
  {
    "postcode": "73457",
    "city": "Dauerwang"
  },
  {
    "postcode": "73457",
    "city": "Essingen"
  },
  {
    "postcode": "73457",
    "city": "Essingen (Württemberg)"
  },
  {
    "postcode": "73457",
    "city": "Forst"
  },
  {
    "postcode": "73457",
    "city": "Hohenroden"
  },
  {
    "postcode": "73457",
    "city": "Lauterburg"
  },
  {
    "postcode": "73457",
    "city": "Oberkolbenhof"
  },
  {
    "postcode": "73457",
    "city": "Unterkolbenhof"
  },
  {
    "postcode": "73457",
    "city": "Ostalbkreis"
  },
  {
    "postcode": "73457",
    "city": "Birkhof"
  },
  {
    "postcode": "73457",
    "city": "Zollhof"
  },
  {
    "postcode": "73457",
    "city": "Ölmühle"
  },
  {
    "postcode": "73457",
    "city": "Hermannsfeld"
  },
  {
    "postcode": "73457",
    "city": "Lauchklinge"
  },
  {
    "postcode": "73457",
    "city": "Lehbach"
  },
  {
    "postcode": "73457",
    "city": "Prinzeck"
  },
  {
    "postcode": "73457",
    "city": "Schelhoppen"
  },
  {
    "postcode": "73457",
    "city": "Schnaitberg"
  },
  {
    "postcode": "73457",
    "city": "Schwegelhof"
  },
  {
    "postcode": "73457",
    "city": "Talhof"
  },
  {
    "postcode": "73457",
    "city": "Tauchenweiler"
  },
  {
    "postcode": "73457",
    "city": "Teußenberg"
  },
  {
    "postcode": "73457",
    "city": "Weinschenkerhof"
  },
  {
    "postcode": "73457",
    "city": "Zollhaus"
  },
  {
    "postcode": "73460",
    "city": "Hüttlingen"
  },
  {
    "postcode": "73460",
    "city": "Hüttlingen (Württemberg)"
  },
  {
    "postcode": "73460",
    "city": "Mittellengenfeld"
  },
  {
    "postcode": "73460",
    "city": "Niederalfingen"
  },
  {
    "postcode": "73460",
    "city": "Oberlengenfeld"
  },
  {
    "postcode": "73460",
    "city": "Seitsberg"
  },
  {
    "postcode": "73460",
    "city": "Sulzdorf"
  },
  {
    "postcode": "73460",
    "city": "Ostalbkreis"
  },
  {
    "postcode": "73460",
    "city": "Albanus"
  },
  {
    "postcode": "73460",
    "city": "Am Kaiberg"
  },
  {
    "postcode": "73460",
    "city": "Unterlengenfeld"
  },
  {
    "postcode": "73460",
    "city": "Haldenschafhaus"
  },
  {
    "postcode": "73460",
    "city": "Halmeshof"
  },
  {
    "postcode": "73460",
    "city": "Hochfeld"
  },
  {
    "postcode": "73460",
    "city": "Lachenschafhaus"
  },
  {
    "postcode": "73460",
    "city": "Reuthof"
  },
  {
    "postcode": "73463",
    "city": "Baiershofen"
  },
  {
    "postcode": "73463",
    "city": "Berg"
  },
  {
    "postcode": "73463",
    "city": "Finkenweiler"
  },
  {
    "postcode": "73463",
    "city": "Forst und Vogel"
  },
  {
    "postcode": "73463",
    "city": "Frankenreute"
  },
  {
    "postcode": "73463",
    "city": "Immenhofen"
  },
  {
    "postcode": "73463",
    "city": "Jagsthausen"
  },
  {
    "postcode": "73463",
    "city": "Lindorf"
  },
  {
    "postcode": "73463",
    "city": "Lippach"
  },
  {
    "postcode": "73463",
    "city": "Mädle"
  },
  {
    "postcode": "73463",
    "city": "Reichenbach"
  },
  {
    "postcode": "73463",
    "city": "Wagenhofen"
  },
  {
    "postcode": "73463",
    "city": "Westerhofen"
  },
  {
    "postcode": "73463",
    "city": "Westhausen (Württemberg)"
  },
  {
    "postcode": "73463",
    "city": "Westhausen"
  },
  {
    "postcode": "73463",
    "city": "Ostalbkreis"
  },
  {
    "postcode": "73463",
    "city": "Amselhof"
  },
  {
    "postcode": "73463",
    "city": "Beerhalden"
  },
  {
    "postcode": "73463",
    "city": "Bohler"
  },
  {
    "postcode": "73463",
    "city": "Erbisäcker"
  },
  {
    "postcode": "73463",
    "city": "Faulenmühle"
  },
  {
    "postcode": "73463",
    "city": "Freudenhöfe"
  },
  {
    "postcode": "73463",
    "city": "Hundslohe"
  },
  {
    "postcode": "73463",
    "city": "Jagsthof"
  },
  {
    "postcode": "73463",
    "city": "Kressenhof"
  },
  {
    "postcode": "73463",
    "city": "Stadt Lauchheim"
  },
  {
    "postcode": "73463",
    "city": "Maihof"
  },
  {
    "postcode": "73463",
    "city": "Ruital"
  },
  {
    "postcode": "73463",
    "city": "Stockmühle"
  },
  {
    "postcode": "73463",
    "city": "Weidach"
  },
  {
    "postcode": "73466",
    "city": "Banzenmühle"
  },
  {
    "postcode": "73466",
    "city": "Gromberg"
  },
  {
    "postcode": "73466",
    "city": "Heiligenholz"
  },
  {
    "postcode": "73466",
    "city": "Hettelsberg"
  },
  {
    "postcode": "73466",
    "city": "Hülen"
  },
  {
    "postcode": "73466",
    "city": "Kahlhöfe"
  },
  {
    "postcode": "73466",
    "city": "Kapfenburg"
  },
  {
    "postcode": "73466",
    "city": "Lauchheim"
  },
  {
    "postcode": "73466",
    "city": "Röttingen"
  },
  {
    "postcode": "73466",
    "city": "Schönberg"
  },
  {
    "postcode": "73466",
    "city": "Stetten"
  },
  {
    "postcode": "73466",
    "city": "Ostalbkreis"
  },
  {
    "postcode": "73466",
    "city": "Berghof"
  },
  {
    "postcode": "73466",
    "city": "Bühlhof"
  },
  {
    "postcode": "73466",
    "city": "Fuchsmühle"
  },
  {
    "postcode": "73466",
    "city": "Mohrenstetten"
  },
  {
    "postcode": "73466",
    "city": "Sonnenhof"
  },
  {
    "postcode": "73467",
    "city": "Benzenzimmern"
  },
  {
    "postcode": "73467",
    "city": "Dirgenheim"
  },
  {
    "postcode": "73467",
    "city": "Jagstheim"
  },
  {
    "postcode": "73467",
    "city": "Kirchheim"
  },
  {
    "postcode": "73467",
    "city": "Kirchheim am Ries"
  },
  {
    "postcode": "73467",
    "city": "Ostalbkreis"
  },
  {
    "postcode": "73467",
    "city": "Weihermühle"
  },
  {
    "postcode": "73469",
    "city": "Altenbürg"
  },
  {
    "postcode": "73469",
    "city": "Goldburghausen"
  },
  {
    "postcode": "73469",
    "city": "Pflaumloch"
  },
  {
    "postcode": "73469",
    "city": "Riesbürg"
  },
  {
    "postcode": "73469",
    "city": "Utzmemmingen"
  },
  {
    "postcode": "73469",
    "city": "Ostalbkreis"
  },
  {
    "postcode": "73469",
    "city": "Alte Bürg"
  },
  {
    "postcode": "73469",
    "city": "Ringlesmühle"
  },
  {
    "postcode": "73469",
    "city": "Stadt Nördlingen"
  },
  {
    "postcode": "73469",
    "city": "Schäferäcker"
  },
  {
    "postcode": "73479",
    "city": "Altmannsrot"
  },
  {
    "postcode": "73479",
    "city": "Altmannsweiler"
  },
  {
    "postcode": "73479",
    "city": "Beersbach"
  },
  {
    "postcode": "73479",
    "city": "Braune Hardt"
  },
  {
    "postcode": "73479",
    "city": "Buchhausen"
  },
  {
    "postcode": "73479",
    "city": "Dettenroden"
  },
  {
    "postcode": "73479",
    "city": "Eggenrot"
  },
  {
    "postcode": "73479",
    "city": "Eigenzell"
  },
  {
    "postcode": "73479",
    "city": "Elberschwenden"
  },
  {
    "postcode": "73479",
    "city": "Ellwangen (Jagst)"
  },
  {
    "postcode": "73479",
    "city": "Ellwangen"
  },
  {
    "postcode": "73479",
    "city": "Engelhardsweiler"
  },
  {
    "postcode": "73479",
    "city": "Erpfental"
  },
  {
    "postcode": "73479",
    "city": "Espachweiler"
  },
  {
    "postcode": "73479",
    "city": "Griesweiler"
  },
  {
    "postcode": "73479",
    "city": "Haisterhofen"
  },
  {
    "postcode": "73479",
    "city": "Halheim"
  },
  {
    "postcode": "73479",
    "city": "Hardt"
  },
  {
    "postcode": "73479",
    "city": "Hinterlengenberg"
  },
  {
    "postcode": "73479",
    "city": "Hirlbach"
  },
  {
    "postcode": "73479",
    "city": "Hochgreut"
  },
  {
    "postcode": "73479",
    "city": "Hofstetten"
  },
  {
    "postcode": "73479",
    "city": "Holbach"
  },
  {
    "postcode": "73479",
    "city": "Kalkhöfe"
  },
  {
    "postcode": "73479",
    "city": "Killingen"
  },
  {
    "postcode": "73479",
    "city": "Neunheim"
  },
  {
    "postcode": "73479",
    "city": "Neunstadt"
  },
  {
    "postcode": "73479",
    "city": "Pfahlheim"
  },
  {
    "postcode": "73479",
    "city": "Rattstadt"
  },
  {
    "postcode": "73479",
    "city": "Rindelbach"
  },
  {
    "postcode": "73479",
    "city": "Röhlingen"
  },
  {
    "postcode": "73479",
    "city": "Rotenbach"
  },
  {
    "postcode": "73479",
    "city": "Rötlen"
  },
  {
    "postcode": "73479",
    "city": "Schloß ob Ellwangen"
  },
  {
    "postcode": "73479",
    "city": "Schönau"
  },
  {
    "postcode": "73479",
    "city": "Schönenberg Gemeinde Ellwangen"
  },
  {
    "postcode": "73479",
    "city": "Schönenberg"
  },
  {
    "postcode": "73479",
    "city": "Schrezheim"
  },
  {
    "postcode": "73479",
    "city": "Steigberg"
  },
  {
    "postcode": "73479",
    "city": "Stocken"
  },
  {
    "postcode": "73479",
    "city": "Ostalbkreis"
  },
  {
    "postcode": "73479",
    "city": "Adlersteige"
  },
  {
    "postcode": "73479",
    "city": "Jagstzell"
  },
  {
    "postcode": "73479",
    "city": "Industriegebiet Neunheim/Neunstadt"
  },
  {
    "postcode": "73479",
    "city": "Kellerhaus"
  },
  {
    "postcode": "73479",
    "city": "Bahnmühle"
  },
  {
    "postcode": "73479",
    "city": "Borsthof"
  },
  {
    "postcode": "73479",
    "city": "Schleifhäusle"
  },
  {
    "postcode": "73479",
    "city": "Hammermühle"
  },
  {
    "postcode": "73479",
    "city": "Hinterer Spitalhof"
  },
  {
    "postcode": "73479",
    "city": "Hintersteinbühl"
  },
  {
    "postcode": "73479",
    "city": "Kettenschmiede"
  },
  {
    "postcode": "73479",
    "city": "Stockensägmühle"
  },
  {
    "postcode": "73479",
    "city": "Lindenhäusle"
  },
  {
    "postcode": "73479",
    "city": "Maus"
  },
  {
    "postcode": "73479",
    "city": "Rabenhof"
  },
  {
    "postcode": "73479",
    "city": "Vorderlengenberg"
  },
  {
    "postcode": "73479",
    "city": "Scheuenhof"
  },
  {
    "postcode": "73479",
    "city": "Scheuensägmühle"
  },
  {
    "postcode": "73479",
    "city": "Gemeinde Rainau"
  },
  {
    "postcode": "73479",
    "city": "Schrezheimer Mühle"
  },
  {
    "postcode": "73479",
    "city": "Silberburg"
  },
  {
    "postcode": "73479",
    "city": "Süßhof"
  },
  {
    "postcode": "73479",
    "city": "Treppelmühle"
  },
  {
    "postcode": "73479",
    "city": "Wagnershof"
  },
  {
    "postcode": "73479",
    "city": "Industriegebiet Neunheim"
  },
  {
    "postcode": "73485",
    "city": "Ellrichsbronn"
  },
  {
    "postcode": "73485",
    "city": "Geislingen"
  },
  {
    "postcode": "73485",
    "city": "Harthausen"
  },
  {
    "postcode": "73485",
    "city": "Hundslohe"
  },
  {
    "postcode": "73485",
    "city": "Nordhausen"
  },
  {
    "postcode": "73485",
    "city": "Oberschneidheim"
  },
  {
    "postcode": "73485",
    "city": "Oberwilflingen"
  },
  {
    "postcode": "73485",
    "city": "Sechtenhausen"
  },
  {
    "postcode": "73485",
    "city": "Unterschneidheim"
  },
  {
    "postcode": "73485",
    "city": "Unterwilflingen"
  },
  {
    "postcode": "73485",
    "city": "Walxheim"
  },
  {
    "postcode": "73485",
    "city": "Wöhrsberg"
  },
  {
    "postcode": "73485",
    "city": "Wössingen"
  },
  {
    "postcode": "73485",
    "city": "Zipplingen"
  },
  {
    "postcode": "73485",
    "city": "Zöbingen"
  },
  {
    "postcode": "73485",
    "city": "Ostalbkreis"
  },
  {
    "postcode": "73485",
    "city": "Heidhöfe"
  },
  {
    "postcode": "73485",
    "city": "Heidmühle"
  },
  {
    "postcode": "73486",
    "city": "Adelmannsfelden"
  },
  {
    "postcode": "73486",
    "city": "Bühler"
  },
  {
    "postcode": "73486",
    "city": "Haid"
  },
  {
    "postcode": "73486",
    "city": "Mittelwald"
  },
  {
    "postcode": "73486",
    "city": "Ottenhof"
  },
  {
    "postcode": "73486",
    "city": "Stöcken"
  },
  {
    "postcode": "73486",
    "city": "Vorderwald"
  },
  {
    "postcode": "73486",
    "city": "Wendenhof"
  },
  {
    "postcode": "73486",
    "city": "Ostalbkreis"
  },
  {
    "postcode": "73486",
    "city": "Eichhornhof"
  },
  {
    "postcode": "73486",
    "city": "Kuderberg"
  },
  {
    "postcode": "73486",
    "city": "Metzelgehrenhof"
  },
  {
    "postcode": "73486",
    "city": "Mäderhof"
  },
  {
    "postcode": "73486",
    "city": "Patrizenhaus"
  },
  {
    "postcode": "73486",
    "city": "Stöckener Sägmühle"
  },
  {
    "postcode": "73488",
    "city": "Althueb"
  },
  {
    "postcode": "73488",
    "city": "Bautzenhof"
  },
  {
    "postcode": "73488",
    "city": "Breitenbach"
  },
  {
    "postcode": "73488",
    "city": "Eiberg"
  },
  {
    "postcode": "73488",
    "city": "Ellenberg"
  },
  {
    "postcode": "73488",
    "city": "Ellenberg (Württemberg)"
  },
  {
    "postcode": "73488",
    "city": "Georgenstadt"
  },
  {
    "postcode": "73488",
    "city": "Haselbach"
  },
  {
    "postcode": "73488",
    "city": "Häsle"
  },
  {
    "postcode": "73488",
    "city": "Hintersteinbach"
  },
  {
    "postcode": "73488",
    "city": "Kraßbronn"
  },
  {
    "postcode": "73488",
    "city": "Muckental"
  },
  {
    "postcode": "73488",
    "city": "Neuhueb"
  },
  {
    "postcode": "73488",
    "city": "Ostalbkreis"
  },
  {
    "postcode": "73488",
    "city": "Birnhäusle"
  },
  {
    "postcode": "73488",
    "city": "Dietlesmühle"
  },
  {
    "postcode": "73488",
    "city": "Eiberger Sägmühle"
  },
  {
    "postcode": "73488",
    "city": "Gerhof"
  },
  {
    "postcode": "73488",
    "city": "Rothof"
  },
  {
    "postcode": "73488",
    "city": "Schweizerhof"
  },
  {
    "postcode": "73488",
    "city": "Ziegelhütte"
  },
  {
    "postcode": "73488",
    "city": "Zwiebelshof"
  },
  {
    "postcode": "73489",
    "city": "Dankoltsweiler"
  },
  {
    "postcode": "73489",
    "city": "Dietrichsweiler"
  },
  {
    "postcode": "73489",
    "city": "Eichenrain"
  },
  {
    "postcode": "73489",
    "city": "Grünberg"
  },
  {
    "postcode": "73489",
    "city": "Hegenberg"
  },
  {
    "postcode": "73489",
    "city": "Jagstzell"
  },
  {
    "postcode": "73489",
    "city": "Knausberg"
  },
  {
    "postcode": "73489",
    "city": "Riegelhof"
  },
  {
    "postcode": "73489",
    "city": "Ropfershof"
  },
  {
    "postcode": "73489",
    "city": "Rot"
  },
  {
    "postcode": "73489",
    "city": "Schweighausen"
  },
  {
    "postcode": "73489",
    "city": "Sperrhof"
  },
  {
    "postcode": "73489",
    "city": "Weiler"
  },
  {
    "postcode": "73489",
    "city": "Winterberg"
  },
  {
    "postcode": "73489",
    "city": "Ostalbkreis"
  },
  {
    "postcode": "73489",
    "city": "Ölmühle"
  },
  {
    "postcode": "73489",
    "city": "Bühlhof"
  },
  {
    "postcode": "73489",
    "city": "Dankoltsweiler Sägmühle"
  },
  {
    "postcode": "73489",
    "city": "Kellerhof"
  },
  {
    "postcode": "73489",
    "city": "Kreuthof"
  },
  {
    "postcode": "73489",
    "city": "Orrot"
  },
  {
    "postcode": "73489",
    "city": "Renneckermühle"
  },
  {
    "postcode": "73489",
    "city": "Rotbachsägmühle"
  },
  {
    "postcode": "73489",
    "city": "Rothof"
  },
  {
    "postcode": "73489",
    "city": "Spielegert"
  },
  {
    "postcode": "73491",
    "city": "Bronnen"
  },
  {
    "postcode": "73491",
    "city": "Ebnat"
  },
  {
    "postcode": "73491",
    "city": "Gaishardt"
  },
  {
    "postcode": "73491",
    "city": "Leinenfirst"
  },
  {
    "postcode": "73491",
    "city": "Neuler"
  },
  {
    "postcode": "73491",
    "city": "Ramsenstrut"
  },
  {
    "postcode": "73491",
    "city": "Schwenningen"
  },
  {
    "postcode": "73491",
    "city": "Ostalbkreis"
  },
  {
    "postcode": "73491",
    "city": "Binderhof"
  },
  {
    "postcode": "73491",
    "city": "Burghardsmühle"
  },
  {
    "postcode": "73491",
    "city": "Himmelreich"
  },
  {
    "postcode": "73491",
    "city": "Haldenhof"
  },
  {
    "postcode": "73491",
    "city": "Oberer Kohlwasen"
  },
  {
    "postcode": "73491",
    "city": "Pfaffenhölzle"
  },
  {
    "postcode": "73491",
    "city": "Schönberger Hof"
  },
  {
    "postcode": "73491",
    "city": "Unterer Kohlwasen"
  },
  {
    "postcode": "73492",
    "city": "Buch"
  },
  {
    "postcode": "73492",
    "city": "Dalkingen"
  },
  {
    "postcode": "73492",
    "city": "Rainau (Württemberg)"
  },
  {
    "postcode": "73492",
    "city": "Rainau"
  },
  {
    "postcode": "73492",
    "city": "Saverwang"
  },
  {
    "postcode": "73492",
    "city": "Schwabsberg"
  },
  {
    "postcode": "73492",
    "city": "Weiler"
  },
  {
    "postcode": "73492",
    "city": "Ostalbkreis"
  },
  {
    "postcode": "73494",
    "city": "Betzenhof"
  },
  {
    "postcode": "73494",
    "city": "Gauchshausen"
  },
  {
    "postcode": "73494",
    "city": "Geiselrot"
  },
  {
    "postcode": "73494",
    "city": "Hinterbrand"
  },
  {
    "postcode": "73494",
    "city": "Hochtänn"
  },
  {
    "postcode": "73494",
    "city": "Hohenberg"
  },
  {
    "postcode": "73494",
    "city": "Hummelsweiler"
  },
  {
    "postcode": "73494",
    "city": "Hütten"
  },
  {
    "postcode": "73494",
    "city": "Hüttenhof"
  },
  {
    "postcode": "73494",
    "city": "Lindenhof"
  },
  {
    "postcode": "73494",
    "city": "Ludwigsmühle"
  },
  {
    "postcode": "73494",
    "city": "Matzengehren"
  },
  {
    "postcode": "73494",
    "city": "Rosenberg"
  },
  {
    "postcode": "73494",
    "city": "Rosenberg (Württemberg)"
  },
  {
    "postcode": "73494",
    "city": "Schimmelhof"
  },
  {
    "postcode": "73494",
    "city": "Unterknausen"
  },
  {
    "postcode": "73494",
    "city": "Willa"
  },
  {
    "postcode": "73494",
    "city": "Zollhof"
  },
  {
    "postcode": "73494",
    "city": "Zumholz"
  },
  {
    "postcode": "73494",
    "city": "Ostalbkreis"
  },
  {
    "postcode": "73494",
    "city": "Birkhof"
  },
  {
    "postcode": "73494",
    "city": "Dieselhof"
  },
  {
    "postcode": "73494",
    "city": "Farbhäusle"
  },
  {
    "postcode": "73494",
    "city": "Ohrmühle"
  },
  {
    "postcode": "73494",
    "city": "Herlingshof"
  },
  {
    "postcode": "73494",
    "city": "Herlingssägmühle"
  },
  {
    "postcode": "73494",
    "city": "Holzmühle"
  },
  {
    "postcode": "73494",
    "city": "Schüsselhof"
  },
  {
    "postcode": "73494",
    "city": "Spitzensägmühle"
  },
  {
    "postcode": "73494",
    "city": "Tannenbühl"
  },
  {
    "postcode": "73494",
    "city": "Uhlenhof"
  },
  {
    "postcode": "73495",
    "city": "Birkenzell"
  },
  {
    "postcode": "73495",
    "city": "Dambach"
  },
  {
    "postcode": "73495",
    "city": "Eck am Berg"
  },
  {
    "postcode": "73495",
    "city": "Gaxhardt"
  },
  {
    "postcode": "73495",
    "city": "Gerau Ostalbkr"
  },
  {
    "postcode": "73495",
    "city": "Gerau"
  },
  {
    "postcode": "73495",
    "city": "Kreuthof"
  },
  {
    "postcode": "73495",
    "city": "Niederroden"
  },
  {
    "postcode": "73495",
    "city": "Oberbronnen"
  },
  {
    "postcode": "73495",
    "city": "Oberzell"
  },
  {
    "postcode": "73495",
    "city": "Regelsweiler"
  },
  {
    "postcode": "73495",
    "city": "Stillau"
  },
  {
    "postcode": "73495",
    "city": "Stödtlen"
  },
  {
    "postcode": "73495",
    "city": "Strambach"
  },
  {
    "postcode": "73495",
    "city": "Tragenroden"
  },
  {
    "postcode": "73495",
    "city": "Unterbronnen"
  },
  {
    "postcode": "73495",
    "city": "Weiler"
  },
  {
    "postcode": "73495",
    "city": "Ostalbkreis"
  },
  {
    "postcode": "73495",
    "city": "Eck"
  },
  {
    "postcode": "73495",
    "city": "Freihof"
  },
  {
    "postcode": "73495",
    "city": "Merzenhof"
  },
  {
    "postcode": "73495",
    "city": "Kaltenwag"
  },
  {
    "postcode": "73495",
    "city": "Maxenhof"
  },
  {
    "postcode": "73495",
    "city": "Schnepfenhof"
  },
  {
    "postcode": "73495",
    "city": "Schnepfenmühle"
  },
  {
    "postcode": "73495",
    "city": "Ziegelhütte"
  },
  {
    "postcode": "73497",
    "city": "Bergheim"
  },
  {
    "postcode": "73497",
    "city": "Bleichroden"
  },
  {
    "postcode": "73497",
    "city": "Forstweiler"
  },
  {
    "postcode": "73497",
    "city": "Kreuthof"
  },
  {
    "postcode": "73497",
    "city": "Riepach"
  },
  {
    "postcode": "73497",
    "city": "Sederndorf"
  },
  {
    "postcode": "73497",
    "city": "Tannhausen"
  },
  {
    "postcode": "73497",
    "city": "Tannhausen bei Ellwangen Jagst"
  },
  {
    "postcode": "73497",
    "city": "Tannhausen bei Ellwangen"
  },
  {
    "postcode": "73497",
    "city": "Ostalbkreis"
  },
  {
    "postcode": "73497",
    "city": "Hagenbucherhof"
  },
  {
    "postcode": "73499",
    "city": "Bösenlustnau"
  },
  {
    "postcode": "73499",
    "city": "Dürrenstetten"
  },
  {
    "postcode": "73499",
    "city": "Grobenhof"
  },
  {
    "postcode": "73499",
    "city": "Grünstädt"
  },
  {
    "postcode": "73499",
    "city": "Konradsbronn"
  },
  {
    "postcode": "73499",
    "city": "Schönbronn"
  },
  {
    "postcode": "73499",
    "city": "Wört"
  },
  {
    "postcode": "73499",
    "city": "Wört (Württemberg)"
  },
  {
    "postcode": "73499",
    "city": "Ostalbkreis"
  },
  {
    "postcode": "73499",
    "city": "Aumühle"
  },
  {
    "postcode": "73499",
    "city": "Brombach"
  },
  {
    "postcode": "73499",
    "city": "Gaugenmühle"
  },
  {
    "postcode": "73499",
    "city": "Hirschhof"
  },
  {
    "postcode": "73499",
    "city": "Häringssägmühle"
  },
  {
    "postcode": "73499",
    "city": "Jammermühle"
  },
  {
    "postcode": "73499",
    "city": "Königsroter Mühle"
  },
  {
    "postcode": "73499",
    "city": "Mittelmeizen"
  },
  {
    "postcode": "73499",
    "city": "Pfladermühle"
  },
  {
    "postcode": "73499",
    "city": "Spitalhof"
  },
  {
    "postcode": "73499",
    "city": "Springhof"
  },
  {
    "postcode": "73525",
    "city": "Schwäbisch Gmünd"
  },
  {
    "postcode": "73525",
    "city": "Ostalbkreis"
  },
  {
    "postcode": "73527",
    "city": "Großdeinbach"
  },
  {
    "postcode": "73527",
    "city": "Hangendeinbach"
  },
  {
    "postcode": "73527",
    "city": "Herlikofen"
  },
  {
    "postcode": "73527",
    "city": "Hirschmühle"
  },
  {
    "postcode": "73527",
    "city": "Hussenhofen"
  },
  {
    "postcode": "73527",
    "city": "Kleindeinbach"
  },
  {
    "postcode": "73527",
    "city": "Lindach"
  },
  {
    "postcode": "73527",
    "city": "Rehnenhof"
  },
  {
    "postcode": "73527",
    "city": "Rehnenhof / Wetzgau"
  },
  {
    "postcode": "73527",
    "city": "Sachsenhof"
  },
  {
    "postcode": "73527",
    "city": "Schwäbisch Gmünd"
  },
  {
    "postcode": "73527",
    "city": "Täferrot"
  },
  {
    "postcode": "73527",
    "city": "Tierhaupten"
  },
  {
    "postcode": "73527",
    "city": "Waldau"
  },
  {
    "postcode": "73527",
    "city": "Wustenriet"
  },
  {
    "postcode": "73527",
    "city": "Zimmern"
  },
  {
    "postcode": "73527",
    "city": "Ostalbkreis"
  },
  {
    "postcode": "73527",
    "city": "Rehnenhof/Wetzgau"
  },
  {
    "postcode": "73527",
    "city": "Wetzgau"
  },
  {
    "postcode": "73527",
    "city": "Utzstetten"
  },
  {
    "postcode": "73527",
    "city": "Buchhof"
  },
  {
    "postcode": "73527",
    "city": "Koppenkreut"
  },
  {
    "postcode": "73529",
    "city": "Bargau"
  },
  {
    "postcode": "73529",
    "city": "Bettringen"
  },
  {
    "postcode": "73529",
    "city": "Degenfeld"
  },
  {
    "postcode": "73529",
    "city": "Herdtlinsweiler"
  },
  {
    "postcode": "73529",
    "city": "Kleinishof"
  },
  {
    "postcode": "73529",
    "city": "Metlangen"
  },
  {
    "postcode": "73529",
    "city": "Oberbettringen"
  },
  {
    "postcode": "73529",
    "city": "Radelstetten"
  },
  {
    "postcode": "73529",
    "city": "Rechberg"
  },
  {
    "postcode": "73529",
    "city": "Reitprechts"
  },
  {
    "postcode": "73529",
    "city": "Sachsenhof"
  },
  {
    "postcode": "73529",
    "city": "Schönbronn"
  },
  {
    "postcode": "73529",
    "city": "Schwäbisch Gmünd"
  },
  {
    "postcode": "73529",
    "city": "Stollenhof"
  },
  {
    "postcode": "73529",
    "city": "Straßdorf"
  },
  {
    "postcode": "73529",
    "city": "Talacker"
  },
  {
    "postcode": "73529",
    "city": "Unterbettringen"
  },
  {
    "postcode": "73529",
    "city": "Weiler"
  },
  {
    "postcode": "73529",
    "city": "Ziegerhof"
  },
  {
    "postcode": "73529",
    "city": "Ostalbkreis"
  },
  {
    "postcode": "73529",
    "city": "Bärenhof"
  },
  {
    "postcode": "73529",
    "city": "Saurenhof"
  },
  {
    "postcode": "73529",
    "city": "Waldstetten"
  },
  {
    "postcode": "73540",
    "city": "Beuren"
  },
  {
    "postcode": "73540",
    "city": "Buch"
  },
  {
    "postcode": "73540",
    "city": "Heubach"
  },
  {
    "postcode": "73540",
    "city": "Heubach (Württemberg)"
  },
  {
    "postcode": "73540",
    "city": "Lautern"
  },
  {
    "postcode": "73540",
    "city": "Ostalbkreis"
  },
  {
    "postcode": "73540",
    "city": "Himmelreich"
  },
  {
    "postcode": "73547",
    "city": "Bruck"
  },
  {
    "postcode": "73547",
    "city": "Hetzenhof"
  },
  {
    "postcode": "73547",
    "city": "Klotzenhof"
  },
  {
    "postcode": "73547",
    "city": "Lorch"
  },
  {
    "postcode": "73547",
    "city": "Lorch (Württemberg)"
  },
  {
    "postcode": "73547",
    "city": "Metzelhof"
  },
  {
    "postcode": "73547",
    "city": "Oberkirneck"
  },
  {
    "postcode": "73547",
    "city": "Rattenharz"
  },
  {
    "postcode": "73547",
    "city": "Schnellhöfle"
  },
  {
    "postcode": "73547",
    "city": "Schwefelhütte"
  },
  {
    "postcode": "73547",
    "city": "Strauben"
  },
  {
    "postcode": "73547",
    "city": "Unterkirneck"
  },
  {
    "postcode": "73547",
    "city": "Waldhausen"
  },
  {
    "postcode": "73547",
    "city": "Weitmars"
  },
  {
    "postcode": "73547",
    "city": "Ostalbkreis"
  },
  {
    "postcode": "73547",
    "city": "Brucker Sägmühle"
  },
  {
    "postcode": "73547",
    "city": "Edenhof"
  },
  {
    "postcode": "73547",
    "city": "Hollenhof"
  },
  {
    "postcode": "73547",
    "city": "Maierhof"
  },
  {
    "postcode": "73547",
    "city": "Reichenhof"
  },
  {
    "postcode": "73547",
    "city": "Sägrainhof"
  },
  {
    "postcode": "73547",
    "city": "Vogelhof"
  },
  {
    "postcode": "73547",
    "city": "Wachthaus"
  },
  {
    "postcode": "73547",
    "city": "Walkersbachertal"
  },
  {
    "postcode": "73550",
    "city": "Bläsishof"
  },
  {
    "postcode": "73550",
    "city": "Hummelshalden"
  },
  {
    "postcode": "73550",
    "city": "Schlatthof"
  },
  {
    "postcode": "73550",
    "city": "Tannweiler"
  },
  {
    "postcode": "73550",
    "city": "Waldstetten"
  },
  {
    "postcode": "73550",
    "city": "Waldstetten (Württemberg)"
  },
  {
    "postcode": "73550",
    "city": "Weilerstoffel"
  },
  {
    "postcode": "73550",
    "city": "Wißgoldingen"
  },
  {
    "postcode": "73550",
    "city": "Ostalbkreis"
  },
  {
    "postcode": "73550",
    "city": "Braunhof"
  },
  {
    "postcode": "73550",
    "city": "Bläsishöfe"
  },
  {
    "postcode": "73550",
    "city": "Bronnforst"
  },
  {
    "postcode": "73550",
    "city": "Edelhof"
  },
  {
    "postcode": "73550",
    "city": "Unterer Zusenhof"
  },
  {
    "postcode": "73550",
    "city": "Oberer Zusenhof"
  },
  {
    "postcode": "73550",
    "city": "Heckenhof"
  },
  {
    "postcode": "73550",
    "city": "Saurenhof"
  },
  {
    "postcode": "73550",
    "city": "Schlangeleshalden"
  },
  {
    "postcode": "73550",
    "city": "Schlatthölzle"
  },
  {
    "postcode": "73550",
    "city": "Tierbachhof"
  },
  {
    "postcode": "73550",
    "city": "Tiergarten"
  },
  {
    "postcode": "73553",
    "city": "Adelstetten"
  },
  {
    "postcode": "73553",
    "city": "Alfdorf"
  },
  {
    "postcode": "73553",
    "city": "Brech"
  },
  {
    "postcode": "73553",
    "city": "Brend"
  },
  {
    "postcode": "73553",
    "city": "Bruckhof"
  },
  {
    "postcode": "73553",
    "city": "Buchengehren"
  },
  {
    "postcode": "73553",
    "city": "Burgholz"
  },
  {
    "postcode": "73553",
    "city": "Deschenhof"
  },
  {
    "postcode": "73553",
    "city": "Enderbach"
  },
  {
    "postcode": "73553",
    "city": "Haselbach"
  },
  {
    "postcode": "73553",
    "city": "Hellershof"
  },
  {
    "postcode": "73553",
    "city": "Hintersteinenberg"
  },
  {
    "postcode": "73553",
    "city": "Höldis"
  },
  {
    "postcode": "73553",
    "city": "Hüttenbühl"
  },
  {
    "postcode": "73553",
    "city": "Kapf"
  },
  {
    "postcode": "73553",
    "city": "Mannholz"
  },
  {
    "postcode": "73553",
    "city": "Mittelweiler"
  },
  {
    "postcode": "73553",
    "city": "Pfahlbronn"
  },
  {
    "postcode": "73553",
    "city": "Rienharz"
  },
  {
    "postcode": "73553",
    "city": "Schillinghof"
  },
  {
    "postcode": "73553",
    "city": "Steinhaus"
  },
  {
    "postcode": "73553",
    "city": "Stixenhof"
  },
  {
    "postcode": "73553",
    "city": "Tannhof"
  },
  {
    "postcode": "73553",
    "city": "Tennhöfle"
  },
  {
    "postcode": "73553",
    "city": "Voggenberg"
  },
  {
    "postcode": "73553",
    "city": "Vordersteinenberg"
  },
  {
    "postcode": "73553",
    "city": "Wahlenheim"
  },
  {
    "postcode": "73553",
    "city": "Rems-Murr-Kreis"
  },
  {
    "postcode": "73553",
    "city": "Birkhof"
  },
  {
    "postcode": "73553",
    "city": "Haselbach-Söldhaus"
  },
  {
    "postcode": "73553",
    "city": "Ölmühle"
  },
  {
    "postcode": "73553",
    "city": "Voggenmühlhöfle"
  },
  {
    "postcode": "73553",
    "city": "Haghof"
  },
  {
    "postcode": "73553",
    "city": "Bonholz"
  },
  {
    "postcode": "73553",
    "city": "Buchengehrener Sägmühle"
  },
  {
    "postcode": "73553",
    "city": "Burgholzer Sägmühle"
  },
  {
    "postcode": "73553",
    "city": "Burgholzhof"
  },
  {
    "postcode": "73553",
    "city": "Döllenhof"
  },
  {
    "postcode": "73553",
    "city": "Dornhalden"
  },
  {
    "postcode": "73553",
    "city": "Fritzhof"
  },
  {
    "postcode": "73553",
    "city": "Gehäuhaus"
  },
  {
    "postcode": "73553",
    "city": "Schölleshof"
  },
  {
    "postcode": "73553",
    "city": "Greuthof"
  },
  {
    "postcode": "73553",
    "city": "Greuthöfle"
  },
  {
    "postcode": "73553",
    "city": "Neuwirtshaus"
  },
  {
    "postcode": "73553",
    "city": "Hafental"
  },
  {
    "postcode": "73553",
    "city": "Haghofer Ölmühle"
  },
  {
    "postcode": "73553",
    "city": "Hagmühle"
  },
  {
    "postcode": "73553",
    "city": "Heinlesmühle"
  },
  {
    "postcode": "73553",
    "city": "Leinhalde"
  },
  {
    "postcode": "73553",
    "city": "Rienharzer Sägmühle"
  },
  {
    "postcode": "73553",
    "city": "Leinecksmühle"
  },
  {
    "postcode": "73553",
    "city": "Maierhof"
  },
  {
    "postcode": "73553",
    "city": "Maierhofer Sägmühle"
  },
  {
    "postcode": "73553",
    "city": "Mannholzer Ölmühle"
  },
  {
    "postcode": "73553",
    "city": "Meuschenmühle"
  },
  {
    "postcode": "73553",
    "city": "Niederheckenhof"
  },
  {
    "postcode": "73553",
    "city": "Pfahlenhof"
  },
  {
    "postcode": "73553",
    "city": "Schmidhöfle"
  },
  {
    "postcode": "73553",
    "city": "Schmidhof"
  },
  {
    "postcode": "73553",
    "city": "Schotthof"
  },
  {
    "postcode": "73553",
    "city": "Kaisersbach"
  },
  {
    "postcode": "73553",
    "city": "Strübelmühle"
  },
  {
    "postcode": "73553",
    "city": "Strübelhof"
  },
  {
    "postcode": "73553",
    "city": "Vaihinghof"
  },
  {
    "postcode": "73553",
    "city": "Voggenberger Sägmühle"
  },
  {
    "postcode": "73553",
    "city": "Voggenbergmühle"
  },
  {
    "postcode": "73557",
    "city": "Mutlangen"
  },
  {
    "postcode": "73557",
    "city": "Pfersbach"
  },
  {
    "postcode": "73557",
    "city": "Ostalbkreis"
  },
  {
    "postcode": "73560",
    "city": "Beiswang"
  },
  {
    "postcode": "73560",
    "city": "Böbingen"
  },
  {
    "postcode": "73560",
    "city": "Böbingen an der Rems"
  },
  {
    "postcode": "73560",
    "city": "Oberböbingen"
  },
  {
    "postcode": "73560",
    "city": "Unterböbingen"
  },
  {
    "postcode": "73560",
    "city": "Ostalbkreis"
  },
  {
    "postcode": "73560",
    "city": "Birkhof"
  },
  {
    "postcode": "73560",
    "city": "Braunhof"
  },
  {
    "postcode": "73560",
    "city": "Gratwohlhof"
  },
  {
    "postcode": "73560",
    "city": "Krausenhof"
  },
  {
    "postcode": "73560",
    "city": "Mahdhof"
  },
  {
    "postcode": "73560",
    "city": "Schelmen"
  },
  {
    "postcode": "73560",
    "city": "Windhof"
  },
  {
    "postcode": "73563",
    "city": "Hermannsfeld Gemeinde Mögglingen"
  },
  {
    "postcode": "73563",
    "city": "Hermannsfeld"
  },
  {
    "postcode": "73563",
    "city": "Mögglingen"
  },
  {
    "postcode": "73563",
    "city": "Sixenhof bei Mögglingen"
  },
  {
    "postcode": "73563",
    "city": "Ostalbkreis"
  },
  {
    "postcode": "73563",
    "city": "Sixenhof"
  },
  {
    "postcode": "73563",
    "city": "Christenhof"
  },
  {
    "postcode": "73563",
    "city": "Gewand Hochwang"
  },
  {
    "postcode": "73563",
    "city": "Gewand Rems"
  },
  {
    "postcode": "73563",
    "city": "Gewand Wert"
  },
  {
    "postcode": "73563",
    "city": "Gollenhof"
  },
  {
    "postcode": "73563",
    "city": "Sternhof"
  },
  {
    "postcode": "73565",
    "city": "Beutenhof"
  },
  {
    "postcode": "73565",
    "city": "Hertighofen"
  },
  {
    "postcode": "73565",
    "city": "Hinterlintal"
  },
  {
    "postcode": "73565",
    "city": "Mooswiese (Ostalb)"
  },
  {
    "postcode": "73565",
    "city": "Mooswiese"
  },
  {
    "postcode": "73565",
    "city": "Spraitbach"
  },
  {
    "postcode": "73565",
    "city": "Vorderlintal"
  },
  {
    "postcode": "73565",
    "city": "Ostalbkreis"
  },
  {
    "postcode": "73565",
    "city": "Stutzenklinge"
  },
  {
    "postcode": "73565",
    "city": "Beutenmühle"
  },
  {
    "postcode": "73565",
    "city": "Ölmühle"
  },
  {
    "postcode": "73566",
    "city": "Amalienhof"
  },
  {
    "postcode": "73566",
    "city": "Äußerer Kitzinghof"
  },
  {
    "postcode": "73566",
    "city": "Bartholomä"
  },
  {
    "postcode": "73566",
    "city": "Innerer Kitzinghof"
  },
  {
    "postcode": "73566",
    "city": "Möhnhof"
  },
  {
    "postcode": "73566",
    "city": "Rötenbach"
  },
  {
    "postcode": "73566",
    "city": "Ostalbkreis"
  },
  {
    "postcode": "73566",
    "city": "Bibersohl"
  },
  {
    "postcode": "73566",
    "city": "Birkenteich"
  },
  {
    "postcode": "73566",
    "city": "Irmannsweiler"
  },
  {
    "postcode": "73566",
    "city": "Äußerer Möhnhof"
  },
  {
    "postcode": "73566",
    "city": "Tannenhof"
  },
  {
    "postcode": "73566",
    "city": "Wental"
  },
  {
    "postcode": "73566",
    "city": "Ziegelhütte"
  },
  {
    "postcode": "73568",
    "city": "Durlangen"
  },
  {
    "postcode": "73568",
    "city": "Tanau"
  },
  {
    "postcode": "73568",
    "city": "Zimmerbach"
  },
  {
    "postcode": "73568",
    "city": "Ostalbkreis"
  },
  {
    "postcode": "73568",
    "city": "Leinhäusle"
  },
  {
    "postcode": "73568",
    "city": "Weggen-Ziegelhütte"
  },
  {
    "postcode": "73568",
    "city": "Gehau"
  },
  {
    "postcode": "73568",
    "city": "Bruckacker"
  },
  {
    "postcode": "73568",
    "city": "Leinmühle"
  },
  {
    "postcode": "73568",
    "city": "Hummelbühl"
  },
  {
    "postcode": "73568",
    "city": "Karrenstrietle"
  },
  {
    "postcode": "73568",
    "city": "Leinhaus"
  },
  {
    "postcode": "73569",
    "city": "Batschenhof"
  },
  {
    "postcode": "73569",
    "city": "Buchhof bei Eschach"
  },
  {
    "postcode": "73569",
    "city": "Eschach"
  },
  {
    "postcode": "73569",
    "city": "Eschach bei Schwäbisch Gmünd"
  },
  {
    "postcode": "73569",
    "city": "Helpertshofen"
  },
  {
    "postcode": "73569",
    "city": "Holzhausen"
  },
  {
    "postcode": "73569",
    "city": "Kemnaten"
  },
  {
    "postcode": "73569",
    "city": "Obergröningen"
  },
  {
    "postcode": "73569",
    "city": "Seifertshofen"
  },
  {
    "postcode": "73569",
    "city": "Vellbach"
  },
  {
    "postcode": "73569",
    "city": "Waldmannshofen"
  },
  {
    "postcode": "73569",
    "city": "Ostalbkreis"
  },
  {
    "postcode": "73569",
    "city": "Buchhof"
  },
  {
    "postcode": "73569",
    "city": "Reute"
  },
  {
    "postcode": "73569",
    "city": "Dietenhalden"
  },
  {
    "postcode": "73569",
    "city": "Götzenmühle"
  },
  {
    "postcode": "73569",
    "city": "Gehrenhof"
  },
  {
    "postcode": "73569",
    "city": "Hagentännle"
  },
  {
    "postcode": "73571",
    "city": "Göggingen (Württemberg)"
  },
  {
    "postcode": "73571",
    "city": "Göggingen"
  },
  {
    "postcode": "73571",
    "city": "Ostalbkreis"
  },
  {
    "postcode": "73571",
    "city": "Mulfingen"
  },
  {
    "postcode": "73571",
    "city": "Horn"
  },
  {
    "postcode": "73571",
    "city": "Horner Mühle"
  },
  {
    "postcode": "73571",
    "city": "Kleemeisterei"
  },
  {
    "postcode": "73572",
    "city": "Brackwang"
  },
  {
    "postcode": "73572",
    "city": "Heuchlingen"
  },
  {
    "postcode": "73572",
    "city": "Heuchlingen (Lein)"
  },
  {
    "postcode": "73572",
    "city": "Holzleuten"
  },
  {
    "postcode": "73572",
    "city": "Mäderhöfe"
  },
  {
    "postcode": "73572",
    "city": "Ostalbkreis"
  },
  {
    "postcode": "73572",
    "city": "Kiart"
  },
  {
    "postcode": "73572",
    "city": "Mäderhof"
  },
  {
    "postcode": "73572",
    "city": "Riedhof"
  },
  {
    "postcode": "73574",
    "city": "Brainkofen"
  },
  {
    "postcode": "73574",
    "city": "Iggingen"
  },
  {
    "postcode": "73574",
    "city": "Schönhardt"
  },
  {
    "postcode": "73574",
    "city": "Ostalbkreis"
  },
  {
    "postcode": "73574",
    "city": "Mühlhölzle"
  },
  {
    "postcode": "73574",
    "city": "Pfaffenhäusle"
  },
  {
    "postcode": "73574",
    "city": "Schafhäusle"
  },
  {
    "postcode": "73575",
    "city": "Leinzell"
  },
  {
    "postcode": "73575",
    "city": "Ölhäuser"
  },
  {
    "postcode": "73575",
    "city": "Ostalbkreis"
  },
  {
    "postcode": "73575",
    "city": "Göggingen"
  },
  {
    "postcode": "73575",
    "city": "Oelhäuser"
  },
  {
    "postcode": "73577",
    "city": "Birkenlohe"
  },
  {
    "postcode": "73577",
    "city": "Hönig"
  },
  {
    "postcode": "73577",
    "city": "Ruppertshofen"
  },
  {
    "postcode": "73577",
    "city": "Ruppertshofen bei Schwäbisch Gmünd"
  },
  {
    "postcode": "73577",
    "city": "Steinenbach"
  },
  {
    "postcode": "73577",
    "city": "Striethof"
  },
  {
    "postcode": "73577",
    "city": "Tonolzbronn"
  },
  {
    "postcode": "73577",
    "city": "Utzstetten"
  },
  {
    "postcode": "73577",
    "city": "Ostalbkreis"
  },
  {
    "postcode": "73577",
    "city": "Heiligenbruck"
  },
  {
    "postcode": "73577",
    "city": "Schilpenbühl"
  },
  {
    "postcode": "73577",
    "city": "Ölmühle"
  },
  {
    "postcode": "73579",
    "city": "Klotzhöfe"
  },
  {
    "postcode": "73579",
    "city": "Leinweiler"
  },
  {
    "postcode": "73579",
    "city": "Schechingen"
  },
  {
    "postcode": "73579",
    "city": "Sebastiansweiler"
  },
  {
    "postcode": "73579",
    "city": "Ostalbkreis"
  },
  {
    "postcode": "73579",
    "city": "Eichhof"
  },
  {
    "postcode": "73579",
    "city": "Haghof"
  },
  {
    "postcode": "73579",
    "city": "Mühlholz"
  },
  {
    "postcode": "73614",
    "city": "Buhlbronn"
  },
  {
    "postcode": "73614",
    "city": "Haubersbronn"
  },
  {
    "postcode": "73614",
    "city": "Mannshaupten"
  },
  {
    "postcode": "73614",
    "city": "Miedelsbach"
  },
  {
    "postcode": "73614",
    "city": "Oberberken"
  },
  {
    "postcode": "73614",
    "city": "Schlichten"
  },
  {
    "postcode": "73614",
    "city": "Schornbach"
  },
  {
    "postcode": "73614",
    "city": "Schorndorf"
  },
  {
    "postcode": "73614",
    "city": "Schorndorf (Württemberg)"
  },
  {
    "postcode": "73614",
    "city": "Unterberken"
  },
  {
    "postcode": "73614",
    "city": "Weiler"
  },
  {
    "postcode": "73614",
    "city": "Wellingshof"
  },
  {
    "postcode": "73614",
    "city": "Rems-Murr-Kreis"
  },
  {
    "postcode": "73614",
    "city": "Urbach"
  },
  {
    "postcode": "73630",
    "city": "Bauersberg"
  },
  {
    "postcode": "73630",
    "city": "Buoch"
  },
  {
    "postcode": "73630",
    "city": "Geradstetten"
  },
  {
    "postcode": "73630",
    "city": "Grunbach"
  },
  {
    "postcode": "73630",
    "city": "Hebsack"
  },
  {
    "postcode": "73630",
    "city": "Kernershof"
  },
  {
    "postcode": "73630",
    "city": "Osterhof"
  },
  {
    "postcode": "73630",
    "city": "Remshalden"
  },
  {
    "postcode": "73630",
    "city": "Rohrbronn"
  },
  {
    "postcode": "73630",
    "city": "Rems-Murr-Kreis"
  },
  {
    "postcode": "73630",
    "city": "Winterbach"
  },
  {
    "postcode": "73630",
    "city": "Beutelsbach"
  },
  {
    "postcode": "73635",
    "city": "Asperglen"
  },
  {
    "postcode": "73635",
    "city": "Klaffenbach"
  },
  {
    "postcode": "73635",
    "city": "Königsbronnhof"
  },
  {
    "postcode": "73635",
    "city": "Krehwinkel"
  },
  {
    "postcode": "73635",
    "city": "Lindental"
  },
  {
    "postcode": "73635",
    "city": "Mannenberg"
  },
  {
    "postcode": "73635",
    "city": "Michelau"
  },
  {
    "postcode": "73635",
    "city": "Necklinsberg"
  },
  {
    "postcode": "73635",
    "city": "Oberndorf"
  },
  {
    "postcode": "73635",
    "city": "Obersteinenberg"
  },
  {
    "postcode": "73635",
    "city": "Rudersberg"
  },
  {
    "postcode": "73635",
    "city": "Rudersberg (Württemberg)"
  },
  {
    "postcode": "73635",
    "city": "Schlechtbach"
  },
  {
    "postcode": "73635",
    "city": "Steinbach"
  },
  {
    "postcode": "73635",
    "city": "Steinenberg"
  },
  {
    "postcode": "73635",
    "city": "Zumhof"
  },
  {
    "postcode": "73635",
    "city": "Rems-Murr-Kreis"
  },
  {
    "postcode": "73635",
    "city": "Edelmannshof"
  },
  {
    "postcode": "73635",
    "city": "Waldenstein"
  },
  {
    "postcode": "73642",
    "city": "Aichstrut"
  },
  {
    "postcode": "73642",
    "city": "Breitenfürst"
  },
  {
    "postcode": "73642",
    "city": "Eberhardsweiler"
  },
  {
    "postcode": "73642",
    "city": "Eselshalden"
  },
  {
    "postcode": "73642",
    "city": "Langenberg"
  },
  {
    "postcode": "73642",
    "city": "Lettenstich"
  },
  {
    "postcode": "73642",
    "city": "Schafhof"
  },
  {
    "postcode": "73642",
    "city": "Seiboldsweiler"
  },
  {
    "postcode": "73642",
    "city": "Steinbruck"
  },
  {
    "postcode": "73642",
    "city": "Taubenhof"
  },
  {
    "postcode": "73642",
    "city": "Vorderhundsberg"
  },
  {
    "postcode": "73642",
    "city": "Welzheim"
  },
  {
    "postcode": "73642",
    "city": "Rems-Murr-Kreis"
  },
  {
    "postcode": "73642",
    "city": "Eibenhof"
  },
  {
    "postcode": "73642",
    "city": "Köshof"
  },
  {
    "postcode": "73642",
    "city": "Klingenmühlhöfle"
  },
  {
    "postcode": "73642",
    "city": "Schautenhof"
  },
  {
    "postcode": "73642",
    "city": "Birkachhof"
  },
  {
    "postcode": "73642",
    "city": "Eckartsweiler"
  },
  {
    "postcode": "73642",
    "city": "Eierhof"
  },
  {
    "postcode": "73642",
    "city": "Gausmannsweiler"
  },
  {
    "postcode": "73642",
    "city": "Leinhalde"
  },
  {
    "postcode": "73642",
    "city": "Klingenmühle"
  },
  {
    "postcode": "73642",
    "city": "Laufenmühle"
  },
  {
    "postcode": "73642",
    "city": "Neuhof"
  },
  {
    "postcode": "73642",
    "city": "Bausche"
  },
  {
    "postcode": "73650",
    "city": "Engelberg"
  },
  {
    "postcode": "73650",
    "city": "Manolzweiler"
  },
  {
    "postcode": "73650",
    "city": "Winterbach"
  },
  {
    "postcode": "73650",
    "city": "Winterbach bei Schorndorf Württemberg"
  },
  {
    "postcode": "73650",
    "city": "Winterbach bei Schorndorf"
  },
  {
    "postcode": "73650",
    "city": "Rems-Murr-Kreis"
  },
  {
    "postcode": "73650",
    "city": "Schorndorf"
  },
  {
    "postcode": "73655",
    "city": "Alfdorf"
  },
  {
    "postcode": "73655",
    "city": "Bärenbach (Württemberg)"
  },
  {
    "postcode": "73655",
    "city": "Bärenbach"
  },
  {
    "postcode": "73655",
    "city": "Eulenhof bei Plüderhausen"
  },
  {
    "postcode": "73655",
    "city": "Ilgenhof bei Plüderhausen"
  },
  {
    "postcode": "73655",
    "city": "Plüderhausen"
  },
  {
    "postcode": "73655",
    "city": "Plüderwiesenhof"
  },
  {
    "postcode": "73655",
    "city": "Walkersbach"
  },
  {
    "postcode": "73655",
    "city": "Rems-Murr-Kreis"
  },
  {
    "postcode": "73655",
    "city": "Eulenhof"
  },
  {
    "postcode": "73655",
    "city": "Haldenhof"
  },
  {
    "postcode": "73655",
    "city": "Haselhof"
  },
  {
    "postcode": "73655",
    "city": "Ilgenhof"
  },
  {
    "postcode": "73655",
    "city": "Pfahlbronner Mühle"
  },
  {
    "postcode": "73655",
    "city": "Schenkhöfle"
  },
  {
    "postcode": "73655",
    "city": "Aichenbachhof"
  },
  {
    "postcode": "73655",
    "city": "Gemeinde Urbach"
  },
  {
    "postcode": "73660",
    "city": "Hegnauhof"
  },
  {
    "postcode": "73660",
    "city": "Oberurbach"
  },
  {
    "postcode": "73660",
    "city": "Unterurbach"
  },
  {
    "postcode": "73660",
    "city": "Urbach (Rems)"
  },
  {
    "postcode": "73660",
    "city": "Urbach"
  },
  {
    "postcode": "73660",
    "city": "Rems-Murr-Kreis"
  },
  {
    "postcode": "73663",
    "city": "Berglen (Württemberg)"
  },
  {
    "postcode": "73663",
    "city": "Berglen"
  },
  {
    "postcode": "73663",
    "city": "Birkenweißbuch"
  },
  {
    "postcode": "73663",
    "city": "Bretzenacker"
  },
  {
    "postcode": "73663",
    "city": "Drexelhof"
  },
  {
    "postcode": "73663",
    "city": "Hößlinswart"
  },
  {
    "postcode": "73663",
    "city": "Kieselhof"
  },
  {
    "postcode": "73663",
    "city": "Kottweil"
  },
  {
    "postcode": "73663",
    "city": "Lehnenberg"
  },
  {
    "postcode": "73663",
    "city": "Linsenhof"
  },
  {
    "postcode": "73663",
    "city": "Oberweiler"
  },
  {
    "postcode": "73663",
    "city": "Ödernhardt"
  },
  {
    "postcode": "73663",
    "city": "Oppelsbohm"
  },
  {
    "postcode": "73663",
    "city": "Öschelbronn"
  },
  {
    "postcode": "73663",
    "city": "Reichenbach"
  },
  {
    "postcode": "73663",
    "city": "Rettersburg"
  },
  {
    "postcode": "73663",
    "city": "Spechtshof"
  },
  {
    "postcode": "73663",
    "city": "Steinach"
  },
  {
    "postcode": "73663",
    "city": "Stöckenhof"
  },
  {
    "postcode": "73663",
    "city": "Streich"
  },
  {
    "postcode": "73663",
    "city": "Vorderweißbuch"
  },
  {
    "postcode": "73663",
    "city": "Rems-Murr-Kreis"
  },
  {
    "postcode": "73663",
    "city": "Erlenhof"
  },
  {
    "postcode": "73666",
    "city": "Baltmannsweiler"
  },
  {
    "postcode": "73666",
    "city": "Hohengehren"
  },
  {
    "postcode": "73666",
    "city": "Esslingen"
  },
  {
    "postcode": "73667",
    "city": "Brandhöfle"
  },
  {
    "postcode": "73667",
    "city": "Bruch"
  },
  {
    "postcode": "73667",
    "city": "Cronhütte"
  },
  {
    "postcode": "73667",
    "city": "Ebersberg"
  },
  {
    "postcode": "73667",
    "city": "Ebni"
  },
  {
    "postcode": "73667",
    "city": "Eulenhof"
  },
  {
    "postcode": "73667",
    "city": "Gausmannsweiler"
  },
  {
    "postcode": "73667",
    "city": "Gebenweiler"
  },
  {
    "postcode": "73667",
    "city": "Gebenweiler-Gehren"
  },
  {
    "postcode": "73667",
    "city": "Gmeinweiler"
  },
  {
    "postcode": "73667",
    "city": "Hägerhof"
  },
  {
    "postcode": "73667",
    "city": "Kaisersbach"
  },
  {
    "postcode": "73667",
    "city": "Kaisersbach im Welzheimer Wald"
  },
  {
    "postcode": "73667",
    "city": "Killenhof"
  },
  {
    "postcode": "73667",
    "city": "Menzles"
  },
  {
    "postcode": "73667",
    "city": "Mönchhof"
  },
  {
    "postcode": "73667",
    "city": "Schadberg"
  },
  {
    "postcode": "73667",
    "city": "Schmalenberg"
  },
  {
    "postcode": "73667",
    "city": "Strohhof"
  },
  {
    "postcode": "73667",
    "city": "Weidenbach"
  },
  {
    "postcode": "73667",
    "city": "Weidenhof"
  },
  {
    "postcode": "73667",
    "city": "Wiesensteighof"
  },
  {
    "postcode": "73667",
    "city": "Rems-Murr-Kreis"
  },
  {
    "postcode": "73667",
    "city": "Ebnisee"
  },
  {
    "postcode": "73667",
    "city": "Ebersbergmühle"
  },
  {
    "postcode": "73667",
    "city": "Fratzenklingenhof"
  },
  {
    "postcode": "73667",
    "city": "Fratzenwiesenhof"
  },
  {
    "postcode": "73667",
    "city": "Gallenhöfle"
  },
  {
    "postcode": "73667",
    "city": "Grairich"
  },
  {
    "postcode": "73667",
    "city": "Grasgehren"
  },
  {
    "postcode": "73667",
    "city": "Höfenäckerle"
  },
  {
    "postcode": "73667",
    "city": "Heppichgehren"
  },
  {
    "postcode": "73667",
    "city": "Kaltenbronnhof"
  },
  {
    "postcode": "73667",
    "city": "Kellerklinghöfle"
  },
  {
    "postcode": "73667",
    "city": "Menzlesmühle"
  },
  {
    "postcode": "73667",
    "city": "Rotbachhöfle"
  },
  {
    "postcode": "73667",
    "city": "Rotenmad"
  },
  {
    "postcode": "73667",
    "city": "Silberhäusle"
  },
  {
    "postcode": "73667",
    "city": "Spatzenhof"
  },
  {
    "postcode": "73667",
    "city": "Sägbühl"
  },
  {
    "postcode": "73669",
    "city": "Hegenlohe"
  },
  {
    "postcode": "73669",
    "city": "Lichtenwald (Württemberg)"
  },
  {
    "postcode": "73669",
    "city": "Lichtenwald"
  },
  {
    "postcode": "73669",
    "city": "Thomashardt"
  },
  {
    "postcode": "73669",
    "city": "Esslingen"
  },
  {
    "postcode": "73728",
    "city": "Esslingen am Neckar"
  },
  {
    "postcode": "73728",
    "city": "Stadtmitte"
  },
  {
    "postcode": "73728",
    "city": "Esslingen"
  },
  {
    "postcode": "73730",
    "city": "Esslingen am Neckar"
  },
  {
    "postcode": "73730",
    "city": "Kimmichsweiler"
  },
  {
    "postcode": "73730",
    "city": "Oberesslingen"
  },
  {
    "postcode": "73730",
    "city": "Sirnau"
  },
  {
    "postcode": "73730",
    "city": "Zell"
  },
  {
    "postcode": "73730",
    "city": "Esslingen"
  },
  {
    "postcode": "73730",
    "city": "Oberhof"
  },
  {
    "postcode": "73730",
    "city": "Stadtmitte"
  },
  {
    "postcode": "73732",
    "city": "Esslingen am Neckar"
  },
  {
    "postcode": "73732",
    "city": "Hegensberg"
  },
  {
    "postcode": "73732",
    "city": "Hohenkreuz"
  },
  {
    "postcode": "73732",
    "city": "Kennenburg"
  },
  {
    "postcode": "73732",
    "city": "Liebersbronn"
  },
  {
    "postcode": "73732",
    "city": "Obertal"
  },
  {
    "postcode": "73732",
    "city": "Sankt Bernhardt"
  },
  {
    "postcode": "73732",
    "city": "Serach"
  },
  {
    "postcode": "73732",
    "city": "Stadtmitte"
  },
  {
    "postcode": "73732",
    "city": "Wäldenbronn"
  },
  {
    "postcode": "73732",
    "city": "Wiflingshausen"
  },
  {
    "postcode": "73732",
    "city": "Esslingen"
  },
  {
    "postcode": "73732",
    "city": "St. Bernhardt"
  },
  {
    "postcode": "73733",
    "city": "Brühl"
  },
  {
    "postcode": "73733",
    "city": "Esslingen am Neckar"
  },
  {
    "postcode": "73733",
    "city": "Krummenacker"
  },
  {
    "postcode": "73733",
    "city": "Mettingen"
  },
  {
    "postcode": "73733",
    "city": "Neckarhalde"
  },
  {
    "postcode": "73733",
    "city": "Rüdern"
  },
  {
    "postcode": "73733",
    "city": "Sulzgries"
  },
  {
    "postcode": "73733",
    "city": "Esslingen"
  },
  {
    "postcode": "73733",
    "city": "Stuttgart"
  },
  {
    "postcode": "73733",
    "city": "Weil"
  },
  {
    "postcode": "73734",
    "city": "Berkheim"
  },
  {
    "postcode": "73734",
    "city": "Esslingen am Neckar"
  },
  {
    "postcode": "73734",
    "city": "Pliensauvorstadt"
  },
  {
    "postcode": "73734",
    "city": "Zollberg"
  },
  {
    "postcode": "73734",
    "city": "Esslingen"
  },
  {
    "postcode": "73760",
    "city": "Kemnat"
  },
  {
    "postcode": "73760",
    "city": "Nellingen"
  },
  {
    "postcode": "73760",
    "city": "Nellingen-Parksiedlung"
  },
  {
    "postcode": "73760",
    "city": "Ostfildern"
  },
  {
    "postcode": "73760",
    "city": "Ruit"
  },
  {
    "postcode": "73760",
    "city": "Scharnhausen"
  },
  {
    "postcode": "73760",
    "city": "Scharnhauser Park"
  },
  {
    "postcode": "73760",
    "city": "Esslingen"
  },
  {
    "postcode": "73765",
    "city": "Neuhausen auf den Fildern"
  },
  {
    "postcode": "73765",
    "city": "Esslingen"
  },
  {
    "postcode": "73770",
    "city": "Denkendorf (Württemberg)"
  },
  {
    "postcode": "73770",
    "city": "Denkendorf"
  },
  {
    "postcode": "73770",
    "city": "Esslingen"
  },
  {
    "postcode": "73773",
    "city": "Aichschieß"
  },
  {
    "postcode": "73773",
    "city": "Aichwald (Schurw.)"
  },
  {
    "postcode": "73773",
    "city": "Aichwald"
  },
  {
    "postcode": "73773",
    "city": "Krummhardt"
  },
  {
    "postcode": "73773",
    "city": "Lobenrot"
  },
  {
    "postcode": "73773",
    "city": "Schanbach"
  },
  {
    "postcode": "73773",
    "city": "Esslingen"
  },
  {
    "postcode": "73773",
    "city": "Aichelberg"
  },
  {
    "postcode": "73776",
    "city": "Altbach (Württemberg)"
  },
  {
    "postcode": "73776",
    "city": "Altbach"
  },
  {
    "postcode": "73776",
    "city": "Esslingen"
  },
  {
    "postcode": "73779",
    "city": "Deizisau"
  },
  {
    "postcode": "73779",
    "city": "Esslingen"
  }
]